ZCZC 000
SMCI10 BENJ 240000
AAXX 24001
52889 32970 70000 10224 20128 38420 49990 52012 8703/ 333 05303=
57000 36/// ///// 10205 20161 38765 4//// 52003
555 10000 20197 30128 41011 51111 6//// 7//// 80000 ///// 1/128 2//00
30003=
52652 32980 71602 10208 20116 38447 49995 52003 86072 333 05204=
53915 32980 72903 10200 20147 38597 40024 52008 81042 333
05100=
56080 32970 70000 10118 20100 37159 52001 86032 333 05201=
56096 32780 70000 10247 20172 38857 40002 52008 875// 333
05202=
70081=
53977 36/// ///// 1//// 2//// 39882 4//// 52006
555 1//// 2//// 30129 40001 50010 60/// 7//// 80000
9//// ///// 1/130 2//00 30000=
52378 32780 70000 10261 20035 49994 52012 879// 333 05105=
52787 32780 71803 10122 20042 37046 52005 82502 333 05102=
57006 32770 70000 10214 20169 40017 52003 875// 333 05200=
57016 32968 80000 10228 20175 40035 52013 8807/ 333   00051=
52740 16/// /2105 10038 29081 36893 60000
555 1/131 2//00 /////=
52866 32668 70000 10143 20108 37699 52011 85502 333 05203=
51156 32780 10000 10129 20084 38679 40096 52005 81102 333
00102 79999=
51431 32780 70000 10155 20129 39361 40110 54000 874// 333
00254 70006=
51656 32780 70203 10257 20046 39021 40023 52008 87402 333
00005 79999=
51709 32960 12701 10209 20118 38676 40042 52015 80002 333
00353=
52203 32780 73406 10241 20113 39225 40029 52022 82132 333
00206=
53889 70820=
53985 70050=
57056 70160=
57066 70020=
57067 70020=
57070 70950=
57074 70030=
57098 70030=
57171 70040=
57285 70020=
57396 70010=
58005 70110=
51379 11780 21802 10157 20137 40109 57003 69901 70080 82400
333 00152 79999=
57957 11464 81801 10243 20236 39808 49996 52007 60021 78080 889//
333 05152 70850=
59117 32565 70000 10276 20249 39943 40045 52006 81142 333
05151 70127=
59211 11420 82201 10248 20244 39801 40001 52006 60321 76366
8772/ 333 00052 70525=
59265 31758 80202 10269 20254 39883 40014 52005 71000 885//
333 05252=
59287 32563 71802 10295 20266 39989 40039 52005 87202 333XX
05200 79999 =
59316 32470 72205 10298 20260 30039 40048 52005 879// 333
05100 70009=
59431 11570 82502 10259 20240 39922 40005 52001 60101 72598
889// 333 00054 70102=
59644 32575 72007 10306 20259 39999 40014 52007 83942 333
05100=
59758 32470 71803 10278 20250 30011 40032 52005 81102 333
05152 70134=
58144 32562 70402 10268 20254 39986 40007 52003 8354/ 333
05101 70034=
58362 11465 83603 10266 20258 39978 49988 52008 60151 76066
8772/ 333 05352 70461=
58633 11456 82501 10251 20242 39942 40019 52010 60011 76060
8357/ 333 00100 70802=
54337 11456 80000 10212 20207 39986 40067 52004 60111 76160
8572/ 333 05101 70113=
54471 32760 71103 10237 20199 30058 40063 52002 875// 333
05100 79999=
54497 32970 70403 10237 20195 30075 40089 57001 80002 333
00002=
52378 32780 70000 10261 20035 49994 52012 879// 333 05105=
52787 32780 71803 10122 20042 37046 52005 82502 333 05102=
57006 32770 70000 10214 20169 40017 52003 875// 333 05200=
57016 32968 80000 10228 20175 40035 52013 8807/ 333 00051=
50632 32580 70000 10203 20180 39283 40117 52003 86202 333//
00005 79999=
54511 11956 23602 10237 20211 39994 40031 52001 60321 71098
80002 333 05200 70637=
59023 11459 80000 10254 20248 39754 49992 52005 60021 76060
887// 333 05201 70157=
59293 31563 81401 10278 20256 39988 40034 52009 70090
889// 333 05151 70058=
59417 11473 80000 10254 20247 39866 40012 52003 60131 78098
889// 333 00053 70131=
59501 11570 72202 10281 20271 30036 40052 52006 60061 72580
85600 333 05151 70059=
59838 32980 71805 10303 20247 30023 40032 52004 80002 333
05151=
59948 32577 70701 10294 20266 30046 40054 52002 83102 333
05100=
58361 11459 73203 10265 20258 49989 52010 60202 71060 8377/
333 70739=
58365 12565 73602 10277 20255 49990 52007 60062 8613/ 333
70314=
333 00002=
58366 12465 73604 10267 20256 49989 52008 60092 878// 333
70105=
58463 11457 82704 10260 20254 49988 52011 60102 78098 889//
333 71346=
58369 11558 82702 10266 20260 49984 52009 60052 79598 889//
333 70123=
58462 11456 83202 10261 20257 49990 52010 60042 72186 8672/
333 70726=
58457 11957 72002 10277 20249 39954 40002 52004 69921 71080
86062 333 00003 70106=
58457 11957 72002 10277 20249 39954 40002 52004 69921 71080
86062 333 00003 70106=
58364 11415 82902 10264 20263 49985 52006 60702 79598 889//
333 71042=
58562 11958 82502 10278 20248 49994 52006 69901 72580 8807/
333 05202 70334=
58562 11958 82502 10278 20248 49994 52006 69901 72580 8807/
333 05202 70334=
58122 11570 70403 10268 20247 40018 52009 69991 70060 875//
333 00100 70009=
58203 31930 80402 10268 20257 39976 40016 52008 71000 8807/
333 00100=
58215 31657 70403 10277 20259 40013 52009 71000 875// 333
00101=
58424 31958 72201 10277 20262 39987 40009 52010 71000 8707/
333 00101 70453=
58221 31656 70402 10274 20254 39982 40015 52002 71000 875//
333 00101 70002=
58437 31/00 92703 10171 20169 38114 52006 74540 333 00151
70398=
58531 32660 81402 10249 20243 40018 52010 885// 333 00100
70137=
59046 11468 81802 10253 0240 40003 52005 69931 76080 888//
333 05154 70497=
59058 11420 80702 10240 20237 40012 52002 60841 78198 889//
333 05153 71305=
59072 11670 83401 10257 20248 40012 52005 69901 78000 884//
333 05155 70237=
59087 32562 72205 10303 20254 40028 52004 86242 333 05201
79999=
59096 11568 80000 10256 20239 40037 52005 69911 78080 884//
333 05153 70096=
59209 11340 80000 10223 20219 40029 52010 60281 78088
889// 333 00153 70464=
59254 11565 82501 10252 20245 40009 52002 60621 79598 889//
333 05154 70741=
59278 32575 71802 10295 20259 40025 52006 82142 333 05200=
59456 32580 72002 10288 20248 40018 52004 874// 333 05100
79999=
59493 32573 72202 10298 20252 40042 52002 874// 333 05200=
59632 32572 72004 10302 20275 40008 52005 82962 333 05100=
59647 32580 72209 10302 20258 40011 52003 81942 333 05200
91118 91518=
59658 32968 72204 10302 20253 40023 52004 81042 333 05100=
59673 32573 72006 10292 20264 40039 52006 84202 333 05100=
59845 32580 73404 10289 20225 40036 52006 8116/ 333 05100=
59855 32575 72004 10286 20258 40042 52001 81102 333 05151=
52533 11980 12701 10199 20113 38471 40025 52021 69901 70060
80002 333 00001 79999=
57127 31959 70000 10251 20228 39463 40026 52012 71000 8703/
333   00101=
57046 32970 70903 10198 20099 37920 52007 82032 333 00003=
57265 31915 80702 10264 20241 39929 40032 52008 71000 8807/
333 00200=
57461 31958 82901 10253 20240 39860 40013 52007 71000 8807/
333 00000 70032=
57494 32965 70401 10277 20260 39982 40010 52012 8704/ 333
00002 70088=
57687 11330 80000 10254 20251 39919 49993 52009 60011 78080
889// 333 00151 70058=
58102 31940 80203 10263 20250 39975 40022 52013 71000 8802/
333 00151 79999=
58221 31656 70402 10274 20254 39982 40015 52002 71000 875//
333 00101 70002=
51468 16/// /3600 11714 29004 35487 60001
555 1/000 2//00 /////=
52681 32980 72903 10234 20086 38554 49984 52004 80002 333 05205=
52713 32980 00000 10119 20005 36928 52007 333   00004
30034=
53845 31957 02201 10222 20195 38995 40030 52007 71000 333 00051=
56046 11575 80702 10047 20034 36300 52007 60071 76086
8272/ 333   05200 70093=
57245 32963 83401 10243 20225 39716 40043 52011 8807/ 333
00100 79999=
45004 11468 71903 10291 20259 39971 40045 53006 69902
72582 85232  333  20283 50540 59012 79999 82811 83820
86080 =
58238 31556 73604 10287 20258 39989 40004 52002 71000 82140
333 00002=
58457 11957 72002 10277 20249 39954 40002 52004 69921 71080
86062 333 00003 70106=
58847 32663 72202 10290 20251 39935 40031 52008 81542 333 05100=
59134 32470 72201 10281 20249 39899 40055 52011 81142 333
05151=
58345 31958 82001 10272 20259 40003 52004 71000 8807/ 333
00000 70080=
58543 11570 82201 10257 20250 39817 40012 52009 69951 70080
8677/ 333 00100 70256=
58556 11965 70000 10266 20249 40006 52004 69931 72580 8706/
333 05102 70160=
58569 32968 72504 10278 20260 49995 52003 87032 333 05203
70030=
58646 11670 80000 10265 20248 40012 52005 69961 70060 885//
333 05101 70051=
58834 32968 71801 10264 20243 40034 52011 8704/ 333 05151
79999=
58926 32765 70401 10272 20239 40041 52006 875// 333 05100=
58944 32465 72008 10282 20257 40041 52007 8613/ 333 05100=
53646 32973 10000 10209 20172 38891 40031 52010 80002 333 00001=
54662 11376 81608 10225 20207 39943 40058 5204 69901 70060
8662/ 333 00000 70001=
58138 32960 63601 10273 20256 40001 52003 86040 333 05102
70096=
58259 11565 70203 10267 20254 49995 52005 69911 72160 875//
333 05251 70424=
58343 31558 70402 10276 20252 49996 57001 71000 8723/ 333
00002 70006=
58358 32561 82902 10277 20252 49990 52005 8757/ 333 05102
70124=
58464 11550 73203 10268 20257 49991 52009 60051 71060 8354/
333 05151 70259=
58549 11760 72703 10261 20247 40013 52007 69901 70060 8754/
333 00001 70260=
58562 11958 82502 10278 20248 49994 52006 69901 72580 8807/
333 05202 70334=
58665 11940 82702 10278 20254 49996 52001 69971 71060 8807/
333 05202 70024=
58667 32962 72705 10271 20265 40002 52003 8703/ 333 05102
70005=
58606 11460 80902 10255 20254 39950 40002 52004 60891 78098
889// 333// 00051 71393=
52436 32980 11403 10188 20074 38416 40012 52012 80002 333 00002
79999=
52996 32980 71405 10163 20103 37556 52005 8704/ 333 05202=
53502 32970 20000 10241 20121 40001 52008 80002 333 05203=
53923 31915 31402 10204 20186 40022 52008 72840 81042 333 00000=
56065 11680 70000 10080 20068 36661 52005 69981 70060
875// 333   05203 70008=
53463 32970 00000 10203 20159 38880 40040 52004 333 00000
70174=
53513 32970 10000 10226 20123 38885 49996 52007 81030 333
05203=
53588 31980 00000 10158 20076 37775 52003 70040 333 00002
79999=
54218 11650 80000 10199 20193 39411 40051 57002 60161 78188
889// 333 05200 70176=
54401 31656 12002 10195 20181 39245 40056 52002 71000 81100
333// 00000 70064=
54823 31950 80901 10247 20223 39967 40033 52013 71000 8807/
333 00051 79999=
51133 32680 63602 10152 20122 39488 40098 52009 83442 333
00101 70006=
51243 32880 63403 10227 20094 39560 40069 52001 86902 333
00002 70245=
51463 32980 60000 10174 20132 39078 40100 57003 86060 333
00151 70001=
51573 32880 70904 10266 20135 39989 40031 52021 82462 333
00251 79999=
51644 32680 70000 10174 20125 38870 40051 52010 85962 333
00151 79999=
51716 32965 20000 10189 20136 38837 40030 52009 82060 333
00353 79999=
51828 11860 71602 10235 20092 38568 40014 57001 69901 70060
81532 333 00100 79999=
51848 31859 70201 10242 20087 38683 40007 52015 70600 875//
333 00405=
58472 11359 82506 10266 20258 39894 49986 52002 60171 72598
8517/ 333 05402 70267=
58477 11468 72701 10272 20251 39944 49986 52002 69941 70060
8314/ 333 05300 70088=
58666 11250 82010 10255 20254 39897 49993 57004 69951 72580
888// 333 05200 70009=
58725 11761 80000 10266 20253 39809 40025 52011 69951 76000
885// 333 00051 70005=
58760 11559 82004 10267 20259 40009 52004 69901 71080 8117/
333 05101 79999=
58921 11663 81805 10284 20228 39804 40034 52016 69901 76000
8757/ 333 00000 79999=
57083 31950 03602 10255 20223 39910 40037 52003 71000 333//
00152 79999=
53723 32980 41601 10200 20124 38595 40021 52007 80002 333
05101=
58251 32566 70703 10271 20253 39992 49998 52005 8654/ 333
05100 79999=
53673 32960 10901 10191 20166 40054 52009 81030 333// 00153
70205=
53698 31920 70000 10245 20220 40040 52002 71000 80002 333//
05100 70007=
53787 32965 00000 10193 20166 40059 52007 333// 00051 70005=
53898 31958 80202 10240 20228 40042 52005 71000 8807/ 333//
00153 70001=
54308 32662 30901 10210 20184 40047 52005 83502 333// 05100
70164=
54527 32965 23602 10245 20212 40032 52006 82040 333 05251
70027=
54602 31558 82201 10245 20224 40040 52004 71000 85607 333//
05151 79999=
54725 11560 81401 10258 20241 40027 52005 69931 70086 83107
333// 00000 70017=
54751 32962 71406 10231 20215 40043 52006 8703/ 333// 00001=
54916 11960 63603 10244 20226 40032 52009 60051 70080 86040
333// 00151 70045=
53614 32980 31801 10213 20142 38829 40021 52008 80002 333
05102=
57036 32962 70403 10239 20221 39593 40036 52012 8703/
333 00152 79999=
53705 32980 60902 10214 20139 40011 52006 80002 333 05204=
52836 32780 10000 10129 20062 36920 52005 81500 333
00002 70001=
56021 32680 82903 10061 20039 36125 52003 889// 333
00151 70088=
52908 32980 10000 10002 21011 35828 52001 80002 333
00153 31023 70073=
57059 36/// /0000 10225 20206 39582 40038 52010
555 10020 20241 30125 41111 51111 61/// 7//// 80000
90247 ///// 1/125 2//00 30000=
51467 32980 20000 10142 20051 38247 52004 80002 333 00200
70001=
51542 32680 62501 10024 20011 37576 54000 82402 333 00256
31007 70005=
51711 32980 12202 10130 20095 38002 54000 80002 333 00100
79999=
51730 11675 20000 10153 20140 40055 57003 60031 70098 81462
333 00255 70040=
51818 32865 72902 10228 20064 40017 52006 84532 333 00151
79999=
00000 36/// ///// 1//// 2//// 39079 4//// 5////
555 1//// 2//// 30132 40001 50010 6//// 7//// 80000 ///// 1/000 2//00
30000=
59663 32480 72204 10283 20255 30009 40036 52008 874// 333
05151=
59995 32480 42004 10296 20243 30077 40085 52011 82202 333 05000=
57399 32962 73602 10275 20250 40016 52010 8704/ 333 00101 70029=
57476 11457 80402 10254 20250 40012 52011 60071 72166 8172/
333 00100 71029=
58321 31656 73603 10277 20255 40002 52005 71000 8254/ 333
00100 79999=
58506 11/68 81602 10202 20198 40033 52010 69931 72164 888//
333 00151 70064=
58715 11350 81803 10266 20250 40012 52019 60011 76060 8657/
333 00052 70012=
50527 32670 50705 10214 20170 39409 40098 54000 83530 333//
00002 70009=
50727 11580 70903 10182 20131 38954 40092 57001 69901 70080
85931 333// 00001 79999=
53564 32970 00000 10222 20169 39088 40026 52005 333// 00051=
53798 31940 70202 10244 20225 39948 40037 52003 71000 80002
333// 00052 70055=
53959 32960 00203 10247 20213 39615 40036 52013 333// 00153
70004=
54423 11556 80000 10205 20200 39623 40050 57003 60201 76186
8372/ 333// 05252 70375=
54618 31759 73202 10240 20231 30019 40036 52004 71000 875//
333// 00051 70008=
54843 11662 81403 10245 20238 30004 40030 54000 60211 79598
889// 333// 05100 70422=
54909 31958 80203 10257 20244 39967 40026 52004 71000 8807/
333// 00151 79999=
52754 11575 80706 10073 20045 36839 52010 69901 76000
887// 333   00051 79999=
52818 32980 02703 10137 20032 37245 52011 333   00100
30045=
56018 11480 70401 10085 20071 36221 52009 69901 70080 875//
333 00000 70023=
52737 32980 00000 10135 20060 37099 52008 333   00001=
50468 31958 33201 10196 20185 39951 40146 52005 71040 80002
333 00151=
58659 11765 70000 10278 20256 39979 40012 52006 69911 70060
875// 333 05102 70002=
58660 11765 70000 10273 20253 49998 57001 69921 70080 8554/
333 05202 70011=
50557 32962 10902 10226 20189 39848 40128 52004 80002 333
00101=
50756 32970 20903 10235 20182 39851 40127 52003 80002 333
00101=
50788 32970 21403 10242 20179 30064 40139 52004 80002 333
00151=
50949 32965 01102 10250 21214 39937 40093 52001 333 00001=
50963 32960 00707 10226 20188 39988 40116 52003 333 00051=
50978 32662 80402 10193 20174 39861 40138 52007 885// 333
00151=
54161 32570 11402 10243 20202 39820 40092 52002 81130 333
00002=
54236 31650 71102 10237 20208 39980 40077 52001 71040 86502
333 00002 70007=
54292 32570 70703 10177 20144 39929 40139 52007 878// 333
00100=
54374 32560 70000 10209 20179 39722 40105 52001 875// 333
00000=
58813 11661 81602 10270 20244 40009 52013 69961 78080 8647/
333 05152 70006=
51334 32980 50000 10179 20141 40091 52003 85062 333 00052
79999=
54342 32965 60704 10244 20206 30019 40078 52001 80002 333
00003 70008=
58040 11660 81104 10264 20250 30006 40010 57001 60021 70060
885// 333 05152 70016=
58265 11580 70904 10273 20256 39975 49987 52002 69921 72580
8744/ 333 05351 70012=
57799 11970 82004 10295 20240 39916 40003 52006 69901 70060
8807/ 333 05100 79999=
57866 11680 81803 10253 20239 39800 49996 52011 60141 78088
889// 333 05155 70246=
57993 11968 72502 10287 20228 39883 40023 52007 69901 70060
8704/ 333 05151 79999=
58203 31930 80402 10268 20257 39976 40016 52008 71000 8807/
333 00100=
58314 11662 82902 10270 20255 39927 40009 52008 69901 72100
885// 333 00100 70005=
56294 31958 70000 10258 20237 39451 40009 52008 71000 8703/
333 05100=
56492 32962 12003 10273 20237 39617 49994 52005 81040 333
05102=
56571 32670 70000 10197 20176 38356 52004 878// 333 05100
70021=
56651 11470 81103 10159 20151 37606 52005 60011 70080 884//
333 00051 70038=
56778 32560 82701 10188 20171 38063 54000 884// 333 00000
70050=
56951 11568 80000 10203 20197 38449 52005 60011 78080 889//
333 00000 70090=
57328 31957 70403 10260 20236 39616 49998 52011 71000 82041
333 00101=
57411 31912 70000 10266 20260 39655 49998 52012 71000 81042
333 00100=
57516 31920 00201 10260 20243 39705 49995 52008 71000 333
00100 79999=
57816 31658 71401 10227 20214 38844 40002 52004 71000 8254/
333// 00001 70116=
58527 11320 83601 10253 20252 39946 40018 52010 60031 76160
8772/ 333 00100 70498=
51288 32680 11102 10131 20071 38317 52001 81462 333 00151=
51811 31950 70000 10190 20119 38716 40022 52012 70600 83032
333 00154 79999=
59102 11563 71602 10268 20237 40024 52008 69921 70080 8683/
333 05151 70007=
57006 32770 70000 10214 20169 40017 52003 875// 333 05200=
57016 32968 80000 10228 20175 40035 52013 8807/ 333 00051=
57461 31958 82901 10253 20240 39860 40013 52007 71000 8807/
333 00000 70032=
58102 31940 80203 10263 20250 39975 40022 52013 71000 8802/
333 00151 79999=
58314 11662 82902 10270 20255 39927 40009 52008 69901 72100
885// 333 00100 70005=
58424 31958 72201 10277 20262 39987 40009 52010 71000 8707/
333 00101 70453=
53772 31956 60000 10197 20197 39190 40063 52011 71000 80002
333 00153 10305=
54102 11680 71608 10185 20171 38932 40019 54000 69941 78080
86902 333// 05251 70039=
53480 32980 00000 10163 20157 40053 52002 333// 05151 70016=
58730 11460 80000 10251 20245 40037 52020 60021 76086 8652/
333 00151 70228=
58754 11556 80000 10268 20258 40012 52002 69901 76060 885//
333 05100 70007=
58911 11560 80000 10256 20234 40038 52012 69901 76060 885//
333 05152 79999=
58931 31/00 92513 10175 20175 38307 52011 74544 333 00000 91124
91525=
53352 32980 02003 10191 20130 40023 57004 333// 05201 70005=
53593 31908 70000 10162 20157 40064 52006 74240 80002 333//
00156 70237=
53764 32965 00201 10208 20174 40042 52009 333// 00151 79999=
53863 31956 00000 10211 20194 40049 52004 71000 333// 00051
79999=
54405 31657 70000 10201 20189 40048 52003 71000 85402 333//
00053 70207=
54436 11659 80000 10207 20201 40036 52001 60261 79266 889//
333// 05354 70382=
54808 32961 80202 10252 20236 40034 52007 8807/ 333// 00100
79999=
54826 11/00 93603 10171 20171 38404 52004 69931 74598 333//
00000 70289=
54836 11458 80000 10229 20225 40037 52001 60181 76098 885//
333// 00052 70444=
54863 32565 80906 10244 20226 40044 57001 885// 333// 00000
70008=
57071 31956 10401 10238 20214 40047 52005 71000 81040 333//
00153 79999=
51232 32780 73207 10216 20146 40094 52004 82462 333 05100
79999=
51705 32980 12702 10146 20014 37836 52003 80002 333 00100=
51839 11859 82202 10245 20081 49997 52002 69901 70660 8352/
333 00404 79999=
51931 11970 82501 10227 20103 40024 52011 69901 76000 8802/
333 00405 79999=
51886 32980 70000 10128 20005 37134 52003 81042 333
00000 79999=
52267 32880 70000 10227 20076 38991 49996 52008 83402 333 05101=
52323 32780 72902 10158 20065 38206 52010 85540 333 00001=
52418 32980 70000 10191 20153 38790 40009 52019 83042 333 00003=
52495 32880 70000 10219 20094 38609 40000 52009 81502 333 05103=
52602 32980 70702 10142 20044 37267 52002 86032 333
00002=
56004 32665 60000 10024 20010 35885 52004 86500 333
00254 31010 70041=
56029 11680 70000 10102 20078 36514 52010 69941 70080
85502 333   05101 70051=
56033 11680 70402 10039 20026 36069 54000 60011 70060
875// 333   05151 30031 70044=
57793 11330 80000 10261 20255 40000 52012 60071 78096 889//
333 05100 70074=
58361 11459 73203 10265 20258 49989 52010 60202 71060 8377/
333 70739=
58362 11465 83603 10266 20258 39978 49988 52008 60151 76066
8772/ 333 05352 70461=
58364 11415 82902 10264 20263 49985 52006 60702 79598 889//
333 71042=
58365 12565 73602 10277 20255 49990 52007 60062 8613/ 333
70314=
58366 12465 73604 10267 20256 49989 52008 60092 878// 333
70105=
58367 11457 72903 10266 20256 49985 52006 60492 72186 8274/
333 71187=
58369 11558 82702 10266 20260 49984 52009 60052 79598 889//
333 70123=
58461 11556 83402 10263 20257 49986 52010 60022 72160 8777/ 333
70081=
58462 11456 83202 10261 20257 49990 52010 60042 72186 8672/
333 70726=
58463 11457 82704 10260 20254 49988 52011 60102 78098 889//
333 71346=
56193 32980 83202 10226 20185 40025 52005 8807/ 333 05100=
56196 32965 70701 10263 20218 40001 52010 8703/ 333 00051=
56287 32980 82204 10255 20195 40016 52012 8807/ 333 05100=
56671 32780 80000 10183 20174 38168 52003 8347/ 333 00000
70003=
56684 32580 80000 10170 20156 37862 52002 884// 333 00000
79999=
56751 11565 80000 10186 20179 37986 52005 60011 70080 889//
333 00151 70412=
56786 31530 80000 10179 20176 38067 52005 71000 884// 333
00000 70001=
56886 32665 80000 10196 20181 38240 52008 885// 333 00001
70042=
56977 11262 80000 10214 20207 40038 52003 60021 78088 884//
333 00000 70049=
57348 32960 60402 10258 20214 40013 52007 86040 333 00200
79999=
57426 32962 20201 10252 20236 40010 52012 81032 333 00100=
57602 31950 70000 10263 20246 40003 52003 71000 80002 333
00002=
57713 31609 80000 10224 20220 40008 52007 74240 885// 333
00151 70112=
50246 31/07 92001 10184 20184 40154 52003 74344 333 00100=
50442 31/09 92902 10189 20187 40137 52004 74344 333 00153=
50658 32965 00902 10226 20182 40123 52005 333 00151=
50844 32962 50702 10250 20201 40100 52002 80002 333 00102
79999=
50854 32970 01104 10247 20201 40100 52001 333 00002=
50888 32980 61403 10223 20180 40140 52010 86030 333 00100=
50968 32565 10904 10237 20180 40112 52001 81100 333 00001=
50983 11765 81603 10196 20172 40149 52004 69901 70060 885//
333 00151 79999=
54096 31/07 90000 10163 20161 40141 52007 74544 333 00155
70012=
54259 32670 62201 10228 20194 40096 57002 81502 333 00000
70021=
54273 32670 70703 10206 20174 40107 52001 875// 333 00100=
54346 32965 20000 10251 20194 40076 57005 80001 333 05103
79999=
54493 32974 30902 10233 20185 39794 40094 54000 80002 333
00002 70034=
58027 31359 70202 10264 20244 39968 40016 52007 71000 8364/
333 00000=
58241 32668 73402 10274 20260 40008 52002 875// 333 00000
70035=
58460 11540 72905 10257 20251 49991 52010 60032 79298 8697/
333 70631=
58102 31940 80203 10263 20250 39975 40022 52013 71000 8802/
333 00151 79999=
58314 11662 82902 10270 20255 39927 40009 52008 69901 72100
885// 333 00100 70005=
58321 31656 73603 10277 20255 40002 52005 71000 8254/ 333
00100 79999=
59082 11670 72004 10278 20247 39944 40017 52003 69921 70080
86442 333 05252 70146=
58647 11457 80000 10244 20240 40026 52007 60141 76098 885//
333 00051 70914=
58737 31656 80000 10268 20253 40028 52008 71000 885// 333
00051=
58846 32660 80000 10295 20260 40016 52007 8257/ 333 05100=
59126 32675 70702 10296 20251 40049 52006 82142 333 05100=
59133 32662 72207 10276 20259 40046 52007 81532 333 05100=
47401 11265 80804 10144 20134 30133 40146 50002 60082 72585
886// 333 20129=
47412 32480 71603 10233 20193 30104 40125 51005 81632 333
20188=
47420 11/08 91907 10179 20179 30125 40171 53013 60352 78084
333 20146=
47426 11/65 80904 10208 20208 30108 40151 51010 69902 70252
886// 333 20185=
47582 11/70 81304 10262 20223 30091 40115 51005 69902 70282
8527/ 333 20224=
47590 11258 81708 10218 20213 30091 40141 51011 69902 72584
886// 333 20208=
47600 11460 80404 10248 20221 30091 40107 53005 69902 70282
882// 333 20219=
47648 11/08 70102 10233 20231 30114 40146 51008 60212 74682
8727/ 333 20221=
47662 11/30 81702 10234 20224 30098 40139 51008 60202 78188
882// 333 20228=
47678 11580 71203 10273 20235 30024 40115 52004 60332 70282
872/2 333 20227=
47740 32470 70806 10255 20226 30056 40092 55001 872// 333
20211=
47778 11/40 81407 10237 20232 30000 40085 51012 61372 78188
882// 333 20227=
47807 32/60 70902 10286 20223 30042 40058 50002 86202 333
20243=
47827 32/65 50603 10298 20228 30007 40042 50001 83201 333
20269=
47843 31/56 70604 10274 20237 30008 40038 58006 71011 86202
333 20231=
47898 32/80 70804 10274 20236 30016 40053 51004 872// 333
20261=
47909 11370 71804 10266 20250 30033 40041 50002 60032 78082
8227/ 333 20244=
47918 32465 72103 10304 20263 30025 40033 52005 83202 333
20293=
47936 32/70 72106 10305 20262 39982 40041 50003 82232 333
20283=
47945 11/70 72103 10287 20238 30034 40057 51006 60072 70298
81232 333 20246=
47971 12/70 60605 10285 20239 30077 40086 58002 69902 83231
333 20257=
47991 11/65 81711 10261 20236 30093 40103 50004 60392 78088
8527/ 333 20241=
58321 31656 73603 10277 20255 40002 52005 71000 8254/ 333
00100 79999=
58460 11540 72905 10257 20251 49991 52010 60032 79298 8697/
333 70631=
58918 11580 70902 10271 20234 40042 52010 69901 70080 878//
333 05100 79999=
53975 31713 70000 10218 20200 40051 52008 71000 875// 333//
00152 70001=
58321 31656 73603 10277 20255 40002 52005 71000 8254/ 333
00100 79999=
52957 11975 80204 10088 20072 36845 52002 60021 76086 8802/
333 05102 70017=
52118 32780 72703 10136 20077 38236 52003 82462 333 00100=
58150 11220 81108 10240 20230 30007 40015 52007 60201 78160
882// 333 05154 70202=
58820 11659 82501 10262 20234 40021 52013 69901 76000 885// 333
00052 79999=
47575 11/50 83602 10211 20194 30121 40125 51003 69902 71084
86672 333 20183=
47585 11/75 81603 10255 20216 30082 40135 51008 69902 70262
8257/ 333 20211=
47598 11/12 82302 10214 20214 30145 40151 50010 60112 76366
8772/ 333 20200=
47602 11/75 73503 10264 20225 30085 40104 50003 69902 70282
8127/ 333 20226=
47618 11/58 83602 10235 20192 39431 40108 50002 69902 71082
8727/ 333 20215=
47624 11/50 81103 10229 20217 30010 40140 53013 60802 76198
8672/ 333 20220=
47636 11/62 81001 10241 20232 30046 40110 50007 60382 70282
882// 333 20226=
47655 11/40 80504 10228 20228 30066 40120 50006 60472 78188
882// 333 20224=
47750 32460 70102 10260 20227 30066 40091 50003 872// 333
20222=
47755 32965 00104 10273 20225 30044 40067 58007 333 20217=
47772 32/80 70606 10267 20222 39987 40080 51008 8727/ 333
20258=
47800 32465 83404 10250 20222 30049 40070 51003 882// 333
20244=
47815 31/59 73501 10262 20236 30051 40065 50003 71011 87200
333 20226=
47817 32980 11002 10299 20221 30003 40042 58005 81031 333
20252=
47830 11/60 20205 10301 20213 30046 40054 50004 69902 70281
82500 333 20246=
47837 12/80 60903 10286 20234 30027 40047 51008 60032 81303
333 20249=
47891 32/68 70804 10271 20225 30063 40074 50001 872// 333
20247=
47899 11/60 80614 10245 20241 39849 40059 51007 60012 72582
882// 333 20238=
47927 32/65 62006 10308 20265 39993 40038 52004 82203 333
20279=
57554 32870 70000 10244 20234 40014 52018 875// 333 00301 70089=
333 00100 71029=
58221 31656 70402 10274 20254 39982 40015 52002 71000 875//
333 00101 70002=
50603 32680 71402 10211 20175 39448 40072 52001 82132 333
05100=
54026 11966 80903 10212 20207 39767 40072 57004 60021 76080
8802/ 333 05100 70048=
54027 11665 71402 10204 20201 39508 40057 57001 60111 78080
87902 333 05200 70205=
50136 31/06 90000 10150 20147 39643 40148 52004 74544 333 00154 70006=
50353 31964 80000 10200 20191 39939 40146 52003 70040 80007
333 00151=
58731 11650 80000 10241 20240 40031 52010 60101 76086 885//
333 00051 70422=
58321 31656 73603 10277 20255 40002 52005 71000 8294/ 333
00100 79999=
56586 32460 70000 10163 20152 38019 52010 875// 333 00152=
56748 32580 70000 10199 20179 38296 52007 8644/ 333 00051
70033=
56763 11565 81401 10206 20202 40039 52006 60071 78088 884//
333 00152 70179=
56768 11678 80000 10188 20181 38187 52005 60031 78080 884//
333 00051 70445=
56838 11562 80000 10232 20228 40036 52003 60091 78080 889//
333 00000 70738=
56946 11570 80000 10220 20213 40035 52006 69971 78088 884//
333 00000 70065=
56954 11365 80000 10220 20214 40051 52003 69901 78080 884//
333 00000 70259=
56959 32775 81102 10246 20232 40036 52004 884// 333 05100
70014=
56966 11556 80000 10255 20245 40024 52001 69991 72186 887//
333 00254 70273=
56969 11660 80000 10237 20230 40047 52004 69971 70080 884//
333 00051 70007=
56986 11380 73403 10203 20185 40025 52003 60021 72580 874//
333 00051 70132=
57237 32970 70000 10252 20200 40011 52007 8704/ 333 00152=
57306 32965 70000 10260 20243 40001 52011 87040 333 00151=
57504 31930 30000 10272 20250 49990 52004 71000 83040 333
00001=
59007 11462 80000 10217 20204 40018 52004 69951 76060 885//
333 00051 70134=
JIVB    24004 99368 11353
31/97 70417 10240 20224 40103 52007 70222 86202
22271 00251 1//02 20302 302// 40602 70011=
JFDG    24004 99327 11363
11/97 81722 10266 20237 40087 52023 60012 78062 8737/
22211 00282 1//03 20604 70017=
JIVB    24004 99368 11353
31/97 70417 10240 20224 40103 52007 70222 86202
22271 00251 1//02 20302 302// 40602 70011=
57447 32962 72701 10240 20226 39500 40007 52009 8703/ 333
00253=
57662 11458 80204 10257 20247 39957 49996 52012 69941 76060
887// 333 00151 70743=
57745 11458 80401 10246 20237 39685 49992 52011 60021 76060
8372/ 333 00151 70292=
57972 11765 81403 10295 20226 39788 49992 52004 69901 76060
885// 333 05251 79999=
58424 31958 72201 10277 20262 39987 40009 52010 71000 8707/
333 00101 70453=
53478 32965 00000 10154 20137 40050 52006 333// 00054 70015=
53853 32960 00201 10198 20183 40039 52004 333// 00152 70015=
54518 31758 73601 10245 20223 40038 52006 71000 875// 333//
05200 70088=
54852 11558 81103 10246 20225 40050 52005 60021 71060 885//
333// 00100 70049=
57089 31220 73604 10250 20231 40033 52008 71000 8463/ 333//
00152 70003=
44219 32698 30000 10135 20111 38557 40082 52004 83200 333
10119 555 30100=
44221 12599 70000 10152 20113 38520 40060 52005 69962 87500
333 20142 555 30120=
44224 32698 70000 10112 20077 38009 40061 53003 87800 333
20093 555 30078=
44266 32999 50000 10106 20068 37762 40075 54000 83083 333
20090 555 30051=
44291 11598 70205 1=155 20120 38650 40093 55009 60042 70298
83446 QHHH 20126=
44317 11596 81403 10170 20167 38854 40032 51004 69982 76062
8872/ 333 20163 555 30144=
44325 32999 50000 10180 20081 38755 400?0 53008 84088 333
20152 55/// 555 30139=
44338 32999 00000 10195 20126 38455 40072 52008 333 20146
555 30109=
44348 32997 00905 10174 20133 38609 40023 57007 333 20131
555 30130=
44374 32599 52703 10203 20019 38211 49995 52012 83430 333
20188 555 30155=
44385 32999 20000 10189 20185 38796 40002 53012 80008 333
20172 555 30159=
44386 32699 30505 10207 20176 3890 40014 53002 83080 333
20165 55/// 555 3016V
53068 32980 60401 10176 20168 38979 40045 54000 80002 333//
00053 70074=
53231 32780 62004 10244 20055 38428 54000 81502 333// 05105=
53276 32680 22503 10190 20141 38783 40036 52001 81532 333//
05100 79999=
54135 31775 71404 10231 20216 39871 40078 52002 70040 87502
333// 00002 70035=
54539 11462 71401 10227 20224 30021 40035 52005 60461 79196
879// 333// 05351 70459=
54753 11660 81403 10250 20230 30027 40033 57002 60011 76086
885// 333// 00052 70073=
57067 31957 70000 10229 20214 39404 40039 52004 71000 8704/
333// 00101 70004=
57178 31927 40404 10258 20229 39885 40033 52010 71000 80002
333// 00253 79999=
57297 31915 83604 10257 20244 39889 40019 52011 71000 8807/
333// 00151 79999=
57259 31550 80000 10232 20223 40043 52008 71000 8167/ 333 00151
70200=
57378 31950 83204 10264 20253 40023 52014 71000 8807/ 333 00101
70001=
57584 11458 80902 10260 20252 49997 52013 60141 76066 887//
333 00101 70527=
57598 11662 70000 10251 20245 40004 52006 60051 70080 8753/
333 00001 70291=
57655 11460 83401 10246 20236 49996 52011 69901 76060 8177/
333 00251 70957=
57766 11458 80000 10248 20241 49987 52004 60011 76066 8772/
333 05151 70127=
57776 11/00 92210 10200 20200 40003 52003 60071 76064 333 00051
70101 91124 91522=
57845 11458 82202 10237 20234 49991 52007 60371 76086 8672/
333 00052 70684=
57853 11760 81801 10243 20237 49985 52007 69951 70060 8342/
333 05151 70159=
58338 11450 82202 10265 20257 40000 52009 69951 72580 887//
333 00100 70200=
58437 31/00 92703 10171 20169 38114 52006 74540 333 00151
70398=
53362 32980 02202 10191 20136 40039 54000 333// 05102 70052=
53664 32970 01404 10216 20198 40045 52007 333// 00001 79999=
53782 31958 13602 10222 20184 40041 52007 71000 80002 333//
00051 70179=
54623 32762 53202 10256 20227 40031 52005 85400 333 05201
70001=
54705 31913 83203 10232 20228 40035 52003 71000 8802/ 333//
00051 79999=
54736 11662 82701 10242 20229 40037 52010 69981 72566 884//
333 00052 70013=
54824 11658 73402 10235 20226 40034 52013 60061 71080 874//
333// 00152 70705=
54936 11560 80702 10251 20244 40021 52003 60051 72580 884//
333// 00051 70239=
57077 31957 62901 10221 20199 40045 52005 71000 86040 333//
00100 79999=
57091 31918 50404 10254 20234 40035 52005 71000 80002 333//
00153 79999=
57156 32962 72903 10247 20216 40032 52007 8704/ 333// 00151
79999=
57181 31925 03402 10252 20226 40039 52008 71000 333// 00253
79999=
56137 11580 80000 10124 20114 36822 52009 60061 76060 8272/
333// 00051 70147=
56116 11575 80000 10093 20085 36369 52010 60011 78086 889//
333// 00001 70186=
56223 11580 70000 10111 20100 36543 52004 60021 70086 875//
333// 00051 70015=
56331 32680 80000 10134 20085 36416 52004 86402 333   05204=
55585 11370 80000 10105 20061 36436 52012 69991 76186 8572/
333 00252 70017=
54429 11680 23601 10218 20209 40029 52001 60301 72986 82400
333// 05353 70368=
59981 32580 72009 10299 20266 30056 40062 52005 82102 333
05100=
58457 11957 72002 10277 20249 39954 40002 52004 69921 71080
86062 333 00003 70106=
58457 11957 72002 10277 20249 39954 40002 52004 69921 71080
86062 333 00003 70106=
58338 11450 82202 10265 20257 40000 52009 69951 72580 887//
333 00100 70200=
58015 32665 70702 10267 20244 40015 52007 8354/ 333 00100=
57251 32965 73201 10241 20214 40037 52004 82032 333 00151 70002=
57355 31758 70000 10249 20233 40024 52014 71000 8354/ 333 00200
70001=
57385 31556 73604 10276 20251 40015 52009 71000 81440 333 00101
70018=
57458 11457 80000 10216 20215 40023 52009 69901 76000 887//
333 00252 70058=
57545 31756 70000 10238 20231 40002 52014 71000 875// 333 00200
70016=
57562 11440 83604 10244 20238 40006 52012 60111 76066 887//
333 00200 70999=
57574 11464 80403 10255 20250 49992 52009 60231 76060 887//
333 00101 70741=
57583 11965 70701 10272 20259 49996 52011 69901 70060 8703/
333 00001 70187=
57649 11462 80000 10250 20241 49995 52008 69931 76060 8677/
333 00251 70062=
57669 11420 80000 10247 20244 49992 52013 60071 78086 889//
333 00151 70685=
57671 32764 81403 10272 20259 49988 52015 885// 333 00001 70066=
57682 11465 80000 10259 20255 49992 52007 69911 76060 8677/
333 05101 70026=
57774 11456 80000 10255 20248 49990 52006 60011 76060 8772/
333 00051 70039=
57872 11765 81601 10268 20254 49988 52005 60021 76060 885//
333 05153 70028=
57883 32960 80000 10263 20256 49996 52005 8807/ 333 05100=
57965 11765 82003 10246 20237 40005 52008 60181 76086 885//
333 05155 70328=
58015 32665 70702 10267 20244 40015 52007 8354/ 333 00100=
58122 11570 70403 10268 20247 40018 52009 69991 70060 875//
333 00100 70009=
58215 31657 70403 10277 20259 40013 52009 71000 875// 333
00101=
58402 32965 60000 10266 20249 40011 52009 86030 333 00100 70026=
58407 31923 70702 10271 20260 40007 52009 71000 8707/ 333 00001
70048=
58519 11458 81402 10251 20248 40009 52007 60311 76198 8672/
333 00051 70386=
58531 32660 81402 10249 20243 40018 52010 885// 333 00100
70137=
58608 11350 81101 10257 20250 40013 52020 60101 76066 887//
333 00051 70136=
58634 11356 82202 10244 20241 40019 52009 60191 78098 889//
333 00152 71434=
50564 31/09 93602 10188 20186 40139 52007 74340 333 00152=
54049 32970 11101 10245 20212 40085 52003 80002 333 00002
70003=
54115 11570 80902 10188 20180 40048 52003 60021 76060 8672/
333 05200 70330=
54157 32968 21601 10254 20207 40087 54000 80002 333 00003
70002=
54186 32570 81103 10150 20129 40134 52008 886// 333 00100=
54377 32662 61401 10223 20192 40113 52001 82432 333 00151
70157=
54386 32570 31402 10178 20138 40115 52001 83200 333 00101
70019=
CGDX 24004 99784 71655 41/94 91509 10007 20007 40182 50000 72844
89///=
ELUU4 24003 99239 11228 41598 61810 10310 20268 40032 54001 70322
85/// 22253 00290 2//// 3//// 4//// 5//// 80280=
DNEK 24003 99237 71348 41498 30404 10220 20183 40160 56010 70302
86452 22234 00210 20403 303// 40403 5//// 6//// 80195=
MSET3 24003 99230 31546 43498 21427 10230 20183 40221 52020 70200
81161 22243 00240 20705 315// 40605 5//// 80200=
VRSC 24003 99082 31269 41498 71119 10280 20234 40102 52015 70322
8546/ 22225 00305 20303 311// 40604 80248=
UAHV 24004 99289 71228 43598 43309 10215 2015/ 40172 54000 83139
22254 00180 20301 33300 40604 80175=
VNVG 24003 99303 11342 41398 72708 10260 20243 40022 52006 70262
87330 22283 00276 20201 32211 40505 50404 80248=
MTFH5 24003 99061 10907 41498 82220 10271 20233 40070 56012 72162
8322/ 22265 04286 20403 322// 40604 80245=
VKIC 24003 99273 31534 41498 71422 10180 20163 40278 51004 72522
8556/ 22283 20602 316// 40903 80163=
SHIP 24003 99145 31219 41/97 31708 10280 20236 40126 70200 222//
20301 315// 40402 5////=
GQVJ 24003 99004 31340 41498 61418 10280 20258 40094 51002 70222
82270 22263 02277 20203 308// 40403 5//// 80264=
VNAH 24003 99380 31375 41498 20515 10135 20096 40340 52013 70100
82000 22223 00/// 20603 322// 40602 5//// 80115=
YJZR9 24003 99122 31583 41498 30724 10270 20218 40137 56011 70110
81081 22283 00270 20403 309// 40806 5//// 80235=
ZMIO 24004 99394 31780 41999 52810 10142 20106 40192 51008 70151
80079 22253 00/// 20201 30300 40602 50000 80123=
PGWY 24000 99027 11194 41197 40000 10292 20236 40090 51010 7////
84232 22283 20000 30000 80251=
PDUJ 24000 99095 31341 41197 31210 10271 20215 40111 52011 70288
8224/ 22223 00287 20402 312// 40605 80231=
SHIP 24004 99121 31317 41/97 11324 10250 40130 70200 222//=
ELED7 24004 99131 51585 42697 30516 10290 2027/ 40125 54000 7////
83345 22213 00300 20303 30909 40303 5////=
VMJS 24004 99385 31402 41599 21205 10130 20079 40349 52010 70300
822// 22223 00165 20101 324// 41208 5//// 80105=
9MBB7 24003 99238 30517 43/97 41404 10220 20190 40240 70331 22253
00240 80200=
A8FJ 24003 99017 30440 41/98 82210 10245 20229 40133 57010 75022
88/// 22253 02246 20101 399// 4//// 80234=
GYRW 24003 99155 31079 41498 41213 10248 20199 40130 55008 70211
84800 22284 02268 20302 317// 40704 80216=
PGQC 24000 99193 31512 41698 31111 10240 20212 40200 54000 70181
83200 22273 20704 308// 41202 80220=
PCGQ 24000 99072 31281 41396 81209 10253 20242 40110 53010 76282
887// 22243 00279 20304 312// 40402 80245=
MVNW9 24003 99084 31101 42798 61216 10285 20264 40164 55003 70322
86832 22263 00304 20403 31216 40303 80264=
PGDL 24001 99213 30546 41499 11808 10220 20149 40205 54000 7020/
81100 22254 00252 20401 315// 40703 80175=
MRSG8 24003 99271 51433 41498 50904 10230 20214 40221 57025 70122
83179 22263 02223 20201 320// 41006 5//// 6//// 80220=
ZMFB 23243 99350 31531 41498 21418 40339 22262 20303 316// 40605=
VNAA 24003 99653 31438 41398 71319 11203 21230 49751 70222 8357/
22200 05018 2//// 3//// 4////=
JBLV 24004 99037 31531 41598 61418 10275 20255 40101 70081 83379
22243 00299 2//02 314// 40703 5//// 80260 .....=
C6HL8 24003 99089 51703 41398 71515 10295 20230 40098 57018 71622
8778/ 22254 00300 20403 31810 40605 50403 80250=
C6LY4 24003 99330 31143 41599 73306 10182 20123 40210 54000 70202
8117/ 22284 02182 20101 32621 41208 51205 80149=
VRRB 24003 99125 31486 41598 31318 10270 20244 40130 51003 70110
84500 22273 02277 20404 311// 50708 80252=
ELSU6 24004 99173 11134 41398 61715 10315 20254 40059 52015 70221
84244 22245 00300 20303 320// 40504 80270=
VMBD 24004 99261 31129 41498 20918 10195 20124 40179 52008 70200
82800 22243 00220 20202 30918 40201 50603 80155=
VJRB 24001 99127 31435 41398 61416 10275 20223 40135 52019 70314
82139 22243 00230 20301 313// 40303=
YJYY2 24003 99089 31329 41398 71115 10270 20234 40106 51010 70222
82158 22263 00274 20202 310// 40705 5////=
ELSX3 24003 99464 31668 41497 32740 10115 20067 40233 52048 70312
83500 22263 00129 2//06 323// 40508 80090=
JKRV 24004 99026 31447 41498 41319 10300 20251 40086 52009 70311
83440 22234 00300 20303 314// 40505 5//// 80265 .....=
MVCQ6 24003 99086 31303 41397 30915 10270 20230 40125 55015 70300
8322/ 22264 00/// 20301 309// 40403 5//// 80230=
9MBE4 24004 99257 31127 41398 20339 10195 20144 40166 52006 70202
81/9/ 22284 00250 20301 316// 4//02 5//// 6//// ICE=
56146 11680 71102 10118 20113 36740 52006 60031 78088 874//
333 05251 70063=
56172 11480 80000 10135 20130 37341 52007 69961 76060 885//
333 05300 70056=
56247 11580 70000 10157 20145 37411 52005 69991 70080 86442
333 05151 70045=
56444 11463 80000 10124 20116 36810 52003 69911 70080 881//
333 05101 70003=
56462 11280 80000 10131 20125 37137 54000 69941 78088 884//
333 00000 70019=
56691 32472 53404 10155 20144 37740 52003 82642 333 00000
79999=
56739 11573 82001 10188 20180 38303 54000 69901 70080 889//
333 00000 70011=
56964 11468 72001 10217 20205 38652 40041 52002 69981 78080
8726/ 333 00000 70034=
56985 11559 80000 10206 20200 38630 40029 52004 69931 71080
884// 333 00152 70285=
57633 32760 70000 10236 20229 39269 40001 52006 875// 333
00200 70049=
57902 11565 70000 10202 20198 38548 40019 52007 60021 70060
8554/ 333 00000 70335=
56079 11480 81605 10076 20002 36725 52011 69901 76060 885//
333 05151 79999=
56152 11370 80000 10086 20080 36334 52006 60021 76086 8462/
333 05301 70067=
56167 11580 70000 10127 20121 37094 52006 60071 76060 875//
333 05151 70148=
56173 11880 80202 10084 20068 36670 52004 60031 78088 889//
333 05251 70056=
56182 32780 80000 10117 20084 37207 52001 885// 333 05100=
56257 11480 80000 10075 20066 36305 52005 60101 72160 885//
333 01152 70201=
56374 11480 80000 10130 20122 37421 57001 69991 72580 884//
333 05100 70076=
57707 11463 82702 10204 20189 38422 52007 69911 76060 8277/
333 00001 70005=
57731 32462 80000 10251 20240 49995 52010 885// 333 00200
70009=
57832 11468 80000 10227 20221 49998 52010 60051 76066 887//
333 00152 70086=
57916 11463 72501 10248 20247 40001 52004 69911 70060 875//
333 05101 70114=
57922 11562 83601 10219 20213 49998 52005 69931 70060 885//
333 05100 70101=
57932 11146 80000 10248 20245 49984 52001 60011 71060 885//
333 00051 70036=
53083 11680 70000 10171 20160 40028 52002 60011 70080 879//
333// 05252 70225=
53487 31958 00000 10185 20168 40053 52004 71000 333// 00153
70097=
54226 11563 81801 10205 20200 40068 52002 60041 76060 8672/
333// 05151 70076=
54311 11957 80000 10186 20180 40053 52001 60031 76166 8802/
333// 05252 70064=
54534 11660 70202 10222 20208 40036 52011 60461 70098 875//
333// 05252 70455=
54587 42980 40909 10223 20207 40020 54000 80002 333// 04041=
54715 32965 73603 10244 20235 40032 52005 87030 333// 00051
70021=
54929 11560 70702 10255 20235 40019 57001 69901 72100 875//
333// 05100 79999=
57193 31258 80203 10252 20241 40031 52008 71000 886// 333//
00152 70005=
57290 11956 80201 10248 20242 40020 52010 69901 76060 8802/
333// 00152 79999=
53195 11570 72903 10173 20157 40030 52006 69911 70080 879//
333// 05154 70084=
54624 32763 62701 10251 20232 40036 52008 86500 333// 05151=
54774 32962 71606 10248 20220 40053 57003 8703/ 333// 00000
70060=
54868 32962 81404 10244 20233 40046 52002 8807/ 333// 00000
70036=
58005 31956 80402 10260 20252 40020 52007 71000 8802/ 333//
00000 70105=
57279 31956 73604 10260 20238 40034 52016 71000 82048 333 00251
70030=
54324 11558 80000 10213 20205 40058 57003 60241 76366 8372/
333 05251 70261=
44210 11596 80000 10141 20090 38450 54000 60022 76062 85020
333 20137 555 30126=
44217 32998 20000 10072 20072 37882 40185 54000 80003 333
20053 555 30015=
44263 32998 53203 10103 20048 38024 40103 51003 81049 333
20081 555 30068=
44329 32999 00000 10148 20103 37725 40000 54001 333 20100
555 30061=
56066 36/// ///// 10078 20058 36647 4//// 52006
555 10040 2//// 30126 40111 51011 60/// 7//// 80000
9//// ///// 1/021 2//00 30000=
50434 31575 70704 10188 20172 39305 40135 52004 70040 87902
333// 100101 79999=
50915 11575 81104 10187 20170 39111 40041 57002 60031 78080
889// 333// 05251 70038=
53149 32980 10701 10225 20165 38694 40004 52001 81030 333//
05205 70001=
53192 11670 72503 10165 20159 38798 40031 52001 60191 78280
87902 333// 05251 70224=
53336 32980 00000 10221 20124 38632 40002 52002 333// 05103
70001=
53391 32680 21102 10159 20138 38453 40055 54000 81502 333//
05152 70194=
53529 32980 11801 10222 20113 38561 40014 52004 80001 333
05104=
53543 32980 02202 10225 20116 38483 40015 52006 333 05103=
54012 11580 71403 10180 20171 38944 40040 57001 60191 72580
879// 333// 05252 70226=
54208 32680 61802 10175 20151 38686 40044 54000 81402 333//
05251=
54776 32962 71409 10212 20207 30003 40058 52001 8703/ 333//
00052 79999=
45004 11468 71903 10291 20259 39971 40045 53006 69902 72582
85232 333 20283 50540 59012 79999 82811 83820 86080=
52634 36/// /0302 10083 20060 36779 4//// 57003
555 10040 2//// 30125 41111 51011 60/// 7//// 80000
9//// ///// 1/124 2//00 30000=
55696 32480 70000 10105 20092 36367 52002 87442 333   00051
70038=
55598 32780 70000 10130 20109 36613 52003 874// 333   00000
70004=
55690 11380 71805 10068 20052 36023 52003 60011 78080 874//
333// 00051 70015=
55248 11780 11406 10050 20036 35935 52004 69901 70080 81100
333 05203 79999=
55681 42680 70000 10075 20065 35929 52001 878// 333   00000
70091=
56307 41680 80000 10136 20122 36859 52004 76000 887// 333
00151 70097=
55773 11470 70000 10066 20052 36043 52001 60021 70080 874//
333// 00000 70037=
55578 11780 70000 10095 20071 36403 52004 60121 72598 879//
333// 00252 70117=
55664 32880 70000 10092 20052 36035 52005 875// 333   00100
30049=
55680 11775 73207 10086 20065 36253 52008 69901 78000 879//
333// 00152 70010=
55569 11580 70000 10098 20074 36261 57002 60051 70080 874//
333// 00100 70053=
55572 41780 70000 10089 20075 36274 57002 70080 874// 333
00051 70194=
55655 32580 30000 10084 20074 36466 57001 81601 333   00051=
333// 00151 70045=
56004 32665 60000 10024 20010 35885 52004 86500 333
00254 31010 70041=
56018 11480 70401 10085 20071 36221 52009 69901 70080 875//
333 00000 70023=
56021 32680 82903 10061 20039 36125 52003 889// 333
00151 70088=
56029 11680 70000 10102 20078 36514 52010 69941 70080
85502 333   05101 70051=
56033 11680 70402 10039 20026 36069 54000 60011 70060
875// 333   05151 30031 70044=
56046 11575 80702 10047 20034 36300 52007 60071 76086
8272/ 333   05200 70093=
56116 11575 80000 10093 20085 36369 52010 60011 78086 889//
333// 00001 70186=
56492 32962 12003 10273 20237 39617 49994 52005 81040 333
05102=
56571 32670 70000 10197 20176 38356 52004 878// 333 05100
70021=
56586 32460 70000 10163 20152 38019 52010 875// 333 00152=
56651 11470 81103 10159 20151 37606 52005 60011 70080 884//
333 00051 70038=
56671 32780 80000 10183 20174 38168 52003 8347/ 333 00000
70003=
56751 11565 80000 10186 20179 37986 52005 60011 70080 889//
333 00151 70412=
56778 32560 82701 10188 20171 38063 54000 884// 333 00000
70050=
56951 11568 80000 10203 20197 38449 52005 60011 78080 889//
333 00000 70090=
56966 11556 80000 10255 20245 40024 52001 69991 72186 887//
333 00254 70273=
56986 11380 73403 10203 20185 40025 52003 60021 72580 874//
333 00051 70132=
57036 32962 70403 10239 20221 39593 40036 52012 8703/ 333
00152 79999=
57046 32970 70903 10198 20099 37920 52007 82032 333 00003=
57067 31957 70000 10229 20214 39404 40039 52004 71000 8704/
333// 00101 70004=
57071 31956 10401 10238 20214 40047 52005 71000 81040 333//
00153 79999=
57083 31950 03602 10255 20223 39910 40037 52003 71000 333//
00152 79999=
57127 31959 70000 10251 20228 39463 40026 52012 71000 8703/
333 00101=
57178 31927 40404 10258 20229 39885 40033 52010 71000 80002
333// 00253 79999=
57237 32970 70000 10252 20200 40011 52007 8704/ 333 00152=
57259 31550 80000 10232 20223 40043 52008 71000 8167/ 333 00151
70200=
57265 31915 80702 10264 20241 39929 40032 52008 71000 8807/
333 00200=
57297 31915 83604 10257 20244 39889 40019 52011 71000 8807/
333// 00151 79999=
57306 32965 70000 10260 20243 40001 52011 87040 333 00151=
57328 31957 70403 10260 20236 39616 49998 52011 71000 82041
333 00101=
57378 31950 83204 10264 20253 40023 52014 71000 8807/ 333 00101
70001=
57385 31556 73604 10276 20251 40015 52009 71000 81440 333
00101 70018=
57399 32962 73602 10275 20250 40016 52010 8704/ 333 00101 70029=
57411 31912 70000 10266 20260 39655 49998 52012 71000 81042
333 00100=
57426 32962 20201 10252 20236 40010 52012 81032 333 00100=
57494 32965 70401 10277 20260 39982 40010 52012 8704/ 333
00002 70088=
57583 11965 70701 10272 20259 49996 52011 69901 70060 8703/
333 00001 70187=
57584 11458 80902 10260 20252 49997 52013 60141 76066 887//
333 00101 70527=
57598 11662 70000 10251 20245 40004 52006 60051 70080 8753/
333 00001 70291=
57776 11/00 92210 10200 20200 40003 52003 60071 76064 333 00051
70101 91124 91522=
57793 11330 80000 10261 20255 40000 52012 60071 78096 889//
333 05100 70074=
57799 11970 82004 10295 20240 39916 40003 52006 69901 70060
8807/ 333 05100 79999=
57845 11458 82202 10237 20234 49991 52007 60371 76086 8672/
333 00052 70684=
57853 11760 81801 10243 20237 49985 52007 69951 70060 8342/
333 05151 70159=
57993 11968 72502 10287 20228 39883 40023 52007 69901 70060
8704/ 333 05151 79999=
58027 31359 70202 10264 20244 39968 40016 52007 71000 8364/
333 00000=
58040 11660 81104 10264 20250 30006 40010 57001 60021 70060
885// 333 05152 70016=
58144 32562 70402 10268 20254 39986 40007 52003 8354/ 333
05101 70034=
58203 31930 80402 10268 20257 39976 40016 52008 71000 8807/
333 00100=
58238 31556 73604 10287 20258 39989 40004 52002 71000 82140
333 00002=
58251 32566 70703 10271 20253 39992 49998 52005 8654/ 333
05100 79999=
58265 11580 70904 10273 20256 39975 49987 52002 69921 72580
8744/ 333 05351 70012=
58321 31656 73603 10277 20255 40002 52005 71000 8254/ 333
00100 79999=
58338 11450 82202 10265 20257 40000 52009 69951 72580 887//
333 00100 70200=
58345 31958 82001 10272 20259 40003 52004 71000 8807/ 333
00000 70080=
58407 31923 70702 10271 20260 40007 52009 71000 8707/ 333
00001 70048=
58457 11957 72002 10277 20249 39954 40002 52004 69921 71080
86062 333 00003 70106=
58477 11468 72701 10272 20251 39944 49986 52002 69941 70060
8314/ 333 05300 70088=
58527 11320 83601 10253 20252 39946 40018 52010 60031 76160
8772/ 333 00100 70498=
58659 11765 70000 10278 20256 39979 40012 52006 69911 70060
875// 333 05102 70002=
58666 11250 82010 10255 20254 39897 49993 57004 69951 72580
888// 333 05200 70009=
58715 11350 81803 10266 20250 40012 52019 60011 76060 8657/
333 00052 70012=
58754 11556 80000 10268 20258 40012 52002 69901 76060 885//
333 05100 70007=
58813 11661 81602 10270 20244 40009 52013 69961 78080 8647/
333 05152 70006=
58834 32968 71801 10264 20243 40034 52011 8704/ 333 05151
79999=
58911 11560 80000 10256 20234 40038 52012 69901 76060 885//
333 05152 79999=
58931 31/00 92513 10175 20175 38307 52011 74544 333 00000 91124
91525=
59007 11462 80000 10217 20204 40018 52004 69951 76060 885//
333 00051 70134=
59023 11459 80000 10254 20248 39754 49992 52005 60021 76060
887// 333 05201 70157=
59046 11468 81802 10253 0240 40003 52005 69931 76080 888//
333 05154 70497=
59058 11420 80702 10240 20237 40012 52002 60841 78198 889//
333 05153 71305=
59072 11670 83401 10257 20248 40012 52005 69901 78000 884//
333 05155 70237=
56385 32680 73403 10112 20073 37033 52002 875// 333 05101
70003=
56144 11580 70000 10127 20122 36878 52005 60061 70060 8161/
333 05100 70182=
21004   24004 99289 11349
46/// /2620 10256 2//// 40058 52013 8////
22200 06281 10604 70018 8////=
21002   24004 99379 11345
46/// /0815 10230 20182 40108 52003 8////
22200 06230 11002 70010 80198=
22001   24004 99281 11263
46/// /2119 10292 20275 40021 5//// 8////
22200 06291 10704 70018 80279=
52867 16/// /2200 10134 20125 37756 4//// 52010 60021
555 10050 20174 30123 41111 51111 61/// 7//// 80000
90212 ///// 1/043 2//00 30000=
52658 36/// ///// 1//// 2//// 37265 4//// 52002
555 1//// 2//// 3//// 40001 50000 60/// 7//// 80000
9//// ///// 1/000 2//00 30000=
58849 32461 81814 10265 20256 39880 40032 53007 885//=
58974 32680 62529 10301 20247 39917 40031 50001 82530=
58968 32980 62506 10305 20224 30031 40039 50003 82039=
59158 32668 51904 10304 20227 39965 40061 53003 81149=
59358 32568 61505 10307 20258 30054 40065 52005 82131=
59559 32565 42907 10306 20259 30031 40057 52006 83230=
59562 32581 22401 10311 20244 30019 40030 54000 82200=
59567 32265 62635 10266 20251 39676 40040 50006 82230=
59792 32563 22211 10305 20261 30056 40064 52012 82200=
59997 32565 42204 10300 20246 30071 40085 52009 82210=
SHIP 24004 99051 31194 31460 61002 10256 20238 40092 60054 71022
83831 222// 00300 20000 333 20247 50490 55059 56000 58001 79999
82818 84360=
51076 32980 53202 10162 20112 39252 40076 52004 81062 333
00002=
51087 32680 50000 10158 20100 39178 40078 52008 81462 333
00000=
51765 11780 61801 10233 20160 39097 40009 52007 69901 70080
84532 333 00103 79999=
51777 32872 70401 10241 20096 39063 40015 52008 82532 333
00305=
58968 32980 62503 10305 20224 30031 40039 50003 82039=
58974 32680 62515 10301 20247 39917 40031 50001 82530=
59358 32568 61503 10307 20258 30054 40065 52005 82131=
59559 32565 42904 10306 20259 30031 40057 52006 83230=
59792 32563 22206 10305 20261 30056 40064 52012 82200=
59997 32565 42202 10300 20246 30071 40085 52009 82210=
58849 32461 81807 10265 20256 39880 40032 53007 885//=
59158 32668 51902 10304 20227 39965 40061 53003 81149=
59562 32581 22401 10311 20244 30019 40030 54000 82200=
59567 32265 62618 10266 20251 39676 40040 50006 82230=
47105 11435 80503 10220 20204 30093 40124 52007 60102 76066
8672/ 333 20197 31024 70109=
47108 32670 50704 10256 20190 39986 40084 54000 81501 333
20224 30033=
47115 32460 80204 10201 20187 39878 40136 52008 8362/ 333
20196 31021 92054=
47135 32668 81103 10215 20190 39817 40098 52006 8452/ 333
20206 31025=
47138 32665 50505 10242 20190 30106 40111 52009 85501 333
20230 30029 92043=
47159 32670 60906 10247 20198 39999 40080 52005 86502 333
20225 31027 92024=
47165 32965 61403 10258 20164 30010 40053 54000 86030 333
20233 31031 92022=
47184 11558 80706 10249 20225 30008 40035 57005 60022 76162
8672/ 333 20241 31025 70024 92033=
47008 31260 83401 10172 20151 40153 52011 71044 886// 333
20171=
47016 12570 40000 10213 20143 40122 53013 69982 83530 333
20173=
47020 32565 20000 10226 20173 40109 58006 82701 333 20183=
47035 32670 60202 10233 20207 40090 52003 80003 333 20206=
47041 11556 80000 10190 20184 40034 54000 69902 75052 8805/
333 20185=
47055 11570 80703 10192 20179 40137 52005 60012 70262 885//
333 20144=
47058 32566 80703 10244 20179 40095 54000 83532 333 20209=
47069 32575 60905 10248 20210 40085 53005 83501 333 20230=
23914 42999 22903 10162 20122 39917 40160 51002 82030=
23921 41905 60000 10152 20152 30040 40153 58002 74441 80009=
23955 32698 80602 10169 20122 30111 40169 52006 82531 333
20156 55092=
24641 32999 61302 10223 20139 39961 40088 54000 80001 333
20146 55101=
28044 42597 60000 10160 20153 30010 40165 52003 83501=
28440 41598 70101 10172 20162 39816 40143 57012 79198 86906=
28748 41550 81601 10187 20174 39918 40141 58007 78098 8696/=
29231 32998 43301 10131 20114 30058 40149 53002 80001 333
20107 55152=
29838 32997 10000 10123 20105 39917 40137 53003 80001 333
20114 55078=
30372 32799 32401 10223 20141 39300 40086 52006 81131 333
20110 55146=
30673 11/08 80000 10146 20144 39423 40139 52006 69962 75154
886// 333 20127 55029=
30823 32999 70804 10203 20175 39447 40022 53004 8705/ 333
20186 55069=
30965 32698 70604 10190 20169 39333 40089 52003 82342 333
20171 55071=
31004 31998 31905 10231 20151 39353 40104 52010 70400 80001
333 20182 55152=
31088 32999 71802 10113 20139 30229 40236 52001 83041 333
20097 55162=
31300 31950 60000 10215 20190 39879 40142 58002 70522 80002
333 20165=
31329 31996 80901 10172 20100 39529 40149 58010 70422 80007
333 20123 55076=
31369 32998 50904 10217 20127 30133 40212 52004 80002 333
20124=
31371 31957 80000 10188 20178 39907 40151 52002 72842 8801/
333 20170 55055=
31388 31996 61602 10212 20178 39908 40148 52005 70522 80001
333 20178 55058=
31416 31995 83601 10151 20127 30097 40184 52003 70522 80005
333 20130 55037=
31510 319// 02402 10212 20192 39987 40139 52005 71011 333
20184=
31594 31995 80902 10206 20151 39986 40143 52003 70422 8802/
333 20179=
31707 31995 80503 10215 20159 30055 40139 52003 70522 80001
333 20183=
31735 32997 70703 10191 20123 30068 40151 52007 84031 333
20146=
31866 11498 83604 10144 20129 30165 40170 50001 60040 76166
8272/ 333 20133=
31873 11698 82002 10191 20156 30017 40135 55000 60010 70282
8697/ 333 20177 55099=
31909 11456 81201 10136 20132 30088 40162 52005 60080 76165
8872/ 333 20137 55052=
31960 32398 82004 10160 20146 39932 40154 53007 886// 333
20150 55048 88707=
32053 32998 71504 10174 20076 30189 40229 51005 80005 333
20068=
32061 32998 71305 10214 20050 30174 40210 54000 80002 333
20103=
32098 32997 70702 10168 20074 30213 40222 58005 87040 333
20074=
32150 11499 73504 10160 20127 30127 40155 54000 69900 72582
86930 333 20135 91010=
32165 11/01 91703 10150 20149 30114 40172 52008 60220 76164
333 20120 96045=
SHIP 24004 99051 31194 31460 61002 10256 20238 40092 60054 71022
83831 222// 00300 20000 333 20247 50490 55059 56000 58001 79999
82818 84360=
8LVN    24004 99172 11166
41498 62311 10290 20264 40055 57003 70200 82202
22254 00295 20201 325// 40603 80270=
JQCU    24004 99103 11275
41498 21504 10295 20262 40067 52011 70200 81244
22243 00300 20000 80270=
47005 32690 60000 10147 20136 38611 52007 86500 333 20129=
47022 32275 80000 10138 20125 38831 52008 886// 333 20130=
47028 32965 40501 10240 20187 40092 52001 80002 333 20182=
47031 32570 80000 10151 20136 885// 333 20136=
47037 32967 80000 10241 20172 40103 52001 80002 333 20181=
47039 32960 50000 10219 20175 40013 57002 80001 333 20167=
47046 32569 80905 10188 20161 40137 53008 885// 333 20183=
47052 32565 31102 10217 20178 40095 57001 83500 333 20185=
47060 32965 20902 10238 20200 40077 57009 80001 333 20205=
47061 11560 83605 10189 20184 40134 52009 60172 75155 887//
333 20173=
47065 32975 61104 10244 20182 40095 53004 80002 333 20202=
47067 32965 83201 10235 20177 40094 57006 80007 333 20198=
47070 32575 80905 10238 20176 40101 52010 81102 333 20208=
47075 32980 30904 10216 20169 40111 52005 83020 333 20161=
98223 31560 21101 10280 20254 40085 51011 70544 81201 333
20253 56999 59003 81820=
98325 31580 31603 10306 20273 40087 52020 70540 82201 222//
20000 333 20252 56999 59003 82820 98328=
98328 31468 60000 10186 20174 38516 40089 53010 70544 84208
333 20160 56999 59004 84818 85278=
98429 11550 61601 10301 20267 40084 51007 60024 70544 83606
333 20270 56999 59006 70015 83722 84080=
98440 31470 72501 10264 20255 40082 53020 70594 83908 333
20256 56999 58001 83916 86278=
98444 12468 40401 10330 20261 40086 52012 69904 82202 333
20260 56999 59005 79999 82818 83070=
98543 32575 20902 10301 20274 40084 51016 81201 333 20280
56299 58003 81820=
98550 11460 52901 10302 20274 40084 53012 60064 70544 83201
222// 20101 333 20261 56999 58000 70060 83818=
98618 11475 50000 10263 20254 40093 53011 60394 70544 82981
333 20240 56999 59006 70387 81918 81819 83075=
98630 32575 60000 10284 20260 40086 53010 82208 222// 20000
333 20266 56999 59005 82820 86275=
98637 11475 32801 10290 20246 40092 52013 60164 70521 81202
333 20250 56999 59005 70162 81812 83358=
98755 31570 22702 10278 20252 40089 53013 72900 81901 333
20246 56999 59003 81920=
98836 12565 72703 10256 20243 40095 52011 69924 82270 333
20248 56999 58007 70002 82820 87262=
44207 11496 80502 10115 20105 38261 40054 53009 69992 71062
887// 333 20109 55///=
44214 32698 82905 10134 20084 38238 40078 53004 82580 333
20125=
44231 31598 80000 10139 20103 38635 40052 53010 71522 8655/
333 20130 55076=
44259 11696 81401 10192 20176 3920/ 40055 54003 69982 71022
885// 333 20172 55102=
44272 32698 70000 10104 20076 38173 40058 53005 87500 333
20092=
44277 32699 25003 10123 20089 37793 40064 54000 81504 333
20068 55///=
44284 32999 20000 10084 2008/ 37850 40084 54000 80002 333
20068=
44285 12999 20000 10106 20090 38263 40052 2002/ 60162 80004
333 20073 93016=
44287 32999 20000 10119 20078 38080 40056 53009 82040 333
20085=
44288 32899 20000 10124 20080 38111 40041 54000 82040 333
20093=
44292 11599 70706 10157 20110 38615 40040 5009/ 60012 70298
87500 333 20128 55078 91110=
44298 11599 73403 10159 20121 38643 40036 53004 69902 875//
333 20133=
44305 12599 80000 10178 20170 38961 40047 52002 69962 8872/
333 20169=
44314 11598 61402 10183 20178 39052 40056 52004 69942 70262
8462/ 333 20170=
44341 32599 20506 10165 20127 38522 40028 51003 82500 333
20150=
44347 32999 22702 10200 20152 38610 49997 53013 82002 333
20174=
44352 11599 70000 10172 20159 38836 40043 53007 60032 87300
333 20613=
44354 32999 30705 10188 20159 39000 4008/ 54001 80008 333
20156=
44358 32998 50000 10166 20152 38972 40038 54001 85080 333
20160=
44373 32999 32907 10204 20023 38453 40002 53014 82071 333
20174 55140=
28661 42975 03603 10147 20138 30061 40150 58001=
28679 42699 30903 10169 20141 39997 40165 51001 82430=
28838 42596 60102 10183 20171 39699 40143 58003 86400=
28879 42997 00000 10175 20126 39881 40148 52002=
28952 42998 20000 10170 20151 39961 40144 53002 80001=
29023 32998 33301 10123 20099 30072 40164 52005 80002 333
20122 55162=
29122 32999 60201 10172 20123 30091 40161 53007 85031 333
20143=
29807 42997 20000 10165 20100 30031 40142 54000 80002=
30230 11599 83401 10218 20193 39748 40042 52001 69932 70282
84441 333 20183 55111=
30309 41296 80301 10178 20178 39493 40048 53003 78084 8695/
333 20178 84911=
30385 32999 30000 10204 20170 39727 40106 52001 83030 333
20144 55114=
30650 32599 80000 10168 20161 39068 40091 52005 82341 333
20146=
30710 41111 81602 10163 20163 39455 40037 50004 71054 886//
333 20160 88702=
30844 32699 50905 10199 20164 39154 40035 53003 82203 333
20162=
31532 31995 80000 10166 20136 39847 40165 58003 50522 8807/
333 20100 55011=
31829 11998 80414 10150 20123 30144 40174 58006 60020 70262
8806/ 333 20136 55113 91017 91122=
31989 32999 80702 10159 20137 30095 40145 52003 8805/ 333
20145=
35078 42999 60503 10169 20135 39777 40130 53001 81082=
35108 42997 23201 10191 20111 40155 58003 80001=
35188 42998 80502 10189 20148 39727 40129 53001 82039=
35229 42997 00601 10181 20143 39867 40121 54000=
35394 42997 70502 10180 20130 39492 40120 53003 86041=
35416 42997 23402 10204 20152 80005=
35746 42998 63605 10249 20130 39985 40058 57004 86030=
35796 42999 20505 10182 20110 39703 40106 54000 80001=
36003 42998 39901 10158 20127 30002 40147 52008 80001=
36177 42697 73302 10191 20171 39879 40106 54000 82531=
36428 42999 70000 10133 20122 39610 40077 53003 82031 333
95000=
36859 42699 53603 10171 20137 39377 40105 57002 81181=
36870 42998 31601 10169 20082 39140 40089 54000 82051=
38341 42699 22101 10196 20123 39337 40065 57003 81402=
56312 11480 80000 10137 20132 37078 52007 60041 78088 889//
333// 00051 70098=
55591 32580 71802 10125 20085 36537 52003 874// 333 00100
70043=
56227 11160 80000 10138 20135 37305 52006 60041 78088 889//
333// 00000 70048=
56434 32480 82001 10167 20150 37655 52001 885// 333   05100
79999=
56317 41470 70000 10138 20132 37116 52005 78080 874// 333
00051 70092=
55493 32480 70000 10088 20069 36057 52001 875// 333 00001
70021=
55228 32980 10000 10061 21047 36041 52004 80002 333   05152
31007=
55299 32780 70000 10072 20049 35889 57001 87900 333 00051
30041 70007=
55437 32/80 60000 10096 20076 36360 54000 86500 333   05103=
56202 11480 80000 10059 20043 35903 52001 60011 78080 884//
333 00001 70062=
55294 32780 70203 10047 20023 35769 52007 879// 333 00152
30031 70072=
56106 11580 70000 10089 20061 36243 57001 69901 70080 874//
333 00000 70051=
55472 32880 10000 10054 20038 35782 52002 81400 333 00151
30016 70018=
55279 32880 21803 10034 20028 35751 52004 82402 333 00152
30023 70011=
333 05151 79999=
56137 11580 80000 10124 20114 36822 52009 60061 76060 8272/
333// 00051 70147=
56172 11480 80000 10135 20130 37341 52007 69961 76060 885//
333 05300 70056=
56182 32780 80000 10117 20084 37207 52001 885// 333 05100=
56247 11580 70000 10157 20145 37411 52005 69991 70080 86442
333 05151 70045=
56257 11480 80000 10075 20066 36305 52005 60101 72160 885//
333 01152 70201=
56374 11480 80000 10130 20122 37421 57001 69991 72580 884//
333 05100 70076=
56385 32680 73403 10112 20073 37033 52002 875// 333 05101
70003=
56462 11280 80000 10131 20125 37137 54000 69941 78088 884//
333 00000 70019=
56691 32472 53404 10155 20144 37740 52003 82642 333 00000
79999=
56739 11573 82001 10188 20180 38303 54000 69901 70080 889//
333 00000 70011=
56964 11468 72001 10217 20205 38652 40041 52002 69981 78080
8726/ 333 00000 70034=
56985 11559 80000 10206 20200 38630 40029 52004 69931 71080
884// 333 00152 70285=
57245 32963 83401 10243 20225 39716 40043 52011 8807/ 333
00100 79999=
57348 32960 60402 10258 20214 40013 52007 86040 333 00200
79999=
57355 31758 70000 10249 20233 40024 52014 71000 8354/ 333 00200
70001=
57447 32962 72701 10240 20226 39500 40007 52009 8703/ 333
00253=
57458 11457 80000 10216 20215 40023 52009 69901 76000 887//
333 00252 70058=
57516 31920 00201 10260 20243 39705 49995 52008 71000 333
00100 79999=
57545 31756 70000 10238 20231 40002 52014 71000 875// 333 00200
70016=
57554 32870 70000 10244 20234 40014 52018 875// 333 00301
70089=
57633 32760 70000 10236 20229 39269 40001 52006 875// 333
00200 70049=
57687 11330 80000 10254 20251 39919 49993 52009 60011 78080
889// 333 00151 70058=
57707 11463 82702 10204 20189 38422 52007 69911 76060 8277/
333 00001 70005=
57713 31609 80000 10224 20220 40008 52007 74240 885// 333
00151 70112=
57766 11458 80000 10248 20241 49987 52004 60011 76066 8772/
333 05151 70127=
57816 31658 71401 10227 20214 38844 40002 52004 71000 8254/
333// 00001 70116=
57832 11468 80000 10227 20221 49998 52010 60051 76066 887//
333 00152 70086=
57866 11680 81803 10253 20239 39800 49996 52011 60141 78088
889// 333 05155 70246=
57902 11565 70000 10202 20198 38548 40019 52007 60021 70060
8554/ 333 00000 70335=
57916 11463 72501 10248 20247 40001 52004 69911 70060 875//
333 05101 70114=
57932 11146 80000 10248 20245 49984 52001 60011 71060 885//
333 00051 70036=
57957 11464 81801 10243 20236 39808 49996 52007 60021 78080
889// 333 05152 70850=
58150 11220 81108 10240 20230 30007 40015 52007 60201 78160
882// 333 05154 70202=
58362 11465 83603 10266 20258 39978 49988 52008 60151 76066
8772/ 333 05352 70461=
58402 32965 60000 10266 20249 40011 52009 86030 333 00100 70026=
58506 11/68 81602 10202 20198 40033 52010 69931 72164 888//
333 00151 70064=
58606 11460 80902 10255 20254 39950 40002 52004 60891 78098
889// 333// 00051 71393=
58633 11456 82501 10251 20242 39942 40019 52010 60011 76060
8357/ 333 00100 70802=
59082 11670 72004 10278 20247 39944 40017 52003 69921 70080
86442 333 05252 70146=
42724 22596 51802 10254 20237 40028 83530 333 58002 6002/
83620 85360=
42809 31595 60000 10286 20269 40007 70520 83530 333 59006
83620 85360=
43003 21595 50000 10284 20253 40046 70522 84830 333 58000
6990/ 83620 83825=
43063 24004 32548 50000 10244 20227 39439 40056 85500 333
58004 85632=
43117 22596 70000 10250 20221 40043 85430 333 59001 6990/=
43128 21496 72304 10246 20214 39452 40052 70522 84330 333
56590 57912 58011 6001/ 82710 83620 81930 85360=
43233 32496 12504 10214 20196 39244 40049 81500 333 56600
59004=
43279 32596 72704 10270 20213 30021 40038 81536 333 58004
81620 85360=
43284 21496 80000 10240 20231 39960 40078 70252 8472/ 333
58008 6027/ 83710 83620 88458=
43295 21396 62502 10204 20192 39059 48468 70255 84630 333
56690 58001 6995/ 82709 83614=
43371 32596 23202 10242 20230 30001 40074 81801 333 56709
59007 81620=
47068 32960 70901 10234 20188 40084 52005 84032 333 20203=
22550 41468 82403 10144 20137 30080 40090 51001 70285 886//
333 88710=
22583 42984 51802 10135 20129 30020 40097 52004 87070=
22768 42897 60000 10160 20150 30065 40118 52005 84071=
22845 42998 72200 10142 20136 39979 40129 54000 8707/=
26063 42997 02402 10165 20129 30148 40155 58002=
26298 41957 10000 10142 20138 39943 40165 54000 71011 80001=
26477 41557 80000 10166 20164 30044 40167 52001 71011 883//
333 88927=
26850 41560 80501 10190 20175 39904 40163 58001 79598 8691/=
26997 41956 02301 10201 20184 39976 40183 54000 71000=
27595 41797 60000 10178 20147 30035 40171 58002 70186 83930=
27612 415// 62701 10196 20190 39987 40170 53004 71022 86500=
27947 42997 00000 10185 20151 30030 40181 54000=
27962 42997 00000 10150 20111 40190 52003=
33008 42970 00000 10196 20171 39980 40150 58020=
34009 42997 00000 10222 20190 39897 40182 58001=
34172 42960 03102 10224 20113 39995 40176 50000=
34247 42862 20000 10171 20152 30074 40183 58002 82030=
34391 32997 00503 10203 20094 30125 40154 54000=
37054 42998 03602 10224 20125 39783 40144 57013=
44212 11699 73205 10181 20109 39055 40061 54002 69912 87500
333 20162 55081=
44218 32998 20000 10155 20120 38542 40060 52001 82030 333
20148=
44232 32999 60000 10143 20130 39004 40059 52010 86080 333
20115=
44239 11599 73202 10129 20120 38690 4002/ 54000 69912 70292
87500 333 20110=
44241 11699 50000 10181 20147 39148 40051 54000 72902 83041
333 20176=
44294 11698 71404 10162 20086 38481 40015 7007/ 69942 72122
87020 333 20135=
56357 11580 70000 10105 20095 36470 52005 69941 70080 86402
333 05102 70178=
44203 11996 70000 10122 20119 38344 40004 52006 60012 74442
87800 333 20109=
44213 11698 20000 10148 20146 38717 40073 52002 69962 70262
885// 333 20148=
44215 32698 50000 1037/ 20104 38351 40054 54000 85810 333
20135=
44225 12698 70000 10118 20094 38214 40059 51000 60012 885//
333 20106=
44230 32598 6001/ 10134 20121 38704 40064 53017 84368 333
20114=
44256 31596 70905 10190 20179 39280 40078 54003 74342 87600
333 20155=
44265 32999 10000 10146 20114 38775 40088 53008 81040 333
20110=
44275 32898 10000 10067 20038 37709 40100 54000 81040 333
20031=
44336 32999 23603 10169 20078 38603 40026 53011 2080/ 333
20142=
23074 11698 83207 10081 20065 30101 40125 53005 60082 76162
8252/ 333 20079 55092 91113=
23711 42998 62302 10131 20120 39985 40151 53003 86030=
23804 42970 81901 10152 20136 39993 40134 54000 82040=
24125 32699 60104 10215 20131 39783 40034 57006 84550 333
20178 55128 84633=
24343 32999 01502 10214 20146 39983 40098 57005 333 20129
55155=
24738 32999 20000 10209 20148 39904 40067 53002 80001 333
20137=
24951 32999 30000 10187 20151 39956 40095 58003 80001 333
20136=
24959 11998 81502 10236 20169 39978 40094 53004 60032 80001
333 20165 55056=
24966 31996 81704 10232 20094 39946 40142 52012 70522 333
20210 55060=
29313 32598 62401 10147 20136 30045 40160 52002 82549 333
20142 55136=
29612 32998 00000 10147 20130 30014 40157 53002 333 20139
55153=
29698 11597 83003 10156 20151 39594 40067 53009 62422 78082
889// 333 20156 55///=
30758 32599 80804 10201 20166 39330 40076 52003 886// 333
20160 55040 88721=
30949 11699 80000 10172 20169 39042 40043 53003 60112 72582
8395/ 333 20163 55028=
32027 32999 32001 10176 20133 30208 40216 58003 80002 333
20134=
38062 42998 72105 10235 20058 87010=
38232 42998 03204 10241 20124 30004 40095 52010=
38413 42998 50902 10265 20030 39789 40056 57001 82031=
38457 42999 30701 10212 20138 39510 40058 57007 80001=
38927 32997 01401 10224 20145 39695 40047 57003 333 00019=
VRVL  24004 99362 10159 41/97 /3107 10260 20232 40142 54000 70200
8//// 22225 00270 80240=
V7AM  24004 99091 10680 43498 82815 10260 20200 40086 56006 70222
888// 22225 00280 20303 327// 40403 80220=
3FTW  24003 99412 71713 41298 82219 10200 20167 40163 56010 70222
88720 22223 00170 20404 325// 40404 80180=
DGDD  24001 99064 11073 41398 72324 10285 20249 40080 52005 70282
83272 22255 00300 20404 322// 40806 80258=
ELQJ  24004 99301 11263 41596 81917 10270 20240 40020 54000 76360
887// 22253 00240 20605 321// 40806 80250=
PEXX  24000 99335 11539 41195 81113 10250 20250 40160 52010 7631/
881// 22223 00/// 20404 314// 40907 80250=
ZCBF  24003 99235 11238 41498 62512 10295 20261 40042 51007 70222
86870 22215 02298 20402 325// 40502 80271=
PEND  24001 99052 31126 41398 41008 10276 20243 40091 52003 71591
82379 22263 00310 20102 80252=
9MBR  24004 99364 11328 41298 80518 10238 20217 40100 54001 72021
887// 22253 00253 20502 301// 40503 80224=
30049=
55696 32480 70000 10105 20092 36367 52002 87442 333   00051
70038=
55773 11470 70000 10066 20052 36043 52001 60021 70080 874//
333// 00000 70037=
58472 11359 82506 10266 20258 39894 49986 52002 60171 72598
8517/ 333 05402 70267=
58847 32663 72202 10290 20251 39935 40031 52008 81542 333
05100=
58974 32680 62515 10301 20247 39917 40031 50001 82530=
50774 31557 70000 10178 20163 39855 40141 52003 72840 876// 333 00154=
50953 32980 01402 10244 20190 39936 40104 52004 333 00101=
44216 32599 83205 QW2? 20154 38901 40055 54001 87580 333
20173 555 30162=
44286 12698 72701 10131 20098 38556 40050 51002 60102 87700
333 20111 555 30115=
51076 32980 53202 1=162 20112 39252 40076 52004 81062 333
00002=
51087 32680 50000 10158 20100 39178 40078 52008 81462 333
00000=
51765 11780 61801 10233 20160 39097 40009 52007 69901 70080
84532 333 00103 79999=
51777 32872 70401 10241 20096 39063 40015 52008 82532 333
00305=
98135 11470 72604 10306 20279 40069 53009 60044 70544 85208
222// 20305 333 20272 56699 59009 70040 85819 87276=
98232 31565 71801 10284 20259 40070 53014 70544 82270 222//
299// 333 20250 56999 59003 82820 85358=
98329 31475 72901 10286 20261 40086 52010 70544 82262 333
20260 56999 59001 82818 85077=
98653 31470 22002 10285 20252 40095 52010 70544 81201 333
20250 56999 58000 81818=
31137 31999 30000 10176 20147 39214 40166 52005 70241 80001
333 20050 30006=
22113 41259 80205 10094 20090 30085 40147 54000 71022 886//
333 91008 91110=
22271 42980 70803 10134 20126 30059 40069 57009 87070=
22522 42475 72903 10134 20125 30082 40091 58002 84530=
22820 42599 62403 10152 20145 30003 40132 53001 8353/=
22887 42975 81703 10151 20146 30057 40124 57003 83031=
26629 32963 00501 10152 20137 30063 40154 58014 333 91001
91103=
26781 41997 62801 10177 20174 39890 40168 58003 70292 86030=
27037 41998 10241 10146 20140 39993 40147 52008 71111 80001=
33345 42998 02002 10218 20159 39986 40180 58005=
33393 42960 00000 10207 20190 39785 40155 58007=
33658 42997 00000 10200 20172 39887 40172 54000=
33791 42997 00504 10210 20164 30030 40175 58004=
33837 42982 03601 10232 20161 30118 40167 58004=
33946 42960 00904 10198 20119 39944 40155 56008=
34300 42997 00000 10207 20176 30012 40193 58003=
34560 42962 00603 10225 20114 30004 40160 58002=
34691 42998 23601 10221 20111 30152 40140 5/002 81040=
34866 42998 01801 10222 20190 40153 58008=
34880 42997 23002 10223 20153 40139 57003 82030=
37472 42979 62402 10245 20144 30155 40133 58016 86030=
9MBQ6   24003 99307 11349 41397 81213 10260 20245 40030 58018 71622
877// 22214 00270 20302 309// 40605 5//// 80250=
ELHR9   24003 99018 11388 41797 31319 10295 20235 40100 54000 70201
82414 22273 00300 20201 31600 40302 50000 80255=
ELTZ2   24004 99121 11283 41798 22206 10295 20255 40070 56005 70200
83383 22234 00280 20000 300// 40000 80265=
UHVW    24000 99006 11354 41898 71906 10293 40135 22274 00320 20301=
VNVZ    24003 99006 31267 41498 51803 10280 20247 40104 53012 71582
83962 22284 00293 20400 80256=
48327 32660 70000 10268 20239 39705 40058 87505 333 20250
58003=
48331 32565 81901 10274 20244 39826 40053 8427/ 333 20270
58002=
48353 32560 80000 10264 20247 39767 40054 8357/ 333 20256
59005=
48375 12560 70000 10240 20225 39853 40079 60014 82506 333
20235 58016 70012=
48378 32560 71501 10271 20241 30005 40057 83846 333 20264
58003=
48381 32961 62102 10275 20243 39871 40058 80006 333 20259
59002=
48407 11558 60000 10255 20240 39928 40068 60094 71021 81146
333 20241 59001 70092=
48431 11557 40000 10266 20243 39850 40062 60144 71010 82535
333 20250 59003 70141=
48432 11958 60000 10255 20238 39901 40068 69934 71000 82046
333 20252 59002 70003=
48455 32562 70000 10289 20242 30057 40064 83856 333 20283
59004=
48456 32560 62702 10282 20245 30047 40064 82846 333 20276
58000=
48480 11457 70000 10270 20256 30068 40072 60604 71522 85846
333 20261 59003 70597=
48500 12562 72402 10269 20229 30071 40077 69904 85535 333
20258 58007 79999=
51053 32680 12201 10161 20122 40079 52008 81462 333 00003=
51495 11680 70405 10196 20132 40075 52011 69941 78000 8696/
333 00252 70004=
20046 41/06 92902 10015 20022 30186 40213 56002 74542=
20069 32472 70105 10011 20003 30179 40192 57006 875//
333   20005 55004 87611=
20087 11871 83404 10000 21006 30150 40160 56007 69932 70272 8807/
333   21001 55007=
20292 32273 72406 11004 21013 30123 40142 56006 84631 333 21011
55140 84703=
20667 41394 70402 10025 20022 30222 40230 57005 74142 87500
333   91106=
20674 31216 83606 10011 20008 30143 40201 57006 71022 886//
333   20011 88704=
20744 42998 00917 10112 20070 30151 40168 57013 333   91122=
20891 11297 70608 10083 20074 30009 40049 57006 60052 78082
873// 333   20080 55000 85706 91112=
23022 42997 70904 10082 20070 30102 40160 57004 83031 333   91109=
23032 42970 21206 10116 20074 30163 40194 57006 80001 333   91109=
29328 32998 30000 10127 20118 30023 40155 56000 80001 333
20112 55158=
29348 32997 40000 10116 20112 30011 40150 52004 80001
333 20104=
29405 32997 00000 10155 20126 30028 40165 57010 333
20146 55154=
29937 32997 00301 10151 20115 39918 40124 52005 333
20145=
24266 32999 00303 10191 20133 39954 40114 57007 333 20157
55159=
24329 32599 31201 10210 20149 39787 40056 57008 82230 333
20107 55137=
24382 32799 80000 10173 20130 39930 40160 52003 84537 333
20135 55163=
24507 31398 62502 10131 20106 39844 40063 52008 60032 70242
86700 333 20113 55081=
24908 32698 61602 10151 20112 39757 40061 52007 82201 333
20123 55078=
24944 31599 50601 10191 20158 39807 40072 53008 70341 83501
333 20135 55119=
29594 32699 83303 10164 20086 39718 40074 52013 82975 333
20164 55046=
29634 32997 00102 10153 20106 39940 40148 52006 333 20135=
29676 32998 52702 10129 20110 39713 40110 52009 80001 333
20128=
30054 32998 00602 10191 20158 39826 40045 52007 333 20143
55135=
30393 31559 31806 10197 20162 39181 40132 52004 70511 83900
333 20166=
30433 32799 20501 10250 20154 39511 40042 52002 82500 333
20184 55129=
30469 31999 60000 10158 20156 39415 40114 52005 72844 86030
333 20125 55038=
30521 12598 80000 10184 20176 39558 40042 53004 60012 889//
333 20168 55021 88923=
30554 32698 70000 10159 20136 39099 40107 52005 83931 333
20116 55///=
30603 32998 81701 10186 20171 39517 40055 52002 80001 333
20175=
30612 11/93 92701 10185 20185 39555 40039 52004 60022 74584
333 20171 55007=
30627 12599 80202 10168 20158 39188 40037 53006 69992 883//
333 20150 55011=
30635 11599 71404 10223 20174 39529 40044 53005 60022 70362
82952 333 20192=
30664 31598 80000 10164 20160 39197 40106 52008 70242 86750
333 10239 20144 55032=
30692 31995 50701 10210 20196 39685 40136 52001 71041 85300
333 20145 55110=
30802 11495 72501 11130 20128 38619 48422 53005 60032 70382
8637/ 333 20124 55004 95980=
30925 31899 60000 10162 20151 39134 40021 53004 74111 82031
333 20159 55055=
35700 42998 00403 10238 20141 30126 40100 58007=
35925 425// 30000 10198 20169 39995 40098 58004 83500=
36034 12999 23604 10154 20134 39858 40116 53007 69932 80001
333 20151=
36061 11/93 90000 10180 20178 39732 40109 54000 60062 74542
333 20178 55000=
36982 42497 50000 11011 21011 36575 47115 54000 83501=
38001 42997 03204 10260 20234 30143 40116 58017=
38353 42698 61502 10206 20100 39218 40058 57007 82540=
38613 42999 23602 10191 20121 39238 40087 57010 80002=
38696 32998 31601 10226 20139 39254 40048 57005 80003 333
00012=
38750 42597 22905 10278 20224 30128 40122 58003 82100=
58208 31459 70403 10272 20255 40019 52011 71000 8564/ /55//
00100 79/99=
54945 11557 70904 10253 20244 40023 52001 69951 78080 874//
333// 05151 70005=
51855 32975 70000 10216 20107 40010 52007 83032 333 00303=
50548 31570 73601 10226 20202 40121 52002 70090 81132 333//
00005 70071=
48325 01210 80000 10250 20240 39827 40068 60014 76162 887//
333 20244 58005 60016 70014=
48352 32560 80000 10265 20245 39860 40057 83576
333 20261 58001=
48357 32563 80000 10267 20241 39902 40070 85676
333 20264 58007=
48403 32960 70000 10270 20238 39858 40066 80006
333 20266 59001=
48405 32960 22103 10270 20241 39900 40062 80005
333 20265 58000=
48425 32560 60000 10271 20241 30056 40066 82536
333 20270 58002=
48426 01558 70000 10258 20238 30051 40065 60074 71562 84547
333 20245 58007 60025 70074=
48430 31559 40000 10275 20254 30056 40064 71022 82545
333 20262 59003=
48450 12562 30000 10270 20229 30029 40062 60014 81545
333 20268 59002 70011=
48459 32563 70000 10285 20252 30062 40065 85576
333 20279 58001=
48550 12560 62704 10270 20241 30074 40081 60094 81146
333 20241 58014 70088=
48551 11557 70000 10246 20242 30077 40085 60014 71022 82577
333 20243 58010 70010=
48565 12560 72403 10287 20256 30075 40086 60224 83236
333 20275 58003 70224=
48568 12460 70000 10266 20238 30077 40084 60024 82876
333 20264 58009 70015=
48569 11558 70000 10255 20246 30047 40087 69904 71022 82246
333 20249 58010 79999=
48583 11556 80000 10253 20246 30084 40090 69954 71022 84847
333 20227 58007=
96009 12462 70000 10242 20233 40105 69904 83521 333 20228 50320
55012 56000 59002 79999 83616=
96011 12560 63602 10250 20238 40075 69934 83531 333 20240 50330
55060 59012 79999 83620=
96035 12460 60000 10258 20246 40084 69904 84976 333 20244 50240
55014 56000 59003 79999 81917 84617=
96073 11458 70000 10225 20217 40082 69954 70522 83922 333 20216
5///0 55003 56000 59033 79999 81917 82820=
96109 31540 50000 10245 20237 40078 70522 81521 333 20244 50310
55012 56000 58001 79999 81620 83459=
96145 01467 80000 10265 20239 40087 60034 72162 85520 333 20237
56400 55062 56400 59009 69907 79999 83615 87460=
96163 32565 50000 10243 20234 40086 81531 333 20226 55031 56000
59018 81630=
96237 32460 61802 10255 20246 40092 83271 333 20242 50160 55000
56000 58004 79999 83817=
96509 12460 70000 10260 20239 40091 60034 84271 333 20250 50420
55050 56000 59002 79999 84815=
96607 01430 80000 10250 20251 40116 60014 76166 8422/ 333 20236
50320 55038 56009 58010 60017 79999 84614 88457=
96739 11920 50000 10234 20231 40095 60534 71010 80002 333 10234
50830 55063 56000 58010 79999 85030 =
96745 01557 80000 10252 20240 40098 60414 70522 8452/ 333 20250
50122 55010 56009 58002 79999 84620 88459=
96747 11530 50000 10246 20240 40092 69904 70511 81531 333 20234 55///
56000 58000 79999 81625 85080=
96881 11540 60000 10242 20236 40102 69904 71022 83571 333 20216
56000 59010 79999 83620=
96925 12465 60904 10282 20238 40102 69904 82202 333 20253 55100
56200 59012 79999 82817 85080=
96947 11420 40000 10220 20214 39511 69984 71021 82531 333 20206
56000 59003 79999 82615 83360=
ZCBJ6 24003 99134 11250 41398 61905 10300 20258 40062 51003 70222
85100 22233 02310 20301 317// 40501 80258=
GYSE 24003 99129 10432 41/97 /3324 10325 20255 49996 50020 70611
8//// 22284 02294 80275=
ELSX3 24003 99464 31668 41497 32740 10115 20067 40233 52048 70312
83500 22263 00129 2//06 323// 40508 80090=
UVHO 24001 99145 11189 42498 32303 10307 40084 53021 82210 22233
20301=
C6MD8 24003 99337 51796 41498 60011 10170 20089 40250 57010 70322
85464 22274 02170 20302 304// 40303 80128=
ELJP4 24003 99332 31713 41096 81824 10155 20146 41017 56028 76106
88725 22234 00200 20604 31827 80150=
CGDX 24004 99784 71655 41/94 91509 10007 20007 40182 50000 72844
89///=
ELUU6 24004 99351 10200 41997 03115 10260 20230 40098 54000 70200
8000/ 22263 00250 20601 332// 4//// 80240=
SHIP 24004 99341 31513 41/97 81521 10150 40347 75002 222// 20401
316// 4////=
YJZR9 24003 99122 31583 41498 30724 10270 20218 40137 56011 70110
81081 22283 00270 20403 309// 40806 5//// 80235=
C60T6 24003 99020 11047 41598 70006 10285 20242 40095 52001 70302
87632 22283 00290 20302 314// 40302=
SHIP 24004 99067 31558 41/97 41806 10290 40075 70016 222// 20101
318// 40101 5////=
V7AJ2 24003 99061 10937 41198 72410 10280 20251 40082 51001 70302
8/760 22263 00300 20411 32424 40404 50404 6//// 80251=
VNVJ 24003 99261 31130 41598 60918 02217 80142 10180 20116 40178
52005 70211 86600 22243 20302 322// 41106=
98325 31580 31603 10306 20273 40087 52020 70540 82201 222// 20000
333   20252 56999 59003 82820 98328=
98336 32480 70000 10278 20257 40077 52009 81208 333 20254 56999
59005 81818 87275=
98431 31470 51801 10269 20242 40088 51009 70544 82208 333 20242
56999 59006 82818 85275=
98536 31470 30000 10276 20250 40079 53013 70541 82230 222// 2////
333   20266 56999 59010 82818 555   0////=
98646 31560 30000 10295 20258 40104 52010 70544 82201 333 20260
56999 58005 82820 82080=
98741 31470 41801 10267 20241 40091 52013 70544 82202 333 20220
56999 59004 82818 84080=
98747 11470 61802 10258 20225 40090 53019 69904 70544 81302 333
20232 56999 59001 79999 81917 86074=
98753 31468 40000 10272 20246 40019 52014 70544 82601 333 20248
56999 58001 81915 8409=
01001 11/01 91003 10073 20063 30126 40138 53013 69901 74764
333 91113=
01028 11/03 91107 10059 20059 30182 40202 58002 69911 74654
333 91122=
01055 32882 41005 10104 20096 30151 40168 52003 81038 333
91113=
01152 11265 80802 10123 20120 30134 40149 57004 69931 76165
886// 333 82604 83607 86710 91107=
01384 11780 70000 10131 20110 39871 40114 57009 69901 76062
8772/ 333 911//=
01415 41480 71803 10144 20137 30068 40068 54000 70286 868//
333 81615 86832 91118=
02186 41889 23501 10142 20136 30110 40130 52002 71100 81571
333 81656=
02226 42789 30502 10135 20122 39680 40121 58008 81470 333
81650 83359=
02464 46/// /1302 10143 20125 30120 40137 58006=
02590 46/// /1605 10152 20104 30086 40147 58008=
02836 31758 33202 10112 20108 40140 52004 71111 83070=
02935 41965 31701 10136 20134 40132 53001 71111 83030=
03005 11375 72907 10099 20085 40089 52010 69941 70262 875//
333 82707 83616 87656=
03772 32786 12802 10135 20093 40197 51012 81500 333 81656=
03917 32483 32604 10105 20092 40201 52009 83500 333 81710=
03953 12580 10000 10125 20114 30233 40250 50005 69901 81200
333 81820 92428=
04018 41370 72906 10066 20043 40065 51006 75052 876// 333
81707 83712 87719=
04077 41258 82705 10060 20051 40041 52004 70255 886//=
04250 31980 10403 10109 20038 39972 40056 57003 74000 80005=
04320 32689 62101 10009 20007 30219 40234 57004 86571=
04360 11680 80000 10060 20052 30090 40154 51003 69901 76062
8152/=
06610 14670 61701 10192 20165 39616 40177 52006 69981 78082
868// 333 83642 83842=
07149 01672 63403 10176 20156 30091 40197 53001 69941 70162
82831 333 69927 82646 85360=
07510 32465 72505 10196 20172 30140 40212 58003 878// 333
84810 87630=
07650 32965 21702 10240 20158 30118 40155 56006 80002 333
82075=
07761 32965 00502 10201 20159 30151 40162 57002 333 95090=
08509 32461 62301 10240 20214 30196 40262 50003 86800 333
81812 86635=
10385 11766 52605 10179 20165 30079 40138 58001 60031 70396
83530 333 55300 83650 91134 91226=
10637 32975 21702 10155 20145 30056 40191 51006 82041 333
55300 82361=
10870 11763 53004 10180 20168 39677 40192 51011 60111 70198
81130 333 55300 81850 85358 91126=
16560 32966 03204 10238 20201 30153 40159 54001 /////=
17609 31457 71903 10279 20248 30042 40044 55001 71022 875//
333 82711 86616=
12330 31562 33103 10215 20169 30033 40131 53002 71311 83130=
12375 32970 41303 10197 20180 30015 40140 57019 82032=
12843 32966 10000 10238 20170 39989 40150 57001 80002=
13272 32965 00000 10213 20141 30030 40145 53003=
01205 11780 80902 10134 20118 30041 40089 56010 69901 76062 8557/
333 91118=
03026 11586 12404 10092 20082 40140 50003 60011 70181 81200 333
81820=
03171 32584 52103 10107 20087 40154 52015 82570 333 81625 85361=
06660 16/// /0403 10186 20175 39533 40183 52004 60061=
08284 32962 00000 10252 20223 30089 40160 50001=
08314 32965 02402 10244 20214 30076 40174 51001=
08515 32580 31103 10214 20149 30151 40270 53009 83800
333 81820 83630=
08538 32970 03008 10184 20168 30158 40188 50005=
11782 32965 41902 10203 20157 39838 40137 58003 84030
333 55100 84362=
12882 32970 00000 10228 20206 30026 40153 56002=
15480 32960 00000 10232 20219 30145 40160 56005 333 92417=
16641 32960 00000 10238 20170 30104 40109 58002=
17038 32670 50000 10227 20182 40119 55006 83150
333 83835 85360 92428=
41660 319// 00000 10217 20117 38329 48413 70500 333 59005=
43198 32396 72303 10224 20215 39238 40056 85631 333 56699
58002 83709 83615 85075=
43201 32396 62704 10228 20207 39338 40054 82631 333 56699
59002 82708 84358 85070=
43213 21596 70000 10240 20228 39732 40054 70196 82532 333
58005 6010/=
43424 32468 82303 10268 20248 30053 40056 8512/ 333 59001
85818 88460=
43467 21459 52705 10/// 20/// 30067 40072 8521/ 333 58001
6///6 7//// 85818 85360=
43497 32476 6//// 10244 20226 30063 40080 84131 333 58023
84818 84358 85278=
23256 42998 33302 10123 20095 30147 40279 57002 82091=
23330 42598 83601 10150 20098 30153 40147 52001 85831=
23552 42997 13102 10132 20115 30148 54000 81040=
23631 42598 71501 10200 20192 30116 40154 52001 72582 81940=
23678 32598 83303 10119 20071 30070 40125 53004 8453/ 333
20119=
23734 42998 50304 10176 20171 30076 40161 54000 82031=
23849 42996 70702 10168 20130 40169 52003 83031=
23884 32584 50000 71014 20117 30050 40119 54000 85500 333
20108 55134=
23891 31695 61401 10085 20082 39782 40096 57006 74444 86900
333 20085 55147 95130=
23933 42997 31101 10216 20181 30117 40172 53010 83041=
23966 32997 00000 10104 20095 30039 40160 52004 333 20073
55146=
25400 32999 81503 10204 20110 30122 40273 57009 80001 333
20123 55160=
28275 42999 00000 10173 20163 30112 40169 52002=
28382 41958 00000 10139 20130 30108 40175 52003 71000=
28493 42599 10000 10138 20123 30081 40169 53002 81200=
28573 42989 43501 10149 20140 30071 40169 53003 80001=
28698 42998 20000 10130 20099 30022 40169 52004 80001=
28722 41597 80502 10170 20160 30032 40155 57003 79198 889//=
28786 42998 21002 10164 20090 30010 40157 54000 80002=
29253 32999 30000 10092 20088 39968 40139 52005 83030 333
20092=
29263 32998 20000 10121 20092 30031 40126 52008 80002 333
20082 55162=
29282 32998 22301 10055 20082 39948 40105 52008 80002 333
20120 55155=
29430 32998 30000 10118 20114 39981 40148 52007 80001 333
20111 55164=
35067 42998 30901 10192 20126 39875 40131 54000 80001=
35121 42998 60201 10185 20140 39998 40135 54000 86050=
55248 11780 11406 10050 20036 35935 52004 69901 70080 81100
333 05203 79999=
55299 32780 70000 10072 20049 35889 57001 87900 333 00051
30041 70007=
55578 11780 70000 10095 20071 36403 52004 60121 72598 879//
333// 00252 70117=
55591 32580 71802 10125 20085 36537 52003 874// 333 00100
70043=
56096 32780 70000 10247 20172 38857 40002 52008 875// 333
05202=
56146 11680 71102 10118 20113 36740 52006 60031 78088 874//
333 05251 70063=
56294 31958 70000 10258 20237 39451 40009 52008 71000 8703/
333 05100=
56444 11463 80000 10124 20116 36810 52003 69911 70080 881//
333 05101 70003=
57193 31258 80203 10252 20241 40031 52008 71000 886// 333//
00152 70005=
57279 31956 73604 10260 20238 40034 52016 71000 82048 333
00251 70030=
57290 11956 80201 10248 20242 40020 52010 69901 76060 8802/
333// 00152 79999=
57602 31950 70000 10263 20246 40003 52003 71000 80002 333
00002=
57655 11460 83401 10246 20236 49996 52011 69901 76060 8177/
333 00251 70957=
57662 11458 80204 10257 20247 39957 49996 52012 69941 76060
887// 333 00151 70743=
57731 32462 80000 10251 20240 49995 52010 885// 333 00200
70009=
57972 11765 81403 10295 20226 39788 49992 52004 69901 76060
885// 333 05251 79999=
58437 31/00 92703 10171 20169 38114 52006 74540 333 00151
70398=
58731 11650 80000 10241 20240 40031 52010 60101 76086 885//
333 00051 70422=
42348 31996 20000 10266 20218 40000 70500 80001 333 59002
82070=
42369 31595 42503 20246 49979 70511 83301 333 58000 82625
81930 83070=
42492 31596 61402 10294 20275 49988 70522 83530 333 58000
84620 85360=
42895 32596 52302 10274 20242 40012 81530 333 59005 81620
85360=
42971 21496 52502 10258 20255 40025 70522 81531 333 59002
6075/ 81620 83360=
42647 31596 32003 10266 20231 40033 70501 82801 333 56609
58002 82620=
42737 32596 12306 10258 20244 40033 81500 333 59004 81620=
42909 32596 20232 20264 40040 81500 222// 2//// 333 56600
59001 81620=
43014 22596 72905 10240 20220 39403 40042 84520 333 59004
6002/ 84620 87458=
43192 21496 80503 10236 20233 40057 72196 333 58009 6265/=
42634 32308 10236 20246 40021 83500 333 59003 83625=
42840 32596 20000 10290 20241 40041 81530 333 58000 81625=
43185 21596 60000 10270 20250 30033 40036 79522 85930 333
57940 58003 6004/ 82930 82620 83825 85360=
43189 31596 60000 10280 20243 30028 40037 71322 82970 333
57932 58000=
43237 21596 60000 10254 20212 39658 40047 70295 84830 333
58005 6990/ 83620 85360=
43245 22596 53201 10286 20240 30008 40030 83520 333 58000
6007/=
43321 31496 52303 10224 20212 39618 40065 70522 83631 333
56699 58003 81710 83615 85070=
43344 31596 52707 10270 20193 39952 40051 70522 82502 333
58004 82620 83075=
43329 31596 80000 10270 20247 30033 40046 71392 8597/ 333
57972 58008=
01241 32886 40703 10124 20111 30087 40098 81032 333 91113=
06011 32380 72803 10108 20100 30018 40084 52004 86570 333
82706 85626=
06180 01330 82404 10163 20156 30112 40118 57008 60061 76398
8652/ 333 60017 81709 85650 88560 91127=
07110 32970 13302 10116 20111 30117 40232 51005 80001 333
81073=
08001 32468 33502 10176 20160 30151 40230 58001 83200 333
924/7=
08221 42965 03401 10250 20142 39502 40148 58001=
08306 32965 00000 10216 20197 30174 40180 52002=
08495 31956 00602 10216 20208 40176 58001 71000=
10338 11658 62203 10171 20155 30080 40150 53004 69901 70361
85501 333 55300 81640 85657=
16242 32962 0//// 10215 20208 30134 40137 57005=
16320 31957 03104 10260 20232 30107 40118 58002 71000 92335=
16420 32960 00302 10270 20189 30073 40135 58003 92335 333
95290 95690=
16597 32958 02601 10230 20218 30048 40133 58006=
16716 32965 00108 10296 20114 30071 40088 56009 333 90730
91131=
16734 32570 10503 10232 20116 30030 40090 58005 81100=
16754 32965 00000 10246 20165 30029 40074 58008=
17030 32970 02701 10222 20198 40130 57009 333 92428=
17060 32560 40606 10244 20217 40107 58009 84100 333 84825=
17128 32970 00404 10222 20128 39044 40056 57011=
17170 32970 00000 10200 20172 38345 48495 58003 333 10052=
17200 32970 02003 10212 20134 39143 40051 57010=
11518 11970 30000 10166 20155 39741 40164 51006 60071 70198
80003 333 55091 83073=
15420 32970 00000 10182 20153 30056 40163 58005=
15614 31998 01102 10198 20138 39488 40160 58002 70200=
40356 32960 03205 10288 20140 39096 48458 333 58024 555
04410 59981=
40375 32960 02803 10280 20040 39204 40010 333 58024=
40400 32960 03106 10296 20270 30011 40038 333 58026=
40405 32960 00202 10330 20100 39285 49962 333 59007=
40416 22960 00000 10315 20260 39957 49976 333 59005=
40439 32960 20000 10280 20180 30012 40024 82030 333 58026 82360=
40703 11960 00000 10194 20162 38904 40081 54000 69901 70181 92345
333=
40785 32960 00000 10272 20056 38987 40009 57011 92350 333=
41036 32960 02807 10274 21060 38521 48472 333 58008 555 59997=
41136 32960 00602 10295 20070 39213 49971 333 58006=
41170 32960 00602 10334 20274 39980 49993 333 58002=
41196 32960 01502 10299 20290 39960 49998 333 59007=
41216 32960 00802 10317 20275 39994 49998 333 59001=
41256 31959 00000 10290 20261 39976 49986 70500 333 59012=
44302 11598 80000 10176 20168 39029 40057 54002 60122 71662
8802/ 333 20160=
44304 11497 70000 10169 20149 38911 40044 52004 69942 70022
83602 333 20164=
22845 42998 72200 10142 20136 39979 40129 54000 8707/=
23205 42984 71602 10154 20145 30086 40100 57006 87030=
23219 41598 61001 10162 20155 30026 40126 53003 70262 86531   333
86625=
23418 41970 71501 10173 20163 30062 40131 56001 70282 82069=
23711 42998 62302 10131 20120 39985 40151 53003 86030=
23804 42970 81901 10152 20136 39993 40134 54000 82040=
27271 41996 51402 10168 20166 39996 40144 58008 71022 84031=
27707 42561 40000 10207 20188 39899 40175 54000 84500=
27962 42997 00000 10150 20111 40190 52003=
28711 42998 00000 10130 20107 40173 57004=
34391 32997 00503 10203 20094 30125 40154 54000=
35121 42998 60201 10185 20140 39998 40135 54000 86050=
28255 41930 00000 10174 20171 30029 40150 57003 71000=
28642 41597 81902 10200 20154 40141 53003 79598 8597/ 333
85920=
29557 32998 00000 10112 20098 39894 40147 52006 333 20082
55142=
29789 11596 80000 10115 20113 38997 40106 52016 60242 78088
889// 333 20113 55000=
30253 32998 30502 10207 20151 39750 40071 52005 80001 333
20157=
30777 32698 60902 10201 20168 39510 40103 52002 84530 333
20164 55042=
31152 31995 50202 10180 20090 40193 52007 70522 82032 333
20100 55087=
31174 31/96 /1603 10130 20093 30201 40212 52009 70422 333
20081 55129=
31263 32599 80000 10178 20136 39638 40173 52004 83686 333
20077=
31683 32699 80000 10131 20088 40218 53004 8393/ 333 20052
30004 7000/=
31832 32566 81103 10196 20183 30065 40144 52005 8352/ 333
20160=
31913 32698 81802 10194 20166 30030 40133 52010 83131 333
20169=
36087 11697 80000 10148 20148 40018 52004 60022 76067 885//
333 20140 55000 95050=
36096 11699 83001 10170 20140 40055 52005 60002 70282 889//
333 20162 55004 95000=
36103 12699 80000 10156 20140 40067 52005 60042 889// 333
20143 95000=
36231 11596 80000 10151 20146 39169 40103 53007 60052 70282
8642/ 333 20150 95060 95839=
36974 42798 40000 10090 20077 37981 48510 54000 84500=
58208 31459 70403 10272 20255 40019 52011 71000 8564/ /55//
00100 79/99=
45011 11462 71608 10282 20268 40047 53001 69902 78082 8627/
333 20275 59015=
47050 32565 60903 10232 20181 40089 57003 86500 333 20205=
42559 32997 22301 10248 20222 40023 80002 333 58001 82070=
42667 32596 52703 10240 20211 39452 40032 83530 333 58000
83620 83360=
42867 22596 62501 10254 20239 40032 82531 333 58009 6003/
82620 83360 85075=
42675 32596 32001 10274 20245 40027 81101 333 58006 81830
83075=
42754 31996 12706 10230 20212 39411 40040 70500 81030 333
58001 81360=
42934 32996 32303 10276 20216 40030 83030 333 59003 83360=
98526 12575 32402 10273 20259 40089 52017 69954 82101 333
20250 56399 59003 70005 82825 98315=
98748 11470 40000 10278 20226 40089 52012 69904 70544 82201
333 20226 56999 59011 79999 82818 84075=
98222 31575 21001 10288 20248 40088 53009 70544 81201 333 20260
56999 59002 81820=
98233 31575 20000 10292 20222 40084 53013 70544 81101 333 20240
56999 58001 81825 85075 555   0////=
98427 31575 20000 10292 20266 40078 53012 70544 81201 333 20254
56999 59001 82818=
98428 11560 31801 10306 20259 40080 53012 69904 70544 83400 333
20265 56999 59005 79999 83620=
98430 31558 40000 10283 20264 40096 53012 70544 83201 333 20252
56999 59003 70016 83820=
98434 32475 40000 10298 20263 40085 53010 81201 333 20269 56999
59007 81818 83075=
98435 31475 40000 10282 20246 40093 53010 70540 82201 333 20228
56599 59002 82823=
98446 31475 40000 10276 20268 40090 52009 0500 83301 333 20243
56999 59008 83819=
98447 31480 30902 10280 20258 39825 40087 53015 71500 82201 333
20248 56999 59004 82818=
98538 31470 32201 10298 20254 40086 53011 70594 82901 333 20263
56999 59009 81911 81815=
98546 32575 21802 10282 20264 40090 52010 81201 333 20250 56999
59004 81820=
98548 12475 10000 10290 20259 40086 53016 60284 81100 333 20246
56999 58005 70285 81816 98301=
98558 31470 32203 10295 20276 40091 53008 70540 82201 222// 20101
333   20270 56999 58002 82818=
98642 32475 40000 10288 20246 40085 53013 82202 333 20252
56999 59008 28185 83072 98308=
98644 31468 42701 10288 20258 40089 51012 70540 83902 333 20252
56999 58000 79999 81818 83075=
98751 11475 40000 10235 20214 39424 40097 52002 60054 70542 81201
333   20195 56999 59012 70048 81815 83080=
98851 32475 31401 10280 20247 40076 5/011 81021 333 20/// 56999
58001 81818 83075=
48008 31557 80000 10260 20260 40030 76065 8497/ 333 20250
56459 58008=
48025 21345 80000 10256 20256 40021 70296 8577/ 333 20248
56699 59000=
48035 32458 80000 10238 20220 40030 8592/ 333 20229 56699
59008=
48042 22556 81802 10285 20259 40031 8597/ 333 20280 56449
58004=
48062 31358 80000 10262 20250 40036 75162 8692/ 333 20242
5659/ 59003=
48108 21496 80000 10245 20245 40088 75066 8572/ 333 20220
5699/ 58005=
48110 21496 80000 10245 20245 40087 75055 84377 333 20230
56599 59004=
42071 31995 20000 10272 20258 49970 70522 82030 333 59001
82360=
42101 32696 10000 10290 20268 49972 81500 333 59002 81640=
42131 32996 00000 10299 20225 49974 333 59005=
42182 31996 02702 10286 20221 49980 70500 333 59001=
42328 31995 02306 10260 20234 49994 70700 333 58002=
42339 31995 32303 10274 20211 40007 70500 80002 333 58006=
42379 31595 80000 10290 20247 49981 70321 8652/ 333 58007
86625 88458=
42475 31995 30000 10284 20247 49994 70500 80001 333 58005
83070=
42591 21596 60000 10280 20266 49995 70262 82531 333 59002
6998/ 82620 83360 85075=
42701 21496 72303 10244 20224 39312 40019 70522 83531 333
59005 6011/ 83618 84360 86075=
42798 31995 50000 10270 20247 40017 70511 85030 333 58000
85360=
43041 21596 80000 10220 20217 39436 40050 70266 8552/ 333
58005 6023/ 85625 87458=
43086 21396 64951 10260 20243 39861 40037 70522 82732 333
56699 58005 6033/=
43110 21496 80203 10250 20241 40052 79565 8692/ 333 57942
58003 6020/ 83710 84618 81930 87456=
43314 32596 33401 10246 20237 40073 81131 333 59003=
43450 32466 72508 10274 20248 30057 40065 8412/ 333 58003
70013 84816 86458=
43473 21396 72701 10146 20143 38119 48486 78082 8577/ 333
58008 69927 70009 86706=
51076 32980 53202 10162 20112 39252 40076 52004 81062 333
00002=
51087 32680 50000 10158 20100 39178 40078 52008 81462 333
00000=
51133 32680 63602 10152 20122 39488 40098 52009 83442 333
00101 70006=
51156 32780 10000 10129 20084 38679 40096 52005 81102 333
00102 79999=
51243 32880 63403 10227 20094 39560 40069 52001 86902 333
00002 70245=
51288 32680 11102 10131 20071 38317 52001 81462 333 00151=
51431 32780 70000 10155 20129 39361 40110 54000 874// 333
00254 70006=
51463 32980 60000 10174 20132 39078 40100 57003 86060 333
00151 70001=
51573 32880 70904 10266 20135 39989 40031 52021 82462 333
00251 79999=
51644 32680 70000 10174 20125 38870 40051 52010 85962 333
00151 79999=
51656 32780 70203 10257 20046 39021 40023 52008 87402 333
00005 79999=
51709 32960 12701 10209 20118 38676 40042 52015 80002 333
00353=
51716 32965 20000 10189 20136 38837 40030 52009 82060 333
00353 79999=
51765 11780 61801 10233 20160 39097 40009 52007 69901 70080
84532 333 00103 79999=
51777 32872 70401 10241 20096 39063 40015 52008 82532 333
00305=
51811 31950 70000 10190 20119 38716 40022 52012 70600 83032
333 00154 79999=
51828 11860 71602 10235 20092 38568 40014 57001 69901 70060
81532 333 00100 79999=
51848 31859 70201 10242 20087 38683 40007 52015 70600 875//
333 00405=
52203 32780 73406 10241 20113 39225 40029 52022 82132 333
00206=
51053 32680 12201 10161 20122 40079 52008 81462 333 00003=
51334 32980 50000 10179 20141 40091 52003 85062 333 00052
79999=
51379 11780 21802 10157 20137 40109 57003 69901 70080 82400
333 00152 79999=
51467 32980 20000 10142 20051 38247 52004 80002 333 00200
70001=
51495 11680 70405 10196 20132 40075 52011 69941 78000 8696/
333 00252 70004=
51542 32680 62501 10024 20011 37576 54000 82402 333 00256
31007 70005=
51711 32980 12202 10130 20095 38002 54000 80002 333 00100
79999=
51730 11675 20000 10153 20140 40055 57003 60031 70098 81462
333 00255 70040=
51818 32865 72902 10228 20064 40017 52006 84532 333 00151
79999=
52118 32780 72703 10136 20077 38236 52003 82462 333 00100=
91353 11474 60402 10294 20257 30074 40079 51014 60374 70282
84221 333 20222 56119 59005 70368 84818=
91376 12474 80706 10300 20239 30097 40100 50000 60084 83871
333 20266 56229 58005 70076=
91425 32474 80402 10300 20256 30098 40099 51007 882// 333
20239 56199 58005 88818=
31007=
55279 32880 21803 10034 20028 35751 52004 82402 333 00152
30023 70011=
55472 32880 10000 10054 20038 35782 52002 81400 333 00151
30016 70018=
56106 11580 70000 10089 20061 36243 57001 69901 70080 874//
333 00000 70051=
56312 11480 80000 10137 20132 37078 52007 60041 78088 889//
333// 00051 70098=
58921 11663 81805 10284 20228 39804 40034 52016 69901 76000
8757/ 333 00000 79999=
48820 32998 83201 10299 20267 39996 40003 53001 8807/ 333
00032 20299 3/030 59006 88499=
48826 32460 82302 10289 20252 39880 40011 53004 888// 333
00030 20285 3/028 59006 83894 88696=
48838 32498 72302 10303 20277 30005 40011 53005 878// 333
00032 20295 3/029 59011 83894 87696=
48839 32998 71810 10297 20269 39948 40010 55011 80008 222//
2//03 333 00/// 20292 59010 87299=
48845 32998 70000 10300 20236 30016 40023 52016 80008 333
00031 20286 3/028 59003 87299=
48848 32570 82304 10309 20214 30029 40037 52006 81107 333
00032 20305 3/029 59002 81895 88299=
48855 32970 80000 10295 20253 30042 40050 53009 80007 333
00033 20265 3/026 59002 88299=
48870 32998 23201 10302 20232 30052 40058 51008 80001 333
00034 20271 3/026 58003 82099=
48877 32998 60000 10275 20243 30068 40074 52011 80008 333
00030 20259 3/026 58000 86299=
48887 12570 22703 10269 20228 30084 40090 51008 69902 81201
333 00027 20255 3/025 58005 81895=
48900 12998 71402 10259 20243 30086 40094 52008 60032 80008
333 01026 20250 3/026 58008 87299=
48914 32598 70000 10278 20258 30082 40085 52007 82208 333
00029 20268 3/026 59008 82895 87299=
48917 11497 80501 10265 20255 30079 40082 52009 60172 79598
889// 222// 00301 2//00 333 02/// 20247 3//// 58005 82894
84995 88696=
48918 12570 70000 10277 20257 30079 40090 52009 69922 81108
222// 00293 2//00 333 00027 20255 30026 58003 81895 87299=
44416 42062 80901 10237 20232 39197 49934 85610 333 59043=
44438 41512 82704 10258 20256 39868 49990 796// 8592/ 333
58011=
44477 41030 80000 10204 20196 38738 48452 763/9 888// 333
58002=
41780 326// 82706 10280 20230 39991 40018 88500 333 56900
59004 88630=
24688 31798 80101 10140 20098 39338 40188 52009 70422 8557/
333 20048 30003 55146=
41598 32696 50000 10277 20266 39714 49973 83530 333 58006=
40180 31956 01504 10230 20198 30003 40060 57002 71000=
40362 32962 01601 10320 20150 39510 49984 333 58000=
40373 32960 30000 10356 20160 39606 49985 83030 333 58007
83360=
40430 40430 32930 32408 10360 20130 39292 49950 83030 333
58017 83360=
40438 32960 01303 10340 20110 39336 49985 333 59013=
40582 32960 01602 10323 20175 40000 56009 333 00030=
41024 32660 30000 10300 20220 30016 40035 81530 333 58016
81540=
41114 31930 12402 10204 20167 37948 48467 70600 81030 333
58011 81359=
41128 42560 40000 10310 20070 38742 48464 83430 333 58018
83630 83358=
41140 31956 02503 10333 20250 30021 40029 70633 333 58027=
41150 32962 04951 10330 20297 49990 333 59003=
41194 32960 01502 10316 20271 39985 49997 333 59008=
41288 31356 42108 10252 20224 30011 40033 70500 84600 333
59007 84708=
41316 01450 81002 10254 20244 30024 40051 60014 70552 886//
333 58007 70013 85710 88625=
40743 32965 00000 10256 20077 39016 40062 58008 92350=
40745 32960 00000 10200 20086 39001 40052 56006 92350=
40754 42660 43304 10260 20148 38793 40020 55000 82430 92350
333 81640 84360=
40766 32960 00000 10218 20016 38647 40008 56002 92350=
40769 32960 00000 10202 20043 38280 40011 56008 92350=
40809 32970 02605 10192 20050 38488 40031 56004 92350=
40821 32960 03204 10258 20043 38750 40020 56007 92350=
40848 32660 30602 10256 20030 38482 49993 53002 81430 92350
333 81640 83360=
40856 32960 09902 10218 21016 38573 49984 56007 92350=
50745 32963 30701 10248 20199 39937 40106 52006 80002 333 00100=
54094 31658 72503 10206 20174 39853 40134 52003 70400 83502 333
00100 79999=
9MTS  24003 99202 11221 41398 42312 10301 20250 40070 51005 70122
84281 22214 00280 20401 324// 40502 80265=
ELVT6 24004 99060 10868 41398 84426 10260 20250 40066 54000 76026
88980 22264 06280 20406 322// 40609 80255=
ELUB8 24003 99238 51780 41498 71220 10210 20109 40203 54012 72265
8629/ 22214 00232 20302 80150=
ZKWS 24003 99289 51694 41498 51219 10175 20121 40190 57030 70212
84862 22212 00198 20602 312// 40905 5//// 80145=
42886 22496 70000 10264 20250 40033 84530 333 58007 6992/
84616 85360=
71043 11774 72304 10226 20126 39942 40031 55000 69901 78022
82271 333 10257 20160 79999 90910=
71078 32974 60301 10206 20060 39764 40196 57006 86070 333
10214 20064 79999=
71600 36/02 91904 10151 20150 30126 40131 52007 333 10197
20150 70000=
71624 32782 43107 10239 20119 39886 40090 53012 82571 333
10295 20194 79999=
71749 36864 83405 10191 20088 39895 40129 52012 333 10210
20086 70010=
71863 37761 61403 10207 20097 39522 40212 57010 743// 333
10230 20058 70000=
71877 32674 31705 10252 20140 38912 40146 58016 82373 333
10258 20109 79999=
71901 36/// ///03 10070 20070 39512 40088 52017 333 10080
20060 70000=
71913 46964 03402 10199 20091 30131 40167 57006 333 10201
20062=
71917 32786 63605 10105 20051 30129 40142 56003 81571 333
10168 20072 70000=
71940 32780 61802 10294 20109 39321 40096 57018 82963 333
10295 20118 70000=
71957 36664 30302 10216 20119 39953 40037 57005 333 10223
20126 70000=
72206 12966 02902 10267 20222 30166 40177 53005 69901 92356
333 10344 20228=
72208 32861 22006 10294 20250 30143 40157 53001 92356 333
10344 20256=
72211 32964 02804 10294 20228 30168 40183 55003 92356 333
10322 20244=
72231 12666 62004 10289 20244 30155 40169 58008 60071 92353
333 10333 20250=
72248 32966 21804 10361 20189 30031 40124 56012 92356 333
10389 20244=
72250 32966 01508 10317 20233 30135 40140 56012 92356 333
10361 20256 91022=
72259 32966 21706 10378 20172 39914 40109 56020 92353 333
10394 20272=
72265 32966 41606 10361 20117 39140 40094 56016 92356 333
10372 20217=
72270 12966 42104 10272 20167 38817 40107 58005 69901 92356
333 10306 20217=
72274 12766 41805 10294 20206 39227 40110 56013 60021 92356
333 10311 20222=
72290 32466 82204 10206 20156 30144 40155 58005 92351 333
10222 20189=
72304 37948 02207 10278 20256 30138 40141 55004 710// 92351
333 10311 20267=
72326 12966 02502 10244 20222 39800 40148 56012 60111 92353
333 10300 20217=
72353 32966 41805 10378 20150 39650 40099 56018 92356 333
10406 20239=
72363 12966 41308 10278 20172 38916 40115 55005 69901 92356
333 10367 20228=
72365 12466 61004 10222 20144 38393 40124 55003 69951 92356
333 10289 20178=
72386 32866 60908 10311 20200 39353 40101 56014 92356 333
10311 20250=
72440 12966 00405 10261 20211 39708 40152 58008 69901 92354
333 10272 20222=
72451 32666 40808 10272 20206 39246 40132 58021 92356 333
10294 20200=
72494 32966 42807 10222 20128 30132 40138 56010 92356 333
10233 20144=
72532 32966 03403 10239 20161 39918 40157 55004 92354 333
10272 20200=
72537 32766 43107 10240 20109 39885 40122 53010 92354=
72654 32966 02902 10261 20106 39717 40177 56015 92355 333
10267 20111=
71082 36964 03302 10026 20008 30156 40196 57008 333 10036
20011 70000=
71120 32874 31605 10241 20105 39535 40177 56013 82071 333
10241 20097 70000=
71627 17564 62801 10203 20187 39999 40041 51003 60051 7//4/
333 10247 20199 70050=
71803 32674 42606 10170 20080 39913 40094 53035 81541 333
10237 20148 70012=
71811 32683 40000 10177 20083 30000 40066 51004 81172 333
10198 20125 70000=
71816 11474 73603 10135 20099 30000 40059 51030 69901 72582
87500 333 10158 20120 70013 90916=
71821 17156 82302 10126 20113 39713 40050 52006 69951 7434/
333 10175 20111 70025=
71836 17464 60403 10135 20101 30040 40051 52010 60011 7//4/
333 10157 20090 70065=
71867 32674 60000 10223 20078 39855 40182 57007 81130 333
10232 20081 70000=
71896 32789 73402 10278 20125 39310 40110 56008 82372 333
10295 20130 79999=
71909 46964 01605 10075 20033 30055 40097 53001 333 10113
20029=
71915 32574 62307 10180 20099 30038 40118 55007 83501 333
10198 20068 70000=
71924 32774 73406 10120 20055 30063 40149 55002 81572 333
10144 20047 70000=
71925 36964 01209 10139 20063 30104 40139 57018 333 70000=
71926 32980 30306 10212 20038 30134 40157 56005 80001 333
10226 20117 70000=
71934 31769 21405 10270 20091 39868 40116 57020 70411 81101
333 10272 20100 70000=
71938 31761 80204 10177 20137 30039 40067 58012 70422 86560
333 10239 20124 70092=
71945 11683 70302 10211 20164 39633 40087 58011 69901 70282
81270 333 10227 20136 79999 90920=
72226 32766 42106 10317 20222 30088 40159 55004 92353 333
10350 20239=
72308 12666 42104 10267 20233 30107 40115 55010 69931 92351
333 10361 20244=
72374 15966 02507 10267 20144 38512 40114 58014 69901 92356
333 10278 20167=
72476 11766 62806 10261 20139 38529 40091 55012 69901 92356
333 10317 20183 91020=
72486 11561 81303 10150 20139 38119 40148 53004 60111 763//
92353 333 10239 20144=
72488 32966 63605 10278 20144 38651 40106 55008 92356 333
10311 20217=
72520 12566 62603 10206 20183 39685 40127 53010 60011 8/178
92351 333 10272 20200=
72547 32966 03104 10222 20117 39782 40170 51001 92355 333
10250 20156=
72562 32866 61402 10222 20183 39206 40167 56015 92356 333
10233 20172=
72645 32966 23004 10217 20117 39887 40139 53001 92356 333
10239 20133=
72662 11966 01903 10200 20156 39083 40183 58006 60071 795//
92355 333 10206 20139=
72681 32966 03010 10350 20111 39107 40073 56014 92356 333
10367 20183 91026=
72764 32966 00304 10256 20078 39587 40182 56011 92355 333
10267 20089=
72773 32966 03606 10317 20111 39017 40109 56016 92356 333
10322 20139=
72793 32766 24953 10233 20150 39998 40160 56009 92356 333
10239 20139=
70308 12264 80104 10106 20100 30012 40024 57002 60021 92353
333 10106 20083=
70350 32566 40704 10133 20111 30033 40074 53006 92353 333
10133=
70361 11461 80000 10122 20106 30114 40130 57001 60051 761//
92353=
71051 46/// /0611 10155 20089 30013 40118 58006 333 10160
20086=
71081 36964 01201 10095 20064 30105 40115 57003 333 10128
20053 70000=
71090 36964 03507 10049 20020 30082 40115 50005 333 10129
20037 70000=
71145 32574 63101 10175 20099 39886 40174 50001 84571 333
10185 20106 79999=
71603 11432 81504 10187 20169 30050 40101 53002 69901 76161
885// 333 10278 20149 79999 90910=
71709 32980 71903 10183 20103 30095 40108 50002 84072 333
10230 20168 79999=
71825 32774 40000 10166 20092 39419 40068 51010 84500 333
10201 20100 70000=
71953 17764 33002 10193 20088 39299 40105 57005 60011 7//4/
333 10204 20114 70020=
72394 32466 83106 10183 20144 30068 40157 58005 92351 333
10206 20150=
91348 11474 84952 10281 20241 30059 40111 50010 60224 70282
83968=
30028 12599 71601 10198 20169 39691 40040 57003 69902 86502
333 10296 20175=
76225 01460 83201 10262 20176 38588 40082 58010 60045 75155
8432/ 333 10326 20180 31/// 50380 56/// 58013 60045 70078
82920=
76342 31562 21201 10378 20248 39416 40075 57022 70211 82200
333 10392 20254 30/// 50890 56100 59009 70000 82856=
76556 32570 23301 10282 20195 39085 40084 57021 81102 333
0/307 10295 20167 30/// 50250 58003 70278 81820 81070=
76581 32770 21001 10288 20162 39042 40100 57007 82100 333
01200 10345 20176 30/// 5//// 58/// 70000 82820 98670=
76680 01560 83602 10192 20106 37762 40069 53703 69921 70542
85830 333 10234 20133 31/// 50821 56780 57862 58004 69927
70035=
76805 32570 32902 10314 20262 30096 40096 57011 839// 333
021// 10340 20260 30/// 55840 57912 59021 70000 83918 91207
91529=
76845 01560 70000 10173 20149 37935 40101 56002 69987 72052
87230 333 10234 20136 31/// 50230 56290 58011 69987 83830
82733=
78016 32561 31904 10279 20247 30215 40221 52006 81205 333
10302 20262 70010=
78384 11460 71404 10268 20236 40141 60141 71482 84862 333
06336 10316 20250 59002 70017 82818 83635 87070 90950=
78397 31475 70912 10306 20206 30118 40134 70292 83803 333
01000 10346 20264 58010 82820 84922=
78526 12966 00404 10267 20256 30126 40149 53009 69901 92354
333 10311 20250=
78970 31565 20603 10280 20237 30095 40120 70500 82240 333
02290 10335 20238 58002 82825=
78988 32480 20906 10284 20254 30114 40123 52012 82201 333
10333 20267 59003 70006 82817=
81405 11465 31401 10258 20249 40119 60041 70286 81202 333
10324 58007 81816 83080=
80022 11462 70204 10282 20257 30112 40114 69961 70595 83371
333 10328 56990 59002 83815 84457=
24817 11599 71301 10180 20159 39704 40038 52003 69922 70182
86930 333 20165 55095=
70398 31012 81704 10140 20140 30118 710// 90009=
72203 32566 40904 10289 20239 30182 40189 55004 92353 333
10322 20267=
72278 32766 63203 10339 20194 39714 40092 58018 92356 333 10344
20261 555 92400=
72312 11966 00000 10228 20217 39822 40153 51013 60041 761// 92355
333 10328 20228 555 92400=
72327 12966 81803 10267 20233 39941 40148 55002 69901 92353 333
10311 20250 555 92400=
72344 32966 01604 10333 20211 39957 40119 58013 92353 333 10378
20239 555 92400=
72445 32666 40403 10267 20206 39840 40156 58006 92354 333 10294
20211 555 92400=
72465 12566 81605 10228 20172 38907 40156 55013 69931 92356 333
10250 20172 555 92400=
72503 12766 62706 10294 20206 30063 40073 53007 69901 92351 333
10339 20256 555 92400=
72518 32966 02102 10261 20206 39965 40069 55000 92351 333 10278
20194 555 92400=
72528 32966 42705 10250 20100 39833 40087 53006 8/001 92354 333
10261 20189 555 92400=
72576 35966 60506 10289 20083 38332 40113 56010 92356 333 10306
20167 555 92400=
72578 32766 42404 10300 20144 38617 40090 55006 92356 333 10322
20206 555 92400=
72583 35966 43007 10278 20122 38676 40115 57009 92356 333 10300
20178 555 92400=
72606 12362 60702 10194 20183 30048 40068 55013 60021 92351 333
10272 20194 555 92400=
72693 32966 03605 10306 20128 30012 40146 56010 92356 333 10311
20133 555 92400=
48001 21350 82301 10250 20246 49998 75095 8697/ 333 20248 56889
59003=
48025 21345 80000 10256 20256 40021 70296 8577/ 333 20248 56699
59000=
48035 32458 80000 10238 20220 40030 8592/ 333 20229 56699 59008=
48037 32456 71501 10292 20259 40001 82870 333 20280 56550 58010=
48045 32561 81401 10216 20156 8462/ 333 20206 56999=
48601 31458 70402 10265 20246 30085 40087 70592 82932 333 20262 50290
55090 59003 81917 83364 87078=
48615 11570 81801 10247 20238 30089 40095 60564 70362 83557 333 20231
50530 55102 58011 83622 85364 88270=
48620 31258 70000 10258 20249 30076 40085 72992 84935 333 20256
50540 55095 59003 81705 81917 84634 87078=
48647 11460 70702 10264 20243 30070 40095 69924 72522 81942 333
20256 50190 55039 58005 81917 87078=
48657 31565 80000 10251 20236 30080 40098 70522 83537 333 20246 50410
55096 58011 83626 84366 88275=
48665 32578 70401 10256 20247 30083 40093 82842 333 20255 50490 55091
58007 81820 84363 86078=
96001 01458 82109 10248 20215 40096 60134 72166 84272 333 20204
55000 56600 59002 79999 84819=
96033 11460 80000 10264 20243 40079 69904 70562 83977 333 20260
50324 55644 56000 59006 79999 81920 82617 88275=
96075 11457 70000 10234 20231 40092 69924 70521 83571 333 20170
55011 56000 59022 79999 83617 85462=
96171 01440 70000 10242 20239 40083 69944 70522 85522 333 20220
50620 55026 56000 59002 79999 85610=
96221 11940 60000 10244 20238 40105 60214 70521 83032 333 20230
50400 55039 56099 59003 79999 83360=
96249 12462 70000 10234 20231 40089 60064 84932 333 20227 50870
55000 56000 58000 79999 81916 83820 =
96253 12462 50000 10231 20216 40072 69904 83332 333 20228 50553
55050 56800 59008 79999 81918 83820 85081 =
96295 31458 50000 10238 20229 40097 70521 83401 333 20224 50240
55061 56000 58008 83618=
96413 11175 70000 10233 20225 30080 40105 60594 70162 83532 333 20227
55029 58009 81702 84365 86080=
96421 11275 71203 10238 20231 30073 40109 60204 70362 8567/ 333 20231
50080 55003 58006 84705 87365=
96441 12280 71002 10248 20236 30104 40109 60034 70162 82541 333 20236
50320 55041 58006 81705 87080=
96449 11365 70000 10259 20247 30091 40112 60074 71562 84963 333 20247
50540 55084 58000 81707 81915 87365=
96471 11375 70000 10271 20240 30103 40106 60084 70396 84942 333 20242
50450 55084 59003 81708 81917 83640 87078=
96491 31456 60000 10278 20252 30086 40099 70522 82801 333 20246 50530
55113 59004 81817 86080=
96581 31220 80000 10246 20240 40111 71022 8672/ 333 20238 50240
55022 56409 58001 79999 86706 88460=
96633 01456 83604 10247 20242 40100 60054 76162 8542/ 333 20245
50170 55033 56009 58006 60047 79999 85618 88460=
96645 11405 80000 10238 20238 40101 60054 73464 86372 333 20234
50190 55060 56000 58004 69937 79999 81912 86613=
96655 01456 83503 10240 20234 40119 60164 71596 86572 333 20233
50260 55075 56700 58014 69917 79999 86611=
96685 11457 80302 10246 20242 40105 60074 71522 85871 333 20237
50040 55056 56808 79999 84612 82815=
96737 11557 60000 10236 20232 40099 60024 70522 83531 333 20232
50230 55047 56000 58001 79999 83620=
96741 31558 40000 10256 20244 40094 70511 83911 333 20252
55065 56000 58000 81920=
96755 11940 50000 10236 20233 40105 69904 71021 82038 333 20232
56000 58004 79999 82362 85280=
96791 31560 50000 10238 20230 40094 70521 82511 333 20230 50184
55065 56000 58002 79999 82620=
96797 31458 70000 10251 20241 40097 70522 85921 333 20245 53014
55095 56200 58005 79999 81918 84820=
96801 11456 60000 10224 20218 40109 60194 70562 83521 333 20214
56000 59001 79999 83617 85460=
96805 01459 80000 10260 20251 40089 60164 71562 8527/ 333 20242
50550 55076 56000 59004 50057 79999 85818 85460 =
96853 31557 70903 10254 20234 40086 70521 82571 333 20248 56000
59003 79999 84620=
96935 11459 60000 10255 20241 40099 70596 83571 333 20241 50490
55100 56000 59001 60057 79999 83618=
96973 32560 40902 10282 20246 40094 82231 333 20264 50601 55106
56200 59002 79999 82820=
96987 12460 60000 10262 20235 40113 69904 84506 333 20260 50461
55092 56300 58008 79999 84618=
91212 11461 82306 10300 20244 39995 40084 50002 60054 70282 83178=
91343 46/// ///// 10265 40098 51003 92359=
91442 46/// /3606 1//// 90000 333 91207=
91487 31499 21509 10297 2022/ 40109 70200 82100
333 20238 562//=
91503 01465 71107 10280 20235 40115 52005 60094 78082 8687/
333 20230 56299 59005 60097 84817 86628=
91507 32481 11402 10300 20230 40111 57001 81101
333 20227 56300 59009 81818=
91520 31480 30507 10307 20204 40104 58007 70510 83801
333 20202 56209 59010 81818 83635=
91527 31470 30507 10300 20212 40105 57007 70500 83401
333 20240 56100 59010 81820 83630=
91533 31499 24952 10307 2024/ 40114 70200 81201
333 20251 561/9=
91541 31475 51405 10270 20218 40118 57005 71522 85900
333 20250 56300 58002 84817 81918=
91551 01575 71305 10262 20200 40146 58009 60044 70522 878// 333
10215 563// 59002 60044 84820 87640=
91554 02580 11206 10260 20207 40146 51015 69924 81100 333
20185 563// 59007 69924 81825=
91555 32580 11005 10267 20190 40148 58010 81100 333
20207 563// 59012 81825=
91565 01470 70000 10224 20209 40165 58010 60014 78082 878// 333
10244 563// 59017 60014 81715 87818=
91568 01470 70000 10227 20204 40171 58007 60164 72588 878// 333
10280 563// 59025 60164 84818 87640=
91570 36/// /1312 10270 20199 30166 40169 58004
333 20224 59011=
91574 16/// /1214 10256 20193 30185 40191 50003 69924
333 20217 59006=
91577 12581 12204 10244 20174 40175 58009 69924 81100
333 20165 59026 81830=
91582 12581 41103 10248 20196 40170 58012 69944 84200
333 20151 56200 59023 84828=
91592 32681 22604 10251 20160 40177 58007 82800
333 20193 56600 59023 82840=
91601 11597 80904 10270 2026/ 40100 60411 76186 8672/
333 20245 5629/=
91610 31499 41307 10301 20235 40096 58002 70322 83259
333 20260 56299=
8
333 20275 562/9=
91631 31599 41501 10276 20248 40100 70110 82132 92348 333 20252 56399
=
91636 31499 70905 10280 20247 40097 70310 82230 92350 333 20247 5629/
=
91648 11499 41106 10283 20223 40112 58003 69901 70128 84200 333 20247
563//=
91650 31699 21007 10278 2019/ 40122 58025 70200 82100
333 562// 82830=
91652 36/// /1411 10264 20165 40147=
91659 31599 31409 10247 2016/ 40149 58015 70210 83100
333 563// 83828=
91660 36/// /1120 10249 20170 40144=
91680 31699 20804 10280 20114 40150 58021 70300 82800
333 569// 82830=
91683 31599 51507 10237 20169 40161 58017 70301 85200
333 20185 563// 85825=
91691 36/// /1107 10249 20171 40159=
91693 11599 61105 10235 2016/ 40172 58011 69951 70282 86800
333 562// 83823 83550=
91697 16/// /1504 10234 20153 40167 69925=
91699 36/// /1315 10224 20148 40180=
91753 11582 21306 10272 20152 40124 58017 69904 70381 82800
333 20221 58004 82820=
91754 32581 81305 10245 20167 40136 58016 88800
333 20224 58001 86820 84640=
91811 31499 51104 10286 2024/ 40109 70122 81142 333 20233 56299=
91843 31599 42303 10237 20177 40143 56009 70211 84100 333 20162
565// 84825=
96839 01558 71103 10260 20241 40103 69904 70562 84552 333 20240
50471 55005 56000 58005 69907 79999 84623=
41685 326// 30000 10271 20200 48404 83500 333 56900 59001
83635=
41718 326// 32302 10280 20252 39868 49969 81520 333 58000=
41744 329// 02702 10270 20176 48405 333 59005=
41749 319// 01803 10280 20251 39927 49960 70500 333 58007=
40394 32962 00000 10285 20090 38953 48466 333 58005 555 04410
59988=
40729 11660 51202 10180 20125 38348 40051 56005 69901 70298 82432
92345 33382640 84068=
40762 32960 00000 10190 20032 38534 40045 58008 92350 333=
40831 32960 00000 10346 20177 39980 49988 57013 92350 333=
94122 35/// /1005 10271 20214 30127 40144 52013=
94298 35/// /1319 10250 30182 40188 52007=
94996 41565 71806 10173 20134 30050 40181 52004 72582 85830
333 20155=
41620 329// 00000 10260 20215 38498 48403 333 59002=
41624 01592 81802 10233 20223 39783 49978 60222 79510 8497/
333 58024 60227=
41715 329// 01302 10290 20208 39904 49964 333 59001=
41756 326// 41802 10280 20252 39937 40001 84500 333 56900
59015 84633=
41768 329// 02308 10270 20234 39990 49997 333 59001=
44242 32698 72002 10173 20138 39187 40029 58008 87500 333
20149 55115 555 30130=
44243 32999 60000 10184 20162 39277 40041 51007 80008 333
20130 555 30140=
44254 11/92 90000 10165 20165 38957 40052 54001 60102 74596
88/// 333 20156 96017 555 30156=
44257 11498 70000 10169 20157 38898 40058 54002 60132 70262
86230 333 20160 555 30159=
48356 32562 81902 10274 20245 39867 40063 81136 333 20268
58000=
28240 41568 70000 10170 20169 39860 40164 53009 78004 879//=
28419 41996 22301 10136 20127 30036 40159 57003 71011 80001=
31285 31995 03402 10149 20107 40199 52002 70540   333 20076=
31561 31/93 93302 10182 20097 40177 51006 70544   333 20150=
60101 32960 00807 10252 20124 40161 50002=
60115 32965 02402 10133 10208 20093 40185 51004=
60127 32960 00000 10267 20122 39603 40171 50001=
60135 32958 00000 10210 20194 40175 51007=
60155 32450 10000 10225 20219 40170 50003 81600
333 81710=
60620 32960 42405 10355 2//// 40063 58008 81032
333 81856 83075=
60715 32958 02804 10236 20199 30153 40158 57003 333 55115=
60765 32958 01003 10235 20207 30146 40452 54000 333 55123 22601=
61442 32960 53002 10262 20245 30127 40131 85080
333 0//00 58023 85363=
61641 11458 60000 10257 20240 30090 40123 60011 70262 83570
333 0//14 58010 83613 85463=
61695 11460 71602 10244 20238 30107 40133 60071 76162 83570
333 0//53 58013 82616 87463=
62306 32960 02501 10220 20211 40061 58006=
62318 32960 03003 10250 20222 40069 58001=
62366 32960 03102 10256 20213 40064 58006=
62405 32960 02101 10272 20125 40050 26012=
62414 32960 03503 10294 20091 40064 58008=
62420 32960 00000 10268 20159 40075 51002=
62432 32960 00000 10224 20091 40080 57012=
62680 32970 00000 10320 20150 39686 40070 58001=
62721 32970 71803 10300 20190 39637 40067 80007
56009 59003 87275=
62760 32970 71802 10275 20215 39276 40071 83047
56049 59004 83365 87275=
62772 32970 71802 10270 20210 39666 40093 80007
56009 59003 87275=
64600 33960 20000 10220 20211 39460 40101 80002
333 0//00 59005 82080=
64601 33960 73401 10210 20202 39001 48516 8707/
333 0//00 59006 87365=
64650 32960 30000 10225 20221 39694 40101 83030
333 0//00 59006 83365=
64656 33960 0//// 10230 20227 39549 40093
333 0//00 59009=
64658 33960 70000 10234 20225 39590 40098 85048
333 0//00 58017 85365 87280=
64659 33960 50000 10220 20219 39367 40079 80002
333 0//00 59007 86080=
65306 32960 50000 10245 20231 39787 40114 80002
333 59009 85076=
60030 32665 30109 10254 20218 30081 30135 57005 83500
333 924/7=
60107 32960 01601 10222 20192 40171 54000
333 95300=
60185 32960 00804 10223 20203 40163 51001=
60230 32960 00000 10300 20080 40160 52007=
60265 32960 03407 10335 20043 38930 48585 50006=
60735 32958 00000 10246 20204 30085 40164 58003 333 55126 52763=
60760 32960 01208 10280 20176 30020 40125 52008 333 55130=
60769 32960 00801 10251 20215 30146 40150 50002 333 55132 24257=
61052 32965 12202 10264 20227 39856 40106 80002
333 0//00 59018 81080=
61090 32965 72804 10280 20222 39589 40085 80008 91345
333 59011 87280=
61415 32960 02404 10236 20209 30142 40147
333 58042=
61600 31960 32802 10262 20245 30124 40129 70161 83070
333 0//00 58020 83363=
61627 11958 22201 10261 20248 30102 40126 60081 7019/ 82030
333 0//66 58020 82363=
61630 32960 00000 10290 20261 30106 40125
333 0//59 58012=
61679 11960 60000 10252 20234 30128 40136 69921 70166 80002
333 0//13 58012 86073=
61687 31558 12602 10255 20236 30072 40129 71311 81300
333 0//19 58003 81930 94943 95813=
61701 11459 70000 10244 20241 40125 60013 76166 82470
333 58013 82610 85461=
62600 32970 33103 10295 20095 39866 40072 83040
56030 58027 83365=
62750 32970 71802 10280 30240 39/// 4//// 87070
56090 5//// 87365=
62751 32970 71402 10260 20234 39641 40097 80007
56009 59004 87275=
62752 32970 72301 10245 20200 39422 40096 87070
56090 59001 87365=
62771 32970 02702 10275 20210 39445 40079 59005=
62795 12770 71302 10245 20270 39571 40070 60011
82570 56290 82650 87464=
43369 22596 63208 10266 20243 40079 83430 333 58002 6009/
83620 83360=
65548 32560 70000 10239 20233 39752 40134 87500
333 58002 87620=
65578 32560 32401 10235 20228 30126 40135 83500
333 59001 83620=
65592 11460 4//// 10250 20228 30119 40142 60011 70161 84500
333 58005 84613=
64700 32965 62403 10272 20248 39760 40093 85052 92357
333 0//00 59002 85365=
64750 41762 80000 10230 20209 40121 71799 8197/ 950//
333 0//00 58022 88365 81950 95835=
65319 33960 50000 10237 20227 39612 40124 80002
333 59011 85076=
65330 32260 70801 10238 20225 39686 40123 875//
333 59007 83605 87610=
65335 33960 51402 10230 20212 39898 40124 80002
333 59007 85076=
65344 32460 72004 10255 20233 30126 40136 86502
333 58001 86612 84076=
65352 32960 70000 10260 20260 39949 40103 80002
333 59011 87076=
65361 32960 70000 10230 20226 39694 40134 60091 71396 8494/
333 59002 84620 87362 82960 94995 95835=
65376 11460 71402 10210 20211 39672 40127 60061 70296 8357/
333 59008 83610 87363=
65387 32460 72402 10245 20239 30115 40143 84502
333 58001 84610 87073=
65416 31465 70000 10255 20233 40134 71796 8593/ 333 59010 85613
87362 81930 94513 95702=
65467 32962 62702 10237 20227 40150 86030 333 59003 86361=
65528 31460 5//// 10235 20228 39648 40119 70391 85700
333 58003 85613=
65536 32460 0//// 10244 20231 39700 40127
333 59002=
65555 11960 01803 10225 20218 39685 40122 60061 70151
333 59016=
65562 32960 2//// 10236 20227 30037 40140 82030
333 58000 82360=