ZCZC 000
SMCI10 BENJ 311800
AAXX 31181
57006 70228 8633/ 22264 00045 20100 80038=
82899 22224 00179 20204 30307 40607 5//// 6//// 80172 ICE /////=
22212 00217 20201 80200=
50774 32960 30704 10108 20071 39805 40092 52005 80002 333
10245=
53664 32970 70703 10218 20076 40017 52006 8703/ 333// 10311=
53673 32980 23403 10215 20034 40026 52011 80002 333// 10326=
59855 11570 71404 10276 20263 40046 57012 69981 78080 872//
333// 10322=
53782 31957 80403 10220 20183 40032 52020 71000 80007 333//
10336=
54218 11980 73601 10155 20125 39429 40082 52013 60021 70080
83032 333// 10233=
54337 11960 80000 10162 20148 39986 40068 52014 69931 70060
8802/ 333 10217=
50527 32670 20403 10129 20087 39400 40095 52024 82502 333//
10264=
57522 31958 00000 10217 20199 40014 52001 71000 333// 10290=
57106 32963 70403 10198 20163 40017 57008 80002 333 05302
10301=
58646 32662 81401 10238 20234 40073 57008 885// 333 10270=
58562 31657 81401 10224 20216 40072 57005 71000 885// 333
10244=
58667 31957 20202 10225 20222 40075 57007 71000 82040 333
10285=
58834 11760 41801 10236 20227 40082 57009 69981 70060 84500
333 10349=
59134 32970 22201 10263 20247 39922 40078 57009 80002 333
10328=
59845 32570 11403 10256 20240 40042 57016 81100 333// 10320=
54157 11762 82201 10183 20140 40071 52009 69901 70060 885//
333// 10253=
57067 32975 02502 10240 20132 39385 40005 52004 333// 10361=
89664 32961 00605 11280 21330 39936 49976 57022=
76050 31359 32708 10190 20160 30116 40126 52001 6//// 705//
82300 91750 333   10210 20160 30///=
76061 32981 01606 10290 20223 30042 40122 52014 91730 333
10292 20240 30/// 58012 90803=
76113 32980 01803 10356 20219 39611 40072 52005 91730 333
10376 20216 30/// 58001=
76160 32562 40301 10352 20156 39824 40060 52002 81102 91745
333   10352 20265 30/// 56101 58005 81830 83070=
76256 32980 41506 10320 20191 30090 40106 52009 82078 91745
333   10337 20229 30/// 56033 58004 82357 82270=
76342 31562 40901 10314 20166 39426 40095 57002 70311 84200
91740 333   10314 20240 30/// 56300 59004 84820=
76382 32570 70000 10280 20188 38875 40064 54000 87450 91745
333   10282 20210 30/// 56550 59005 81620 86356=
76743 31557 71201 10300 20237 30114 40134 54000 70222 8543/
91745 333   10302 20234 30/// 5620/ 58012 85626 82357=
76750 32560 41104 10325 20237 30129 40139 52004 83201 91745
333   10333 20255 30/// 56205 59014 83820=
76843 32565 70802 10278 20223 39533 40172 58003 83832 91750
333   10288 20218 31/// 56199 58017 81830 82633=
76243 32374 70905 10330 20227 39853 40129 52003 84706 91730
333   10339 20236 30/// 56306 58015 84707=
76305 32970 11403 10290 20210 30086 40096 52009 81070 91730
333   10309 20228 30/// 56010 58011 81358 90801=
76525 31360 80908 10146 20115 37484 40096 52002 70542 8553/
91740 333   10148 20122 31/// 5633/ 58000 85609=
76662 11670 40000 10250 20160 38455 40095 57006 69911 70222
84400 91740 333   10262 20150 31/// 56200 59003 84633=
76675 31570 70503 10188 20078 37381 40082 56001 70544 85934
91740 333   10196 20098 30/// 56119 57941 58000 82926 83826
90030 98470=
76848 32470 70601 10190 20157 38381 49999 50002 85420 91735
333   10192 20158 31/// 56190 59010 85411=
76903 32675 70000 10278 20234 30009 40139 51003 81230 91745
333   10285 20225 31/// 56810 58028 81833 81650 82360 83460
=
89054 32260 81409 11034 21042 40154 57004 886//
333 73399 88706=
89056 11260 71015 11039 21041 40158 57005 69901 77672 87500
333 72200 83705 86708=
89057 32460 50704 11034 21046 40163 56004 84505
333 72200 84618=
89058 11257 81610 11035 21036 40161 57003 69901 77770 886//=
89059 31409 80605 11050 21053 40163 54001 74610 886//
333 71099 88710=
89251 31230 71107 11037 21043 40140 54000 77072 87600=
91413 32469 71205 10267 20240 30056 40075 57007 83271 333 56399 555
93118=
91334 11474 81209 10271 20263 30066 40069 55008 69901 70282 83171
333 56399 70104 555 93118=
91348 11472 81406 10249 20232 30024 40076 55002 69931 78082 85271
333 56399 70455 555 93118=
58221 32962 01805 10240 20194 30020 40053 57003 333 10312=
58321 32960 01603 10231 20205 40052 54000 333 10282=
58437 31970 02509 10161 20078 38146 57003 70040 333 10181=
58102 32970 01604 10230 20199 39987 40035 52003 333 10330=
58338 31956 00000 10227 20220 40059 57002 71000 333 10292=
52740 16/// /3401 10083 29058 36846 60000
555 1/132 2//00 /////=
57957 32560 70201 10248 20239 39865 40054 57004 878// 333
10291=
59082 32962 12004 10280 20235 39991 40064 57004 80002 333
10338=
59117 32963 11101 10257 20243 39976 40077 57005 80002 333
10362=
59211 31560 20000 10259 202051 39841 40039 57004 71300
82900 333 10331=
59265 32962 00902 10270 20237 39935 40066 52002 333 10347=
59287 32565 20000 10270 20252 30030 40079 57004 82100 333
10338=
59316 32966 02502 10275 20252 30071 40080 57009 333 10344=
59431 32580 60000 10262 20233 39919 40061 57003 86800 333
10331=
59644 31565 21403 10277 20247 30038 40053 57011 71300 82900
333 10327=
59758 32468 21801 10271 20253 30027 40048 57012 82100 333//
10321=
59023 11750 80000 10239 20235 39807 40047 57010 69931 71080
885// 333 10264=
59293 32565 12201 10273 20237 30031 40077 57002 81100 333
10349=
59417 11575 80000 10270 20252 39904 40050 57003 69901 71380
889// 333 10349=
59501 32570 21602 10282 20254 30073 40089 57006 82100 333
10313=
59663 32464 40902 10275 20244 30036 40063 57010 84100 333
10320=
59838 31580 11102 10266 20255 30029 40043 57014 71300 81902
333
10328 ///// 59838 00288 11002 20228 33024 41025 50098
6800/ 70283 81100 90234
0258/=
59948 11570 31402 10281 20253 30028 40036 57017 69921 71380
83900 333// 10333=
59981 11580 61805 10275 20255 30047 40053 57010 60061 70080
82202 333// 10317=
59985 11575 51404 10274 20259 30032 40037 57005 60051 70080
2202/ 333// 10325=
58027 32962 01402 10227 20196 39993 40041 57001 333 10322=
58040 31558 73602 10189 20184 30056 40060 52004 71000 875//
333 10224=
58144 32962 01401 10224 20195 30036 40058 52002 333 10275=
58633 32665 40000 10226 20223 39970 40066 57005 84500 333
10262=
58659 31715 80000 10236 20233 30037 40070 57012 71000 885//
333 10312=
58847 11970 21802 10242 20221 39974 40071 57005 69921 70098
80002 333 10360=
45007 11470 41504 10289 20240 30064 40073 56008 69901
70181 84200  333  58006 81815 83825 =
58251 31958 01101 10193 20187 30063 40069 52002 71000 333
10277=
59046 32962 00000 10258 20249 40052 57005 333 10323=
59058 32665 30000 10248 20239 40061 57002 83400 333 10330=
59072 32970 60000 10261 20244 40063 54000 82042 333 10359=
59087 32560 10000 10258 20244 40077 52002 81100 333 10337=
59096 11970 00000 10253 20236 40072 57005 69901 70098 333
10346=
59209 32563 60000 10228 20209 40046 57006 86200 333 10291=
59254 32770 72203 40290 20242 40056 52001 875// 333 10342=
59278 32575 50000 10266 20234 40072 57002 85400 333 10335=
59456 32972 02901 10270 20240 40060 57003 333 10355=
59493 32577 10902 10286 20245 40073 57008 81100 333 10345=
59632 11565 10000 10271 20253 40055 57007 69901 71380 81900
333 10329=
59647 31580 30404 10276 20252 40051 57006 71300 83900 333
10315=
59658 32468 31103 10280 20255 40056 57012 83100 333 10325=
59673 32580 21403 10281 20259 40068 57010 82200 333 10326=
58345 31930 00000 10218 20209 40066 57005 71000 333 10295=
58543 31920 80000 10229 20226 40071 57003 71000 8807/ 333
10280=
58556 31/06 90000 10220 20217 40075 57004 74700 333 10245=
58569 31/01 93602 10212 20210 40074 57007 74740 333 10231=
58660 31757 80701 10237 20227 40076 57005 71000 885// 333
10266=
58926 32962 00000 10239 20221 40077 57002 333 10356=
58944 32462 82203 10265 20248 40076 57001 885// 333 20307=
50468 32675 20000 10110 20086 39899 40096 54000 81502 333
10233=
50745 32965 22001 10166 20136 39900 40071 52007 80002 333
10279=
50953 32980 60000 10168 20138 39903 40073 52007 80002 333
10252=
54342 11660 82001 10183 20149 30014 40074 52007 69901 76086
885// 333 10253=
54471 11660 81102 10165 20144 30060 40065 52008 69931 76000
885// 333 10223=
54497 32565 71802 10151 20135 30066 40080 52013 875// 333
10248=
54662 11970 01102 10147 20131 39942 40060 57008 69901 70098
333 10182=
54511 31757 80000 10189 20152 30027 40065 52007 71000 885//
333 10264=
51468 16/// /0800 11008 29089 36559 60001
555 1/124 2//00 /////=
58150 31440 71603 10189 20184 30060 40068 52006 71000 875//
333 10259=
57259 32980 00000 10179 20163 40028 52004 333 10347=
57378 32963 01402 10232 20209 40039 57012 333 10280=
57447 32970 00000 10192 20170 39534 40048 52007 333 10328=
57476 32960 00000 10224 20213 40036 57008 333 10293=
57662 32960 00000 10254 20237 39995 40034 54000 333 10320=
57687 32960 00000 10260 20243 39967 40043 57006 333// 10299=
57745 32967 03601 10227 20218 39735 40043 57002 333 10300=
57766 32962 00000 10248 20237 40048 57003 333// 10310=
57845 32960 01802 10231 20222 40041 57011 333 10296=
57853 32970 00000 10240 20233 40047 57004 333 10306=
57866 32975 22002 10246 20234 39853 40049 57006 82040 333//
10301=
58314 32962 02703 10232 20195 39968 40051 52002 333 10315=
58424 32961 02202 10229 20215 30036 40059 57004 333 10270=
58606 32962 00000 10245 20238 30004 40056 57002 333// 10285=
59102 32961 00000 10242 20224 40073 57006 333 10337=
58265 31420 81802 10204 20201 30065 40076 57003 71000 886//
333 10232=
58472 31456 21806 10198 20195 39986 40081 57005 71000 82100
333 10232=
58477 11/08 90000 10210 20207 30036 40079 57001 69901 75240
333 10235=
58666 31/00 91101 10221 20221 39978 40076 57010 74540 333
10269=
58760 31958 00000 10226 20220 40071 57006 71000 333 10283=
58921 32965 80402 10246 20216 39841 40072 57004 8807/ 333
10355=
331057 332058 333052 330051 329051 323055=
57504 31957 80901 10249 20191 49992 57006 71000 8807/ 333
05704 10327=
50968 32970 03401 10142 20126 40082 52010 333 10242=
50246 32970 13601 10039 20029 40122 52013 80002 333 10196=
50564 32970 02902 10112 20075 40092 52024 333 10234=
50136 32970 12202 10004 21001 39619 40133 52003 80002 333
10220=
50844 32762 82201 10180 20133 40069 52006 885// 333 10261=
50854 32770 51601 10153 20132 40073 52008 85500 333 10241=
50658 32980 00401 10136 20057 40067 52006 333 10256=
50983 32970 60201 10148 20064 40089 52007 86030 333 10239=
50756 32770 51404 10169 20098 39803 40080 52009 85500 333
10264=
50557 32970 03604 10131 20063 39823 40106 52020 333 10260=
54096 32966 00000 10096 20078 40088 52004 333 10225=
54527 32960 73601 10198 20162 40065 52010 80002 333 10260=
52652 32962 82702 10188 20071 38444 40000 57008 8802/ 333//
00103 10297=
51709 11880 63202 10200 20052 38642 40018 54000 69901 70080
82962 333// 05151 10278=
51811 32862 80000 10213 20096 38696 40012 52004 8296/ 333//
05200 10283=
51818 31958 22001 10218 20070 49998 54000 70600 80002 333//
05252 10285=
56294 32962 80404 10248 20194 39448 40007 57004 8807/ 333
05602 10311=
56666 32980 02901 10263 20172 49963 52002 333 05503 10346=
56080 11680 80000 10082 20062 37139 57008 69941 70080 885//
333// 05103 10219=
54236 11670 21603 10163 20135 39972 40070 52010 60021 70060
82500 333 10257=
51828 31959 01802 10222 20044 38548 49998 57001 70600 333//
05151 10272=
54135 32978 70901 10169 20141 39859 40068 52006 80002 333//
10239=
58238 31920 00000 10215 20207 30048 40057 57003 71000 333
10290=
54377 31965 00000 10143 20117 40081 52015 70090 333// 10255=
54386 11565 80402 10112 20103 40069 52012 69901 70080 885//
333// 10230=
54186 32970 00000 10112 20078 40084 52007 333// 10234=
57993 32965 00201 10252 20235 39923 40064 57002 333// 10338=
57793 32961 20000 10245 20238 40055 57014 82040 333// 10302=
54823 32960 03203 10259 20178 39849 40039 52009 333 10334=
57127 32962 70000 10215 20181 39453 40019 52002 8703/ 333
10308=
57602 32965 03401 10247 20200 49999 52003 333 10301=
58647 31658 70000 10229 20226 40074 57004 71000 87500 333
10288=
58457 31914 00000 10223 20217 30014 40063 57005 71000 333
10268=
56492 32960 00000 10233 20208 39624 40005 52004 333 05603
10309=
57405 32965 03601 10231 20213 40003 57009 333 10302=
57411 32962 00201 10233 20192 39659 40006 57006 333 10307=
57245 32970 00000 10224 20190 39690 40016 52009 333 05303
10341=
57071 32963 50403 10260 20163 49997 52008 80002 333// 10402=
51573 32980 00000 10258 20094 39952 49994 52004 333// 05154
10356=
53513 32970 00701 10170 20036 38927 40062 52005 333// 00452
10284=
53915 32680 83202 10207 20108 38577 49987 57003 889// 333//
00106 10326=
56287 32961 80000 10235 20189 40008 57004 8807/ 333 05604
10305=
53543 32980 00905 10170 21029 38500 40053 52010 333 10260=
54602 32962 53605 10201 20165 40060 52008 80002 333// 10310=
58549 31757 71402 10232 20229 40067 57007 71000 875// 333
10253=
54401 32970 03402 10193 20065 39255 40058 52009 333// 10277=
10315=
10321=
57297 32962 01805 10229 20200 39906 40037 57008 333// 10287=
58527 31956 70000 10221 20213 39987 40059 54000 71000 87040
333// 10276=
58813 31/04 90000 10234 20233 40060 57004 74700 333// 10324=
53478 32975 00000 10103 20066 40080 52013 333// 10242=
53882 32968 00701 10208 20130 40006 52006 333// 10339=
53487 32965 00402 10168 20031 40051 52005 333// 10274=
53564 32980 00401 10176 20062 39103 40044 52018 333// 00401
10314=
53863 32970 73601 10185 20117 40012 52009 8703/ 333// 10341=
53772 32960 52705 10236 20124 39170 40014 52014 80002 333//
10331=
53663 32980 21801 10123 20056 40044 52007 80002 333// 10272=
53975 32963 20000 10249 20151 49998 52005 80002 333// 10365=
53959 32970 81402 10307 20141 39567 49974 52010 8807/ 333//
10400=
54909 32966 31603 10237 20185 39964 40023 52002 80002 333
10347=
54863 32470 31402 10156 20146 40081 52006 83500 333 10183=
54916 32960 01403 10224 20180 40046 52008 333 10292=
56586 32970 01601 10197 20145 37993 57002 333// 05507 10291=
56684 32570 60000 10187 20153 37855 57003 86400 333// 05302
10259=
56886 32580 80000 10196 20180 38227 57004 884// 333// 05100
10265=
59007 32470 20000 10194 20193 40037 57008 82600 333// 10280=
56969 32960 00000 10232 20226 40039 57003 333// 05201 10336=
56838 32970 00000 10230 20205 40036 54000 333// 05201 10311=
56778 32565 72201 10202 20172 38070 57002 87400 333// 05304
10250=
56875 32680 71801 10211 20178 38317 57002 874// 333// 05101
10277=
56964 31567 71802 10234 20197 38647 40022 57004 71300 879//
333// 05102 10296=
56533 32680 70000 10176 20160 38357 52003 878// 333// 05301
10259=
56946 32980 03601 10219 20187 40021 52001 333// 05251 10323=
56751 32680 13203 10190 20148 37969 52001 81102 333// 05401
10273=
56977 11570 80000 10220 20207 40036 57005 60101 71798 889//
333// 05202 10294=
56985 31580 51603 10220 20184 38648 40042 57006 71300 85900
333// 05100 10271=
56786 32570 81605 10186 20168 38072 57004 884// 333// 05201
10252=
54346 32665 80000 10174 20141 40081 52014 885// 333 10255=
10291=
54945 32560 80903 10165 20158 40078 52009 885// 333// 10179=
56386 31956 80000 10242 20195 49999 57002 71000 8807/ 333
05603 10319=
51133 11680 70202 10164 20104 39454 40057 52003 69901 72580
85902 333// 00154 10284=
59849 11565 80901 10249 20242 40052 57013 69931 72580 882//
333// 10296=
53898 32962 52002 10258 20200 40023 52006 80002 333// 10323=
57193 32965 01802 10221 20188 40029 52007 333// 10348=
57290 32960 02201 10217 20179 40021 57001 333// 10328=
52984 11970 80000 10129 20117 38029 57018 60031 76066 8802/
333 00201 10243=
52889 11770 70401 10189 20128 38408 49989 57003 69901 70080
879// 333 00101 10311=
52418 32980 00000 10158 20089 38872 49996 52001 333 00057
10297=
56046 32780 80000 10050 20035 36267 57008 885// 333 05403
10152=
52754 11575 70904 10091 21012 36797 57002 69901 78000 879//
333 00003 10153=
56096 32770 83203 10214 20141 38842 49993 52002 885// 333
05151 10317=
57134 32680 83601 10189 20138 49996 52001 8247/ 333 05204
10311=
54259 32965 70000 10157 20121 40078 52012 80002 333 10258=
54493 32574 70000 10164 20138 40073 52015 875// 333 10256=
57306 32965 03401 10218 20192 40011 57011 333// 10301=
57237 31958 00000 10181 20168 40034 52006 71000 333 10303=
56196 32961 60202 10238 20187 40012 57005 80002 333 05502
10292=
52267 32980 11103 10220 21029 38987 40000 52003 80002 333//
00103 10321=
52495 32980 80403 10192 21033 38616 40022 52004 80007 333//
00201 10289=
53502 32980 70704 10210 21047 40026 52004 80002 333// 00303
10314=
53602 32980 01409 10217 21100 38378 52006 333// 10288=
52378 32980 01606 10232 21075 40008 57001 333// 00103 10317=
52576 32980 71403 10240 21039 38413 57001 80002 333// 00102
10304=
10338=
59954 11565 60904 10277 20250 40047 57011 60021 70098 86900
333// 10315=
53705 32970 40704 10200 20061 49996 52004 80002 333 00205
10316=
53723 32970 80402 10214 21017 38594 40009 52012 8807/ 333
00306 10313=
57461 32962 03401 10237 20227 39879 40031 57007 333 10316=
54857 31/05 90704 10156 20156 39999 40088 52024 74540 333
10172=
56385 31/00 91807 10098 20096 36997 57010 74540 333 05500
10177=
50834 32980 12903 10107 20039 40085 52006 80002 333// 10238=
57584 32970 01604 10258 20224 40050 57001 333// 10288=
80002 333 10360=
58931 31980 62209 10182 20163 38353 57009 70090 82032 333
10234=
50949 32965 00000 10158 20155 39915 40076 52009 333// 10212=
54374 32962 03601 10136 20123 39695 40081 52010 333// 10246=
54273 11970 00000 10127 20120 40078 52006 60011 70098 333//
10210=
54049 32970 00000 10160 20148 40080 52010 333// 10225=
54161 32570 70000 10174 20108 39792 40067 52004 87200 333//
10253=
10277=
53614 32880 63403 10209 20053 38838 40029 52012 82432 333
00301 10299=
57516 31956 03202 10232 20211 39706 49999 54000 71000 333
05703 10304=
54012 32980 70000 10096 20090 38984 40105 52011 80002 333//
10195=
53192 32980 00000 10117 20070 38852 40101 52008 333// 10221=
54208 32980 00000 10081 20079 38711 40103 52010 333// 10184=
53231 32980 01105 10150 21092 38449 52007 333// 00400 10241=
53352 32980 00000 10130 20030 40069 52003 333// 10231=
53276 11980 10000 10132 20093 38816 40082 52008 69901 70080
81032 333// 10237=
53068 11980 00702 10170 20081 39012 40075 52012 60011 70080
333// 00702 10257=
53529 32980 00203 10189 21019 38575 40038 52013 333// 00404
10292=
53149 32980 00204 10163 20022 38738 40069 52003 333// 00602
10235=
53336 32980 00202 10151 20013 38667 40062 52006 333// 00552
10249=
53083 32980 03604 10114 20069 40096 52007 333// 00951 10197=
53391 32980 00000 10103 20072 38472 40084 52006 333// 00752
10200=
52707 32770 62905 10133 21020 37254 54000 82502 333 00151
10241=
56067 32680 82501 10064 20042 36533 57005 889// 333 05404
10203=
52842 32680 71406 10110 20000 36969 52004 86902 333 05102
10187=
52866 32970 20000 10103 20045 37665 54000 80002 333 00000
10223=
54843 32662 81108 10168 20160 30039 40065 52020 885// 333
10253=
54836 32960 70401 10208 20164 40056 52011 80002 333 10301=
54725 32965 81104 10192 20167 40054 52008 80007 333 10309=
57432 32961 00000 10211 20202 40018 52004 333 10318=
57633 32962 00000 10182 20172 39307 40046 57003 333 05203
10298=
57426 31958 00701 10200 20192 40023 52008 71000 333 05604
10296=
57348 32965 03604 10221 20164 40029 52003 333 10299=
54027 32980 03401 10157 20118 39523 40081 52008 333// 10205=
50727 32980 01602 10042 20013 38951 40120 52008 333// 10200=
54026 32980 23202 10162 20115 39766 40076 52008 80002 333//
10213=
54115 32978 62502 10126 20096 40092 52010 80002 333// 10213=
54226 32680 60000 10155 20139 40070 52006 86900 333// 10250=
58506 32970 02004 10190 20179 40073 57004 333// 10221=
57799 32963 00000 10247 20238 39978 40058 54000 333// 10302=
51839 11/20 90701 10207 20092 49999 57005 69901 70683 333//
00052 10296=
51931 31956 63201 10175 20114 40009 57012 70600 80002 333//
05153 10266=
51716 32968 22702 10223 20025 38801 40003 52004 82060 333//
05303 10304=
54776 32570 73206 10153 20137 30032 40089 52024 874// 333
10162=
54449 11960 00201 10156 20146 40061 52011 69931 70080 333//
10194=
53399 32980 00000 10094 20064 40087 52007 333// 10206=
54423 32965 00000 10123 20121 39634 40080 52014 333// 10235=
54705 32960 80704 10240 20205 40035 52009 8802/ 333// 10329=
57083 32960 01802 10263 20160 39891 40015 52011 333// 10376=
54308 32980 02701 10123 20114 40087 52013 333// 10232=
54518 32962 20203 10189 20152 40072 52015 80002 333// 10309=
53593 32980 10000 10162 20075 40056 52009 80002 333// 10292=
51467 32780 12002 10169 20031 38201 52013 81900 333// 05307
10236=
51495 32980 03406 10218 20052 40084 57003 333// 05154 10311=
51542 11680 70902 10065 20028 37548 54000 69901 72580 86402
333// 05102 10154 91119 91534=
57046 32974 72004 10194 20021 37904 52007 80002 333 00001
10244 91122 91518=
53646 32970 23404 10234 21027 38877 40006 57002 80002 333
00207 10319=
57037 32965 83605 10239 20099 49976 52005 8807/ 333 00003
10365=
57036 32965 30000 10259 20151 39548 49984 52008 83030 333
10386=
57144 32980 02702 10185 20127 40020 52003 333 10342=
57016 32965 82702 10270 20117 49981 52001 8807/ 333 10375=
53845 32965 82202 10240 20055 38971 49991 52001 8807/ 333
00003 10352=
59321 32580 22501 10267 20257 40082 57012 82100 333 10308=
54102 32980 00000 10118 20105 38985 40090 52010 333// 10214=
50915 32980 00202 10115 20078 39148 40094 52010 333// 10231=
56475 32680 30000 10186 20164 38248 57003 83400 333 05705
10304=
57313 32980 00000 10205 20185 40018 57002 333 05601 10302=
52533 32980 71405 10209 20041 38437 49983 57011 82042 333//
05203 10276=
58362 32960 21401 10211 20200 30066 40076 57005 80001 333//
10258=
57816 32665 72005 10212 20193 38722 40024 57005 875// 333//
05205 10280=
54324 32965 20000 10160 20144 40062 52005 82030 333 10285=
54751 32960 71604 10177 20142 40055 57028 8703/ 333 10198=
54826 32965 22211 10156 20128 38419 52003 80002 333// 10214
91118 91522=
54624 32963 01402 10204 20157 40057 52004 333// 10293=
54436 32765 70000 10154 20149 40072 52014 85502 333// 10204=
54311 32980 00000 10125 20109 40093 52011 333// 10207=
54429 31940 00000 10159 20152 40065 52010 71000 333// 10208=
50425 32980 00000 10074 20040 40116 52019 333// 10268=
50548 32580 60202 10139 20075 40101 52014 82902 333// 10256=
50434 11965 01601 10017 20012 39279 40126 52018 69901 70080
333// 10235=
50632 32970 70405 10123 20065 39252 40091 52020 8703/ 333//
10231=
50603 32980 00204 10143 21006 39464 40094 52012 333// 10284=
53798 32960 73603 10250 20200 39943 40030 52014 8703/ 333//
10317=
54405 31950 00902 10174 20158 40063 52019 71000 333// 10308=
10320=
54618 32961 71403 10195 20160 30031 40048 52006 80002 333//
10311=
52836 32980 20901 10106 20032 36872 57005 80002 333 05100
10176=
53929 32765 73601 10211 20127 49993 52008 875// 333 10339=
56093 11570 81401 10126 20109 37657 57001 60051 78098 889//
333 05102 10257=
53738 32680 80000 10218 20084 49999 52014 885// 333 10328=
52856 32980 60000 10092 20012 37192 57002 80002 333 00051
10204=
53821 11970 82701 10215 20114 49993 52016 69901 76060 8807/
333 00203 10343=
56065 11980 80000 10057 20036 36631 57004 60011 70086 8802/
333 05102 10194=
53923 11980 80202 10210 20102 49982 57001 69901 70080 8807/
333 10315=
54715 32966 60906 10214 20184 40046 52016 86030 333 10306=
54808 32968 81804 10249 20200 40022 52006 8807/ 333 10321=
53588 32980 00905 10110 20032 37779 52006 333// 10190=
56459 32880 22901 10190 20110 37640 54000 82400 333 05506
10255=
56671 32780 60000 10190 20169 38155 54000 85402 333 05451
10277=
53853 32970 70000 10233 20053 49986 52003 80002 333// 10349=
53787 32980 01801 10243 20052 40002 52009 333// 10324=
53868 31958 70000 10259 20120 49986 52008 70400 80002 333//
10384=
56462 32580 73201 10114 20095 37127 57002 874// 333 05502
10235=
59133 31659 82503 10254 20248 40069 57009 71000 885// 333
10276=
54292 32962 10000 10119 20083 39888 40097 52007 80002 333//
10238=
56257 11680 10202 10085 20023 36292 52002 69911 70098 81400
333 05302 10170=
56357 32680 10000 10077 20034 36464 52001 81400 333 05300
10175=
56152 11780 73402 10114 20032 36300 52001 69961 70080 86902
333 05551=
56144 32780 20000 10116 20071 36836 52004 82400 333 05504
10227=
10280=
56374 32380 70000 10131 20120 37397 57007 874// 333// 05503
10216=
56146 11880 20702 10093 20066 36721 52007 69961 72598 82400
333 05403 10220=
56247 32880 11403 10195 20040 37376 52009 81400 333 05506
10300=
54753 32662 61603 10181 20145 30043 40049 57028 86400 333
10260=
78583 32575 70611 10302 20247 40135 84208 333
03307 58015 84824 87280=
89009 41548 80113 11553 36836 57002 77677 83018
333 83425 86241=
78858 11463 70712 10290 20243 30115 40171 69941 70582 83242
333 10280 20260 58011 70004 83818 86074=
81405 01562 70912 10285 20241 40104 60021 70362 84232
333 58002 69907 84820 83361
555 10294 20235=
33815 32698 73301 10194 20064 40136 53006 82404 333   10225=
60096 31318 63610 10208 20202 40125 57008 71022 86600
333 10228 86704=
60101 32565 20512 10279 20146 40147 56014 82200
333 10314 82820=
60115 32575 23608 10300 20194 40145 56004 82200
333 10340 82833=
60135 32958 33006 10245 20180 40142 58008 80002
333 10265 83070=
60150 32660 40608 10358 20077 39504 40105 56006 82202
333 10368 82823 82070=
60155 32456 50604 10240 20177 40148 55006 82102
333 10257 82816 85070=
60156 32960 33610 10266 20160 40151 55000 80002
333 10329 83070=
60230 32660 62606 10355 21019 40117 56004 81202
333 10378 81840 86070=
48698 31464 70000 10270 20244 30050 40068 70522 81138 333
81816 87278=
61901 16/// /1212 10182 20123 40183 5//// 69902 333 10200=
61902 11482 21115 10261 20223 40134 60021 70181 82800 333 10290
58014 82818=
88889 32483 72420 10033 20001 40200 56018 875// 333 81614 87616
90710 91131=
88963 32965 32303 11062 21106 30138 40168 58001 80006
333 56000 83289 92407 95000=
88968 11440 81427 11084 21107 39977 49992 53007 69951 77073 887//
333 56499 88711 90043 90238 90942 91045 91514 92436 92813 92912
94070 96037 DIEBEL/S=
89034 32970 31411 11097 21204 39748 40077 57007 80006
333 56004 83270=
89053 31104 83605 11043 21059 30156 40170 54000 74442 886//
333 56099 88702 90054 92412 92840 94076 95096=
89055 32965 50904 11106 21121 39917 40170 50004 80006
333 56000 85271 92843
555 10155=
89066 32970 70000 11092 21112 30144 40153 57027 80007
333 56009 86270 92417 92840 95000=
81408 06/// /0904 10271 20245 40101 60131
333 58004 60137=
81415 36/// /0702 10310 20236 40093
333 58004=
60060 31440 13605 10201 20177 40145 57007 71011 80001
333 10211 81070 95300=
60105 32958 03210 10260 20216 40133 57016
333 10276=
60107 32558 53004 10214 20202 40172 57008 85800
333 10235 82816 84626 95380=
60127 31565 82706 10342 20127 39574 40126 55005 71791 889//
333 10373 83826 86933=
60141 32660 41816 10350 20069 39489 40109 55004 84900
333 10370 83833 81940 95400 95800=
60185 32470 33209 10262 20165 40143 56004 81502
333 10292 81616 83070=
60195 31670 6//// 10253 20107 38543 48560 53005 71799 86900
333 10311 85833 82940 95500=
60210 32570 52205 10330 20105 39004 48561 56005 84302
333 10335 83830 81933=
60265 32670 52406 10336 20040 38907 48561 53002 83202
333 10342 83840=
60318 32558 31006 10232 20201 40177 57009 83200
333 10270 83820=
60340 32565 20206 10240 20218 40173 55005 82100
333 10260 82816=
78897 11458 71014 10300 20227 40168 58014 69901 70286 868//
333 012// 10316 20265 58011 70004 85816 87650=
76122 32680 60303 10322 20058 38523 40031 54000 81181 91750
333   10324 20218 30/// 56999 57894 58002 81835 83358=
76225 32660 70502 10280 20122 38572 40055 53006 87230 91750
333   10280 20190 30/// 56660 58005 82820 85340=
76323 32770 20000 10270 20140 38255 40038 57006 82200 91740
333   10270 20165 30/// 56300 59004 82850=
76471 32580 51005 10204 20145 37707 40065 52003 82230 91753
333   10230 20110 31/// 56110 58002 82832 83356=
76491 32556 30902 10340 20215 39735 40124 57006 83200 91740
333   10348 20225 30/// 56400 59002 83825=
76644 32560 70903 10346 20250 30124 40134 57006 86240 91755
333   10359 20235 30/// 5639/ 58008 86820 81330 91008 91511
=
76654 31460 02302 10298 20232 30104 40108 57002 70544 81100
91750 333   10312 20245 30/// 56/00 59001 81820=
76687 12564 63002 10214 20173 38657 40146 52003 69941 855/1
91745 333   10215 20176 31/// 563/6 58012 81824 84623=
76695 32660 10603 10347 20205 30114 40124 57004 81100 91753
333   10351 20245 30/// 56300 58010 81847 91006 91509=
76737 01478 80000 10210 20181 38784 40136 52006 69917 75155
886// 91740 333   10216 20179 31/// 562// 58015 69951 88710
91104 91513=
76220 32880 80000 10264 20140 38144 40050 57007 8805/ 91740
333   10264 20122 30/// 56050 58005 88357=
76519 32560 80000 10265 20148 38349 40086 52003 882// 91750
333   10281 20156 30/// 562// 58000 88825=
76593 32470 20503 10286 20243 30133 40149 58003 82200 91750
333   10305 20240 30/// 561// 58008 82830 92022 91005 91505
=
76640 32550 60901 10310 20228 30125 40155 58002 84230 91730
333   10328 20230 30/// 5622/ 58000 84825=
76741 31558 73603 10280 20250 30107 40127 51006 70544 84220
91744 333   10292 20240 30/// 56490 58008 84827 82456 81360
=
60190 32565 42206 10357 20070 39550 40108 55003 83902
333 10378 83826 81930=
60191 32570 43002 10365 20120 40105 55006 82902
333 10379 82830 81933=
91570 36/// /1514 10218 20213 30089 40092 55000=
91574 36/// /2016 10205 20163 30097 40103 56009=
91598 06/// /1324 10161 30065 40097 53006 69961
333 69947=
63980 11470 31306 10262 20231 40132 60032 83200 918//
333 10295 58004 83818 94313 91117=
16045 31960 03402 10226 20113 30091 40153 53008 70191 91745 333
10238 55310=
16080 31956 42605 10269 20159 30008 40125 51008 71000 80001
333 10290=
16153 32997 40416 10220 20187 39890 40144 53006 80008 91745 333
10243 55310 555 0213/=
16191 32565 50310 10226 20173 30134 40151 52019 82509
333 10285 82630=
16105 31957 10404 10222 20143 30152 40158 52013 71000 81030
333 10234 81358=
16066 32960 02704 10238 20128 39894 40145
52011=
16084 32960 30000 10248 20131 39980 40139 53018 80001 91745 333
10270 55310=
16120 32970 01404 10211 20165 30152 40155 52009
333 10232 97075 555 0200/=
16090 31658 51008 10239 20154 30059 40138 52015 71011 82150 91745
333 10253 55300 82840 84359=
16110 32970 02802 10218 20137 30122 40145 52002 91745 333 10228
55307
555 0100/=
16134 31/12 53307 10096 20078 37862 48523 52012 71011 85200 91740
333 10104 55300 85800 95090 95190 444 78//5=
16149 32970 00606 10210 20184 30133 40148 52017 91745 333 10244=
16008 42570 60508 10118 20024 38562 48522 52014 86200 91745 333
10142 86820=
16040 11665 32302 10127 20103 39273 42798 52014 60052 70296 83200
91745 333 10200 83840=
16020 11870 30312 10224 20058 39863 40141 52023 69922 70186 83070
333 10243 83357=
16061 31958 11504 10170 20122 39331 42784 52012 71011 80001 91745
333 10190 55310=
16076 31958 01408 10251 20148 39861 40128 52018 71000
333 10275=
16114 31558 60000 10230 20153 39502 42793 52014 71011 81201 91745
333 10242 81825=
16021 32589 43106 10094 21141 38000 48502 52012 84200 91745 333
10110
84830=
16022 11570 30403 10068 20007 37888 48513 52016 69962 70184 83200
91745 333 10086 55300 83830=
16033 32670 42804 10149 21019 38803 48520 52021 84200 91745 333
10160
84835=
16088 31632 31404 10251 20117 30027 40138 53014 70500 82101 91745
333 10263 82834=
16098 31857 11503 10220 20136 30106 40156 52019 71011 81030 91745
333 10243 81358=
16094 31540 21102 10218 20161 30087 40149 53018 71011 81201 91745
333 10242 81830=
16108 32970 03204 10222 20127 30136 40155 52006
333 10230=
16140 31958 01014 10238 20173 30094 40142 52018 71010
333 10267=
10224
81840=
11036 11575 73306 10145 20084 39966 40192 52026 60042 70182 8387/
333 10159 81830 83358 85359=
11010 11570 89902 10131 20109 39851 40223 52550 60032 70282 888//
333 10157 82828 85845 87658=
11120 11480 79902 10134 20111 39531 40220 53016 60062 78082 86860
333 10141 81817 83850 85657=
11150 11260 79901 10124 20108 39700 40231 52025 60062 78086 878//
333 10149 81704 84828 86657=
11240 11684 33508 10176 20082 39774 40177 52020 60032 70198 82231
333 10206 82845 91113 91208=
11816 11580 73207 10153 20085 30028 40188 52029 60072 70262 81270
333 10179 81823 87358 =
11826 11570 73304 10140 20108 39985 40180 52024 60062 70282 85870
333 10161 82830 85650 87457 =
11903 11560 70000 10125 20102 39793 40166 52013 60032 70366 87500
333 10132 87626 =
11934 11465 72604 10098 20069 39352 42787 53015 69962 70166 87500
333 10118 81713 87643 =
11968 11782 52401 10151 20088 39882 40155 53013 69902 70166 83530
333 10170 83650 83359 =
11841 11362 71201 10116 20086 39810 40180 52032 60072 70286 87500
333 10137 82708 87626 =
11858 11570 73102 10144 20138 30026 40173 52018 60042 72562 87800
333 10185 82823 87630 =
11916 11/00 93309 10008 20005 37962 48466 52006 60032 75175
333 10014 89/00 =
11927 11965 60000 10145 20105 39902 40157 52013 69942 70162 86030
333 10167 86360 =
11930 11/00 93207 11026 21026 37365 47048 52010 60032 77774
333 11004 89/00 93515 96049 =
11993 11670 70802 10138 20094 39947 40158 53006 69932 70162 86570
333 10177 86646 87360 =
11855 11580 73204 10144 20121 30014 40176 52022 60062 70282 8127/
333 10173 81820 87357 =
11867 11465 70203 10130 20102 39870 40180 53022 60052 70262 87870
333 10150 81713 87643 87357 =
11880 11660 42803 10140 20132 39996 40163 53018 60062 72166 84200
333 10170 84836 =
11918 11466 73004 10087 20068 39361 42798 53025 69992 72162 875//
333 10110 83710 87626 =
11933 11/15 53202 10050 20050 38630 48481 53012 60032 74065 84840
333 10053 816// 84820
444 16//4 =
11938 11350 72402 10080 20076 39115 42783 52010 69992 71062 87500
333 10100 83706 87626 =
11976 11670 80000 10131 20101 39901 40158 53012 60012 70266 8357/
333 10147 83640 88360 =
11978 11784 80601 10150 20121 30031 40157 53008 69912 70262 885//
333 10178 88650 =
17601 32965 00502 10242 20206 40098 52014 333 10306=
12772 11580 73202 10158 20094 39878 40154 53010 69912 70262 8457/
333 10170 84630=
12822 11580 43104 10160 20107 30035 40175 53018 60022 70182 81240
333 10180 81826=
12843 11682 62803 10164 20122 39993 40158 53009 69932 70382 85882
333 10186 83833 83646=
12882 11970 61003 10149 20128 30027 40158 52006 60022 70162 85072
333 10189=
12925 32580 60203 10162 20119 30004 40170 53025 83870
333 10199 81830 82633=
12942 11970 60303 10164 20114 39926 40166 52020 69912 70182 83042
333 10186=
12982 11770 73501 10167 20148 30057 40156 53011 60022 70162 8457/
333 10214 84650=
16470 32965 03106 10212 20188 39951 40181 55006 91745 333 10236
55310 22115 95000=
16400 32998 11908 10212 20194 39891 40172 55007 80001 91745 333
10254 55310 22/// 555 0100/=
16420 32597 40106 10234 20172 30105 40168 56005 84200 91745 333
10264 55302 84825 555 0200/=
16410 32970 00905 10258 20083 30040 40175 56005 91745 333 10284=
16429 32966 23007 10240 20193 30164 40175 55002 80001 91745 333
10272 55310=
10004 46/60 ///05 10130 20092 30207 40207 57002
222// 00129
333 10135 20110 55310=
10015 32484 22503 10133 20075 30197 40207 57001 81201
222// 02126
333 10141 20106 553// 81816=
10020 32582 22407 10127 20078 30164 40200 57001 82201
333 10141 20104 55305 2//// 82820=
10035 32680 12405 10141 20039 30152 40210 52002 81101
333 10159 20094 55310 81840=
10055 32584 22806 10143 20071 30193 40203 52004 81201
333 10152 20104 55310 81828=
10147 32784 13204 10162 20034 30190 40208 51006 81101
333 10173 20097 55310 81850=
10162 36/60 /3103 10164 20020 30122 40203 53007
333 10171 20089 55310=
10184 32986 22904 10149 20003 30202 40209 53011 80004
333 10158 20096 55310 82073=
10270 12884 13503 10176 20015 30152 40206 53014 69902 81400
222// 06171
333 10194 20090 55309 81657=
10361 11783 43102 10173 20049 30110 40211 53012 69902 70181 82231
333 10179 20081 55310 82850=
10384 11884 23103 10164 21018 30142 40201 53015 69902 72500 81261
333 10194 20117 55306 81857=
10393 11681 43103 10178 20020 30079 40203 53017 69902 70182 82330
333 10181 20102 55309 20898 30398 82940 83358=
10400 32980 52502 10171 20055 30161 40209 53004 80001
333 10198 20107 55304 85080=
10438 11881 53301 10155 20058 39939 40215 53011 69902 70282 82231
333 10170 20105 55300 82857 83360=
10469 11682 63303 10154 20066 30053 40215 53015 60012 70182 83831
333 10178 20105 55300 81845 83657 85073=
10488 11582 72503 10133 20080 39940 40218 53020 69952 71498 8636/
333 10163 20091 55300 82827 85948=
10548 12683 70501 10136 20063 39679 40212 51013 69902 83232
333 10150 20071 55301 83840 84358=
10637 11684 52003 10172 20067 30082 40216 51008 69902 70281 83831
333 10181 20101 55308 82845 83075=
10685 12580 72602 10120 20048 39556 40221 53019 69912 879//
333 10137 20072 553// 83830 81933 85650=
10738 11581 61001 10138 20083 39760 40222 51006 69932 70162 81831
333 10139 20100 55308 81825 86075=
10763 12680 52301 10153 20076 39844 40218 53012 69912 82231
333 10158 20094 55302 20520 82840 83358=
10788 12680 30101 10137 20089 39793 40218 53021 60022 81230
333 10141 20106 55308 81833 83358=
10852 12580 73402 10120 20080 39667 40230 53017 60042 86801
333 10135 20095 55300 81820 86656=
10946 11460 70000 10114 20096 39407 40228 53014 60192 72582 873//
333 10118 20094 55301 83815 85926 96281=
10091 32588 12506 10133 20059 30154 40205 53007 81201
333 10137 20101 55310 20916 30236 81820 91114=
10113 32982 23102 10141 20070 30188 40207 51002 80001
333 10147 20107 55310 82074=
10129 32682 33203 10153 20060 30195 40208 55000 82201
222// 02168 2//00
333 10154 20100 55310 82840 83075=
10131 32582 23502 10144 20058 30194 40208 55000 81101
333 10150 20094 55310 81830=
10170 32586 33601 10142 20043 30189 40204 53004 81202
333 10156 20117 55310 81830=
10253 16/60 /0103 10168 20034 30186 40207 53011 69902
333 10187 20082 55310=
10305 32580 42802 10180 20031 30177 40208 51004 82832
333 10192 20098 55309 82830 83080=
10348 12782 42402 10153 20051 30110 40215 52008 69902 83801
333 10171 20081 55305 83850=
10385 11884 33203 10179 21018 30141 40201 53015 69902 70381 83230
333 10192 20118 55308 83857=
10427 11586 61102 10097 20041 39219 48528 52011 69902 70182 85401
333 10118 20049 55300 84826=
10453 32482 63301 10066 20028 38898 48527 53012 86800
333 10084 20035 55301 83813 83613=
10474 12784 52603 10175 20033 30079 40205 53015 69902 82230
333 10195 20113 55305 20550 82850 84358=
10490 16/59 /2303 10146 20096 30090 40210 51017 60042
333 10176 20096 55306 20808 91116=
10499 12780 32801 10135 20067 39924 40208 53022 60012 83500
333 10151 20086 55310 83650=
10501 32768 43301 10166 20045 39965 40207 53003 81101
333 10192 20093 55307 81850 84075=
10513 12780 63102 10178 20054 30092 40210 53006 81108
333 10197 20095 55308 81856 86275=
10532 11682 51702 10167 20062 39983 40213 52010 69902 70262 84801
333 10179 20092 55306 81833 83640=
10544 12586 52603 10107 20034 39152 48537 51013 69902 83801
333 10119 20041 55308 82830 83077=
10554 11786 50203 10137 20051 39834 40215 52017 69902 70182 82230
333 10165 20080 55309 20895 82850 84360=
10577 11681 30101 10137 20054 39718 40213 53017 69962 70181 82240
333 10146 20080 55307 20680 30425 82844 96487 96481=
10578 11475 13305 10064 20033 38831 48528 53020 69992 70184 81200
333 10072 20026 55310 20778 30294 81812=
10609 32680 72302 10166 20070 39887 40208 53003 83801
333 10186 20098 81840 87076 =
10655 11683 52402 10160 20076 39892 40212 51011 69902 70182 81231
333 10169 20091 55307 81840 84076=
10688 11668 73203 10133 20075 39701 40218 53019 69902 78062 878//
333 10145 20089 55300 85835 84657=
10708 12680 60000 10151 20086 39838 40215 53005 69902 82831
333 10165 20096 55303 81835 85075=
10729 12683 51903 10162 20094 30099 40218 52008 69902 81201
333 10180 20104 55310 81833 85075=
10776 11582 32802 10149 20094 39788 40224 53017 69922 70161 81130
333 10150 20103 55307 81820 83360=
10803 12683 73301 10171 20085 39868 40220 53007 60022 84831
333 10190 20122 55300 81835 84650 96415=
10836 12486 72602 10107 20079 39361 40220 51010 69902 81841
333 10107 20080 55306 81816 87076=
10929 11680 73402 10162 20098 39694 40214 53012 60042 78082 86871
333 10186 20129 55300 82833 85650 96480 98365=
10961 11/00 93308 11035 21035 37116 47092 52012 60272 77174
333 11017 21042 55300 91118 91211 96049=
10962 11/04 83605 10083 20075 39101 48547 53022 60182 76086 887//
333 10104 20071 55301 847// 88703 96041=
40582 32960 03607 10389 20038 40034 53014 333 10457=
16362 32560 72709 10221 20184 30145 40162 58005 84206
333 10259 84820=
16460 32960 00903 10235 20198 30139 40159 53002
333 10287=
16405 32960 00508 10265 20094 30131 40170 55002
333 10288 95400=
41170 41956 00202 10285 20270 30012 40025 70500 333
10362 58012=
57178 32961 03601 10215 20204 39888 40037 54000 333//
10315=
11101 11475 71904 10135 20127 39703 40218 53012 60222 70382
875// 333 10149 81719 87635=
11022 32677 73305 10132 20066 39814 40197 52028 85870 333 10168 82835
84840=
11028 11570 82603 10126 20116 39867 40205 51026 60022 70282 884//
333 10158 86830=
11146 11/09 73212 11035 21045 36965 47072 52010 60072 74174 876// 333
11004 877//=
11157 11475 70704 10120 20081 39445 40200 52024 60032 72588 878// 333
10161 81818 83826 86856 91113 91207=
11172 11440 80000 10084 20069 52022 60052 76162 887// 333 10149
88715=
11204 16/// /2908 10160 20044 39404 40165 69912 333 10201 90403
91114=
11231 11688 19901 10172 20113 39625 40173 52016 60052 70198 81160
333 10211 81835=
11423 01380 79901 10080 20068 39354 42840 53022 69922 78082 878//
333 10108 69925 86806=
11464 11880 33604 10101 20047 39244 42833 52020 69912 70180 82031
333 10140 82357=
11487 11570 72704 10112 20076 39606 40222 53020 69902 70381 81440
333 10127 81626 86358=
11518 11986 53303 10121 20062 39787 40221 52025 69902 70182 85031
333 10147 85359=
11659 11581 63403 10097 20080 39582 40216 52028 69992 70282 86800
333 10114 81821 86645=
11782 11565 73202 10105 20081 39889 40201 52033 60032 70282 871//
333 10154 87820=
16453 32998 02506 10244 20186 30077 40152 56002 91745 333 10258
55305 98088 555 0215/=
16480 32998 02304 10238 20193 30100 40160 56007 91745 333 10270
55306 555 0200/=
16242 32565 51604 10213 20156 30148 40151 50003 82170
333 10253 82830 84359 555 0////=
16310 32697 43204 10236 20211 39951 40164 56003 81201 91745 333
10250 55304 81840 555 0214/=
16158 32565 42603 10210 20158 30151 40158 53004 81110 91745 333
10242 55301 81830 84465=
16261 32670 50909 10218 20186 30066 40136 53007 83530 91745 333
10278 55303 83640 83360 95000=
16320 31860 72006 10270 20172 30124 40136 54000 70211 84038 91745
333 10274 55304 84358 555 0324/=
16560 32570 53212 10278 20182 30167 40173 55002 81105 91745 333
10322 55310 81825=
54929 31920 00903 10194
20184 40056 52002 71000 333//
10282=
16170 31958 22506 10228 20124 30105 40149 52006 71011 80001
333 10255=
16206 32565 62506 10250 20192 30139 40147 53004 81401 91745 333
10280 81630=
91376 11469 80711 10259 20239 30075 40078 53007 60201 76186 8482/
333 56299 70455 555 93118=
26038 12598 12902 10130 20055 40155 52012 60022 81800   333 10154
555 50107=
26045 11998 13201 10105 20076 40164 52015 69902 70281 80001   333
10177   555 50108=
26115 32998 62104 10089 20074 40156 51010 81082   333 10112   555
50096=
26242 32998 03002 10145 20043 40166 52007   333 10164   555 50118=
26247 32998 22701 10147 20040 40170 52008 81041   333 10174   555
50126=
10402=
26058 32598 20201 10136 20079 40163 52009 81101   333 10165   555
50118=
17600 32980 00303 10230 20155 30095 40111 52017
333 10266=
17609 32965 02907 10241 20194 30100 40102 52013
333 10297=
17022 32670 42705 10188 20169 40157 54000 84200 333
10216 84834 92438=
17038 11220 70804 10173 20164 40162 52010 60172 78188 87750
333 10194 85706 86830 87359 92425 96010=
17050 32970 11606 10240 20156 40130 56001 81030 333
10274 81360=
17060 32960 00808 10214 40145 55000 333 10238=
17096 11570 72412 10100 20062 38220 48477 52020 60032 79592 85950
333 10200 81920 84825 87358 10101=
17124 32965 02908 10188 20122 39252 40132 51003 333 10248=
17128 11665 60309 10161 20104 39068 40126 52013 69912 78022 86900 333 10224
81935 85840=
17170 11665 52504 10152 20092 38315 48481 53001 69942 70292 83250
333 10232 83835 85359 10060=
17195 11670 10000 10144 20076 38965 48510 52019 69952 70191 81100
333 10226 81840 10140=
17200 11670 41910 10190 20113 39162 40099 52010 69922 70282 84200
333 10257 84840=
17219 32965 03514 10259 20115 40123 53003 333 10309=
17240 32675 10000 10196 20100 39016 40115 53001 81100
333 10238 81835=
17244 32670 22702 10172 20083 38986 48510 52010 82100
333 10234 82840 10116=
17280 11670 53609 10210 20103 39318 40061 52031 69922 70192 83260
333 10323 83835 85359=
17350 32960 00702 10242 20198 40097 52012 333
10310=
17034 11670 71102 10180 20151 40154 53010 60192 70262
84270 333 10186 84835 87359 92438=
17070 32965 02203 10168 20131 39300 40144 52009 333
10232=
17084 11670 60305 10160 20127 39268 40145 53010 60022
72598 84250 333 10218 84835 86360=
17098 11665 71108 10102 20081 38200 48493 51010 60072
78082 84250 333 10168 84835 87359 10112=
17150 32960 00109 10221 20142 40134 55000 333 10282=
17160 32970 03602 10184 20097 39004 48502 53003 333
10225 10117=
17184 32970 00205 10270 20157 40116 53002 333 10333=
17190 32670 10603 10180 20122 39013 48495 53001 81100
333 10234 81840 10133=
17210 12620 80205 10220 20086 39077 40048 53019 69902 8452/
333 10300 84633 88459=
17234 32970 02906 10254 20136 40102 53005 333 10335=
17260 32970 03303 10242 20102 39300 40069 52018 333 10302=
17290 32970 01602 10254 20179 40115 53004 333 10324
92408=
17370 32665 23106 10252 20209 40101 52009 82200 333
10280 82835 92427=
17056 32970 01404 10205 20158 40141 58004
333 10217 92418=
17092 11660 72308 10136 20122 38840 48489 53014 60072 72588 85250
333 10210 85835 87359 10106=
17112 32970 00107 10220 20209 40134 56007 333 10274 92418=
17115 32960 03308 10204 20117 40138 55000 333 10228=
17116 32960 02701 10224 20145 40142 55000 333 10265=
17188 32670 23403 10210 20131 39100 40119 55000 82100
333 10252 82840=
17202 12670 42908 10160 20108 39110 40094 53010 60032 84200
333 10240 84835=
17248 32675 20501 10190 20126 38960 48496 53005 82500
333 10240 82640 10110=
17292 32970 03407 10244 20115 39376 40094 54000 333
10292=
17300 32570 10604 10264 20161 40087 53007 81100 333 10342 81830=
17330 32670 22002 10243 20201 40090 52013 82100 333
10310 82840=
17042 11560 72202 10180 20167 40159 52013 60112 78082
85270 333 10230 85830 87458 92437=
17074 11670 21602 10158 20118 39230 40131 54000 69942
70181 82100 333 10219 82834=
17085 32670 20203 10188 20107 40149 52015 82100 333
10236 82840=
17100 11670 60000 10160 20079 39126 40090 54000 60062
70196 83270 333 10238 83836 86359=
17140 32965 00604 10146 20112 38708 48504 52010 333
10198 10126=
17203 11670 70000 10152 20138 38847 48523 52029 60052
70292 84250 333 10272 84837 87359 10125=
17205 11665 62506 10134 20076 38310 48474 52010 60042 72598 84250
333 10230 84840 86358 92426 10081=
17237 32970 02903 10256 20125 40107 55000 333 10306=
17250 32675 20303 10171 20103 38799 48504 52007 82100
333 10213 82840 10124=
17255 32970 03004 10230 20160 39450 40084 52020 333
10308=
17270 32970 00606 10230 20117 39463 40069 52032 333
10324=
17375 32975 01701 10242 20195 40098 53006 333 10309
92418=
83358 86462 88272=
10152 83710 88650 90710 91125 92447=
26141 32598 32706 10133 20029 40165 52016 83800   333 10160   555
50113=
12205 12970 13602 10140 20056 30204 40212 53020 69972 80001
333 10163 20097=
12560 11460 73202 10106 20081 39851 40193 52032 60052 70185 878//
333 10120 20092=
12695 11560 81502 10114 20099 39828 40164 53004 60012 76182 885//
333 10165 20106=
12120 32498 22605 10119 20058 30194 40201 52014 81302
333 10146 20103=
12250 11597 73501 10122 20066 30110 40198 52018 60012 70382 84970
333 10128 20099=
12295 11460 82201 10104 20093 39997 40181 52019 69962 72122 8452/
333 10175 20104=
12330 11565 52502 10143 20073 30095 40201 53016 60062 70362 82932
333 10149 20090=
12375 11460 89902 10104 20097 30058 40188 52014 60052 76186 8752/
333 10167 20104 84810=
12100 32970 03002 10126 20055 30204 40211 53010
333 10149 20116=
12105 32998 03002 10122 20083 30168 40209 52013
333 10142 20103=
12135 12598 23403 10117 20073 30195 40198 52015 69912 81201
333 10149 20095=
12185 11470 70701 10107 20093 30056 40190 52016 60072 70182 875//
333 10167 20100=
12195 32670 83503 10132 20073 39947 40170 53010 885//
333 10164 20102=
12235 11597 33204 10132 20002 39994 40201 52024 69902 70181 82201
333 10159 20102=
12270 11597 72302 10099 20088 30016 40197 52020 69952 72582 879//
333 10154 20094=
12300 32665 10202 10161 20039 30117 40205 53021 81500
333 10184 20059=
12360 11597 83302 10101 20090 30065 40198 53019 60122 76188 8552/
333 10151 20101=
12385 11597 80202 10108 20099 39991 40179 52011 69992 76188 8452/
333 10164 20108=
12400 11686 32402 10131 20072 39976 40208 53010 60022 70381 83900
333 10149 20085=
12435 11460 70102 10108 20093 30033 40204 53020 60032 78062 879//
333 10118 20099=
12495 11596 80802 10100 20087 39879 40168 53010 60032 78082 889//
333 10162 20099=
12510 11/90 93211 10008 20008 38386 48505 53027 60032 74586
333 10011 20003=
12520 11460 40000 10100 20085 39783 40214 51026 69952 70181 84900
333 10112 20077=
12575 11560 82802 10124 20104 39911 40161 53017 69902 70262 885//
333 10155 20124=
12595 11597 71501 10120 20115 39909 40165 52006 60032 78082 879//
333 10166 20120=
60715 32965 30318 10263 20135 30176 40181 53004 80002
333 10309 83070=
60725 32565 23210 10289 20152 30016 40177 53013 81202
333 10341 81823=
60735 32962 20606 10307 20136 30099 40176 53012 80002
333 10358 82070=
60760 32560 42502 10358 20099 30034 40138 55003 82202
333 10370 82830 83070=
60765 32960 50808 10263 20199 30165 40171 55004 80002
333 10292 85073=
60769 32962 61212 10269 20159 30165 40170 55000 80002
333 10305 86070=
60775 32975 50806 10302 20098 39827 40166 55003 81082
333 10323 81360 85070=
11130 17/// /3502 10117 20109 39648 40229 60122 7404/ 333 10144=
82900 333 10331=
10328 ///// 59838 00288 11002 20228 33024 41025 50098
6800/ 70283 81100 90234
0258/=
12160 11599 73602 10121 20092 30144 40196 52013 60042 70198 874//
333 10168 20097=
12210 12598 13401 10135 20015 30144 40212 52016 69922 81400
333 10160 20089=
12230 11670 43503 10150 20005 30115 40203 52023 69912 70381 83302
333 10162 20082=
12399 11497 73301 10126 20103 30007 40173 52005 69912 72582 873//
333 10175 20126=
12418 11698 40102 10130 20089 30098 40211 53022 60032 71511 82950
333 10144 20094=
12488 11596 80202 10108 20103 30021 40174 53013 60052 76182 8652/
333 10162 20108=
12540 11597 73304 10107 20094 39950 40199 53029 60042 72522 8337/
333 10141 20099=
12566 11460 73005 10107 20096 39894 40180 53029 60032 70262 878//
333 10121 20098=
12625 11340 83102 10083 20066 39182 42797 52024 60022 78022 888//
333 10119 20067=
12690 11598 81102 10112 20092 39661 40162 53006 60012 72582 889//
333 10158 20106=
12115 32998 02906 10124 20070 30190 40203 53012
333 10155 20100=
12125 12598 12903 10122 20061 30153 40203 52018 69972 81302
333 10149 20090=
12200 32980 03602 10139 20052 30206 40213 53012
333 10148 20127=
12272 11565 70000 10107 20086 30031 40197 52021 60012 78022 879//
333 10148 20107=
12280 11570 73602 10119 20069 30029 40188 52018 69932 72582 8693/
333 10158 20110=
12285 16/// /9901 10105 20099 30077 40191 52017 60112
333 10173=
12345 11570 70301 10103 20088 30058 40201 53021 60032 72582 8593/
333 10138 20103=
12455 11560 73402 10102 20083 39954 40198 51026 60022 72582 8693/
333 10131 20109=
12497 11560 80102 10117 20106 39956 40172 52007 60012 78082 889//
333 10178 20117=
12500 11698 30000 10122 20038 39802 40213 52021 69942 70181 83300
333 10126 20080=
12530 11497 83302 10110 20088 30002 40200 52027 60042 70352 888//
333 10117 20095=
12550 11560 83503 10101 20079 39833 40189 53027 60042 70162 885//
333 10117 20099=
12580 11560 81501 10134 20109 39917 40157 53009 69922 78082 873//
333 10170 20106=
12585 11496 81403 10120 20111 39896 40158 53009 60042 76382 8572/
333 10156 20101=
12650 11/00 90205 10005 20005 37988 48489 52015 60042 78054
333 10022 21015=
12660 11540 82703 10120 20104 39814 40166 53020 60022 78082 883//
333 10155 20089=
11406 32668 63201 10127 20046 39665 40220 52022 81270
333 10168 81833 86360=
11457 11262 23001 10062 20050 38937 48537 52021 60032 70165 81281
333 10067 81806=
11520 01575 73403 10123 20064 39857 40220 52024 69922 72581 86230
333 10153 69905 86826=
11541 31858 53102 10119 20081 39708 40224 52026 71022 85030
333 10126 85357=
11636 01475 79902 10094 20069 39539 42829 52027 69922 72122 87400
333 10128 69915 81816 87634=
11679 32580 33405 10114 20060 39724 40206 52028 83840
333 10137 82820=
11723 32682 53404 10136 20084 39905 40197 52034 85860
333 10171 82840 84656=
11766 12484 63504 10071 20059 39318 42814 52029 60022 84570
333 10116 84613 85357=
11774 11680 73602 10122 20087 39924 40192 52035 60022 70282 8227/
333 10154 82840 87358=
11787 01/00 93204 10039 20039 38677 48497 52025 60052 74585
333 10065 69975 89/00 91010=
58208 32965 00000 10225
20192 40036 57010 333// 10324=
26135 32997 02303 10130 20028 40163 52010   333 10164   555 50113=
33317 32988 60000 10155 20051 40151 53003 86030 333 10190=
33506 11598 63103 10179 20140 40111 52004 60012 72998 85900 333
10216=
33587 32697 80000 10170 20129 40143 53009
885// 333 10194 88636=
33658 11697 80202 10176 20070 40148 53009 69902 72522 8337/ 333
10202 83933=
33663 32598 63601 10192 20067 40143 53005 83301 333 10237=
33711 32598 73403 10158 20122 40138 53013 87500 333 10178 87625=
33946 32497 62204 10158 20135 40132 51007 86400 333 10238
86617=
34300 11997 69902 10162 20148 40113 51001 60172 70298 84031 333 10226 91118=
34504 12797 73403 10204 20157 40104 53004 69902 82340 333 10258=
34519 31560 60604 10189 20136 40100 53005 72992 85360 333
10268=
34601 31997 60000 10194 20153 40109 53005 70192 86001 333
10260=
56444 11680 60000 10106 20065 36803 57004 69901 78000 86400
333 05302 10183=
56571 32780 62502 10246 20152 38316 57002 86800 333 05606
10305=
56651 32680 33602 10169 20115 37600 57001 83400 333 05303
10236=
56691 11365 81804 10171 20152 37741 57006 69911 76000 887//
333 05304 10241=
56739 32578 10000 10180 20166 38310 52001 81100 333 05100
10256=
56951 32970 00000 10200 20160 38450 57002 333 05252 10290=
57328 31958 70402 10213 20198 39628 40015 52004 71000 8704/
333 10310=
58203 32965 01603 10214 20182 39995 40038 52002 333 10318=
58725 32960 00000 10229 20226 39825 40074 57008 333 10300=
10264=
56079 11880 72502 10072 20059 36686 57004 60031 70098 86902
333 05305 10205=
56167 11780 50000 10119 20079 37065 57004 69911 70098 85400
333 05504 10255=
56173 11880 80000 10079 20068 36654 57003 60051 78098 889//
333 05306 10210=
56182 11780 80000 10114 20090 37176 57004 60021 70080 885//
333 05506 10262=
56193 31959 80000 10210 20157 40019 54000 71000 8807/ 333
05403 10294=
10177=
56748 32980 00000 10199 20155 38299 54000 333 05202 10285=
56763 32680 10000 10262 20186 49987 52004 81100 333 05505
10334=
56768 32980 01801 10205 20169 38178 57004 333 05302 10274=
56954 31556 30000 10219 20195 40029 57005 71000 83400 333
05201 10325=
56959 32965 00000 10253 20229 40014 57004 333 05303 10339=
56966 32775 61103 10281 20223 40007 57003 86900 333 05151
10332=
56986 31260 71404 10198 20191 40043 57009 71300 879// 333
05151 10246=
57707 32660 40000 10208 20173 38419 57008 84500 333 05407
10281=
57713 31656 70901 10222 20198 40019 57004 71000 875// 333
05406 10299=
57731 32964 00000 10219 20205 40037 52001 333 10322=
57832 32771 10000 10211 20203 40039 57003 81500 333 10302=
57916 32670 80000 10244 20228 40036 57005 885// 333 10299=
57922 11575 61403 10210 20189 38566 40028 57006 60081 70080
86400 333 05303 10249=
57279 32965 01103 10212 20200 40044 57006 333 10290=
57598 31758 70000 10223 20212 40059 57005 71000 8253/ 333
10325=
57776 31980 72212 10210 20178 40063 57006 70040 8704/ 333
10228 91122 91522=
57972 32960 70000 10245 20241 39841 40054 57006 87040 333
10284=
50353 11770 60000 10104 20098 39886 40096 57003 60031 70080
82532 333 10252=
50788 32970 00702 10121 20062 30020 40101 52001 333 10229=
50963 32760 80403 10162 20072 39952 40080 52009 885// 333
10249=
50978 32980 20000 10135 20088 39813 40090 52006 80001 333
10238=
58730 32765 80000 10238 20222 40075 57007 8557/ 333 10270=
58731 31258 72001 10226 20220 40080 57005 71000 876// 333
10267=
58754 11962 03601 10238 20228 40075 57007 69901 70080 333
10325=
58911 32976 03201 10234 20227 40076 52001 333 10323=
57206 31958 71101 10207 20180 40017 57011 71000 8704/ 333//
10281=
56172 11880 80000 10121 20101 37331 52012 60021 78098 889//
333 05305 10282=
10317=
50888 32680 43402 10117 20062 40099 52007 84900 333 10233=
47401 42/70 60708 10073 20061 30112 40126 53001 82632=
47412 42/60 71003 10156 20088 30042 40072 53002 86602=
47420 41/05 90303 10060 20054 30065 40112 56012 7474/=
47426 42/70 80801 10145 20109 30021 40064 56006 8327/=
47582 41970 80201 10155 20135 30013 40038 55002 70262 8807/=
47590 41257 80502 10162 20144 39986 40037 56005 75165 886//=
47600 41/50 81801 10163 20153 30028 40044 53008 780// 882//=
47648 41/15 83606 10158 20155 39980 40012 58011 78088 8772/=
47662 41/30 83404 10185 20170 39980 40022 58004 76166 887//=
47678 41460 82313 10225 20220 39937 40029 56013 72522 882//=
47740 42/65 83002 10167 20154 30029 40066 53014 8772/=
47778 41/57 81402 10193 20183 39946 40032 53002 71082 882//=
47807 41/58 73102 10187 20165 30065 40082 53014 71022 872//=
47827 41/60 83302 10209 20188 30042 40078 53005 702// 882//=
47843 42/65 61501 10177 20160 30049 40080 53006 86200=
47898 41/65 63003 10211 20194 30007 40045 50004 7028/ 82201=
47909 41/70 72502 10270 20228 30082 40090 53004 70282 872//=
47918 42/70 21905 10276 20254 30081 40089 57014 82200=
47936 41250 71905 10257 20245 30037 40097 56009 71021 872//=
47945 41/30 71904 10248 20245 30088 40111 57007 71022 876//=
47971 42/70 72001 10250 20231 30120 40129 55006 85232=
47991 42/80 21104 10272 20240 30139 40149 55001 82201=
47575 41/50 83604 10129 20120 30047 40051 55002 71022 886//=
47585 41/58 83601 10142 20136 39996 40051 56009 75162 886//=
47598 41/30 83502 10163 20152 30020 40026 58015 76162 8472/=
47602 42/70 82001 10159 20146 30019 40039 53001 8807/=
47618 41/40 81302 10148 20137 39346 40040 55000 71022 885//=
47624 41/60 73302 10163 20155 39898 40030 57005 70162 81532=
47636 41/65 43602 10173 20167 39971 40036 51006 70281 81572=
47655 41/58 72603 10185 20175 39965 40019 56001 71062 8667/=
47750 41/62 80101 10183 20173 30026 40052 51010 70282 882//=
47755 41/58 82402 10175 20169 30054 40078 53017 7106/ 8227/=
47772 41/25 82603 10197 20180 39951 40046 51005 71062 882//=
47800 42960 03402 10163 20152 30054 40076 51009=
47815 41/40 80101 10192 20180 30053 40068 53010 71082 882//=
47817 41/80 72301 10195 20173 30038 40079 53006 70282 872//=
47830 42/70 42506 10220 20186 30039 40056 55000 81532=
47837 41/80 72906 10217 20196 30055 40076 51005 70282 81132=
47891 41/60 72402 10195 20175 30040 40052 53004 72562 872//=
47899 41/05 91605 10189 20184 39832 40047 53010 74584=
47927 42/75 61904 10266 20254 30048 40094 57010 86200=
58715 11968 61403 10242 20232 40057 57012 69901 70060 86040
333// 10294=
52436 32980 00000 10147 20050 38382 49993 57001 333 05253
10277=
52787 32980 20000 10077 21044 37030 57003 80002 333 00000
10164=
52996 11965 80704 10104 20086 37533 57007 60111 70098 8802/
333 00054 10217=
56021 11660 83204 10035 20017 36087 54000 60051 78098 889//
333 05303 10113=
56018 11980 21801 10053 20044 36183 57006 69901 70080 80002
333 05302 10128=
52323 32980 01604 10170 20004 38178 57001 333 05151 10261=
56033 32680 60000 10019 20003 36035 57013 82502 333 05351
10096=
52955 32680 70000 10073 20038 36961 57005 879// 333 00000
10204=
52713 32980 81401 10109 21020 36886 57006 8802/ 333 05152
10210=
44216 32999 30000 10194 20006 38839 49982 58004 83040=
44229 32999 00000 10074 21019 37904 40150 51003=
44242 316// 13604 10141 20070 39229 40082 52009 70232 81400=
44266 329// 50000 10128 20013 37748 40044 54000 85080=
44291 32898 20000 10138 20019 38692 40144 52009 82040=
44325 329// 61405 10212 20058 38737 40004 54000 85054=
44348 329// 00000 10151 20067 38664 40091 52008=
44374 32999 21806 10186 21022 38215 40015 54000 82040=
44385 32999 30000 10193 20006 38851 40068 54000 83040=
44386 329// 00000 10164 20021 38976 40081 52004=
44329 NIT=
22235 00300 2//// 3//// 4//// 5//// 6//// 80255 /////=
41598 61215 10230 2019/ 40190 54000 70222 86800
22213 00235 20304 313// 40606 80200=
41998 01806 10265 20255 40104 54000 70200 80000
22214 00290 2//// 3//// 4//// 5//// 80258 REGARDS=
41697 61010 10080 20070 40175 54000 7022/ 868//
22254 00040 310// 40601 80075=
50442 11570 20000 10106 20098 40109 52007 60041 70080 82900
333 10272=
51886 32975 70703 10123 21068 37110 57003 80008 333 00000
10186=
52602 32980 82902 10102 21081 37255 57005 80007 333 00051
10209=
56029 11980 20000 10075 20046 36483 57009 69991 70080 80002
333 05303 10179=
54539 11970 00000 10161 20144 30051 40065 52017 60051 70098
333// 10210=
57902 11575 61403 10210 20189 38566 40028 57006 60081 70080
86400 333 05303 10249=
84478 22215 00211 20202 399// 40503 5//// 6//// 80194 ICE=
81100 22242 00135 20202 301// 40805 5//// 6//// 80115 ICE=
57932 11365 80000 10231 20224 40046 57006 69901 76000 885//
333 10304=
44219 32698 50902 10223 21090 38513 49979 58004 85400=
44221 32999 30000 10121 20034 38494 40041 54000 83040=
44224 32998 20000 10100 21022 37994 40043 54000 80004=
54534 11958 23601 10174 20161 40069 52014 69951 71098 80002
333// 10236=
52737 11780 80903 10138 20016 37050 52008 69901 78000 889//
333 05101 10223=
52908 11960 80705 11015 21024 35784 57002 60011 77187 8802/
333 05251 10070=
52818 32975 82703 10144 21052 37213 52003 8802/ 333 00152
10244=
56004 11980 30000 10017 20007 35830 57006 69911 70080 80002
333 05300 10116=
56066 36/// ///// 10053 20017 36616 4//// 57005
555 10040 2//// 3//// 40111 51001 60/// 7//// 80000
9//// ///// 1/020 2//00 30000=
54094 32960 30000 10136 20116 39807 40087 52013 80002 333
10278=
10235=
10249=
52634 36/// /0000 10013 20000 36766 4//// 57006
555 10030 2//// 30122 41111 51011 60/// 7//// 80000
9//// ///// 1/111 2//00 30000=
57528 16/// /2000 10130 29756 37563 61430
555 1/144 2//07 30205 12100
11101 10101 00010 10110 1011/
/////
2//// 3//// 6//// ///// ///// 8//// 9//// ///// ///// //004
11101 11111 1011/
11111 110//=
84200 333 58006 81815 83825=
45011 42475 31305 10278 20251 40078 57008 83100 333 58004=
52681 32980 70703 10206 20004 38560 49998 52007 86042 333
00001 10294=
58968 32668 51801 10271 20241 30069 40076 55010 81131=
59358 32960 01401 10272 20239 30067 40078 57015=
59559 32560 42801 10267 20237 30054 40082 57012 84500=
59792 32560 21604 10283 20261 30076 40080 57013 82200=
59997 32562 82304 10267 20226 30058 40072 58008 82220=
59158 32962 02202 10272 20225 39981 40078 55011=
59562 32565 20202 10277 20235 30066 40077 58007 82100=
47105 32565 22301 10144 20120 30054 40085 52015 82500=
47108 32960 12702 10162 20127 39979 40081 52009 80001=
47115 32960 00501 10124 20087 39807 40071 333 92031=
47135 32962 02702 10154 20112 39799 40084 52011=
47138 32962 03202 10166 20140 30073 40076 333 92022=
47159 31956 00000 10167 20166 39986 40067 52004 71000 333
92022=
47165 32963 00702 10146 20129 30038 40082 52003 333 92022=
47184 32980 22002 10157 20123 30063 40090 80001 333 92022=
47008 41260 80502 10110 20090 30051 40103 52010 71054 886//=
47016 41570 80000 10122 20104 39294 40071 52008 70262 885//=
47020 42965 20000 10139 20114 39723 40083 52005 82030=
47041 42770 72701 10131 20114 30037 40067 52025 87030=
47055 42965 02502 10134 20111 30040 40084 54000=
47058 42566 23202 10138 20123 30050 40095 52013 82500=
47069 42960 00000 10144 20126 39992 40088 52010=
23914 32999 50000 10203 20080 40152 54000 83072 333 10233=
23921 32999 62802 10110 20068 40174 53013 81034 333 10209=
23955 42984 23505 10080 20019 40058 52007 82030=
24641 42999 72101 10071 20009 40091 53002 80001=
28440 32997 20000 10143 20006 40152 53004 80001 333 10197=
28748 32966 03201 10126 20074 40136 52008 333 10194=
29231 41498 82602 10087 20081 40009 52013 70282 883// 333
88913=
29838 41597 70000 10143 20130 49993 57004 71482 85430=
30372 42984 00000 10012 21005 40167 52010=
30673 42999 03201 10014 21011 40166 52014=
30823 42984 30000 10109 20041 40115 52012 80001=
30935 41699 50802 10119 20107 40117 58008 70162 82940=
30965 42984 50401 10038 21005 40155 52015 80002=
31004 41596 82901 10068 20055 40112 52008 78082 86907 333
86922=
31088 42599 72804 10048 20028 40081 52009 85151=
31137 41699 30000 11011 21020 40120 52004 70181 83520=
31300 41684 60000 10071 20058 40087 58003 70291 83531=
31329 42999 50402 10034 20032 40095 52001 80002=
31369 42998 30704 10049 20040 40147 58003 80002=
31371 42684 20000 10077 20070 40103 52006 82500=
31416 42999 01801 10078 20053 40119 54000=
31510 429// 20000 10117 20089 40094 54000 82040=
31594 42676 61303 10132 20068 40097 52005 82501=
31707 42998 20000 10099 20090 40109 52006 82071=
31735 42997 23603 10084 20065 40109 53004 82030=
31873 42599 60202 10120 20077 40081 51003 82531=
31909 42998 80000 10074 20046 40130 58002 8805/=
31960 42998 52104 10096 20080 40109 51003 80002=
32053 41993 20000 11006 21009 40164 58005 74241 80001=
32061 42498 21503 10049 20044 40160 58005 82502=
32098 42598 81702 10051 20029 40176 52002 85973 333 85928=
32150 42996 03603 10033 20023 40159 52002=
32165 42599 80404 10055 20023 40134 56015 885//=
53698 31958 70202 10219 21076 40057 52028 71000 80002 333
10306=
57265 31956 01102 10227 20213 39919 40023 52006 71000 333
10314=
47003 41560 80404 10129 20104 30104 40108 52008 70255 886//=
47046 42969 42704 10124 20093 30071 40094 52013 84030=
47050 42565 62301 10136 20127 30046 40079 52015 86500=
47052 42965 50000 10125 20106 39767 40092 52017 80002=
47061 42980 00000 10137 20120 30047 40089 52004=
47065 42965 00000 10135 20117 30031 40094 52015=
47067 42965 00000 10149 20122 39961 40076 52008=
47068 41/02 90000 10113 20109 30055 40329 52014 74144=
47070 41960 10000 10143 20135 30001 40085 52008 71000 81030=
98223 31565 10000 10255 20248 40089 58013 70544 81100 333
56999 81820=
98325 31458 21401 10240 20264 40083 58010 70544 81201 333
56999 81817=
98328 31461 20000 10180 20168 38510 40066 58011 74044 82101
333 56999 82814=
98440 11468 40903 10285 20268 40083 58013 69931 71380 83901
333 56999 81915 83816=
98444 31465 20000 10271 20251 40087 57011 71300 82300 333
56999 81918=
98543 32465 50901 10278 20256 40081 58010 82201 333 56999
82818 84075=
98618 31465 52703 10251 20235 40076 58005 71384 82961 333
56999 83918 82820 83075=
98836 31565 60000 10255 20242 40073 58014 70544 81271 333
56999 81820 84362=
44207 329// 12702 10048 21018 38284 40126 54000 80004=
44212 32999 30000 10154 20064 38968 40016 53004 83040=
44218 326// 50000 10176 20021 38489 49990 52004 85400=
44231 329// 20902 10133 20025 38652 40064 53004 80002=
44232 329// 00905 10143 20032 39038 40103 52023=
44239 329// 00000 10074 20032 38737 40106 52011=
44241 329// 00000 11129 20085 39181 40089 52006=
44272 32998 10000 10115 20013 38160 40032 51002 84040=
44277 326// 22305 10132 20013 37781 40042 58001 85040=
44282 32999 03602 10098 20002 38271 40115 52004=
44284 328// 00000 10051 21024 37859 40150 52002=
44287 32999 10502 10107 20017 38105 40088 52010 80002=
44292 32899 20000 10142 20021 38658 40097 52011 82040=
44298 328// 10000 10132 20011 38675 40098 52004 81040=
44314 32998 00000 10138 21057 39088 40116 52005=
44341 32999 03403 10131 20015 38569 40104 54002=
44347 32999 01403 10156 20053 38665 40075 51004=
44354 329// 00000 10172 20039 39043 40059 51007=
44358 32998 00000 10154 20023 39008 40087 52009=
44373 32999 21405 10158 20025 38490 40073 51003 82060=
28661 32960 23404 10109 20064 40116 52006 82030 333 10202=
28679 326// 53303 10129 20059 40083 51010 83531 333 10189=
28879 129// 70000 10121 20102 40093 52009 69960 87050 333
10146=
28952 329// 00000 10125 20050 40127 52006 333 10194=
29023 41496 83403 10080 20074 40020 52005 71082 889//=
29122 41699 83202 10094 20064 40032 52007 70282 885// 333
88636=
29807 11597 83301 10124 20094 40023 53016 69940 70262 885//
333 10173=
30230 42998 60000 10060 20046 40080 57001 82041=
30309 42996 61604 10146 20048 40036 58006 82031=
30385 42984 10000 10042 20031 40119 52008 80002=
30650 42984 00000 10021 21004 40174 52015=
30710 42960 01401 10062 20009 40105 57002=
30844 42999 61603 10092 20021 40121 52014 85031=
31532 42984 00000 10030 20030 40123 52011=
31829 42598 30403 10058 20042 40157 58003 82501=
35078 31460 83303 10108 20102 40081 52009 76162 8872/ 333
10145 86713=
35108 32997 00000 10179 20115 40152 52004 333 10258=
35188 114// 83402 10113 20107 40062 58003 69960 78082 887//
333 10150 88714=
35229 32997 00000 10134 20073 40140 52011 333 10230=
35416 32997 20000 10179 20095 80001 333 10252=
35671 32998 20000 10125 20071 40081 52004 80001 333 10226=
35746 12998 20602 10151 20080 40103 53011 69960 333 10244=
35796 11684 22802 10188 20103 40044 52001 69900 70181 82500
333 10228=
36003 11560 82702 10138 20127 40015 52003 60082 70282 889//
333 10195=
36177 119// 01802 10142 20104 40029 52017 60020 70291 333
10266=
36428 116// 62303 10179 20086 40028 56001 69960 72522 85901
333 10254 95090=
36859 32599 83106 10181 20077 40104 52024 85965 333 10274
91019=
36870 11970 81902 10159 20059 40072 58045 60020 70398 80002
333 10276=
38198 329// 23602 10194 20048 82040 333 10290=
38341 32997 22302 10153 20046 40082 52006 82040 333 10281=
44214 32998 30000 10130 20017 38203 40029 51003 82041=
44259 32998 00000 10100 21038 39266 40137 51012=
44294 329// 00000 10103 20048 38528 40109 52003=
44305 32999 00506 10145 20041 39002 40108 52010=
44352 32999 00000 10137 20064 38874 40090 52008=
22550 31497 82504 10185 20147 40093 53008 79598 8694/ 333
10298 86916=
22583 11684 71602 10185 20160 40120 58018 69950 70299 81971
333 10313=
22768 32597 51402 10260 20130 40096 56003 83903 333 10310=
22845 11497 72502 10161 20145 40114 53019 69900 78098 8693/
333 10285 86916=
26063 12597 61901 10143 20078 40161 52007 60042 81101 333
10152=
26298 11597 70000 10120 20088 40162 53013 60022 70282 85580
333 10168=
26477 32570 80000 10148 20126 40150 52001 885// 333 10171
88625=
26702 32997 33601 10128 20048 40199 52026 82031 333 10166=
26850 32670 73302 10157 20051 40160 53010 85531 333 10190=
26997 11423 83403 10139 20135 40104 54000 60572 71098 889//
333 10172 86913=
27595 32997 31103 10202 20100 40160 55002 80001 333 10265=
27612 11697 70000 10178 20156 40132 52010 60102 70298 82304
333 10292=
27947 32997 21102 10209 20093 40139 56002 80002 333 10280=
27962 32997 61204 10200 20129 40150 54000 80001 333 10292=
33008 11570 80701 10133 20078 40170 52005 69902 72582 883//
333 10180=
34009 11561 81501 10147 20143 40096 57001 60172 72998 889//
333 10226 91804=
34172 31960 31403 10204 20095 40156 52005 80001 333 10264=
34247 32972 01502 10225 20086 40126 53005 333 10286=
34391 32997 00701 10217 20085 40142 53006 333 10287=
37054 31320 82206 10160 20143 40113 52014 79598 889// 333
10276 88707=
44210 32999 32704 10176 20025 38426 54000 83040=
44217 32998 00000 10073 20061 37853 40155 51008=
44263 32998 00000 10117 21057 38000 40037 54000=
44286 329// 02505 10146 21002 38595 40036 52002=
44317 32998 20000 10080 20036 38894 40112 51011 82040=
44203 329// 20000 10066 20019 38360 40112 52002 80002=
44213 32699 73206 10158 20061 38668 40010 58001 87500=
44215 32998 32705 10175 20040 38311 49980 51004 83040=
44225 32998 02602 10059 20020 38222 40094 51005=
44230 329// 00203 10107 20009 38735 40102 52009=
44237 32999 23205 10075 20017 38435 40105 52003 80002=
44256 32699 40000 10069 20012 39304 40128 51012 82402=
44265 32999 20000 10161 20043 38747 40048 52203 82040=
44275 328// 10000 10090 21026 37712 40071 52007 80002=
44313 32999 22708 10155 20070 39292 40071 53007 82040=
44336 32999 01403 10158 20011 38639 40079 54000=
23074 42498 73608 11002 21020 40155 58001 875// 333 87614
91114=
23711 32498 70000 10194 20124 40158 53005 82930 333 10253=
23804 32999 32001 10206 20121 40138 56001 80001 333 10284=
24125 42699 81201 10074 21038 40081 53001 82531=
24143 41596 80000 10050 20050 40080 52006 74442 885//=
24343 42999 22603 10049 20037 40085 52003 81031=
24738 42999 51601 10088 21002 40091 54000 80001=
24951 42999 20000 10029 20011 40119 52012 80002=
24959 41599 63101 10079 21002 40081 52007 70282 83531=
24966 42699 83101 19123 20062 40058 52012 82931=
29313 42698 83503 10096 20080 40031 51003 885// 333 88642=
29612 42498 73506 10106 20079 40019 52006 87300 333 87915=
29698 42697 31303 10164 20107 40021 58004 82902=
30758 42984 20000 10053 21002 40155 52015 80001=
30949 42699 70000 10111 21017 40127 52017 82850=
35406 32997 00000 10187 20097 40162 53006 333 10275=
38062 32997 82402 10201 20011 8807/ 333 10270=
38232 32698 50205 10270 20036 40105 53005 85900 333 10322=
38388 32998 63602 10270 20023 40083 57011 84032 333 10340=
38413 429// 10000 10238 20004 40083 53003 80002 333 10310=
38457 12997 22001 10215 20055 40062 52004 69902 82040 333
10303=
38507 32996 00406 10269 20094 40074 53008 333 10356=
38545 32998 03203 10199 20148 40094 53006 333 10306=
38656 32998 50203 10300 20030 40080 53013 85080 333 10359=
38687 32996 03202 10197 20043 40070 53007 333 10333=
38880 316// 22102 10288 20078 40072 53012 71711 82500 333
10360=
38895 32997 60302 10277 20111 40074 53011 80005 333 10368=
38927 32997 01704 10246 20092 40031 52003 333 10383=
38974 329// 00503 10282 20088 40044 52005 333 10374=
57399 31958 03602 10208 20197 40055 57007 71000 333 10282=
57494 32965 00901 10233 20206 30014 40042 57010 333 10278=
57655 32961 00000 10216 20207 40043 57003 333  10310=
98232 11570 22702 10260 20233 40081 58013 60021 70566 82200
333 56999 82820=
98329 31470 20401 10250 20234 40092 5/008 70544 81201 333
56999 81818=
98653 31470 80000 10260 20247 40075 57010 70544 8297/ 333
56999 82918 88358=
20046 11328 81413 11044 21060 40095 57035 69930 77173 8572/
333 11043 91119 92987 85706=
20069 41350 81709 11066 21078 40204 57021 77373 8672/ 333
86708 91113=
20087 42981 11003 11086 21105 40225 58015 80001=
20292 41480 70207 11052 21066 40220 52002 70232 875// 333
87612=
20667 31993 71902 11061 21061 40255 58011 74942 86081 333   11010
91103=
20674 42471 70305 11033 21057 40232 58 002 875// 333 87610=
20744 32598 71013 10061 20013 40133 52008 85530 333   10075 85623
91124=
20891 41195 73505 11002 21005 40119 52003 71082 8675/ 333
86702=
23022 32997 61206 10009 21005 40207 58012 83031 333   10024 91110=
23032 32868 70102 11015 21026 40238 57003 87030 333   10018 91104=
29328 41398 83303 10105 20086 40011 52004 70282 889//   333 84709=
29348 41997 72401 10115 20102 49990 52008 70282 80006=
29405 42597 73202 10091 20072 40051 52007 86330=
29937 41597 21905 10146 20117 49982 57010 71398 82900=
22113 11458 81101 10122 20090 40077 57002 60032 78182 889//
333 10187 91002=
22271 31480 61203 10123 20102 40086 58012 70294 83930 333
10182=
22820 11999 72603 10109 20082 40139 52018 69942 70282 87030
333 10143=
22887 32970 29901 10207 20136 40128 53002 80001 333 10301=
26781 11597 70302 10124 20097 40146 54000 60102 70282 87400
333 10132 87632=
33345 32998 23604 10160 20112 40142 52007 82030 333 10192=
33393 11697 80000 10119 20105 40163 53013 69902 70282 8247/
333 10167=
33791 11597 63504 10174 20135 40126 52019 69942 70292 86300
333 10233 86926=
33837 32998 50202 10188 20122 40138 53012 82031 333 10231=
34560 31957 21203 10194 20085 40150 52012 70400 82030 333
10265=
34691 32998 00000 10226 20070 40131 5/020 333 10295=
34866 32998 51503 10239 20094 40133 53012 85031 333 10308=
34880 32997 00000 10180 20119 40140 53012 333 10282=
37472 32584 70702 10201 20158 40117 53012 85331 333 10236=
48325 01210 80000 10249 20239 39809 40050 60783 76162 887//
333 59007 69947 70780=
48352 31562 70000 10265 20236 39841 40037 71392 84963
333 59012=
48405 32561 40000 10280 20244 39887 40047 83556
333 59019 70058=
48425 32560 81902 10267 20242 30035 40045 83576
333 59007=
48430 11557 60000 10260 20243 30039 40047 60013 71062 82556
333 59015 70011=
48450 32560 80000 10265 20248 30019 40052 83876
333 59004 70006=
48459 01558 60000 10250 20235 30043 40046 60153 71096 82236
333 59008 60027 70145=
48550 32560 70000 10275 20236 30057 40062 81106
333 59004=
48551 11557 80000 10252 20237 30059 40067 69943 71022 83877
333 59011 70004=
48565 01560 72405 10285 20246 30057 40069 69913 70262 82257
333 59013 69917 70426=
48568 31459 80000 10270 20240 30059 40066 71022 83876
333 59014=
48569 32460 60000 10252 20238 30031 40071 82846
333 59012 70022=
96035 31440 50000 10260 20245 30048 40080 58002 70521 83931
333 56000 57902 81918 82618 80957=
96073 31456 70000 10240 20227 30081 40088 50000 70522 83922
333 56000 57901 83915 80960=
96145 32466 61305 10284 20246 30067 40072 50000 82120
333 56400 57/// 82817 86460=
96163 32563 80000 10246 20219 30078 40085 57012 8652/
333 56009 86627=
48327 01557 81803 10245 20235 39691 40045 69903 76022 85923
333 59012 69905 79999=
48331 31560 42002 10254 20230 39815 40044 71320 83953 333
59013=
48375 11560 80000 10255 20243 39819 40043 69993 70262 85576
333 59011 70009=
48378 32560 60000 10270 20241 39992 40044 82546 333 59007=
48381 32960 52203 10263 20230 39822 40042 80006 333 59018=
48407 01559 83003 10238 20234 39892 40034 60373 79596 8697/
333 59025 60377 70404=
48431 32560 50000 10254 20230 39834 40048 80006 333 59010
70001=
48432 31956 60000 10248 20232 39873 40040 71022 80006 333
59031 70151=
48455 01558 70000 10260 20250 30039 40043 60533 71099 83856
333 59019 69917 70533=
48456 01560 72405 10256 20247 30037 40054 60093 70262 82876
333 59003 69906 70088=
48480 01557 70000 10245 20238 30046 40050 60393 71096 85876
333 59012 69977 70426=
48500 32560 80000 10263 20235 30051 40057 8657/ 333 59008
70033=
24266 41597 73202 10064 20662 40035 52009 78081 87900=
24329 42999 40000 10026 21037 40080 52003 80002=
24507 415// 81701 10127 20068 40002 58002 78082 889//=
24908 42981 30000 10098 20051 40027 54000 81501=
24944 42999 3//// 10020 20009 40135 52006 80001=
29594 42999 81503 10170 20104 49997 57011 80001=
29634 42957 80502 10148 20130 49986 58003 85501 333 85656=
29676 41598 82405 10151 20133 40032 53038 72998 889// 333
91116=
30054 42998 30000 10043 20036 40110 52003 80001=
30393 42599 83401 10042 20035 40122 52009 83901 333 83920=
30433 42999 33601 10092 20015 40122 52005 80001=
30469 429// 00000 11032 21042 40182 52040=
30554 429// 00000 11010 21032 40191 51016=
30603 42997 01001 10149 20095 40055 57006=
30635 428// 21401 10064 20043 40128 52002 82040=
30692 42999 60000 10045 20020 40112 52001 86030=
30802 42999 00000 10055 20041 38653 48447 52005=
30879 42999 00000 10041 20018 40140 52012=
30925 429// 03601 10115 20078 40091 54000=
35700 32998 00000 10210 20135 40120 52010 333 10294=
35925 329// 03204 10206 20055 40097 53003 333 10299=
36034 41998 02106 10126 20124 40008 52010 70298=
36061 41597 42092 10147 20134 40026 58012 78082 87400=
36982 114// 82004 11022 21035 36500 47042 52010 69982 70277
8802/ 333 10060=
38001 32998 00208 10218 20151 40112 53002 10277=
38353 129// 01002 10147 20125 40062 57016 60050 333 10239=
38392 32997 60202 10246 20070 40098 53003 80004 333 10309=
38613 416// 80203 10185 20110 40087 53001 79598 889// 333
10260=
38696 329// 01601 10200 20098 40070 52002 333 10320=
38750 39297 02903 10230 20186 40082 53011 333 10267=
10124 82658 84070=
83831 333 10181 20101 55308 82845 83075=
13272 11660 73002 10169 20160 30031 40147 52021 60032 78082
87800 333 10256 82833 85650=
84101 22234 00240 20601 336// 41002 80251=
62402 31184 99548 10046 41795 72312 10103 20094 40189 54000 7////
8//7/ 22200 00100 20201 333// 40302 5//// 80098=
80009
22234 04214 20401 8////=
15605 17221 35092 36017=
15601 17132 18007 19008 35057 36013 70001 72913 73138 74019 75495
76401 90385 05102 07134 10027 11033 12426 13422 14744 15601 17132
18007 19007 35057 36013 70001 72067 73138 74019 75496 76401 90296=
62120 31184 99564 10021 46998 ///// 1//// 40168 57006 22200 80088=
10401=
62103 31184 99499 70029 46/98 /1808 10121 20107 40183 57012 22200
00123 10903 70015 555 1//31 05006 07180 10039 11152 12421 13423
14899 15587 17263 35083 36056 05005 07149 10043 11046 12424 13423=
62301 31183 99523 70045 46/// /1815 1//// 2//// 40138 22200 00140
10302=
71066 72774 73135 74500 75198 76924 77000 05222 07166 10101 11145
12102 13414 14874 15568 18006 19022 22175 23112 35057 36066 50051
51368 52005 53089 70003 71066 72773 73135 74500 76947 77000=
72280 73137 74011 75424 76900 90049=
15490 18006 22175 23022 35054 36098 50054 51599 52012 53331 70001
72943 73136 74012 75421 76900 90007=
15526 18005 19003 22175 23055 35058 36100 50050 51599 52013 53199
70001 71000 72099 73135 74012 75439 76900 90045 05332 07209 10081
11110 12432 13423 14929 15529 18003 19003 22175 23053 35059 36101
50050 51599 52013 53199 70001 71000 72559 73136 74012 75440 76900
90051=
11017 12412 13417 14476 15473 18001 19009 22175 23028 35063 36110
50053 51308 52019 53301 70001 71000 73131 74012 75431 76900 90011=
56312 11580 82202 10127 20086 37069 57002 69901 78000 889//
333// 05303 10191=
55591 32780 52903 10132 20045 36506 52005 84402 333 05301
10238=
56227 11880 82001 10118 20103 37298 57002 69901 78080 889//
333// 05304 10192=
56434 11480 80000 10147 20136 37662 57002 60011 70060 888//
333// 05202 10250=
51656 31780 72706 10186 20103 38997 40013 52007 71300 879//
333 05200 10293=
51765 32980 70201 10197 20132 39069 49987 54000 80002 333
05252 10327=
51777 32970 11101 10203 20107 39030 49993 52003 80002 333
05155 10331=
52203 32980 00000 10192 20081 39185 49991 57001 333 05151
10326=
51053 11670 72903 10176 20116 40041 57006 69901 70080 82462
333 00051 10293=
51379 32980 31804 10148 20075 40039 52002 80002 333 05101
10283=
51855 31958 72003 10228 20074 49987 52005 70600 80002 333
00151 10307=
56994 31570 71603 10213 20195 40038 57009 71300 879// 333//
05151 10279=
55299 11980 00000 10037 20016 35856 57008 69911 70098 333
05200 10130=
55228 32780 10000 10085 21103 36025 52012 81100 333 05301
10159=
55472 11780 71402 10086 21024 35732 57005 69901 71480 87200
333// 05405 10124 93901=
56106 11680 70000 10045 20024 36226 57002 60041 70080 874//
333// 00052 10145=
55696 32680 10705 10097 20035 36355 52002 81400 333 05200
10187=
55437 32780 12005 10078 20018 36352 52010 81500 333 05151
10176=
55248 32780 22706 10086 21116 35909 52012 82102 333 05102
10178=
51368 52005 53089 70003 71066 72773 73135 74500 76947 77000=
51288 32980 10903 10144 21027 38278 57002 80002 333 05201
10227=
51463 32780 43604 10201 20070 39035 40058 52033 81402 333
00201 10277=
51087 32980 20000 10176 20052 39129 40020 52002 80002 333
05200 10296=
51156 32770 72703 10150 20068 38633 40041 57002 83412 333
05251 10242=
51243 32880 73605 10233 20045 39520 40022 54000 874// 333
00052 10328 91119 91529=
51431 11780 72706 10174 20079 39362 40106 52024 69911 70080
874// 333 00301 10266=
51644 32970 20000 10182 20047 38844 40015 52003 80002 333
05202 10279=
51730 32975 00901 10195 20082 40003 52001 333 05202 10286=
52118 11680 50000 10156 20019 38209 57006 69901 70080 83902
333 05202 10241=
51232 11980 23204 10209 20091 40074 57003 69901 70080 80002
333 00051 10333=
51356 11668 82204 10214 20116 40056 52004 69901 78080 889//
333 00204 10329=
51567 32780 61402 10179 20119 40011 54000 81902 333 05404
10282=
52313 32980 10904 10155 21030 38352 57004 80002 333 05154
10277=
78866 11570 81116 10299 20243 30176 40180 57010 69901 70382 82277 333
58015 82825 88280=
71107 36/// /3321 10089 30127 40240 53004 333 10093=
67027 32980 00000 10228 20208 30142 40163 52019
333 10322=
67083 32470 11002 10146 20135 38795 48563 52016 81800
333 10228 81817
555 81620=
67095 32470 52202 10212 20204 30183 40190 52010 85800
333 10280 82817 84633=
64387 32665 43004 10224 20146 38512 48506 81202
333 10270 59006 81833 83080 1018.9=
61600 32960 03210 10258 20223 30079 40084
333 10295 59016=
61627 32960 20402 10441 20118 30032 40055 80001
333 10446 59016 82073=
61630 32962 00000 10444 20162 30028 40047
333 10465 59009=
61641 32458 43208 10252 20252 30060 40093 84500
333 10264 59022 84613=
61679 32962 02614 10338 20226 30080 40088
333 10365 59004=
61687 32957 23204 10396 20163 30007 40063 82030
333 10406 59009 82363=
61695 32962 02808 10294 20234 30068 40094
333 10330 59006=
71739 32874 22716 10226 20060 39753 40104 57007 82101 333 10242 20117
70110=
71892 11466 81404 10121 20100 30225 40230 52018 69901 70272 885//
333 10123 20109 79999 90921=
67843 42980 00000 10132 20045 38990 48545 333 10279 58010=
91577 01556 80502 10185 20177 40102 57003 60101 7606/ 882//
333 60037 85820 83823=
91579 36/// /1504 10189 20186 40099 58004=
91582 03350 81806 10186 20178 40109 53007 60031 887//
333 564// 60027 88808=
91583 06/// /0000 10181 20176 40102 58004 60181
333 60047=
91587 16/// /1910 10194 20153 30062 40112 55000 60052
333 10246 20194=
91590 01256 80406 10183 20159 40112 55001 60091 76166 8587/
333 60047 81703 85646 87362=
91592 01558 83412 10174 20163 40099 56010 60061 76066 888//
333 56799 60037 85820 85640=
91753 32475 21308 10259 20207 40090 53005 82800
333 82816=
91754 32475 60806 10255 20196 40094 53004 86800
333 82818 84640=
91772 31498 50000 10236 20217 40103 70212 84801 333 569/9=
91784 31498 31112 10230 20165 40127 70200 83800 333 563// 82818=
91792 31498 60905 10214 20156 40136 53002 70300 86102 333 563/9
86818 85080=
84628 34457 21806 10194 20154 30131 40147 70544 826//
333   563//  59001 82715=
84515 31560 50000 10304 20241 39952 40139 70222 85100
333 5690/ 59003 85825=
84501 31962 01709 10210 20160 30108 40148 70201
333   59008=
84686 31763 50000 10180 20039 36880 70300 85100
333 560// 58013 85850=
84455 31562 40000 10332 20249 39800 40142 70114 841//
333   560// 58012 84830=
84564 31960 00615 10262 20159 38152 70200
333 59006=
84452 31960 01911 10265 20167 30100 40130 70022
333   58006=
84472 31563 31806 10206 20204 35401 70200 83500
333   56000 58015 83630=
84531 31962 01813 10220 20160 30116 40128 70200
333   58003=
84390 31970 01910 10290 20180 30025 40124 70202
333   58004=
84401 31960 00000 10290 20206 30088 40135 70202
333   58003=
84370 31960 03012 10300 20215 30068 40097 70122
333   59012=
84444 31566 70811 10160 20082 37547 70224 8442/
333   5600/ 58016 84620 83460=
84542 31970 03508 10220 20095 37342 70200
333   58012=
84691 31956 03008 10192 20158 30126 40133 71044
333 58006=
84782 31968 02205 10207 20122 39643 40170 70200
333 58022=
84735 31966 00000 10164 21016 36423 70200
333   58003=
84377 31460 70000 10310 20251 30003 40106 70322 83230
333 56000/ 58012 83815 84360=
84425 31562 50706 10320 20238 39947 40155 70222 855//
333 569// 58020 85620=
84474 31560 30000 10310 20235 39791 70202 83100
333 56000 58015 83825=
84534 31660 40000 10300 20214 39390 40117 70312 84200
333 56900 59010 84840=
84752 31965 02306 10203 21028 37531 70200
333   58008=
84658 31360 61809 10272 20227 39872 40094 70122 8322/
333   5644/ 58015 83810 83460=
84673 31668 20603 10215 20089 37343 70200 82800
333   56000 58023 82850=
85782 31960 50000 10122 20065 40204 50013 70240 80008
333 56006 85170=
85930 32797 70325 10096 20074 40087 52028 875//
333 56199 87656=
85972 32999 70503 10069 20048 40152 57027 80005
333 56000 87071=
71145 11474 83009 10064 20029 39911 40205 52024 69901 70282
885// 333 10067 20037 79999 90940=
61612 32960 00404 10432 20090 30055 40063
333 10445 59015=
61666 32962 02806 10365 20233 30060 40070
333 10418 59010=
61697 32460 53006 10262 20226 30089 40104 85500
333 10284 59007 85616=
61698 32960 01810 10393 20237 30060 40071
333 10405 59012=
61699 32960 51406 10390 21007 39877 40060 80002
333 10402 59009 85073=
78894 36/// /1008 10293 20220 30116 40175 58013
333 10293 20266 58014=
78906 11574 20608 10314 20202 30146 40151 69931 70581 82200
333 10322 20263 58002 82824 90960 GUSTING 19KTS=
78905 32578 61210 10297 20245 30153 40169 84201
333 10302 20258 58008 84824= 41-6NN  93E=
71490 36/// /0000 11090 21101 39974 40293 58001 333 11088 21111
70000=
61968 36/// /0904 10236 20205 30155 40160
333 10303 58001=
61970 36/// /2210 10249 20197 30170 40182
333 10283 58003=
61976 32465 61119 10276 20219 40174 86800
333 10283 58087 85813 924/7=
61980 11459 61110 10226 20199 40196 69922 78082 86800
333 10273 58004 84816 86650 924/6=
67005 36/// /1908 10261 20215 40166
333 10297 58005=
61996 36/// /2710 10154 20146 40208
333 10171 58074=
61998 36/// /3217 10047 21001 30013 40049 50007
333 10075 58158 91129=
64210 32558 23502 10259 20227 39740 40091 82500
333 10280 58017 82620-
64360 NIL=
91944 36/// /0218 10274 20232 30137 40143 51012=
91945 36/// /3625 10275 20231 30084 40089 56002 555 1//35 59012=
64700 32962 41404 10362 20183 39710 40037 81262 91756
333 10415 59012 81840 83075 94926=
64750 32962 60000 10330 20218 39657 40057 81032 91758
333 10372 58008 81365 86075=
80097 11570 71808 10302 20138 39753 40098 69901 70152 82278
333 56249 57896 58023 84070=
80112 31570 71005 10214 20123 37903 70542 84268
333 56009 57893 58003 84820 84270=
80144 31560 60000 10294 20234 70522 84206
333 560/0 84820 85070=
89022 42999 12217 11237 21253 39985 40026 56010 80001
333 81065=
83378
32670 63204 10294 20116 38957 48516 86200 333 59003=
83766 32597 70000 10184 20147 39492 40161 56015 87500=
83767 21596 83202 10190 20145 39523 40159 58013 71022 885//
333 69901=
83768 31565 60206 10183 20161 39486 40140 56021 71022
82530=
83783 32597 72705 10192 20120 39448 40127 56014 85720=
83811 32797 12302 10208 20074 39215 40104 58002 81010=
83813 32797 32702 10210 20076 39014 40109 57020 82039=
83836 32997 12704 10204 20023 39132 40105 56021 81040=
83840 32970 02716 10201 21030 39102 40120 58018=
83844 32597 11807 10222 20113 30106 40113 56010 81100=
83872 32997 02312 10209 20060 30052 40134 58011=
83881 31497 43204 10184 20084 39862 40170 56020 70241 83201=
83883 32597 21802 10152 20076 39374 40157 57014 82200=
83887 32597 22302 10126 20030 39086 40149 57011 82100=
83899 32970 01406 10210 20100 30112 40112 58016=
83907 31497 71403 10158 20095 39864 40155 54000 70240 86701=
83912 31596 82302 10126 20087 39611 40163 54000 70522 885//=
83914 31596 71803 10109 20056 39386 40184 58006 70521 87500=
83919 32497 62706 10092 20052 38960 40161 58001 86500=
83927 32597 81802 10130 20096 30099 40183 57005 885//=
83948 32597 42310 10175 20098 30100 40138 53002 84800=
83953 21496 81802 10138 20095 39797 4//// 54000 72085 8572/
333 69901=
83964 31596 83602 10132 20095 39659 40167 52007 70510 885//=
83971 41458 72906 10144 20128 30161 40161 54001 71065
87700=
83980 31596 52306 10143 20021 39884 40172 57004 70522 85200=
83995 21497 82310 10145 20102 30148 40152 52005 70182 886//
333 60021=
83997 21997 71810 10139 20075 30132 40177 50002 70252 87070
333 69911=
83612 32470 60000 10270 20201 39492 40118 56023 84531=
83716 21570 10214 20155 39618 40136 56019 70162 82570 333
69941=
83722 31865 82910 10214 20150 39431 40126 56016 70511
87085=
83780 32970 03008 10240 20067 39220 40111 56020=
83818 32570 11908 10242 202162 30125 40128 57015 81100=
83827 32970 52306 10190 20108 39872 40158 56016 85030=
83550 32597 2//// 10320 20224 30060 40090 70200 82200 333
59041=
83649 32970 01510 10288 20157 40108 56016=
83660 32298 4//// 10232 20172 30126 40137 5//// 84285=
83695 32997 00000 10308 20148 39966 40102 5////=
83698 32999 00505 10286 20168 30083 40097 50620=
83718 31596 10000 10266 20115 3//// 4//// 5//// 70544 81100=
83738 32698 62706 10246 20085 39606 40109 57010 81106=
83248 32470 21309 10277 20220 40121 82100 333 59009=
83349 32570 20508 10281 20239 40115 82200 333 59014=
82392 32498 83601 10257 20238 39983 40086 8661/ 333 58008=
82398 21570 40714 10288 20237 40103 70261 83130 333
58000=
82400 32470 11506 10284 20242 40111 81100 333 58003 =
82480 21597 43203 10280 20238 39892 40074 70366 84300 333
58006 60011=
82493 21596 618// 10252 20236 30082 40096 70362 83970 333
58011 60101=
82579 32570 31810 10330 20218 40088 83100 333 58009=
82583 32599 63202 10313 20210 39758 40093 84231 333 58006=
82599 21570 70908 10284 20235 40113 70362 83231 333 58006 60181=
82678 32598 50904 10328 20182 39939 40095 82132 333 58004=
82683 32595 51406 10305 20188 39650 40098 83230 333 58009=
82686 32598 31405 10308 20185 39853 40098 82241 333 58002=
82689 32598 62302 10328 20168 39822 40083 82231 333 58007=
82780 32698 41803 10324 20154 39841 40090 83042 333 58011=
82784 32598 63604 10312 20168 39640 40104 81102 333 58010=
82789 32999 31403 10253 20163 38995 40107 333 59001=
82791 32599 60906 10332 20176 39788 40076 84100 333 58002=
82795 21597 50500 10243 20219 39490 40105 70362 84370 333
58007 60051=
82798 32596 50908 10284 20248 30115 40136 85400 333 59005=
82879 32598 60904 10336 20156 39822 40085 81110 333 59001=
82882 32698 20907 10319 20199 39655 40079 82110 333 59006=
82893 32798 61405 10248 20232 39206 40102 85501 333 58000=
58010 60041=
82975 32593 33205 10328 20215 39723 40112 82123 333 59002=
82976 32596 50904 10320 20123 39512 40085 85200 333 59002=
82983 32595 20506 10324 20116 39684 40097 81101 333 59006=
82993 32570 52110 10282 20234 40113 83230 333 59004=
82193 32570 63404 10312 20263 40066 85204 333 58000=
82281 21470 60406 10268 20252 40089 72162 86200 333
59002 60031=
82022 21562 61106 10314 20224 40106 71522 83201 333
58013 69901=
82332 42570 31205 10320 20253 40096 82101 333 58000=
82824 32570 20910 10340 20181 40102 82200 333 58002=
82917 32670 50104 10322 20212 40113 85200 333 58007=
68994 11597 82925 10028 21037 39909 49936 52011 60022 78788 8457/
222// 0//// 2//// 3//// 4////
333 10045 20012 91035 555 20018 90993=
83552 31398 82306 10231 20200 39963 40141 71044 885// 333
58027=
83565 32997 60000 10260 20154 39648 40120 80002 333 58002=
83618 32699 83202 10236 20166 39775 40152 5//// 85046=
83623 32996 60000 10248 20146 39527 40104 58026 85204=
83630 32997 22306 10236 20129 39022 40128 57027 80002=
83676 32597 22306 10248 20151 39516 40152 57022 82100=
83704 31898 80502 10179 20151 39633 40052 54000 70322 88500=
83714 32596 32702 10188 20145 3//// 4//// 5//// 83200=
83726 31593 83207 10206 20145 39163 40141 58028 70544 85202=
83773 316// 83206 10216 20130 39144 40025 58013 7//22 8357/=
83821 32497 11406 10228 20138 30122 40127 56040 70100 81200=
86330 32598 80000 10136 20092 40184 57004 8327/=
86360 11597 70000 10148 20098 40199 57008 69901 70252 84570=
86460 32598 81809 10128 20045 40187 58001 82457=
86500 32598 81905 10138 20035 40179 58006 8111/=
86560 32597 81711 10124 20064 40213 55000 885//=
86580 32497 71709 10122 20041 40196 57003 83408=
82863 31798 20905 10345 20172 70540 81101 333=
83064 32998 10401 10351 20126 39835 40102 80001 333 58013=
83228 32799 61402 10340 20168 39835 40/// 82204 333 59004=
83235 32998 20902 10332 20179 39427 40095 80001 333 59003=
83332 32697 50000 10310 20150 39198 40091 83220 333 59004=
83368 32699 23202 10328 20158 39735 40094 82200 333 58000=
83374 32598 62308 10315 20154 39535 40099 83101 333 59005=
83376 31597 63204 10294 20140 39262 40076 70542 83206 333 59012=
83377 31697 73206 10257 20092 38855 40103 70542 86308 333 59004=
83423 31697 42302 10304 20149 39292 40102 70541 82101 333 59003=
83470 32698 60000 10286 20144 86200 333=
83522 32798 31802 10285 20150 39264 82201 333 59004=
83526 32998 22706 10284 20115 39178 40110 80009 333 59004=
82287 21596 80510 10257 20244 30037 40063 75022 84778 333
58004 69961=
82886 32697 51809 10303 20170 39705 40085 83906 333 58004=
61809 11560 70000 10195 20187 40095 60452 71796 87900
333 10315 59011 87620 81923 95353=
61811 11970 80902 10255 20218 3//// 4//// 60112 70196 8807/
333 10/// 5//// 88360=
61820 11465 70000 10209 20189 39237 40099 60112 79596 81973
333 10299 58007 81613 82930 87360 81073 95379=
61829 32470 73604 10306 20262 40090 82272
333 10332 58010 82613 83363 85073=
61832 31475 42712 10286 20249 40088 71799 83930
333 10320 58000 83616 81923 82361 95372=
61834 11458 71802 10225 20210 3//// 4//// 60022 79596 86970
333 10310 5//// 86816 82930 84360 95334=
61849 11358 80906 10230 20222 39591 40116 60042 79599 8597/
333 10295 58023 85610 81930 88460 95335=
48330 31556 62705 10265 20237 39859 40043 71722 84976
333 59010 70001=
48351 01556 80000 10251 20239 39972 40046 60033 76162 85576
333 59005 60036 70031=
48354 31958 20000 10278 20252 39828 40029 71000 80001
333 59021=
48377 11560 80000 10255 20239 39874 40039 69903 70262 84536
333 59016 79999=
48379 11557 20000 10257 20237 39900 40032 69913 71061 81105
333 59012 70001=
48400 32560 32003 10267 20253 30001 40041 82735
333 59013 70055=
48462 11960 20000 10251 20246 39995 40051 60123 70260 82500
333 59015 70122=
48477 01459 82703 10267 20247 30041 40055 60023 79522 83977
333 59004 69905 70020=
48532 01557 60000 10254 20242 30056 40065 60863 72162 83846
333 59007 60077 71010=
48567 32460 80000 10259 20250 30045 40063 82547
333 59016=
48310 31557 51806 10264 20227 39590 40035 71322 82936
333 59010 70001=
48329 01560 70000 10250 20235 39709 40045 69953 70292 84836
333 59015 69956 70005=
48383 01430 80704 10256 20247 39877 40034 60213 79592 8697/
333 59017 60216 70233=
48421 01557 60000 10260 20246 39949 40062 60023 71062 83536
333 58001 69947 70024=
48465 01558 80000 10262 20246 30047 40052 60023 76096 8457/
333 59001 69927 70022=
48416 32960 80000 10262 20239 39892 40039 84076
333 59029=
48418 31940 00000 10265 20243 39985 40041 71000
333 59014=
48460 01560 80000 10250 20243 30018 40049 60203 70296 8697/
333 58004 60027 70195=
48461 01560 71702 10248 20238 39982 40052 60053 70196 85976
333 59002 60027 70054=
48501 01450 80000 10241 20235 30054 40062 60963 76196 8557/
333 59002 60187 70976=
48561 32560 82602 10277 20238 30067 40071 83846
333 59013 70204=
48564 32560 60000 10281 20228 30063 40067 83246
333 59010 70173=
48570 31558 60000 10265 20252 30062 40069 71022 83506
333 59012 70433=
48580 31558 70000 10260 20240 30057 40064 71022 81257
333 59018 70004=
40250 32970 02908 10302 20076 39306 40047 333
10370=
40265 32960 02308 10236 20075 39342 40097 52012
333 10315=
40296 32965 03506 10346 20138 40109 52016   333
10390=
40310 32960 03216 10236 20111 38902 48472 54002
333 10340=
40255 32960 02604 10234 20044 39419 40090 52009
333 10312=
40260 32960 03212 10282 20146 39326 40058 52007
333 10364=
40270 32960 02710 10235 20009 39234 40086 52014
333 10310=
40272 32960 03303 10226 20111 39288 40080 52013
333 10328=
40340 31957 03516 10332 20174 40058 52023 70700
333 10385=
36911 116// 51302 10156 20081 39165 40082 58022 60030 70282
85900 333 10265=
40103 32965 00000 10223 20176 40109 51009
333 10277=
40706 32660 41702 10204 20053 38619 40050 51011 81430 91745 333
55118 22886 81640 83360=
40718 32560 43403 10232 20203 30125 40094 53019 82930 91750 333
55119 82920 83360=
40732 32962 02402 10216 20174 30102 40082 52014 91750 333 55118=
40745 32660 21103 10254 20066 38977 40028 52019 81530 91750
333 55120 81640=
40754 32660 13002 10306 20116 38743 49984 53007 81400 91755 333
81640=
40766 32960 02804 10250 21019 38654 40040 52013 91750 333
55122 23015=
40800 32960 02707 10300 21025 38401 49969 52020 91752 JEEE JTQEQ
23123=
40811 32960 03005 10370 20030 39989 40015 52012 91750 333 55123
22864=
40841 32960 02505 10282 21016 38198 49948 52013 91750 333 55126
22978=
40856 32960 02203 10276 20099 38569 49962 51010 91750 333 55120
22453=
40875 31956 00603 10316 20266 39994 40006 53006 70500 91750
333 55105 22291=
47121 31958 00000 10132 20126 39807 40084 71000=
91366 11569 80615 10272 20234 30059 40068 55000 60011 70286 82878
333 56123 70196 555 93118=
40703 32660 50000 10176 20118 38871 40064 52009 82432 91746 333
55090 82640 83360=
40712 32660 43402 10178 20081 38651 40048 52006 84300 91750 333
55102 21712 81935 83640=
40729 32660 13004 10214 21031 38311 40036 53016 81100 91745 333
55129 22871 81835=
40736 32960 00000 10234 20193 30094 40068 54000 91750 333 55121=
40743 32960 00905 10296 20011 38960 40011 53016 91750 333
55121 =
40762 32960 00807 10256 20052 38498 49995 52011 91750 333
55128=
40768 32960 00000 10180 20020 38230 40042 52006 91750 333
55130 23924=
40769 32960 02603 10246 21105 38268 40019 53012 91750 333 55128=
40785 32965 00000 10296 20062 38957 49976 52014 91750 333 55123=
40809 32965 00603 10266 20012 38456 49973 53018 91750 333
55126 2////=
40821 32960 02102 10284 21107 38695 49964 51006 91750 333 55127=
40831 32960 03303 10334 20113 30019 40027 53013 91750 333 55122=
41859 11310 80000 10260 20260 39980 40020 60014 76162 8792/ 333 56299
59024 70458 86708 86614 81930 88457=
41883 113// 80000 10262 20240 39987 40007 60014 72162 8662/ 333 56399
59036 70014 83710 84618 88458=
41891 11350 80902 10254 20240 40024 60012 71396 8632/ 333 56399 59026
70140 82708 84613 81930 88459=
41907 323// 82304 10270 20250 39999 40017 8772/ 333 56599 59019 70000
85708 84616 88456=
41923 11440 60000 10266 20240 30009 40019 69906 70162 83570 333 56590
59020 70010 83615 85460=
41936 31456 61808 10264 20250 40016 70522 83430 333 56590 59011 70080
82615 85365=
41943 32450 61803 10286 20280 30023 40032 83520 333 56490 59030 70000
83615 85458=
41950 113// 81804 10256 20250 30012 40016 60026 70296 8632/ 333 56499
59034 70030 82708 84616 81930 88459=
41978 31440 31806 10290 20280 40033 70522 82530 333 56990 59019 70000
82615 83360=
40155 31559 13407 10234 20209 30104 40114 53024 71000 81200 333 10272=
40180 32960 03304 10246 20189 30057 40103 52013 333 10312=
40199 32970 03416 10332 20092 30067 40070 52026 333 10384=
38763 32997 00902 10302 20080 40048 53007 333   10380=
38987 329// 02102 10284 20027 40031 53008 333   10369=
38911 32997 03503 10265 20053 40045 52005 333   10375=
38647 329// 01201 10310 20041 40053 53006 333   10371=
38774 329// 00000 10300 20109 40069 53017 333   10357=
38799 32997 903603 10290 20088 40055 53005 333   10376=
38806 32997 03602 10266 21012 40054 53005 333   10359=
38886 329// 00502 10280 20235 40054 53005 333   10374=
38915 32997 03204 10307 20131 40034 52004 333   10380=
41084 42960 00904 10326 20000 38809 48471 333 10406 58008 55104
555 04410 50007=
41114 42960 02307 10226 20161 37971 48484 333 10330 58000 55110
555 04410 50018=
10325=
52986 11665 80000 10143 20123 38056 57008 69941 78080 889//
333 00103 10274=
52447 32980 71405 10236 20029 49985 57006 80002 333 05206
10307=
52446 32980 82002 10224 20051 49997 57007 80007 333 00005
10298=
52424 32980 00901 10189 20028 49986 52001 333 05152 10293=
56034 11670 60000 10029 21008 35925 57006 69971 76060 86500
333 05404 10101=
52825 32980 82504 10159 21056 37210 52002 8802/ 333 05103
10245=
52765 32980 00701 10104 21014 37166 52001 333 05103 10209=
56125 11780 10000 10079 20063 36516 57007 60011 72580 81400
333 05302 10196=
33983 32997 12403 10169 20159 40122 53013 80001 333 10267=
33177 11562 82401 10123 20098 40169 53007 60022 78082 889// 333
10173=
23966 41399 83204 10064 20057 40004 52004 70285 889//=
28255 32573 20000 10117 20041 40147 52004 82500   333 10180=
28722 32967 00000 10137 20071 40158 53005   333 10232=
23909 32998 21602 10204 20081 10151 53001 80001   333 10262=
28116 32997 00000 10178 20076 40164 53002   333 10246=
28240 32999 21401 10087 20048 40155 53003 80009   333 10192=
28419 32996 00000 10160 20076 40158 53005   333 10240=
28621 32998 00000 10171 20064 40167 53010   333 10231=
29418 42398 83202 10099 20072 40030 52005 889//
333 88706=
29430 42998 82501 10114 20100 49993 51003=
29524 42484 83604 10107 20095 40004 52004 889//=
29605 42598 80404 10105 20072 40037 52003 885//=
29631 42497 82302 10148 20114 49977 53004 889//=
29706 41599 83405 10120 20101 40012 52003 70282 883//=
29736 42598 80000 10137 20128 49991 58010 885//=
28216 32999 03402 10170 20034 40162 57002   333 10235=
28321 32984 00501 10188 20036 40160 53003   333 10239=
28451 32997 23402 10116 20032 40137 53006 80001   333 10193=
28537 32997 00000 10135 20051 40154 52004   333 10205=
28541 32984 00000 10118 20015 40148 52002   333 10200=
28655 32998 03602 10128 20065 40133 52005   333 10196=
28925 32997 23602 10170 20064 40145 52008 80001   333 10241=
29557 42798 71901 10151 20112 49998 58001 87500   333 87656=
29625 42598 72103 10133 20108 49991 58001 83530=
29642 41660 61502 10130 20123 40004 54000 70182 82530=
29813 41499 83203 10133 20118 49970 54000 70282 889//
333 88914=
29822 41496 83203 10150 20141 49984 54000 79598 889//   333 88918=
29846 40697 71703 10136 20134 40001 58006 82901=
29915 41499 82502 10137 20129 40001 54000 72582 889//   333 88911=
34523 11497 62801 10204 20169 40118 52018 69932 70198
84460 333 10289=
48615 31468 70000 10264 20240 30065 40071 71322 83948 333 81917
83622 87273=
48647 41563 70000 10270 20243 30050 40075 70522 81542 333 81625
83362 87078=
96413 11462 71004 10238 20232 30048 40074 69901 76162 8597/ 333
81915 84622 87365=
96421 11468 82104 10237 20231 30043 40079 60081 76062 8452/ 333
84618 88365=
96441 32468 70805 10265 20242 30074 40079 8357/ 333 83616 87365=
96449 11460 73304 10242 20239 30062 40082 60361 76162 8457/ 333
84616 87365=
96465 31365 83404 10280 20246 30049 40083 71322 84938 333 83810
81914 84364 87278=
96471 31470 71204 10257 20233 30077 40080 71722 82948 333 81815
81917 87277=
30781 42999 12601 10000 21006 40161 52044 81030=
31754 42999 20000 11012 21018 40129 54000 80001=
26898 11438 83402 10139 20130 40108 53003 60412 79598 889//   333
10189 88914=
27703 11497 89902 10174 20153 40111 54000 60102 79598 86901   333
10252 84915 93202=
27707 12561 83603 10163 20144 40111 54000 60042 889//   333 10210
88918=
27719 32997 51601 10223 20059 40103 56003 85030   333 10285=
27786 32997 00000 10194 20092 40162 53004   333 10266=
27906 11597 81003 10192 20159 40108 57003 69942 70298 8437/   333
10243=
27928 32698 71301 10229 20102 40109 57003 83552   333 10280=
27983 32998 00000 10193 20095 40163 53007   333 10270=
28711 32997 03603 10172 20034 40162 52005 333 10240=
28807 32997 00000 10178 20115 40155 52005 333 10267=
34047 32970 21402 10221 20077 40134 52002 80001   333 10279=
34116 32698 62203 10178 20112 40118 53003 84505   333 10265=
34123 32780 61202 10214 20118 40121 53001 83501   333 10276=
34152 32998 01102 10220 20133 40144 53002   333 10281=
34186 32972 00102 10206 20098 40158 53002   333 10261=
34336 32598 60701 10218 20100 40131 53012 83360   333 10277=
35121 32976 30303 10185 20011 40142 53010 80002   333 10251=
22217 11498 82201 10108 20102 40068 57007 60012 78082 8495/   333
10172 91001=
22349 31459 70702 10145 20123 40072 57015 71011 82909   333 10165
91003=
22408 11599 72501 10096 20080 40101 52004 60032 70286 84530   333
10146=
22602 11998 22001 10109 20041 40101 52005 60042 70282 80002   333
10125=
22721 11699 72702 10107 20089 40125 52029 60022 70284 82530   333
10180=
22802 12999 22602 10117 20051 40149 52014 60052 80001   333 10134=
10143=
26059 12597 32702 10145 20056 40153 53011 69932 81901   333 10174=
26094 11975 32901 10112 20104 40167 52017 60042 70261 80001   333
10167=
26258 12970 63001 10162 20067 40165 52006 60022 80001   333 10183=
26585 11497 80000 10119 20104 40158 58002 60082 70262 883//   333
10128=
27402 11497 83002 10140 20122 40147 52013 60082 70382 886//   333
10263 88715=
22028 11980 71504 10113 20058 40068 57016 69902 76161 87070   333
10168 91008 91110=
22106 11597 80000 10101 20078 40069 75002 69982 78082 9495/ 333
10178 91001=
22127 11498 73201 10132 20109 40052 58019 69942 72582 86930   333
10188 85914 91002=
22324 11575 83005 10114 20098 40054 57022 69902 78082 889//   333
10169 91009=
22621 11698 72704 10103 20095 40116 53024 60012 70282 87900   333
10180 87940 91111=
22831 11698 72404 10121 20098 40133 52025 60022 70298 83930   333
10282=
22892 12998 22106 10124 20038 40148 52008 60022 80001   333 10136
91111=
26275 12598 70000 10139 20106 40165 52011 60012 81902   333 10162=
26389 11564 73601 10127 20100 40155 52006 60082 70382 85502   333
10140=
26695 11496 73604 10122 20111 40135 57006 60062 78082 879//   333
10174 87916=
26882 11360 83405 10117 20113 40141 52006 60262 76362 8872/   333
10134 88708=
21432 42998 11403 11042 21072 40226 53001 80001=
21824 42370 80203 10000 21003 40127 52005 886// 333 88707=
21921 42499 10402 10023 21010 40100 52013 81100=
21946 41267 80906 11048 21054 40211 54000 77872 886// 333
88704=
21982 12482 80101 11024 21046 40194 53001 69902 885//   333 21027
42997 55000 88615 91104=
25123 42998 00904 10025 21053 40164 52007=
25173 32999 32404 11040 21059 40193 52012 83030   333 21061 44072
91107=
25399 32598 72002 11003 21012 40206 58008 87500   333 21026 47068
87626 91107=
25551 32699 70703 10022 21006 40141 52003 82531   333 20018 55165=
25563 32499 80707 10007 21010 40164 53003 859//   333 21009 55034=
25594 11560 80405 10007 21016 40184 57009 69902 77172 8755/   333
21005 42998 91112=
31054 42599 70000 10103 20050 40054 52005 879//=
31123 41599 80000 10066 20057 40102 52014 70282 889//=
21647 42374 20807 11084 21094 40230 52001 82600=
61017 32965 70000 10352 20069 39681 40070 80008
333 10414 58018 87280=
61024 31958 61219 10390 20070 39509 40043 70722 80008
333 10425 58006 86280=
61036 32665 6//// 10390 20181 39823 40052 81108 91745
333 10418 58017 81840 86280=
61043 31760 70202 10382 20150 39618 40041 70392 82972 91745
333 10400 58021 82950 86465 94945 95875=
61045 31956 7//// 10386 20051 39555 40028 70522 81038 91745
333 10425 59006 81364 87280=
61049 32960 7//// 10395 20072 39728 40041 80008 91745
333 10437 58001 87280=
61052 32665 52804 10400 20148 39799 40041 81102
333 10418 58008 81840 85080 94905=
61075 31956 72402 10395 20175 39740 70622 82968
333 10420 58012 82950 8720/=
61080 11760 72806 10398 20175 39621 40029 60162 70196 81938
333 10405 58009 81940 86280 94947 95837=
61090 11760 71010 10390 20136 39539 40026 69902 70296 81972
333 10422 59003 81950 86464 94945 95875=
61096 32965 60604 10385 20100 39665 40031 80008 91749
333 10430 59009 86280=
61099 32770 5//// 10340 20216 39/// 40/// 81102 91745
333 10366 81850 85080 94909 95819=
25621 42999 40000 11000 21015 40202 52004 80001=
25703 42799 63601 10043 21043 40127 52009 82530=
25913 42699 70301 10046 20004 40111 52001 86530   333 86635=
25954 32599 80104 10041 21002 40032 57005 8597/=
32215 41958 02004 10044 20019 40119 52013 74000   333 91112=
32389 41698 73101 10043 21005 40063 52010 70282 879//   333 91112=
32583 42999 03606 10067 20029 40061 53026=
47185 32962 03606 10150 20138 30002 40085=
52674 32780 70000 10138 20059 37967 57002 875// 333 05101
10241=
52895 32970 81401 10206 20107 49982 52003 8802/ 333 00105
10312=
52633 11680 81801 10019 21008 36774 57007 60061 72688 889//
333 00152 10159=
33990 32987 00401 10199 20117 40120 53009 333 10256=
96995 46/// /1206 10232 20228 39803 40096=
96996 47/// /1009 10264 20224 30099 40103 57007 7//44=
48820 32598 01401 10273 20254 30035 40043 57011 333 59017=
48826 32498 21103 10271 20259 39912 40039 58011 82100 333
59017 82894=
48839 32998 00703 10271 20257 39976 40004 58014 333 59022=
48845 31598 10000 10267 20247 30032 40039 58046 71311 81900
333 59023 81995=
48848 31598 70000 10269 20259 30034 40042 57014 71322 879//
333 59017 82895 81995 87697=
48855 11495 81601 10256 20248 30016 40024 58012 60311 79596
8472/ 333 59032 84894 88499=
48870 11497 80000 10248 20241 30016 40023 58012 69921 76062
8572/ 333 59015 85894 88499=
48877 32598 70000 10251 20236 30031 40036 58010 8581/ 333
59012 81895 85697 87499=
48887 11798 72504 10252 20225 30044 40050 58007 60031 70362
83506 333 59007 83697 87299=
48900 31496 61101 10246 20244 30041 40051 57016 71022 868//
333 59013 83895 85696=
48914 11598 70000 10259 20250 30056 40058 57014 69901 71362
81908 333 59014 81995 87299=
48917 11598 82708 10255 20245 30061 40066 57005 60191 78182
889// 222// 00294 333 58005 84895 87995=
48918 32498 73204 10277 20245 30047 40058 58018 83908 222//
00280 2//// 333 59015 81894 82995 87299=
48920 32598 82305 10287 20263 30033 40033 58015 8222/ 333
59006 85895 88499=
48803 11496 80000 10269 20259 39924 40034 58004 60031 79598
889// 333 59016 84894 88995=
48806 31498 20000 10244 20226 39297 40049 58004 71311 82900
333 59020 81894 82995=
48808 31196 30000 10243 20240 39775 40053 58003 71011 83100
333 59009 83894=
48823 32497 10000 10273 20263 30035 40038 58017 81100 333
59025 81895=
48830 32998 01401 10245 20229 39758 40057 58004 333 59013=
48840 32998 00000 10265 20245 30041 40047 56010 333 59016=
48852 31598 70901 10260 20251 30020 40030 57016 71792 879//
333 59024 83895 86995=
48916 11497 63207 10266 20246 30018 40068 58007 60011 71398
869// 333 59005 82894 85995=
48802 11/91 90000 10188 20188 38380 58009 69941 71798 333
59010 96045=
48810 31496 80000 10254 20248 39853 40053 58008 71022 888//
333 59017 82894 88696=
48831 32998 00000 10259 20256 30006 40043 58007 333 59017=
48838 32598 50000 10270 20257 30046 40052 58010 71311 85900
333 59019 85995=
48846 31598 70000 10264 20253 30033 40036 57018 71322 81908
333 59023 81995 87299=
48863 11497 82703 10250 20240 39999 40008 58017 60211 76096
8692/ 333 59045 84895 82995 88499 96013=
48866 11497 82703 10205 20205 39189 40065 58012 60031 76062
8775/ 333 59023 87894 88499=
48875 11497 81803 10217 20211 39523 40054 57007 60011 76066
888// 333 59017 83894 88696=
48907 32598 52703 10280 20257 30053 40055 56015 85200 333
59007 85895=
80416 12470 80903 10257 20179 39228 48603 60011 887// 333
30/// 569// 58019 88716 1019=
80420 32470 60208 10321 20211 30094 40100 82208 333 30///
56209 58007 82813 84275 1011=
80426 32570 70502 10279 20237 39459 40099 8387/ 333 30///
5699/ 58009 83620 84357 1013=
80427 11465 81403 10283 20203 39876 40129 69941 75026 8597/
333 31/// 5699/ 58010 83817 84357 82920 1014=
80431 11459 70903 10261 20217 39616 40091 60031 75055 843//
333 569// 58021 87613 1011=
80475 12565 80000 10244 20156 39779 40150 69931 887// 333
30/// 569// 58022 88720 1016=
80476 32470 80504 10313 20211 39066 40096 8223/ 333 30///
5699/ 58006 82810 86359=
80403 11480 81005 10340 20221 30111 40130 69921 72025 8123/
333 30/// 5699/ 58005 81816 87356 1013=
80407 32470 51404 10322 20211 30027 470102 82108 333 30///
56909 58013 82816 83280 1010=
80410 11465 80906 10244 20221 39437 40115 60021 72026 8527/
333 31/// 5699/ 58013 85816 1014=
80413 11470 72002 10260 20221 39623 40110 60051 70165 8452/
333 31/// 5699/ 58021 84816 83456 1013=
80415 32470 70502 10291 20251 30070 40124 875// 333 30///
569// 58007 87616 1012=
80419 32370 83405 10290 20214 30090 40099 8482/ 333 30///
5699/ 58011 84810 84458 1009=
80421 32462 50712 10306 20239 30107 40129 82805 333 30///
56209 58011 82816 83277 1013=
80428 11468 80902 10299 20226 39928 40111 60021 70226 84231
333 31/// 56999 58014 84817 84357 1014=
80435 11470 70507 10303 20177 30045 40120 60021 70266 872//
333 31/// 562// 58008 87813 1012=
80438 11575 82305 10234 20154 38509 48506 69921 70252 8653/
333 30/// 5699/ 58007 86623 1019=
80444 11370 80704 10303 20242 30050 40103 60041 70262 8351/
333 31/// 5629/ 58009 83610 85460 1009=
80447 32565 81608 10290 20175 39665 40084 8452/ 333 30///
5699/ 58013 84623 86459 1013=
80457 11368 80902 10296 20201 30022 40107 69931 70252 8351/
333 31/// 5699/ 58002 83610 86460 1010=
82100 22261 02258 20202 31034 40602 50603 80216=
81200 22254 02257 20100 32913 40503=
59025 81895=
84099 22215 00178 20402 328// 41403=
51334 11980 40000 10191 20112 40059 57002 69901 70080 80002
333 00153 10334=
59017 82894=
59012 81895 85697 87499=
91650 11598 20903 10269 2023/ 40091 57001 69921 70118 82100
333 569// 82822=
91659 31699 20000 10250 2018/ 40103 53006 70300 82800
333 569// 81830=
91670 36/// /0708 10248 20211 40100=
91680 31698 21005 10193 20175 40107 53004 70300 82800
333 569// 82830=
91683 31599 50000 10195 20189 40115 54000 70222 82802
333 569/9 82820 85080=
91691 36/// /0805 10246 20206 40111=
91699 36/// /0811 10234 20187 40125=
89050 41397 71210 11035 21040 40162 53001 77072 87500
333   87607=
89512 32980 81512 11112 21237 49987 52006 80001 333 11052=
89592 41940 01234 11086 21086 49997 57026 73830 80000=
89606 12918 02626 11510 21556 36364 47620 57010 73830=
63791 32980 01210 10212 20135 39160 48535
333 10285 55300 58003=
63894 32980 00000 10220 20197 30097 40157 91750
333 10308 55300 58001=
85154 32584 31509 10280 20206 39956 40135 58014 83100
333 56800 58026 83823=
85041 32584 63405 10310 20210 39858 40168 57018 84201
333 56000 58010 84820 84073=
85043 32484 33606 10327 20230 39960 40123 57010 83100
333 56800 58005 83817=
85104 32484 31804 10324 20211 39972 40129 57026 83200
333 56400 58010 83817=
85114 32584 40000 10324 20224 39970 40139 57020 84200
333 56000 58006 84820=
85123 32484 41508 10305 20208 39956 40120 57019 84200
333 56300 58011 84816=
85201 31470 42810 10146 21013 36287 57019 71511 82301
333 56000 58001 81823 81925 83075=
85140 12484 71405 10228 20202 39890 40150 57010 60021 85650
333 56330 58023 85615 87357=
85141 11284 81206 10230 20208 39952 40185 57014 60021 70262 8772/
333 56339 58022 83706 86613 88457=
85152 32484 81308 10220 20193 39915 40134 57013 8652/
333 56339 58043 86615 88457=
85230 32984 02006 10156 20009 36363 57020
333 58000=
85242 32984 00000 10168 20006 36530 57022
333 59003=
58006=
83264 31997 00503 10340 20218 39688 40100 70544 80000 333
59004=
83309 32698 32705 10324 20272 39795 40115 81642 333 59001=
83361 32598 61802 10312 20189 39935 40140 82223 333 58005=
83405 31597 53606 10304 20225 39980 40113 70544 85200 333
58017=
82024 32798 40000 10290 20248 84340=
82113 32598 50502 10308 20249 81311=
82212 21797 81802 10276 20254 30051 40114 70262 8218/
333 58017 60011=
82240 21696 70902 10267 20252 30091 40125 71795 87900
333 58009 69921=
82317 32397 41402 10306 20261 83303=
82326 32597 61802 10310 20276 30080 40147 85355 333
59006=
82331 32698 21402 10324 20233 30032 40114 82200 333
59018=
82336 21595 60903 10266 20250 72911 85930 333 69921=
82410 32496 72702 10295 20260 8352/=
82425 32396 61805 10322 20245 30056 40111 84964 333
58002=
82533 32697 53202 10316 20275 30054 40109 85202 333
58011=
82610 32498 40000 10324 20252 84200=
82704 32698 20000 10314 20226 39871 40064 82100 333
59003=
82723 32697 50902 10320 20235 85200=
82807 32596 23602 10332 20244 82200=
67765 42884 11904 10167 20121 38717 48559 81400 333 10246 58009
81657=
67775 42980 01206 10165 20074 38554 48559 333 58012=
67779 42975 12103 10151 20104 39095 48546 81060 333 10272 58002
81360=
67853 42980 00000 10114 20067 38988 48556 333 10272 58009=
67861 42978 00000 10141 20080 38776 48555 333 10255 58009=
67867 42980 01303 10102 20025 38638 48562 333 10230 58013=
67881 42980 00000 10123 20061 38637 48561 333 10217 58017=
67965 42980 01307 10152 20011 38742 48565 333 10259 59014=
67975 42980 01006 10130 20026 38986 48569 333 10247 58021=
67977 42980 02002 10155 20093 39727 48586 333 10290 58026=
67983 41980 00901 10145 20104 38961 48579 333 10240 58021=
67991 42980 00000 10172 20048 39672 48574 333 10311 58029=
82098 21796 81402 10308 20256 30067 40084 71562 83964 333
59003 60021=
82141 32698 60505 10304 20245 30084 40096 83960 333
58000=
82145 21597 60000 10260 20250 30050 40092 70262 85240 333
59003 60121=
82178 32698 51402 10302 20268 30036 40088 84100 333
59016=
82181 32497 21408 10294 20136 82200 333=
82198 21797 71403 10255 20225 30027 40078 70362 84241 333
58005 60141=
82246 32597 50000 10294 20252 39911 40108 85700 333
58001=
82263 21498 63606 10317 20281 72054 86700 333 69911=
82280 21498 6//// 10296 20247 30034 40092 70262 84520 333
58002 69951=
82353 32698 5//// 10324 20230 85200 333=
82361 32597 40502 10325 20278 30075 40112 83309 333
58019=
82376 32497 41404 10308 20242 30035 40087 82336 333
58003=
82445 32698 60502 10330 20280 30062 40113 83281 333
59008=
82460 21597 72701 10277 20256 30062 40092 70262 84240 333
58018 60041=
82562 32598 63603 10326 20235 30003 40114 84340 333
59005=
82564 21597 71802 10319 20233 71562 83646 333 69921=
82571 32597 61402 10300 20232 39900 40096 82261 333
58001=
82765 31598 60000 10314 20207 39872 40110 7//99 82240 333
58005=
82861 32799 31406 10344 20249 39893 40071 82041 333
59009=
86565 32598 72409 10134 20063 40183 58006 83476=
82979 32498 41403 10324 20178 39665 40125 82170 333 58002=
82986 32699 41408 10314 20166 39795 40078 82106 333 59006=
83076 32599 53603 10316 20187 39583 40084 81130 333 59008=
83090 32798 20903 10299 20186 39568 40084 82004 333 59019=
83096 32698 10906 10278 20225 30111 40118 81500 333 58002=
83097 32598 2//// 10302 20241 30070 40093 82200 333 58008=
83179 32598 31402 10332 20148 39633 40078 83100 333 58001=
83182 32597 80503 10310 20116 39268 40097 83201 333 59007=
83186 32998 50903 10276 20199 39529 40086 80001 333 59007=
83190 32999 00903 10290 20165 39704 40120 333 59011=
83195 32499 305// 10287 20216 39867 40110 81101 333 59007=
83229 32998 01403 10270 20222 30065 40124 333 59009=
83236 32599 23202 10331 20150 39595 40087 82100 333 59011=
83242 32497 50901 10278 20198 39614 40093 82106 333 59011=
83244 32697 423// 10302 20143 39799 40090 84200 333 59007=
83286 32598 2//// 10334 20113 39431 40078 82100 333 59001=
83288 32598 23203 10344 20153 39586 40093 82100 333 59002=
83339 32498 31804 10292 20126 39134 40102 83200 333 59008=
83344 32598 32302 10279 20167 30109 40097 83200 333 59016=
83398 32598 30504 10273 20230 30094 40099 82140 333 59018=
83408 32598 21804 10343 20089 39575 40060 82200 333 59002=
61818 31465 80922 10290 20232 40084 79599 8597/
333 10305 58006 85617 81930 86460 95372=
61847 11470 81804 10225 20210 4//// 60092 71799 8297/
333 10290 5//// 82810 81930 88363 95374=
64400 32658 62002 10245 20230 30081 40101 86500
333 10274 58003 86640=
64450 32957 03202 10257 20228 39733 40085
333 10287 58018=
83383 32598 30000 10332 20093 3//// 4//// 83200 333 5////=
83384 32698 30902 10334 20154 39538 40113 81144 333 59008=
83386 32598 10902 10317 20160 39565 40110 81400 333 59007=
83388 32497 41803 10326 20184 39407 40071 84200 333 59005=
83437 31598 52306 10301 20115 39381 40092 70540 83267 333 59009=
83442 32597 12302 10318 20161 39758 40101 81200 333 59010=
83479 32597 52702 10303 20149 39324 40115 85200 333 59010=
83483 32597 61802 10299 20153 39524 40107 84215 333 59005=
83488 32596 23204 10281 20129 39112 40117 81101 333 59004=
83492 32598 22702 10310 20173 39733 40115 82201 333 59015=
83514 32897 23603 10290 20169 39438 40130 81035 333 59004=
83531 32597 72705 10282 20133 39068 40110 87200 333 59010=
83538 32598 82304 10242 20090 38710 40127 81106 333 59013=
83543 32797 12708 10316 20163 39940 40111 81040 333 59032=
83570 32996 00000 10293 20142 39334 40105 333 59002=
83574 32698 22302 10286 20152 39509 40127 59005 82050=
83577 32498 32304 10268 20135 39273 40126 82280 333 58001=
83579 32597 52708 10262 20193 38988 40113 85100 333 58000=
83582 32597 32708 10284 20119 39354 40124 57016 83200=
83587 32798 13202 10273 20092 39114 40114 81100 333 58000=
83592 32598 22708 10272 20135 39423 4//// 82200 333 59020=
83595 32597 63202 10330 20176 39995 40079 83254 333 59034=
83642 32996 03202 10274 20134 39316 40083 56014=
83683 32690=
83692 32498 62706 10259 20175 39084 40109 58020 81260=
68174 31960 02104 10102 21035 38841 48578 52019 70500
333 10228 20101 91005 555 91025=
68242 32980 12204 10161 21114 38790 48581 52014 80001
333 10223 20161 91004 555 91025=
68262 32960 00000 10095 21004 38770 48587 52017
333 10234 20095 91003 555 91026=
68263 32968 01906 10110 21063 38545 48569 52015
333 10198 20110 91000 555 91026=
68350 36/// /0000 10056 21007 38720 48573 52017
333 10221 20056 91002 555 91025=
68372 36/// /0704 10078 21017 38518 48580 52018
333 10192 20068 91009 555 91028=
68424 32982 10000 10122 21036 39257 48558 52014 80004
333 10245 20118 91003 555 91022=
68438 31974 30000 10043 21081 38886 48579 52015 70500 80002
333 10197 20038 91002 555 91025=
68442 32982 00000 10039 21073 38723 48566 52017
333 10192 555 91026=
68461 32980 10000 10056 21030 38385 48571 52019 80004
333 10177 20049 91002 555 91027=
68512 32982 13606 10141 21041 39058 48549 52010 80002
333 10201 20141 91005 555 91021=
68588 31450 50000 10171 20150 30223 40240 51017 70420 85500
333 10225 555 91024=
68618 32980 10704 10116 20007 39097 48548 52008 80009
333 10209 20112 91000 555 91022=
68668 32980 01204 10106 20084 39389 48576 52013
333 10195 20105 555 91025=
68714 31560 10000 10142 20124 30165 40202 52007 70500 80550
333 10191 20142 91003 555 91020=
68752 36/// /0406 10109 2//// 39551 48571 52014
333 10183 20109 91007 555 91024=
68816 11670 53407 10149 20129 30150 40201 51008 69942 70162 81570
333 10180 555 91020=
68828 32570 30603 10118 20103 39978 40210 51005 83500
333 10169 555 91021=
68842 32975 02803 10101 20087 30152 40228 52012
333 10187 555 91022=
68858 32982 03304 10141 20110 30095 40241 52016
333 10208 555 91024=
80001 32570 80904 10305 20261 30125 40126 82206
333 10308 20270 57864 58010 82823 88070=
80028 31460 73405 10299 20248 30092 40109 70522 86530
333 5689/ 58017 86615 84360=
80063 31470 60000 10306 20244 70522 83630
333 5600/ 83710 84359=
85196 32584 10000 10260 20188 39570 40138 57030 81100
333 56400 58009 81820=
85207 32580 10000 10263 20187 39672 40141 57028 81100
333 56500 58011 81820=
85247 32580 51807 10260 20162 39826 40154 57025 84130
333 56400 58016 84820 84357=
85268 32480 80000 10220 20191 39845 40148 57020 8552/
333 56499 58025 85617 88457=
85289 32480 80000 10225 20203 39980 40138 57020 8655/
333 56699 58038 86615 88457=
85315 32684 80000 10180 20113 39258 40163 57025 8652/
333 56009 58009 86636 88457=
85245 32870 81710 10194 20122 39655 40148 57023 8807/
333 56090 58005 88357=
85223 32565 60000 10238 20060 37482 47122 57030 81101
333 56000 59005 81827 85070=
85283 32484 40306 10167 20079 37178 47100 57026 81101
333 56000 59015 81820 84070=
85293 32984 12407 10160 21051 36338 57020 80001
333 56000 59011 81070=
85345 32584 81603 10200 20135 39698 40182 57020 8312/
333 56409 58016 83827 88457=
85364 32584 61508 10160 20062 38128 48467 57030 86500
333 56000 59006 86630=
85365 32584 80000 10170 20129 39440 40186 57026 8552/
333 56009 58002 85623 88457=
88903 41680 6//00 11035 51040 49826 57009 70002 866//=
82586 32598 609// 10310 20203 39857 40093 83101 333 59001=
82191 32598 40903 10316 20242 30097 40103 83740 333
58019=
58001=
56499 88711 90043 90238 90942 91045 91514 92436 92813 92912 94070
96037 D/S =
65545 11460 70000 10245 20220 39669 40086 60242 70362 82932
333 10248 58000 82913 86360 95334=
65560 11458 8//// 10215 20203 39800 40114 60212 79596 8597/
333 10325 58032 85913 88460 95334 95336=
65563 11460 80000 10234 20210 39861 40102 60032 71792 889//
333 10325 58024 88913 95336 95334=
65585 11460 8//// 10274 20250 60012 71796 86903
333 10300 86913 88076 95332 95338=
65594 11456 80000 10250 20244 60162 79596 8697/
333 10275 86913 88360 95332 95336 95370=
83936 32497 80903 10144 20102 30028 40151 58002 885//=
82693 21596 71805 10248 20227 39842 40093 76062 81224 333
58010 60031=
82042 21598 53204 10273 20259 70366 83532 333 60011=
82106 21494 82304 10258 20244 39986 40083 73166 887//
333 58007 60141=
93004 16/// /2512 10123 20123 49987 57019 60091=
93023 16/// /3104 10148 20136 49985 57010 60061=
93196 16/// /3422 10163 20140 40031 57022 69941=
93305 41997 93525 10155 20146 49937 58016=
93334 16/// /0205 10093 20078 39036 57019 69981=
93404 16897 /0806 10117 20082 49961 57027 69921=
93498 36/// /0209 10120 20092 49966 57016=
93527 16/// /3123 10149 20134 49920 57024 60021=
93597 16/// /0230 10130 20108 49907 57029 60031=
93615 16/// /3315 10123 20110 49873 57008 60181=
93678 36998 /0429 10122 20093 49850 57044=
93709 16/// /3509 10110 20092 49854 57008 60181=
93831 16998 /2902 10038 20023 49856 57008 60041=
93896 31998 83502 10101 20076 49838 57012 70222 8807/
333 88358=
93947 16/// /0503 10063 20055 49904 57016 60011=
93994 36/// /0210 10192 20134 40159 52002=
63740 41980 10905 10181 20085 48498 70200 81530
333 58009 81359=
63820 32980 01905 10234 20210 40152
333 10292 58009=
63619 31982 10000 10212 20123 48529 70111 80001
333 10268 58018 81081=
63641 32980 01610 10205 20089
333 10248=
63671 32982 01607 10274 20198
333 10342=
63695 32980 01904 10175 20097
333 10242=
63714 31982 01805 10195 20095 48510 70122
333 10265 58008=
63723 32982 01810 10279 20158 40125
333 10346 58012=
63766 32982 00906 10213 20133 48529
333 10294 58010=
83334 32598 40000 10298 20151 3//// 4//// 84200 333 5////=
83393 32596 52704 10296 20213 39388 40103 83330 333 59015=
83687 32698 22308 10258 20116 39103 40108 58006 82030=
71952 36/// ///// 10163 20024 39360 40198 58009 333 10164 20024
70000=
71967 36/// ///// 10091 20037 39302 40271 50000 333 10093 21029
70000=
34824 32596 82301 10218 20176 40121 53017 8343/   333 10263=
34858 32964 60902 10234 20109 40114 53009 84032   333 10304=
34240 32974 51105 10220 20062 40131 53004 80001 333 10289=
34357 32998 01701 10235 20088 40142 53011 333 10290=
34363 32998 00701 10220 20078 40151 53001 333 10269=
34545 12998 60901 10204 20084 40130 53013 69902 80002   333 10285=
34655 32997 30602 10212 20080 40134 53011 80001 333 10296=
34759 32998 70902 10199 20097 40125 53007 82051   333 10288=
34838 31597 82102 10166 20145 40128 53027 79598 889//   333 10282
88921=
34929 31664 82304 10219 20177 40119 53014 71792 8593/   333 10268
85933=
34954 32698 70000 10222 20144 40107 53007 8343/   333 10290=
37031 11697 82601 10176 20149 40125 52016 60010 70398 889//   333
10266 88920=
37085 32996 60303 10211 20169 40131 52011 83031   333 10276=
37145 32598 70901 10218 20135 40109 52011 87900 333 10289=
37171 32596 82904 10195 20167 40129 52017 8257/ 333 10217=
37228 11497 80401 10168 20142 40108 51003 60020 70298 884// 333 10242=
23226 32970 01403 10084 20011 40203 52002 333 10143=
23606 32962 30000 10225 20086 40129 57003 82061 333 10290=
23701 32999 20000 10231 20102 40140 54000 80001   333 10302=
26167 12665 62601 10138 20082 40167 52013 69902 83201   333 10165=
27857 32997 32102 10225 20098 40143 57015 80002   333 10288=
28909 32999 00502 10192 20070 40149 53004   333 10246=
37061 32682 81203 10228 20073 40115 52018 85507   333 10298=
28049 32998 53602 10148 20009 40156 53002 80002   333 10179=
28319 32998 00701 10134 20073 40165 53003   333 10234=
28334 32984 00000 10148 20036 40152 53006   333 10217=
28434 329// 00000 10144 20054 40157 55000   333 10229=
28552 12998 00102 10134 20058 40134 52007   333 10190=
29111 42998 13201 10091 20041 40053 52011 80002=
29209 42598 73401 10086 20071 40051 52008 83535=
29602 42584 83106 10102 20077 40041 51005 885//
333 88621=
29636 42598 70401 10140 20129 49987 58005 87300=
29654 42599 60000 10107 20093 40003 52003 83941=
29712 42598 62804 10131 20104 40010 52008 83970=
29724 41597 83503 10137 20109 49992 52002 78082 8635/=
29726 41597 80000 10152 20138 49985 57002 79598 883//
333 88921=
29814 42499 83503 10138 20112 40008 52002 883//
333 88910=
29827 41597 83203 10130 20115 49991 52003 79198 889//=
29939 41297 80000 10148 20133 40003 58004 71398 887//   333 88906=
36021 415// 83104 10138 20127 40001 52007 70298 8197/=
36022 41998 22306 10129 20120 40003 54000 70298 82040=
36038 41998 32403 10138 20120 40021 53019 70291 80002=
36058 41699 81002 10175 20086 40034 50000 70298 889//=
29068 416// 81402 10122 20117 49962 56005 70282 885//=
29274 41564 81101 10142 20120 49996 53011 78098 889//=
29363 41597 32501 10148 20119 49978 52007 70281 83900=
29456 425// 71801 10146 20104 49989 52009 84931=
29467 42598 71201 10152 20109 40000 52002 86501=
29477 425// 72803 10156 20125 49991 54000 8697/=
29576 41597 80803 10146 20129 40014 53016 78082 889//=
29587 415// 82507 10166 20128 40012 52010 78022 889//=
30157 42998 21601 10046 20024 40131 52010 80001=
30320 42997 20000 10082 20006 40078 52002 82030=
30537 425// 30203 10085 20125 40115 52001 80001=
24639 42999 80000 10045 20009 40090 50001 80001=
24652 42999 03002 10065 20042 40083 52003=
24656 42999 22302 10068 21057 40070 52004 81031=
24724 42999 81904 10134 21082 40060 57007 81049=
24768 42599 62802 10101 21012 40071 52013 86500=
24923 42999 20000 10042 20000 40113 52004 80001=
24962 41598 80000 10101 20082 40071 52011 78082 85331=
25400 42999 03403 10015 21010 40138 53001=
30493 42699 30000 10033 20030 40118 52002 83500=
15502 31998 70000 10238 20149 40120 55005 70111 87050 333 10258 555
87359=
15525 31598 50000 10217 20132 40131 56002 70211 83430 333 10258=
15549 31598 60000 10199 20090 40138 57002 70311 82431 333 10236=
15552 31598 41102 10176 20137 40146 54000 70211 84500 222// 2//01 333
10242 555 92022 92428=
15614 11698 61402 10184 20143 39445 40118 54000 69932 70282 86800 333
10256 555 71871 95000=
15615 31/91 92904 10030 20027 37159 47108 58001 74142 333 10064 555
95199=
15625 31660 50704 10240 20143 40109 55006 70300 82832 333 10280 555
83840 95400=
15627 31/91 92504 10056 20056 37643 47105 53002 74144 333 10062 555
95199=
15640 31998 61403 10197 20134 40149 53013 70311 80006 333 10258 555
95000=
15655 31998 30908 10191 20139 40144 57005 70200 80001 222// 00181
309// 40601 333 10236 555 92025 92428=
15712 31698 50903 10247 20166 40108 56004 70322 81102 333 10292 555
95000=
15730 31698 40000 10214 20147 40126 54000 70211 82361 333 10253 555
81633 95000=
40739 32965 00304 10240 20096 38596 49993 52008 91750 333 55116=
40420 42960 03306 10320 20010 39829 40024 333 10435 58007=
13160 11697 70102 10167 20132 30054 40159 53010 60032 70296
81500 333 10218=
13376 11597 82701 10170 20162 39897 40150 52035 60072 72169
885// 333 10267=
25325 42599 30303 10048 21047 40143 52010 83400=
25378 11597 80000 10009 21017 40196 56001 69902 77172 8651/   333
21015 86624=
31174 42999 45301 10020 20074 40017 40119 56001 80001=
31263 41597 80000 10085 20081 39544 40091 57005 76162 885//=
31489 42999 20000 10029 20024 40130 53002 80004=
31959 42999 02902 10050 20033 40111 58005=
32076 42998 02302 10002 21006 40167 51000=
32509 42699 32810 10059 21020 40046 52048 83500   333 91012 91114=
32594 42497 82904 10023 20010 40126 52017 886//=
41571 319// 00506 10297 20123 49982 70500 333 58001=
41594 319// 00503 10320 20209 49972 333 58007=
41710 329// 00502 10372 21003 49949 333 58007=
41739 316// 52303 10300 20230 48448 70500 84430 333 56990
58007 82635 82835 81360=
41744 329// 01303 10290 20108 48422 333 59009=
41749 319// 01815 10310 20254 49973 70500 333 59018=
41600 329// 00000 10290 20208 49983 333 59018=
41700 329// 00000 10340 20241 49953 333 59008=
41759 329// 02302 10300 20251 40023 333 58001=
48552 32460 80000 10270 20241 30050 40056 85837
333 59009=
29923 41598 70000 10140 20122 49983 57005 79598 87900=
41530 319// 03104 10320 20140 49975 70600 333 58002=
65528 32460 7//// 10290 20233 39608 40074 84230
333 10311 59002 84813 87360=
65536 32460 7//// 10257 20219 39664 40091 81570
333 10286 58004 81613 87360=
65555 11560 80606 10225 20202 39668 4//// 60072 70396 8527/
333 10286 58023 85820 88460=
65557 11458 80000 10240 20233 39864 40103 60152 79592 8497/
333 10316 58011 84613 88460 81920 95311=
65562 11458 7//// 10237 20234 60172 79596 84970
333 10343 84913 87360 95332=
65578 12460 72404 10277 20253 30081 40090 61332 85832
333 10297 58007 82813 83620 87076=
65592 11140 8//// 10245 20239 30084 40107 61082 79596 8392/
333 10273 58013 83703 88460 81923 95334=
65599 11460 8//// 10251 20241 30018 40092 60182 71796 8697/
333 10274 58002 86911 88360 95332 95335=
12215 16/// /0000 10124 20015 30040 40216 52022 69962
333 10163=
40001 32970 03408 10268 20087 40044 53011 333 10340=
40007 32970 02805 10250 20134 40057 53014 333 10325=
40045 32970 00103 10311 20085 40058 53007 333 10367=
40061 32970 02701 10286 20082 40057 52023 333 10350=
40080 32965 02703 10248 20032 39390 40059 52019 333 10361=
40095 32970 00205 10244 20105 39478 40078 52016 333 10323=
40009 32570 33404 10266 20190 40052 53022 81101 333 10340 81830
83070=
40016 32970 32203 10283 20090 40050 51005 83050 333 10360 83360=
40022 32965 02102 10242 20196 40115 53013 222// 20000 333 10266=
40030 32970 02702 10250 20093 40076 52020 333 10334=
40039 32970 00000 10271 20091 40053 53018 333 10340=
40066 32970 03501 10220 20162 40102 51012 333 10290 =
40072 32970 03502 10330 20084 40058 52006 333 10378=
40083 32970 00201 10185 20100 48466 51017 333 10280=
38609 MPL=
12415 12998 13501 10139 20071 30057 40207 53017 69942 81030
333 10142 20098=
42101 32996 00000 10286 20231 49979 333 58008=
42111  32996  00000  10232  20199  39243  49988
333  59014 =
42131 32996  00901 10364 20200 49973 333 59009=
42328 31995 02318 10312 20234 49984 70700 333 59013=
42339 31995 32303 10346 20199 49991 70600 80001 333 59009 83070=
42348 31596 20906 10350 20197 49988 70500 82800 333 59011 82630=
16622 32565 31705 10232 20164 30129 40134 53003 83100 333 10280
90730 91119 555 10000 40214 30000 10300 20298 30300 40290
50252 40000 47632 44260 50000 50190=
16641 32470 42908 10240 20173 30127 40133 54000 81204 333 10300 81820
84068 90730 91118 555 10000 40210 40000 47630 44240 50000 50198=
16682 32560 10000 10232 20198 30126 40144 55001 81600
333 10274 90730 91108 555 10000 40210 30000 10330 20326 30310 40290
50245 60224 40000 47634 44275 50000 50210=
16716 32962 01507 10248 20141 30109 40126 56002 333 10282 90730 91115
555 10000 40230 40000 47618 44250 50000 50184=
16734 32565 22910 10208 20196 30075 40131 55000 82200 333 10244 90730
91115 555 10000 40208 40000 47593 44240 50000 50200 70000 77/I/
7/I//=
16743 32460 33212 10210 20181 39941 40137 56003 83600 333 10250
90730 91117 555 10000 30250 40000 47491 44240 50000 50192=
16749 32960 02310 10240 20207 30091 40105 56002 333 10264 90730 91121
555 10000 40238 40000 47605 44250 50000 50218=
16754 32965 00000 10224 20199 30084 40130 56007 333 10256 90730 91107
555 10000 40224 40000 47602 44255 50000 50208=
16643 32960 32612 10228 20193 30138 40142 56001 80005 333
10254 90730 91120 555 10000 40228 40000 47640 44260 50000
50206=
16648 32660 20810 10230 20154 30027 40113 53012 81102 333 10310
90730 91116 555 10000 40230 30000 10270 20270 30262 40238
50224 60194 40000 47558 44270 50000 50184=
16650 32965 00000 10218 20176 30120 40124 56006
333 10258 90708 555 10000 40218 30000 20306 30314
40288 50248 60224 40000 47627 44270 50000 50192=
16684 32960 01005 10220 20181 30084 40110 57010 333 10240 90730 91108
555 10000 40216 40000 47610 44260 50000 50196=
16732 32962 03504 10222 20181 30120 40133 56002 333 10247 90730 91112
555 10000 40222 40000 47624 44230 50000 50196=
16614 32570 43211 10234 20118 39381 40122 53008 82201 333 10282 82825
83067 90730 91120=
16627 32960 0//// 10224 20158 30130 40134 54000 333 10260 90730 911//
555 10000 40214 30000 10280 20284 30284 4//// 50224 60202 40000 47633
44260 50000 50184=
16667 32970 00000 10254 20163 30120 40126 56003 333 10284 90730 91104
555 10000 40226 30000 1//// 20330 30322 4//// 5//// 6//// 40000 47627
44255 50000 50198=
16675 32965 10903 10244 20155 30093 40113 52003 81040 333
10310 90730 91115 555 10000 40218 30000 10290 20290 30280
40260 50232 60202 40000 47605 44240 50000 50190=
16710 32564 42406 10196 20090 39380 40120 54000 84200 333 10260 90730
91117 555 10000 40090 30000 10268 20242 30248 40230 50208 60192 40000
47063 44200 50000 50138=
16723 32965 03606 10274 20105 30111 40119 51005 333 10310 90730
91115=
16738 32960 01406 10186 20067 39944 40137 56006 333 10292 90730
91111=
16746 32960 02304 10226 20185 39957 40133 51002 333 10282 90730
91114 555 40000 47506 44260 50000 50200=
23274 42498 53606 10011 21012 40106 54000 85500   333 85613 91112=
23472 42599 63505 10050 21012 40051 57003 82502=
23678 41598 83406 10066 20045 49992 58002 70262 885//=
23884 415// 80602 10122 20119 49939 57017 78182 889//=
29263 42571 62101 10136 20115 49973 58002 82930=
29282 42584 80000 10127 20095 49995 57013 84901=
29570 41596 72405 10162 20120 49997 58007 70298 83901=
29862 41983 00101 10150 20137 40010 53003 70298=
23973 41597 81704 10115 20111 49939 57012 78082 889//=
29253 416// 70000 10124 20109 49958 57004 70282 8353/=
29471 414// 72402 10156 20132 49991 53010 70282 87900   333 87919
91113=
29481 42599 60000 10155 20135 49991 54000 86300=
29553 42871 30000 10138 20115 49992 53006 83050=
29562 41584 50000 10132 20121 40005 5//// 70298 85900   333 91113=
29581 42698 72804 10178 20139 49989 57006 82401=
29653 42597 71802 10125 20106 40008 58003 83231=
29675 41598 80000 10126 20122 40011 53014 70298 889//=
29759 41584 60000 10114 20092 40018 58060 70298 82530=
29766 41599 61202 10149 20131 40013 58027 70298 86900   333 91113=
29864 41984 63203 10116 20098 40020 58002 70198 86040   333 95090=
29869 41670 81001 10175 20130 40012 54000 70298 889//   333 95090=
29956 41684 22202 10116 20104 40034 52002 70298 80002=
30504 42997 71406 10147 20084 40041 58010 83032=
30622 429// 00201 10054 20035 40110 54000=
30499 42599 53003 10050 20006 40118 52009 85500=
30683 42699 10000 10024 21019 40142 52008 81503=
31253 42599 63601 10068 20064 40089 53002 86900=
31295 419// 32904 10058 20044 40099 52005 70281 81031=
31348 429// 01501 10019 21021 40123 52002=
31418 42999 00501 10038 20031 40115 58002=
31439 429// 31201 10026 20018 40143 58013 80001=
31442 425// 72001 10094 20092 40086 52005 70282 87300 333 87920=
31445 41559 83502 10108 20097 40092 58003 78081 8335/=
31474 42998 00000 10008 21000 40125 52009=
31534 42699 60000 10049 20043 40118 52011 86500=
31587 42980 00000 10095 20074 40079 52009=
31632 42998 00000 10015 21002 40135 52001=
31702 42984 13601 10057 20045 40110 51003 80009=
31725 42998 20000 10082 20056 40109 52008 82040=
31801 42998 60000 10033 20020 40110 52005 80002=
30455 429// 13101 10008 21054 38902 48466 51004 80001=
30549 429// 00000 11026 21052 38678 48470 52012=
30726 429// 00000 10026 20013 40136 52007=
30731 42999 51701 10023 20010 40131 52007 82032=
30739 426// 40404 10102 21019 40121 52011 82540=
30745 42999 00000 10042 21023 40165 52008=
30764 42998 10000 10009 20001 40163 52018 80001=
30811 429// 00000 10077 20015 40108 52004=
30822 42999 20000 10067 20049 40115 58005 80002=
30824 42999 00000 10020 20015 40125 58002=
30829 42984 00000 10100 20065 40114 52009=
30846 42999 80000 10083 20011 40139 52016 83041=
30859 42999 82702 10043 21015 40160 52017 80001=
30862 42984 21701 10070 20011 40128 52015 80001=
30957 42984 70802 10075 21036 40144 52018 85940=
31845 42998 00000 10076 20040 40094 52005=
31878 41682 71502 10141 20056 40084 52014 70282 87900=
31915 42998 02602 10118 20085 40091 52013=
31921 42584 63202 10157 20100 40082 53010 82960=
31969 42598 80502 10116 20100 40109 52003 885//=
31981 42699 82202 10112 20100 40081 52010 82501=
31987 42999 63202 10104 20061 40101 52007 80001=
32069 42999 01105 10030 20020 40158 53002=
42492 22996 00000 10288 20223 40009 70500 333 59019 6990/=
42701 31996 31403 10270 20186 39311 40019 70521 83030 333 58000 83360
=
42798 31995 30904 10274 20214 40010 70520 83030 333 59009 83360=
42809 21495 72005 10284 20262 40005 70596 83531 333 56499 59013
6993/ 83618 83360 85075=
42886 21496 71402 10260 20237 40034 70296 84530 333 58002 6998/
84618 85360=
42895 21596 60000 10260 20240 40012 72162 85530 333 59013 6008/
85620 86360=
42971 22596 62710 10252 20249 40035 70296 84631 333 58008 6030/
84620 83075=
43333 21596 62703 10252 20240 40055 72162 83470 333 59021 6993/
82620 83825 85458=
23383 42999 50204 10062 21020 40034 53004 82031=
24856 42699 22902 10059 20025 40093 52017 81531=
30686 42999 03601 10009 21002 40153 52004=
30777 42998 22001 10041 20013 40148 52017 80002=
30961 42999 01704 10070 20006 40137 52010=
30971 42984 02001 10012 21002 40175 52018=
30978 42984 00703 10132 20013 40106 52018=
31624 42999 00000 10016 20005 40129 52006=
24982 42699 60000 10017 20006 40082 52009 85530=
32121 42997 61106 10047 20014 40160 53001 86080   333 91011 91111=
32128 42999 11002 10061 20022 40143 54000 81030=
42634 32596 22510 10294 20236 40033 81501 333 59011 81620=
42647 32596 11808 10312 20253 40030 81500 333 59019 81620=
42737 32996 02909 10294 20248 40037 333 59014=
42909 32596 22710 10298 20253 40050 82500 333 56600 59014 82620=
43003 21595 62304 10290 20256 40061 72162 86900 333 59016 6990/
84620 84825 81930=
43014 21596 81805 10226 20220 39422 40064 79592 8692/ 333 59012
6010/ 83620 83825 82930 88458=
43063 32596 52703 10257 20211 39450 40065 81531 333 59015 81628
83070=
43110 21496 80902 10256 20247 40077 75196 8691/ 333 59018 6010/
83710 83620 81928 88546=
43117 21596 83603 10244 20235 40071 76096 8577/ 333 59016 6030/=
43192 21496 63203 10264 20250 40077 72562 83923 333 57963 59014
6006/=
98431 11456 80000 10256 20234 40090 58009 60041 71382 8397/
333 56999 83916 88459=
98646 11560 40702 10268 20249 40095 58014 60111 70298 82201
333 56999 82820 83080=
98741 11460 80000 10250 20241 40086 58004 60131 78088 8452/
333 56999 84617 88457=
98747 31470 11801 10250 20232 40077 57009 70544 81101
333 56999 81818=
98753 31465 30000 10258 20247 40065 58017 70544 82201
333 56999 82816 83079=
47101 31950 03401 10147 20133 39992 40082 52016 71000=
47112 31958 42003 10151 20142 30001 40081 53006 71011 80001
333 92011=
47131 32965 21802 10152 20111 30015 40082 80001=
47143 32962 00000 10181 20146 30009 40075=
47146 32963 01802 10145 20126 30024 40089 52003=
47152 31930 03201 10169 20157 30031 40070 52007 71000=
47156 31959 00000 10149 20121 39998 40084 53004=
47168 32960 02701 10181 20138 39995 40072 52004 333 92011=
47189 41/06 93601 10178 20174 30028 40088 53015 74544 333 92011=
43128 21596 63210 10248 20225 39457 71396 84330 333 57962 58001
6990/ 83620 81930 83360=
43150 32597 30505 10292 20249 39953 40027 80001 333 59007 83070=
43213 32596 62704 10300 20210 39733 40043 84832 333 59025=
43279 32996 31804 10290 20244 30025 40042 80002 333 59017
83075=
43314 21996 03404 10280 20252 40084 70160 333 59012 6992/=
43353 22496 53206 10288 20254 40089 83801 333 56709 59012 6990/
82616 83075=
43369 21596 53206 10288 20254 40086 70262 83401 333 58000 6001/
82620 83075=
43371 21596 60000 10256 20244 30009 40082 70362 81871 333 59014
6006/ 81620 84465=
36864 12684 60000 10160 20078 40069 57010 69980 85502   333 10286=
51711 32980 12504 10143 20016 37971 52008 80002 333 05101
10230=
51705 11780 72705 10136 20002 37800 57008 69901 72500 85902
333 05151 10228=
10203=
55578 32880 11402 10114 20027 36346 52004 81400 333// 05302
10198=
55664 32980 00000 10077 20003 36012 52001 333// 05202 10172=
55773 32570 61105 10043 20022 36031 52001 86900 333// 05200
10106=
56116 32880 50000 10087 20042 36336 57003 85502 333// 05303
10180=
56137 32780 20000 10114 20049 36785 52001 82400 333// 05403
10245=
92022=
10146=
80214 31460 70904 10260 20197 70522 83505
333 560/0 83617 85270=
80222 41570 80603 10159 20123 37518 72162 85853
333 56299 57862 58002 85853 83358=
80234 01562 60502 10264 20208 39618 40110 60011 70252 81131
333 56239 58006 60017 81823 85359=
80259 31559 70000 10265 20192 39052 70522 82870
333 5629/ 58005 82817 87359=
80315 31455 61805 10294 20207 39588 40075 70522 82855
333 56009 59009 82817 83359=
80342 32570 60000 10210 20174 38219 83230
333 5600/ 58006 83825 85360=
80370 31464 60704 10144 20098 71522 86800
333 562// 86815=
80398 31458 79901 10296 20237 30005 40100 71522 86131
333 56000 58002 86816
87078 32970 80000 10200 20099 30023 40175 57021 80008=
87097 32970 51808 10185 20086 39841 40156 57017 85070 333 85360=
87155 32965 71407 10163 20088 30132 40195 57016 85056 333 56077
85360 86270=
87162 32970 81609 10180 20089 30104 40174 57028 87038 333 56066=
87166 32970 61806 10166 20080 30117 40191 57019 86050 333 56050
86360=
87178 32970 61603 10175 20082 30024 40172 57013 84056 333
56080 84360 86270=
87270 32465 61105 10156 20086 30130 40195 57017 84106 333
56304 84815 86270=
87289 32465 81806 10130 20091 30113 40198 57008 885//
333 56499 88612=
87374 32465 81606 10140 20091 30114 40208 57016 8357/ 333 56369
83615 87360=
87393 32465 81604 10126 20099 30136 40201 57013 885// 333 56399
88612=
87395 32465 71402 10132 20092 30162 40208 58012 82576 333 56455 82615
84270=
87480 32465 81603 10119 20089 30190 40221 57012 886// 333 56399
88715=
87497 32565 81103 10133 20088 30178 40204 57013 8751/ 333 56359
87630 85460=
87534 11360 80902 10095 20087 30067 40235 56003 60021 72162 8572/ 333
56209 85708 88545=
87548 11559 80709 10100 20057 30133 40231 54000 69901 76062 83527 333
56359 83625 88545=
87563 32565 81604 10110 20056 30194 40240 58003 8477/ 333 56409 84710
88360=
87576 31556 71608 10116 20051 30204 40227 55001 70522 84870 333 56450
82630 87360=
87582 32660 81807 10124 20049 30220 40227 55001 8351/ 333 56699
83635 88460=
87593 32960 81816 10119 20067 30196 40223 58005 8801/ 333 56029
88460=
87623 41230 81406 10075 20069 30028 40262 58003 76166 8562/ 333
56339 85706 88540=
87645 32570 81811 10093 20017 30034 40248 52007 8782/
333 56440 87822 84545=
87692 32560 82008 10104 20008 30210 40236 57007 85507 333 56505
85630 88270=
87715 11230 81104 10059 20054 39944 40276 57007 60031 75065 8752/ 333
56299 84605 83607 88525=
87765 32565 60509 10060 20016 39262 48534 58011 84570 333
56660 84620=
87016 32565 81808 10186 20118 39746 40159 57029 885// 333
56899 88625=
87022 32565 80000 10188 20111 39650 40166 57029 888// 333
56199 82830 88640=
87046 32565 80508 10162 20090 39136 48511 57025 8687/
333 56870 82825 84630 83360=
87047 31562 80708 10131 20088 38805 48516 57021 71522 8257/
333 56100 82620 88360=
87121 11258 82706 10120 20105 39666 40194 57023 69941 71025
8872/ 333 56499 86706 88535=
87129 32570 80000 10146 20064 39958 40195 57027 885// 333 88635=
87217 32770 51805 10173 20075 39658 40153 57028 82506 333 56600
82650=
87222 32770 70516 10188 20094 39613 40134 57025 81509 333 56606
81656=
87257 32565 71805 10154 20093 30093 40199 57021 82578 333 56356
82625=
87311 32765 51615 10144 20030 39497 40191 55005 81175
333 56000 81850=
87320 32665 61410 10175 20076 39631 40164 57033 84570 333 56330 84640
82360=
87328 32680 80000 10134 20070 39527 40195 57015 885// 333 56099 88640
95060=
87349 32570 71405 10119 20069 39810 40216 57015 83856 333 56566 81820
82625 =
87371 32562 60000 10140 20089 30190 40212 57021 83570
333 56000 83620 83360=
87416 32670 71408 10132 20037 39443 40200 58003 81530 333
56779=
87418 31660 71804 10119 20073 39392 40207 58004 70422 83570
333 56560 83645 84360=
87436 32680 81405 10121 20062 39371 40195 53003 8557/ 333 56559
85640=
87448 31258 81110 10076 20067 39646 40234 55003 76222 8562/ 333
56889 83703 82607 83515=
87453 32565 80905 10084 20063 39712 40216 57006 76066
8772/ 333 56179 82712 86625 88550=
87467 31456 81103 10096 20086 30080 40220 57016 71022 886// 333 56299
88710=
87506 32570 71605 10067 20013 38614 48533 56005 87500 333
56300 87622 95080=
87509 32570 61406 10108 20042 39350 40226 57009 86500 333 56300
86630=
91643 31599 21222 10283 20236 40062 51008 70300 82100 333 563//
82820=
91631 11599 60811 10285 20254 40058 60011 70182 83205 333 562/9=
91636 11497 80314 10283 20250 4//// 60191 78008 8337/ 333 5619/=
89061 11016 80603 11081 30134 40144 57014 69943 70272 886// 91734
222// 01012 ICE 0/6/0 333 43019 88710=
89063 41/93 90000 11091 21069 30140 40154 56017 74244 91741 222//
03016 333 46112=
89062 41497 62304 11090 21103 30110 40154 57018 74142 82608 333
42012 82612 86275=
70026 32666 81309 11028 21039 30228 40234 53001 91753 333 11011
21050 555 93118=
70133 32566 81506 10017 20006 30227 40234 51001 91753 333 10022
21028 555 93118=
70200 17256 81010 10039 20033 30198 40207 56004 60011 761// 91753
333 10044 20022 96010 555 93118=
70231 12466 89905 10100 20061 30143 40273 51005 69901 91753 333
10111 20072 555 93118=
70261 32666 62406 10111 20056 30097 40270 51004 91753 333 10139
20083 555 93118=
70273 12566 80105 10094 20056 30239 40288 51003 69931 91753 333
10094 20067 555 93118=
70308 31359 81514 10056 20044 30155 40167 50002 710// 91753 333
10056 20039 555 93118=
70316 32466 81219 10072 20056 30182 40221 51009 91753 333 10078
20067 555 93118=
70326 32666 61406 10094 20039 30250 40270 50004 91752 333 10100
20044 555 93118=
70350 32966 00606 10083 20028 30253 40293 51004 91753 333 10094
20039 555 93118=
70361 32666 83111 10106 20061 30259 40276 52001 91753 333 10111
20039 555 93118=
70398 32966 22809 10133 20072 30189 40230 50003 91753 333 10144
20083 555 93118=
70341 32666 49903 10100 20056 30264 40292 51005 91753 333 10100
20056 555 93118=
70194 32566 62610 10110 20040 30072 52007 91755 333 91014 555
93118=
78333 31/10 31404 10305 20231 30153 40159 5/001 71790 83963 333
10317 20206 30/// 56990 57981 58029 70002 818// 829//=
78338 31556 60101 10274 20231 30152 40165 51002 71791 84963 333
10316 20217 30/// 56799 57920 58036 82822 84070 829// 91111 91536
90411 555 10401=
78349 31558 62503 10297 20215 30044 40153 58006 71791 84943 333
10310 20204 31/// 56099 57971 58028 82821 82922=
78360 31568 70402 10287 20239 30149 40160 58001 71792 86903 333
10295 20254 30/// 56909 57930 58026 81820 859// 92021=
78369 31568 60604 10301 20249 30147 40159 58007 71722 81902 333
10315 20245 30/// 56909 5796/ 59025 81820 86070 819// 92013=
72201 32566 29903 10317 20233 30165 40172 50003 91753 333 10322
20256 555 93118=
72203 32566 40912 10289 20200 30182 40188 50002 91753 333 10294
20256 91018 555 93118=
72205 32766 40507 10317 20156 30151 40188 58001 91753 333 10322
20228 91015 555 93118=
72206 32566 80714 10261 20183 30203 40213 50005 91756 333 10267
20183 555 93118=
72208 32966 00000 10250 20156 30204 40218 58006 91756 333 10256
20156 555 93118=
72212 35/// /9906 10300 20161 30180 40194 58006 91753 333 20172
555 93118=
72214 32966 00709 10294 20156 30186 40204 58003 91753 333 10300
20194 91015 555 93118=
72217 32966 01107 10278 20128 30094 40221 58013 91753 333 10278
20156 555 93118=
72218 32966 02805 10267 20111 30169 40221 58013 91753 333 10278
20161 555 93118=
72219 32566 20000 10244 20144 39854 40223 58014 91753 333 10250
20161 555 93118=
72223 32666 61108 10294 20189 30119 40197 58000 91756 333 10306
20222 555 93118=
72226 32566 41010 10294 20144 30138 40209 58009 91753 333 10300
20183 555 93118=
72231 32666 61412 10311 20194 30172 40186 50005 91753 333 10317
20239 555 93118=
72234 32766 61004 10300 20167 30090 40199 58006 91753 333 10306
20189 555 93118=
72235 32766 21507 10306 20183 30075 40190 58006 91754 333 10306
20189 555 93118=
72240 32766 21305 10311 20183 30160 40178 50001 91753 333 10322
20239 555 93118=
72243 32666 41007 10322 20217 30126 40162 50001 91753 333 10322
555 93118=
72248 32766 42004 10317 20189 30075 40167 58001 91756 333 10317
20211 555 93118=
72250 32666 21516 10322 20211 30138 40143 50001 91756 333 10333
20244 555 93118=
72253 32666 41511 10306 20200 39868 40144 58002 91753 333 10306
555 93118=
72254 35966 01508 10322 20189 39937 40147 50000 91753 333 10328
20222 555 93118=
72255 35966 01710 10322 20206 30120 40157 50001 91751 333 10328
20217 555 93118=
72256 32966 01811 10311 20217 39977 40154 50001 91753 333 10317
20228 555 93118=
72259 32666 41713 10328 20200 39951 40148 50000 91753 333 10328
20244 91020 555 93118=
72261 35666 61412 10294 20200 39768 40120 58002 91753 333 10300
20244 555 93118=
72263 35966 01716 10317 20133 39462 40119 58002 91753 333 10322
20228 555 93118=
72265 32966 01816 10317 20161 39137 40091 58009 91753 333 10317
20222 91021 555 93118=
72266 32966 02014 10322 20139 39515 40123 57006 91753 333 20211
555 93118=
72267 32766 21718 10311 20144 39018 40091 58004 91753 333 10311
20206 555 93118=
72270 32866 60905 10289 20117 38786 40061 50002 91751 333 10294
20239 555 93118=
72274 32966 09903 10339 20022 39202 40072 58001 91755 555 93118=
72278 32966 09905 10350 20072 39694 40068 58003 91756 333 10350
20272 555 93118=
72290 31959 02007 10189 20122 30124 40134 51004 705// 91751 333
10189 20167 555 93118=
72295 32561 60000 10206 20144 30093 40129 51006 91750 333 10206
555 93118=
72304 15362 20113 10183 20150 30213 40216 58001 69901 91751 333
91022 555 93118=
72308 32466 89905 10178 20128 30223 40229 58005 91751 333 10178
20139 555 93118=
72310 32966 00508 10272 20117 30136 40219 56014 91756 333 10272
20150 555 93118=
72311 32962 01403 10261 20144 39937 40224 58016 91753 333 10261
20150 555 93118=
72317 32966 00000 10233 20122 39897 40223 58012 91754 333 10233
20117 555 93118=
72324 32766 29904 10267 20150 39975 40220 58010 91753 333 10267
20178 555 93118=
72326 32666 22106 10261 20167 39863 40215 58010 91753 555 93118=
72327 32666 20000 10278 20161 39997 40206 58009 91753 333 10278
20183 555 93118=
72334 32966 21712 10311 20161 30091 40190 58005 91753 333 10311
20222 555 93118=
72340 32966 02206 10300 20194 30089 40181 58007 91753 333 10306
20217 555 93118=
72344 32666 21607 10311 20206 30000 40164 58006 91753 333 10311
20211 555 93118=
72351 32966 41816 10350 20128 39770 40124 58004 8/071 91753 333
10350 20233 91021 555 93118=
72353 32766 41614 10333 20183 39682 40134 58003 91753 333 10339
20233 555 93118=
72356 32666 41912 10317 20222 39910 40144 58004 91753 333 10317
20239 555 93118=
72363 32966 02019 10306 20139 38901 40090 58004 91753 333 10317
20206 91023 555 93118=
72365 32966 42706 10300 20011 38361 40054 58007 91756 333 10317
20194 555 93118=
72374 35966 02207 10317 21028 38485 40068 57007 91756 333 10328
20139 91020 555 93118=
72384 32966 09903 10217 20078 39963 40137 50002 91756 333 10222
20117 555 93118=
72386 32966 00000 10322 20017 39318 40058 51007 91756 333 10322
20228 555 93118=
72389 32966 02907 10217 20089 30022 40138 50003 91756 333 10217
20139 555 93118=
72394 32966 02805 10200 20094 30044 40133 58000 91751 333 10200
20056 555 93118=
72401 32566 60000 10211 20144 30166 40229 58014 91754 333 10217
20139 555 93118=
72403 32966 29903 10211 20133 30108 40227 58012 91751 333 10217
20111 555 93118=
72407 35966 09905 10194 20117 30206 40228 58014 91754 333 10194
20117 555 93118=
72408 32966 20000 10183 20094 30208 40231 58019 91754 333 10183
20117 555 93118=
72411 32964 09903 10222 20133 39801 40220 58010 91754 333 10228
20106 555 93118=
72412 15966 09905 10244 20133 39339 40209 58007 69951 91751 333
10244 20139 555 93118=
72414 32766 29904 10267 20167 39853 40203 58009 91754 333 10267
20133 555 93118=
72421 32966 62010 10278 20189 39874 40185 58016 91751 333 10278
20189 555 93118=
72422 32966 02507 10278 20178 39851 40206 58007 91754 333 10278
20183 555 93118=
72428 32966 62209 10283 20189 39886 40178 58014 91751 333 10283
20183 555 93118=
72429 32966 02011 10272 20200 39830 40187 56008 91752 333 10278
20189 555 93118=
72432 32966 02605 10283 20183 30058 40195 58004 91754 333 10289
20200 555 93118=
72434 32666 61809 10306 20228 39963 40156 58009 91753 333 10306
20222 91018 555 93118=
72438 32961 82315 10267 20211 39883 40171 56009 91755 333 10267
20194 555 93118=
72440 32966 01809 10300 20211 39721 40166 58002 91754 333 10300
20211 555 93118=
72445 32666 22113 10306 20222 39840 40154 58008 91754 333 10306
20222 555 93118=
72446 32966 81914 10306 20233 39766 40122 58006 91753 333 10306
20239 555 93118=
72450 32966 61918 10328 20189 39654 40116 58005 91756 333 10328
20228 91024 555 93118=
72451 32966 01920 10339 20133 39215 40091 50000 91756 333 10339
20206 91027 555 93118=
72456 32966 02015 10322 20217 39808 40117 58006 91756 333 10322
20250 555 93118=
72458 35966 02116 10328 20189 39581 40094 58005 91755 333 10328
20206 91021 555 93118=
72464 32966 00808 10222 20133 38524 40079 58009 91754 333 10233
20150 555 93118=
72465 12566 69904 10211 20139 38859 40110 58002 69931 91756 555
93118=
72476 32966 02309 10317 20006 38487 40027 58004 91756 333 10322
20200 91018 555 93118=
72486 35966 00314 10189 21028 38085 40100 52012 91753 333 10189
20017 91019 555 93118=
72492 32966 03514 10228 20028 30139 40148 51004 91756 333 10228
20139 91020 555 93118=
72503 32962 60508 10172 20106 30212 40223 58020 91751 333 10172
20117 91016 555 93118=
72508 32566 42107 10206 20111 30144 40215 56024 91751 333 10211
20094 555 93118=
72509 32566 61109 10156 20128 30209 40217 56030 91754 333 10156
20094 555 93118=
72515 32966 09906 10211 20117 39619 40196 58019 91756 333 10211
20111 555 93118=
72518 32966 01812 10217 20083 30089 40194 58028 91751 333 10217
20111 555 93118=
72519 32864 42108 10250 20150 30020 40166 57029 91754 333 10250
20150 91014 555 93118=
72520 32966 62006 10261 20150 39750 40196 58014 8/001 91751 333
10261 20139 555 93118=
72524 32666 62410 10278 20206 39890 40169 57010 91751 333 10289
20189 91019 555 93118=
72528 32966 82513 10233 20150 39899 40158 56016 8/077 91754 333
10244 20172 91025 555 93118=
72530 11566 83310 10200 20183 39921 40162 50010 69951 761// 91756
333 10244 20183 555 93118=
72533 32966 02512 10256 20200 39876 40172 58004 91754 333 10261
20200 91020 555 93118=
72537 32561 82208 10261 20206 39911 40150 57012 91754 333 10261
20189 555 93118=
72546 12661 41106 10228 20200 39783 40123 58003 60031 91754 555
93118=
72547 31058 81012 10180 20180 39766 795// 91806 555 93118=
72552 31556 69904 10228 20189 39454 40103 58016 705// 91756 333
10233 555 93118=
72556 37348 89903 10178 20167 39579 40125 55003 710// 91754 333
10183 20161 555 93118=
72557 12466 80603 10194 20167 39741 40136 55004 60061 91755 555
93118=
72562 11124 81405 10156 20156 39159 40130 58002 69931 710// 91756
333 10161 20139 555 93118=
72564 32466 41711 10161 20117 38095 40086 56004 91756 555 93118=
72565 32566 40606 10217 20128 38296 40069 58012 91753 333 10217
20122 555 93118=
72569 32466 41904 10160 20090 38321 91803 555 93118=
72572 32866 23414 10178 20022 38707 40124 51021 91756 333 10194
20106 555 93118=
72576 35666 21008 10194 20083 38243 40054 58015 91756 333 10194
20106 555 93118=
72578 32966 02419 10133 21061 38659 40173 51017 91756 333 10139
20039 91026 555 93118=
72583 35966 02908 10139 21033 38723 40198 51011 91756 333 10139
21017 555 93118=
72591 32966 03517 10206 21033 30054 40175 58003 91755 333 10206
20133 91020 555 93118=
72597 32966 09905 10122 20011 39765 40247 58005 91756 555 93118=
72606 32966 01814 10156 20100 30194 40211 58022 91751 555 93118=
72617 32966 21919 10222 20083 30037 40162 58029 91754 333 10228
20150 91024 555 93118=
72635 31448 82909 10244 20206 39864 40151 51004 705// 91756 333
10250 20178 555 93118=
72636 31956 00000 10222 20189 39925 40152 51011 705// 91755 555
93118=
72637 11458 80000 10239 20200 39874 40149 58001 69901 705// 91753
333 10239 20189 555 93118=
72638 35566 82504 10206 20161 39747 40160 51004 91755 555 93118=
72640 31108 83205 10140 20140 39934 710// 91802 333 96010 555
93118=
72641 31220 83405 10170 20170 39881 795// 91809 555 93118=
72644 12966 00714 10172 20117 39668 40140 56039 69901 91754 333
10172 20150 555 93118=
72645 32566 21008 10200 20139 39910 40164 58004 91756 333 10206
555 93118=
72651 12966 60715 10183 20094 39639 40150 57006 69981 91756 333
10189 20128 555 93118=
72654 32966 80912 10189 20117 39694 40155 58005 91755 333 10206
20144 555 93118=
72659 32866 80714 10189 20061 39701 40169 58017 91756 333 10189
20122 555 93118=
72662 31240 81313 10120 20110 39046 761// 91805 333 96010 555
93118=
72666 32466 41224 10167 20094 38722 40066 56011 91756 333 10167
20100 91032 555 93118=
72677 32566 83412 10139 20078 38864 40092 55000 91756 333 10156
20100 555 93118=
72681 32766 62708 10128 21006 39203 40212 51009 91756 333 10133
20028 555 93118=
72683 35966 03009 10100 21022 38773 40224 53006 91753 333 10106
91015 555 93118=
72688 11566 82519 10094 20067 39660 40205 53030 60071 761// 91756
333 10094 20072 91028 555 93118=
72693 32566 89903 10122 20072 30133 40272 51010 91756 333 10122
20072 555 93118=
72694 32566 80000 10122 20072 30193 40266 51012 91756 333 10122
20083 555 93118=
72698 32666 82105 10117 20089 30259 40267 51018 91755 333 10117
20094 555 93118=
72712 32966 21714 10211 20089 39909 40137 56039 91754 333 10211
20111 91022 555 93118=
72745 32966 03007 10206 20039 39662 40179 58008 91755 333 10206
555 93118=
72747 35966 02911 10156 20033 39758 40190 50001 91755 333 10172
20083 555 93118=
72753 32966 00309 10172 20050 39856 40189 58002 91753 333 10189
20083 555 93118=
72764 32966 81009 10150 20056 39593 40194 55004 91752 333 10161
20100 555 93118=
72767 32866 60714 10128 20022 39506 40195 58014 91752 333 10133
20083 555 93118=
72768 12666 80421 10067 20044 39347 40171 58015 60041 91756 333
10128 20067 91028 555 93118=
72772 11559 82908 10039 20022 38817 40195 51028 60041 710// 91756
333 10083 20006 555 93118=
72773 12566 63507 10089 20033 39067 40190 51017 69931 91756 333
10094 20067 555 93118=
72776 31224 83613 10010 20010 38890 771// 91807 333 91021 96010
555 93118=
72777 17556 80422 10056 21006 39253 40179 56016 60071 91756 333
10139 20050 91029 555 93118=
72779 35566 43507 10080 20060 39156 91803 555 93118=
72781 12766 82909 10133 20056 39820 40214 51027 69951 91756 333
10133 20094 555 93118=
72785 11266 80512 10078 20050 39355 40203 53021 60011 761// 91756
333 10083 20044 555 93118=
72793 11366 81708 10106 20100 30075 40243 52018 69981 761// 91756
333 10106 20094 555 93118=
72306 32566 40000 10244 20156 30066 40225 58012 91751 333 10244
20133 555 93118=
72315 32966 00111 10250 20144 39459 40215 58006 91754 333 10256
20122 555 93118=
72402 32566 40809 10172 20122 30226 40226 58006 91754 333 10172
555 93118=
72405 32966 60604 10200 20111 30206 40231 58013 91751 555 93118=
72406 32966 09904 10183 20111 30173 40231 58014 91754 333 10189
20117 555 93118=
72423 32966 82209 10283 20178 30021 40195 58014 91756 333 10289
20200 555 93118=
72425 32966 01904 10267 20167 39902 40201 58012 91751 333 10272
20150 555 93118=
72504 32466 22904 10150 20100 30220 40228 58017 91754 333 10150
555 93118=
72507 32566 61508 10178 20133 30203 40225 58022 91751 333 10183
20100 555 93118=
72513 32966 09906 10206 20100 39858 40198 58021 91754 333 10211
20100 555 93118=
72521 32564 62408 10267 20194 39739 40181 58008 8/108 91751 333
10267 20172 555 93118=
72529 32966 41909 10261 20161 39957 40157 58020 8/039 91754 333
10267 20161 555 93118=
72535 12966 03006 10244 20189 39881 40158 53009 69901 91754 333
10261 20189 555 93118=
72536 32966 02514 10267 20200 39907 40154 55003 91752 333 10272
20194 555 93118=
93118=
72544 31308 83213 10190 20190 39956 795// 91811 333 91024 96041
555 93118=
72592 32966 03614 10200 21011 39996 40175 58009 91756 333 10200
20128 555 93118=
72605 35966 01710 10228 20094 30070 40198 58031 91751 555 93118=
72783 12466 81306 10089 20067 39681 40203 53026 60061 91756 333
10089 555 93118=
72784 11574 83108 10106 20102 39936 40204 52032 60031 76166 8757/
333 10130 20090 70122 90960 555 93118=
72791 15566 82205 10117 20094 30252 40259 51016 69931 91756 333
10122 20106 555 93118=
87791 32580 71410 10094 20018 30264 40273 57016 87800 333 56300
82825 85627=
87803 11580 50514 10048 21007 39278 40212 57020 69921 70215 83705
333 56006 83725 83270=
87828 32580 53602 10090 20048 30224 40278 57024 84262 333 56000
57800 84830=
87852 31482 70000 10039 20022 39696 40221 57028 71522 86570 333
56000 82710 85620=
87860 32480 43209 10073 20011 30196 40254 57028 84800 333 56700
82817=
87896 32480 43618 10070 20022 30152 40252 57031 84500 333 56800
84615=
87903 11580 80000 10034 20002 39910 40183 57024 69951 70372 84471
333 56555 84625 90105=
87909 32980 03620 10041 20007 30130 40208 57052=
87925 32980 43616 10050 21003 30158 40182 57028 80001 333 56000
84070=
87938 32680 23603 10042 21048 30097 40168 57025 81405 333 56605
81640=
64600 31660 70000 10288 20230 39424 40068 71392 81963
333 10335 58004 81933 87080 94946 95876=
64601 31560 32002 10255 20201 38976 48492 71311 83300
333 10295 59003 83620 81950 94942 95802=
64610 31660 10000 10300 20232 39563 40060 71311 81903
333 10350 59019 81940 94945 95835=
64650 31660 31202 10288 20242 39661 40067 71300 81963
333 10340 55102 59020 81940 94942 95832=
64655 31660 3//// 10270 20242 39435 40073 71311 81930
333 10315 59004 81940 83365 94947 95837=
64656 31660 4//// 10285 20237 39530 40076 71300 81960
333 10340 59011 81940 84365 94942 95832=
64659 31660 20000 10275 20225 39375 40080 71311 82900
333 10312 58002 82940 94969 95819=
64660 31660 10000 10265 20237 39551 40074 71391 81900
333 10308 58006 81940 94943 95833=
64661 31660 1//// 10260 20223 39417 40071 71791 81900
333 10320 58002 81940 94943 95833=
94151 35/// /2116 10222 30101 40121 57010=
94290 35/// /1522 10200 30130 40137 57002=
96179 32460 70000 10246 20240 30038 40075 57008 82208
333 56000 57803 82817 80840=
96295 32460 50000 10248 20236 30001 40105 56006 83521
333 56000 83615=
91503 01480 23603 10245 20239 40065 5//// 69911 71582 81933
333 56000 69911 81815 81916=
91520 31480 10000 10230 20226 40066 57005 71300 81901
333 56000 81815 81916=
96171 31450 70000 10244 20238 30047 40072 57004 70522 84522
333 56000 84616=
94129 35/// /1109 10217 30090 40113 57006=
94210 35/// /1209 10212 30126 40131 57019=
94289 35/// /1323 10216 30117 40126 57009=
94307 35/// /1310 10182 30135 40175 57009=
94371 35/// /1720 10176 30142 40148 57008=
94379 35/// /1719 10177 30129 40138 57006=
82184 21698 50502 10278 20264 30094 40112 75122 85300 333
59001 69931=
68906 11497 82627 10114 20086 39934 49998 52068 60152 70255 885//
333 10152 20114 69925 91040 555 20154 90999=
64870 11460 70000 10232 20204 38897 48472 69972 71799 84903
333 10/// 59008 84616 81930 87080 94944 95834=
64910 31460 72208 10277 20249 30071 40081 71799 86903
333 10328 58001 86616 81920 86080 94959 95839=
67755 42980 00601 10221 20149 39448 48518 333 10278 59009=
67761 42984 00000 10205 20139 39580 48541 333 10285 58010=
67781 41965 00804 10168 20104 38820 48560 70500 333 10251 58016=
67865 42984 01807 10157 20049 38852 48562 333 10257 58015=
67961 42980 00000 10155 20041 3//// 48/// 333 10260 5////=
23205 12984 21702 10175 20102 40132 53003 69960 82031   333 10234=
23219 32998 00804 10127 20030 40168 54000 333 10188=
23418 11970 61101 10166 20051 40158 57002 69900 70262 86030
333 10206=
27199 32598 20000 10205 20113 40145 57011   333 10277=
27271 32998 21202 10206 20095 40144 56002 80001   333 10287=
27459 32998 41501 10230 20155 40138 53003 80001   333 10292=
27730 32965 31402 10223 20107 40128 53004 80004   333 10289=
22471 11684 70905 10216 20134 40087 58004 69900 71798 84930   333
10299=
22837 11499 72706 10122 20100 40139 52018 69900 70298 879//   333
10272 85623=
22954 31470 72702 10165 20134 40136 51038 79598 87900   333 10294
85915=
23405 11979 70804 10174 20131 40133 57002 60010 70282 87031 333 10242=
23412 32698 61103 10154 20061 40163 57005 82530 333 10183=
23803 32999 31302 10206 20114 40152 57004 80001 333 10273=
27066 32998 00000 10213 20110 40135 53004   333 10292=
27083 32999 01901 10196 20131 40143 54000   333 10293=
27113 11597 72702 10158 20150 40131 51006 60020 70298 83331   333
10291=
27242 32584 30202 10226 20134 40120 53009 83900   333 10315=
27329 31561 60302 10181 20159 40128 52021 79298 86900   333 10301=
27355 32583 62302 10248 20034 40128 58015 85402   333 10281=
27373 32999 21201 10198 20062 40149 53001 80001   333 10271=
27665 32997 41401 10217 20155 40147 53005 70290 80001   333 10273=
27823 32582 31202 10215 20084 40123 54000 81301   333 10281=
28009 32998 00000 10173 20106 40158 54000   333 10266=
28411 32997 01001 10166 20062 40164 53008   333 10240=
28766 12597 20201 10100 20073 40091 53017 69900 82500   333 10202=
28867 32998 00000 10141 20041 40101 54000   333 10195=
28966 115// 63602 10141 20085 40093 53012 69900 70282 83330   333
10166=
29802 125// 73604 10119 20098 40018 52006 69900 85531   333 10176=
35426 32999 13203 10136 20065 40137 53014 80001   333 10235=
35497 12998 00000 10101 20067 40063 52004 60040   333 10155=
35532 32998 03203 10149 20074 40136 52017   333 10223=
35849 12998 00202 10162 20110 40105 53013 60010   333 10266=
38222 32597 62703 10192 20074 40067 54000 86900   333 10265 83169=
38343 12698 32303 10170 20117 40063 52001 60070 83900   333 10247=
22365 31477 61401 10123 20112 40083 58011 70282 86262   333 10247=
22438 31558 82509 10146 20117 40065 56005 78071 889//   333 10141=
22695 32584 63403 10226 20090 40124 54000 83530 333 10313=
22854 31484 82407 10214 20142 40116 53030 71798 889//   333 10290
88913=
22867 31489 51801 10245 20148 40104 53004 71792 83901   333 10309=
22939 11496 82303 10152 20149 40125 52026 69900 71098 883//   333
10266 88917=
22996 32970 21502 10236 20094 40140 54000 80001 333 10298=
27008 11582 72902 10114 20094 40153 52028 60010 70298 82909   333
10226=
27051 32865 52003 10253 20119 40120 53005 85031   333 10292=
27225 11466 82704 10173 20147 40011 52017 60040 70298 883//   333
10294 88918=
27252 32584 51802 10230 20125 40130 53006 82201   333 10292=
27369 32999 21502 10232 20130 40140 53002 82040   333 10284=
27393 32998 00000 10226 20099 40009 53004   333 10266=
27479 32999 21502 10225 20093 40148 53001 80001   333 10256=
27532 32597 21702 10254 20137 40122 53009 82500   333 10300=
27648 32497 21902 10224 20132 40136 53002 82100   333 10287=
27679 32975 31801 10226 20111 40154 53001 83041   333 10276=
28214 32999 01801 10185 20097 40158 57002   333 10255=
28978 11498 80103 10106 20090 40080 52002 69950 78082 889//   333
10116=
35173 11494 83202 10111 20105 40081 52001 69900 76186 8872/   333
10140=
31285 42999 70000 10018 20005 40107 54000 8903/=
31561 42998 80503 10075 20059 40125 57005 80001=
32010 42997 31604 10007 21001 40163 53002 80001=
42123 31995 00502 10332 20203 49969 80600 333 59006=
42542 32996 02310 10324 20225 39454 40006 333 59030=
43157 32596 22701 10246 20223 39442 40070 82500 333 59018=
36821 32998 01501 10177 20098 40078 52010 333 10286=
29756 41684 71102 10141 20103 40020 58003 70398 87500=
29962 41882 72302 10152 20109 40017 58005 70298 82074=
35953 329// 20000 10158 20092 40095 52008 82030   333 10261 91120
91877=
35969 532// 10191 20034 40083 52008 85500   333 10260=
36152 125// 22704 10132 20109 40019 54000 69950 82400   333 10206=
36535 329// 60000 10134 20061 40046 53021 86030   333 10250=
36639 115// 60000 10135 20119 40065 52006 69950 70298 85532   333
10289=
42103 32991 00000 10290 20212 49982 333 58001=
43311 32596 52704 10290 20265 40084 84801 333 59015 83620=
28642 32697 03103 10110 20021 40150 52010   333 10196=
43053 21596 63205 10260 20240 40025 70196 83431 333 59007 6012/=
91165 12566 20511 10244 20200 30125 40177 53012 69901 91753 333
10244 20222 555 93118=
91182 32664 20707 10256 20200 30166 40170 53012 91753 333 10256
20217 555 93118=
91190 12966 09904 10244 20183 30145 40174 51013 69901 91754 333
10244 555 93118=
91212 32966 01105 10272 20239 30005 40103 55005 91754 333 10300
20256 555 93118=
91285 12566 60603 10250 20194 30166 40177 52013 69901 91753 555
93118=
91408 32474 40000 10266 20248 30037 40075 57014 84100 333 561//
555 93118=
91765 32569 80912 10262 20215 30100 40103 52012 8717/ 333 5629 555
93118=
35067 115// 8//// 10119 20107 40095 52008 60020 70382 885//   333
10146=
35217 32997 00201 10182 20102 40148 53006   333 10257=
35302 329// 03201 10224 20128 40158 52013   333 10262=
35376 32998 80000 10113 20097 40068 52007 8805/   333 10172=
91245 32566 20614 10270 20250 30120 91750 555 93118=
83362 87078=
62306 32560 43108 10213 20183 40143 53006
84500  333  10248=
62318 32960 03612 10229 20184 40128 51004
333 10267=
62337 32960 03401 10232 20203 40117 53017
333 10292=
62366 32960 03612 10272 20129 40114 53014
333 10336=
62393 31956 03518 10304 20102 40075 53008
70700  333  10354=
62405 32960 02507 10324 20117 40060 52004
333 10384=
62414 32960 00109 10350 20043 40059 53010
333 10406=
62417 32960 03301 10309 20156 40125 53002
333 10349=
62440 32960 00207 10254 20162 40121 52013
333 10340=
62463 32960 03319 10316 20128 40060 52020
333 10364=
62465 32960 03106 10284 20200 40066 53025
333 10323=
22165 31559 51201 10132 20123 40072 58012 71011 81130   333 10125=
23256 12999 00204 10016 21006 40169 52004 69900   333 10056=
23330 31998 10802 10035 20000 40222 52005 81030   333 10081=
23552 31997 03305 10039 20008 40141 52004 70730   333 10089=
23631 32998 10204 10067 20015 40196 52003 80001   333 10109=
23734 32997 00401 10075 21005 40188 52014 333 10156=
23849 42796 63508 10078 20009 40110 52005 83501=
23933 32997 00204 10081 20002 40160 52007 333 10126=
28275 32999 03605 10102 20013 40124 52013   333 10169=
28493 32999 70101 10117 20068 40061 52024 87050   333 10179=
28698 12984 50000 10112 20100 40052 52009 69900 85030   333 10177
50131=
23426 32980 20000 10031 20021 40212 57003 80001   333 10067=
23625 32998 00701 10110 20027 40194 52010   333 10882=
28076 32597 10102 10078 20019 40140 52011 81500   333 10129=
28367 32999 03502 10121 21012 40131 52005   333 10185=
28382 32997 03604 10093 20036 40099 52017   333 10194=
28481 32598 23605 10118 20027 40092 52020 81501   333 10196=
28573 32980 53304 10132 20058 40087 52015 85030   333 10205=
28593 11980 30000 10089 20082 40053 52012 69900 71211 82031   333
10157=
28598 32698 52902 10115 20092 40059 52012 85500   333 10170=
28786 32599 82901 10138 20084 40055 52009 84552   333 10172=
28797 32597 60501 10130 20097 40048 52007 82352   333 10155=
28799 12598 60000 10112 20080 40030 57008 69970 86900   333 10162
86926=
23929 32998 23603 10113 20011 40162 52004 80001 333 10171=
28383 32984 23402 10095 20043 40091 52016 82030   333 10193=
28465 32998 00104 10119 20015 40121 52012   333 10198=
28586 32998 33104 10125 20078 40062 52016 83030   333 10202=
28588 32984 53601 10125 20041 40076 52019 85050   333 10198=
28688 32575 73603 10135 20051 40065 52006 82331   333 10195=
28696 12999 03603 10093 20070 40053 52005 69900   333 10160=
28791 32982 80802 10126 20090 40046 52012 8807/   333 10178=
29367 42584 51601 10153 20114 49992 52009 82909=
23662 32599 80105 10048 20001 40080 52003 885//   333 10085=
23788 41598 80000 10100 20094 49947 57013 72582 889//=
23986 41572 81802 10106 20102 49970 57012 78082 8631/   333 86921=
38196 32598 12701 10161 20055 40080 52007 81900   333 10233=
38328 329// 01303 10164 20048 40083 53007   333 10265=
38334 32998 01103 10145 20038 40090 52005   333 10243=
38439 32598 03602 10296 20122 40070 53017   333 10306=
38462 42697 60000 10085 20064 38710 48458 53005 70288 85950   333
10202=
60490 32570 10112 10245 20198 40167 55003 81200
333 10298 81820 95900=
60611 32960 50410 10337 20118 40169 53002 83032 333 10351 83360 83073=
60670 32770 60312 10335 20063 39059 48530 53001 85202
333 10357 85850 95900=
43185 32596 20000 10300 20269 30021 40024 82500 333 59005
82620=
43344 31596 62710 10264 20222 39961 40060 71322 83932 333
57972 59039 82620 81925 83360 85075=
86530 22233 00070 20401 318// 40601 80085=
42361 22596 32203 10290 20209 40012 83400 333 58015 6002/
82625 83830=
42559 21596 61802 10262 20200 40/// 70296 83532 333 580//
6992/ 83620 85360=
42667 21596 60210 10250 20212 39475 40054 84330 333 58014
6001/ 83625 81930 83360=
42779 21996 22701 10234 20201 39344 40030 70162 82030 333
59001 6011/ 82360=
42867 22596 70502 10248 20221 40027 83320 333 59016 6004/
83620 81930 86458=
59031 70151=
63799 31580 21810 10257 20207 40143 70100 82100
333 10288 58007 82823=
71472 36/// /3223 10087 30234 40252 50002 333 10087 20083 70000=
64507 32358 8//// 10255 20233 3//// 40/// 885//
333 10305 5//// 84608 88620=
64560 11208 7//// 10213 20207 39547 40085 6///2 71764 875// 905//
333 10295 58010 84705 81913 87620 94945 95835=
64500 32465 82408 10270 20242 30072 40086 885//
333 10292 58006 83610 88630=
64501 32460 32010 10258 20232 30093 40103 83500
333 10283 58005 83611=
64503 12460 8//// 10247 20237 30051 40102 60072 8452/
333 10280 58010 84611 88460=
64550 32460 6//// 10270 20240 39988 40089 84502
333 10305 58012 84610 86073=
64551 32465 5//// 10264 20244 30066 40095 83501 911//
333 10306 58021 83611 85076=
64556 11460 8//// 10213 20208 39504 40073 60112 71796 8492/
333 10/// 58007 83815 81916 88460 94946 95876=
64565 11460 6//// 10227 20217 39445 40080 60082 70192 82532 911//
333 10282 58006 82611 83360 86073=
36307 42999 50901 10159 21014 38812 48409 57002 80002=
36087 42697 50402 10174 20029 40142 57003 85500   333 95050=
36103 42699 20000 10075 20050 40057 52004 82500   333 95090=
42189 21995 00902 10278 20237 49993 70500 333 58000 6990/=
36096 42998 50602 10201 20025 49983 52004 82031   333 95090=
42754 32996 01812 10266 20204 39417 40037 333 59013=
59001 6011/ 82360=
42874 31596 60200 10282 20213 40022 71322 83931 333 58009
82625 81930 83360=
42934 21596 82302 10234 20222 40038 79196 8553/ 333
59015 6034/ 85625 88458=
43041 32596 80000 10256 20207 39445 40051 8351/ 333 58013
84625 88458=
59015 6034/ 85625 88458=
40361 42960 03208 10330 21030 39310 40025 333 10394 58008 55///=
57554 32961 00000 10209 20195 40046 57002 333 10324=
10261 81358=
15420 32970 50000 10155 20118 30024 40131 57003 80006 333
10239 31036 91001 91201=
61990 42470 40901 10224 20200 40196 84800
333 10263 58003=
61995 42475 21003 10200 20184 39714 82200
333 10259 58004=
61988 41465 70913 10220 20205 40192 71581 87800
333 10275 59003=
61986 42575 10917 10250 20208 40169 81200
333 10291 59003=
61972 36/// /1606 10209 20148 30203 40218
333 10261 58020=
71900 46/// /2217 30021  56029=
71800 46/// /2213 30210  55013=
89816 46/// ///// 11265 38312 4//// 5////=
71403 36/// /2212 10084 20075 30235 40247 58018 333 10084 20068
70000=
62600 31965 00207 10340 20080 39859 40062 70600
10395 58024=
62640 31965 03215 10385 20065 39700 40039 70600
10449 58027=
62641 32970 03001 103125 20210 390012 40059
10423 58012=
62650 32970 03608 10340 20060 39792 40048
10430 58014=
62660 32970 03607 10380 20030 39//// 40////
10460 58////=
62680 31910 90217 10390 20110 39652 40026 707//
10452 58016 89////=
62721 31670 71802 10385 20125 39603 40019 71322
819650 10420 56209 57922 58018 81950 87275=
62730 32970 00000 10345 20150 39//// 40////
10416 58////=
62733 31770 32709 10346 20150 39562 40051 70322
83900 10430 56500 57953 58022 81950 82365=
62751 31770 71909 10355 20185 39613 40051 71322
81907 10415 456109 57915 58013 81956 87275=
10410 56200 57921 58019 81950=
62760 31960 00704 10340 20080 39243 40024 70600
10400 58014=
62762 31770 72006 10335 20200 39583 40040 71322 81907
10396 56109 57912 58028 81956 87275=
62770 31968 70503 10354 20014 39188 40036 70622 82047
10395 56039 58002 82365 87275=
62771 32970 71810 10340 20150 39412 40029 80007
109395 56009 58016 87275=
62772 32970 72307 10330 20180 39622 40039 80007
10400 56009 58014 87275=
62781 32970 70000 10350 20160 39443 40050 80007
10410 56009 58007 87275=
62790 32970 70000 10345 20104 39554 40046 80007
10396 56009 58004 87275=
62795 32970 72310 10330 20180 39546 40030 715322 81950
10380 56109 57912 58009 89638 87275=
62801 32970 71803 10300 20190 39638 40064 8007
10353 56009 58011 87275=
62805 31770 472307 10310 20150 39529 40042 71322 81950
10375 5640(9 57943 580329 81950 87275=
41150 42966 09902 10286 20256 40020 333 10350 58009 =
41184 42960 02302 10335 20207 40014 333 10430 58002=
41194 42960 09902 10315 20268 30002 40014 333 10380 58006=
41196 42960 00000 10300 20232 39973 40011 333 10412 58004=
41216 42960 03306 10293 20293 20268 30011 40015 333 10351 58007=
41217 42460 13003 10304 20274 39986 40015 81600 333 10371 58004 81710
=
41246 31558 21901 10313 20261 30008 40013 70500 82500
333 10339 59002 82625 =
41256 31957 02905 10300 20270 30003 40012 70500
333 10345 58000 =
41268 32960 00000 10319 20264 30004 40019 333 10373 58000=
41288 31958 02010 10286 20262 30005 40027 70500 333 10354 58007=
41314 32960 01621 10273 20220 39549 40062 333
10369 58007 =
41316 31559 22306 10294 20254 30023 40048 70500 82500
333 10325 58007 82625 =
44288 32999 00000 10104 20025 38147 40105 54000=
44304 329// 22303 10106 21017 38933 40092 54001 82042=
44285 32999 00000 10062 20014 38300 40136 51004=
44302 329// 40505 10133 20011 39057 40103 51007 83062=
44254 325// 70502 10136 21014 38991 40093 54014 81500=
44257 315// 72707 10165 20038 38933 40096 53018 78082 87300
333 91112=
44338 32999 00000 10117 20000 38438 40098 57001=
98526 32575 80000 10264 20249 40076 57011 82272 333 56999
82820 86359 88275=
98748 31470 10000 10258 20/// 40067 58010 70544 81100 333
56999 81818=
47035 41960 82302 10155 20137 30073 40081 52014 71022 80007=
91371 32474 40805 10278 20253 30031 40034 83231 333 56229
83815=
83650 31498 53107 10265 20238 40140 57005 7012/ 81494 00245 20402=
48620 31564 70000 10250 20243 30072 40081 71022 82546 333 82634
86276=
48665 32564 70000 10259 20237 30061 40071 81552 333 81634 84364
85078=
98851 32472 50000 10254 20238 40061 5/015 82171
333 56999 82818 83358=
76458 32568 12403 10297 20210 30090 40100 57001 81100 91750
333 10315 20255 30/// 56100 59004 81836=
76548 32475 61201 10298 20238 30113 40143 50004 84270 91756
333 10300 20248 31/// 56220 58000 83812 81912 82357=
76556 31565 60301 10272 20217 39087 40078 54000 70440 86800
91730 333 10280 20208 30/// 56200 59003 86825=
76680 31550 60301 10210 20110 37748 40070 57006 70442 84820
91755 333 10215 20141 30/// 56870 57862 58002 81624 83827=
78016 32464 61805 10267 20231 30173 40214 50001 82104 333
10272 20216 70010=
78384 11460 60702 10262 20243 40157 60031 79588 84963 333
10304 20237 58023 70003 82916 83818 85358 90955=
78397 11468 51106 10305 20260 30131 40147 60031 72581 85909
333 06200 10319 20246 58019 83918 90916=
78988 32575 71008 10322 20268 30124 40133 57012 83202 333
58015 83820 87081=
58002 69907 84820 83361=
10022 21028=
71918 460// /0212 11098 39793 40217 51003 333 11098 21132=
61415 31358 33619 10205 20173 30103 40108 70700 83600
333 10265 59010 83707=
61421 31957 00416 10438 20020 39818 40062 707//
333 10450 59023=
61442 31956 03212 10283 20193 30069 40073 70600
333 59019=
61450 31957 00804 10415 21004 39934 40062 7060/
333 10430 59006=
61461 31940 00804 10435 20080 39987 40070 7050/
333 10440 59009=
61489 31950 03216 10400 20151 30072 40079 70700
333 10460 59008=
61492 32958 02204 10440 20096 30053 40072
333 10455 59012=
61498 31958 00000 10442 20053 39913 40039 705//
333 10455 59017=
61499 31950 30000 10427 20036 39806 40048 70500 80001
333 10448 59010 83073=
83497 32970 00210 10286 20231 40099 333 59032=
96633 32560 70405 10262 20248 30058 40066 57015 83471
333 56000 83620 85465=
96935 32960 23003 10244 20220 30074 40080 50000 81031
333 56000 81360=
97014 31559 60000 10230 20224 39978 40071 57010 71322 83911
333 56000 57904 81922 80960 82823 80860=
97372 31459 30903 10236 20191 39966 40095 57016 70511 81231
333 56000 57800 81818=
97230 32460 41103 10264 20219 30083 40090 57004 82231
333 56000 57802 82819=