ZCZC 000
SMCI10 BENJ 291200
AAXX 29121
59316 32565 60402 10262 20236 30094 40103 52011 81142=
57522 31758 80000 10194 20171 40087 52009 71000 885//=
50774 32660 63601 10152 20022 39717 40003 52022 86500=
57127 11970 81802 10186 20140 39504 40091 52006 69901 70080
8807/=
53513 32970 20000 10246 20063 38869 40000 57001 80002 333//
05451=
50442 32970 20000 10140 20032 40034 52016 80002=
50527 32970 70402 10172 21006 39330 40028 52002 80002=
53564 32980 72001 10252 20045 39067 40010 52001 82032 333//
05600=
53868 32965 72003 10234 20099 40048 52005 8703/=
53975 32970 71102 10182 20103 40070 52003 8703/=
51828 32970 73601 10327 20085 38495 49921 57019 80002 333//
05602=
58311 11562 83201 10203 20165 40085 52008 69901 76000 885//=
54337 32970 71806 10251 20111 39949 40029 52011 80002=
57067 32980 82502 10195 20140 39421 40071 57001 8807/=
59855 32575 41402 10288 20260 40065 52005 81102=
59845 11570 70201 10281 20259 40061 52014 60051 72598 87900=
59849 32575 11604 10282 20235 40062 52007 81100=
54181 32570 23603 10216 20112 40017 52015 81102=
54386 32970 00000 10191 20038 40052 52015=
53614 32770 60000 10223 20121 38812 40028 52005 81102 333
05400=
59838 32570 71101 10290 20231 30047 40061 52012 81402=
56096 11780 70000 10234 20129 38860 40038 52011 69901 70060
875// 333// 05403=
58834 11765 72701 10237 20222 40110 52015 69951 70060 875//=
57602 31756 80901 10206 20169 40078 52008 71000 885//=
59948 32573 61103 10296 20257 30061 40069 52010 81102=
57766 32660 80702 10207 20180 40091 52011 885//=
59058 11470 80000 10253 20243 40072 52008 60121 72598 884//=
54094 32660 20000 10183 20057 39737 40015 52023 82500 333
91117 91529=
54662 32964 71807 10199 20106 39960 40075 52005 80002=
56080 11580 71802 10105 20059 37145 52006 69931 70098 8113/
333// 00153=
59644 32570 71102 10288 20260 30047 40062 52008 81903=
57584 11370 80701 10180 20172 40102 52012 60041 70060 887//=
56492 32762 81102 10222 20159 39684 40075 52009 885// 333
05402=
57306 32970 80000 10200 20168 40082 52004 8807/=
56287 31757 80000 10215 20157 40082 52014 71000 8697/ 333
05401=
58549 11762 80903 10210 20194 40101 52004 60031 70060 8657/=
54346 32968 01804 10264 20087 40048 52011=
54157 32763 62007 10259 20047 40012 52013 86500=
59046 11575 81402 10244 20223 40066 52009 60041 78098 889//=
59954 32580 71401 10286 20259 40068 52005 82202=
57866 11759 83602 10218 20207 39886 40087 52017 69901 76000
885//=
57006 32580 70702 10216 20119 40045 52006 8113/ 333// 05607=
53463 32980 62202 10236 20026 38856 40014 57004 82032 333//
05602=
59254 11565 70000 10263 20244 40063 52010 60051 70098 879//=
58457 11720 80000 10196 20178 30052 40102 52001 69931 76060
885//=
58562 11665 81603 10200 20145 40124 52008 69991 78080 8247/=
58633 11320 80403 10203 20197 30007 40104 52012 60021 76066
885//=
58647 11663 80000 10210 20205 40111 52009 60071 72166 885//=
58659 11657 81101 10195 20181 30094 40128 52009 60061 76066
885//=
53480 32980 72701 10197 20064 40018 57007 80002=
56046 11580 73605 10075 21001 36295 52013 69901 70080 82402
333 00352=
52707 32680 11604 10181 21054 37279 57006 81102 333 00102=
54401 32970 61102 10256 20007 39219 40022 52005 80002=
54511 32965 82305 10256 20114 30006 40043 52011 80007=
50756 32970 70201 10189 20016 39738 40016 52015 81032=
50136 32670 13604 10141 20036 39533 40040 52017 81900=
54096 32670 32903 10188 21003 40007 52029 83500 333 91120
91529=
50854 32770 72501 10197 20038 40021 52012 875//=
50968 32680 72702 10190 20045 40027 52033 875//=
50246 32580 63403 10141 20033 40030 52018 85902=
50468 32675 12701 10135 20000 39819 40016 52021 81400=
50888 32780 63605 10179 20020 49996 52035 86500 333 91117
91532=
50557 32970 23603 10160 21001 39748 40031 52028 80002=
59647 32580 70403 10283 20252 40060 52007 81942=
58813 11560 81802 10273 20233 40070 52013 60011 79100 889//=
58527 11660 80000 10231 20207 30011 40084 52006 69901 70060
885//=
58606 11750 80000 10243 20227 30025 40078 52005 69901 71060
885//=
59265 11756 80402 10246 20243 39939 40073 52008 60011 71098
885//=
56964 32580 62002 10260 20194 38643 40029 52008 84262 333//
00001=
54527 32965 72005 10252 20116 40057 52014 80002=
57265 11358 82002 10161 20154 39985 40093 57001 60031 76060
8772/=
57399 11558 80401 10177 20170 40091 52001 60051 76060 8272/=
57461 32965 70901 10199 20143 39933 40090 52003 8704/=
57494 11460 80000 10178 20170 30061 40090 52006 60041 70060
8777/=
91348 32474 81107 10269 20235 30058 40110 50010 83171 333 10311
56129 59005 70112 555 92912=
16270 32560 40108 10262 20173 30071 40121 55007 83100
333 83830=
16360 32497 42511 10252 20140 39994 40122 58002 81109 91145 333
55310 81815 555 0////=
16252 32570 22312 10224 20118 39217 42776 54000 82100 91145 333
55310 82820=
16325 32897 41515 10254 20188 30096 40109 58005 84040 91145 333
84358 98065 555 0323/=
16261 32670 52507 10300 20116 30039 40107 58006 85100 91145 333
55310 85835 95000=
16320 32560 50304 10274 20207 30110 40122 58002 82230 91145 333
55310 82820 84360 555 0100/=
16230 32875 20614 10253 20177 30091 40104 55002 82030
333 82357=
13586 32698 32102 10291 20123 39816 40085 57024 83800 333 83840=
57655 11962 80901 10183 20153 40097 52005 69921 70060 8807/=
52740 16/// /2807 10102 29030 36873 60000
555 1/133 2//00 /////=
58040 32960 70000 10236 20138 30087 40091 57005 8704/=
58144 11966 81402 10235 20126 30069 40091 57007 69901 70060
8807/=
58150 11968 81604 10220 20166 30090 40098 57005 69901 72160
8807/=
57957 11458 81101 10248 20242 39883 40073 52012 60231 79198
889//=
59117 11673 70000 10278 20250 39991 40093 52016 60011 70098
874//=
59211 31580 61403 10291 20237 39829 40028 52008 70090 82462=
59287 31464 71602 10287 20246 30037 40087 52016 70090 87442
=
59431 11578 80000 10256 20245 39914 40058 52004 69941 70080
8796/=
59758 32975 21803 10293 20251 30041 40061 52010 80002=
59023 11570 71801 10266 20237 39803 40042 52001 60071 70098
878//=
59293 11561 81401 10276 20251 30039 40086 52013 69911 70098
8617/=
59417 11576 72501 10286 20261 33902 40049 52009 69941 70098
82242=
59501 32575 60905 10276 20248 30089 40105 52017 84102=
59663 32570 71404 10288 20256 30050 40077 52008 82102=
59981 32580 20902 10291 20257 30068 40074 52012 82202=
59985 32580 20903 10281 20262 30066 40071 52014 81102=
58027 11965 81102 10219 20135 30035 40084 57005 69901 76060
8807/=
45007 12475 31403 10295 20239 30076 40085 51014 69902
81201  333  10326 58004 70001 81817 83080 =
58251 11965 71102 10222 20106 30098 40104 57002 69901 70060
8704/=
57251 11970 81802 10186 20151 40185 52001 69911 70060 8807/=
57279 11458 80000 10162 20150 40100 57004 60091 76066 8277/=
57355 11558 80000 10159 20152 40096 52006 60041 76060 8277/=
57378 11462 83403 10167 20157 40099 52002 69941 76060 8777/=
57385 11558 80000 10168 20158 40085 52004 60031 76060 8657/=
57447 11450 82701 10163 20151 39567 40096 54000 69971 72160
8172/=
57476 11962 80902 10194 20166 40096 52004 69911 70060 8807/=
57545 11960 80000 10180 20165 40092 52008 69901 76060 8807/=
57583 11460 80000 10179 20171 40094 52007 60051 76060 8772/=
57598 31950 82702 10225 20202 40085 52010 71000 8802/=
57662 11857 80000 10196 20156 30054 40095 52005 60031 71060
885//=
57745 32960 80402 10181 20166 39770 40088 52005 8807/=
57845 11760 80401 10201 20190 40070 54000 69921 76060 885//=
57853 31756 80000 10211 20189 40090 52013 71000 885//=
57972 32964 73603 10247 20220 39860 40075 52015 8704/=
58015 11965 80702 10205 20148 40078 57005 69901 72160 8807/=
58215 11956 80903 10204 20168 40087 52003 69901 76060 8807/=
58221 11457 80201 10202 20173 30059 40093 52001 69971 76060
8272/=
58314 11560 82902 10193 20175 30001 40086 52009 60011 76060
885//=
58321 11960 81102 10229 20178 40079 52006 69901 70060 8807/=
58338 11661 80905 10218 20180 40080 52002 69901 72100 885//=
58424 11760 82202 10240 20199 30052 40075 52003 69901 70060
885//=
58437 11/00 92506 10148 20148 38150 52005 69921 74564=
58531 11970 80202 10218 20192 40090 52007 69911 72160 8807/=
59102 11463 80000 10235 20228 40101 52014 60061 76098 885//=
58345 11960 81403 10210 20146 40093 54000 69901 70060 8807/=
58543 11765 80000 10197 20181 40107 52005 60041 70060 885//=
58556 11665 81402 10194 20164 40117 52004 69921 72160 885//=
58569 11468 81404 10177 20162 40127 52003 69971 76060 8677/=
58646 11665 80000 10221 20201 40112 52009 69961 76060 885//=
58660 11458 80401 10193 20177 40133 52004 60041 72166 885//=
58944 31456 80403 10223 20209 40114 52002 71000 885//=
59072 32580 72002 10286 20226 40073 52028 82942=
59087 11560 70000 10274 20257 40081 52015 69911 70080 8744/=
59096 11675 70000 10252 20233 40091 52013 60031 70098 8344/=
59209 11465 71604 10250 20214 40041 54000 69941 70080 879//=
59278 11575 70701 10272 20248 40077 52013 69911 70080 82103=
59456 31580 72002 10296 20237 40070 52012 70090 83402=
59493 32578 71404 10290 20242 40086 52015 81102=
59632 31565 70000 10264 20253 40061 52004 70090 85262=
59658 32470 61404 10287 20259 40070 52010 86100=
59673 32576 71602 10282 20258 40082 52010 86902=
54342 32965 32205 10246 20075 39979 40038 52014 80002 333
91117 91522=
54471 32965 42010 10226 20131 30049 40054 52006 80002=
54497 32965 11402 10167 20118 30078 40092 52010 80002=
53772 32970 72003 10233 20091 39167 40035 52001 83032=
54823 32680 72005 10228 20107 39886 40081 57002 874//=
51468 16/// /0900 11004 29087 36572 60001
555 1/129 2//00 /////=
58265 11975 71603 10206 20121 30108 40120 57002 69901 70060
8707/=
58472 32980 81607 10204 20139 30031 40126 52002 8807/=
58477 32780 81805 10201 20147 30082 40125 52004 885//=
58666 11670 80703 10182 20169 30029 40128 54000 60021 72580
885//=
58725 11770 80902 10235 20219 39849 40100 52012 69961 70060
885//=
58760 11462 83603 10186 20176 40123 52008 60041 76066 885//=
58921 11457 80000 10231 20225 39865 40102 52027 60231 79598
889//=
53543 32980 22003 10210 20031 38462 40024 57003 80002=
57793 31756 82701 10233 20214 40086 52009 71000 885//=
51133 32680 22905 10265 20051 39448 40054 52005 81102 333//
05103=
59317 32562 30401 10261 20242 40102 52013 81402=
59298 32565 71402 10287 20235 40088 52020 82402=
56571 32780 71401 10272 20160 38297 52004 86402 333 05406=
56459 32880 52203 10242 20072 37577 52004 82102 333 05202=
56475 11580 80402 10158 20116 38285 52014 69901 78000 884//
333 05403=
56666 32780 31101 10325 20132 49928 57006 83400 333 05304=
56671 32780 42003 10262 20126 38132 54000 82440 333 05202=
54365 32965 01807 10224 20038 40070 52017=
54236 32962 21812 10256 20084 39910 40006 52011 80002 333
91119 91516=
57993 32978 50202 10283 20240 39937 40079 52018 83042=
56385 31/00 92903 10056 20054 37009 52009 74540 333 05102=
53898 32964 72004 10204 20125 40072 57010 8703/=
54012 32680 72205 10237 20014 38890 49968 52004 82902=
54208 32680 72502 10199 20022 38664 40008 54000 82402=
53192 32580 72005 10230 21002 38773 49990 52003 82902=
50915 32580 72206 10274 21053 39026 49938 52001 82902 333//
91119 91522=
52378 32975 72907 10261 21042 49990 57008 80002 333// 00052=
52267 32980 13207 10265 21056 38964 49984 54000 80002 333//
00053 91117 91529=
53502 32970 22905 10266 21031 40009 52003 81032 333// 05251=
53602 32680 13403 10229 21007 38377 52014 81100=
52576 32980 70404 10220 21049 38421 52008 80002 333// 00254=
52495 11970 72705 10237 21063 38589 40007 57002 69901 70098
80002 333// 05251=
54102 32680 72504 10232 20056 38903 49981 52002 84402=
56386 32965 80000 10232 20152 40073 52008 8804/ 333 05403=
53782 32675 71402 10236 20062 40032 52008 83402=
54135 32780 71604 10279 20101 39774 49976 57002 81402=
54602 32968 82005 10229 20129 40061 52017 80007=
58464 11570 81607 10210 20124 40113 52003 69901 76000 8457/=
58667 11662 83603 10180 20165 40134 52008 60061 76066 885//=
57046 32564 72703 10098 20081 37904 52004 8113/ 333 05403=
57037 32975 61803 10207 20117 40054 57002 84032 333 05705=
57036 32966 70000 10224 20141 39598 40054 57003 8703/=
51628 32780 73602 10279 20086 49972 57011 81932 333 05351=
50949 32965 70404 10212 20059 39858 40016 52002 80002=
54263 32575 42203 10234 20089 40018 52014 81902=
54266 32970 02505 10256 20031 40016 52012=
54273 32970 02204 10241 20093 40011 52014=
54161 32770 31104 10254 20018 39743 40014 52021 83500=
54049 32770 70704 10253 20058 40008 52005 875//=
54292 32975 03402 10251 20095 39799 40001 52022=
54186 32968 13201 10208 20089 40017 52014 80002=
57071 32970 72003 10197 20109 40069 57001 8703/=
54945 32965 72502 10233 20128 40095 57002 8703/=
54259 32970 01804 10241 20046 40039 52015=
54324 32970 62003 10291 20026 40014 52016 80002=
54493 32974 00000 10191 20068 40084 52011=
59134 31958 21103 10234 20216 39957 40117 52012 71000 82040=
56173 11880 72002 10069 20045 36668 52008 60021 72598 879//
333 00052=
56172 11780 70000 10151 20107 37332 57001 69901 70080 83402
333 00151=
56079 32480 70203 10106 20012 36700 52007 879// 333 00002=
56182 11680 72202 10130 20066 37190 52023 69961 78098 879//
333 00051=
54308 32975 31803 10244 20058 40030 52004 80002=
58506 11261 82002 10189 20183 40095 52007 69901 70060 888//=
58715 11762 80000 10256 20249 40080 52008 60241 70096 8357/=
57504 32965 70902 10219 20157 40072 52010 8704/ 333 05402=
58122 11970 81402 10191 20149 40092 52005 69961 76060 8807/=
57193 11560 81601 10159 20143 40084 57006 60011 76060 8752/=
57297 11630 80000 10156 20153 39953 40089 57001 60071 76166
8802/=
58931 31/00 92208 10166 20166 38366 52007 74744=
53231 32970 52506 10199 21033 38397 52005 80002 333// 05352
91119 91527=
53352 32580 62202 10221 21028 49993 57003 86200=
53391 32680 71802 10189 20017 38431 40019 57004 86402 333//
05600=
53276 32980 72005 10215 20047 38751 49994 57006 83032=
53068 32780 72204 10250 21015 38917 49963 57007 83402 333//
05651=
53336 32580 62204 10225 20040 38600 49983 57003 82102 333//
05551=
53149 32570 72205 10233 21008 38660 49969 57009 82902 333//
05600=
53529 32680 72903 10232 20033 38540 40024 52003 81102 333//
05400=
56586 32680 10203 10133 20105 37997 52020 81102 333// 05403=
56684 32580 22202 10237 20129 37831 57002 82100 333// 05304=
56966 32780 62704 10304 20187 49996 52020 86962 333// 00151=
56778 32575 12202 10241 20138 38060 52009 81100 333// 00000=
56651 32680 62705 10195 20095 37595 52009 86400 333// 05101=
56786 32580 22203 10240 20142 38054 52005 82240 333// 05203=
56886 32680 12004 10241 20171 38214 52009 81402 333// 05102=
56954 31580 70000 10273 20194 40041 52014 72900 879// 333//
05101=
56969 11670 80000 10258 20228 40050 52010 69901 78090 884//
333// 00152=
56951 11780 22701 10252 20167 38451 52006 69901 70080 82102
333// 00002=
56533 11/80 72701 10176 20168 38371 57006 69931 78088 879//
333// 00000=
56838 11675 71601 10260 20198 40047 54000 69921 70080 86232
333// 00001=
56946 32680 50000 10270 20195 40028 57001 85400 333// 05100=
56875 32680 21802 10257 20160 38307 52012 82402 333// 05101=
56751 32675 42905 10232 20101 37965 57001 84400 333// 05103=
59007 11580 31402 10240 20185 40032 52006 69921 70080 81132=
56994 11575 51404 10243 20199 40035 52006 69901 70080 82102
333// 05102=
56748 11580 40000 10212 20166 38298 52002 60021 72580 84400
333// 05100=
54534 32960 72003 10261 20139 40045 54000 80002=
58847 11540 82702 10218 20212 30020 40120 52009 69901 76060
885//=
52633 32680 22904 10098 21091 36768 52003 81102 333 00104=
52765 32580 72905 10137 21019 37169 52009 84902 333 00001=
50434 32680 60000 10109 21005 39205 40049 52020 81402=
50632 32980 63603 10135 21044 39194 40038 52013 82032=
50548 32980 30000 10167 20030 40025 52025 80002=
50603 32680 70404 10159 20024 39387 40023 57005 86202=
54857 32960 62004 10204 20135 30007 40095 52002 82032=
53083 32962 72506 10234 21054 49958 57001 80002 333// 05400
91117 91525=
54646 32980 72512 10249 20146 40064 52002 80002=
56065 11680 72901 10052 20018 36655 52018 69941 72580 879//
333 00254=
56125 11680 60000 10090 20016 36558 52011 69901 72580 85902
333 00353=
52713 11680 62905 10133 21094 36934 57002 69901 70080 82102
333 00201=
56067 11580 73202 10074 20030 36554 52015 69921 72998 86902
333 00151 93907=
57799 11762 73601 10264 20247 39991 40072 52009 69981 70060
875//=
55585 31780 10000 10127 20014 36418 57004 70090 81402 333//
00304=
55493 32780 70904 10122 21054 36055 57001 81401 333// 00107=
57405 32970 80000 10205 20171 40085 52012 8807/=
57237 32970 80000 10174 20149 40090 52004 8807/=
57313 32980 71801 10200 20154 40083 52012 8704/ 333 05402=
56193 11662 83602 10186 20157 40079 52013 69911 76060 8172/
333 05253=
57083 32961 71902 10195 20123 39953 40083 57002 82042=
57290 11960 80901 10160 20153 40086 57002 60081 76066 8802/=
58208 11462 80401 10172 20157 40083 52003 60041 76060 887//=
52984 11780 82502 10176 20101 38039 52009 69901 70080 81407
333 00152=
57134 32680 80000 10148 20120 40071 52001 8657/ 333 05504=
53821 32980 71601 10208 20090 40047 52007 8704/ 333 05605=
53923 32980 61802 10174 20094 40071 52010 80002=
52889 32980 70000 10225 20059 38423 40041 52015 82042 333
00101=
52418 32980 22903 10292 21022 38776 49996 57007 80002 333
05304=
53915 32780 70903 10182 20118 38586 40059 52007 875// 333
05606=
52652 11970 21402 10213 20075 38450 40035 57003 69901 70083
80002 333 00151 91119 91532=
52533 11970 03405 10258 21058 38447 40003 52001 69901 70098
333 05103=
51705 11780 83403 10125 20053 37809 52026 60031 79598 889//
333// 00260=
51716 32865 72702 10302 20026 38766 49959 57014 82962 333//
05300=
51811 32865 70000 10274 20067 38656 49974 57013 8196/ 333//
05353=
51709 11809 83212 10216 20080 38648 40043 52024 69901 78083
889// 333// 00257 91119 91534=
51818 32768 73203 10302 20101 49955 57001 878// 333// 05351=
51839 32980 60402 10322 21002 49944 57012 80002 333// 05502=
51931 32970 70000 10301 20159 49950 57017 80002 333// 05500=
53664 32670 72504 10239 20080 40033 52002 82102=
53487 32965 71605 10229 20016 40017 57001 82032=
53863 32962 72005 10221 20090 40043 52007 8703/=
53663 32980 72202 10194 20036 40034 52008 80002=
53673 32980 71102 10253 20064 40020 54000 80002=
53787 32780 72002 10211 20071 40036 57002 875//=
53478 32975 72902 10205 20058 40021 54000 80002=
54776 32962 71808 10151 20144 30036 40092 52005 80002=
57245 11780 80000 10171 20152 39758 40099 52001 69991 70060
8657/ 333 05604=
53588 32975 60906 10098 20054 37756 57002 80002=
54449 32762 71803 10219 20174 40046 52004 875//=
58238 11960 81404 10212 20130 30072 40081 57003 69901 70060
8807/=
54518 32962 72204 10248 20112 40067 52013 80002=
54618 32961 82004 10232 20116 30051 40068 52008 8807/=
54624 32964 72006 10241 20114 40073 52013 83032=
57143 11980 71104 10178 20128 40077 52003 69901 72160 8703/=
51573 32780 72502 10334 20039 39936 49978 57011 82962 333//
05251=
56188 32661 83201 10195 20136 40083 52012 8647/ 333 05351=
56294 32962 70205 10218 20158 39508 40084 52019 8704/ 333
05300=
57411 11880 80000 10197 20170 39731 40090 52015 69901 70060
885//=
51467 32680 70403 10170 20040 38224 52047 86902 333// 00355=
51495 32980 73412 10305 21086 40080 57008 81042 333// 05207=
51656 32768 71101 10274 20150 38976 49990 57012 81402 333//
05251=
51526 32775 73203 10314 21043 49985 57004 85962 333// 05203=
57144 32980 81402 10187 20125 40074 52002 8807/=
53845 32968 70000 10230 20097 38986 40044 52004 80002 333
05704=
58362 32975 81603 10214 20126 30108 40118 57001 8807/=
51642 32770 60000 10300 20080 49965 57020 82402 333// 05300=
51765 32980 70000 10306 20125 39056 49975 57015 80002 333//
05300=
51777 32975 03603 10331 20084 39011 49970 57015 333// 05404=
51855 32980 00000 10321 20058 49948 57008 333// 05506=
52101 32880 73205 10218 21033 38295 52005 81102 333// 05208=
54909 32968 70000 10197 20155 30020 40081 57008 8703/=
58665 11657 83202 10184 20178 40126 52008 60041 72160 885//=
59478 32575 71602 10286 20251 40081 52014 81102=
59271 11568 72002 10247 20238 40077 52010 60041 70098 86462=
59462 32580 71402 10299 20241 40068 52011 81942=
59664 32473 71404 10289 20257 40075 52009 872//=
59754 11478 11404 10291 20250 40061 52010 69901 70080 81902=
50948 32970 70703 10234 21003 40005 52001 8701/=
54374 32962 02201 10239 20050 39663 40046 52018=
54377 32975 02003 10218 20057 40074 52021=
50936 32970 20902 10232 20015 40002 52006 80002=
54311 32980 21803 10236 20050 40027 52010 81032=
54423 32970 21804 10254 20079 39596 40034 52003 80002=
54808 32970 81402 10194 20166 40081 57008 8807/=
54826 32980 71806 10102 20054 38421 57004 8704/=
54725 32665 72505 10224 20118 40075 52007 875//=
54863 32962 01401 10199 20156 40091 57001=
54405 32975 71102 10261 20059 40028 52010 80002=
54429 32975 12001 10273 20116 40036 52003 80002=
54436 32980 72202 10263 20108 40041 52007 80002=
54539 32980 72205 10255 20135 30037 40051 57001 80002=
54836 32668 72703 10222 20102 40087 52002 87500=
54843 32970 72507 10253 20103 30045 40071 52008 8703/=
54751 32965 71406 10238 20103 40075 52002 80002=
54715 32970 71803 10210 20138 40078 57001 8703/=
52754 11580 71603 10074 20009 36814 52004 69961 70098 879//
333 00253=
53646 32978 70902 10230 20077 38867 40022 54000 80002 333
05551=
52681 32980 72703 10236 20011 38565 40020 52010 87042 333
00253=
52323 32980 13208 10223 21129 38173 52006 80002 333 00002
91118 91529=
52895 11980 42202 10227 20047 40029 52007 69901 72500 80002
333 05101=
52447 32980 13205 10275 21062 40006 57001 80002 333 05102=
53929 32965 51403 10171 20120 40076 52005 85030=
52446 11970 63405 10264 21019 49994 57010 69901 70080 80002
333 00102 91122 91532=
53738 32980 72002 10216 20092 40039 52004 80002=
52986 11680 71601 10173 20109 38063 52008 69901 70080 81442
333 00001=
52436 32970 02905 10249 21047 38393 40007 57003 333 05203
91117 91529=
56196 32670 20401 10213 20149 40080 52009 81402 333 05352=
56374 11580 70000 10119 20102 37400 52008 69901 70080 874//
333// 05304=
57516 31730 80202 10196 20170 39779 40081 52010 71000 885//
333 05401=
54929 32980 81602 10229 20108 40093 57003 8807/=
56357 11680 72502 10132 20041 36460 52002 60011 70080 86402
333 00151=
56152 11780 81602 10070 20013 36345 52005 69991 70098 889//
333 00001 93904=
56144 11980 70000 10108 20053 36889 57002 60041 70098 82042
333 00454 93903=
53882 32970 71802 10159 20089 40068 52002 8703/=
53853 32970 71402 10203 20084 40048 52004 85032=
53959 32975 71603 10229 20127 39624 40053 52006 8703/=
57432 11857 80000 10186 20161 40081 52001 69901 71060 885//=
57633 11665 80201 10176 20144 39331 40089 52008 69901 70060
8547/ 333 05300=
57426 11559 80701 10169 20156 40092 52010 69901 71060 885//
333 05300=
57348 11760 80000 10147 20138 40098 57001 69941 76066 885//=
56146 11780 81103 10116 20047 36758 52012 69901 70080 889//
333 00352 91118 91536=
56247 32880 72704 10186 20056 37417 52014 83902 333 00103=
56462 11580 63202 10126 20104 37122 52013 60011 72580 83402
333 00052 91118 91536=
56257 32680 70000 10100 20047 36302 52005 84442 333 00100=
57106 32975 60000 10178 20130 40085 52001 86030 333 05502=
57687 11458 83202 10191 20173 30017 40096 52014 69901 71060
8772/=
59133 32761 70903 10234 20216 40112 52009 875//=
53399 32980 61605 10198 21011 40025 57002 80002=
53798 32960 71804 10218 20111 39967 40056 57009 8703/=
89054 31972 31104 11044 21053 40279 52012 70144 80005
333 11044 21078 73006 83270=
89056 31470 31212 11046 21049 40288 52007 70340 83600
333 11039 21058 40997 55000 72200 83708=
89057 31560 30000 11070 21072 40300 52018 70142 83600
333 11052 21070 43005 55000 73000 83720=
89058 31540 11604 11046 21046 40292 52016 71000 81600=
89059 32550 51107 11042 21049 40291 52015 85600
333 11012 21070 44023 55013 73000 85726=
89251 11962 01106 11052 21062 40270 52010 69902 70070
333 21070=
67341 32970 02906 10282 20100 40146 57029=
78897 11460 70808 10264 20231 40151 51014 60011 72586 85832
333 02366 10307 20248 59004 70040 83818 83650 85076=
48698 31564 70000 10275 20254 30050 40068 70592 81132 333
10327 50530 55073 01353 21923 30682 70001 81824 87080=
60096 32956 00210 10233 20184 40127 51003=
60101 32965 22705 10241 20176 40205 58005 80001
333 82073=
60115 32975 00802 10288 20074 40187 58004=
60135 32960 03208 10236 20183 40199 58005=
60150 32960 03206 10290 20147 39552 40172 58005=
60156 32960 00414 10272 20158 40192 56004=
60230 32660 10806 10312 20138 40157 58010 81200
333 81833=
60060 31420 43205 10192 20171 40168 51004 71044 84600
333 84710 95300=
60105 32960 03410 10240 20187 40201 58002=
60106 32965 00605 10290 20151 40200 58009=
60107 32960 03608 10241 20148 40193 58005
333 95300=
60127 32970 00000 10307 20109 39617 40779 57023=
60141 32960 00206 10276 20122 39530 40167 57008
333 95400 95800=
60195 32570 2//// 10247 20117 38573 48590 58004 82200
333 82833=
60210 32675 21407 10315 20130 39025 48579 58007 82200
333 82830=
60220 32458 10412 10190 20157 40179 50004 81600
333 81710=
60265 32670 22404 10311 20036 38935 48586 58008 82200
333 82840=
60318 32965 01210 10/// 20173 40198 58001=
96315 35460 72503 10278 20225 40083 84963
333 10315 82815 82916 85080=
81405 01250 70000 10241 20238 40123 60164 76064 8587/
333 20226 59018 69927 82703 84643 85361=
33815 42598 79902 10288 20100 39911 40113 57011 86330 555
19055=
78388 32578 21403 10278 20223 40131 82801 333 01000 10323 20249 59011
82822=
61902 11586 31116 10277 20201 40143 69901 70181 83800 333 58003
82827=
91648 31599 20803 10283 20248 40102 58006 70200 82100 333 10323
562//=
91631 11599 20810 10277 20249 40101 60021 70181 82100 333 10314
562//=
91643 11599 40708 10280 20255 40095 58001 60011 70208 83201 333 10310
5
6
2
/
9
83820=
89564 41780 21334 11193 21238 39968 49989 52013 73630 81502
333 11140=
89571 41670 81605 11090 21120 39902 49932 57004 70322 8352/
333 11090=
89573 32975 80917 11079 21107 39910 49933 57004 8802/=
89611 41503 80621 11052 21070 30012 40068 58009 73977 885//
333 11019=
81408 01460 70000 10238 20238 40123 60204 72162 86903
333 20227 59011 60127 83915 84080=
61612  32960 00000 10330 20176 30114 40122
333   0//00 58004=
61666  32960 60000 10310 20198 30118 40128 80002
333   0//00 58013 86073=
61697  32960 30104 10313 20226 30114 40128 80002
333   0//00 59004 83073=
61698   32960 40000 10344 20263 30108 40119 80002
333   0//00 58003 84073
60185 32970 00213 10302 20127 40173 57015=
78397 32572 20105 10276 20245 30116 40132 81803 333 00000
10328 20252 59008 81822=
91570 36/// /1106 10248 20239 30116 40119 50002
333 10300=
91574 36/// /1616 10224 20198 30141 40147 52004
333 10232=
91598 06/// ///// 10160 30104 40136 58005 69961
333 10194 69927=
89642 41/01 91756 11165 21180 39976 40033 53042 73933
333 01693 11134 21171 91084 91193=
91408 32474 60000 10268 20243 30064 40102 52014 81101 333 10317
561/9 59017 70056 555 92912=
17601 32663 12516 10267 20145 40111 57011 81200 333 81845=
91376 32474 80811 10278 20239 30100 40103 50000 83878 333 10296
56229 59004 70157 555 92912=
11816 11580 82906 10143 20093 39984 40143 50007 69931 76162 8327/
333 83825 88457 =
11826 11582 73106 10159 20091 39941 40134 53007 60011 70262 85810
333 81826 85656 87460 =
11903 11675 71001 10166 20091 39742 40107 57009 60031 72166 84870
333 82836 84646 87356 =
11934 11159 82705 10095 20078 39318 42757 51015 60201 76198 8652/
333 82702 86610 88550 91121 =
11968 11570 72905 10181 20140 39838 40106 53013 69911 72998 8693/
333 83930 83845 85360 =
11841 11580 72502 10144 20088 39761 40125 55011 60111 70266 85870
333 83825 87359 =
11858 11589 82905 10172 20089 39986 40132 55005 69971 70266 888//
333 81820 88636 =
11916 11/00 91706 10034 20030 37938 48435 58006 60051 76064
333 89/00 =
11927 11482 82604 10148 20110 39857 40110 50005 60021 72162 8552/
333 81713 85656 88460 =
11930 11/00 92306 11002 21002 37343 47027 58008 60161 77198
333 89/00 91012 =
11993 32774 52504 10227 20138 39884 40087 57002 83230
333 83850 85360 =
11855 11583 83106 10163 20104 39972 40132 53001 60011 70266 8227/
333 82830 88359 =
11867 11683 72603 10153 20111 39824 40130 55012 60051 70262 8557/
333 85636 87459 =
11880 11670 82603 10159 20121 39955 40120 51001 60021 70266 8387/
333 81833 83640 88359 =
11918 11475 81202 10102 20065 39315 42757 58010 60211 72166 885//
333 83716 88633 =
11933 11/03 92602 10066 20062 38602 48455 53006 60161 79196
333 89/00 =
11938 11458 81902 10111 20103 39078 42747 51010 60181 76196 8457/
333 81710 84630 88458 =
11976 11560 83404 10120 20096 39867 40125 52022 60021 79598 889//
333 81720 83940 85640 =
11978 32670 82203 10221 20152 39971 40093 58003 8657/
333 86646 =
12822 11980 83103 10139 20092 39999 40141 55000 69991 70282 8807/=
12843 11588 83602 10155 20103 39952 40117 57008 60041 72196 8487/
333 81826 84656=
12882 11670 81703 10212 20171 39970 40097 58003 69911 72598 8397/
333 83933=
12925 11980 80201 10137 20109 39971 40139 53006 60031 76086 8807/=
12942 11565 80305 10142 20121 39886 40127 50003 60041 70186 8457/
333 84620=
12982 32981 73305 10201 20141 30014 40111 52005 8707/=
11036 11582 73207 10153 20063 39918 40142 50004 69951 78082 8287/
333 81825 83358 85463=
11010 11684 82505 10138 20066 39782 40150 50001 69931 78082 8327/
333 81839 83848 87360=
11120 11475 70704 10129 20093 39467 40153 52006 69971 70386 8683/
333 82817 83830 86656=
11150 11575 82104 10121 20057 39631 40159 52004 69951 72582 8787/
333 81826 83845 85656=
11240 11356 81902 10125 20123 39742 40151 52010 60081 76366 878//
333 82708 83820 86635=
10015 11481 62812 10114 20075 30055 40065 51033 69951 70186 85802
333 553// 85816  91119 91215=
10020 11470 62815 10113 20072 39999 40034 52041 60021 70186 85830
333 55304 2//// 84819 83363 91123 91217=
10055 11475 72210 10109 20084 30031 40041 52027 69911 72582 8587/
333 55300 83815 84630 87359 91119 91213=
10147 11470 82406 10099 20080 30056 40074 51024 60011 78082 85812
333 55300 82815 83625 85650 91117=
10162 11570 72509 10105 20077 39987 40069 51022 69911 78082 873//
333 55300 87922 91117 91211=
10184 32684 72309 10147 20050 30053 40060 53013 8685/
333 55302 83844 84650 91118 91211=
10224 11581 72507 10108 20071 30083 40089 51020 60021 72168 8382/
333 55302 83820 87460 91114 91211=
10270 11781 62404 10145 20055 30032 40086 51006 69901 72511 85330
222// 06161
333 55304 84956 91113 96016=
10338 11680 72507 10139 20051 30017 40088 51013 69971 72582 86832
333 55306 83835 83656 91113 96281 96480 96481=
10361 11682 62507 10121 20049 30005 40107 53010 69901 78011 85330
333 55305 85935 91114=
10384 32783 52207 10153 20029 30034 40092 53008 85200
333 55304 85850 91113=
10393 32782 52509 10168 20031 39974 40097 51006 85200
333 55307 22440 30643 85856 91114=
10438 11580 71705 10127 20062 39838 40113 50004 69901 72582 85963
333 55308 83926 83830 85073 91113 96016 96280 96480=
10469 32684 62508 10156 20027 39947 40107 51001 85202
333 55309 85842 83073 91113=
10488 32788 42507 10156 20008 39837 40110 53004 84202
333 55306 84856 91113=
10548 11684 72404 10103 20047 39592 40126 53007 69991 72582 8533/
333 55303 85933 84360 91119 91211=
10637 11673 73206 10146 20027 30010 40146 53007 69901 78081 8597/
333 55303 81835 83950 85358 91114=
10685 32589 72407 10107 20024 39468 40130 53007 86202
333 553// 86826 83076 91113=
10738 11586 52808 10126 20027 39699 40158 53006 60021 70262 85131
333 55306 85825=
10763 11582 62505 10108 20065 39772 40148 51015 60031 70162 85231
333 55304 22065 85830=
10788 11650 82905 10091 20078 39727 40157 53015 69971 76362 885//
333 55300 88640=
10852 11480 72703 10087 20056 39601 40165 50019 60041 70286 878//
333 55304 82815 87657 91116 96487=
10946 11458 82404 10089 20061 39349 40172 53015 60021 78762 879//
333 55300 81715 82920 85640 96080 96260 96463=
10091 11584 72413 10117 20063 39997 40047 51019 69901 78082 878//
333 55301 21169 31124 84826 87649 91122 91217=
10113 11470 62811 10123 20087 30058 40077 51026 60051 70286 86801
333 55309 85815 91118 91214=
10129 11570 62907 10106 20096 30069 40082 53025 60051 72562 86200
222// 2//01
333 55300 86825 91117 91213=
10131 11468 72709 10124 20088 30051 40065 51024 60081 72586 879//
333 55304 84815 82916  91116 91211=
10170 11570 72406 10111 20077 30040 40054 53022 69921 78086 8521/
333 55300 85832 87456 91116=
10253 11582 73005 10101 20076 30070 40092 53020 69911 78082 863//
333 55302 83825 86931 85648 91116=
10280 32681 52410 10143 20051 39973 40068 51009 85200
333 55307 85847 91120 91214=
10291 32782 62507 10147 20039 30021 40086 53010 86800
333 55303 83850 86657 91116=
10305 11575 72205 10110 20098 30071 40102 51017 60021 71782 84903
333 55302 82823 84925 85076=
10315 11557 72810 10122 20061 30051 40115 53025 69901 78082 85973
333 55302 85920 96287 96281 91114=
10348 11580 72608 10119 20046 30000 40105 52014 60011 70181 82802
333 55307 82830 87075 91115=
10385 32784 52509 10164 20021 30034 40094 53008 85200
333 55306 85850 91116=
10427 11160 72609 10045 20029 39118 48425 52012 60031 72586 85302
333 55305 81802 85808 91118 91211 96487 96481 96460 96458=
10453 11/90 92714 10023 20021 38781 48414 53010 60021 74798
333 55303 91122 91216 96496 96488=
10474 11784 52405 10158 20038 39973 40098 51002 69901 72511 84252
333 55303 21389 84850 91113=
10490 32786 62408 10171 20024 39984 40102 50001 86200
333 553// 22663 86856 91115=
10499 11685 41905 10146 20072 39823 40103 50000 69901 70298 83943
333 55303 83940 96417 96480=
10501 11568 63204 10126 20051 39889 40135 53017 69911 78082 862/1
333 55304 81829 86837=
10513 11580 72508 10138 20062 30010 40129 53010 69901 71582 8794/
333 55305 81820 81930 83835 91114=
10532 11470 72206 10116 20078 39900 40132 52005 60011 72586 86932
333 55307 81816 84936 91115=
10544 11582 72509 10070 20028 39058 48446 50006 69971 72582 872//
333 55304 87820 91114=
10554 11584 62512 10105 20027 39736 40119 53009 69901 72581 84332
333 55304 22035 82830 83940 85073 91116 91212=
10577 32784 72610 10129 20033 39620 40112 52003 878//
333 55304 21844 31140 85850 84658 91116 91211=
10578 32389 72511 10063 21018 38739 48441 53006 8635/
333 55304 21587 31138 86908 83350 91118 91213=
10609 11584 42707 10107 20083 39824 40151 53012 69981 72562 83400
333 82925 83650 91114=
10655 11784 52709 10146 20017 39814 40134 57002 69971 70381 85200
333 55307 85850 91115=
10688 11489 72502 10081 20065 39628 40151 53017 69901 72582 8122/
333 55300 81813 87530 91113 96281 96481 96480=
10708 11684 52307 10128 20040 39777 40154 51005 69901 72562 85800
333 55306 84845=
10729 11685 52406 10165 20026 30030 40148 56001 69971 72586 85200
333 55309 85840=
10776 11462 73001 10076 20069 39724 40169 53020 60041 76382 878//
333 55300 83816 83623 85650=
10803 11585 42802 10132 20087 39824 40178 53009 60041 72586 83962
333 55304 81830 82943 96015 96487 96281 96480 96461=
10836 11489 52807 10084 20051 39296 40158 53009 60051 70198 84230
333 55305 84815 96488=
10929 11583 62803 10142 20066 39642 40161 53012 69901 70262 84871
333 55304 82826 84650 96460=
10961 11/00 93107 11049 21049 37052 47020 53009 60021 77174
333 55300 91119 91211 96049=
10962 11584 72311 10070 20041 39029 48480 52011 60021 72586 8587/
333 55300 83820 83630 91117 91213=
57178 11960 82202 10167 20148 39933 40087 57006 60021
76060 8807/=
16470 32560 12711 10218 20170 39948 40178 58002 81100 91145 333
55310 22333 81825 95000=
16420 32597 30208 10258 20169 30090 40153 50000 82230 91145 333
55310 82826 555 0200/=
16429 32464 42913 10244 20210 30160 40171 58005 84200 91145 333
55310 84812=
16410 32570 30909 10264 20167 30020 40154 50000 83200 91145 333
83820=
16242 32480 22109 10235 20155 30147 40150 51002 82100
333 82815 555 0////=
16158 32565 52517 10234 20172 30130 40137 50001 85800 91145 333
55309 82823 83630=
16310 32597 63419 10248 20181 39940 40152 51001 82250 91145 333
55308 82830 85358 555 0216/=
16362 32560 42608 10232 20169 30139 40156 53002 84200
333 84820=
16460 32660 20711 10246 20183 30130 40150 56005 82100
333 82840 95000=
16560 32580 13311 10296 20137 30154 40160 56007 81100 91145 333
55310 81830=
11101 11575 81605 10104 20071 39654 40172 51015 60031 76266 8657/
333 86627=
11022 13681 82804 10139 20065 39751 40130 56005 69911 8217/ 333 55300
82835 88461=
11028 11570 82504 10127 20082 39813 40149 51006 69931 72162 86577
333 55300 86633 88461=
11130 11570 72101 10112 20070 39577 40156 52007 69981 70182 878//
333 83830 87647=
11146 11/00 92304 11009 21011 36911 47009 52001 69941 74974 333
89/00 92611=
11157 11370 89902 10102 20088 39391 40144 53005 69971 70286 885// 333
82708 83625 87650=
11172 11558 80000 10086 20051 51004 69921 76162 885// 333 88624=
11204 17/// /1106 10167 20132 39317 40067 60011 7404/ 333 55304=
11231 11258 80803 10125 20114 39572 40126 50004 60021 78082 889//
333 82805 84622 87640 81940=
16170 32460 52810 10216 20149 30082 40126 50001 85800
333 83828 84635=
16206 32583 22209 10268 20125 30129 40137 53000 82100 91145 333
82825=
16453 32597 22614 10228 20177 30080 40156 58002 82100 91145 333
55310 82830 98077 555 0315/=
16480 32598 22610 10278 20134 30090 40148 58003 82100 91145 333
55310 82820 555 0316/=
11423 01384 72705 10061 20049 39270 42766 53009 69941 76182 8122/
333 69925 81806 87457=
11464 11587 62707 10135 20012 39151 42747 53004 69901 78011 86231
333 86826 91012=
11487 31683 72706 10128 21005 39521 40129 55000 71511 84372
333 82948 82848 85462=
11518 11489 72207 10105 20059 39700 40133 53005 69921 78081 85942
333 81713 84930=
11603 32782 52404 10150 20027 39643 40107 55003 85201
333 85850 91010=
11659 32581 72906 10128 20058 39510 40134 53006 83208
333 83828 87266=
11782 11580 72406 10150 20094 39824 40129 55002 60051 70262 8421/
333 84822 87458=
54916 32765 81101 10200 20138 40088 57011 885//=
41170 32965 03520 10376 20127 39998 40011 333 58016=
91353 32472 70505 10289 20259 30088 40093 51007 85270 333
10322 5619/ 59006 85818 555   92912=
91425 32474 60404 10278 20248 30087 40088 51007 86200 333
10311 561// 59014 70025 86818 555   92912=
91434 32474 40905 10283 20253 30102 40105 51014 84200 333
10328 562// 59008 79999 84818 555   92912=
57002 70000 81/// 91151=
82915 84822 91009 555 53192=
10400 11480 62605 10093 20057 30078 40127 51018 69971 71782 86900
333 55302 82915 84822 85635 91115=
54753 32970 60902 10250 20128 30064 40070 57002 80002=
17600 32582 12813 10262 20207 30102 40118 57010 81100
333 81820 92438=
17609 32462 12013 10294 20135 30105 40107 57012 81101
333 81710=
33317 42988 01706 10276 20104 39777 40088 58014=
33506 42598 62002 10280 20122 39960 40141 57010 86300=
33587 42597 62001 10287 20102 39881 40124 57009 86100
33631 42697 83206 10249 20109 39957 40091 58006 883//
333 88933=
33658 42797 21406 10285 20131 39799 40074 57023 81130=
33663 42698 21504 10297 20059 30017 40105 57016 81101=
33711 42698 61204 10268 20094 39941 40136 57008 86300=
33791 42697 61207 10291 20092 39986 40127 57016 86200 333 86833=
33910 42598 50506 10243 20159 30115 40132 57012 82104=
33924 42598 60208 10242 20144 30121 40132 57011 86900=
33946 42697 20606 10271 20094 39902 40106 57012 82201=
34519 42660 51204 10265 20074 39886 40141 57010 85200=
34601 42797 31604 10290 20077 40137 57011 83100=
16181 32562 62307 10222 20131 39892 40218 58001 86800 91145 333
55306 81828 85633=
16280 32597 22710 10248 20184 39930 40142 51005 82200 91145 333
55310 82820 555 0317/=
16219 31368 32914 10100 20076 38136 48508 53005 70241 83200 91145
333 55300 83808=
16520 32580 19909 10238 20150 30153 40180 51014 81100=
16539 31496 63111 10214 20192 30065 40176 51007 71011 86200 91145
333 81710 86815 555 0100/=
16522 32498 12812 10202 20165 39948 40186 53007 81100 91145 333
55310 81815 555 0200/=
16550 32998 01203 10254 20142 39976 40148 51003 91145 333 55310
555 0200/=
17022 32670 53305 10192 20164 40118 57010 82231 333
82834 83360 85070 92428=
17038 32665 20509 10196 20176 40132 57009 82100
333 82835 92427=
17050 32570 52502 10276 20121 40109 57019 83231 333
83830 83360 85070=
17060 32960 32108 10205 20169 40114 57014 83030
333 83360=
17096 11570 60112 10174 20090 38217 48475 57013 69911 72991 86300
333 81920 85830 10075=
17124 11550 10160 20130 39245 40131 53001 60021 79522 87900 333 82930 86835=
17128 32670 52307 10240 20110 39039 40089 57017 84230 333 84840 83360=
17170 32670 32505 10200 20130 38327 48494 57003 83100
333 83835 10095=
17195 32670 32003 10236 20064 38954 48494 57013 83100
333 83835 10115=
17200 32670 31404 10280 20134 39150 40079 57015 83100
333 83840=
17219 32565 61710 10291 20141 40109 57011 83250
333 83830 86360=
17240 11575 51306 10192 20142 39013 40115 56007 69961
72991 85300 333 81927 84830=
17244 11560 62006 10210 20110 38968 48491 55011 69911 79511 86900
333 82925 85835 10100=
17280 32670 30404 10312 20065 39315 40058 57015 83100 333 83840=
17350 32660 22212 10300 20189 40101 57018 82100 333 82840=
17026 32670 23401 10218 20126 40132 57005 82100 333
82840 92428=
17034 32970 03604 10198 20160 40116 57012 333 92428=
17070 32565 62702 10252 20141 39263 40094 57014 86200
333 86833=
17084 32670 32707 10259 20095 39228 40094 57022 83200
333 83835=
17090 32665 52505 10214 20077 38705 48489 57011 85200
333 85835 10101=
17098 31565 71408 10168 20073 38200 48495 57012
71711 87900 333 82930 85835 10120=
17150 31560 62002 10282 20142 40098 57021 71722 84950
333 82925 83835 85360=
17160 32670 32204 10238 20084 38998 48498 57020 83100
333 83840 10106=
17184 32670 63405 10290 20171 40096 57020 84230 333
84840 86360=
17190 32570 62210 10236 20115 38998 48490 57012 86900 333
82930 84835 10099=
17210 32675 32203 10299 20092 39090 40055 57010 83100
333 83840=
17234 32670 52806 10296 20160 40104 57012 83230 333
83840 85360=
17260 32970 03507 10300 20111 39312 40082 56002=
17290 32970 31603 10274 20184 40116 57007 83030 333
83360 92428=
17370 32970 02906 10270 20207 40119 58005 333 92428=
17024 32970 02201 10211 20176 40115 56001
333 92418=
17056 32970 61806 10200 20127 40116 57014 80001 333
86070 92418=
17067 31660 42906 10240 20181 40123 57012 70522 82230
333 82840 83360 92427=
17092 32670 41403 10258 20051 38812 48467 57021 84200
333 84838 10050=
17112 32670 50102 10256 20199 40114 57009 82230 333
82835 85360 92418=
17115 32960 20110 10228 20134 40107 57015 82030
333 82360=
17116 32660 30000 10264 20188 40106 57015 83200 333 83835=
17188 32670 62205 10224 20111 39083 40096 58013 86200
333 86837=
17202 32670 33107 10288 20072 39106 40084 57012 83100
333 83835=
17248 32675 12002 10258 20078 38949 48489 57019 81100
333 81840 10089=
17292 32670 51803 10275 20094 39380 40098 57010 83250
333 83840 85360=
17300 11570 40604 10270 20160 40111 53003 69901 70191
84900 333 81925 83830=
17330 32970 01803 10281 20194 40108 58009=
17042 32670 62905 10225 20170 40145 57010 83250 333
83835 86360 92428=
17074 32670 32804 10266 20080 39200 40088 57015 83100
333 83834=
17085 11670 61901 10226 20146 40112 57020 60011 70291
83250 333 83840 86360=
17100 32570 62303 10236 20038 39150 40096 57020 84370
333 81930 83836 86359=
17140 32665 42404 10214 20086 38690 48487 57014 84200
333 84840 10099=
17203 32670 30405 10280 20089 38840 48520 57010 83100
333 83840 10103=
17205 32680 40703 10200 20092 38330 48491 58010 84200 333 84840
92418 10098=
17237 32670 50203 10283 20155 40092 57020 85200 333
85840=
17250 32675 32605 10240 20089 38790 48497 57013 83200
333 83840 10103=
17255 32970 02503 10290 20125 39452 40085 57010=
17270 32970 00406 10333 20097 39460 40058 57015=
17275 32680 32009 10283 20081 38948 48507 57009 83100
333 83840 10071=
17375 32975 00403 10250 20207 40112 54000 333 92428=
12120 32598 72704 10160 20079 30067 40074 51012 85208=
12250 32598 72204 10161 20044 30015 40101 50002 878//=
12330 32670 52405 10173 20041 39993 40097 58006 84101=
12424 32599 71905 10163 20091 39967 40114 57005 8493/=
10035 11465 72708 10117 20074 39988 40045 53029 60021 78186 86801
333 55301 85818 91115=
91324 32474 80407 10270 20260 30088 40090 85190 333 10339 561/9
59022 85818 88075 555 92912
91339 11472 80406 10267 20244 30095 40101 51017 60021 70282 8421/
333 10322 56199 59007 84818 88463 555 92912=
83818 85630=
12205 32570 62208 10161 20044 30073 40081 51009 86300
333 91014 91116=
12465 11560 72503 10146 20078 39891 40117 52003 69901 72162 8327/=
12560 11498 61702 10131 20102 39796 40133 55004 60031 70386 862//=
12695 11460 73008 10157 20147 39773 40102 53001 60021 71798 879//
333 91013 91113=
57012 70000 81/// 91151
555 739// 82592 0/006=
57023 76166 81/// 91148
555 775// 80640 0/007=
12100 32470 42405 10178 20043 30064 40070 51009 84200=
12105 32698 52406 10171 20100 30032 40072 52007 84208
333 91112=
12135 32598 72304 10166 20080 30078 40081 51011 8227/=
12235 32497 82206 10156 20058 39885 40088 51007 86207=
12270 11598 72404 10141 20086 39929 40106 51009 69951 72582 873//=
12300 32575 62405 10173 20046 30005 40091 52004 86900
333 91112=
12360 11698 82303 10145 20055 39977 40107 50001 69911 70382 8223/=
12385 11597 83103 10136 20120 39924 40109 53011 69921 78098 889//=
12400 11788 52405 10157 20025 39875 40102 52002 69901 71582 83960
333 91111=
12435 32570 72203 10147 20076 39950 40117 55000 81238=
12495 11597 82905 10133 20103 39829 40114 51022 69901 78022 889//=
12510 11/93 72011 10015 20013 38315 48436 53003 69931 78584 863//
444 69//7=
12520 32698 72505 10147 20043 39697 40117 56004 8626/=
12570 11/50 82902 10117 20106 39814 40125 50003 60111 76188 8672/=
12575 11456 83202 10107 20098 39886 40137 51011 60141 79582 889//=
12595 11597 73001 10189 20166 39844 40092 53004 60021 71781 879//=
11406 11580 72603 10106 20031 39580 40134 53008 69901 72511 8227/
333 82830 87461=
11457 01475 82404 10068 20026 38857 48464 53005 69901 78086 8637/
333 69905 82810 85916=
11520 01683 72304 10146 20034 39767 40124 55000 69921 72582 84361
333 69925 81943 83850=
11541 32670 72103 10140 20050 39624 40132 58001 83120
333 83840 87458=
11636 01686 52503 10141 20040 39464 42767 55001 69901 72522 82270
333 69905 82836 85360=
11679 32675 72204 10156 20064 39655 40127 54000 878//
333 86836 87650=
11723 11682 72103 10157 20100 39842 40130 50003 69941 72586 85236
333 83833 84850 86270=
11766 11482 72403 10106 20067 39260 42762 52008 60021 70162 85520
333 85610 87457=
11774 01586 82003 10144 20088 39867 40132 51012 60031 78062 8327/
333 69905 83823 88359=
11787 11/01 92706 10060 20056 38636 48459 55001 60071 74764
333 89/00=
12115 32598 73004 10153 20070 30059 40072 52010 85208
333 91114=
12125 32598 52205 10169 20051 30026 40075 52011 85200=
12200 32480 52104 10155 20044 30065 40071 51014 85200
333 91113=
12280 11558 83202 10131 20117 39940 40097 52006 60051 76382 8522/=
12285 16/// /9903 10133 20120 39997 40109 52010 60061=
12345 32570 62404 10150 20068 39971 40111 54000 83232=
12415 11598 72607 10136 20076 39968 40117 53002 69901 78082 879//=
12455 11570 72302 10126 20075 39885 40125 55001 69931 70362 8127/=
12497 32570 73005 10216 20151 39877 40084 57006 878//=
12500 32698 63502 10130 20060 39711 40117 53001 85301
333 91110=
12530 11598 60701 10141 20052 39933 40127 55003 69961 70362 83232=
12550 11360 82501 10111 20093 39776 40128 52001 60051 72122 8562/=
12585 11496 83004 10119 20114 39868 40129 52017 60011 76398 8572/=
12600 11582 82703 10134 20082 39659 40129 55009 60071 70386 8317/=
12650 11/01 82507 10023 20023 37955 48452 58006 60211 78094 882//=
12660 11560 80000 10114 20098 39784 40136 50008 60131 78092 883//
333 91108=
12160 32599 72005 10156 20078 30039 40090 51010 82208=
12210 32598 52104 10165 20027 30010 40076 52008 85200
333 91112=
12230 32775 52505 10168 20028 30003 40090 54000 84202=
12310 32675 42405 10166 20025 30068 40097 52006 84200=
12399 32598 62703 10226 20143 39919 40077 56004 86300=
12418 32698 72503 10163 20047 39996 40106 55003 85260=
12469 11598 82002 10137 20097 39890 40115 58004 60031 72182 8597/=
12488 11596 82803 10133 20131 39967 40118 52013 60071 78182 879//
333 91110=
12540 11597 81905 10148 20106 39881 40125 56007 60031 70186 8521/=
12566 11360 82002 10122 20113 39846 40129 58005 60041 72182 875//=
12625 11458 82101 10079 20068 39146 42764 58004 60211 78098 888//=
12690 11497 83009 10132 20116 39624 40120 53013 69901 71782 889//
333 91014 91114=
26038 42497 82503 10163 20133 30014 40058 53018 889//   333 86913
91112   555 11017=
26045 41697 72105 10231 20145 30056 40060 58001 72998 82231   555
11028=
26058 41598 61704 10263 20157 40064 57015 70298 82482=
26115 41596 82002 10101 20093 30044 40058 52022 71022 8197/   555
12015=
26135 41497 72303 10197 20151 39988 40063 53011 71798 86940   333
86912   555 11026=
26141 41598 62505 10218 20160 40061 52002 71798 86300   333 86320=
26215 41698 82404 10122 20088 30064 40069 52026 78086 8297/   555
11014=
26231 41496 82103 10156 20146 30061 40070 52010 71098 886//   333
88713   555 11019=
26247 41598 72901 10231 20153 39973 40049 57015 71798 87900   555
11026=
58203 11420 80000 10165 20160 30043 40088 57001 60081 76060
8772/=
58102 11760 82002 10180 20163 30036 40085 52003 60021 76060
885//=
58436 11965 81402 10218 20176 40084 52002 69901 70060 8807/=
58236 11960 81403 10219 20147 40080 57001 69901 70060 8807/=
58326 11558 80902 10223 20189 40081 52001 69941 76060 885//=
58319 11958 82701 10225 20197 40075 52006 69901 76060 8807/=
80002 333 00151 91119 91532=
50745 32662 73402 10221 21004 39846 40017 52012 85902=
50953 32765 83202 10219 20003 39856 40025 52014 884//=
57328 11862 80000 10184 20161 39688 40088 52010 69901 70060
885//=
57816 11560 80904 10193 20179 38717 40054 52003 69901 70060
888// 333 05404=
58730 11360 80000 10226 20219 40102 52010 60161 76066 8672/=
58731 11265 80901 10212 20209 40106 52011 60091 76060 885//=
58911 11661 80000 10234 20227 40105 52021 60151 79598 889//=
50353 11970 73401 10141 21003 39807 40018 52021 69901 70080
87032=
50788 32665 23204 10154 20014 39909 49989 52036 82500=
50963 32970 70000 10164 20050 39889 40017 52025 80002=
50978 32980 52705 10199 21033 39732 40004 52028 80002=
56977 11580 71602 10263 20199 40032 52011 69901 79500 879//
333 00001=
57206 11965 60000 10202 20147 40079 52005 69901 70060 86040=
57713 11340 83401 10174 20168 40078 52013 69911 76060 885//
333 05300=
57259 11565 80000 10152 20140 40099 54000 60031 72160 8177/=
57554 11561 80000 10189 20163 40097 52010 69901 72160 885//=
57776 31965 72208 10194 20193 40088 52012 70040 8704/=
58407 11420 83202 10190 20177 40086 52008 60031 76060 8772/=
50727 32680 70702 10153 21039 38882 40029 52011 85502=
54218 32680 72202 10265 20040 39366 49994 52008 81102=
50834 32580 70703 10204 21005 40014 52016 86902=
59082 11572 82501 10277 20249 30000 40074 52016 69901 72598
889//=
50658 32980 42901 10190 20004 40009 52018 80002=
50844 32662 20202 10216 20029 40019 52007 82302=
50983 32970 62903 10179 20029 49983 52023 80002=
47401 32/65 12505 10141 20076 39907 49920 51034 81200 333
10172=
47412 32/75 72602 10219 20066 39940 49969 53028 81202 333
10275=
47420 32/60 12309 10149 20072 39904 49949 53028 81600 333
10224=
47426 12965 03007 10141 20091 39963 40006 52020 69902 333
10161=
47582 32/70 11803 10173 20142 30066 40091 53020 81600 333
10204=
47590 32970 02102 10210 20069 30031 40081 53016 333 10268=
47600 32982 02104 10178 20123 30101 40117 53016 333 10260=
47648 32981 62006 10187 20161 30077 40109 53024 83032 333
10215=
47662 32960 61903 10236 20154 30067 40108 53027 80002 333
10294=
47678 12/70 72202 10202 20160 30021 40114 53017 69902 81172
333 10244=
47740 32970 73003 10171 20107 30079 40116 53012 80002 333
10262=
47778 32970 20404 10211 20130 30021 40107 53021 80001 333
10261=
47807 32/70 23301 10215 20121 30109 40126 53015 81101 333
10266=
47827 32975 43302 10213 20149 30094 40130 53015 80001 333
10261=
47843 32960 12902 10183 20125 30096 40127 53014 81030 333
10247=
47898 32970 23604 10205 20109 30081 40119 53016 80001 333
10253=
47909 11/70 31502 10215 20173 30124 40133 51016 69902 70281
81270 333 10251=
47918 32/80 61902 10279 20253 30105 40113 52010 82202 333
10302=
47936 11/58 81005 10227 20212 30069 40130 51015 60022 71082
8727/ 333 10237=
47945 11/50 80603 10229 20215 30110 40133 52011 69902 70262
886// 333 10265=
47971 32/65 22501 10248 20236 30141 40150 51014 82200 333
10266=
47991 12/70 11105 10267 20220 30152 40162 51008 60072 81200
333 10294=
56763 32680 12003 10315 20132 49963 52005 81100 333 05101=
56768 32980 12002 10246 20128 38169 54000 80002 333 05100=
56959 11770 80000 10259 20206 40035 52013 69901 78090 889//
333 00001=
56986 32180 41403 10220 20207 40041 52010 83402 333 00001=
54026 32680 70705 10279 20061 39663 49960 54000 83902=
54027 32980 72703 10276 21012 39430 49964 52003 80002=
47575 32/65 12104 10204 20081 30033 40037 51020 81040 333
10266=
47585 32/80 12505 10218 20065 30005 40058 51034 81030 333
10254=
47598 32/80 11802 10182 20117 30099 40105 51032 81500 333
10277=
47602 32970 01203 10175 20138 30094 40114 53014 333 10213=
47618 32/80 10401 10164 20068 39425 40121 53027 81100 333
10258=
47624 32/80 13405 10216 20071 39971 40101 51020 81032 333
10278=
47636 32/80 73203 10221 20103 30048 40112 52029 81131 333
10282=
47655 32965 50502 10208 20149 30052 40106 53020 80002 333
10263=
47750 32970 42601 10172 20133 30105 40131 53017 80002 333
10268=
47755 32970 20603 10178 20143 30099 40123 53011 80001 333
10234=
47772 32970 50102 10239 20071 30027 40122 51028 80002 333
10290=
47800 32980 31701 10185 20064 30100 40122 51011 80001 333
10265=
47815 32/70 11802 10207 20113 30107 40122 53016 81101 333
10280=
47817 32965 21902 10199 20143 30088 40129 53016 80002 333
10238=
47830 32965 02803 10202 20164 30107 40124 53015 333 10258=
47837 32/70 72602 10214 20166 30108 40129 53014 8707/ 333
10252=
47891 32975 22002 10225 20122 30105 40116 52019 80002 333
10292=
47899 32970 03008 10200 20146 39905 40120 53016 333 10249=
47927 11/80 51803 10261 20252 30073 40120 51014 60162 70282
82232 333 10282=
57458 11560 83402 10158 20151 40099 52008 60011 76000 885//
333 05351=
52996 32975 73604 10150 21022 37553 52012 81042 333 05108=
52787 11770 73612 10076 20008 37044 52009 69911 78080 879//
333 00154=
53705 32970 40402 10242 20093 40019 52006 80002 333 05405=
56018 11680 72502 10103 21039 36223 57006 69911 70098 81102
333 00007=
56021 32580 33603 10081 21086 36126 52001 82102 333 00206
91121 91525=
53723 32970 72702 10241 20064 38574 40025 54000 80002 333
05504=
52836 11980 11104 10078 20015 36935 54000 69951 70080 80002
333 00454=
56029 11680 72002 10101 20019 36520 57002 69901 70098 83902
333 00104=
56033 11580 23405 10017 21040 36076 52021 69901 70080 82900
333 00354 91117 91532=
52866 11680 71803 10174 20033 37675 52024 69901 70098 879//
333 00251=
44216 32599 60904 10230 20061 38843 49967 56004 84830 333
10250=
44229 11598 72702 10074 20028 37851 40041 53010 69902 71522
84573 333 10111=
44286 32598 53607 10143 20046 38523 49998 52017 85200 333
10198=
44291 11598 30204 10132 20058 38593 40033 53034 60122 70298
82300 82400 333 10248 91123 91215=
44338 32699 62705 10165 20070 38343 49954 57014 84580 333
10197=
44374 32599 53208 10187 21012 38172 49954 53001 83202 333
10202 91216 555 96108=
44385 41692 62716 10191 20015 38756 49962 56001 69902 73583
86200 333 10278 91020 91220=
58754 11540 80000 10209 20203 40127 52009 60031 76066 885//=
50564 32670 30401 10146 21004 40011 52024 82402=
54115 32980 72701 10236 20055 49984 52004 80002=
56444 11570 80000 10097 20082 36817 52005 60021 76060 888//
333 00151=
56691 32580 70408 10170 20145 37727 52013 87902 333 05306=
56739 32578 62002 10209 20166 38309 52002 86900 333 05100=
56985 32580 22004 10251 20192 38640 40025 52008 82202 333
00001=
57902 32576 71404 10236 20197 38553 40022 52012 87402 333
05305=
52602 32680 22903 10180 21088 37275 57006 82900 333 00005=
51886 31780 52903 10193 21120 37109 57004 71400 84902 333
05209=
52818 32680 12202 10170 21020 37255 57006 81102 333 00300=
56004 32680 33407 10062 21101 35882 52001 83100 333 00202=
52955 11580 73604 10107 20001 36995 52022 69901 70080 85902
333 00353=
52908 32580 23205 10036 21097 35823 52001 82900 333 00205
91117 91529=
53593 32980 71604 10226 20042 40035 57003 82032=
53764 32970 81804 10228 20092 40012 57016 8703/=
53698 32970 71604 10214 20123 40047 52002 8703/=
56167 32780 73207 10151 20038 37087 52017 874// 333 00200=
57707 11456 80401 10142 20132 38442 52018 69941 76060 887//
333 05402=
57731 11462 83403 10196 20172 40083 52008 69901 70060 885//=
57832 11767 80202 10171 20163 40081 52005 69901 76000 885//=
57916 32673 70000 10268 20234 40024 52001 878//=
57922 11567 51404 10222 20206 40055 52006 69901 70060 83102=
57932 11478 70000 10234 20216 40054 52002 69911 70060 87500=
81200 22253 0//// 20101 3//// 4//// 5//// 6//// 80257 ICE=
10401 70007
333 91209=
87155 22214 04240 20603 303// 40603 80210=
44210 31597 60000 10202 20027 38397 56010 71522 84020 333
10218=
44217 32698 72303 10124 20065 37848 40101 53005 82843 333
10144=
44263 32998 42705 10149 21007 37997 40038 52012 82074 333
10176=
44266 32699 70903 10149 20038 37730 40001 54000 85884 333
10185=
44317 32998 80507 10218 20015 38777 49936 53006 8807/ 333
10306=
44325 32699 22505 10252 20114 38721 49962 57006 81108 333
10261=
44386 31699 50000 10237 20038 38887 40949 53004 70233 85500
333 10280=
54226 32980 72204 10283 21015 49991 52008 80002=
58926 32670 71103 10263 20219 40100 52019 875//=
82181 22253 04282 20502 309// 40604 80244=
41998 02710 10176 20141 40080 54000 70000 80000
22214 02175 20202 302// 40605 80156=
41598 21608 10300 20246 40082 54000 70200 8223/ 9////
22263 00300 1//// 20200 32215 40502 50301 6//// 80260=
62120 29124 99564 10021 46798 ///// 10315 40073 52019 22200 80070=
62103 29124 99499 70029 46/99 /2610 10115 20090 40179 52008 22200
00118 10703 70016 555 05006 07260 10049 11080 12415 13418 14789
15585 17431 35068 36060 05005 07261 10063 11078 12415 13419 14795
15587 17515 35071 36062=
62301 29123 99523 70045 46/// /2705 1//// 2//// 40164 22200 00139
10502=
51368 52005 53089 70003 71066 72719 73135 74499 75200 76960 77001=
15562 18001 19002 22115 23026 35061 36161 50057 51002 52009 71000
72258 73143 74012 75421 76900 05412 07264 10061 11086 12397 13413
14558 15000 18999 19999 22115 23024 35060 36061 50057 51002 52009
53532 70001 71000 72226 73142 74011 75419 76900 90054=
81100 22213 00160 20202 32700 40404 50000 80185=
70200 831// 22234 00267 20601 317// 40501 5//// 6//// 80233=
55773 11470 71105 10059 20025 36032 52001 69921 72580 874//
333// 00200=
55578 11780 20000 10128 20020 36397 57007 69901 70098 82200
333// 00451=
55664 32880 30708 10105 20014 36029 57008 83200 333 00353=
55299 32880 73402 10098 21089 35892 57002 86402 333 00204=
55279 32880 23401 10099 21088 35764 57004 81402 333 00301=
56106 11680 70404 10099 21033 36251 57002 69901 78000 87900
333// 00104=
55472 31780 71407 10109 21149 35782 57004 71400 87900 333
00202=
55680 11880 21206 10084 20024 36265 52009 69901 72598 82100
333// 00301=
55569 32780 51402 10157 20002 36240 57013 81102 333 00302=
55294 32680 22203 10081 21239 35778 52014 82900 333 00301=
56202 11680 70906 10057 21016 35903 57002 69911 70080 82102
333// 00103=
55655 32680 71804 10100 20044 36488 57003 86902 333 00101=
55572 11780 70000 10110 20016 36276 57004 69901 70080 879//
333// 00302=
55228 32780 62507 10140 21103 36045 57012 86900 333 00151=
55248 32780 62702 10122 21116 35945 57011 86900 333 00101=
55437 32780 62709 10153 21030 36346 57010 85902 333 05204=
51243 11880 72202 10280 20065 39532 40042 57002 69901 70080
86902 333 05101=
51288 32980 62904 10169 21013 38294 52005 81032 333 05106=
51431 32680 70902 10232 20115 39329 40074 52008 85902 333
00354=
52203 32780 60000 10264 20067 39185 40000 57009 81102 333
05100=
51334 32780 73603 10279 20072 40066 52012 86462 333 00100=
51379 32680 73203 10242 20038 40077 52004 81462 333 05203=
51542 11470 72002 10065 20025 37565 52011 60021 78080 86902
333 00258=
52118 32780 20202 10202 21026 38208 52002 81132 333 05204=
53810 32970 73202 10250 20054 40023 52005 80002=
96995 46/// /1406 10255 20239 39808 40101=
96996 41580 71206 10275 20237 30109 40113 53013 70222 81230
333 10292=
48300 31562 30000 10285 20234 39737 40035 70192 81505
333 10350 58002=
10161=
10215=
10261=
10277=
48375 31560 80000 10275 20231 39817 40040 71792 84976
333 10342 59006=
48378 32560 80000 10318 20258 39981 40033 83546
333 10353 59005=
48381 32561 51802 10322 20237 39820 40035 82906
333 10345 58000=
48407 31560 60201 10334 20236 39903 40041 71322 81946
333 10359 59001=
48431 32560 80000 10305 20263 39837 40045 84946
333 10356 58002=
48456 01558 71704 10277 20269 30027 40044 69902 72162 82977
333 10362 59003 69905 79999=
48480 32560 60000 10298 20259 30048 40052 84846
333 10349 59006=
48500 32562 30000 10302 20249 30047 40053 81506
333 10339 59005=
48551 31560 80000 10262 20248 30061 40069 71092 83577
333 10340 59006 70042=
48565 01456 82904 10257 20247 30065 40076 60172 76062 83877
333 10305 59010 60157 70368=
48569 32460 62304 10280 20237 30033 40073 82806
333 10333 59005=
48583 01460 70000 10237 20234 30059 40065 60042 71096 83976
333 10336 59010 60045 70231=
51076 32680 70000 10221 20078 39233 40063 52001 84902 333
05203=
51156 11780 62707 10216 20036 38646 40060 52009 69901 70080
83402 333 05104=
51644 32770 40000 10299 20085 38813 49978 57010 81402 333
05202=
51053 31680 42002 10229 20102 40057 52011 70090 82962 333
05202=
51730 32970 72701 10281 20125 49968 57008 80002 333 05353=
51232 11680 73206 10263 20094 40069 52007 69901 72598 83462
333 00000=
91577 36/// /0504 10225 20204 40127 58002
333 10296 55081 21544 59007=
91579 36/// /1602 10169 20166 40129 58001
333 10280=
91582 36/// /0000 10163 20153 40133 50001
333 10272 55094 21643 59007=
91583 36/// /1702 10214 20200 40131 58002
333 10277 55044 21467 59007=
91587 36/// /2202 10148 20142 30089 40140 50001=
91590 32670 31702 10195 20182 40135 50001 83500
333 10300 55085 2//// 56000 59002 83640=
91592 32665 13202 10221 20202 40134 50001 81500
333 10284 55087 21613 56700 59002 81640=
91753 36/// /1608 10257 20222 40101 58010
333 10296 55035 21474 59002=
91754 36/// /1706 10261 2//// 40117 50000
333 10282 55018 2//// 58009=
71473 36/// /3204 30171 53003 333 70014=
60710 32960 22910 10246 20166 30103 40180 57002 80002
333 50461 82070=
60714 32568 13214 10256 20139 30176 40183 58001 81100
333 50631 81820=
60720 32560 13008 10263 20155 30144 40179 54000 81200
333 50571 81820=
60723 32965 03010 10292 20114 30011 40189 56003
333 50471=
60728 32565 11208 10242 20197 30177 40181 54000 81100
333 50431 81820 92417=
60734 32570 23010 10277 20109 39679 40172 57004 82200
333 50601 82826=
60738 32970 13212 10229 20072 38981 48567 54000 81200
333 50711 82823=
60740 32560 10308 10279 20138 30179 40182 58001 81130
333 50571 81820=
60745 32560 22506 10291 20143 39825 40179 52001 82200
333 50541 82826=
60748 32560 12808 10307 20108 39773 40167 58007 81200
333 50321 81826=
60750 32960 01914 10279 20181 30150 40181 58010
333 50661 =
60764 32565 12408 10310 20163 30158 40207 58008 81200
333 50661 81830=
60770 32560 43006 10315 20146 30046 40178 58008 84200
333 50651 84826=
60780 32962 03304 10313 20118 39906 40196 58007
333 51391=
64387 32675 51604 10256 20145 38505 48499 82230 333 59009 82833
83360 1018.1=
65338 32465 72004 10308 20232 39924 40111 86802
333 59016 82613 85826 94919 95839=
71894 36/// ///// 10083 30203 40212 53003 333 10156 20075 70200=
71906 11259 80104 11012 21029 30200 40248 56004 69901 77172 887//
333 10092 21033 55/// 79999 90966=
71717 11474 80110 10048 20012 30174 40215 53021 60012 72055
887// 333 10082 20039 70047 90983 555 30228 40211=
61990 42470 70705 10250 20211 40152 70282 878//
333 58007 943//=
61995 41468 70603 10223 20187 39674 71521 87800
333 58010 94306=
61988 41465 50716 10255 20207 40155 71511 85800
333 58003 94308=
61986 42580 20716 10274 20224 40132 82800
333 58008 94309=
61974 41475 21304 10278 20218 40111 70181 82803
333 58011 94312=
61818 32475 61406 10288 20226 40108 85202
333 59004 85817 82070=
65306 31960 72010 10300 20228 39760 40083 70192 82036
333 59016 82363 87276=
65319 32960 7//// 10305 20184 39586 40091 8703/
333 59014 87361=
65330 32465 72804 10320 20228 39667 40099 86802
333 59017 82610 85823 94919 95839=
65335 32465 7//// 10315 20232 39872 40095 878//
333 59020 83613 85826 94919 95819=
65344 32465 71410 10307 20235 30102 40112 83232
333 59013 83813 85076 94908 95838=
61972 32570 51810 10267 20151 40182 85200
333 58026 85823 92448=
61968 32575 51606 10290 20210 40130 82201
333 58007 82823 85080 92448=
45011 32475 61611 10281 20250 40092 52012 83232
333 10311 58005=
76122 32962 00000 10138 20004 38534 40046 5//// 91145 333
10364 20136 30/// 59026 70000=
76225 32940 30000 10170 20044 38584 40069 5//// 83030 91145
333   10348 20170 30/// 56050 59021 70000 83358=
76256 32960 00000 10230 20213 30084 40100 52018 91145 333
10356 20222 30/// 59009 70000=
76323 32960 10000 10168 20079 38268 40054 54000 80001 91145
333   10318 20168 30/// 54517 59016 70000 81068=
76342 32940 00000 10236 20176 39435 40114 52004 91131 333
10308 20236 30023 59027 70000=
76382 32870 50000 10224 20171 38874 40063 54000 85070 91145
333   10325 20220 30020 56050 59022 70000 85356=
76390 31756 61801 10160 20133 38224 40083 52004 70544 86030
91140 333   10243 20160 30014 56080 58005 70078 86356=
76402 32950 00000 10158 20151 30059 40119 57003 91145 333
10348 20145 30014 59004 70000=
76405 32940 01804 10226 20121 30082 40102 57002 91150 333
10380 20222 30021 59010 70000=
76412 31960 21401 10238 20196 30102 40142 57005 70544 80005
91140 333   10340 20220 30/// 56005 58012 70000 82067=
76423 21570 70701 10162 20120 38161 40079 57005 87400 91145
333   10320 20160 30014 56000 59005 70001 87620=
76471 01475 70905 10133 20128 37699 40054 5//// 60041 70162
877// 91140 333   10270 20111 31010 55057 565// 59001 70039
87702=
76491 32956 00000 10218 20196 39742 40141 57004 91152 333
10372 20210 30021 58005 70000=
76539 31560 70000 10158 20119 38124 40049 57001 70544 87500
91150 333   10274 20125 30012 56200 58001 70000 87625=
76571 11670 73601 10164 20130 38157 40082 5//// 60022 70225
87700 91130 333   10264 20158 31014 56800 59007 70020 87640
=
76577 12460 30000 10150 20118 38038 40104 55001 69951 83500
91135 333   10266 20143 32012 56100 59004 70248 83618=
76593 32364 51401 10264 20228 30126 40142 5//// 83560 91150
333   10310 20220 30020 5699/ 59005 70172 83620 82330 92011
=
76654 31460 11301 10254 20227 30103 40107 57002 70544 81400
91150 333   10312 20250 30023 56200 59002 70000 81620=
76665 31456 70000 10157 20142 38101 40094 5//// 70222 84520
91155 333   10245 20155 32015 56300 57636 59010 70039 84614
83457=
76683 32950 30000 10112 20098 37813 40094 5//// 83050 91135
333   10270 20110 30009 56080 59002 70154 83360=
76685 31550 20000 10116 20100 37865 40068 54000 70500 82500
91145 333   10243 20114 30006 56900 59001 70002 82624=
76687 32562 70701 10174 20159 38640 40117 55001 85430 91132
333   10255 20165 31015 5657/ 58012 70463 85623=
76698 32660 70000 10231 20227 30080 40095 5//// 87070 91150
333   10292 20225 32022 56020 59008 70360 87358=
76726 01458 80000 10180 20180 38398 40094 52001 60041 74065
886// 91145 333   10261 20167 32016 569// 58005 60041 70043
88602=
76750 32560 83201 10240 20233 30092 40102 52007 885// 91145
333   10320 20231 31023 568// 59010 70038 88620=
76773 12570 50000 10154 20144 38400 40147 5//// 60012 83501
91150 333   10294 20141 32013 56909 59002 70010 83620=
76775 31562 70417 10180 20155 38494 40125 52001 70322 87540
91150 333   10302 20160 31/// 56990 57682 58001 70089 84620
83350=
76843 32565 40000 10222 20208 39519 40157 52008 82509 91140
333   10316 20206 31/// 561// 59002 70096 82633=
76220 32980 00000 10090 20010 38159 40076 5//// 91140 333
10346 20090 30/// 59037 70000=
76393 31862 53401 10226 20206 39539 40102 54001 80034 91155
333   10325 20222 30021 56055 59027 70000 83358=
76499 31957 00000 10219 20194 30105 40135 5//// 70544 91140
333   10355 20218 30020 56001 79999=
76525 32370 71408 10110 20083 37476 40085 5//// 82630 91145
333   10204 20108 30010 56555 59006 70000 82707 85356=
76548 32965 52702 10256 20231 30103 40133 54000 69901 84034
91154 333   10260 20236 32/// 56035 58011 69907 70059 84360
81080=
76556 01560 80000 10206 20199 39078 40067 56004 69911 70255
887// 91135 333   10325 20206 31018 568// 59008 69911 70001
88720=
76640 32030 52801 10232 20226 30117 40147 52004 83530 91140
333   10348 20222 30/// 5699/ 58018 79999 83602=
76644 32560 70702 10236 20229 30122 40132 51010 8703/ 91155
333   10364 20230 31023 5602/ 59003 70114 87330=
76662 32660 80000 10170 20160 38440 40077 54000 884// 91145
333   10270 20156 32014 56/// 59014 70040 88633=
76675 31460 82001 10109 20098 37374 40073 54000 70544 8441/
91150 333   10180 20105 32009 5699/ 59004 70074 84620 84460
=
76741 01440 30000 10238 20230 30070 40090 57011 60396 70564
81205 91150 333   10336 20236 30/// 56909 59005 60398 70394
81814=
76762 21580 41801 10188 20182 38753 40092 54000 84200 91145
333   30/// 56100 58/// 70006 84830=
76805 32665 63401 10252 20227 30104 40104 57002 8623/ 91150
333   10330 20250 30025 59006 70000 81826 85358=
76848 32670 70000 10161 20150 38360 49973 57007 86028 91135
333   10250 20158 31014 56099 59011 70090 86460=
61996 11460 72317 10129 20104 40144 69961 71586 86803
333 58047 84813 91139 92447=
61998 32582 72712 10007 21039 30022 40058 51009 87502
333 58146 87630 83073 93100=
91944 36/// /0310 10261 20232 30101 40107 58012 333 10278 55///
21830=
91945 16/// /3512 10248 20221 30083 40088 58014 69941 333 10280
59038 555 1//19=
65545 32460 40000 10296 20214 39694 40108 84202
333 59011 84813=
65563 32460 61802 10305 20226 39875 40113 86200
333 58000 86813=
65585 42460 3//// 10310 20257 83200
333 83816=
65594 31460 41010 10299 20262 70161 84202
333 84813=
89022 41998 13002 11262 21280 30001 40042 57025 70271 80008
333 11192 21278 81265=
83377 31697 31406 10201 20137 38870 40123 70542 81405 333 20145
59006=
83378
32970 00000 10203 20150 38974 48517 333 20148 59021=
61699  33960 63610 10347 20175 39918 40103 80002
333  0//00 59007 86073=
83766 32997 00000 10100 20074 39510 40180 51013 333 20048=
83767 32997 10502 10145 20046 39536 40175 51015 80001 333 20084=
83768 32970 01503 10110 20060 39514 40184 51025 333 20079=
83783 32997 10000 10110 20060 39464 40157 53010 80002 333 20031=
83811 32997 10902 10070 20023 39281 40192 53001 80001 333 20013=
83813 32997 10000 10024 21017 39046 40173 5//// 80001 333 21020=
83836 32997 11801 10073 20029 39164 40156 51014 80001 333 21011=
83840 31957 00000 10065 20035 39133 40211 53010 71000
333 21020=
83844 32597 12704 10150 20091 30160 40167 52020 81100 333 20096=
83881 31596 81402 10070 20066 39872 40186 51009 71022 887//
333 20056=
83883 32997 00504 10062 20034 39371 40159 54000 333 20034=
83887 32997 00902 10062 20034 39090 40158 52027 333 20025=
83899 32970 03205 10130 20105 30168 40168 51013 333
20090=
83907 32997 00904 10095 20061 39858 40150 54000 333 20070=
83927 32997 30502 10090 20085 30096 40179 52005 80004 333 20066=
83936 31996 20503 10084 20075 30020 40147 51005 71040 80003
333 20044=
83953 31996 10902 10094 20075 39778 40165 53004 71010 80001
333 20///=
83964 32997 31802 10091 20068 39666 40175 52006 80001 333 20072=
83971 32970 00000 10094 20078 30180 40180 51005 333
20054=
83980 31996 20502 10090 20084 39875 40167 50002 71010 82030
333 20049=
83997 31995 22302 10105 20104 30123 40168 51011 71010 80002
333 20073=
83612 32970 20612 10200 20074 39492 40125 51013 82030
333 20160=
83716 32970 01107 10170 20043 39629 40154 52017 333
20118=
83721 32970 01208 10140 20054 39410 40171 53011 333
20076=
83722 31960 00812 10134 20056 39451 40146 51016 70500
333 20100=
83780 31960 01006 10138 20062 39259 40177 51010
70500 333 20100=
83827 32970 01207 10096 20077 39877 40171 51009 333
20038=
83649 31570 72008 10239 20194 40160 51025 82530 333 20235
69904=
83248 32470 53304 10268 20240 40132 82101 333 20222 59010=
83349 32570 33105 10258 20240 40132 81201 333 20218
59007=
83497 32570 71812 10254 20225 40138 85830 333 20230 58014=
82392 32498 32301 10262 20231 30000 40102 83200 333 20224 59007=
82398 32570 40908 10294 20233 40115 82130 333 20254
59013=
82400 21470 51305 10282 20252 40125 7262/ 85130 333 2246/  59008
60284=
82493 32596 309// 10271 20228 30099 40113 81170 333 20224 59010=
82579 32370 70000 10260 20233 40117 85530 333 20236 59003=
82583 32599 60902 10253 20209 39787 40126 86200 333 20187 59005=
82586 32598 60904 10260 20233 39875 40113 86200 333 20216 59008=
82599 42570 61510 10283 20237 40129 84230 333 20230 59008=
82678 32598 53601 10266 20216 39970 40129 81102 333 20188 59006=
82683 32595 51404 10253 20202 39679 40130 85200 333 20190 59006=
82686 32598 52303 10264 20203 39881 40128 85200 333 20193 59009=
82689 32998 00502 10264 20172 39852 40117 333 20184 59008=
82780 32999 00503 10250 20172 39867 40120 333 20195 58018=
82789 32999 00000 10236 20164 39010 40113 333 20170 59008=
82791 32999 01405 10279 20181 39826 40110 333 20216 59009=
82795 32597 20504 10242 20193 39509 40125 82100 333 20198 59008=
82798 32596 40905 10288 20239 30131 40152 84200 333 20226 59005=
82879 32998 51406 10274 20173 39853 40119 333 20186 59009=
82882 32998 00906 10270 20201 39679 40094 333 20216 59015=
82886 32997 10905 10279 20170 39722 40103 333 20204 59017=
82893 32798 11403 10226 20205 39816 40117 81100 333 20163 59010=
82899 32570 41705 10292 20239 40129 84200 333 20235 59011=
82900 32597 61803 10273 20228 30110 40119 86200 333 20216 59012=
82975 32594 60000 10220 20194 39740 40137 82331 333 20156 59009=
82976 32596 20904 10254 20171 39534 40115 82100 333 20122 59008=
82983 32995 00905 10256 20183 39711 40125 333 20208 59013=
82993 32570 23006 10260 20239 40124 82100 333 20208
59013=
82026 22370 73604 10232 20215 40109 87500 333 20280
59014 60094=
82281 32570 50408 10284 20246 40109 85100 333 20256
59005=
82022 21462 70806 10244 20232 40121 71096 85531 333
20234 59011 60314=
82332 42470 60000 10270 20256 40104 82530 333 59023=
82824 31958 20000 10240 20223 40106 71000 80001 333
20222 59016=
82917 31903 30301 10218 20218 40108 74640 83230 333 20205 59017=
86011 32570 60508 10218 20171 40112 51009 83570
333 20182 83633 86457 =
86033 32570 80000 10196 20153 40099 52018 885// 333 20188 =
86065 32870 60505 10164 20097 40126 53020 87070 333 20120 =
86068 32470 80404 10182 20120 40101 52018 8587/ 333 20142 =
86086 32870 60000 10190 20117 40122 52013 86070 333 20134 =
86097 32970 50916 10156 20036 40153 52013 85030 333 20120 =
86134 32870 81408 10150 20071 40136 52008 8807/ 333 20112 =
86192 32870 70905 10134 20077 40102 53009 87070 333 20100 =
86210 32970 02702 10064 20058 40158 52017 333 20030 =
86233 32970 30000 10118 20063 40134 51010 83030 333 20048 =
86234 31865 32004 10106 20069 4//// 5//// 71011 82032 333 20074 =
86248 32970 21404 10096 20080 40159 53005 80001 333 20062 =
86255 32870 80902 10132 20091 40139 54000 8807/ 333 20088 =
86260 32770 81408 10120 20082 40131 54000 8807/ 333 20106 =
86268 32870 61405 10086 20052 4//// 5//// 84031 333 20078 =
86285 32970 10904 10098 20064 40151 53011 80004 333 20056 =
86288 32570 80510 10130 20088 4//// 5//// 885// 333 20098 =
86297 32970 00000 10040 20040 40190 52013 333 20010 =
60285 32956 03006 10263 20162 40170 50007=
89050 11560 30000 11043 21046 40292 52013 69932 71000 81108
333   83699=
89512 42798 81338 11067 21222 39896 40047 52013 8807/=
89592 11501 80938 11077 21077 49888 57043 60132 73873 8802/=
89606 32982 02203 11736 21761 36395 47528 52014 333   11707=
84628 34435 83202 10169 20153 30122 40138 71044 886//
333   20165 565// 58003  88713=
84455 31310 80000 10220 20206 39800 40152 7102/ 8473/
333 20210 5600/ 59010 84712 85360=
84782 31456 80205 10120 20101 39641 40185 71042 885//
333   20094 569// 59011 88620=
84673 31768 00000 10094 20053 37341 702//
333 20024 59023   =
84515 31960 00000 10230 20216 39934 40113 70200
333 20205 59012=
84686 31959 00000 10040 21003 36895 70540
333 20020 59008=
84390 31968 41611 10183 20162 30024 40127 70200 84010
333   20180 56000 58000 84467=
84370 31560 80000 10224 20197 30071 40100 70222 885//
333   20204 560// 59006 88620=
84452 31960 41706 10176 20147 30111 40140 70100 84030
333   20170 56000 58006 84360=
84542 31965 00000 10050 20050 37366 702X
333   20040 58///=
84472 31965 00000 10040 20023 37410 7020/
333   20010 59003=
84401 31960 40000 10190 20159 30099 40169 70120 84030
333   20182 5600/ 58018 84360=
84377 31460 20000 10235 20228 30002 40107 70244 82500
333 20220 560// 59014 82612=
84474 31000 90000 10215 20215 39792 7474/
333 20183 58000=
84691 31957 00000 10138 20114 30110 40117 71044
333   20135 59001=
84425 31320 60000 10230 20230 39938 40157 710// 866//
333 20210 569// 59013 86710=
84501 31962 01003 10160 20143 30106 40147 70202
333 10240 58009=
84534 31430 80000 10205 20198 39390 40116 710// 887//
333 20200 569// 59010 88715=
84531 31357 61303 10152 20137 30115 40127 710// 866//
333   20138 569// 58/// 86707=
84444 31462 59903 10105 20096 37541 7022/ 8341/
333   20100 5600/ 58/// 83617 82460=
84735 31966 00000 11042 21081 36440 702//
333 21070 59008=
84564 31560 50000 10150 20142 38171 703// 855//
333 20134 561// 59013 85625=
84752 31965 00606 10106 21133 37528 70200
333   20068 59005=
84658 31920 00000 10224 20212 39861 40088 710//
333   20210 59025=
76581 01350 80000 10189 20179 39056 40124 52/// 69951 760//
83770 91210 333   10342 20188 31018 56220 58003 69951 70030
83707 85459 90910=
76612 01520 80000 10177 20172 38463 40079 53004 60087 71062
8477/ 91159 333   10276 20177 31016 56229 59007 60087 70112
84627 82458 82358=
40103 32970 03006 10253 20208 40116 58005=
41240 31958 000?0 10335 20288 39990 49993 70500 333 58015=
41244 36/// /0812 10442 21009 39653 40004
333 0E026 58000  =
41246 31959 01008 10341 20283 39993 49998 70500
333 58023 =
41254 32567 12207 10303 21061 38010 48265 81100 333 58010 81820=
41256 32958 00308 10342 20277 39983 49992
333 58024 =
41262 36/// /1806 10442 20015 39788 49970
333 0E027 58000  =
41268 32960 00310 10384 20254 39984 49999 333 58016=
41288 31958 31915 10336 20251 39991 40013 70600 80001 333 58021 83070
=
41304 36/// /1319 10405 20075 39677 49994
333 0E025 59000  =
41312 36/// /2008 10309 20252 39980 40020
333 0E/// 58006  =
41314 32962 42911 10420 21036 39515 40027 80001 333
59004 84075 =
41316 32563 62012 10317 20248 39994 40019 84501
333 58006 84625 83075 =
44231 11598 70901 10135 20050 38621 40029 52005 60022 78198
87300 333 10167=
44373 31599 62710 10153 20038 38383 49948 51039 73232 85540
333 10239=
40155 32960 03315 10260 20187 30099 40109 57009=
40180 32960 03015 10303 20158 30055 40100 57019=
40199 32970 00218 10366 20032 30076 40079 57024=
40250 32970 02505 10320 20100 39326 40074 57018=
40265 32960 02608 10300 20093 39343 40105 58017=
40296 32965 00000 10348 20162 40128 57024=
40310 32960 03206 10305 20051 38932 48498 58009=
40255 32960 03010 10292 20093 39421 40107 57011=
40270 32960 02610 10280 20103 39240 40096 57008=
40272 32960 03406 10300 20138 39294 40092 57011=
40340 31958 03318 10363 20148 40071 57024 70700=
30372 32699 50702 10099 20032 39248 40068 56001 81542   333 10129=
30433 11699 80000 10106 20006 39480 40039 57016 69902 70282 8597/
333 10139=
30554 32698 61001 10153 20017 39007 40011 53003 86401   333 10184=
30635 32999 23301 10110 20056 39506 40043 57004 80001   333 10155=
30673 32999 10502 10153 20015 39321 40031 52007 80001   333 10179=
30758 32999 82303 10174 21009 39263 40015 53001 80004   333 10208=
30802 32799 30504 10168 20011 38594 48393 53005 82401   333 10188=
30823 32999 23106 10200 21017 39425 40004 57002 80002   333 10237=
30879 32999 80000 10138 20061 39321 40027 53008 80003   333 10193=
30935 12699 80805 10127 20059 39154 40026 53006 60042 8247/   333
10157=
30949 32699 80000 10148 20025 39002 40012 53010 8355/   333 10184=
30965 32699 70501 10152 21030 39265 40030 53007 83342   333 10195=
31300 32699 60502 10110 20025 39760 40031 52029 83501   333
10177=
31329 11599 80901 10024 21000 39364 40010 52022 69942 70282 889//
333 10073=
31369 11496 80208 10028 20015 39806 49888 53005 60230 78182 889//
333 10062 88913 91013 91113=
31416 11496 83605 10027 20019 39873 49962 52008 60120 76162 887//
333 10042 91114=
31484 11560 80000 10047 20037 39646 49968 52016 60040 78188 889//
333 10088=
31510 329// 00000 10139 20011 39854 40009 52017   333 10200 91110=
31707 32998 13201 10145 20029 39913 49999 52037 81070   333 10229=
31735 32997 22607 10125 20037 39843 49925 53006 81031 333
11208 91010 91120=
30692 11599 60000 10102 20077 39563 40026 52021 60032 72582 86900
333 10150=
40718 32960 00000 10244 20192 30159 40128 57021 91150 333 =
40732 32665 40303 10246 20174 30136 40116 57011 82430 91145 333
82640 84360=
40754 32960 00000 10310 20134 38761 40046 57019 91155 333=
40766 32960 03007 10319 20056 38639 40041 57015 91150 333=
40811 32960 03004 10420 20042 39986 40012 57018 91150 333=
40841 32660 32705 10366 20000 38189 49954 57020 83400 91150 333
83640=
40848 32960 02612 10368 20002 38455 49969 56017 91150 333=
40856 32660 13607 10366 20067 38565 49963 57019 81100 91150 333
81740=
40875 31958 01906 10388 20170 39973 49985 57019 70500 91150
333=
33990 42574 31102 10229 20187 30043 40126 57009 83200=
33088 41597 62303 10280 20115 39905 40081 57010 70381 86200=
40703 32560 30304 10264 20080 38871 40053 57021 83300 91150 333
81935 82635=
40712 32660 10000 10248 20074 38653 40067 57016 81100 91150 333
81835=
40729 32660 12402 10252 21007 38314 40068 57013 81100 91150 333=
40736 32660 13503 10268 20163 30149 40122 56011 81400 91145 333=
40768 32960 03103 10290 20014 38220 40040 57010 91155 333=
40769 32962 00602 10314 21050 38246 40001 57020 91150 333=
40821 32960 03504 10378 21039 38697 49965 56027 91150 333=
40831 32960 03308 10420 20027 30021 40029 57019 91150 333=
38388 42698 63602 10353 20061 30015 40084 57011 80200 555
18049=
38656 42998 00000 10341 20095 39983 40082 57023 555   10055=
44203 32699 30000 10160 21017 38313 49993 54000 83200 333
10172=
44207 12999 23601 10125 20006 38247 40042 53006 69912 81042
333 10132=
44212 32699 70502 10216 20000 38964 49980 57003 82840 333
10246=
44213 32999 20000 10213 20048 38664 49974 56001 80003 333
10224=
44215 32698 60000 10204 20034 38299 49955 57005 85502 333
10221=
44230 12698 43405 10136 20045 38698 40059 53007 69912 81284
333 10141=
44232 32999 40000 10159 20062 38986 40041 54000 84080 333
10170=
44237 12599 63203 10119 20051 38398 40032 52010 69902 86500
333 10164=
44239 12699 63603 10137 20062 38679 40007 53012 69942 84280
333 10157 91006 91110=
44282 11699 73407 10119 20025 38212 40027 52020 69902 70282
87500 333 10152=
44294 32698 73410 10150 20056 38411 49938 53012 82103 333
10255 91012=
44298 32899 32903 10231 21054 38542 49885 56005 83080 333
10275=
44336 32599 73607 10175 20011 38560 49971 53012 85974 333
10229=
44341 32599 72911 10202 21038 38453 49922 53002 84540 333
10250 91116 91216=
44347 31699 62709 10172 20043 38567 49965 52004 70232 85560
333 10253 91120=
12215 36/// /2705 10162 20025 39918 40090 52005 69911=
48327 32662 80000 10275 20226 39682 40032 83837
333 10348 59001=
48331 11565 60000 10277 20257 39820 40046 60272 70192 83546
333 10346 58007 70271=
48353 01410 80208 10254 20242 39763 40050 60092 79592 8797/
333 10350 59017 60096 70093=
48356 32562 60000 10316 20252 39851 40043 82246
333 10359 58003=
48303 31562 70000 10271 20224 39599 40036 70192 82536
333 10351 58003=
48328 01562 80000 10276 20246 39764 40036 69982 70292 82546
333 10352 58000 69975 70008=
48330 31558 60000 10285 20242 39858 40041 71022 81236
333 10341 58004=
48351 31562 70701 10313 20264 39960 40032 71521 84846
333 10363 59003=
48354 31559 70000 10305 20257 39830 40028 71022 82963
333 10356 58001=
48376 31562 80000 10303 20252 39898 40038 70292 82547
333 10361 59004=
48377 32562 80000 10285 20249 39872 40034 85336
333 10362 59002=
48379 32560 50000 10308 20245 39894 40023 82935
333 10354 59004=
48400 32562 40000 10335 20273 39991 40030 82945
333 10357 59012=
48432 31559 20000 10320 20252 39878 40042 71321 81905
333 10358 58001=
48455 32564 51603 10320 20254 30035 40040 83246
333 10361 59010=
48462 32560 20000 10308 20272 39989 40044 81903
333 10362 59002=
48475 32564 60000 10310 20247 30038 40049 83246
333 10341 59008=
48477 31562 51809 10307 20265 30042 40056 71392 81945
333 10350 59005=
48517 32561 42913 10295 20241 30053 40058 82245
333 10335 59013=
48567 11460 60000 10270 20263 30056 40073 60102 71596 83947
333 10327 59005 70225=
48310 31562 80000 10264 20232 39589 40033 70292 84876
333 10332 58008=
48325 31530 80000 10295 20261 39795 40032 70510 83907
333 10345 59010=
48329 31562 60000 10287 20239 39702 40033 70191 83836
333 10347 58002=
48352 11563 80000 10295 20255 39846 40041 60062 70362 84576
333 10342 58008 70060=
48357 32561 30000 10304 20218 39878 40043 81205
333 10347 59001=
48380 32560 80000 10303 20250 39960 40052 83976
333 10352 59009=
48383 32562 50000 10304 20263 39883 40038 82206
333 10339 58004 70064=
48403 32560 70000 10313 20252 39838 40044 82943
333 10352 58005=
48405 32562 40000 10330 20245 39883 40041 82505
333 10353 58013=
48421 01558 50000 10275 20254 39941 40053 60062 71092 82546
333 10355 59022 60026 70059=
48425 32460 60000 10323 20256 30021 40031 82903
333 10364 59013=
48426 32562 50000 10326 20245 30022 40035 82946
333 10359 59007=
48430 31558 81605 10337 20250 30033 40041 71792 84976
333 10363 59001=
48450 32560 40000 10331 20236 30005 40037 82963
333 10366 59011 79999=
48459 32564 60000 10323 20242 30044 40047 81106
333 10356 59005=
48465 32562 71604 10306 20257 30045 40050 84973
333 10349 58001=
48550 31560 32807 10274 20214 30062 40067 71311 82945
333 10338 59003=
48552 31458 82608 10270 20226 30058 40065 71792 82946
333 10334 59006=
48566 32562 83514 10290 20247 30069 40077 83847
333 10325 59006 70070=
48568 11460 50000 10299 20257 30063 40071 60022 70396 83943
333 10346 59004 70018=
56093 11580 71801 10151 20111 37673 52005 69901 70080 879//
333 00001=
52674 11780 72202 10162 20036 37983 52013 69901 72908 86902
333 00251 91118 91529=
52424 32980 12902 10284 20023 40000 54000 80002 333 05304=
52856 11680 73607 10121 20008 37222 52027 69901 70098 83902
333 00354 91123 91536=
52825 32580 22502 10153 21009 37266 57006 82100 333 00351=
52842 32665 52205 10106 21021 37008 52015 83902 333 00453
91117 91527=
56034 11580 72906 10061 21093 35960 52002 69901 70080 85902
333 00203 91119 91527=
28867 41498 52912 10146 20071 39745 49995 53016 70281 82202   555
11021=
28952 41598 73207 10151 20046 39840 40023 52010 70282 87900   555
1/022=
29802 42597 72003 10214 20109 39829 49959 53001 82231   555 10029=
29807 41597 32306 10200 20135 39876 49984 54000 70182 83300   555
12020=
35229 42698 63109 10218 20032 39823 40073 58002 83360   555 10033=
35394 41597 81602 10162 20126 39385 40011 57015 70298 8694/   333
86925   555 11018=
35416 42697 43406 10244 20064 82168   555 10036=
35426 42499 42805 10229 20051 39818 40085 57005 82361   555 10033=
35497 42599 22002 10227 20105 39290 40012 57011 82900   555 12031=
35532 42598 73409 10225 20048 39625 40074 57003 87100   555 10039=
35671 42598 73010 10252 20061 39646 40034 57009 86931 333 91123
555 10030=
35796 42597 21304 10219 20171 39654 40049 57012 82102 555 10030=
36003 41699 62402 10190 20126 39856 49997 53003 72598 82531   555
11026=
36152 41598 72510 10216 20085 39848 40019 53005 70298 85342   555
11025=
36208 41699 70000 10143 20125 39151 40062 57003 72588 84331   555
12016=
36821 42698 60000 10296 20107 40043 57004 82132=
36859 42599 70105 10261 20055 39339 40044 58005 84965   555 10032=
36870 42697 70901 10249 20109 39118 40036 53001 82906 555 11029=
38196 42698 20903 10273 20021 40043 54000 82500=
38198 42999 03005 10316 20036   555 10051=
38328 42599 72707 10291 21014 40057 53003 82203=
38334 42699 62805 10271 20045 39180 40052 52001 82202   555 10043=
38439 42598 62904 10334 20025 39768 40071 58003 84270   555 10049=
48315 01556 80000 10251 20244 39784 40052 60302 71396 8597/
333 10348 58008 69987 70340=
48413 32562 40000 10328 20257 39953 40032 81206
333 10366 58001=
48416 32562 20000 10326 20263 39895 40039 81205
333 10361 58000=
48418 32960 40000 10320 20264 39978 40034 81963
333 10353 59003=
48460 32562 60000 10304 20249 30023 40054 84576
333 10335 59002=
48461 32562 70000 10302 20251 39981 40049 84576
333 10342 59004=
48478 31559 60000 10315 20259 30045 40050 71021 83246
333 10375 59009=
48501 32560 71802 10299 20255 30052 40060 82306
333 1//// 59005 70002=
48561 01560 80000 10258 20246 30073 40074 60202 70362 8657/
333 10311 59004 60037 70377=
48564 01458 80000 10268 20237 30067 40072 60022 71062 86876
333 10322 59003 60017 70259=
48570 32560 40000 10290 20247 30070 40077 82106
333 10321 59004=
48580 01556 80000 10283 20251 30060 40067 60032 71396 85946
333 10336 59005 60037 70033=
23914 42999 23602 10195 20038 39880 40121 52010 80002=
23921 42599 63405 10207 20082 39984 40095 52023 83501=
23955 11498 80605 10149 20107 39921 49978 52016 60052 70282 889//
333 10155 86918=
28255 41499 80104 10142 20115 39890 40011 52020 70282 883//   333
86710=
28440 41598 53505 10152 20109 39710 40036 52010 70182 82206=
28661 42499 82604 10140 20106 39890 49977 52004 8733/   333 87917=
28722 42698 63406 10176 20055 39986 40109 52011 86200=
28748 41560 83607 10121 20089 39803 40030 52005 72582 87903=
29612 11598 62104 10185 20121 39805 49942 52008 69942 70282 85330
333 10200=
29634 11757 82302 10181 20147 39772 49974 52005 60032 70182 83301
333 10204=
29838 11597 81904 10169 20105 39802 40016 53004 69942 70298 8633/
333 10214=
36061 11596 81904 10139 20119 39679 40059 53020 60032 79598 889//
333 10218=
30385 32599 80000 10109 20025 39541 40037 52004 86400   333 10151=
30469 32699 60000 10135 21050 39318 40019 57003 81442   333 10203=
30650 32999 20000 10173 21014 38999 40008 57003 82041   333 10194=
30781 32999 02602 10115 20034 39598 40037 53009   333 10201=
30844 32999 60000 10133 20056 39123 40026 57007 82036   333 10154=
30925 32699 60902 10166 20048 39115 40003 53005 82431   333 10193=
31371 32699 63601 10147 20041 39775 40020 52018 86500   333 10182=
31388 11699 73603 10075 20017 39769 40019 51018 69942 70282 87500
333 10150=
31478 11584 81701 10031 21010 38930 49970 52020 60050 70286 8272/=
31532 11684 82303 10107 20011 39648 49968 52016 69900 70282 889//
333 10164=
31594 32972 23302 10102 20041 39833 49994 52006 82030   333 10179
91112=
31754 11598 60000 10064 20048 39446 59919 51006 60060 70298 86500
333 10153=
23909 42598 43406 10182 20055 39905 40137 52010 83101=
28116 42697 73406 10179 20059 39916 40134 52010 87900=
28240 41599 70208 10192 20020 39746 52007 70282 86201   333 12022=
28419 42599 73408 10180 20051 39995 40116 52006 84330=
28621 42580 83407 10172 20062 39894 40113 52010 889//   333 88922=
29122 11599 70805 10158 20136 39886 49955 52007 60112 70298 83331
333 10175=
29328 11598 81805 10181 20123 39820 49947 54000 60022 70282 84932
333 10190=
29348 11597 61701 10164 20128 39846 49980 53013 60012 79598 84930
333 10215=
29405 11497 52003 10172 20130 39799 49933 52008 60192 70282 85300
333 10181=
29418 11598 82105 10160 20135 39792 49938 52022 60042 70282 83931
333 10165=
29430 11698 72701 10172 20140 39806 49967 53005 60042 79598 85930
333 10208 85934=
29605 11498 62205 10215 20109 39806 49934 52000 60032 70282 84939
333 10221=
29631 32597 62106 10189 20129 49966 52005 85902
333 10194=
29706 11599 82405 10171 20147 39822 49956 53006 60052 72998 86301
333 10219 91122 91800=
29736 11598 60205 10173 20119 39769 49999 54000 60022 70298 86800
333 10202=
29937 11599 72004 10162 20126 39819 40023 53004 60052 79198 86931
333 93212 10219=
36034 11599 82005 10197 20093 39766 40018 57001 69942 71798 85902
333 10222 83930=
28216 42599 63207 10188 20056 39864 40182 52012 86200=
28321 42584 53405 10196 20059 39919 40109 52012 85500=
28451 41598 83205 10139 20128 39851 40000 52017 72582 875//=
28537 41481 83409 10118 20090 39688 40086 52017 78082 889//=
28541 41584 83602 10112 20090 39577 40043 52011 70282 8327/=
28642 41497 83106 10108 20097 40028 52005 72582 8637/   333 84616=
28655 31558 83205 10106 20094 39796 40006 52005 76165 885//=
28925 42599 50507 10183 20074 39888 40098 52009 84901=
29557 12798 82104 10203 20107 39751 49992 57001 69902 81207   333
10212=
29625 11699 72005 10167 20124 49971 53012 60022 70282 85209
333 10184=
29642 11597 62207 10180 20094 49997 53002 60052 70282 82301   333
10215=
29813 11499 82106 10155 20145 49957 52005 60022 72582 889//
333 10213 88914=
29822 11597 62505 10208 20127 39839 49987 54000 60012 70282 88400
333 10217 86623=
29846 11597 82107 10186 20119 39653 40005 57007 69902 70282 8395/
333 10194=
29915 12699 82507 10212 20085 49986 57003 69942 82532   333 10234=
41859 11350 80905 10242 20230 39996 40036 60173 71796 8692/ 333 10255
56299 58014 70974 85708 86614 81930 88457=
41883 11356 80904 10238 20230 30001 40021 60303 70296 8662/ 333 10294
56699 58003 70338 83709 85616 88458=
41891 11330 80903 10250 20240 40037 69963 72162 8637/ 333 10274 56499
59001 70381 81707 84614 81930 87458=
41907 32357 81310 10272 20230 30009 40027 8572/ 333 10312 56499 58019
70100 83708 83615 88458=
41923 32450 50503 10284 20230 30024 40034 82570 333 10307 56590 58004
70011 82615 84362=
41936 31456 61810 10296 20250 40018 70511 83530 333 10310 56990 58011
70250 82615 86362=
41978 32456 62004 10282 20250 40028 8253/ 333 10313 5699/ 59030 70150
82615 86360=
41992 31950 30000 10290 20260 40037 69963 72162 8632/ 333 10274 56499
59001 70381 81707 84614 81930 87458=
26898 42998 02001 10282 20082 39891 40135 57016=
26997 42980 01501 10279 20092 39933 40135 57015=
27595 42997 00107 10207 20038 30030 40165 54000=
27612 41597 72702 10228 20155 39976 40156 70291 87500=
27703 42697 41304 10275 20088 39921 40148 57009 82101=
27707 42982 01801 10270 20105 39876 40146 57009=
27719 42997 01602 10270 20082 39924 40154 57008=
27786 42997 20307 10223 20025 30013 40162 53002 82030=
27906 42997 01803 10270 20062 39929 40152 57012=
27928 42998 01902 10269 20080 39968 40159 57010=
27947 42997 03002 10272 20093 30019 40166 57007=
27962 42797 63004 10256 20106 40158 57006 83230=
27983 42998 20304 10235 20050 30036 40156 54000 82030=
28711 42698 63409 10171 20038 39783 40137 52009 86100 333 86046 91013
91114=
28807 42697 13509 10217 20038 30104 40152 51005 81100 333 91012
91113=
34009 42568 21902 10276 20070 39848 40128 57012 82100=
34047 42984 09902 10266 20094 39992 40160 57011=
34123 42582 23602 10282 20085 39987 40156 57009 82100=
34152 42999 09901 10263 20099 39979 40161 57008=
34172 42770 23405 10264 20097 39979 40158 57005 82100=
34186 42998 30407 10253 20074 30021 40149 57001 80009=
34247 42577 20104 10291 20105 30048 40152 57012 82100=
34336 42698 50602 10306 20109 30055 40149 57004=
34391 32997 03604 10286 20061 30109 40137 57006=
35121 42698 63209 10215 20006 39959 40095 53006 86200   333 91014
91116=
22113 42484 71808 10167 20041 30038 40097 57007 82101   333 91012
91113=
22217 42998 61706 10090 20064 30085 40115 57014 80002   333 91009=
22235 42683 71503 10154 20068 39944 40130 57008 81131   333 91005=
22349 42699 70609 10109 20050 30148 40159 57013 86530   333 91010
91112=
22408 42699 51103 10196 20041 39956 40097 57013 82201=
22602 42998 71305 10184 20019 39889 40102 57003 8707/=
22721 42699 71701 10167 20105 30035 40131 57009 80001=
22802 41558 71004 10147 20130 30077 40099 57023 78098 84931   333
91114=
22820 42599 50703 10166 20112 39992 40124 57008 82201=
26059 42697 31904 10279 20159 30034 40056 57015 82201=
26063 42497 21804 10289 20148 30064 40071 57015 82200=
26094 41582 21804 10278 20168 30035 40104 57010 72991 81301=
26258 41673 41804 10302 20151 30006 40056 57013 70390 83201   333
91112=
26298 41598 71402 10249 20155 39910 40122 57001 71798 87900=
26477 42670 71806 10290 20121 39975 40092 57007 83201=
26585 42698 32004 10284 20109 39871 40120 57009 83200=
26781 42697 52004 10274 20127 39857 40126 57010 85200=
27402 41697 61403 10244 20179 39975 40143 58003 70282 82930=
22028 42983 61908 10137 20055 30077 40112 57002 80004   333 91009
91111=
22106 42998 71703 10172 20062 30016 40090 58010 82036   333 91005=
22127 42599 51206 10160 20059 39928 40120 57005 82101   333 91009
91112=
22324 42699 51104 10121 20074 30085 40132 58008 81531   333 91007
91110=
22621 42698 71504 10198 20104 39990 40121 57009 82502=
22831 42698 32203 10257 20103 30077 40133 58011 81101=
22892 41597 60803 10195 20160 30053 40068 57010 70298 86330=
26275 42598 51404 10294 20133 30063 40091 57007 85200=
26389 42670 71803 10272 20129 39863 40104 57006 85202=
26695 42597 32004 10180 20105 39858 40141 57007 83100=
26882 42670 21706 10176 20078 39879 40132 57014 82100=
38880 42699 33402 10333 20119 39752 40097 57011 83100 555
10053=
38392 42898 23406 10342 20092 39997 40090 57009 82200 555
10052=
38545 42998 50302 10345 20160 39914 40071 57014 85050 555
10054=
38687 42797 22902 10344 20081 39857 40069 57009 82100 555
10050=
38974 42998 00503 10351 20059 39760 40058 57019 555   10055=
38806 42697 23602 10349 21014 39825 40060 57004 82100 555
10051=
38915 42998 02705 10365 21002 39753 40043 57010 555   10047=
38750 42997 02905 10246 20161 30158 40131 57017 555   10050=
38507 42998 02103 10237 20159 30017 40113 57010 555   10039=
38895 42997 02902 10363 20156 3//// 4//// 5//// 555   10055=
38987 42996 00105 10339 20025 39371 40041 57020 555   10039=
38774 42598 12901 10334 20113 39920 40096 57008 81200 555
10054=
38886 42993 00302 10343 20299 39867 40072 57025 555   10054=
38911 42698 13006 10359 21036 39782 40046 57011 81100 555
10046=
38799 42597 40000 10383 20151 39849 40054 57016 84200 555
10058=
38763 42998 02702 10328 20181 39993 40088 57020 555   10050=
38647 42997 02602 10332 20127 30054 40093 57020 555   10056=
21432 32998 01408 11036 21058 30237 40247 57003 333 11021=
21647 11371 71008 11053 21063 30228 40257 5{000 69902 71282
87600 333 11034 86707=
21824 32970 50904 10028 21002 30115 40124 57007 80001 333
10028=
21908 11599 83603 10005 21021 30055 40134 57003 69982 70272 8672/
333 10005=
21921 32999 30104 10074 20016 40097 52005 83030 333 10088=
21946 32398 81007 11033 21057 30164 40242 53003 886// 333
10005 88706=
25123 32998 00802 11017 21051 30153 40190 58004 333 10043=
25551 42698 20902 10005 21053 30134 40164 52007 81530=
25563 41460 71804 11018 21024 30080 40157 58003 74022 85902=
25594 41383 81802 11006 21015 30177 40199 51006 70282 886//   333
91105=
31054 32999 80000 10129 20043 39823 40075 52015 83077   333 10177=
31123 11599 82201 10113 20068 39758 40060 52017 69902 70282 86907
333 10160=
48601 31462 73602 10283 20240 30076 40080 71322 82942 333 10318
81917 87077=
48615 11468 72904 10292 20253 30069 40075 69901 71382 84942 333
10328 81917 83618 87074=
48647 31467 72802 10292 20250 30054 40079 71322 81942 333 10339
81917 87078=
48657 31465 70202 10291 20266 30053 40071 71796 83932 333 10357
81917 83622 86078=
48665 31468 73105 10292 20241 30060 40070 71322 81932 333 10342
81917 86078=
96413 11258 83103 10233 20225 30060 40086 60121 79196 8692/ 333
10332 81703 81915 85622 88465=
96421 11465 71204 10257 20237 30052 40088 69901 72186 8557/ 333
10334 85617 87365=
96441 32468 73004 10286 20245 30077 40082 8357/ 333 10320 83616
87365=
96449 32468 70000 10278 20251 30060 40080 81531 333 10318 81614
84365 85080=
96465 32489 73102 10270 20246 30050 40084 83832 333 10300 82812
83364 87079=
96471 11468 71004 10252 20241 30084 40087 60061 70162 82848 333
10299 81814 84264 87275=
96481 31462 69902 10275 20241 30055 40078 71322 83941 333 10327
81916 86080=
96491 32465 70106 10278 20242 30066 40079 81802 333 10318 81816
87080=
25621 32999 02903 10002 21072 39317 40151 52006   333 10112=
25703 12799 40204 10081 20021 39875 40130 52005 69900 83330   333
10133=
25913 32699 30803 10080 20009 39935 40076 57001 70240 82501   333
10079=
25954 11395 81803 10011 20008 30160 40165 57002 69900 75352 886//
333 10046=
31088 32999 60201 10067 20034 30069 40076 57009 82061   333 10080=
31829 11598 62603 10158 20002 39852 49882 52017 69900 70281 86900
333 10230=
31873 32999 62703 10158 20034 39850 49968 52019 82031   333 10217=
31909 32998 02805 10176 20040 39879 49950 52034   333 10281 91116=
31960 32598 20104 10224 20068 39783 49997 53026 82400   333 10271=
32053 11195 80306 10018 20013 39758 49799 53012 60220 78085 889//
333 10029 87703 91010 91111=
32061 11456 83504 10033 20028 39781 49818 52009 60140 78182 886//
333 10055=
32098 12584 62806 10061 21002 39812 49821 52014 60030 82940   333
10132=
32150 11596 52804 10133 20036 39849 49877 52036 69900 85300   333
10217 91113=
32165 12999 02206 10128 20040 39870 49928 53018 69900   333 10166
91110=
32215 11295 82303 10033 20023 49931 57021 60940 76162 8872/   333
10044 91111=
32583 11496 80610 10027 20009 30002 40032 57044 60140 78182 889//
333 10074 91019 91119=
32618 32498 81403 10032 20019 30126 40149 57016 886//   333 10044
88716=
16400 32497 52513 10228 20206 39878 40158 50000 85200 91145 333
55310 22/// 85815 555 0325/=
41710 32997 13109 10444 20016 39227 49916 81500 333 10450 56900
58015 81620=
41718 32996 02310 10420 20170 39857 49952 333 10424 58000=
41739 31696 62303 62302 10400 20201 38936 48437 70500 84430
333 10410 56990 58004 82635 82835 82360=
41744 32997 31310 10390 21003 48404 83030 333 10393 56090
58006 83360=
41749 31993 01821 10410 20252 39952 49985 70700 333 10435 58021=
34691 42998 63606 10307 20086 30136 40125 5/018 80002   555 1/049=
35700 42698 42303 10308 20067 30127 40102 57015 84200   333 84840
555 10045=
35746 41596 62911 10295 20136 39981 40053 57015 73132 86300   333
91117   555 10037=
35849 42798 62904 10297 20053 39998 40075 57010 83201   555 10047=
35953 42599 52710 10306 21054 39954 40069 57007 82102   333 91016
91116   555 10042=
35969 42999 629// 10296 20015 39911 40066 57012 80004   555 10037=
38062 42999 32104 10306 20051 80003   555 10048=
38069 42998 22905 10312 20043 80002=
52737 11680 60904 10112 21001 37104 52005 69921 70098 83902
333 00300=
56066 36/// ///// 10049 20003 36639 4//// 52018
555 10020 2//// 3//// 40111 51001 60/// 7//// 80000
9//// ///// 1/020 2//00 30000=
52634 36/// /2803 10094 21098 36761 4//// 52006
555 10030 2//// 30126 41111 51011 60/// 7//// 80000
9//// ///// 1/113 2//00 30000=
57528 16/// /2000 10163 29756 37563 61430
555 1/145 2//10 30187 12100
11101 10101 00010 10110 1011/
/////
2//// 3//// 6//// ///// ///// 8//// 9//// ///// ///// //004
11101 11111 1011/
11111 110//=
58005=
47105 32970 52004 10251 20021 30047 40076 53010 80001 333
10325 30022 55112 22529=
47108 32965 22503 10211 20106 30013 40114 52005 80001 333
10270 30018 55089 22171=
47115 32970 42506 10216 20054 39829 40085 50005 80001 333
10262 31019 55125 92044=
47135 23974 22905 10203 20033 39835 40116 52010 82500 333
10285 31017 55132 22843=
47138 32968 52703 10258 20059 30097 40100 52013 80001 333
10311 30021 55127 22750 92022=
47159 32970 22505 10218 20092 30032 40111 52010 80001 333
10291 30018 55090 22691 92023=
47165 31958 43202 10190 20135 30083 40127 52008 71010 80001
333 10272 30019 55114 22558 92022=
47184 3//80 22702 10197 20085 30110 40137 52010 80001 333
10252 30020 21157 92022=
47008 32970 00000 10279 20109 39925 49975 52005 333 10345=
47016 32970 50000 10187 20073 39229 40058 52012 80001 333
10287=
47020 32965 00000 10239 20128 39726 40076 53022 333 10318=
47025 32960 42001 10170 20123 39976 40003 53017 80002 333
10320=
47035 32970 01803 10177 20114 30087 40095 52022 333 10257=
47041 32965 42003 10269 20080 30028 40053 52010 80002 333
10327=
47055 32975 22704 10250 20021 30036 40078 52013 82030 333
10309=
47058 32966 22501 10220 20068 30057 40101 58008 80001 333
10294=
47069 32960 30901 10181 20106 30015 40110 57002 80002 333
10230=
24641 32599 60000 10160 20027 39938 40069 58002 85310 333
10177=
29231 11497 81102 10180 20132 39867 49955 53007 69982 78082
86331 333 10192=
31004 11497 81301 10086 20059 39274 40062 52010 69932 78082
889// 333 10119 88916=
10177=
41697 60817 10280 20253 40110 52010 70301 87564 91120
22234 00290 1//// 2//// 3//// 4//// 5//// 6//// 80260 /////
BRGDS/MASTER=
59995 11475 72710 10269 20242 30055 40063 52007 60011 76060 83272=
31137 11599 80000 10039 20034 39077 40068 52017 60042 70282
8397/ 333 10076=
47003 32980 02301 10185 20128 39999 40003 52028 333 10340=
47005 32680 01801 10150 20073 38547 52005 333 10227=
47028 32969 01401 10218 20062 39990 40078 53010 333 10302=
47031 32970 10000 10190 20034 80002 333 10241=
47039 32960 22302 10209 20105 39914 40093 52010 80001 333
10285=
47046 32969 62308 10226 20071 30016 40037 52013 86030 333
10294=
47050 32965 00000 10190 20122 30069 40101 52015 333 10253=
47052 32965 00000 10192 20094 39782 40102 52024 333 10283=
47060 32960 22301 10222 20071 30040 40094 57003 80002 333
10269=
47061 32980 21401 10251 20038 30011 40051 52005 80003 333
10304=
47065 32965 10000 10226 20095 30049 40110 53003 80201 333
10306=
47067 32965 01402 10181 20131 30002 40116 52011 333 10287=
47068 32970 80000 10196 20085 30071 40104 57002 80002 333
10283=
47070 32970 20000 10175 20119 30038 40121 53005 82030 333
10255=
98325 11456 82201 10262 20246 40083 53029 60111 71398 8492/
333 10337 56999 58005 84915 88458=
98429 11558 81204 10285 20241 40092 52010 6///1 70544 83870
333 10310 56999 58008 83623 88359=
98550 31460 61801 10276 20256 40091 52020 70544 82262 222//
20101 333 10304 56999 58007 82818 85074=
98836 31565 60000 10278 20250 40093 52025 70544 82271 333
10324 56999 58000 82820 84362=
44214 32698 72508 10177 20023 38184 40004 55008 83543 333
10215=
44218 32698 50000 10220 20060 38470 49945 57001 85200 333
10227=
44277 11699 52701 10135 20043 37760 40007 57002 70262 82252
333 10139=
44354 31698 72707 10249 20027 38928 49908 53002 70722 87710
333 10294=
44358 31996 82306 10244 20092 38914 49941 57009 70544 8802/
333 10286=
80403 32480 71204 10278 20231 30111 40130 81206 333 20260
30/// 50584 55112 22123 59012 81816 86075 1013=
80410 31458 80902 10222 20208 39427 40108 71022 855// 333
20200 30/// 50444 55041 21327 5629/ 59007 85613 1013=
80413 32465 80000 10245 20210 39627 40100 885// 333 20232
30/// 50344 55056 21654 569// 59007 88613 1012=
80415 32570 73601 10259 20236 30064 40118 83508 333 20247
30/// 50194 55071 21876 56909 59007 83620 1012=
80421 12462 80806 10261 20223 30099 40121 69904 8287/ 333
20257 30/// 50484 21817 5629/ 59010 82816 87458 1012=
80428 32468 80000 10240 20221 39911 40096 8453/ 333 20232
30/// 50164 55006 21233 5699/ 59009 84617 85357 1013=
80435 12470 80602 10255 20221 30043 40119 60704 887// 333
20246 31/// 50064 55011 20523 562// 59002 88713 1012=
80438 12570 80702 10174 20149 38513 48510 60014 81516 86280
20165 30/// 50144 55011 21239 56999 59004 81620 83460 1019=
80444 12368 80903 10252 20244 30059 40112 60294 8352/ 333
20240 30/// 50244 55069 21666 5629/ 58007 83610 88457 1010=
80447 32565 81801 10263 20163 39658 40077 83507 333 20245
30/// 50554 55015 21076 56909 59004 83620 85280 1013=
80457 12470 61401 10246 20226 30029 40114 60174 865// 333
20236 31/// 50124 21022 569// 59002 86610 1011=
82288 22223 00260 20402 314// 40604 80250=
85230 22274 00277 20301 301// 41004 5//// 6//// 80256=
40604=
80416 32470 61402 10215 20201 39222 867// 333 20195 30///
50194 55058 21829 569// 59004 86613 1018=
80420 32470 81402 10260 20228 30095 40101 8322/ 333 20248
30/// 50644 55090 22236 5629/ 59007 81813 85458 1011=
80425 32470 23201 10259 20245 30054 40085 82500 333 10254
30/// 50214 55033 2148/ 56900 59012 82613 1008=
80427 32465 80703 10248 20233 39856 40108 8352/ 333 20230
30/// 50404 55040 21577 5699/ 59004 83617 86458 1012=
80431 11458 80000 10222 20219 39610 40082 60124 75065 887//
333 20217 32/// 50404 55051 21690 569// 58008 88713 1011=
80475 12565 70501 10187 20170 39753 40128 60254 82801 333
20168 30/// 5//// 55000 21724 56909 59007 82720 85079 1013=
55598 11780 70904 10099 20031 36627 52012 60031 70098 874//
333// 00451=
55690 11480 81102 10050 20039 36006 52010 69971 72580 884//
333// 00101=
56116 11580 70000 10060 20010 36388 52013 69931 72560 86902
333// 00453=
56137 11780 70000 10123 20048 36836 54000 69921 70080 879//
333// 00454=
56312 11580 71601 10123 20072 37094 52002 69901 70060 87400
333// 00301=
55696 11580 70403 10114 20030 36363 57003 69901 70060 82242
333// 00301=
10325 30022 55112 22529=
10320=
28679 41598 72804 10144 20122 39783 49949 57003 72522 86930=
28879 41597 82909 10141 20078 39701 49968 53002 78082 889//
333 88928=
29023 11598 81104 10127 20105 39900 49990 52013 60082 70282
889// 333 10147=
30230 11599 80202 10083 20064 39722 40031 57008 69952 72582
8697/ 333 10122=
30309 41498 80104 10114 20081 39470 40038 52014 70282 8495/
333 10166 84918=
30710 42960 11803 10169 20036 39446 40024 57003 80001 333
10215=
35078 41799 32507 10176 20034 39632 49980 52005 70298 82903
333 91124 91887=
35108 42997 73003 10230 20050 40134 52002 80009=
35188 41498 72705 10148 20117 39589 49992 53005 70198 87500
333 87116=
36177 41597 72605 10230 20064 39806 40030 53005 70298 82331=
38341 42598 72604 10291 20051 39334 40039 53002 82942=
58968 11662 81502 10268 20237 30097 40104 52009 60112 70296
885//=
58974 32565 71208 10250 20244 39990 40107 50005 8353/=
59358 31750 80301 10285 20251 30087 40098 52006 71022 885//=
59559 32570 20402 10278 20238 30071 40099 53011 82500=
59792 32560 30506 10284 20265 30083 40087 53007 83200=
59997 12562 82503 10256 20248 30040 40054 52007 60572 82220=
59158 32962 00000 10266 20226 30003 40101 53001=
59562 32570 22001 10280 20237 30092 40103 52014 82100=
59567 12462 20804 10254 20238 39740 40109 52010 60022 82200=
51087 32680 72905 10242 20035 39154 40064 57002 81102 333
05207=
71472 36/// /2907 10080 30232 40250 53005 333 10087 20078 70000=
87078 32970 80902 10156 20102 39961 40113 53003 8803/ 333 10160
20139=
87097 32970 00904 10087 20070 39849 40170 53013 333
10124 20048=
87162 32970 81106 10136 20088 30065 40135 52006 8807/ 333 10139
20118 56060=
87166 32970 80906 10137 20099 30070 40145 53004 8807/ 333 10142
20099 56069 88360=
87178 42970 20000 10101 20067 30012 40161 52009 80005
333 10143 20079 56007 82275=
87270 32965 70506 10140 20094 30074 40138 50001 87070 333 10147
20114 30009 56060 65018=
87289 32970 20000 10098 20074 30087 40172 52016 82070 333 10134
20074 56060 82365=
87374 32965 63606 10138 20116 30050 40143 51007 86070
333 10146 20120 30000 56000 86360=
87393 32965 30504 10104 20079 30092 40156 56001 83030 333 10142
20078 56060 83360=
87497 31660 80504 10114 20094 30120 40145 50004 71011 8157/ 333
10134 20096 56669 81640 88360=
87576 31958 73605 10136 20104 30120 40144 52005 71022 86076
333 10147 20122 56077 86360 83270=
87582 32660 73405 10134 20114 30141 40148 53003 83570 333 10162
20128 56370 83645 87360=
87593 31958 50000 10131 20122 30128 40155 53012 71022 84059 333
10140 20122 56076 84360=
87623 31950 62502 10085 20081 39898 40127 51012 71010 85032 333
10122 20065 56055 85360=
87645 31903 40902 10080 20080 39916 40128 56005 74641 84070 333
10080 20053 56060 84360=
87692 31915 73604 10099 20076 30109 40135 58001 71022 87070 333
10101 20071 31000 56060 60081 87360 92666 90222=
87715 31658 52906 10063 20049 39820 40146 52009 71400 82023
333 10096 20041 31002 56055 81545 81550 83070=
87750 32670 63216 10117 20106 30006 40106 53004 84806 333 10127
20110 56805 81840 83650 86270=
87765 01580 89904 10050 20041 39185 48471 52011 60044 70265 8552/
333 10072 20049 30005 56669 60031 85620 88530=
60338 32982 00607 10294 20110 30128 40191 58004
333 92418=
61401 32960  01816 10385  20151 39733 40123
333 0//00 58003=
61404 31950 01229 20021 39747 40120 70700
333 0//00 58014=
61415 32960 03416 10224 20169 30127 40132
333 0//00 58003=
61421 31957 11206 10420 20024 39866 40108 70700 81080
333 0//00 58005 81363=
61437 31957 61214 10432 20220 39979 40109 7072/ 80002
333 0//00 58005 86073=
61442 32960 03207 10258 20195 30115 40119
333 0//00 58005=
61450 31912 01417 10385 20041 39675 40110 707//
333 0//00 58022=
61461 33958 00806 10400 20132 30022 40106
333 0//00 58002=
61489 33960 03612 10312 20137 30118 40125
333 0//00 58005=
61492 32958 00000 10335 20156 30096 40115
333 0//00 58000=
61498 31957 00804 10396 20109 39968 40094 705//
333 0//00 58009=
67009 32582 40812 10290 20216 30007 40126 56017 84200
333 0//00 84820=
67012 32582 2//02 10296 20233 30128 40138 57014 82200
333 0//00 82823=
67019 32582 1//// 10303 20219 30061 40127 56020 81102
333 0//00 81820=
67025 32582 1//// 10268 20184 30033 40133 56024 81200
333 0//00 81820=
67027 32582 13010 10318 20185 30102 40123 57024 81200
333 0//00 81823=
67045 32582 12804 10331 20114 30029 40118 56023 81200
333 0//00 81823=
67072 32582 21802 10264 20/// 30146 40149 56012 82200
333 0//00 82820 92418=
67073 32980 02011 10270 20197 30127 40153 56014
333 0//00=
67083 32581 40000 10231 20068 38769 48521 56019 84200
333 0//00 84820=
67095 32582 20806 10272 20204 30136 40143 57016 82200
333 0//00 82820=
67117 32582 12506 10286 20162 30140 40149 57016 81200
333 0//00 81823=
67137 32580 22202 10232 20096 38905 48507 56013 82200
333 0//00 82820=
67143 32580 11408 10271 20238 30144 40151 57009 81200
333 0//00 81820 92438=
67157 32581 11806 10262 20205 30140 40147 57011 81100
333 0//00 81823=
67161 32582 12614 10261 20190 30155 40164 57011 81200
333 0//00 81820=
67197 11580 41804 10241 20198 30160 40170 56004 69991 72161 84200
333 0//21 84820=
61202 32965 00204 10387 21038 39534 40061
333 0//00 59006=
61223 31930 00612 10400 20037 39800 40088 70600
333 0//00 59002=
61226 32960 00000 10412 20039 39788 40069
333 59008=
61230 32960 01012 10400 20127 39828 40085
333 58008=
61250 31956 32206 10380 20187 3//// 4//// 70600 83040
333 5//// 83365=
61257 32970 03206 10400 20173 30052 40103
333 0//00 58008=
61265 32962 51808 10385 20160 3//// 4//// 80002
333 0//00 5//// 85075=
61270 32962 30404 10370 20298 39724 40087 80002
333 0//00 59004 83075=
61272 32965 00000 10356 20222 39780 40095
333 0//00 59006=
61277 32970 00000 10360 20217 39788 40097
333 0//00 58001=
61291 32960 12804 10355 20192 39690 40088 80002 980//
333 0//00 58001 81080=
61296 32570 62806 10330 20239 30715 40100 81502
333 0//00 59007 81630 86075=
61297 32570 32604 10320 20228 3//// 4//// 83500
333 0//00 5//// 83630=
87016 32565 80000 10174 20157 39679 40087 53009 885// 333 10194
20167 56899 88620=
87022 32660 80000 10176 20152 39580 40094 52015 8657/
333 10178 20167 56209 86640=
87046 32670 53604 10134 20067 39085 48464 53007 80006
333 10145 20106 56006 85280=
87047 31562 72302 10103 20082 38758 48471 53008 71022
82549 333 10138 20104 30009 56156 57393 82625 83360=
87121 32958 23204 10124 20108 39595 40112 52021 71000
82030 333 10180 20113 56050=
87129 32670 71405 10130 20091 39885 40119 52017 87500 333 10169
20118 87640=
87217 32770 52705 10106 20090 39618 40123 52019 85500 333 10133
20095 56400 85656=
87222 32670 60504 10113 20093 39585 40106 52021 86500 333 10192
20074 56000 86640=
87257 32965 60502 10114 20109 30033 40139 52007 86070 333 10130
20082 56070=
87311 32965 30000 10092 20049 39454 40148 52017 83070
333 10135 20080 56000 83360=
87328 32680 60503 10122 20050 39461 40114 57001 84550 333 10166
20098 56880 84640 95000=
87344 32965 32702 10087 20038 39572 40124 52007 83070 333 10146
20062 56040 83360=
87349 32470 53402 10104 20077 39734 40132 52012 84570 333 10128
20077 30007 56350 84618=
87416 32670 42308 10099 20031 39385 40142 53015 84800 333 10143 20084
30006 56500=
87418 31660 51403 10102 20082 39337 40147 53013 71022 85500 333 10148
20102 30000 56500 85640=
87436 32680 40903 10090 20064 39311 40135 53016 82532 333 10134
20090 56555 81640=
87448 32570 72508 10096 20075 39568 40135 53016 83572 333 10140
20074 56542 83630=
87453 32470 70000 10148 20088 39625 40114 52016 85570 333
10144 20122 56880 85615=
87467 32970 70202 10129 20105 39998 40134 53007 86072 333 10129
20107 56055=
87506 31560 42503 11003 21023 38573 48494 53012 71000 83540 333 10089
21014 56560 82730 81633 95010=
87509 32970 02708 10060 20010 39289 40159 52016 333 10135 20047
30000=
89062 42999 12403 11056 21065 30249 40292 52013 80001 333 11040
21066 81070=
89061 32/// /0402 11076 30274 40284 51013 91135 333 11033 21081=
89063 41/92 90000 11068 21075 30281 40296 52014 74744 91141 333
11039 21075=
70026 32266 81210 11072 21078 30245 40252 53004 91153 333 11056
21072 4/010 555 92912=
70133 11464 81506 10006 20000 30220 40227 53008 69901 761// 91153
333 10028 20006 555 92912=
70231 32866 60000 10022 20011 30109 40238 51005 91153 333 10100
20017 555 92912=
70261 32866 40000 10039 20033 30050 40221 51012 91153 333 10156
20033 555 92912=
70273 32866 40000 10083 21017 30148 40197 51017 91153 333 10161
20078 555 92912=
70308 12464 81010 10033 20022 30168 40180 58009 69901 91153 333
10061 20033 70008 555 92912=
70316 11766 81413 10039 20022 30179 40219 58008 69901 761// 91153
333 10072 20033 555 92912=
70326 31028 81607 10011 20006 30199 40221 51003 710// 91152 333
10144 20011 555 92912=
70350 32966 62906 10039 20000 30182 40223 51005 91153 333 10150
20033 555 92912=
70361 32966 60704 10072 20061 30174 40193 51014 91153 333 10172
20067 555 92912=
70398 32666 80000 10083 20050 30195 40238 51008 91153 333 10111
20072 555 92912=
70341 32966 20205 10028 20011 30180 40207 51008 91153 333 10122
20022 555 92912=
70194 35/// /0000 10010 21010 30042 52007 91155 333 20010 555
92912=
78255 32960 00703 10237 20217 39992 40144 52010 80000 333 20216
80000=
72201 32566 49903 10272 20233 30135 40140 52009 91153 333 10311
20244 70097 555 92912=
72202 32566 62105 10261 20228 30130 40134 51007 91156 333 10322
20239 555 92912=
72203 31759 42506 10244 20228 30128 40135 53008 710// 91153 333
20233 555 92912=
72205 32962 62707 10250 20228 30083 40119 53006 91153 333 10372
20228 555 92912=
72206 32966 03008 10250 20217 30092 40102 53014 91156 333 10361
20244 555 92912=
72207 32866 22806 10222 20178 30073 40090 53013 91153 333 10350
20211 555 92912=
72208 32966 03208 10228 20172 30062 40076 51012 91156 333 10356
20206 70069 555 92912=
72212 15/// /3206 10256 20239 30092 40109 53010 60041 91153 333
10333 20250 555 92912=
72214 32662 22806 10239 20222 30094 40114 53012 91153 555 92912=
72217 32966 02704 10194 20167 39977 40102 53012 91153 333 10333
20167 555 92912=
72218 32966 03111 10217 20144 30037 40088 53016 91153 333 10333
20194 555 92912=
72219 32766 23005 10172 20144 39743 40109 51013 91153 333 10272
20161 70036 555 92912=
72223 32966 03003 10206 20183 30061 40139 53013 91156 333 10333
20194 70201 555 92912=
72226 32966 03105 10194 20156 30051 40123 53013 91153 333 10322
20167 555 92912=
72231 32966 00308 10267 20156 30131 40144 53012 91153 333 10344
20239 555 92912=
72234 32966 00000 10167 20156 30033 40141 53015 91153 333 10311
20144 555 92912=
72235 32966 00000 10172 20167 30024 40141 53007 91154 333 10300
20150 70003 555 92912=
72240 32962 00505 10250 20230 30130 91208 333 10322 555 92912=
72243 31458 60000 10228 20228 30109 40146 53012 710// 91153 333
10317 20222 555 92912=
72248 32966 00000 10183 20172 30055 40147 53010 91156 333 10306
20178 555 92912=
72250 32962 01405 10256 20244 30128 40133 53009 91156 333 10344
20250 555 92912=
72251 31048 61303 10230 20230 30119 710// 91210 333 10317 555
92912=
72253 32362 61103 10240 20230 39858 91210 333 10306 555 92912=
72254 37156 80000 10230 20220 39927 710// 91202 333 10328 555
92912=
72255 37004 90603 10230 20230 30107 730// 91210 333 10311 555
92912=
72256 31948 00000 10200 20200 39967 40144 53010 91153 333 10317
20194 555 92912=
72259 32966 01203 10206 20161 39944 40144 53009 91153 333 10328
20206 555 92912=
72261 35962 01006 10233 20211 39765 40117 53004 91153 333 10344
20228 555 92912=
72263 32966 01604 10200 20178 39475 40134 53009 91153 333 10350
20200 555 92912=
72265 32966 01804 10206 20133 39161 40119 53007 91153 333 10328
20206 555 92912=
72266 32966 01606 10206 20172 39518 40133 53008 91153 333 10339
20200 555 92912=
72267 32966 02111 10211 20117 39031 40111 53007 91153 333 10322
20194 555 92912=
72270 32966 20000 10222 20022 38808 40084 53005 91151 333 10361
20211 555 92912=
72274 32966 01207 10244 20006 39198 40069 53002 91155 333 10417
20239 555 92912=
72278 32966 00000 10272 20072 39678 40051 53003 91156 333 10433
20267 555 92912=
72280 32966 /1603 10270 20050 39979 40047 55001 91157 333 20270
555 92912=
72290 31148 80000 10167 20156 30097 40107 56013 710// 91151 333
10244 20161 555 92912=
72295 31128 81104 10178 20178 30066 40103 56009 710// 91150 333
10244 20178 555 92912=
72304 17359 83111 10200 20189 30037 40041 53011 69901 710// 91151
333 10244 70038 91016 555 92912=
72308 31356 80623 10160 20140 30070 761// 91207 333 10322 91029
96010 555 92912=
72311 32966 03007 10183 20133 39811 40096 53010 91153 333 10289
20167 70005 555 92912=
72314 12966 63206 10172 20156 39817 40086 53016 69901 91151 333
10289 20156 70033 555 92912=
72317 12366 80311 10150 20139 39775 40094 53021 60041 91154 333
10267 20150 70051 555 92912=
72324 12666 43308 10178 20122 39879 40122 53012 69901 91153 333
10272 20172 555 92912=
72326 32566 80000 10160 20130 39768 91207 333 10267 555 92912=
72327 32566 83104 10161 20133 39931 40139 53015 91153 333 10256
20156 555 92912=
72334 32966 00305 10183 20150 30051 40153 53014 91153 333 10294
20161 555 92912=
72340 32966 20000 10189 20172 30062 40154 53014 91153 333 10294
20167 70003 555 92912=
72344 32962 01103 10172 20161 39987 40150 53010 91153 333 10300
20161 555 92912=
72351 32966 21707 10194 20156 39773 40130 53006 8/001 91153 333
10333 20183 555 92912=
72353 32966 01808 10172 20133 39676 40132 53009 91153 333 10311
20161 555 92912=
72356 32966 02106 10206 20144 39893 40132 53010 91153 333 10306
20200 555 92912=
72363 32966 02112 10167 20100 38907 40108 53001 91153 333 10317
20156 555 92912=
72365 32966 21206 10194 20006 38379 40086 53007 91156 333 10333
20194 555 92912=
72374 35966 01005 38506 53003 91156 555 92912=
72384 32966 00000 10189 20083 39943 40114 55001 91156 333 10339
20178 555 92912=
72386 32966 02018 10294 20039 39299 40034 56005 91156 333 10422
20294 555 92912=
72389 32966 03209 10178 20083 39995 40111 58000 91156 333 10356
20178 555 92912=
72394 35966 00000 10100 20083 30031 40120 55005 91151 333 10244
20094 555 92912=
72401 12466 80212 10133 20122 30048 40111 51024 69901 91154 333
70102 555 92912=
72403 11461 80309 10128 20122 30018 40133 53024 69901 761// 91151
333 20117 70025 555 92912=
72407 15966 80712 10122 20094 30118 40140 53024 69901 91154 333
10183 20122 70018 555 92912=
72408 12566 60513 10139 20094 30127 40148 53024 69901 91154 333
10200 20128 70008 91020 555 92912=
72411 32266 80407 10140 20120 39693 91206 333 10189 555 92912=
72412 17456 82804 10122 20117 39235 40106 53020 69901 710// 91151
333 10206 20111 70046 555 92912=
72414 11259 80000 10150 20144 39758 40105 53020 60041 710// 91154
333 10233 20144 70066 555 92912=
72421 32466 80215 10122 20100 39815 40130 53020 91151 333 70074
555 92912=
72428 31459 80209 10122 20106 39829 40122 51026 710// 91151 333
10183 20122 70549 555 92912=
72429 32366 83612 10106 20089 39780 40140 51022 91152 333 10200
70010 555 92912=
72432 31358 80205 10150 20139 30007 40148 51017 710// 91154 333
10211 20144 70008 555 92912=
72434 32566 60407 10150 20122 39953 40156 51013 91153 333 10189
20150 555 92912=
72438 31958 20107 10122 20106 39859 40153 53021 710// 91155 333
20106 70003 555 92912=
72440 32966 01508 10172 20133 39698 40145 53010 91154 333 10261
20150 555 92912=
72445 32964 01304 10133 20128 39833 40156 53010 91154 333 10233
20111 555 92912=
72446 32866 21412 10161 20133 39762 40124 56003 91153 333 10278
20150 555 92912=
72450 32966 21805 10172 20139 39654 40120 53015 91156 333 10311
20161 555 92912=
72451 32966 01705 10172 20117 39221 40104 53007 91156 333 10333
20172 555 92912=
72456 32966 01205 10183 20144 39805 40115 58001 91156 333 10306
20172 555 92912=
72458 35966 09903 10210 20140 39565 91203 333 10311 555 92912=
72464 32966 02306 10150 20061 38539 40086 53003 91154 333 10361
20128 555 92912=
72465 12966 00303 10161 20100 38843 40073 55008 69901 91156 333
10356 555 92912=
72476 32966 00907 10172 20033 38511 40061 51008 91156 333 10356
20167 555 92912=
72486 35966 01710 10067 20000 38074 40082 58002 91153 333 10306
20061 555 92912=
72492 32966 02809 10133 20067 30122 40129 55000 91156 333 10333
20122 555 92912=
72503 32566 80711 10139 20100 30151 40160 53027 91151 333 10194
20133 555 92912=
72508 12466 60408 10128 20094 30100 40173 52019 69931 91151 333
10183 20111 70003 555 92912=
72509 32566 20314 10128 20094 30168 40175 53016 91154 333 10161
20083 555 92912=
72515 32666 20706 10106 20067 39587 40167 51019 91156 333 10161
20089 555 92912=
72518 32666 83504 10128 20094 30072 40178 51024 91151 333 10161
20111 555 92912=
72519 32866 60504 10111 20089 30024 40171 51019 91154 333 10172
20072 555 92912=
72520 12362 80705 10111 20100 39688 40137 51025 69931 8/5// 91151
333 10133 20106 70513 555 92912=
72524 32966 40506 10128 20100 39867 40148 53022 91151 333 10150
20094 70445 555 92912=
72528 32966 60605 10100 20072 39899 40161 53018 8/001 91154 333
10161 20067 555 92912=
72530 32966 00203 10100 20078 39921 40166 51010 91156 333 10156
20067 70033 555 92912=
72532 32461 80703 10128 20106 39918 40164 51012 91154 333 10167
20122 70005 555 92912=
72533 32966 00407 10111 20100 39862 40163 53019 91154 333 10156
20089 555 92912=
72537 32966 40308 10106 20072 39921 40164 53022 91154 333 10172
20089 70079 555 92912=
72546 31156 61407 10117 20106 39806 40153 53007 710// 91154 333
10178 20111 555 92912=
72547 31559 80000 10117 20100 39782 40173 53010 710// 91155 333
10144 20111 555 92912=
72552 32966 00806 10172 20167 39425 40068 55004 91156 333 10317
20161 555 92912=
72556 15966 01311 10144 20122 39543 40086 55002 69901 91154 333
10278 20144 555 92912=
72557 32966 00910 10139 20117 39728 40121 56002 91155 333 10239
20133 555 92912=
72562 12966 02907 10172 20117 39128 40075 53010 69901 91156 333
10350 20150 70008 555 92912=
72564 32666 42710 10144 20061 38112 40072 55007 91156 333 10311
20139 555 92912=
72565 32966 42011 10161 20067 38321 40082 50002 91153 333 10317
20117 555 92912=
72569 32966 00607 10089 20078 38335 40081 56007 91155 333 10306
20072 555 92912=
72572 32866 61804 10139 20083 38659 40061 53002 91156 333 10306
20139 555 92912=
72576 35966 03211 10094 20067 38263 40072 56014 91156 333 10289
20089 555 92912=
72578 32966 01909 10133 20056 38602 40090 53016 91156 333 10256
20133 555 92912=
72583 35966 02205 10078 21078 38661 40111 56003 91156 333 10278
20061 555 92912=
72591 32966 03507 10128 20000 30004 40125 52004 91155 333 10283
20122 555 92912=
72594 32661 81003 10102 20084 30191 40191 57007 885// 333 10174
20095 88641
72606 32666 60513 10122 20061 30170 40188 51021 91151 333 10172
20100 555 92912=
72617 32566 40000 10106 20078 30064 40190 51024 91154 333 10150
20067 555 92912=
72635 32966 20606 10094 20078 39877 40172 53014 91156 333 10172
20061 70003 555 92912=
72636 32966 00806 10100 20083 39942 40173 53015 91155 333 10172
20067 70043 555 92912=
72637 32961 00404 10100 20083 39893 40174 53017 91153 333 10183
20072 70208 555 92912=
72638 35966 00907 10094 20067 39760 40179 50008 91155 333 10183
20044 555 92912=
72640 32966 23003 10094 20083 39917 40173 53012 8/001 91152 333
10111 20044 70099 555 92912=
72641 31112 60000 10100 20100 39858 710// 91212 333 10139 555
92912=
72644 31948 01605 10090 20090 39691 710// 91203 333 10139 555
92912=
72645 32966 00503 10094 20083 39914 40172 50013 91156 333 10167
20044 555 92912=
72651 11958 61206 10122 20111 39610 40121 51008 60041 710// 91156
333 10206 20117 70038 555 92912=
72654 31428 81214 10130 20130 39649 763// 91214 333 10261 96010
555 92912=
72659 12966 01609 10144 20122 39629 40091 58007 69901 91156 333
10267 20139 70003 555 92912=
72662 32966 00000 10111 20089 39005 40097 58002 91155 333 10256
20100 555 92912=
72666 32466 43114 10106 20078 38755 40107 51020 91156 333 10206
20100 555 92912=
72677 32866 63608 10106 20022 38910 40137 53017 91156 333 10194
20106 70066 555 92912=
72681 32966 03203 10089 20028 39135 40124 53015 91156 333 10239
20089 555 92912=
72683 35966 63107 10061 20011 38725 40144 52003 91153 333 10217
20061 555 92912=
72688 32766 82205 10100 20033 39637 40174 52005 91156 333 10217
20100 555 92912=
72693 32766 80000 10094 20083 30072 40210 56001 91156 333 10178
20089 70003 555 92912=
72694 32566 82905 10100 20072 30133 40207 53001 91156 333 10178
20100 70005 555 92912=
72698 12666 63205 10106 20094 30201 40209 53001 69901 91155 333
10172 20106 70023 555 92912=
72712 32566 80207 10083 20033 39975 40210 52017 91154 333 20067
70003 555 92912=
72745 32966 01404 10067 20050 39636 40156 50006 91155 333 10167
20044 555 92912=
72747 15966 01907 10117 20100 39679 40106 58008 69901 91155 333
10228 20100 555 92912=
72753 32964 01712 10122 20106 39780 40110 55012 91153 333 10200
20117 555 92912=
72764 32966 03308 10128 20111 39513 40102 53010 91152 333 10244
20111 555 92912=
72767 32966 20110 10089 20061 39465 40141 53020 91152 333 10256
20089 555 92912=
72768 32966 00504 10089 20050 39338 40152 53023 91156 333 10244
20089 555 92912=
72772 11666 83108 10083 20039 38814 40165 53018 69931 761// 91156
333 10217 20083 70003 555 92912=
72773 32866 42304 10072 20022 39045 40160 51008 91156 333 10194
20072 555 92912=
72776 12966 62806 10083 20000 38883 40145 51010 69901 91156 333
10217 20078 555 92912=
72777 35966 00203 10044 20000 39238 40157 52008 91156 333 10228
20022 555 92912=
72779 35866 82904 10017 20011 39125 40175 53009 91156 333 10167
20006 555 92912=
72781 35966 02707 10039 20000 39787 40183 52007 91156 333 10206
20022 70003 555 92912=
72785 32766 41505 10061 20028 39324 40161 51008 91156 333 10178
20050 555 92912=
72793 12566 80506 10100 20083 30042 40206 53002 60021 91156 333
10161 70020 555 92912=
10328 20233 555 92912=
72306 32466 60310 10160 20140 39936 91215 333 10283 555 92912=
72315 32466 23611 10144 20122 39344 40094 53011 91154 333 20133
70008 555 92912=
72402 37358 80722 10140 20130 30094 761// 91203 333 91028 96010
555 92912=
72405 32466 80309 10140 20120 30111 91211 333 10172 555 92912=
72406 32466 80413 10130 20110 30079 91203 333 10156 555 92912=
72423 12566 83508 10150 20122 39961 40138 53024 69901 91156 333
10222 70003 555 92912=
72425 32366 83107 10140 20130 39813 91213 555 92912=
72504 32866 80810 10133 20067 30159 40167 53022 91154 333 10183
20133 555 92912=
72507 32566 40512 10128 20078 30146 40170 51018 91151 333 10172
20089 555 92912=
72513 32766 89903 10133 20089 39812 40148 53019 91154 333 10194
20122 555 92912=
72521 32362 80508 10110 20100 39687 91205 333 10128 555 92912=
72529 32766 60707 10117 20089 39964 40167 53018 8/500 91154 333
10150 20089 555 92912=
72535 12966 00000 10100 20083 39884 40167 53018 69931 91154 333
10150 20061 70013 555 92912=
72536 32966 00209 10106 20094 39904 40155 51024 91152 333 10150
20089 70102 555 92912=
72544 32561 80000 10128 20111 39953 40169 53013 91155 333 10156
20122 70008 555 92912=
72592 32866 29903 10156 20039 39942 40122 53003 91156 333 10272
20156 555 92912=
72605 35966 00409 10133 20072 30056 40184 51019 91151 333 10183
20089 555 92912=
72783 35966 61604 10078 20039 39652 40168 53008 91156 333 10217
20072 555 92912=
72791 15766 83410 10106 20078 30208 40217 52004 60021 91156 333
10161 20100 70023 555 92912=
87791 31950 63404 10046 20039 30090 40099 53003 71011 84012 333
10097 20040 56066 84460 90002=
87803 01250 63205 10028 20026 39213 40138 52007 60024 74064 85770
333 10062 20028 31001 56600 60021 82704 84625=
87828 32980 42310 11004 21010 30072 40125 53008 81062 333 10068
21030 30104 56076 81360 83070=
87852 01465 80000 10044 20039 39628 40146 52009 60054 71662 8452/
333 10058 20003 56709 82715 84623 85550=
87860 01470 81608 10101 20072 30094 40150 52024 69904 76162 8557/
333 10118 20076 31005 56449 69901 85613 83360=
87896 01335 81410 10060 20058 30053 40152 52013 69914 75152 886//
333 10070 20060 56399 69912 88709=
87903 01370 80000 10028 20028 39949 40223 52024 60014 74154 8577/
333 10033 20003 56559 69941 85709 83360 96050 90301 90622 90092=
87909 01358 81114 10062 20039 30114 40191 52024 69904 75052 886//
333 10062 20034 56399 69901 82707 86710 96010=
87925 11480 81110 10054 20027 30220 40244 52031 69904 70252 886//
333 10068 20045 56399 83710 85620=
87938 12580 13204 10003 21014 30202 40274 52027 69944 81500 333 10038
21005 56600 81630=
67023 32582 107// 10274 20192 30126 40132 57020 81200
333 0//00 81820=
67037 32982 0//// 10306 20172 3//// 4//// 5////
333 0//00=
67107 32582 22002 10219 20065 38487 48525 57016 82200
333 0//00 82823=
67131 32582 22216 10254 20172 30149 40154 56008 82200
333 0//00 82823=
87534 32960 63602 10090 20079 39961 40125 5203 84076 333 10147 20090
30008 56065 84369=
87563 31958 30504 10102 20098 30093 40138 54000 71000 83039 333 10140
20080 56076 83360=
40009 32970 02903 10332 20164 40058 57011=
40016 32570 13201 10354 20083 40063 57011 81100 333 81830=
40022 32965 01503 10250 20205 40127 57007 222// 20000=
40030 32970 03304 10327 20073 40079 57012=
40039 32970 02805 10333 20064 40060 57015=
40066 32970 02704 10278 20133 40112 56006=
40072 32970 02604 10360 20036 40077 57006=
40083 32570 10902 10252 20061 48470 58006 81100 333 81826=
82480 32997 32702 10272 20243 39916 40098 333 20218 59006=
82693 32999 01405 10285 20182 39866 40120 333 20220 59011=
63801 32580 62705 10261 20226 39203 48531 8297/ 91145
333 55300 58010 82823 81924 86359=
63832 32580 51808 10308 20117 38811 48497 85200 91150
333 55320 58010 85827=
96011 32560 82912 10260 20233 30056 40076 58001 84532
333 10310 56000 59011 84620=
96035 01430 83604 10261 20241 30042 40074 52016 60051 79596 86978
333 10332 56000 57901 59005 60057 82917 84618 80956=
96073 11458 70000 10290 20247 30075 40082 51014 69901 70562 83922
333 10314 56000 57901 58003 83915 80959=
96109 32960 30000 10310 20246 30021 40060 52007 81041
333 10345 56000 58001 81363 83080=
96145 32467 51405 10302 20244 30060 40065 51007 83201
333 10350 56400 57843 59002 83817 83070 80859=
96179 32460 50000 10290 20264 30046 40083 52006 83201
333 10322 56000 57803 58004 83817 80850=
96221 32560 40000 10304 20249 30065 40080 52006 81102
333 10340 56009 59010 81825 84080=
96249 01460 70000 10246 20236 30015 40074 52011 60091 70296 84932
333 10322 56000 57902 57802 59007 60027 81917 83820 80981=
96253 31458 70000 10280 20251 30051 40072 52018 71492 84972
333 10314 56000 57900 81915 83623=
96295 31460 70905 10264 20228 39992 40096 51013 71792 84821
333 10340 56000 57901 57601 59006 59009 82915 82615 80962 80662=
96509 32460 70000 10260 20254 30060 40067 52012 84231
333 10327 56000 57801 59007 84847 80857=
96633 31457 81508 10287 20247 30062 40070 57019 71321 85971
333 10318 56609 57962 82922 80980 84617=
96655 11458 72005 10270 20253 30052 40080 52011 69911 70262 85572
333 10334 56600 59022 85612=
96685 01458 71104 10269 20241 30046 40073 52013 60031 71562 84871
333 10324 56000 57802 60037 59017 83615 81818 80862=
96749 36557 72109 10262 20237 30073 40087 53027 83521
333 10320 56000 59006 83625 85462=
96805 32559 51607 10288 20251 30065 40075 51008 83211
333 10320 56000 57801 59021 83820 80860=
96839 31557 70000 10275 20238 30075 40080 51016 71799 84932
333 10337 56000 57902 59014 82920 80981 83822 80860=
96933 32560 31003 10290 20339 30070 40077 57002 81221
333 10320 56000 57206 59022 81820 80850=
97014 11560 20000 10250 20240 39994 40089 52019 70196 81511
333 10322 56000 57010 81630=
97028 31564 40000 10266 20245 30056 40062 52017 71321 84911
333 10322 56000 57902 57804 59008 81920 82620 80960=
97048 01458 60000 10250 20238 30054 40078 53013 60061 71362 84931
333 10326 56000 57904 59006 60027 81918 83620 80980=
97072 31458 72103 10280 20245 39999 40101 51021 71792 84971
333 10360 56000 57901 57801 58003 82918 80959 82819 80859=
97086 01458 70000 10252 20237 30070 40093 51016 60021 76162 84270
333 10300 56000 57000 59006 60027 84617 86460=
97120 31460 60911 10290 20229 30040 40073 52014 71522 83931
333 10314 56000 57902 57804 59018 81917 83360 80980=
97180 32558 33602 10272 20226 30055 40073 52008 81502
333 10326 56000 59012 81620=
97192 01456 81003 10252 20237 30041 40106 52009 60011 71562 8622/
333 10314 56209 57824 59010 60017 86817 88460 80856=
97230 32560 41110 10282 20247 30075 40078 52010 82131
333 10300 56200 57802 59015 82820=
97260 31558 31404 10260 20227 30075 40082 52019 70511 81501
333 10322 56000 59010 81620=
97270 31450 40000 10268 20235 30090 40094 58021 70521 84811
333 10318 56000 57800 59010 83815=
97340 32560 71008 10261 20229 30097 40108 52013 81272
333 10302 56000 59005 81620 86460=
97430 32560 42304 10254 20234 30056 40086 52016 82231
333 10306 56000 57800 59012 82820 80860=
97600 11458 71510 10278 20252 30089 40103 53018 60021 70262 83271
333 10314 56300 57833 58011 83817 86459 80857=
97900 32558 70914 10263 20208 30086 40117 55000 85220
333 10302 56200 57821 59004 85820 87460 80873=
94151 35/// /2017 10234 30128 40148 52010=
94290 35/// /1419 10219 30162 40169 52011=
96001 01458 82610 10244 20227 39943 40087 56018 60021 70262 84522
333 10298 56600 60017 84619=
96015 01450 73313 10262 20247 30074 40080 56006 60041 76196 85974
333 10302 56700 57972 59007 60047 82916 83617 80970=
96033 32460 73408 10294 20245 30056 40062 52005 83976
333 10311 56000 57902 57802 59017 81920 83618 80980 80860=
96075 11458 52405 10282 20243 30084 40094 52009 69901 70596 82271
333 10308 56000 57802 58011 82819 80858=
96171 32560 50000 10288 20254 30037 40062 51007 83521
333 10320 56000 58003 83622=
96525 32460 40000 10264 20252 30067 40074 52028 70292 83431
333 10339 56000 59013 83615=
96529 31458 50907 10284 20266 30060 40084 53012 71811 84971
333 10340 56000 57971 59025 82917 80980=
96559 01450 60000 10286 20269 30029 40066 52014 69981 71362 85930
333 10328 56800 57983 57884 59008 69987 81913 84811 80972 80857=
96595 01450 70000 10258 20232 30023 40070 52014 60081 71762 86932
333 10336 56000 57900 59015 60087 82917 84615=
96607 31457 71303 10270 20238 30075 40089 53003 71392 84921
333 10332 56000 57964 59015 81920 84618 86857=
96695 31460 42008 10274 20246 30073 40078 53010 71311 83921
333 10315 56400 57901 57841 59020 81912 82817 80970 80858=
96737 01456 70000 10292 20243 30047 40097 52010 69901 76096 85271
333 10328 56000 57801 59012 69907 85817 86460 80860=
96751 01530 83002 10210 20203 39040 48920 60051 79196 889//
333 10268 56699 57961 59005 60057 79999 82920 86620 80980=
96783 32558 40000 10251 20200 39207 48791 52015 83501
333 10308 56000 57600 59002 83628 81080 80680=
96797 31457 70000 10290 20253 30070 40074 52009 71522 85971
333 10310 56000 57942 57841 59006 81918 80981 84820 80880=
96935 32560 21010 10290 20238 30074 40080 52013 81101
333 10316 56000 59010 81820=
96987 31457 70000 10274 20245 30032 40091 52006 71522 86908
333 10312 56400 57942 59011 82918 84618 80980=
94129 35/// /1708 10251 30102 40125 52006=
94210 35/// /1704 10201 30142 40147 52013=
94289 35/// /1225 10228 30145 40154 52009=
94307 35/// /1005 10220 30145 40185 52022=
94371 35/// /1612 10187 30178 40184 52007=
94379 35/// /1708 10184 30170 40179 52009=
97008 11560 40000 10260 20245 30072 40119 52020 69911 70162 82532
333 10296 56000 58005 82620=
97016 11562 50000 10256 20244 30084 40086 53014 69901 70562 82232
333 10/// 56000 57801 59007 82820 80860=
97126 31450 80000 10264 20237 39999 40058 62017 70522 84920
333 10314 56000 57901 59012 82915 82615 87460 80980=
97182 32458 33005 10292 20249 40074 52015 83200
333 10327 56000 57800 59014 83819 808//=
97240 31458 31505 10270 20244 30067 40087 52017 70521 82131
333 10314 56000 57801 59013 82816 80860=
97310 32558 30000 10286 20217 30077 40087 52012 83201
333 10320 56000 57802 59008 83820 80830=
97722 01463 50000 10238 20235 30096 40111 52010 60041 72162 83932
333 10298 56000 57903 59004 69927 81919 80981=
80214 01960 20000 10206 20188 60014 7050/ 81031
333 20186 30/// 50180 55012 56/00 81360=
80222 11568 50502 10121 20097 37515 60014 70522 81806
333 20104 30/// 55005 562/9 59012 81520 85070=
80234 02962 40000 10206 20192 39600 40090 60114 83032
333 20196 300// 50100 55011 56/23 59023 69922 83359=
80315 01258 50000 10226 20213 39588 40078 60054 7052/ 82650
333 20218 31/// 50230 55022 5609/ 59020 60042 82704=
80342 11558 60000 10160 20158 38213 60020 74142 83430
333 20154 31/// 50290 55018 5633/ 58000 83620 83357=
80370 11458 70000 10086 20083 60054 7402/ 87400
333 20078 31/// 50210 55025 562// 87615=
80398 12460 69901 10245 20237 30003 40098 60034 84831
333 20228 30/// 50410 55074 56000 59019 84812 83070=
82184 22698 60902 10262 20242 30092 40110 86230 333 20247
59012 60044=
83334 32998 41404 10246 20152 3//// 4//// 80008 333 20152 5////=
83383 32598 23202 10208 20164 3//// 4//// 82041 333 20145 5////=
83384 32998 00000 10206 20162 39555 40140 333 20150 59012=
83386 32998 62302 10192 20142 39592 40148 80006 333 20125 59008=
83388 32997 60000 10254 20139 39424 40093 80008 333 20172 59016=
83393 32996 60000 10234 20195 39407 40176 80006 333 20163 59009=
83437 31997 22701 10200 20150 39398 40118 70540 80004
333 20142 59013=
83442 32997 00000 10208 20162 39782 40127 333 20160 59010=
83479 32597 21804 10212 20172 39346 40142 82100 333 20170 59008=
83483 32998 12305 10213 20174 39545 40134 80009 333 20155 59010=
83488 32596 11402 10183 20144 39113 40124 81100 333 20122 59004=
83492 31497 80902 10210 20191 39756 40143 71021 8862/
333 20170 58009=
83514 32997 01803 10208 20142 39455 40151 333 20165 59004=
83531 32597 22701 10186 20160 39076 40155 82100 333 20141 59008=
83538 32998 00903 10202 20139 38717 40137 333 20146 59006=
83543 32597 82704 10230 20200 39974 40147 88700 333 20219 58011=
83570 32996 00000 10187 20162 39358 40136 333 20140 59004=
83574 32998 00904 10168 20115 39523 40145 59006 333 20124=
83577 31/92 90504 10154 20151 39289 40150 74540 333 20120 59005=
83579 32997 00902 10176 20166 39012 40150 333 20132 58000=
83582 32594 21801 10156 20148 39372 40146 52013 82100 333 20085=
83592 22597 82704 10185 20174 39454 4//// 885//
333 20/// 58012 60024=
83595 21596 81802 10210 20195 30058 40143 70362 885//
333 20210 58015 69924=
83642 22496 63204 10176 20145 39363 40144 51024 86200
333 20147 69924=
83683 31997 00501 10120 20090 39162 40151 52022 70040 333 20052=
83687 31/96 93606 10186 20115 39128 40146 53010 74544 333 20082=
83692 32397 61406 10136 20111 39118 40187 53011 86200 333 20099=
22271 42582 71505 10028 20027 30183 40193 53001 87500=
22550 42597 71404 10196 20080 40149 40159 58009 82531=
22583 42984 23602 10175 20053 40104 40180 52001 80002=
22768 42997 11801 10223 20056 30115 40167 57010 80001=
22845 42698 22103 10236 20130 40141 57010 81201=
22887 42670 39902 10200 20036 30115 40181 57006 81101=
23205 41584 60304 10059 20011 30193 40208 54000 70282 81101=
23418 42970 13505 10105 20009 30113 40185 51001 80001=
23711 42598 23404 10125 20038 30005 40171 52003 82100=
23804 42999 20302 10190 20064 30032 40172 54000 80001=
27037 42674 31503 10245 20125 30005 40154 58004 81101=
27199 42998 03302 10201 20038 40168 54000=
27271 42998 59902 10214 20038 30031 40177 57002 80001=
27459 42998 21002 10219 20061 39991 40175 58005 80001=
27730 42965 01901 10283 20095 39979 40157 57008=
22165 42571 71809 10016 21013 30125 40178 57003 87500=
22471 42984 70000 10148 20056 30154 40177 58008 87030=
22954 42682 31603 10239 20113 39919 40150 58005 82101=
23412 42998 10204 10090 21005 30098 40193 52008 81030=
23803 42999 33203 10184 20053 39991 40160 58002 83060=
27066 42998 23201 10213 20036 30014 40181 57005 80002=
27083 42899 50102 10205 20053 39959 40168 58005 80001=
27113 42697 22203 10259 20141 30008 40143 58005 82100=
27242 42984 30000 10244 20102 30043 40162 58007 80001=
27329 42577 21202 10268 20141 30035 40151 57006 82200=
27355 42984 01802 10218 20090 30034 40188 52001 85032=
27373 42999 10305 10212 20034 39963 40167 58003 80001=
27665 42984 70802 10208 20074 39920 40174 58001 8705/=
27823 42982 01702 10269 20071 39926 40165 57010=
28009 42698 53604 10199 20038 39957 40155 85200=
28411 42797 63508 10186 20071 39949 40135 52004 86401=
22282 42580 60705 10016 21006 30192 40200 52001 82531=
22292 42980 60803 10078 20000 30192 40197 58002 81036=
22365 42481 70903 10062 20038 30153 40180 58012 82230=
22438 42979 60801 10123 20076 30112 40133 57003 86030=
22641 42684 61903 10214 20104 30118 40133 57008 86201   333 86833=
22695 42784 33102 10188 20050 39994 40180 51001 83200=
22854 42584 21604 10235 20085 39878 40145 58009 82100=
22867 42989 21402 10238 20093 30057 40162 58006 80001=
22939 42797 61203 10254 20143 39988 40138 58008 82201=
22996 42970 33104 10207 20032 39995 40173 58004 80001=
27051 42965 01802 10227 20053 30015 40171 57004=
27225 43582 51604 10275 20169 30028 40148 58004 85200   333 85822=
27252 42584 30502 10230 20098 39992 40165 58012 82202=
27369 42999 30702 10225 20081 30055 40184 52004 80001=
27393 42598 20202 10202 20046 30011 40169 58002 81101=
27479 42999 12702 10222 20043 30046 40171 58005 80001=
27532 42597 63103 10263 20145 39956 40152 56006 84350=
27648 42562 70801 10259 20148 30001 40156 57008 875//=
27679 41975 83402 10213 20086 39976 40186 52011 70262 88040=
28214 42599 73103 10195 20051 39947 40145 52002 86201   333 86830=
41530 31695 71820 10380 20175 49929 70722 85330 333 10430 56990
58000=
41640 31995 12305 10411 20161 39714 49941 70600 80001 333 10413
59001=
41675 31996 31813 10425 20167 39813 49943 70710 80001 333 10432
56009 59012 83070=
43063 32597 72503 10284 20195 39438 40046 84831 333 10339 58023 83628
83356=
31561 11496 83508 10018 20013 49923 52012 60010 76986 8872/   333
10116 86512 91016 91118=
32010 11295 80713 10020 20020 49884 53010 60290 78482 889//   333
10030 87706 91018 91121=
23966 11397 81102 10126 20097 39906 40023 52007 69952 72582 889//
333 10135=
43311 32597 42706 10310 20266 40077 83801 333 10326 58013 83620=
29313 11598 80602 10160 20153 39805 49917 52003 60182 72582 86932
333 10169 86928=
40001 32570 31302 10348 20026 40040 57009 83200 333 83826=
40007 32570 22907 10324 20072 40061 58013 82100 333 82830=
40045 32970 03203 10350 20057 40079 57008=
40061 32970 12503 10332 20035 40065 57014 80001 333 81070=
40080 32965 00602 10315 20027 39402 40075 57020=
40095 32970 00104 10309 20060 39481 40084 57014=
29524 11484 82303 10146 20128 39796 49940 52011 60032 72582 87901
333 10186=
29209 11598 70000 10163 20132 49929 52008 69992 70282 86962   333
10172=
91165 32966 00615 10233 20189 30125 40174 58014 91153 333 20228
555 92912=
91182 12666 20611 10239 20183 30159 40164 58016 69901 91153 333
20233 70005 555 92912=
91190 32966 00511 10222 20178 30135 40164 91154 555 92912=
91212 32566 20809 10278 20250 30028 40128 53013 91154 333 20278
555 92912=
91285 12566 62205 10206 20172 30159 40171 58018 69901 91153 333
20206 70036 555 92912=
91334 11474 80610 10276 20268 30097 40100 51012 69901 70282 83201
333 10320 56112 59011 555 92912=
91366 11469 60616 10271 20246 30088 40097 50000 60031 71581 81871
333 10307 56137 59005 70028 555 92912=
91413 11466 70508 10278 20250 30083 40102 52019 69901 78082 83271
333 10317 56199 59012 70015 555 92912=
91765 11566 82806 10246 20229 30095 40098 56008 69901 70262 8542/
333 10296 56799 59004 70213 555 92912=
91245 32966 00715 10270 20250 30150 91150 555 92912=
34824 42997 21004 10299 20133 30120 40125 57012 80001=
41523 32996 50000 10367 20172 48445 82022 333 10385 59004=
41508 12696 70000 10294 20194 48451 60052 84530 333 10295 58006=
41600 31994 02302 10410 20166 39670 49938 70600 333 10432 59004=
41678 31995 02310 10444 20103 49959 70600 333 10455 59001=
41536 31696 21803 10367 20067 48432 70590 82100 333 10381 56900
59004 82840=
41506 32797 3607EE 73607 10278 20144 48417 84520 333 10336 58020=
41700 31996 01817 10415 20163 39827 49945 70700 333 10420 59030=
34838 42697 21004 10283 20103 30043 40132 57013 82200=
37031 42997 21003 10273 20086 39944 40124 57013 80001=
37018 41598 62303 10241 20175 30083 40131 57005 71722 82980=
42314 21395 80203 10224 20221 40058 76066 8532/ 333 10236
57940 58020 6005/ 82708 84618 81925 88459=
42516 21495 72303 10176 20151 38359 48452 70365 82442 333 10226
58008 6003/=
98431 31457 81402 10286 20249 40080 51005 70242 8387/
333 10330 56999 58001 83616 88459=
98536 11460 82104 10260 20233 40093 53023 60011 70286 8327/
333 10297 56599 58021 83818 88357=
98646 11460 50402 10283 20256 40113 52016 69921 71798 82930
333 10318 56999 58008 82918 83360=
98747 11458 82201 10240 20236 40101 52024 60161 76198 8662/
333 10324 56999 58019 86715 88458=
98753 31465 82502 10266 20236 40104 52042 71794 84977
333 10323 56999 58019 84915 85359 88279=
42189 32996 03203 10395 20221 49944 333 10412 59002=
29756 11599 72804 10195 20078 40026 53007 69932 70282 85902   333
10253 91115=
29962 32599 71901 10243 20093 49984 57011 82471   333 10255=
48820 11598 80503 10271 20228 30043 40051 52019 69942 71792
889// 333 01027 10326 58012 70282 84895 88995 96013=
48826 32597 71404 10276 20269 39919 40046 53010 83908 333
00031 10328 58012 70000 83995 84299=
48839 32998 71806 10279 20268 39987 40051 53011 80008 222//
2//02 333 00/// 10308 58006 70000 87299=
48845 32598 61103 10294 20245 30035 40042 52019 82908 333
00031 10343 58004 70000 82995 85299=
48848 31598 71402 10293 20271 30046 40054 52020 70392 82208
333 00031 10336 58003 70000 82895 87299=
48855 32598 71101 10272 20267 30056 40064 520147 83208 333
00032 10327 58013 70000 83895 87299=
48870 12498 61801 10300 20278 30057 40064 53012 60072 868//
333 00031 10336 58013 70198 82894 84696=
48877 11598 62702 10271 20233 30066 40071 51011 69922 71382
82908 333 01027 10325 58012 70002 81995 82697 86299=
48887 11698 83202 10258 20232 30073 40079 52024 60072 71398
889// 333 00026 10352 58015 70067 82996 88696 555 20247=
48900 11496 81201 10257 20246 30056 40066 52017 60222 79596
8692/ 333 58007 85894 83994 85499 555 20251=
48914 11598 80000 10287 20256 30070 40072 53006 69902 70386
889// 333 01027 10335 59003 88995=
48917 12598 72704 10297 20255 30063 40068 53008 69912 85208
222// 00307 2//01 333 00/// 10313 58003 70001 85895 87299=
48918 12498 72901 10278 20240 30060 40071 53009 69902 82908
222// 00293 20000 333 00029 10317 58002 79999 81894 82995
87299=
20046 42375 82506 11037 21062 30204 40232 54000 886// 333
88607=
20069 32576 70000 11034 21074 30227 40240 54000 875// 333
11031 87627=
20087 31479 70208 11046 21062 30212 40223 52006 73632 8553/
333 11043 85611=
20292 32480 70702 10003 21017 30182 40201 52002 875// 333
10009 87614=
20667 41497 80508 11009 21025 30196 40204 52013 70232 885//
333   91111=
20674 11263 80206 11010 21019 30063 40122 52001 69932 8577/
333 10001 85704 91112=
20744 42498 72102 11003 21036 30222 40240 52001 87500 333   87619
91104=
20891 32997 51104 10063 21061 30103 40143 58005 82031 333
10085=
23022 41497 80204 11020 21035 30171 40232 52012 70282 885//
333   88611 91107=
23032 41350 82906 11005 21014 30171 40203 52016 71082 886//
333   88707 91110=
23256 41299 83303 10051 20046 30075 40108 52012 70262 885//   333
84706=
23330 42598 60305 10070 20011 30145 40163 52011 82531=
23552 42997 20702 10209 20041 30025 40056 54000 80001=
23631 42599 73509 10091 20043 30083 40123 52015 87500   333 87620
91012 91114=
23849 41596 70504 10174 20146 49989 52009 72922 83930=
23933 42597 80305 10219 20099 39951 40005 52012 82201=
28275 42599 80104 10168 20138 39898 49954 53008 70282 82902=
28493 41499 83203 10158 20135 39843 49928 52008 72582 889//   333
86919=
28698 41598 42403 10201 20132 39789 49929 52004 71792 82931=
23929 RWTIQ UEYPY QPQIO WPPIW RPPRR TWPQT IYOTP EEE IYOWPV=
28383 41598 70302 10165 20134 49937 52008 70282 82940=
28465 41580 63404 10167 20142 49960 52008 70298 85931=
28588 41582 63305 10174 20103 49926 57002 70282 86901=
28688 41598 72703 10193 20098 49932 54000 70282 83343=
28696 41599 82208 10187 20114 49938 53002 71798 889//   333 88922
91115=
28791 41599 62704 10186 20125 49932 57006 70298 82905=
29367 11484 80201 10162 20148 39796 40006 57003 60062 72582 87907
333 10182 87914=
30117 11960 83602 10075 20045 39589 40064 53010 69902 70282 83071
333 10121=
23426 42589 80309 10074 20041 30139 40162 52015 880//   333 91012
91115=
23625 42599 50702 10128 20045 30106 40138 52021 85900=
28367 41596 70203 10159 20136 39855 49974 52010 70298 87300=
28382 41598 80203 10158 20140 39870 49935 52009 72582 85930   333
85922=
28481 41598 60302 10168 20130 39843 49934 52001 70262 86302=
28491 41598 70302 10161 20132 39821 49922 52005 70282 87500   333
87620=
28573 41559 62502 10168 20132 39839 49934 54000 78098 83930=
28593 41482 82704 10192 20126 39837 49925 52001 79198 86901=
28786 42598 72902 10184 20099 39794 49937 57007 84302=
28797 42597 72303 10194 20099 39795 49938 57004 85301   333 84922=
28799 41598 72003 10208 20114 39813 49944 54000 71798 86901=
23662 42999 01204 10203 20009 30014 40052 57002=
23788 32998 10903 10186 21014 39986 40059 52004 80001   333 10185=
23986 32999 71004 10148 21036 40049 57003 82031   333 10151=
29149 11597 81001 10131 20125 49998 53008 60092 79598 889//   333
10167=
36087 32599 70000 10254 20051 40129 57003 84902   333 10257 95000=
36096 32699 31001 10244 20050 49979 57006 81101   333 10245 95000=
36103 32699 20000 10230 20050 49993 56002 82900   333 10230 95000=
36231 11599 20000 10122 20061 40083 53044 60042 70191 82400   333
10207=
36259 31599 82516 10159 20019 38142 48392 53007 71522 86902   333
10181 91120=
36307 32999 21801 10219 20015 38806 48409 57006 80001   333 10223=
41024 32960 03214 10354 20210 30018 40037 333 58002=
60402 32570 11208 10250 20187 40193 50000 81200
333 81820 95900=
60419 32975 02706  10271 20103 40186 57007
333 0//00 95900=
60475 32775 13410 10256 20059 39269  48560 58001 81100
333 81850 95900=
60611 42960 03604 10301 20160 40168 58005=
60670 32975 20912 10349 20100 39074 48550 50000 80002
333 82073 94900=
60680 32759 31214 10335 20046 38660 48529 50003 82230
333 82856 95900=
23219 42598 53603 10066 20019 30088 40192 52010 85200   333 85829=
41943 32450 61307 10284 20230 30041 40050 83520 333 10285 56390 58001
70030 83615 86458=
41950 32450 70000 10294 20240 30011 40015 85420 333 10314 56490 58007
70206 83618 86460=
24944 12699 69901 10135 20056 39792 40062 52005 69902 83531 333 10193=
38954 42899 83306 10212 20155 37920 48470 56003 84901
qppwuv
eitoo NIL=
38933 42997 20000 10344 20131 39562 40024 58021 82080
qpprrv
eioeu NIL=
60640 32957 00410 10325 20153 40138 58018 =
43314 32597 22904 10310 20254 40084 81101 222// 21001 333 10320
58010=
48802 11397 33203 10203 20181 38380 53006 60012 70361 83200
333 01020 10277 59001 70021 81893=
48831 11496 80000 10285 20268 30006 40042 53011 60082 79598
889// 333 01028 10298 58003 70127 83894 88995=
48838 11498 70000 10286 20272 30051 40057 53007 60112 70398
879// 333 01028 10306 58003 70106 83894 87995=
48863 32598 71402 10288 20270 30054 40063 53015 84908 333
00032 10328 58013 70000 81995 84697 86299=
48866 11598 70000 10211 20208 39225 40099 53007 60162 71398
879// 333 01022 10300 58005 70160 86995 83697 555 20205=
48532 01457 80000 10270 20244 30062 40071 60052 71062 85876
333 10321 59004 69925 70053 =
15480 32560 11402 10240 20173 30122 40137 57011 81200 222// 00168
2//// 333 92427=
16641 32570 23006 10272 20151 30118 40123 54000 82200
333 90730 91117 555 40000 47622 44235 50000 50198=
40356 32960 02804 10330 21020 39131 48487 333 58002 555 04410
50047=
40361 32960 02204 10360 20030 39328 40048 333 59001=
40375 32960 03403 10348 20040 39229 40054 333 58010=
40400 32960 03007 10298 20260 30020 40047 333 59014=
40405 32960 00904 10398 20000 39328 40017 333 58024=
40416 32960 03610 10360 20160 39993 40012 333 58017=
40439 32960 02707 10384 20200 30022 40034 333 59004=
40785 32962 00302 80338 20053 38970 40012 57026 91150 333=
41036 32960 01002 10370 21030 38522 48472 333 59001 555 04410
50023=
41136 32960 00404 10430 21030 39230 49989 333 59005=
44259 32698 70908 10177 20027 39170 40003 52013 85960 333
10247=
44292 21699 30000 10135 20050 38558 49980 52033 60052 70198
83200 333 10228 91114=
44304 32599 71402 10206 20043 38796 49905 56026 83940 333
10259=
42369 31996 03204 10400 20190 49952 70600 333 10420 58001=
42647 32596 62301 10376 20208 40023 84831 333 10388 56599
58021 82625 83830=
42724 22596 60000 10288 20248 40038 83331 333 10306 58008
6990/ 82620 81930 85070=
42737 21496 72306 10308 20272 40024 75092 84931 333 10374
57950 18026 6990/ 81715 83625 81940=
42809 21995 51802 10296 20251 40006 70562 81031 333 10310
58008 6990/ 81360 84075=
42867 32596 63206 10356 20193 49997 84320 333 10395 58026
84620 81930 85458=
43003 32596 52004 10310 20240 40054 84801 333 10331 58016
82620=
43117 32597 62701 10330 20219 40022 85401 333 10340 58006=
43128 32597 52704 10360 20201 39428 40004 83531 333 10379
58002 83620 83070=
43185 31596 41401 10334 20227 30017 40020 72992 83301 333
10427 57982 58014 82620 81825 81925=
43192 21496 62303 10298 20253 40072 70562 83402 333 10306
58013 6993/=
43233 32498 62505 10304 20191 39252 40034 82932 333 10323
57931 58005=
43279 32597 31804 10334 20237 30019 40036 83301 333 10390
57962 58011 81620 83825 81930=
43284 32597 32703 10300 20243 39964 40077 82101 333 10320
58009 82825=
43295 32497 62702 10302 20167 39056 48483 84332 333 10322
56699 57981 57923 58001 82616 83822 81930=
43321 32497 52305 10318 20208 39611 40044 83931 333 10352
57913 58004 83615 81925 83358=
43344 32597 43601 10374 20187 39944 40039 83901 333 10382
57912 58008 82825 81930 83075=
43371 32597 52702 10304 20225 30010 40082 83802 333 10348
58019 82620 85075=
44241 32699 63607 10170 2055/ 39097 49999 52016 83241 333
10240=
44272 11698 20000 10145 20029 38140 49993 52006 69912 70192
82300 333 10165=
44284 12699 63607 10103 21007 37784 40002 54000 69922 86500
333 10120=
44287 32599 73605 10151 20050 38032 49972 53015 84540 333
10170=
44314 32698 70910 10176 21038 38992 49990 52005 87700 333
10271 91014=
44352 11596 83607 10226 20023 38770 49938 53010 69902 72132
887// 333 1029/=
98223 31565 12201 10288 20255 40097 53010 70544 81100 333
10340 56999 59019 81820=
98328 31458 71802 10206 20192 38506 40070 53013 71394 85900
333 10256 56999 59004 81912 81813=
98543 31460 81401 10280 20252 40093 53021 71322 83907 333
10333 56999 58012 83915 88272=
98618 11468 70000 10200 20242 40098 53012 60021 70566 82278
333 10300 56999 58006 82819 84458 87272=
98637 11465 50000 10250 20236 40094 53019 60101 70198 82278
333 10310 56999 58007 82812 83358 86272=
98755 32575 80901 10292 20261 40098 52020 83207 333 10260
56999 58020 82615 88359=
26850 42665 61806 10283 20073 39821 40071 57011 85201 333
91011 91113=
33008 42670 72504 10241 20128 39911 40077 58003 86830=
37054 42698 51105 10247 20114 39760 40118 57012 83130=
44219 32698 62505 10223 21014 38515 49995 58002 82282 333
10228=
44221 32699 30000 10145 20082 38486 40030 53002 83200 333
10192=
44224 12698 50000 10134 21027 37997 40033 54000 60052 84200
333 10140=
44242 32698 43605 10180 20019 39158 49993 52010 83440 333
10221=
44243 32599 40506 10184 20050 39236 49998 51010 84200 333
10221=
44254 32598 70504 10130 20011 38908 40007 53007 83270 333
10174=
44257 32598 73608 10156 20015 38845 49994 53019 86801 333
10224=
44329 32598 23210 10142 20048 37698 40183 52019 82540 333
10165=
44348 32597 83212 10201 20053 38555 49948 57007 8802/ 333
10271=
44225 11696 80000 10092 20046 38198 40068 52020 60062 76382
885// 333 10170=
44256 12999 70205 10129 20041 39218 40025 56002 69902 86532
333 10162=
44265 32999 62704 10214 20062 38753 40026 53004 80002 333
10241=
44275 11698 63604 10093 20011 37679 40033 52016 69912 71562
86500 333 10162=
44302 32599 70709 10175 20006 38944 49957 53021 87500 333
10256=
44313 32699 80904 10168 21009 39232 40003 53006 8377/ 333
10222=
96237 11457 80000 10276 20250 30033 40074 52011 60061 72996 85282
333 10328 56000 57802 59003 85618=
96581 31458 70902 10283 20253 30080 40087 52022 72992 85931
333 10345 56600 57962 57862 58000 81912 85813 80980 80862=
98232 31465 40904 10296 20253 40083 53015 71344 83230
333 10322 56999 59020 83819=
98653 11470 81802 10274 20249 40092 56017 69961 70598 8297/
333 10360 56999 59003 82918 88358=
98741 11460 80000 10261 20246 40082 52010 60011 70282 8327/
333 10276 56999 58004 83818 88358=
12375 11460 82605 10130 20117 39988 40116 52008 60031 78082
873// 333 83812=
13272 32770 72909 10258 20150 39990 40102 51001 84208=
10432 56009 59012 83070=
42410 21496 80000 10250 20232 40038 70562 8352/ 333 10270
58020 6998/ 83618 88456=
42492 32996 40902 10320 20258 49988 82031 333 10328 58018
82360 83075=
42634 32596 52005 10358 20211 40017 83831 333 10380 58008
82625=
42886 32596 41803 10400 20211 49970 82401 333 10437 58006
81620 83075=
42895 22496 71803 10306 20270 40003 85630 333 10324 58019
6990/ 82712 85620 87360=
42934 21596 82303 10256 20227 40056 7//// 8532/ 333 10405
58060 6002/ 82620 83830 86458=
42971 32596 51805 10340 20271 40002 81031 333 10394 58007
81360 85075=
43198 32497 62706 10270 20196 39251 40060 84831 333 10296
56699 58012 83615 83820=
43201 32497 62303 10292 20204 39346 40045 84801 333 10320
58009 81618 83822 85075=
43213 32597 52701 10374 20187 39714 40016 84802 333 10377
56609 58003=
43329 32597 61402 10326 20262 30028 40041 83338 222// 20501
333 10380 57962 58009=
43353 32596 42904 10310 20238 40086 82901 333 10328 56709
57932 58012 81620 81925 83075=
43369 22597 72703 10312 20271 40089 84430 333 58011 6990/
83620 85360=
21802 11497 80405 11017 21034 30129 40152 57006 69902 77122
8802/ 333 11005 88510=
23274 32998 71704 10163 20011 30059 40956 58007 85031 333
10170=
23383 32999 53602 10111 21027 39782 40113 58003 80001 333
10119=
23472 32999 70902 10171 21025 30050 40095 57005 80001 333
10173=
23678 32998 00704 10195 21017 30018 40072 53002 333 10197=
23884 32984 21504 10207 20013 39978 40045 56001 80001 333
10207 91110=
23891 32998 20704 10159 20023 39767 40074 57008 80001 333
10162=
25400 12999 73606 10056 21018 30111 40164 57001 87030 333
10096=
29253 11497 80902 10106 20104 39855 40017 52006 60132 76186
8872/ 333 10130=
29263 11498 80904 10097 20085 39947 40042 58002 60122 72582
8695/ 333 10105=
29282 12598 81003 10136 20025 39910 40067 52006 60012 86901
333 10137=
85930 333 10208 85934=
35067 41598 5//// 10153 20046 39744 40001 53004 70182 82260=
16716 32562 11805 10252 20190 30102 40119 57007 81100 333
90730 91123=
16734 32570 12906 10234 20184 30062 40123 54000 81200 333
90730 91115=
16754 32565 30404 10242 20175 30061 40106 57013 81270 333
90730 91113=
15420 32570 41402 10285 20098 30001 40103 57018 84200 333
91004 91203=
15614 31697 61404 10243 20132 39430 40088 57017 71791 85901=
87619 91104=
10005 88706=
10044 88716=
24982 32999 10302 10102 20019 39607 40076 57001 80001 333
10162=
25325 32999 00205 10042 21078 30010 40168 53002 333 10086=
30777 32998 51602 10167 21025 39429 40027 53003 80002 333
10200=
31174 11398 83505 10021 20016 30021 40032 52005 60260 70276
886// 333 10035 12003=
31263 /2598 83001 10101 20064 39500 40049 52019 8257/ 333
10102=
31624 32599 32702 10112 20029 49940 52012 83900 333 10191=
23074 41898 81603 10073 20017 30072 40096 54000 70262 8807/
333 10095=
24125 11599 80204 10002 21033 39857 40130 58002 69902 70282
889// 333 10018 88920=
24143 32999 00000 10077 20021 30050 40097 52006 333 10083=
24343 32799 21102 10113 21078 39977 40089 54000 81502 333
10116=
24738 32699 61101 10156 20043 39891 40057 57002 85201 333
10191=
24951 11999 70000 10118 20080 39918 40060 52009 69902 70282
85042 333 10182=
24959 12599 80502 10145 20099 39952 40072 52009 69902 84431
333 10162=
24966 32999 81901 10143 20056 39862 40063 52011 80001 333
10195=
29698 11698 63401 10218 20143 39531 49992 56001 69902 70282
82942 333 10253=
32027 11497 83609 10028 20028 39828 49836 53006 60210 78082
889// 333 10052 91014 91116=
35406 42997 03407 10266 20067 40151 57004=
38232 42698 12903 10330 20059 30016 40105 57011 81100=
38413 42598 53207 10342 20082 39824 40085 52012 86231=
38457 42598 32001 10300 20055 39535 40070 58006 82502=
38927 32997 02607 10365 21027 39689 40086 57007=
42348 32997 02704 10416 20129 49964 333 10426 59003=
42361 32996 02701 10436 20117 49956 333 10443 59002=
42559 32997 22701 10412 20173 40/// 82200 333 10433 580//
82825=
42667 32596 50702 10388 20179 39428 49927 85300 333 10400=
42779 32597 51602 10364 20188 39317 49972 83830 333 10414
58008 82620 83825=
33345 41598 62103 10277 20104 39934 40123 57010 70391 84969=
33393 41597 81606 10162 20148 39713 40087 58004 79598 8597/
333 85921=
33837 42598 21502 10250 20107 30090 40139 58012 82100=
34300 42697 61203 10286 20112 39963 40138 57014 85130=
34560 42762 20105 10283 20103 39994 40147 57012 82100=
34866 42698 50601 10320 20115 40141 57013 85200=
34880 42997 30202 10305 20102 40137 57014 83030=
37472 42999 20603 10223 20162 30155 40132 57011 82080=
43014 32596 62504 10352 20212 39395 40009 85801 333 10354
58008 83620 83825 85075=
59001=
58003=
10359 59001=
58002=
43189 31597 41802 10354 20263 30009 40018 70192 82363 333
10417 57972 58005=
43245 32597 22701 10366 20254 30003 40025 82400 333 10414
58006=
24266 12699 42202 10085 20029 39941 40108 52003 69900 82531
333 10112=
24329 32999 33602 10069 21035 39812 40098 53015 82032 333
10126=
24507 32698 30502 10163 21025 39878 40097 53006 83100 333
10180=
24671 32999 21901 10104 20061 39620 40085 52005 85601 333
10060=
24688 32799 52902 10084 21030 39226 40086 53006 83401 333
10166=
24908 11683 30406 10142 21027 39760 40066 52004 69902 70281
83500 333 10156 91112=
29594 11599 82104 10126 20114 39673 40032 53021 60052 70192
83931 83931 333 10234=
29676 32598 60204 10196 20097 39608 49991 53016 86900 333
10257=
30054 11598 71402 10124 20032 39818 40042 57004 69962 70282
86901 333 10155=
30393 12599 60303 10079 20029 39059 40042 52018 69962 86900
333 86926=
10203=
30521 11698 52102 10205 20059 39519 49999 53004 69902 70282
82901 333 10236=
30612 32599 31202 10221 20059 39525 40005 57004 82131 333
10241=
10193=
35925 42698 43605 10306 20089 39998 40098 57015 84200=
36982 42598 73606 10058 21029 36500 47023 54000 86552=
38001 42998 03606 10262 20194 30167 40139 57012=
38353 41597 80000 10248 20162 39208 40033 53003 78082 889//=
38613 41698 80104 10191 20139 39273 40125 52006 72582 889//=
38696 32999 61103 10284 20046 39287 40069 58005 82042=
41196 32960 03405 10379 20174 39956 49993 333 58015=
41216 32962 03407 10353 20242 39985 49989 333 58011=
58020 6998/ 83618 88456=
58009 81618 83822 85075=
42101 31696 12702 10420 20161 49942 70600 81100 333 10428
59004 81840=
42131 32996 02302 10424 20123 49951 333 10449 58001=
42165 31995 02306 10414 20136 49960 70744 333 10422 59001=
42182 31995 13204 10426 20121 49932 70600 81500 333 10433
59006 81640=
42328 31995 02307 10404 20167 49975 70700 333 10420 58003=
42339 31696 02502 10404 20197 49977 70500 82500 333 10413
58000 82635=
42379 32596 60902 10308 20251 49977 84510 333 10315 58017
84625 84460=
42571 32997 03201 10430 20080 49953 333 10441 58001=
42701 32496 52903 10384 20109 39279 49956 83530 333 10406
58007 83618 83360=
42798 21596 70903 10346 20203 49993 72996 85331 333 10413
57940 58012 6990/ 82620 83825 81930 87360=
43110 21497 62302 10280 20249 40069 72065 85701 333 10310
56500 58014 6001/ 82710 83620 85822=
43333 21495 82902 10240 20225 40065 76666 8542/ 333 10274
59004 6018/ 83618 85820 87458=
41571 31696 72307 10417 20135 49921 70611 83401 333 10435
5933/ 56909 59004=
51463 32780 73404 10231 20020 39031 40070 52001 86962 333
05103=
10317 561/9 59017 70056=
55591 32780 60902 10121 20028 36544 57001 86900 333// 00340=
98440 11465 42201 10269 20261 40094 53020 69901 70181 81202
333 10317 56999 58007 81815 84079=
98630 11470 80000 10274 20258 40088 53016 60021 70288 8532/
222// 20000 333 10326 56999 58008 85918 88459=
98329 11470 61801 10270 20258 40090 5/036 69941 72584 82960
333 10345 56999 58007 82918 86357=
82100 22244 00202 20503 303// 40604 80194=
16749 32560 62702 10256 20214 30094 40107 57010 82255 333
82820 84358 90730 91112=
59004 81840=
58007 83618 83360=
87395 32965 60000 10114 20105 30113 40158 52005 86050 333 10135 20060
56050 86360=
87548 32662 73604 10134 20104 30024 40121 55000 85570 333 10134 20119
30010 56600 85640=
89014 46/// ///// 11072 21185 39369 4//// 57012
333 11072 21121=
89816 46/// ///// 11279 38464 4//// 5////=
43157 32597 62702 10283 20203 39433 40052 82431 333 10298 58012=
43309 32596 50000 10288 20266 40050 85320 333 10290 59021=
43382 32596 40000 10278 20274 40087 83322 333 10306 58002=
43385 32598 80000 10294 20260 40099 88600 333 10303 58022=
40582 31940 03217 10418 20011 40039 57019 70700 333//
00046=
41515 01697 82306 10287 20094 48419 69992 76066 8452/ 333 10352
58011 69997=
58006 83360=
58021=
80001 22214 00226 20202 328// 40202 5//// 6//// 80232=
21982 41456 80806 11008 21018 30184 40190 54000 77172 885//
333 88614 91108=
25173 41295 80402 11008 21024 30139 40143 52003 77372 8872/
333 91105=
71051 46/// ///// 11153 21154 30195 40308 53004 333 11066 21161=
63624 31682 72314 10342 20158 40085 70311 8314/
333 58017 83834 85362=
63729 32582 10903 10265 20203 3//// 48/// 81901 91150
333 55330 5//// 81824 81926=
87320 32970 71106 10130 20066 39583 40114 52017 87070 333 10162
20080 56040 87360=
98336 11460 80401 10264 20256 40090 52021 60051 76066 8352/
333 10320 56999 59009 83610 88456=
31285 11395 80000 10010 20010 40070 52006 60140 78088 889//   333
10018=
25399 41458 82011 11012 21017 30176 40180 52016 71082 85501   033
91115=
40362 32962 02702 10380 20110 39561 40049 333 58001=
40373 32960 03404 10393 21040 39646 40036 333 58018=
40430 31956 00903 10414 21020 39335 40009 70600 333 58005=
40438 32960 03605 10410 20000 39372 40029 333 58023=
41114 32560 20603 10322 20078 37954 48463 82100 333 58002
82825=
41128 32960 01004 10390 21060 38748 48460 333 59002=
41140 32960 02705 10360 20270 30010 40018 333 58003=
41150 32970 03409 10331 20204 40023 333 58019=
41194 32960 03407 10343 20246 39983 49995 333 58014=
40743 32962 00000 10348 20023 38972 40026 57029 91150=
40745 32660 21508 10314 20104 38985 40044 57016 82200 91150
333 82835=
40800 32960 00403 10348 2001/ 38382 /4960 /5701=
40809 32665 12710 10366 20038 38446 49966 56018 81100 91150=
98526 11570 80000 10270 20252 40088 52024 69921 70282 8327/
333 10296 56999 58019 83820 88358=
98748 11460 82201 10246 20/// 40093 51020 60381 76186 886//
333 10328 56999 58011 88717=
98751 11460 80000 10225 20218 39431 40104 52021 60101 76198
8561/
333 10315 56999 58021 85715 88456=
82825=
87480 32965 73404 10135 20118 30113 40143 53004 87070 333 10155
20130 56010 87360=
63150 32580 53611 10329 20080 85200
333 85235=
63160 41580 13215 10360 20350 40052 81100
333 58014 81130=
63170 32580 21408 10326 20160 82200
333 59001 82340=
83208 32970 30305 10245 20170 39428 40113 80001 333 20176
59020=
67217 32480 41412 10237 20076 38680 48542 84100
333 58018=
67237 32570 42104 10266 20152 40166 84200
333 58031=
67261 32570 31604 10290 20176 40137 83100
333 58024=
67283 32580 50000 10273 20198 40178 84230
333 58027=
67297 32580 21419 10252 20209 40174 82200
333 58027=
67315 32580 207// 10265 20188 40177 57021 82200=
67323 32580 10207 10263 20172 40172 57027 81100=
67346 32980 0//// 10290 20086 40151 57036=
42273 31995 00000 10356 20250 49967 70500 333 10356 58005=
98132 31470 51105 10276 20260 40121 53009 70544 84201
333 10303 56399 59007 84817=
98222 31575 23601 10298 20270 40077 53010 70544 81206
333 10328 56999 59017 81820=
98233 11570 31801 10290 20233 40091 53020 60021 70544 83500
333 10340 56999 58000 83625=
98324 11462 80402 10276 20260 40079 52013 60091 76196 8392/
333 10330 56999 58002 83915 88457=
98334 11470 51803 10270 20248 39885 40088 52011 69981 71398
82930
333 10320 56999 59010 82918 83358=
98425 11465 81201 10290 20248 40084 52015 60011 70292 8457/
333 10310 56999 58009 84618 88359=
98427 11475 80000 10250 20236 40095 53014 60121 78098 8357/
333 10315 56999 58013 83618 88357=
98428 31560 70902 10290 20256 40079 52016 71342 82970
333 10332 56999 58005 82920 87359=
98430 11560 60000 10271 20246 40100 53013 69921 70544 83270
333 10320 56999 58009 83620 83358=
98434 11468 60000 10265 20259 40100 53015 60021 70196 8597/
333 10326 56999 58016 82916 83618 88359=
98435 11470 60000 10260 20240 40089 52020 60011 71396 84970
333 10320 56999 58006 81917 83818 87358=
98446 32475 50901 10279 20255 40101 52016 82202
333 10300 56999 58006 82818 83070=
98447 32470 60905 10265 20245 39838 40101 53018 83202
333 10/// 56299 58014 83818 86070=
98538 11450 80000 10254 20246 40077 56004 60111 79596 83967
333 10300 56999 59020 83911 84357 88272=
98546 11575 80000 10274 20249 40106 52020 60031 70282 83267
333 10318 56999 58010 83820 84360 88275=
98548 12465 70000 10268 20249 40096 53016 69921 82208
333 10292 56999 58014 82816 84272=
98553 31468 43202 10263 20250 40107 55019 70121 84200
333 10306 56999 58008 84818=
98558 31466 80402 10272 20254 40102 5/014 70244 8297/
333 10280 56999 58001 82915 88357=
98642 11465 83204 10260 20233 40098 52027 69921 71682 8497/
333 10318 56999 58019 82915 88358=
98644 11456 80903 10280 20250 40094 53026 60011 79598 8496/
333 10328 56999 58013 84915 88357=
98752 11468 80000 10265 20245 40103 52019 69981 70198 8252/
333 10340 56999 58013 82616 88457=
98851 32470 80000 10284 20246 40084 5/023 82277
333 10322 56999 59009 82818 83358 88275=
42071 31995 22506 10416 20168 49940 70600 80001 333 10429
59005 82070=
71805 32480 80321 10060 20032 30102 40130 53014 885//
333 10082 20053 88615=
41764 32997 02114 10370 20207 39957 40004 333 10385 58016=
42479 32596 13606 10412 20175 49959 81500 333 10426 58016 81630=
41560 11696 41302 10290 20072 38224 48323 48432 69922 70299
83830 333 10346 58009=
41594 31695 71805 10430 20175 49934 70611 84331 333 10175
49934 70611 84331 333 10450 56999 59005=
41624 01595 61323 10358 20133 39728 49914 69902 72993 829//
82970 10446 59021 69907=
43181 21596 80902 10286 20249 39986 40013 79596 8497/ 333 10421
57921 58002 6012/=
16149 32480 42311 10284 20135 30091 40106 54000 84200 91145 333
84815=
71043 11783 72904 10064 20017 30131 40224 52019 69921 70282
86571 333 10130 20064 55077 01173 22226 70002 90920=
71078 11474 73408 10042 20035 39606 40038 52011 60071 70266
87800 333 10130 20041 55013 70238 90923=
71600 36159 80409 10068 20065 30098 40104 51022 333 10119
20065=
71624 32974 20303 10116 20080 39966 40176 53016 81071 333
10158 20073 55067 70000=
71749 36964 02601 10047 20047 39914 40157 50003 333 10148
21015 70000=
71863 36964 02604 10039 20032 39459 40146 51012 333 10212
20020 70000=
71877 32580 73503 10040 20029 38926 40190 53005 86570 333
10150 20034 55082 70012=
71913 37964 30203 10017 21016 39969 40005 56014 743// 333
10106 20006 70000=
71917 32786 70000 11062 21105 30246 40260 52003 87500 333
11050 21070 42007 55126 00872 22398 70000=
71940 32682 42103 10010 20005 39397 40199 53008 81571 333
10153 21007 70004=
71957 36964 01102 11045 21070 30169 40258 51010 333 10039
21053 70000=
71120 32774 13003 10026 20010 39518 40169 53014 81571 333
10147 20023 55020 70120=
71627 36964 00206 10109 20060 30157 40201 51023 333 10159
20086 70000=
71803 11366 80307 10033 20008 39992 40179 51008 69901 78022
885// 333 10105 20024 55000 70020 90921=
71811 32583 61105 10064 20038 30176 40245 51022 86570 333
10102 20049 55010 21279 70002=
71816 32474 21801 10052 20002 30194 40256 58002 81571 333
10102 21021 55113 70000=
71821 36664 30000 10115 20071 39866 40206 51010 333 10164
20022 70005=
71836 36964 01602 10079 20051 30163 40174 58005 333 10093
21009 70000=
71867 11574 83011 10081 20063 39711 40038 52028 60031 70265
85579 333 10151 20076 55008 25330 70144 90927=
71896 11382 82402 10067 20061 39372 40195 51006 60051 70182
885// 333 10128 20065 55021 70150 90923=
71909 36564 62101 10021 20002 30213 40256 56006 333 10060
21011 70005=
71915 31132 80908 11019 21019 30105 40188 58012 71044 886//
333 11021 21035 44008 55000 21694 79999=
71918 460// /0908 11048 39785 40202 56007 333 11031 21050=
71924 32974 03402 11137 21169 30202 40293 52007 333 11102
21155 42036 55197 23146 10074 79999=
71925 11466 80407 11109 21130 30232 40269 53002 69901 77177
885// 333 11082 21110 42033 55146 23727 79999 90973=
71926 11220 81005 10002 20002 30049 40072 55001 60021 75676
886// 333 10001 21003 44038 55000 10516 21956 70052 90927=
71934 11474 83504 11007 21035 39934 40192 52007 69901 70282
885// 333 10058 21012 55018 21614 70010 90962=
71938 32474 60905 11080 21105 30225 40255 58002 86500 333
11014 21085 42006 55060 70000=
71945 32983 30000 10013 21024 39724 40190 52010 82071 333
10178 20004 55107 70000=
10156 20033=
71081 36964 01803 11021 21030 30202 40213 56004 333 11006
21034 70005=
71090 36964 00702 11010 21022 30192 40227 56015 333 10006
21033 70000=
71145 32374 82204 10122 20097 39712 49995 56002 88500 333
10210 20120 70004=
71603 32574 80406 10087 20052 30108 40161 52022 885// 333
10134 20072 55083 70000=
71825 32974 00000 10066 21004 39575 40243 51005 333 10098
21022 55033 70000=
43237 32597 52705 10358 20172 39623 4//// 83308 333 10365
57912 59001 82620 81925 85275=
81080=
76680 31557 33201 10132 20105 37747 40075 52003 70544 81530
91159 333 10224 20130 31012 56110 58015 70099 81624=
78988 32486 61006 10293 20250 30114 40123 52015 82141 333
10329 20266 59010 82818 86081=
80022 31459 80502 10262 20245 30084 40086 70522 81572 333
20260 30/// 50390 55068 56099 58000 81615 83557=
16080 32560 42502 10269 20159 39970 40087 57007 84100 333
84825=
11014 21085 42006 55060 70000=
57912 59001 82620 81925 85275=
82784 32998 00502 10268 20184 39667 40136 333 20167 59009=
16045 32560 41713 10250 20169 30029 40090 58004 84200 91145 333
55310 84830=
16059 31658 23404 10223 20136 39755 40086 57012 71000 82040
333 82350=
16153 32597 30708 10234 20184 39858 40111 51003 83500 91145 333
55310 83630 555 0214/=
16191 32570 42712 10269 20136 30097 40114 55001 84100
333 84822=
16105 31459 41409 10230 20172 30090 40096 56007 71022 84300
333 84810=
16061 31956 01803 10188 20136 39278 42736 50002 71011 91145 333
55310
=
16076 31558 42602 10248 20143 39813 40079 57005 71022 82260
333 82830 83357=
16114 32975 01107 10224 20158 39449 42744 58007 91145=
16124 31430 62120 10150 20120 38939 48463 50003 72842 86200 91145
333
86810=
16021 32570 51708 10100 20013 37949 48448 51003 85800 91145 333 83825
83630=
16022 31/00 92108 10078 20078 37830 48448 51006 74744 91145 333
55300 89/00=
16033 11562 60805 10150 20093 38722 48443 57009 69961 70286 86200
91145 333 86830=
16088 32560 32706 10252 20117 39981 40092 58005 83100 91145 333
83832=
16098 31556 42405 10264 20178 30042 40090 56009 71011 84100 91145
333 84820=
16094 31559 42308 10258 20153 30028 40089 58005 71011 84200 91145
333 84830=
16108 32665 61911 10234 20159 30085 40104 56005 82570
333 82635 86358=
16119 31465 52012 10183 20137 39545 40101 54000 70241 85100 91145
333 85815=
16140 32770 49907 10270 20144 30037 40084 57010 84100
333 84856=
16110 32575 62205 10239 20159 30075 40098 58004 86860 91145 333
55308
82825 83630 555 0100/=
16134 31/03 92113 10060 20051 37814 48480 54001 74544 91140 333
55300
89/01=
16008 42575 40316 10148 20027 38482 48443 53000 84100 91145 333
84825=
16040 11560 60605 10144 20104 39208 42740 58003 69981 70262 85360
91145 333 81920 84823=
16020 11665 52010 10225 20112 39781 40056 57020 69901 79511 85300
333 82945 84850=
16066 32560 30001 10230 20119 39848 40098
57005 83100 333 83820=
16084 32562 23203 10246 20144 39930 40088 57008 82200 91145 333
55310 82825=
16090 32660 42410 10249 20160 30010 40088 56005 84200 91145 333
55308 84840=
91339 11472 80406 10267 20244 30095 40101 51017 60021 70282 8421/=
91610 31599 11008 10269 20234 40100 51001 70200 81100=
80009 22264 00293 20303 306// 40804 80225 MASTER=
43325 32597 40000 10358 20218 39733 40033 82131 333 10375
58000=
43360 32597 60205 10384 20189 39895 40037 84302 333 10392
57962 58012=
91490 31599 30000 10263 2024/ 40105 70200 81101 333 10318 569/9=
91555 31565 11102 10255 20230 40107 5//// 705/1 81100
333 10287 569// 59005 81822=
91565 32580 20000 10237 20222 40139 5//// 82200
333 10280 563// 59006 82820=
91623 31599 20804 10274 2024/ 40090 70121 82100 333 10322 562//=

5
6
2
/
9
83820=
91659 31598 21403 10238 2018/ 40125 58001 70110 82200
333 10276 569// 81825=
91680 31598 50902 10218 20198 40127 53003 70311 85800
333 10292 569// 84828=
91683 31598 30000 10208 20200 40140 54000 70121 83800
333 10270 569// 81824 83650=
91691 36/// /1704 10228 20178 40131=
91697 36/// /1404 10224 20165 40137=
91699 36/// /1708 10221 20162 40136=
91811 31599 10000 10256 2024/ 40086 70111 81100 333 10321
562//=
91843 11498 32611 10244 20201 40045 57005 69911 70128 83100
333 10264 566// 83817=
40394 32962 03401 10380 20040 38980  48489 333 58001 555 04410
50032=
40762 32965 01403 10308 20035 38510 40019 57020 91150 333=
41084 32960 01302 10402 21060 38796 48462 333 59005 555 04410
59989=
44288 32599 63610 10120 20058 38069 49992 52016 86200 333
10178 91114=
44285 11699 30000 10113 20068 38232 40016 52020 60022 70181
83200 333 10173=
44305 32999 83210 10213 20027 38885 49946 53014 8807/ 333
10301=
94120 46/// /1409 10212 20058 30102 40137=
94203 46/// /1111 10214 20041 30144 40155=
94207 35/// /0317 1//// 30140 40151 52021=
94212 46/// /1004 10132 20016 39693 40174=
94238 46/// /1207 10119 21025 39770 40203=
94287 46/// /1710 10192 20060 30166 40175=
94294 46/// /1404 10138 20036 30190 40200=
94298 35/// /1418 10220 30153 40159 52008=
94299 46/// /1424 10241 20186 30136 40147=
94300 46/// /1306 10166 20121 30167 40177=
94302 46/// /2802 10157 20117 30170 40176=
94312 46/// /1207 10182 20080 30160 40170=
94326 46/// /1504 10060 20039 39610 40245=
94332 46/// /1706 10132 21030 39806 40199=
94346 46/// /1502 10084 20022 39990 40216=
94363 46/// /0000 10084 20033 39975 40196=
94367 46/// /2308 10125 20098 30152 40190=
94394 35/// /1811 10185 30157 40165 52005=
94403 46/// /0308 10192 20016 30148 40189=
94430 46/// /0907 10134 21005 39613 40211=
94461 46/// /0808 10093 20005 39553 40242=
94510 46/// /2204 10048 20013 39857 40214=
94515 46/// /2207 10044 20019 39845 40202=
94578 46/// /2611 10108 21005 30162 40173=
94601 46/// /0514 10165 20060 30175 40192=
94610 46/// /0509 10189 20035 30180 40205=
94638 46/// /0506 10092 20055 30255 40288=
94653 46/// /1808 10142 20078 30272 40291=
94659 46/// /1910 10134 20047 30070 40270=
94672 46/// /1815 10118 20067 30245 40250=
94693 46/// /2512 10103 20073 30139 40202=
94776 46/// /3114 10089 20010 30131 40141=
94791 46/// /3005 10050 20023 30142 40149=
94802 46/// /0608 10097 20043 30150 40233=
94804 46/// /2018 10142 20088 30224 40263=
94821 46/// /2112 10072 20040 30122 40206=
94865 46/// /2418 10058 20021 30103 40128=
94907 46/// /2612 10067 20057 30066 40076=
94910 46/// /2917 10059 20045 39858 40112=
94926 46/// /3115 10061 20043 39408 40082=
94975 46/// /2313 10057 20023 30045 40078=
94983 46/// /1923 10070 20007 30026 40051=
94995 46/// /2724 10164 20064 30109 40117=
94996 41480 12404 10181 20139 39998 40127 52007 70281 81200
333 10199=
84200 22200 00152 20201 80164=
71082 36564 80801 11068 21093 30203 40244 58001 333 11065
21103 70005=
43303 32597 50000 10396 20213 39793 40022 84902 333 10406
58005=
42452 32596 32702 10418 20167 49970 83100 333 10437 59001=
60020 32975 01004 10236 20145 30150 40194 54000
333 92437=
60620 31950 00615 10375 20013 40136 58019 70700
333 0//00=
60715 32560 33206 10293 20141 30170 40175 57004 83200
333 50511 83823=
60765 32560 10602 10281 20187 30182 40188 58005 81100
333 50361 81820 =
61024 32660 42804 10394 20145 39529 40066 81202
333 0//00 58000 81840 83080 94901=
61641  32460 63506 10235 20185 30100 40133 86500
333   0//00 58000 86610=
61695  32965 30202 10306 20213 30100 40126 83030
333   0//00 58000 83363=
62002 32960 03003 10265 20118 39494 48580 58005=
62019 32558 63004 10237 20169 40163 54000 86500 333 86625=
62053 32560 73213 10230 20174 40138 53016 87500 333 87620=
62124 31958 00306 10305 20087 39672 40155 57008=
62131 32968 03608 10285 20156 39857 40164 57011=
62161 32558 83515 10210 20178 39816 52007 8880/ 333 84820 85625=
62259 32970 03603 10318 20138 40145 58005=
62271 31950 03007 10375 20092 40133 58003 70600=
62318 32960 00604 10336 20171 40109 57009=
62366 32960 00605 10362 20058 40098 58012=
62405 32960 00303 10408 20067 40057 57017=
62414 32960 00206 10417 20068 40052 58021=
62420 32960 01804 10397 20101 40084 57016=
62660 32970 03402 10445 21010 39/// 4//// 333 5////=
62680 32970 33602 10450 20070 39650 40016 80002 333 56009 59012
83080=
62721 31962 70000 10430 20040 39619 40031 70622 84047 333 56099
59008 84365 87275=
62760 32770 71302 10410 20126 39259 40020 82307 333 56909 57922
58000 81956 87275=
62772 32970 72401 10420 20110 39623 40028 84047 333 56099 59018
84365 87275=
62781 32770 70000 10400 20157 39440 40034 82407 333 56909 59005
82650 87275=
62805 32770 71403 10385 20165 39507 40007 84347 333 56999 57992
59011 81956 83656 83365 87275=
62880 32770 73401 10345 20220 39589 40067 83507 333 56809 57811
58003 83850 87275=
64600 32580 62802 10234 20232 39450 40089 86200
333 0//00 59001 86828 94939 95839=
64601 31580 32003 10274 20199 38995 48509 71720 83903
333 0//00 58000 83823 81940 94961 95831=
64650 11570 72202 10275 20224 39693 40101 69911 70366 81938
333 0//16 58006 81823 86280 81940 94966 95836=
64656 31580 5//// 10330 20239 39539 40080 71791 85900
333 0//00 58002 85830 81940 94964 95834=
64753 32965 01202 10427 20040 3//// 4////
333 0//00 5//// =
40100 32560 32603 10254 20204 40122 56002 83200 912// 333
83826 92437=
42909 32597 51606 10320 20255 40042 83801 222// 20000 333
10333 56400 58016 81620 83825=
60030 42565 20312 10231 20182 30123 40178 53004 82800
333 92446=
60602 32975 00000 10348  20085 40153 58003
333 0//00 95900=
60725 32570 13304 10288 20135 30020 40182 57004 81200
333 50641 81823=
60735 32570 23202 10312 20103 30098 40175 58011 82200
333 50601 82826=
60760 32560 21402 10318 20183 30064 40168 58007 82200
333 51021 82830=
60769 32560 12304 10292 20160 30177 40182 57009 81200
333 50641 81820=
60775 32570 33502 10308 20105 39841 40179 58010 83200
333 50781 83826=
61052 32965 61807 10340 20202 39842 40093 83082
333 58007 83364 85080=
61075 32970 62003 10378 20136 39776 40073 80008 91145
333 59010 86280=
61090 32965 73604 10388 20134 39575 40063 80008 91145
333 59015 87280=
61600  32460 23207 10250 20196 30120 40125 82500
333  0//00 59004 82613=
61627  32960 53202 10321 20185 30088 40111 80001
333  0//00 58003 85073=
61630  32960 00000 10353 20183 30086 40105
333  0//00 58009=
61679  32962 60403 10290 20199 30128 40136 80002
333   0//00 58003 86073=
61687  32957 52402 10350 20180 30054 40110 82032
333   0//00 58000 82363 85073=
62007 32560 20303 10260 20173 40187 51001 82100 333 82830=
62016 32562 43306 10228 20185 40181 51003 84500 33 384625=
62055 32560 53509 10256 20170 40144 52004 85500 333 85630=
62056 32560 72708 10205 20155 39397 48483 51003 87500 333 87620=
62059 32560 23106 10235 20192 40096 56003 82500 333 82620=
62600 31960 00706 10430 20080 39828 40046 70600 333 59007=
62640 32970 00000 10440 20030 39697 40030 333 58003=
62650 32970 00303 10437 20006 39783 40036 333 59005=
62751 32970 70000 10415 20155 39605 40039 84047 333 56099 59025
84365 87275=
62752 32770 71402 10410 20150 39380 40012 86307 333 56909 57991
59022 81950 85850 87275=
62762 32770 72702 10412 20158 39571 40015 81107 333 56209 59014
81856 87275=
62770 32770 72301 10363 20110 39207 40057 81147 333 56369 58003
81856 81365 87275=
62771 32970 70901 10394 20096 39415 40020 80007 333 56009 59014
87275=
62795 32770 73004 10410 20138 39535 40004 82207 333 56909 57891
59020 82856 87275=
62810 32770 73603 10375 20190 39517 40054 82107 333 56209 59022
82856 87275=