ZCZC 000
SMCI10 BENJ 311200
AAXX 31121
84200 22255 00228 20403 3//// 4//// 5//// 6//// 80195 ICE /////=
56492 32962 10000 10290 20189 39608 49991 57004 81040 333
05704=
59855 11570 70904 10286 20261 40045 52001 69901 72500 872//=
50948 32970 60402 10194 20147 40056 52014 80002=
54186 32970 70000 10172 20099 40067 52020 80002=
59845 11575 61103 10270 20239 40046 52004 69901 71380 81102=
54662 31358 61601 10135 20130 39935 40053 52002 72840 86600=
53782 32665 80401 10273 20120 40000 52015 82407=
53513 32970 20901 10250 21007 38900 40024 54000 80002 333//
00351=
51828 31/30 92202 10266 20049 38546 49999 57006 70600 333//
00002=
59293 32570 62004 10301 20238 30019 40066 52011 82102=
53663 32980 43601 10226 20016 40017 52006 80002=
57522 32980 20000 10266 20211 40006 57014 80001=
58527 32965 10000 10252 20221 39987 40060 52006 81040=
50774 32960 81404 10184 20081 39785 40071 52017 80007=
54094 31560 72203 10185 20127 39782 40063 52034 70090 879//=
59493 32580 41802 10303 20234 40068 52007 81101=
56964 32572 61801 10268 20190 38627 40006 57001 82202 333//
05201=
54218 11780 73604 10163 20111 39394 40041 52014 60021 78098
86902=
57006 32975 71603 10266 20073 49970 52008 81042 333// 05252=
57602 32970 00401 10278 20195 49992 57013=
56080 11680 80401 10095 20072 37134 52018 60031 78098 889//
333// 05158=
59134 31572 72002 10277 20247 39922 40079 52013 71300 81902=
54337 11460 81802 10165 20141 39963 40046 52017 69901 70098
8572/=
50442 32570 73603 10168 20062 40085 52043 85902=
57037 32970 51103 10319 20088 49950 57002 85030 333 05303=
58834 11662 83601 10240 20225 40087 52026 60041 76098 889//=
57067 32975 02502 10299 20127 39362 49991 54000=
57993 32970 70202 10267 20232 39917 40058 52002 82042=
57127 32962 50000 10279 20205 39425 49992 57004 84032=
59647 32580 50402 10286 20249 40038 57006 81942=
57662 32968 01102 10278 20232 39987 40027 57001=
59849 11578 71102 10259 20239 40050 57002 69931 70098 87200=
51133 32680 72703 10217 20073 39450 40059 52013 879// 333//
00155 91117 91527=
57866 32680 61803 10262 20238 39851 40048 57004 85440=
50564 32970 51101 10177 20081 40062 52002 80002=
50658 32980 30201 10224 20053 40050 52007 80002=
50136 32970 13605 10150 20023 39597 40104 52035 81032=
50968 32670 61404 10180 20137 40066 52011 82402=
50854 32770 72201 10200 20148 40050 52009 875//=
50963 32965 40905 10200 20096 39933 40062 52015 80002=
50557 32970 21602 10191 20043 39783 40065 52008 81032=
50888 32980 23603 10170 20083 40086 52019 80002=
50756 32670 71402 10220 20101 39778 40055 52007 81102=
50468 32675 21601 10185 20079 39871 40067 52006 82502=
54096 32670 20000 10168 20102 40073 52018 81402=
50844 32962 61602 10214 20119 40052 52013 80002=
50745 32962 72201 10229 20132 39878 40049 52011 83032=
50353 11568 80000 10119 20108 39890 40103 52030 60071 78080
889// 333 91118 91532=
50246 32580 51803 10126 20087 40081 52007 84902=
58549 11760 71602 10248 20233 40071 52011 69901 70080 875//=
57516 32965 10402 10272 20197 39696 49991 57013 80002 333
05704=
58457 31940 02001 10241 20220 30016 40065 52011 71000=
58667 11968 70404 10221 20220 40073 52006 60111 70098 8704/=
58472 31450 11805 10201 20193 39982 40077 52011 71000 81140=
58543 32980 20903 10252 20226 40067 52009 82040=
58122 32975 71602 10279 20178 40033 52011 80002=
59023 11460 80000 10251 20235 39802 40042 52003 60021 79580
889//=
89664 32961 00000 11320 39980 40020 57018
333 11320 21350 59176=
91376 11474 80712 10267 20236 30083 40086 58003 60241 70282 8487/
333 10297 56299 59007 70262 555 93112=
91348 11474 81404 10261 20241 30042 40094 50000 69901 70282 8627/
333 10278 5639/ 58001 70673 555 93112=
54916 32960 01403 10253 20195 40026 52004=
16597 32980 13312 10287 20133 30092 40176 55003 80001
333 81075=
58238 31958 00000 10242 20214 30038 40047 52005 71000=
58562 31658 80000 10237 20224 40072 52012 71000 885//=
52740 16/// /1803 10110 29054 36831 60000
555 1/133 2//00 /////=
57957 11565 70202 10268 20247 39862 40051 52001 69901 70080
878//=
59082 32568 72203 10298 20241 39978 40051 52008 81102=
59117 11678 20902 10273 20237 39968 40070 52016 69961 70098
82400=
59211 11575 72202 10289 20251 39821 40019 52002 69931 70098
81942=
59265 32570 71402 10306 20241 39914 40045 52005 87202=
59287 11663 11402 10294 20252 30017 40066 52005 60061 70080
81400 =
59316 32970 12202 10292 20245 30071 40080 52016 80002=
59431 32580 31802 10290 20229 39897 40039 52005 82242=
59644 32575 50000 10288 20247 30027 40042 57003 81902=
59417 31580 70000 10296 20238 39881 40027 54000 70090
85942=
59501 32570 22203 10287 20253 30073 40089 52012 82100=
59663 32478 61104 10284 20246 30033 40060 52006 81102=
58040 32960 10402 10194 20183 30043 40047 52007 80002=
58144 32963 01402 10256 20191 30027 40049 52005=
58633 32670 52501 10244 20231 39973 40069 52010 85400=
58659 11756 80000 10247 20237 30040 40073 52009 60301 71098
885//=
58847 11565 82003 10270 20241 39976 40073 52029 60021 71798
889//=
57251 32980 12202 10317 20174 49986 52003 81030=
57378 32964 01604 10252 20213 40035 57004=
57447 32980 00000 10257 20190 39502 40017 57007=
57458 32980 00000 10238 20147 40037 52008 333 05204=
57554 32977 10000 10273 20206 40027 57002 81040=
57584 32970 01402 10278 20214 40043 52002=
57598 32580 62902 10262 20207 40053 52010 85130=
57655 32975 02701 10274 20223 40035 54000=
57745 32578 23601 10266 20222 39728 40038 54000 81140=
57766 32668 71101 10273 20245 40046 52001 82242=
57776 31/00 92010 10199 20196 40071 57001 74740=
57799 11973 71102 10257 20231 39972 40052 57003 69901 70080
8704/=
57845 32675 62502 10263 20225 40048 52003 82142=
57853 32770 70000 10271 20246 40043 52004 86402=
57972 11760 80000 10258 20250 39842 40055 57005 60101 70098
885//=
58102 32975 81803 10283 20181 39966 40014 52006 80007=
58203 32970 01602 10271 20193 39983 40026 52002=
58215 32962 01604 10258 20208 40038 52004=
58221 32962 11603 10274 20186 30011 40045 52008 80002=
58321 32960 01604 10254 20212 40044 52002=
58338 32964 01402 10254 20228 40053 52002=
58424 32968 02203 10250 20211 30032 40055 52006=
58437 31/00 91406 10146 20146 38145 52007 74540=
58506 32975 10000 10185 20139 40086 52012 80002=
58531 32780 12002 10254 20219 40060 52008 81500=
58606 32965 20901 10256 20234 30008 40061 52008 82040=
59102 32563 30000 10280 20237 40066 52012 81132=
59046 32568 72702 10278 20256 40046 52009 8593/=
59058 32670 60000 10284 20247 40045 52006 81142=
59072 32680 60000 10302 20247 40046 52005 82440=
59087 11562 33601 10291 20253 40061 52009 69901 70098 81102=
59096 11573 80000 10298 20227 40065 52016 69901 79590 889//=
59209 32570 72201 10247 20207 40034 52006 879//=
59278 11680 22003 10295 20239 40058 52004 60201 70098 81402=
59456 11580 61802 10302 20246 40046 57002 69901 70098 81402=
59632 32974 11602 10292 20247 40041 54000 81062=
59658 32472 21104 10286 20258 40053 52002 82102=
59673 11580 61102 10266 20237 40066 52007 60031 70080 81202=
54342 32965 72903 10221 20142 39984 40044 52019 83032=
54471 32760 82204 10181 20136 30038 40043 52005 885//=
54497 32570 72003 10182 20150 30035 40049 52015 875//=
53772 32665 53602 10295 20050 39137 49984 52008 85400=
54511 11657 80803 10198 20135 39997 40035 52027 69901 71080
885//=
54823 32962 41604 10278 20177 39825 40016 52009 80002=
58027 32965 81803 10282 20172 39978 40027 52008 80007=
58150 31958 01403 10198 20184 30048 40056 52012 71000=
58251 32962 01101 10248 20201 30048 40054 52008=
58345 32960 01601 10249 20221 40057 52005=
58556 11662 60000 10233 20221 40077 52013 69911 70080 86500=
58569 11965 82202 10217 20211 40074 52011 69961 70060 8807/=
58646 11662 60000 10259 20239 40074 52012 69901 70080 82502=
58660 11758 70701 10241 20228 40073 52012 60011 71080 875//=
58926 31770 72001 10300 20217 40068 52015 71300 83940=
58944 31463 72204 10271 20251 40079 52017 71300 879//=
51468 16/// /0700 10024 29071 36557 60001
555 1/132 2//00 /////=
59948 11572 71402 10282 20250 30027 40035 54000 69911 72580
879//=
59838 11580 70403 10264 20254 30027 40041 52001 60241 70098
81962=
58265 31956 01401 10201 20187 30051 40062 52003 71000=
58477 11358 70000 10218 20209 30031 40074 52011 69901 71080
875//=
58666 11960 61103 10222 20221 39980 40078 52012 60031 70098
80002=
58725 32780 81802 10261 20240 39825 40073 52012 885//=
58760 11457 80403 10227 20224 40065 52007 60091 72998 889//=
58921 32677 83603 10282 20211 39838 40071 52027 8497/=
59758 11570 20902 10281 20256 30025 40045 52005 60021 70080
81402=
59981 11580 71403 10279 20257 30042 40048 52015 60031 70080
82262=
59985 11570 71105 10271 20262 30025 40030 52007 60091 72580
83202=
70200 83240 22254 04250 20303 306// 40704 80200=
58015 32970 01403 10295 20158 40013 52006=
58311 32967 01102 10260 20225 40037 52003=
58314 32970 01402 10266 20233 39951 40035 52001=
58236 32970 02003 10256 20213 40042 52004=
58436 32968 03601 10261 20227 40058 52012=
58326 32970 01802 10257 20218 40053 52005=
52418 32980 70000 10253 20117 38763 49988 54000 86042 333
00154=
52889 32780 80000 10282 20076 38375 49956 52011 889// 333
05251=
52533 32980 80000 10253 20059 38429 49986 57001 85047 333
05100=
53915 32680 71102 10274 20098 38537 49959 52010 8494/ 333
05304=
56096 32772 70906 10269 20118 38801 49957 52009 82402 333
05453=
52652 32775 82903 10230 20062 38420 49996 52002 889// 333
00053=
53923 32680 81403 10277 20034 49965 52006 8297/=
50834 32980 20000 10193 20044 40055 52008 81032=
53480 32980 03402 10183 20009 40052 52013=
53673 32680 23602 10284 20046 49996 52012 81402=
53787 32780 71401 10278 20007 49990 52002 85402=
53898 32963 10201 10290 20215 40009 52003 80002=
54725 32965 11803 20160 20191 40006 52002 80001=
54751 32962 00906 10140 20133 40041 54000=
58208 32970 01802 10281 20206 40029 52003=
56294 32961 60203 10281 20193 39438 40001 57012 86040 333
05502=
56571 32680 30000 10282 20141 38306 57007 82402 333 05606=
56651 11680 73602 10201 20134 37584 57004 69901 70098 879//
333 05201=
56778 32580 60000 10232 20154 38052 57003 84202 333// 05151=
56951 32780 70000 10263 20170 38428 57002 81102 333 05201=
57328 32968 20000 10270 20195 39612 40002 57011 80002=
57411 32962 30000 10273 20186 39648 49998 57013 83040=
57816 32570 51804 10236 20187 38713 40037 54000 81102 333//
05304=
57259 32980 10000 10274 20198 40007 52002 80002=
57461 32968 01403 10273 20227 39875 40029 52003=
57476 32962 01602 10265 20233 40031 57003=
57494 32968 01402 10253 20213 30011 40039 57003=
57687 32980 61402 10282 20236 39965 40042 52002 86040=
58715 11356 81603 10256 20246 40063 52008 60091 78098 8697/=
58813 11665 70000 10245 20236 40060 52004 60281 70098 8746/=
50727 32980 10703 10136 20066 38925 40074 52010 81061=
53564 32980 20401 10260 20042 39065 40009 52008 80002 333//
00251=
53959 32970 61802 10359 20085 39542 49953 57001 80002=
54102 11680 70902 10156 20112 38953 40062 52023 60021 70098
83402=
54843 32965 01405 10183 20154 39997 40023 54000=
54909 32968 21102 10285 20170 39947 40006 52010 80002=
58362 31958 61402 10234 20216 30055 40065 52007 71000 80002=
50788 32970 00403 10174 20060 30010 40091 52012=
50949 32965 70000 10193 20177 39892 40053 52009 80002=
50978 32680 20903 10198 20085 39793 40070 52012 81532=
54161 32670 70202 10203 20110 39773 40048 52017 82902=
54236 32770 71603 10204 20119 39944 40042 52016 85502=
54292 32970 60704 10161 20072 39872 40082 52035 82032=
54374 32662 70403 10165 20122 39676 40063 52034 87900=
58730 11760 70901 10256 20248 40071 52010 69911 70060 8754/=
58731 11776 61801 10250 20236 40079 52014 69901 70060 86500=
58754 11565 82702 10260 20235 40079 52023 69901 72598 889//=
58911 31976 70000 10270 20252 40073 52017 70090 8707/=
58931 31280 72505 10196 20172 38361 52008 71700 879//=
45007 12575 41502 10293 20243 30060 40069 53006 69992
81201  333  10333 59003 70009 81822 83080 =
56193 31758 80000 10251 20155 40009 52001 71000 8347/ 333
05353=
56196 32960 43602 10262 20191 40003 57012 80002 333 05551=
56287 32970 21601 10263 20182 40008 57006 81042 333 05501=
56385 32880 51603 10111 20080 37005 57006 84041 333 05400=
56666 32680 31802 10313 20158 49949 57018 81402 333 05404=
56671 32780 60000 10252 20155 38138 57007 81202 333 05302=
56684 32580 12902 10226 20141 37841 57002 81102 333 05402=
56751 32680 11602 10233 20134 37950 57008 81142 333 05201=
56786 32580 31603 10217 20171 38057 52001 82941 333// 05200=
56886 32680 52203 10225 20163 38211 52002 84962 333 05152=
56977 32580 20000 10255 20210 40021 52004 82442 333// 05151=
57206 32960 20000 10266 20185 40004 57006 82041=
57348 32970 00201 10274 20087 40014 57013=
57426 32975 21101 10274 20200 40008 57010 80002 333 05606=
57713 32663 70902 10270 20174 40020 57002 83540 333 05406=
56079 11880 70703 10147 20027 36659 57001 69921 70098 87902
333 05502 91118 91518 93901=
56144 11780 60000 10174 20081 36811 57003 69911 70080 86400
333 05503=
56152 11780 73402 10114 20032 36300 52001 69961 70080 86902
333 05551=
56167 32780 61106 10193 20048 37042 57015 86900 333 05402=
56173 32880 72203 10164 20033 36614 57006 879// 333 05604=
56182 32680 12003 10195 20057 37140 52008 81102 333 05604=
56257 11680 71801 10126 20047 36277 57004 69901 72988 86902
333 05352 93903=
56357 11680 11607 10146 20026 36445 57008 69901 70080 81400
333 05300=
56374 11580 50000 10158 20128 37389 52007 69941 72598 82442
333 05451=
56586 32675 71101 10248 20134 37985 57004 84442 333// 05506=
56748 32580 60000 10239 20149 38281 57001 82442 333 05101=
56763 31680 21402 10296 20189 49964 57011 70090 81202 333
05300=
56768 11680 61402 10255 20155 38159 57003 69931 70080 81402
333 05100=
56838 11675 30901 10276 20217 40016 57012 60131 70080 81432
333// 05202=
56946 32680 60000 10285 20163 49996 57002 81102 333// 05200=
56954 32580 60000 10292 20187 40005 52003 82902 333// 05201=
56959 32780 70000 10291 20235 49999 52006 82102 333 05200=
56966 32780 41603 10301 20219 49982 57003 82902 333// 05153=
56969 31580 42201 10287 20235 40020 52006 72990 84900 333//
05201=
56986 32275 41105 10216 20203 40034 57004 84400 333 05151=
57237 32975 30000 10250 20174 40013 57006 80002=
57306 32970 70000 10278 20196 40005 57010 80002=
57504 32963 10702 10293 20163 49988 57010 80002 333 05604=
57707 32664 81102 10239 20176 38416 52002 885// 333 05404=
57731 32980 00000 10256 20197 40026 57009=
57832 32580 41801 10270 20208 40036 52004 84800=
57916 32676 70000 10268 20229 40030 57001 878//=
57922 32580 41405 10228 20201 40054 52005 81640=
57932 11680 60000 10269 20222 40038 52005 69901 70080 81132=
59007 11580 60000 10210 20194 40036 57004 60121 70098 82473=
53646 32680 83403 10284 21002 38850 49995 57007 8552/ 333
00001=
57245 32980 21601 10303 20172 39658 49985 57006 82030 333
05405=
53845 32970 71401 10320 20050 38945 49975 52005 80002 333
05102=
57036 32970 51603 10347 20113 39510 49947 52004 80002=
52754 32580 31406 10132 21018 36779 57003 81902 333 05200=
56029 11680 82003 10138 20046 36470 57002 69951 78000 889//
333 05400=
56033 11580 70000 10055 20017 36036 57018 69911 70080 82902
333 05353=
52836 11780 70000 10157 20020 36868 57006 69901 70060 81502
333 05351=
57046 32971 31110 10209 20008 37888 57008 80002 333 05202
91119 91511=
57016 32970 62004 10326 20098 49954 52015 80002=
56021 11580 60000 10096 20001 36085 57016 69901 70080 83902
333 05303=
53588 32480 10903 10139 21031 37761 52009 81102=
50527 11570 60902 10212 20088 39344 40034 52006 69931 71880
86900=
54401 32680 23403 10246 20053 39225 40030 52018 82400=
54602 32960 83603 10284 20206 40010 52013 80007=
54423 11570 70000 10174 20140 39598 40042 52014 60021 70098
83102=
54618 32961 01802 10284 20194 39985 40002 52005=
50632 32980 11801 10169 20026 39218 40061 52010 81030=
50548 32980 01401 10194 20065 40054 52004=
54308 11680 30000 10169 20126 40050 52019 60021 70098 82462=
54527 32665 60205 10220 20179 40033 52023 86400=
56146 11780 72501 10155 20072 36702 52003 69911 70080 879//
333 05453=
56172 32880 71105 10220 20045 37285 52019 879// 333 05404=
56247 31880 22202 10259 20063 37337 57001 70090 82100 333
05405=
56444 11780 20000 10141 20056 36796 57001 69901 70080 82130
333 05102=
56462 11680 51403 10163 20103 37111 52011 69911 72580 85400
333 05403=
56691 31580 21404 10194 20151 37730 57004 70090 81442 333
05300=
56739 11578 62202 10215 20166 38292 57008 69911 70080 82442
333 05101=
56985 32580 21802 10245 20197 38632 40017 57004 81102 333//
05151=
57633 32980 10000 10240 20178 39294 40041 52005 81040 333
05303=
57902 11575 61404 10225 20188 38556 40028 52001 60101 70080
86400 333 05303=
53798 32660 31402 10289 20199 39908 49996 52002 81102=
53352 32680 10201 10207 21001 40046 52005 81400=
53593 32780 13601 10253 20048 40019 52014 81400=
53863 32975 10901 10250 20097 49996 52006 80002=
53975 32664 70904 10300 20138 49988 52019 81902=
54405 11657 11402 10220 20159 40027 52025 69901 71080 81400=
54436 11762 80000 10174 20166 40046 52009 60031 70098 885//=
54808 32968 01404 10269 20211 40001 57004=
54826 32960 52213 10166 20128 38401 57002 80002=
54836 32961 02003 10257 20159 40034 52005=
54863 32470 81404 10159 20142 40062 52004 885//=
57071 32963 20706 10319 20156 49973 52014 80002=
50983 32970 40402 10189 20082 40069 52005 81032=
54259 32670 83602 10199 20113 40056 52021 885//=
54273 11565 82201 10150 20121 40064 52026 60041 79598 889//=
54346 32965 22902 10212 20139 40043 52016 82030=
54493 32974 30000 10186 20132 40044 52016 80002=
47401 32/70 51006 10096 20063 30114 40127 53011 82032 333
10162=
47412 32/70 81702 10185 20123 30051 40081 50008 8667/ 333
10247=
47420 32/70 81107 10080 20035 30089 40136 53004 8227/ 333
10158=
47426 32/70 70806 10186 20077 30042 40085 50004 81038 333
10218=
47582 11980 80000 10189 20088 30021 40046 56007 69902 72162
8807/ 333 10241=
47590 11356 81202 10174 20156 30006 40057 58002 60022 76166
885// 333 10220=
47600 11/50 82003 10160 20147 30021 40037 55003 60112 71062
882// 333 10191=
47648 11/30 82902 10179 20173 30016 40048 58004 60102 78062
882// 333 10250=
47662 11/30 80801 10198 20183 30001 40043 58006 60072 76186
885// 333 10255=
47678 11458 82308 10225 20220 39958 40050 51006 60172 71082
882// 333 10251=
47740 11040 82401 10172 20162 30004 40041 51016 60052 76162
8672/ 333 10182=
47778 11/04 82507 10232 20222 39926 40011 58009 60362 78266
882// 333 10232=
47807 11357 82903 10195 20176 30038 40055 53022 60302 71082
882// 333 10221=
47827 11/70 83104 10220 20197 30026 40062 53025 60172 70298
8627/ 333 10286=
47843 11365 83202 10192 20172 30029 40060 52021 60402 70282
882// 333 10222=
47898 11258 82401 10211 20211 39992 40030 53019 60372 78082
882// 333 10238=
47909 11/80 62002 10286 20228 30083 40091 53017 69902 70282
86200 333 10323=
47918 32/75 21804 10283 20257 30087 40095 53009 82200 333
10317=
47936 32/70 42105 10263 20245 30045 40105 53013 84200 333
10293=
47945 32/65 71803 10256 20251 30097 40120 53013 876// 333
10294=
47971 32/80 22102 10251 20237 30133 40142 51014 81132 333
10277=
47991 32/80 21105 10275 20240 30149 40159 51010 81232 333
10291=
57265 31957 01404 10271 20226 39899 40003 57004 70600=
57399 32965 02003 10251 20211 40048 57002=
54026 32680 80201 10195 20139 39748 40055 52014 885//=
54027 32680 70202 10188 20114 39499 40054 52018 86202=
44291 32598 20000 10233 20006 38672 40123 53002 81200 81400
333 10242=
80009 22223=
62405 31121 99303 10042 41498 32305 10128 20088 40195 51008 70300
811/9 22200 00110 20201 334// 41001 5//// 80106=
82100 22200 00294 20303 3//// 4//// 5//// 6//// 80261 ICE /////=
86500 22275 00239 20504 330// 40605 80217=
86430 22283 02101 20403 80100=
87765 22212 02242 20415 30906 40610 50506 80197=
57020 7//// 884// 22274 00070 20403 322// 40605 5//// 6////
80061=
22212 00222 20201 327// 40703 80201=
172008 129005=
54539 11570 70204 10173 20140 30053 40067 52037 69901 78000
879//=
50953 32975 71401 10210 20150 39882 40052 52009 80002=
50776 00150 10008 20063 34032 40058 50080 64700 70137 80100
90102 /0091=
51467 32680 60000 10215 20041 38171 57008 81102 333// 05611=
51542 32680 70206 10118 20009 37525 57003 84902 333// 05304=
51642 32780 72701 10274 20022 49988 57008 86402 333// 05306=
51765 32980 73203 10313 20092 39053 49970 57007 80002 333//
05303=
51777 32970 83602 10311 20062 39010 49973 57002 80007 333//
05101=
51855 32865 83201 10282 20069 49964 52010 85507 333// 05201=
53764 32970 50402 10290 20084 49992 57003 80002=
55591 32780 42903 10189 20019 36486 52003 82402 333 05301=
55585 11780 60000 10154 20053 36357 57011 69901 72500 82902
333// 05302=
55493 11580 60405 10098 20037 36019 57012 60041 70098 86900
333// 05154 93903=
53698 32962 20901 10287 20205 49997 52009 80002=
58319 32562 72003 10247 20217 40053 52006 87500=
58407 32963 01402 10253 20206 40046 54000=
52856 32780 81406 10173 20002 37173 52004 8352/ 333 05252=
52866 32675 81102 10199 20024 37646 52004 8352/ 333 05151=
56046 11580 60000 10068 20035 36262 57001 60011 70080 85902
333 05500 91125 91529=
56065 11575 83604 10081 20050 36629 52021 60021 78098 889//
333 05256=
53810 32970 81608 10286 20028 49969 52016 8802/=
59303 11664 82003 10299 20236 40071 52017 69911 78098 884//=
59478 32577 42002 10285 20241 40068 52009 81102=
82400=
53463 32980 10203 10231 20019 38875 40029 52010 80002 333//
00351=
57083 32960 61803 10314 20166 39860 49986 52010 80002=
57355 32980 01601 10282 20146 40010 57007=
57385 32960 01603 10240 20204 40034 57003=
48001 21458 73201 10270 20240 40009 75055 84950 333 10320 56660 59017
40004 21460 60000 101 274 20240 70196 86900 333 10311 54 56500=
48008 32558 70000 10310 20237 40014 70322 8497/ 333 56540 59014=
48042 32557 31301 10250 20240 49989 83800 333 10366 56900 59020=
48062 32560 42302 10310 20270 40012 82306 333 10321 56609 59011=
48078 32530 71801 10314 20258 40011 71799 8497/ 333 10334 56599 59034
48080 21562 81301 10270 20256 40031 79596 86970 333 56590 59009=
52842 32680 21103 10166 21009 36946 57007 82402 333 05351=
52955 11580 80000 10122 20040 36956 52013 69901 78080 889//
333 05155=
52602 32980 73608 10170 21110 37245 52008 81042 333 00154
91117 91534=
52737 32680 72202 10200 21044 37031 57010 81402 333 05301=
51886 11775 80705 10169 21076 37094 52003 69901 70080 81107
333 00051=
89642 42980 71627 11140 21255 30013 40070 58017 87050
333 01660 11089 21142 85360 91054 91160=
63980 41470 71207 10270 20239 40106 70282 85862 910//
333 59002 81710 85816 94313 91122=
78384 31460 50905 10270 20244 40144 70300 82933 333
10280 20255 58013 82918=
91925 36/// /3602 10240 20217 30050 40108 56017
333 10287 58003
555 1//08=
91938 01458 73616 10269 20242 30083 40086 58012 69941 79198 8693/
333 10306 56899 58002 69947 83915 85816 85360
555 13627=
91943 36/// /0414 10269 20223 30108 40111 55003
333 10302 58008
555 1//25=
91948 36/// /0106 10244 20223 30033 40135 58024
333 10273 58007
555 1//25=
91954 36/// /2514 10222 20188 30039 40042 50005
333 10267 58026 91131
555 1//37=
91958 06/// /3316 10233 20201 30018 40020 50002 60331
333 10248 58015 69927
555 1//43=
78958 11559 60818 10282 20239 30140 40140 69901 70681 83841
333 10287 20233 58018 82820 84076=
78988 32475 61117 10292 20249 30128 40137 52012 81131 333 10330 20275
58011 81817 86081=
78990 31480 71017 10287 20236 30131 40138 52013 701// 82231
333 10320 20275 58012 70002 82818 86360=
78866 32580 61014 10277 20233 30182 40186 52009 84828 333 10311 20265 58016 8382
89054 32462 30811 11018 21039 40160 57009 81505 333
11005 21056 72200 82610 =
89056 32460 31214 11028 21037 40166 57009 83500 333
11009 21036 42000 73300 83613 =
89057 32960 01302 11040 21058 40169 57006 333
11020 21040 42005 55000 =
89058 32970 11112 11021 21035 30151 40166 57010 80006 =
89059 32960 00412 11034 21049 40160 54001 333
11014 21048 44023 55000 =
89251 32962 01008 11029 21044 40150 57010 333
21035 =
78970 11556 50713 10289 20236 30124 40149 69901 70682 82842
333 02299  10298 20258 58011 70038 82825 83080 90930=
78962 11460 41013 10278 20238 30146 40154 69911 70581 81202
333 01209 10281 20237 58017 70343 81818 84080 90934=
71851 36/// /3208 10061 20020 39874 40204 51020 333 10211 20050
70000=
71852 36664 83202 10052 20026 39909 40199 53022 333 10228 21013
70000=
71873 36/64 /3407 11007 21014 39317 40268 58001 333 10158 21015
70000=
71875 36764 30510 10052 21058 38841 40216 55001 333 10120 20049
70015=
71952 36/// /0000 10051 20040 39364 40207 53004 333 10187 20024
70000=
71967 36/// /0000 11027 21027 39296 40269 51007 333 10153 21028
70000=
71802 36/// ///// 10133 20082 40248 333 70000=
71819 32974 52510 10102 21017 30160 40195 56009 80001 333 10094 20004
70000 555 30717 40080=
71826 36/// /1108 10046 21015 30070 40099 56013 333 10085 20011
70000=
71846 36/64 /2407 10051 20001 39788 40093 53019 333 10189 20050
70007=
71043 32983 21207 10057 20029 30152 40245 56007 80001 333 10137 20057
55064 00808 21920 79999=
71045 36/// /0000 11009 21026 39408 40269 53007 333 10145 21009
70000=
71050 17/64 /3002 10031 20031 39134 40198 56004 69941 7//4/ 333
10163 20031 70004=
71066 32974 20000 11001 21069 39827 40244 55002 81071 333 10173 21006
55166 70000=
71068 32874 21504 10069 21078 39566 40253 53005 82080 333 10173 20047
70000=
71069 36964 01404 10011 21060 39571 40277 53006 333 10164 21024
70005=
71076 46/// /1202 10063 21033 39861 40251 56005 333 10131 20012=
71077 36/32 /3102 10045 20022 39744 40275 53011 333 10087 20016
70014=
71078 32474 73413 11004 21017 39787 40233 57019 85509 333
10024 21004 41997 55004 70068=
71079 11474 83210 10028 21002 39902 40179 52025 69921 70155 885//
333 10080 20022 55030 70020 90923=
71081 36264 80313 11026 21034 30160 40171 53002 333 11007 21026
70005=
71082 36664 63203 11072 21086 30183 40224 56002 333 11047 21102
70000=
71083 11362 80115 10008 21008 30076 40113 53015 69921 76162 885//
333 10019 20007 42002 70013 90927=
71090 37464 83304 11068 21073 30182 40217 58005 745// 333 11020
21104 70005=
71092 46608 81030 11085 39488 40153 58007 333 11032 21088=
71093 460// /1419 11080 39682 40180 58005 333 11059 21081=
71094 460// /0110 11063 39246 40138 56002 333 10001 21063=
71095 36964 02005 11098 21137 30134 40207 58006 333 11058 21137
70000=
71101 36764 62615 10090 20040 30224 40232 56007 333 10137 20087
70000=
71104 32774 60000 10031 20016 39097 40202 52002 85501 333 10151 20022
55109 70002=
71108 11569 80102 10100 20090 30129 40200 53002 69921 70182 8557/
333 10122 20099 55000 70042 90950=
71725 17230 62307 10129 20125 39705 40109 53004 60041 7434/ 333
10223 20124 70040=
71726 17/64 /1905 10117 20110 39598 40120 58006 60021 7//4/ 333
10209 20117 70018=
71727 31780 82009 10187 20083 39939 40130 56014 71522 83131
333 10241 20145 70000=
71728 11774 82007 10149 20105 39897 40111 58014 69941 78022 8657/
333 10232 20145 55066 70004 90910=
71730 11359 82406 10145 20129 39719 40132 53015 69901 71082
887// 333 10204 20131 55079 79999 90961=
71731 13/// /2508 10141 20124 39696 40135 53007 69981 333
10207 20138 55065 70008=
71733 37250 33204 10149 20147 39910 40143 53019 743// 333 10170
20114 70010=
71738 11/00 92104 10055 20055 39798 40147 51012 60082 745//
333 10129 20054 70200 555 32918 40181=
71739 11369 72910 10121 20096 39765 40120 52025 69981 70165 87700
333 10218 20117 70200 90933=
71749 36964 02706 10098 20097 39909 40151 51021 333 10144 20004
70035=
71799 31680 73105 10110 20075 30175 40198 52006 71522 83530
333 10139 20103 55000 70042=
71801 31974 72906 10094 21003 30083 40257 55000 70344 80001
333 10064 21004 55000 79999=
71803 32974 72305 10100 20023 30048 40235 58006 82041 333
10074 21008 55093 79999=
71807 36/// /2901 10069 20038 30243 40259 50000 333 10126 20034
70000=
71808 36964 02308 10058 20026 30160 40207 56008 333 10083 20015
70000=
71810 36/64 /1409 10112 20048 30096 40159 56016 333 10148 20063
70000=
71811 32783 70909 10102 20055 30080 40148 57012 86501 333 10120 20060
55088 22380 70000=
71813 36764 31506 10100 20043 30163 40176 56014 333 10149 20044
70000=
71814 36/// /2111 10069 20035  333 10098 20047 70000=
71815 32974 62005 10118 20001 30206 40238 58004 80004 333
10157 20024 55141 70000=
71918 460// /0323 11126 39790 40213 56001 333 11057 21132=
71923 36/// /3421 11088 21096 39794 40243 53012 333 21089=
71114 36464 80000 10102 20089 30152 40200 53002 333 10152 20102
70030=
71119 36/// /1301 10033 21064 333 10163 20018 70000=
71120 31974 63202 10018 21015 39618 40279 53006 71111 81031
333 10124 20014 55096 70000=
71122 36/64 /0301 11006 21043 38637 40244 55000 333 10093 21021
70012=
71123 32974 00000 11014 21060 39404 40273 53009 333 10168
21032 55152 70000=
71125 13974 80203 10034 20008 39680 40270 52014 69921 82021
333 10104 20033 55038 70008 90999=
71129 32774 70210 10035 20009 39410 40236 56003 87500 333
10179 21014 55154 70000=
71130 33574 80210 10047 20008 39786 40243 52016 885// 333
10114 20045 55093 70000=
71131 36/64 /0610 10037 21024 38957 40201 55003 333 10153 20037
70000=
71138 32974 13406 10037 20010 39621 40226 53005 81070 333
10151 20004 55151 70000=
71140 32974 13303 10043 20017 39716 40212 52012 80001 333 10201 20008
55153 70000=
71141 11474 83310 10044 20010 39907 40185 52022 69901 70286
885// 333 10086 20040 79999 90932=
71145 11474 83109 10040 20020 39855 40147 53024 69901 70282
886// 333 10120 20037 70024 90931=
71148 36/// /3505 10034 20023 39642 40215 52012 333 10207 20008
70000=
71182 375// 61909 10088 20063 39582 40108 58018 743// 333 10183
20084 70000=
71185 36964 02116 10114 21011 30185 40209 56012 333 10083 20058
70000=
71187 36864 60604 10107 20073 30113 40140 58013 333 10161 20068
70005=
71188 32674 81502 10151 20079 30129 40169 58016 82571 333
10154 20040 55109 70000=
71196 36964 00000 10072 20012 30209 40246 58006 333 10041 21002
70000=
71200 36/// /2709 10106 20089 333 10117 20101 70042=
10184 20111 70004=
71103 36000 80000 10043 20043 39547 40205 53006 333 10190 20041=
71115 36/// /1005 10060 20055 333 10193 20060 70014=
71121 36964 00902 11008 21078 39446 40273 53007 333 10168 21025
70000=
71143 36/// /3219 10075 20036 39892 40206 52014 333 10140 20074
70000=
71397 32374 82302 10098 20061 30225 40259 50000 81671 333
10190 20040 70000=
71398 36/64 /2303 10082 20066 30219 40268 58003 333 10187 20037
70000=
71400 36/64 /2205 10118 20048 40232 333 10166 21029 4/200 70000=
71410 36/64 /2214 10106 20079 30223 40251 58007 333 10178 20062
70000=
71411 36/04 /2104 10072 20071 30273 40283 53005 333 10113 20041
70000=
71412 46/// /2110 10078 20061 30237 40250 51006 333 10088 20065=
71430 36/63 /1816 10114 20105 30087 40183 53001 333 10173 20113
70000=
71431 36/// /0904 10125 20096 30085 40178 55001 333 10185 20111
70000=
71432 36/64 /2110 10173 20137 30077 40172 50003 333 10186 20129
70000=
71436 36/64 /1706 10175 20138 39807 40157 53005 333 10227 20134
70000=
71441 36/// /3104 10060 20020 39895 40199 51015 333 10239 20012
70000=
71443 36/// /3405 10063 20014 39817 40228 51014 333 10130 20052
70000=
71474 17764 63303 10037 20032 38971 40199 55001 60041 7//4/ 333
10151 20037 70190=
71538 31959 72211 10190 20155 39936 40161 53001 70511 80001
333 10217 20171 70000=
71600 46964 02305 10083 20066 30282 40288 50003 333 10101 20052=
71601 32369 62205 10095 20084 30208 40271 55000 82601 333
10125 20061 55131 70000=
71201 17/// ///// 10121 60041 7//4/ 333 10177 20116=
71893 32580 63005 10089 20047 30173 40204 53005 82801 333
10186 20089 55134 79999=
71896 32982 30000 10010 21008 39374 40199 52007 80001 333 10185 20004
55057 70000=
71897 32474 73220 10089 20079 30180 40212 56002 87500 333 10130
20083
70000=
71898 36964 00705 10072 20054 30172 40216 58005 333 10130 20064
70000=
71902 12574 73602 10045 20013 30067 40075 58020 69923 86570
333 10046 21008 70002 90999=
71905 32974 21307 10084 20036 30039 40052 56010 80001 333 10170 20017
55026 79999=
71907 36264 62107 10028 20011 30009 40041 50000 333 10150 20002
70060=
71909 36362 81609 11021 21028 30040 40083 56013 333 10006 21026
70000=
71910 36964 00511 10009 21012 39980 40044 58008 333 10000 21018
70010=
71911 46064 /3110 11137 30183 40240 50001 333 11062 21153=
71912 11366 83220 10026 20009 39930 40111 52028 69941 7516/
886// 333 10099 20018 70012 90999=
71913 17924 83421 10002 21031 30052 40089 53028 60041 7454/ 333
10018 20002 70275=
71915 32474 80425 10005 21014 39965 40046 50005 86501 333
10037 21003 44008 55119 22720 70000=
71917 32786 81605 11064 21103 30222 40236 56002 85571 333
11031 21075 42006 55209 00974 22716 70000=
71922 32974 73303 10033 21008 39789 40257 52013 80001 333 10083 20019
70002=
71924 11259 83105 11096 21116 30185 40275 58007 69901 77177
885// 333 11089 21108 42025 55152 79999 90973=
71925 32374 50109 11163 21179 30270 40370 50002 82531 333
11085 21169 42033 55078 23331 70000=
71926 32380 70123 11036 21059 30161 40184 52008 87500 333
10012 21039 42029 55000 10518 21962 70004=
71928 36/64 /1402 11021 21055 39099 40268 51007 333 10138 21021
70000=
71434 36/// /3107 10054 20050 39973 40037 51007 333 10174 20042
70000=
71629 32774 72007 10151 20107 39939 40169 56003 85531 333
10218 20080 70000=
71075 36/// /3306 11011 21065 39640 40248 53007 333 10025 21025
70021=
71096 460// /1107 11064 39445 40178 58002 333 11011 21064=
71865 36/64 /3694 10026 20010 39558 40240 53005 333 10123 20017
70000=
71866 36564 80206 10058 20016 39634 40246 53004 333 10162 20020
70000=
71867 11474 83512 10044 20011 39884 40219 52025 69901 70262
885// 333 10092 20042 55061 21997 79999 90951=
71868 36464 83506 10048 20008 39792 40232 51017 333 10101 20032
70000=
71869 32574 33404 10027 20002 39727 40253 52011 82530 333 10109 20017
55084 70000=
71870 36964 00908 10028 20001 39253 40215 55002 333 10182 20026
70000=
71872 32880 70510 10053 21017 39370 40215 55000 86072 333 10191 20053
55152 70000=
71874 36964 30308 10057 21046 39129 40212 53008 333 10171 20057
70005=
71876 11574 83607 10050 20026 39592 40256 53006 69901 70261
885// 333 10147 20009 79999 90930=
71877 32983 63002 10023 21043 38986 40258 52010 81074 333
10158 20013 55028 70000=
71878 32974 13603 11013 21056 39196 40273 53013 80002 333 10160 21031
70000=
71879 36964 00000 10027 21062 39464 40268 53008 333 10170 20009
70000=
71880 31782 70605 10113 21074 39086 40168 53006 71411 82570
333 10160 20101 55050 70000=
71881 36964 00404 10007 21060 39161 40257 53005 333 10161 21020
70000=
71882 36964 00902 10044 20036 39656 40186 55000 333 10212 20041
70000=
71883 36/// /0000 10004 20002 39397 40208 53009 333 10205 20004
70000=
71887 11583 30000 10074 20065 39771 40187 52001 69941 70181 82671
333 10218 20073 55105 70036 90962=
71889 32774 63604 10095 20061 39757 40170 55000 82571 333 10189 20095
55057 70032=
71891 36564 81503 10104 20094 39921 40195 53001 333 10197 20103
70070=
71892 32480 81004 10113 20094 30194 40199 52004 885// 333 10158 20109
55070 70002=
71816 32874 81804 10148 20031 30066 40126 58018 81071 333
10209 20086 55136 70000=
71817 36964 02312 10130 20003 30152 40166 56011 333 10046 20001
70000=
71818 32674 62115 10098 20027 30120 40138 57010 81539 333
10116 20034 41997 55110 70000=
71821 17262 82909 10127 20117 39747 40083 53013 60051 7434/ 333
10206 20120 70120=
71822 17348 82212 10120 20117 39610 40070 56024 60061 7434/ 333
10214 20115 70055=
71825 11262 81812 10084 20076 39431 40084 57033 60021 76166 887//
333 10174 20079 55054 70022 90973=
71827 31274 21603 10082 20045 39824 40062 58005 70341 82571
333 10156 20032 55029 70026=
71828 17264 61605 10077 20066 39449 40072 56021 60031 7434/ 333
10163 20067 70030=
71831 11374 32509 10103 20076 39832 40107 51008 69901 70165
82802 333 10173 20095 70172 90957=
71832 36/64 /2713 10108 20095 39790 40108 51014 333 10151 20077
70148=
71834 32574 12507 10098 20088 39699 40119 51018 81100 333
10128 20068 70046=
71836 36364 32306 10114 20106 30055 40066 58001 333 10175 20100
70085=
71842 32574 33012 10075 21005 39692 40160 52016 83100 333 10217 20062
70000=
71845 33574 22712 10059 21006 39661 40125 53019 81801 333
10216 20055 70000 555 32831 40030=
71850 32574 23106 10072 20008 39690 40180 53021 81171 333 10213 20059
70000=
71854 33574 43012 10053 20000 39698 40163 52019 84501 333
10196 20040 70000 555 32428 40230=
71855 36564 83306 10062 20013 39842 40213 53014 333 10190 20011
70000=
71856 36664 63106 10062 20021 39915 40195 53020 333 10204 20019
70005=
71858 36/64 /3208 10048 20003 39929 40209 53025 333 10098 20043
70000=
71861 36964 03303 10017 20002 39502 40224 53006 333 10179 20002
70000=
71862 32974 20304 10029 20012 39524 40220 53010 81071 333
10195 20015 55145 70000=
71863 36964 00206 10034 20013 39530 40224 55003 333 10189 21008
70000=
71702 36/// /1916 10106 20093 40233 333 10163 20076 70000=
71717 32974 62015 10110 20060 30167 40207 56009 80008 333
10221 20078 70000 555 30823 40181=
71194 36/64 ///// 10097 20035 30238 40251 51003 333 10213 20049
70000=
71197 36764 31405 10077 20000 30206 40256 53002 333 10124 20035
70000=
71450 36/// /0109 10034 20004 39517 40231 53002 333 10180 21001
70000=
71490 36/// /0000 11104 21110 39968 40287 52001 333 11071 21111
70000=
71261 36/// /1911 10180 20155 39901 40155 53005 333 10211 20154
70004=
71265 36664 32009 10139 20101 30076 40169 50001 333 10193 20122
70000=
10161 20091 70002=
71607 36/// /2005 10114 20084 30214 40246 58002 333 10185 20032
70000=
71609 32362 82313 10088 20058 30118 40252 57002 886// 333 10166 20062
70000=
71610 36964 02007 10158 20088 39910 40200 55003 333 10223 20097
70005=
71621 32674 82008 10136 20106 30075 40179 55001 885// 333
10210 20124 70000=
71623 32562 81908 10172 20138 39841 40171 51004 87801 333 10201 20157
79999=
71624 32769 62008 10170 20112 39957 40165 50000 81571 333
10219 20134 55113 70000=
71625 36664 81503 10161 20112 39985 40141 55002 333 10249 20148
70000=
71627 36864 31905 10160 20106 30134 40177 50001 333 10233 20128
70000=
71630 32574 81606 10155 20114 39817 40153 53002 887// 333
10219 20138 70000=
71631 36/64 /2210 10171 20146  333 10191 20136 70000=
71632 36/63 /2707 10130 20117 39919 40148 51012 333 10206 20130
70000=
71633 32562 82208 10184 20144 39883 40147 52012 885// 333
10240 20161 55096 70030=
71700 32474 72214 10117 20078 30208 40233 57009 81102 333 10210 20047
70000=
71705 32974 62112 10118 20069 30146 40233 58006 80001 333
10193 20045 55119 70000=
71706 32474 82112 10098 20067 30185 40245 50001 81102 333 10148 20073
70000=
71707 32974 72210 10110 20021 30178 40255 55000 80008 333 10146 20037
70000=
71709 33980 81913 10095 20044 30213 40226 58003 80001 333 10128 20069
55136 70000=
71711 32974 60603 10126 20085 30135 40184 57013 82071 333 10206 20069
55115 70000=
71714 36/// /2309 10168 20102 30090 40180 58001 333 10227 20129
4/005=
71715 36/64 /2014 10166 20090 39982 40160 58004 333 10199 20136
70000=
71718 32774 72017 10181 20093 30076 40140 58015 81572 333 10186 20119
55106 70000=
71719 36/// /1913 10139 20069 30178 40184 56014 333 10161 20057
4/999 70000=
71931 36/64 /0000 11011 21060 39594 40282 53004 333 10144 21022
70000=
71932 36964 01002 10002 21039 39818 40274 53002 333 10151 21028
70005=
71933 36964 02504 10043 20007 39960 40248 55000 333 10162 21005
70005=
71934 32874 32405 10064 21018 39969 40223 55009 82071 333
10178 20024 55161 22693 70000=
71935 32874 62606 10097 21033 30004 40208 52001 86071 333 10190 20080
70000=
71936 11/16 90507 10009 20009 39986 40245 53005 60011 78586
333 10160 20008 41997 55066 70014 90916=
71938 11474 80811 11072 21099 30284 40314 56006 69901 77177
886// 333 11046 21072 42006 55028 79999 90973=
71940 32882 11106 10056 21067 39435 40234 52003 81070 333 10186 20055
70000=
71943 32974 10000 10046 21065 39407 40238 55000 80001 333 10176 20026
55103 70000=
71944 36964 03607 10048 20034 39401 40227 53002 333 10169 20047
70005=
71945 32883 20000 10032 20013 39769 40235 53006 81071 333 10201 20024
55130 70000=
71946 11374 73310 10049 20027 30054 40265 51014 69921 70282 82571
333 10202 20048 55066 70002 90942=
71948 46964 00916 11102 30173 40288 56012 333 11092 21107=
71949 36/64 /0000 10024 21008 39397 40265 51005 333 10148 20024
70000=
71950 32982 60000 10026 20003 39592 40216 53009 82071 333 10185 20026
55126 70000=
71951 32980 73202 10087 20047 39948 40212 51002 82032 333 10192 20087
55141 70000=
71957 36964 02503 10000 21012 30147 40234 51002 333 10115 21002
70000=
71958 36964 00503 11021 21055 39317 40285 53007 333 10161 21021
70005=
71964 32986 22502 10005 21022 39410 40264 52004 82004 333 10150 20004
55079 70003=
71968 469// 03302 11042 30176 40241 56006 333 11012 21045=
76122 32962 42704 10220 20015 38512 40019 5//// 82089 91145
333   10364 20218 30/// 56055 58004 70000 82358=
76225 32540 62301 10192 20134 38567 40041 57012 83880 91145
333   10335 20192 30/// 56770 58010 70000 83824=
76323 32460 30000 10170 20152 38256 40039 57005 83400 91150
333   10304 20170 31/// 56/00 58005 70045 83610=
76342 31840 60000 10246 20194 39418 40087 52003 70221 86030
91135 333   10360 20240 30023 56050 59002 70002 86357=
76373 32702 42901 10154 20117 38198 40084 5//// 84060 91138
333   10304 20146 30010 56050 59002 70000 84358=
76412 32960 01401 10233 20175 30095 40135 52013 91145 333
10364 20220 30/// 58017 70000=
76539 31558 60801 10159 20144 38119 40035 57001 70544 865//
91145 333   10277 20140 30012 565// 58000 70000 86626=
76571 11550 80000 10160 20148 38141 40078 5//// 60221 75056
887// 91130 333   10280 20140 32015 561// 59016 70215 88633
=
76647 32965 00202 10230 20222 30099 40129 52009 91150 333
10356 20225 30021 59004 70000=
76665 01456 60000 10151 20145 38101 40086 5//// 60171 70222
83520 91153 333   10275 20148 32014 56100 57616 59002 60017
70215=
76680 31558 73301 10144 20124 37748 40074 55002 70544 8357/
91158 333   10222 20142 31013 5676/ 58004 70009 83624 83358
=
76683 32965 20000 10136 20129 37815 40105 5//// 82030 91150
333   10246 20145 30012 56080 58005 70250 82360=
76685 32550 80000 10150 20132 37865 40060 57001 887// 91145
333   10242 20148 32012 569// 58002 70030 88724=
76698 32960 10000 10229 20225 30081 40096 5//// 81030 91150
333   10345 20224 31021 56020 58001 70000=
76726 01458 80000 10162 20162 38390 40077 54000 60122 74065
885// 91145 333   10288 20147 32014 569// 58004 60122 70118
88602=
76743 01956 50901 10236 20228 30095 40115 56010 60031 70252
85050 91145 333   10333 20234 30023 56/0/ 59003 60027 70115
85356=
76773 01550 41501 10174 20168 38402 40158 5//// 61562 84400
91150 333   10275 20175 30165 56200 58006 70156 84620=
76843 01450 80000 10218 20209 39519 40157 58001 60111 72162
84720 91150 333   10333 20218 31021 561// 59001 60096 70379
84710=
76903 32681 80402 10232 20209 39985 40115 54004 83430 91145
333   10350 20225 30220 56100 58003 70050 83633 85358=
76220 32880 20000 10140 20020 38144 40066 5//// 82040 91140
333   10330 20140 30/// 56090 58006 70000=
76305 32970 40000 10233 20139 30069 40079 5//// 84030 91140
333   0/010 10343 20229 30/// 58011 70000 84358 90800=
76499 31456 10000 10225 20192 30113 40143 5//// 70300 81100
91135 333   10364 20220 30021 563// 58017 70000 81810=
76525 31355 81406 10130 20100 37474 40082 5//// 74622 885//
91145 333   10180 20122 31011 563// 59005 70063 88708=
76548 32265 50000 10262 20251 30104 40134 51006 82204 91157
333   10263 20250 30/// 56305 58007 70000 82805 84080=
76581 32360 70000 10212 20183 39041 40099 5//// 83106 90552
333   10346 20182 30018 56220 59003 70000 83820 83360=
76585 31560 40000 10214 20208 39989 40138 54000 71044 83401
91150 333   10317 20213 30019 561/6 59004 70015 83630=
76675 31460 82001 10108 20101 37376 40083 51001 70544 8447/
90850 333   10171 20105 32009 5699/ 59001 70003 84620 84360
=
76805 31565 60000 10256 20235 30102 40102 57003 70322 8133/
91150 333   10348 20253 30025 5659/ 57956 59005 70000 81920
85358=
76848 32265 80201 10164 20149 38373 49980 51002 886// 91140
333   10260 20158 31/// 561// 58008 70191 8870=
60710 32970 13508 10275 20126 30112 40192 57007 80002
333 50051 81070=
60714 32980 23412 10293 20101 30186 40193 55002 80002
333 50711 82070=
60720 32960 13306 10281 20136 30151 40186 58005 80002
333 50771 81070=
60723 32965 03206 10316 20131 30012 40189 58010
333 50521=
60728 32965 21408 10260 20199 30184 40188 57006 80002
333 50901 82070 92427=
60734 32970 13406 10314 20128 39679 40166 57008 80002
333 50681 81070=
60738 32570 23212 10271 20101 38986 48578 58001 81202
333 50561 81823=
60740 32965 40310 10271 20157 30187 40190 54000 80002
333 51131 84070=
60745 32660 42417 10334 20123 39826 40175 53005 82502
333 50791 82633 83070=
60748 32562 31404 10332 20103 39772 40163 57008 82202
333 50601 82826=
60750 32960 41712 10295 20180 30159 40190 56004 80002
333 50601 84070=
60764 32965 60606 10329 20191 30156 40205 58007 80002
333 51111 86070=
60770 32965 81206 10318 20164 30051 40183 57010 80002
333 50831 88073=
60780 32960 51804 10335 20078 30900 40187 57007 80002
333 51561 85070=
94120 46/// /1408 10214 20052 30100 40135=
94150 46/// /1613 10223 20162 30075 40136=
94203 46/// /1007 10182 20021 30143 40154=
94207 35/// /1114 1//// 30136 40147 52017=
94212 46/// /1107 10140 20000 39690 40170=
94216 46/// /1508 10195 20018 30112 40163=
94238 46/// /1209 10114 21038 39773 40206=
94268 46/// /1606 10168 20037 30123 40138=
94287 46/// /1505 10144 20080 30157 40166=
94294 46/// /2009 10145 20026 30176 40186=
94298 35/// /1721 10200 30141 40147 52008=
94299 46/// /1524 10233 20153 30124 40135=
94300 46/// /2107 10199 20161 30175 40185=
94302 46/// /2703 10156 20090 30173 40179=
94312 46/// /1304 10157 20113 30158 40168=
94317 46/// /1205 10098 20010 39596 40191=
94319 46/// /1407 10122 20035 39852 40190=
94326 46/// /1304 10050 20018 39604 40239=
94332 46/// /1807 10102 21056 39808 40201=
94346 46/// /1707 10072 21012 39986 40212=
94363 46/// /0000 10068 20001 39968 40189=
94367 46/// /1810 10128 20004 30141 40179=
94374 46/// /1303 10095 20000 30166 40183=
94394 35/// /2116 10179 30130 40138 52010=
94403 46/// /0104 10176 20165 30160 40201=
94429 46/// /0101 10143 20016 39723 40195=
94430 46/// /0000 10118 20034 39602 40199=
94461 46/// /0807 10097 21002 39543 40232=
94462 46/// /1003 10067 20024 39672 40244=
94510 46/// /2106 10062 20001 39858 40215=
94515 46/// /2304 10037 20009 39841 40198=
94552 46/// /2608 10033 20002 39695 40169=
94578 46/// /2713 10102 20011 30132 40143=
94584 46/// /2519 10113 20016 30030 40141=
94601 46/// /2722 10162 20082 30156 40173=
94610 46/// /2002 10148 20145 30166 40190=
94637 46/// /0000 10095 20002 39786 40222=
94638 46/// /0212 10116 20043 30177 40210=
94647 46/// /0506 10106 20075 30155 40277=
94651 46/// /0908 10091 20069 30210 40289=
94653 46/// /0906 10108 20081 30271 40290=
94659 46/// /0000 10102 20034 30073 40273=
94672 46/// /1604 10108 20079 30262 40267=
94693 46/// /2208 10119 20059 30174 40237=
94703 46/// /2506 10091 20049 30088 4////=
94729 46/// /2306 10045 20035 39288 40148=
94767 46/// /2716 10098 20025 30114 40120=
94776 46/// /2918 10089 20008 30120 40130=
94791 46/// /3201 10046 20026 30112 40119=
94802 46/// /3107 10127 20116 30083 40166=
94804 46/// /1910 10132 20074 30236 40275=
94821 46/// /2308 10099 20065 30161 40245=
94842 46/// /2019 10125 20074 30107 40207=
94850 46/// /1916 10109 20062 30155 40201=
94865 46/// /2108 10104 20090 30174 40199=
94907 46/// /2410 10104 20054 30151 40161=
94910 46/// /2412 10098 20075 39906 40161=
94926 46/// /2805 10044 20013 39459 40136=
94954 46/// /2040 10105 20031 30067 40178=
94956 46/// /1608 10084 20033 30159 40186=
94968 46/// /1807 10063 21017 39939 40154=
94975 46/// /2211 10088 20007 30123 40156=
94983 46/// /2216 10094 20021 30103 40128=
94995 46/// /2425 10170 20094 30027 40035=
94996 41470 82713 10174 20159 39923 40052 52004 72582 8527/
333 10193=
95711 46/// /2307 10067 20051 39900 40209=
95719 46/// /2512 10074 20070 39843 40180=
96995 46/// /1416 10251 20217 39798 40091=
96996 41575 51114 10269 20231 30095 40099 53010 70122 83830
333 10282=
89564 45/// /1371 11100 21104 39828 49849 57018
333 11080=
89571 41450 40617 11058 21085 30025 40055 55004 73621 81636
333 11057=
89611 41902 91138 11047 21050 39921 49977 57065 73972
333 11018=
94934 35/// /2426 10123 30077 40101 52006=
94974 35/// /1819 10103 30157 40180 52011=
95288 35/// /1725 10230 30120 40135 52010=
95872 46/// /2021=
89002 42998 21308 11199 21239 39937 49989 50007 80001
333 11114 21200=
78792 11459 80000 10261 20237 30106 40121 52014 60012 71392 8497/
333 10322 20248 31/// 560// 59005 70020 81918 83818 85359=
78793 11130 50000 10226 20223 30078 40109 52008 60102 74064 81631
333 10314 20224 32/// 560// 58007 70204 81702 84360=
78795 11459 80000 10236 20230 30003 40103 52012 60012 75055 83690
333 10328 20232 32/// 560// 58008 70060 83608 85358=
78948 31560 50718 10282 20236 30156 40164 70622 82842 333 02226 10309
20271 58019 70010 82825=
78947 11460 71111 10276 20239 30163 40166 69932 7808/ 87202 333 02229
10195 20266 58021 70033 87818=
85406 32960 00804 10126 20094 40168 52015
333 20108 30/// 55070=
85418 32960 00000 10112 20062 40158 53010
333 20103 30/// 55067 =
85432 32984 01015 10030 21150 37774 48501 53012
333 21017 30/// 5///0 55096=
85442 32970 20803 10107 20080 40166 54004 80001
333 20098 30/// 50410 55088 56007 82080=
85469 42565 59902 10205 20186 40225 57010 84830
333 56050 82820=
85470 32560 80603 10122 20083 40157 51004 885//
333 20116 30/// 50490 55057 56699 88620=
85488 32460 80907 10113 20094 40180 52006 885//
333 20109 55034 56099 88612=
85585 12698 21606 10112 20104 40202 52016 69914 82200
333 20108 31/// 56300 70001 82840=
85586 31959 41202 10084 20077 40182 52/// 7100/ 82031
333 20084 30/// 50110 55037 56055 82365=
85629 31901 00000 10034 20032 40200 52/// 711//
333 20031 31/// 50010 55000=
85682 31256 81305 10078 20074 40200 52020 71042 886//
333 20045 31/// 50050 55000 56399 88704=
85743 31/01 90604 10051 20049 40197 52010 74544
333 20045 31/// 50100 55/// 89/00=
85799 31908 01402 10018 20006 40208 53007 74022
333 20016 31/// 55001=
85836 32670 40606 10048 20023 40279 53003 84400
333 20046 2// 56600 84640=
85864 32580 81903 10031 20013 40256 57010 884//
333 20031 30/// 55000 56699 88628=
85874 32470 81414 10015 21003 39613 40252 57010 885//
333 20013 30/// 55000 56099 88616=
85892 32570 20000 11006 21009 40229 57015 82700
333 21012 34/// 56600 82720=
85930 32997 00320 10064 20032 40152 57017
333 20060=
85934 32580 10208 10007 21004 40237 57013 81600
333   20006 30/// 55014 56100 81623 =
85972 32997 00505 10036 21003 40202 57020
333 21014=
65352 11460 70000 10262 20221 39944 40121 60011 70196 8225/
333 58024 82816 87363=
65361 11470 72206 10262 20223 39676 40113 69971 70396 82148
333 58005 82816 84362 87276=
65376 32460 72804 10305 20210 39642 40098 84202
333 59001 84816 87076=
65387 32465 72210 10317 20259 30080 40108 83942
333 58000 83816 81920 85075 94941 94944 95831 95834=
76405 32940 01506 10170 20146 30089 40109 52004 91150 333
10347 20170 30015 58006 70000=
76423 32560 82201 10160 20145 38156 40081 57005 88500 91150
333   10330 20140 30013 56900 59005 70024 88222=
76458 32858 70000 10260 20200 30084 40094 55006 87030 91140
333   10323 20255 30024 58002 70000 87356=
76632 31/62 43602 10126 20107 37603 40036 54/// 70511 8///1
91200 333   10212 20120 30/// 55066 56//5 58007 70000 84080
91303 90083=
76644 32560 20901 10240 20233 30125 40135 51004 82030 91155
333   10367 20235 30023 56020 58007 70012 82330=
76656 32870 20000 10165 20160 38504 40086 58008 82010 91155
333   10302 20150 30013 56090 58001 70000 82458=
76593 32370 10902 10262 20234 30125 40141 52017 81100 91150
333   10302 20240 30022 562// 58004 70000 81820 92011=
76662 11660 80000 10163 20157 38448 40087 54000 60061 75055
884// 91145 333   10290 20151 32014 562// 58002 70104 88633
=
71473 17/// /2302 30164 53005 60011 7//4/ 333 70038=
71966 46/// ///// 10073 333 10180 20073=
71475 36/// /3302 10084 20077 30115 40207 53005 333 10203 20074
70000=
67341 32575 21411 10256 20192 40187 56008 82200=
60351 32575 13406 10266 20178 40190 51008 81100
333 0//00 81823 95900=
60425 42965 22206 10342 20088 40175 57013 82002
333 82070 95900=
60430 32665 11010 10315 20140 40167 58001 81101
333 81833 95900=
60444 32680 32212 10302 20061 39158 48579 54000 82102
333 82840 95900=
60467 32970 21208 10340 20188 40168 58007 80002
333 0//00 82073 95900=
60468 32670 32820 10317 20058 39254 48565 58005 83202
333 0//00 83833 95900=
60515 32560 20406 10353 20075 40175 58012 82200
333 0//00 82830 95900=
60518 32458 60000 10236 20214 40172 53002 84602 222// 20000
333 0//00 84710 91806 95900=
60581 32965 51110 10372 20148 40162 58005 80002
333 0//00 85073=
78894 36/// /1110 10273 20227 30121 40180 51008
333 10304 20266 55047 58016=
78906 11472 61510 10280 20217 30147 40152 60012 7058/
83202 333   10312 20263 58005 70012 83817 85074 90919=
78905 11474 71210 10274 20240 30160 40176 60023 7258/
85202 333   10295 20258 58018 85818 87074 90919=
71107 36/// /3321 10073 30126 58007 333 20069=
71735 12462 82407 10150 20135 39823 40114 53007 60012 885//
333 10231 20130 70014 555 32129 40211=
59254 32770 43201 10303 20257 40037 54000 81542=
47575 31/56 83403 10138 20125 30055 40059 50009 71022 8462/
333 10209=
47585 11/65 80201 10157 20144 30006 40061 50004 69902 76162
8802/ 333 10213=
47598 11/18 80802 10158 20147 30054 40060 55004 60152 76166
8272/ 333 10191=
47602 11/70 80101 10155 20140 30019 40039 58006 60032 70262
8807/ 333 10205=
47618 11/30 81601 10146 20135 39342 40037 58008 60102 76166
887// 333 10173=
47624 11/30 83102 10169 20159 39917 40049 58003 60082 76166
8672/ 333 10216=
47636 11/56 83601 10181 20173 39967 40032 58011 60252 78082
882// 333 10196=
47655 11/60 80305 10183 20172 39976 40030 55007 60202 76066
8672/ 333 10211=
47750 11265 82502 10184 20176 30008 40034 53006 60172 72166
882// 333 10191=
47755 11350 83402 10181 20176 30025 40048 53022 60142 76162
8772/ 333 10206=
47772 11/40 83502 10191 20178 39937 40032 53007 60262 76166
8772/ 333 10217=
47800 12/65 73501 10172 20154 30030 40052 52018 60042 872//
333 10196=
47815 11/30 83302 10185 20172 30030 40045 53016 60482 71082
882// 333 10213=
47817 11256 82803 10201 20188 30021 40062 53025 60372 78082
882// 333 10224=
47830 11/80 82504 10238 20207 30021 40038 53019 60232 70282
8627/ 333 10285=
47837 11/70 82707 10230 20214 30041 40062 53018 60022 78082
882// 333 10276=
47891 11/56 81602 10188 20175 30020 40032 52005 60272 72166
8772/ 333 10204=
47899 11/01 90204 10196 20191 39809 40023 53008 60132 74586
333 10200=
47927 32/75 11903 10271 20255 30052 40098 53008 81200 333
10306=
52436 32980 80000 10228 20067 38379 49990 52004 8807/ 333
05152=
52787 32780 70203 10132 21056 37020 52001 879// 333 05101=
52996 32970 81408 10175 20092 37516 52003 8807/ 333 05352=
53705 32970 70407 10257 20029 49982 52004 80002 333 05151=
52323 11780 71803 10227 20014 38168 57001 69901 70080 83402
333 05102 91118 91525=
53614 32780 70402 10257 20107 38801 49999 52003 82932 333
00051=
53723 32970 70404 10272 21019 38562 49990 52009 80002 333
00000=
50603 32680 73603 10228 21038 39424 40052 52020 82202=
54324 11765 71803 10169 20141 40041 52013 60201 72198 875//=
53068 11780 70207 10203 20069 38986 40055 52020 69901 78000
86902 333// 00601=
53231 32980 70203 10212 21066 38436 52008 80002 333// 00400=
53276 32680 70705 10184 20065 38792 40058 52020 85932=
54135 32680 72704 10209 20139 39840 40049 52019 87902=
54753 32962 11604 10196 20150 30034 40040 52006 80002=
54857 32470 61606 10155 20148 39963 40052 54000 86600=
57178 32963 01403 10274 20205 39864 40014 57001=
57297 32965 01602 10246 20199 39894 40026 57003=
57279 32966 01102 10251 20211 40027 57006=
54049 32970 70000 10202 20173 40057 52011 85032=
54115 11678 70000 10146 20118 40062 52015 60031 70080 83402=
54157 32762 81102 10206 20130 40054 52020 885//=
54377 31670 40000 10204 20134 40046 52020 71700 84900=
54386 11570 70000 10130 20110 40058 52017 69961 70080 879//=
81202 22223 00265 20302 399// 4//02=
53083 11680 70403 10160 20089 40063 52015 60021 78098 82902
333// 00603=
53487 32970 33604 10237 20024 40023 52013 80002=
54226 11680 60401 10163 20143 40034 52013 69911 70098 82902=
54311 11980 60000 10147 20113 40051 52013 60021 70098 80002=
54587 31909 22204 10130 20125 40018 54000 74100 80002=
54715 32965 22202 10242 20207 40009 52004 80002=
54929 32960 01402 10250 20188 40040 52006=
54945 32575 81402 10162 20157 40064 52007 885//=
57193 32970 01803 10286 20192 40009 52005=
57290 32962 01604 10278 20189 40015 52001=
82263 22213 00220 20201 30918 40604 50706 80216=
83288 22234 00240 20601 336// 41002 80255=
62402 31124 99548 10046 41598 32312 10110 20092 40182 51015 70100
81445 22200 20302 334// 40801 5//// 80100=
83408
22212 00026 20000 333// 40805
333 80039=
42498 33504 10022 40162 52132 83200
22233 00022 20302=
41998 32207 10260 20248 40060 52015 71500 83091
22255 00260 2//// 3//// 80251=
41598 43605 10180 20165 40055 52005 7022/ 8482/
22245 00215 2//// 3//// 80170=
11051 12331 13405 15576 18001 19010 22115 23101 35045 36039 50057
51000 52000 53000 70079 71066 72643 73138 74499 75129 76960 77001=
10402 70011 80033=
80063=
80001=
62120 31124 99564 10021 46998 ///// 10297 40169 52015 22200 80089=
62103 31124 99499 70029 46/99 /1505 10120 20106 40207 52008 22200
00124 11002 70010 555 05006 07151 10026 11038 12420 13424 14896
15599 17386 35098 36036 05005 07163 10035 12421 13423 14866 15600
17427 35092=
15600 17427 35092 36032=
62301 31123 99523 70045 46/// /1911 1//// 2//// 40175 22200 00130
10401=
10708 70041 555 1//34 05311 07111 10097 11139 12999 15478 18007
19036 22115 23027 35067 36160 50053 51306 52019 53309 70001 71000
72079 73132 74012 75431 76900 90149 05312 07132 10060 11171 12394
13415 14626 15481 18006 22115 23029 35067 36160 50053 51306 71000
72451 73131 74012 75430 76900 90136=
86460 22273 02280 20302 309// 40504 80255=
84474 22200 00181 20304 30711 40507 50506 6//// 80170 ICE /////=
52633 11665 82702 10050 20030 36762 52028 60021 78080 889//
333 00156=
52713 32980 72905 10168 21072 36876 57001 80002 333 05251=
51243 32880 73610 10265 20065 39498 40003 52003 82402 333
05254 91118 91534=
51288 32680 72203 10212 21066 38270 54000 81462 333 05202=
52203 32780 70000 10286 20080 39176 49979 52002 83102 333
05103=
51053 32680 72202 10265 20125 40009 57002 82462 333 05351=
51379 32680 22201 10280 20064 40024 52001 81162 333 05202=
56125 11780 73404 10104 20058 36504 52018 69901 79190 879//
333 05357=
52825 32980 70000 10214 21005 37190 57008 80002 333 05300=
52908 11680 80905 10014 20006 35774 54000 69951 72598 889//
333 05253=
56004 11680 71605 10039 20022 35825 57006 69901 70098 83902
333 05354=
52818 32775 83403 10205 21049 37184 57001 82507 333 05100=
56018 11680 70902 10094 20042 38181 57012 69921 70080 879//
333 05400=
54534 11560 80903 10191 20173 40054 52026 60051 79590 889//=
56312 11680 71103 10169 20058 37052 57008 69901 70080 879//
333// 05154=
55228 32780 62904 10153 21121 36006 57018 86900 333 05201=
55299 11780 61403 10087 20019 35854 57002 60011 70098 86900
333// 05252 93901=
55279 11680 71806 10050 21007 35718 57003 69971 70098 879//
333// 05154=
56106 11580 70000 10066 20030 36221 57003 60041 78098 879//
333// 00058=
55472 11880 71802 10112 20009 35736 57007 69901 70080 82402
333// 05303=
55437 32780 21605 10142 21007 36335 57004 82200 333 05152=
55248 32780 32703 10156 21122 35885 57024 83100 333 05302=
56202 11580 71103 10036 20021 35876 52006 60011 79198 86902
333// 05257=
55294 11680 72703 10047 20013 35725 57010 60041 70098 879//
333// 05257=
56227 32878 73603 10165 20085 37288 57005 87400 333 00053=
56434 32680 72007 10204 20119 37638 52003 87800 333 00051=
56317 11578 70903 10145 20088 37108 54000 69901 72580 874//
333// 05153=
55773 11470 71404 10056 20026 36022 57010 69931 72580 87900
333// 05201=
55578 11780 20000 10187 20045 36332 57015 69901 70098 82402
333// 05406=
55664 32880 21604 10152 20020 35993 57008 82102 333// 05305=
55572 11780 60000 10178 20054 36217 57024 69921 70098 82202
333// 05302=
55680 32880 41603 10161 20011 36206 57014 84400 333// 05302=
55569 32780 30000 10190 21026 36192 57012 83100 333// 05304=
55655 11580 42202 10090 20046 36470 57019 69901 70080 82102
333// 05200=
48300 31565 70000 10286 20247 39716 40017 70391 83976
333 10364 59021 70017=
48327 32562 82802 10295 20246 39661 40008 83903
333 10323 59030=
48331 32562 80000 10288 20240 39790 40015 82556
333 10344 59031=
48356 32562 60000 10305 20227 39829 40021 82241
333 10333 59020 70020=
48375 31462 72804 10280 20236 39796 40019 72922 85976
333 10343 59017=
48381 32561 71802 10300 20243 39808 40025 81206
333 10325 59013=
48407 32560 72202 10302 20245 39881 40019 82966
333 10325 59016 70049=
48456 01450 81903 10244 20237 30023 40040 60032 79596 82976
333 10348 59004 60036 70032=
48480 01450 80000 10269 20253 30038 40043 60122 72166 86976
333 10316 59002 60115 70122=
48500 11560 63305 10272 20223 30030 40035 60032 70162 84576
333 10337 59006 70033=
48551 12560 80000 10260 20246 30047 40055 69942 82577
333 10294 59010 70004=
48565 32560 72803 10289 20248 30049 40060 82267
333 10308 59010 70425=
48569 32460 72103 10268 20237 30017 40057 82846
333 10314 59009 70022=
48583 32560 60000 10285 20234 30056 40061 83206
333 10332 58008=
51076 32680 73401 10250 20079 39198 40017 57003 81102 333
05351=
51431 11680 72201 10211 20107 39324 40076 52020 60071 70098
86902 333 05152 91118 91527 93906=
51463 32680 63604 10269 20018 38986 40004 57002 81102 333
05303=
51644 32770 52201 10267 20087 38821 49996 57016 82402 333
05201=
51656 32780 71802 10273 20118 38977 49987 57014 82432 333
05406=
51334 11670 72503 10241 20091 40074 52052 69901 78080 82932
333 00254 91117 91534=
51495 11980 73405 10272 20055 40077 57010 69901 70080 81042
333 00052 91118 91527=
51730 32675 10000 10285 20094 49996 57016 81102 333 05204=
52118 32680 70000 10218 21008 38200 52001 879// 333 05100=
51573 32980 60000 10342 20093 39932 49974 57012 80002 333//
05304=
51709 32880 72902 10256 20072 38632 40007 52005 85962 333//
05100=
80002=
10162=
10317=
10277=
10291=
50434 11580 70000 10140 20074 39249 40085 52027 69921 70080
879//=
50915 32580 40903 10191 20089 39117 40060 52021 82902=
51716 32868 72202 10291 20040 38786 49986 57007 82962 333//
05104=
51811 32960 70000 10258 20125 38681 40009 57012 83032 333//
00053=
52267 32980 70000 10297 21014 38966 49985 57005 80002 333//
00001=
52495 32980 60407 10262 21073 38593 40005 52002 82032 333//
00100=
53149 32680 23604 10214 21012 38722 40053 52014 82400 333//
00600=
53192 11580 70702 10174 20068 38820 40070 52022 69901 70098
86902=
53336 32980 13605 10221 21018 38645 40030 52001 80002 333//
00300=
53391 32580 73403 10147 20077 38452 40062 52020 84102 333//
00552=
53529 32980 70204 10252 21054 38544 40010 52006 82062 333//
00100=
53543 32980 23203 10226 21064 38473 40018 52003 80002=
54012 32580 70000 10157 20103 38955 40069 52023 81902=
54208 11680 23202 10135 20097 38677 40053 52015 60021 70098
81402=
54776 32980 01807 10138 20131 30001 40058 52004=
57793 32980 70000 10272 20244 40054 52002 87040=
10401=
72451 73131 74012 75430 76900 90136=
55696 11680 11807 10158 20025 36335 57005 69901 70080 81200
333// 05302=
55598 11680 72902 10161 20052 36571 57001 69901 78098 879//
333// 05400=
55690 11480 52505 10063 20030 36006 57005 69911 70080 85900
333// 05152=
56307 11779 72503 10182 20049 36815 57001 69901 79598 879//
333// 05200=
55681 11780 22704 10109 20011 35896 57003 69901 70080 82100
333// 05304=
56034 32580 22501 10091 21035 35924 57007 82900 333 05401=
71135 36/64 /0704 10042 21009 39140 40213 55002 333 10170 20038
70002=
71894 36/// ///// 10100 30191 40200 53005 333 10166 20097 70000=
71906 11474 72510 10061 20028 39992 40038 51003 69901 70166 87500
333 10214 20060 55/// 70040 90952=
65306 32960 72206 10315 20230 39766 40092 83032
333 58010 83363 85076=
65319 32960 7//// 10287 20208 39591 40099 8703/
333 58014 85361=
65330 32570 71804 10301 20228 39669 40102 81138
333 58005 81823 87276 94906 95836=
65335 32460 7//// 10313 20225 39877 40099 878//
333 58005 83613 85826 94919 95819=
65344 11470 72212 10306 20260 30095 40105 69901 70396 84902
333 58002 84815 81923 85076 94967 95837=
71603 31274 71607 10090 20074 30213 40266 55000 70341 82651
333 10131 20032 55091 70000=
71871 32774 60403 10036 20002 39464 40270 53007 81571 333 10139 20005
70000=
84628 34320 20000 10140 20132 30133 40149 71044 826//
333   20136 563// 58016 82710=
84455 31904 50000 10220 20206 39820 40172 7460/ 8503/
333   20210 5600/ 58030 85362=
84501 31862 10000 10168 20159 30118 40160 70200 81030
333   20160 56000 58012 81360=
84686 31959 00000 10034 21014 36900 70200
333   20020 580027=
84691 31330 80703 10140 20130 30114 40121 71044 886//
333   20130 560// 58014 84707 88712=
84452 31960 70000 10193 20157 30105 40136 70300 8703/
333   20170 5600/ 59005 87363=
84370 31860 80000 10230 20215 30080 40108 70222 85034
333   20220 56000 59003 85357 83075=
84472 31965 00000 10052 20031 37410 7020/
333    20026 58002=
84542 31965 00000 10050 20050 37370 702//
333   20040 58003=
84401 31960 00000 10200 20170 30090 40159 70122
333   20200 59004=
84390 31968 51614 10198 20171 30031 40133 70222 85030
333   20182 56000 58003 85362=
84515 31460 20000 10229 20215 39952 40131 70300 82100
333   20210 56900 58015 82820=
84782 31965 00000 10112 20093 39644 40190 70120
333   20095 58010=
84752 31965 00104 10072 21062 37532 70200
333   20047 58017 =
84658 31130 80000 10230 20216 39885 40111 71022 887//
333   20220 569// 58029 88705=
84444 31410 80000 10115 20106 37546 728// 8562/
333   20110 5600/ 58010 85714 83460=
84673 31968 00000 10090 20053 37367 702//
(333)  20020 58020=
84377 31460 70000 10240 20226 30020 40123 70222 8453/
333   20214 5600/ 58016 84612 83360=
84425 31461 82703 10230 20201 39952 40171 702// 8553/
333   20210 5699/ 58022 85615 83362=
84564 31960 00000 10120 20120 38186 70000
333   20110 58016=
84531 31960 30404 10162 20141 30122 40134 702// 83030
333   20146 56090 58003 83363=
84534 21660 50000 10200 20193 39410 40137 703// 855//
333   20200 569// 58020 60124 85640=
84735 31966 00000 11024 21060 36435 7020/
333   21060 58004=
89816 46/// ///// 11267 38414 4//// 5////=
61990 41575 41004 10251 20200 40175 70281 84200
333 58012 94310=
61995 42475 31110 10236 20171 39692 83200
333 58009 94312=
61988 42580 41111 10252 20187 40172 84800
333 58010 94310=
61986 42580 31116 10271 20208 40146 83200
333 58002 94312=
61974 41468 61210 10274 20230 40110 71581 86344
333 59003 94312=
61968 32575 61504 10291 20213 40135 82870
333 59001 81825 85362 92438=
61970 36/// /1706 10278 20190 30147 40158
333 58003=
61972 32570 51508 10249 20147 40191 85200
333 58014 85820 92438=
61976 32570 21216 10271 20214 40151 82200
333 58015 82823 92448=
61980 32570 60912 10256 20202 40175 84830
333 58011 82820 83650 92438=
67005 32580 21708 10286 20221 40141 82800
333 58002 82828=
61996 32580 22514 10143 20127 40189 82100
333 58057 82826 92438=
61998 32575 32717 10054 20008 39998 40033 51017 82502
333 58140 82620 83075=
60020 32565 81005 10237 20178 30134 40178 53001 81506
333 92437=
60030 31557 20415 10231 20195 30110 40164 52003 71044 81501
333 92426=
60040 32460 31017 10209 20207 30151 40176 50015 81501
333 92447=
48601 11560 73503 10276 20241 30066 40070 69901 70582 82532 333
10298 82625 87077=
96413 11465 72804 10242 20233 30045 40071 60041 72996 8497/ 333
10318 81915 83620 87365=
96421 31468 73604 10273 20253 30038 40074 71322 82931 333 10324
81915 83365 85080=
96441 32468 63605 10290 20235 30067 40072 81441 333 10323 81616
86080=
96449 32465 70000 10276 20242 30050 40070 81131 333 10328 81814
83365 87080=
96465 32465 73405 10287 20246 30044 40078 81838 333 10320 81812
83364 87279=
96471 32470 70902 10286 20241 30076 40079 82848 333 10322 81816
87277=
96481 11459 71604 10251 20233 30055 40078 60091 76196 8487/ 333
10316 81817 83627 87466=
96491 31465 70203 10283 20254 30066 40079 71392 84948 333 10317
83816 81917 87277=
91944 36/// /0220 10268 20237 30112 40118 58006 333 10287 55///
21737R=
91945 36/// /3519 10268 20233 30091 40096 54000 333 10287 58010
555 1//33=
71073 36/// /1501 10001 21002 39833 40253 55003 333 10126 21019
70024=
86011 32870 80000 10198 20168 40169 52013 8807/ 333 20194 88457 =
86033 22470 81802 10198 20182 40135 52021 886// 333 20196 60044 =
86065 32870 80000 10188 20111 40207 53012 8807/ 333 20170 =
86068 32570 81805 10170 20132 40174 52027 8257/ 333 20168 =
86086 22470 81803 10174 20152 40182 52027 8457/
333 20170 60104 84615 88454 =
86097 21000 91810 10150 20146 40183 52024 74544 333 20144 60524 =
86134 22970 31806 10162 20121 40178 52019 83030 333 20144 69944 =
86192 32870 41402 10144 20097 40149 52035 84070 333 20112 =
86210 22470 81040 10152 20147 40152 52024 885//
333 20132 69944 88615 =
86218 32870 71812 10142 20103 40191 52022 87070 333 20142 =
86233 32970 01805 10122 20098 40166 53007 333 20100 =
86248 32970 01805 10130 20108 40170 53017 333 20108 =
86255 32970 21802 10118 20102 40199 52009 82030 333 20075 =
86260 32970 01404 10150 20111 40180 52012 333 20112 =
86268 32970 023GW2WPPIP RXXXX TXXXX EEE WPPOW V
IYWIT EWOUP QQYPR QPPOI WPPIT RPQUY TWPQE IPPPO EEE WPPIY V
IYWII EWOUP PPPPP QPQQW WPQPE RXXXX TXXXX EEE WPQPT V
IYWOU EWOUP EPPPP QPQPP WPPIE RPQUE TWPQI IPPPQ EEE WPPTP V
71809 32974 32208 10114 20003 30205 40232 55008 82031 333 10181 20022
70000=
91843 11498 42115 10206 20156 40100 50006 69901 72512 84200
333 10248 565// 84817=
89022 42999 12306 11255 21270 30007 40048 55000 80001
333 11205 21284 81065=
83377 31997 00000 10225 20137 38876 40126 70541 333 20148
59010=
83378
32970 01902 10235 20153 38983 48528 333 20138 59009=
83208 32970 00000 10218 20163 39453 40143 333 20162 58003=
83766 21496 80000 10132 20129 39506 40174 52035 71022 885//
333 20108 60024=
83767 21596 71802 10152 20127 39536 40176 53015 71022 85521
333 20123 60104=
83768 21562 51402 10149 20149 39507 40174 50021 71011
83530 333 20120 60034=
83783 21596 60903 10138 20122 39468 40159 51018 71042 81374
333 20090 60044=
83811 32997 03202 10120 20102 39238 40133 53002 333 20063=
83813 32997 02702 10118 20081 39034 40141 53012 333 20082=
83836 22997 12701 10107 20092 39152 40131 51010 80001
333 20051 69914=
83872 31596 32304 10125 20087 30071 40154 53012 70510 82301
333 20072=
83881 21/90 90000 10074 20070 39887 40200 51018 74540
333 20070 69934=
83883 31596 72302 10082 20077 39391 40177 52013 71021 87500
333 20064=
83887 31596 72706 10070 20066 39094 40158 52027 74622 87600
333 20068=
83899 32970 03206 10147 20110 30130 40130 50017 333
20090=
83907 31992 21802 10089 20084 39872 40164 53006 74640 80001
333 20075=
83912 31996 02302 10080 20071 39606 40165 52010 71000 333 20060=
83914 31595 72303 10080 20065 39388 40186 53019 71021 87500
333 20070=
83919 31496 82708 10065 20047 38956 40157 52012 71021 885//
333 20042=
83927 32597 81802 10088 20084 30088 40172 52013 885// 333 20058=
83936 31996 82703 10110 20094 30031 40157 52010 71042 8802/
333 20096=
83948 32597 12704 10153 20091 30094 40132 53012 81100 333 20122=
83953 32497 71806 10101 20088 39797 40184 53023 87500 333 20///=
83964 31596 62302 10104 20078 39650 40156 52018 71000 86500
333 20082=
83971 31465 32906 10132 20096 30160 40160 52017 71011
83600 333 20096=
83980 31596 82306 10103 20090 39884 40174 52014 71022 885//
333 20088=
83995 21396 82306 10128 20115 30142 40146 52020 78062 887//
333 20110 60044=
83997 21395 52310 10125 20103 30122 40167 52028 72161 84401
333 20106 60024=
83612 22570 60000 10200 20172 39516 40151 52023 83531
333 20170 60034=
83716 21808 70604 10150 20147 39628 40153 51009 74244
87030 333 20120 60024=
83721 31958 00000 10170 20092 39409 40160 53022 70500 333
20100=
83722 21868 20000 10158 20097 39456 40152 51026 70511
81031 333 20128 69904=
83780 31965 13002 10172 20091 39246 40153 51020
70511 81030 333 20134=
83818 32970 30000 10226 20173 30140 40143 53020 83030
333 20172=
83827 31970 01802 10136 20111 39892 40177 51017 70040
333 20108=
83550 32997 0//// 10250 20217 30098 40128 70004 80000 333
20200 59042=
83649 32970 00000 10265 20213 40134 52025=
83695 32997 00000 10212 20180 30008 40147 5//// 333 20160=
83698 31997 00000 10224 20162 30118 40132 50217 70544 333
20190=
83718 31595 10000 10190 20164 3//// 4//// 5//// 71044 81100 333
20127=
83738 32999 00000 10130 20124 39630 40141 52010 333 20090=
83248 32470 60805 10274 20225 40149 83201 333 20220 59007=
83349 32570 22805 10264 20246 40143 82200 333 20217
59016=
83497 22970 03208 10256 20213 40136 333 20220 59029
60024=
82287 22596 61404 10264 20242 30070 40096 86200 333 20225 58001
60134=
82392 22498 52301 10266 20237 30010 40113 84230 333 20220 59001
60084=
82398 21565 41004 10272 20248 40131 71561 83130 333
20252 58004 60044=
82493 32596 609// 10284 20226 30114 40128 83870 333 20234 58008=
82579 22470 70000 10272 20237 40130 82130 333 20227 58001 60174=
82583 21597 81403 10227 20213 39802 40144 76122 885// 333 20216
58008 69934=
82599 21462 71705 10256 20254 40146 71562 85231 333 20234 58007
60654=
82678 32798 70906 10284 20199 39983 40141 85032 333 20218 58007=
82683 21595 71402 10236 20217 39693 40146 70262 87700 333 20211
58005 60324=
82689 32598 20904 10268 20178 39867 40131 81101 333 20222 59009=
82780 32698 40904 10281 20187 39884 40134 81140 333 20204 58005=
82789 32999 20503 10210 20174 39022 40130 333 20170 58003=
82795 32597 50509 10244 20201 39519 40135 83201 333 20208 58003=
82798 21596 80000 10262 20246 30139 40160 70062 88800 333 20240
58000 60224=
82879 32798 61405 10270 20163 39869 40135 86010 333 20215 58002=
82882 32698 51411 10254 20186 39700 40116 84130 333 20225 59009=
82886 32697 51807 10253 20190 39748 40131 82202 333 20204 58003=
82893 21698 81405 10202 20195 39234 40141 70255 885// 333 20181
59006 69944=
82899 21450 72006 10276 20252 40143 76062 87830 333 20240 59002
60094=
82900 21597 81804 10270 20243 30127 40136 76062 888// 333 20230
59001 60054=
82975 32592 32705 10221 20188 39754 40152 81203 333 20163 59005=
82976 32596 21406 10232 20172 39550 40135 82100 333 20182 59002=
82983 32595 50906 10234 20172 39737 40154 82101 333 20208 58002=
82026 22370 70000 10228 20223 40124 875000 333 20211
59003 69934=
82193 22470 31104 10282 20261 40106 83101 333 20236
58001 60134=
58003=
82022 21458 70000 10226 20214 40139 72162 83531 333
20218 58015 60174=
82332 42570 60104 10274 20261 40135 81230 333 20250
58008=
82824 32970 10000 10246 20225 40119 81030 333 20228
58004=
82917 01956 50000 10218 20210 40128 71041 80001 333 20288 58016=
45011 32475 61408 10285 20252 40078 53003 83933
333 11 59003=
61600 32960 03212 10274 20224 30108 40113
333 0//00 59015=
61627 32960 03002 10364 20210 30072 40095
333 0//00 59018=
61641 32458 42908 10247 20201 30089 40122 84600
333 0//00 59008 84710=
61679 32962 02804 10298 20226 30118 40126
333 0//00 59008=
61687 32957 31806 10331 20183 30042 40098 80002
333 0//00 59012 83073=
61695 32962 02806 10290 20220 30098 40124
333 0//00 59012=
89050 32370 71212 11022 21031 40168 56006 87500
333   87607=
89512 42998 61406 11091 21243 39816 49967 52002 80001=
89592 11940 01230 11091 21091 40054 57030 60142 73873 80000=
89606 11935 22816 11533 21588 36382 47596 57003 60022
77673 80008=
40103 32970 03004 10272 20195 40103 54001=
57106 32963 71603 10255 20144 40001 57002 80002 333 05253=
52895 32970 80405 10272 20027 49966 52011 8802/ 333 05203=
53738 32780 70402 10289 20077 49984 52008 85502=
52674 32980 71103 10213 20011 37951 54000 82042 333 05102=
56093 11565 82905 10178 20144 37630 52016 60011 79598 889//
333 05453=
52447 32980 80904 10278 21015 49984 52003 80007 333 05101=
52765 32580 71102 10163 20004 37150 52010 879// 333 05251=
56067 32580 72903 10125 20022 36523 52023 879// 333 05401
91117 91529=
57143 32980 21104 10301 20086 49991 52006 80002=
16080 32560 42607 10252 20149 30004 40122 57007 81130
333 81825 83360=
16153 32997 40611 10240 20191 39880 40133 52001 80002 91145 333
55310 555 0213/=
16045 32562 61505 10220 20131 30072 40134 58001 84201 91145 333
55308 84830=
16105 31456 51303 10205 20129 30128 40134 58001 71011 83250
333 83820 83357=
16191 32682 62711 10274 20130 30113 40130 55006 81142
333 81835=
16158 32665 52513 10240 20130 30147 40154 50001 82170 91145 333
55310 82835 84361=
16242 32560 51410 10243 20168 30155 40158 58004 81110
333 81825 85458 555 0////=
16310 32697 61309 10226 20201 39960 40174 52002 84230 91145 333
55300 84840 83357 555 0214/=
16420 32597 51706 10262 20183 30112 40175 50000 83401 91145 333
55310 83625 555 0200/=
16429 32970 23308 10254 20202 30176 40187 58001 80001 91145 333
55310=
16470 32965 13009 10220 20178 39962 40192 56002 80001 91145 333
55310 22345 95000=
16410 32970 00109 10276 20080 30051 40185 54000 91145=
16066 31950 02403 10227 20118 39883 40132
57007 71000=
16084 31558 73207 10240 20141 39966 40125 58006 71022 82108 91145
333 55309 82830=
16120 32570 61608 10223 20168 30137 40140 53003 83240
333 83830 83360 97075 555 0313/=
16090 31558 42504 10221 20156 30047 40126 58003 71011 84200 91145
333 55310 84825=
16170 32560 52912 10241 20124 30102 40145 51001 84210
333 84830 84457=
16206 32570 61815 10256 20164 30139 40147 57002 82202 91145 333
82825=
16289 32560 59906 10245 20184 30090 40173 58007 85800 333 83825
83640=
16405 32960 09905 10263 20116 30144 40183 56000=
16460 32970 00613 10266 20174 30148 40168 55001
333 95000=
16362 32560 22709 10245 20189 30158 40175 55004 82100
333 82820=
16008 41250 70412 10108 20075 38530 48490 53020 71062 84220 91145
333 84804 85456=
16020 32670 42102 10211 20103 39837 40115 57008 81260
333 81845 84361=
16040 32565 52906 10194 20069 39225 42755 58003 85900 91145 333 81930
84840=
16110 32580 10208 20135 30109 40132 58001 83162 91145 333 55302
83830
555 0100/=
16134 31757 52709 10090 20048 37839 48500 52010 71011 83250 91140
333 55309 84356 95010 95150 444 38//0=
16149 32570 50210 10240 20170 30112 40127 51007 81232 91145 333
81830=
16181 32573 62110 10242 20144 39899 40134 57005 85808 91145 333
55305 83820 83625=
16219 32465 62917 10134 20080 38158 48526 51003 86500 91145 333
55309 86610=
16280 32497 62507 10240 20200 39939 40152 50000 86800 91145 333
55300 84815 555 0216/=
16270 32560 50711 10263 20182 30089 40139 56006 82204
333 82835=
16325 32598 11313 10262 20196 30121 40134 58001 81100 91145 333
81825 98070 555 0213/=
16400 32597 23004 10250 20207 39903 40181 50003 81101 91145 333
55310 22/// 81820 555 0100/=
16453 32998 22007 10234 20186 30091 40167 58001 80004 91145 333
55310 98088 555 0215/=
16480 32998 02305 10262 20144 30115 40174 50002 91145 333 55310
555 0200/=
40250 31558 32015 10360 20109 39302 40040 57013 70700 88200 333
82835=
40265 32960 02110 10310 20120 39330 40083 57004=
40296 32965 00000 10384 20176 40110 57008=
40310 32960 00106 10330 20104 38906 48477 58005=
40255 32960 02906 10305 20082 39410 40081 54002=
40260 32960 03108 10352 20178 39322 40050 58008=
40270 32960 03112 10299 20084 39220 40065 57007=
40272 32960 03206 10314 20155 39279 40070 54000=
40340 31956 00118 10380 20199 40047 57020 70700=
40703 11660 70607 10222 20100 38872 40070 50013 60071 72998 86902
91147 333 83935 83640 83070=
40712 32660 53607 10242 20055 38635 40042 55010 85300 91145 333
82935 83840=
40729 32660 32404 10278 21011 38300 40050 58010 83100 91145 333
83835=
40736 32960 03402 10268 20181 30104 40077 51002 91145 333=
40739 32665 22403 10330 20010 38594 49993 57016 82500 91150 333
82635=
40768 32960 02404 10292 20038 38224 40027 57010 91150 333=
40769 32960 02405 10316 21105 38254 40008 56005 91150 333=
40785 32965 00000 10374 20021 38953 49980 57017 91150 333=
40821 32960 03405 10292 21048 38696 49961 57020 91150 333=
40831 32960 03409 10454 20106 30012 40020 57010 91150 333=
30372 32799 13103 10137 21017 39297 40111 53004 81400   333 10161=
30433 32999 80000 10149 20027 39548 40103 57004 80001   333 10199=
30554 32998 80402 10175 21005 39076 40080 53003 80001   333 10198=
30635 32899 33002 10123 20032 39565 40104 57002 83030   333 10196=
30673 32699 20202 10154 21009 39374 40088 53011 81402   333 10186=
30692 32998 23201 10136 20043 39618 40080 52026 82030   333 10189=
30758 32999 83501 10193 20000 39326 40080 53004 86031   333 10218=
30802 32799 20302 10210 20015 38627 48435 53006 82501   333 10228=
30823 32699 80506 10228 21002 39481 40057 53003 86901   333 10246=
30879 32599 13302 10172 20050 39362 40062 53015 81200   333 10200=
30935 32699 81702 10213 20046 39200 40050 53010 8697/   333 10262=
30949 32699 70902 10222 20045 39045 40034 53010 83950   333 10258=
30965 32999 33504 10180 21017 39314 40075 52023 80002   333 10242=
31300 11599 61502 10147 20094 39801 40070 53007 69932
71798 86901  333  10185=
31369 32998 80904 10094 20050 30062 40145 53008 80002   333 10135
91110=
31416 32999 60000 10136 20061 30021 40107 53005 80001   333 10206=
31484 32984 30000 10083 20046 39791 40113 53005 80001   333 10175=
31510 329// 01101 10183 20086 39910 40063 53002 333 10243=
31707 32998 20000 10146 20102 30006 40093 53011 80001   333 10213=
31735 32997 70503 10121 20070 30017 40101 53005 80001 333
10198=
41114 32560 21204 10316 20056 37960 48472 82200 333 58008 82825
555 04410 50004=
38583 42697 23203 10301 20156 39759 40051 57013 82100   555 10046=
16320 31460 40908 10268 20208 30135 40147 58006 70200 84100 91145
333 55310 84815 555 0212/=
44231 32699 20000 10238 21005 38641 40002 56009 83100 333
10244=
44292 32699 30000 10223 20006 38636 40032 55002 83200 333
10229=
33177 42599 81801 10168 20055 39932 40161 58005 85107=
33088 42597 70202 10176 20055 39972 40155 58002 85210=
16261 32675 52208 10260 20154 30064 40133 56005 83530 91145 333
55307 83635 83357 95000=
16230 32670 50710 10260 20165 30112 40125 57007 82401
333 82635=
16360 32597 12410 10242 20202 30019 40148 58002 81100 91145 333
55310 81820 555 0////=
16252 32570 52315 10220 20111 39241 42799 54000 81108 91145 333
55304 81820=
16560 32575 13214 10298 20148 30171 40177 58009 81102 91145 333
55310 81830=
41992 31950 02105 10305 20270 30002 40006 70501 333 10342 59005
70000=
44203 32699 10000 10194 20042 38352 40034 57002 81200 333
10196=
44207 32699 60204 10181 21025 38277 40044 53002 81261 333
10192=
44230 32698 22501 10232 20067 38713 40027 57009 81101 333
10252=
44298 32899 72702 10193 20015 38655 40044 54005 87010 333
10226=
16520 32570 59909 10253 20185 30170 40197 58003 82202
333 82820=
16522 32998 43112 10214 20188 39964 40201 58002 80002 91145 333
55310 555 0100/=
16539 31996 43107 10206 20182 30085 40197 52001 71000 80004 91145
555 0100/=
16550 32898 41504 10270 20144 39992 40163 51001 84020 91145 333
55310 84458 555 0100/=
16564 32498 32618 10258 20167 30029 40164 58011 81101 91145 333
81815 555 0316/=
38613 41998 81802 10237 20107 39263 40101 53002 70182 8802/
555 10025=
12215 36/// /3304 10159 20045 30001 40175=
38388 42998 03602 10323 20034 30024 40090 54000 555   18049=
38656 42998 03201 10353 20044 39968 40067 57016 555   10051=
38974 42998 00204 10369 20177 39729 40027 57012 555   10054=
38886 42993 00702 10374 20308 40046 58022 555   10061=
38750 42997 02904 10255 20170 30098 40062 57010 555   10047=
38392 42998 23303 10294 20056 30005 40100 58010 80002 555
10046=
52986 11670 81601 10201 20098 38028 52013 69911 72998 86902
333 05253=
52446 32980 70403 10253 20052 49986 57001 80002 333 05102=
53929 32765 71403 10266 20084 49967 52004 82402=
57144 32980 32903 10270 20095 49996 52001 80002=
48303 01560 72103 10280 20235 39574 40010 60022 79591 86976
333 10345 59033 60025 70016=
48328 32565 70000 10277 20231 39740 40012 83535
333 10350 59022=
48330 31558 60000 10303 20264 39830 40011 71092 84536
333 10350 59025 70001=
48351 31558 70000 10320 20254 39941 40012 71021 83846
333 10357 59020=
48354 01458 71103 10294 20248 39813 40012 69952 71396 84976
333 10347 59020 69906 70005=
48376 01558 80000 10294 20217 39882 40022 69902 76022 84536
333 10342 59020 69905 79999=
48377 01558 80000 10275 20239 39861 40025 69902 76022 84536
333 10344 59011 69905 70012=
48379 31560 70000 10301 20239 39880 40010 71722 83933
333 10359 59007=
48400 01560 81904 10277 20248 39984 40024 60062 70392 84936
333 10351 58002 60067 70055=
48432 31560 80000 10295 20257 39866 40031 71322 82906
333 10314 59008 70151=
48455 11561 70000 10299 20261 30031 40036 60142 71092 84976
333 10337 59002 70139=
48462 01450 83002 10246 20242 39994 40050 60112 76196 8592/
333 10333 58012 60097 70111=
48475 32562 70000 10293 20227 30030 40042 82246
333 10339 58004=
48477 01460 81903 10297 20265 30026 40040 60022 71396 82976
333 10342 59005 69907 70020=
48532 11558 80000 10265 20246 30042 40051 60782 71062 85876
333 10268 59015 70965=
48567 12560 80000 10275 20248 30036 40054 60112 82857
333 10302 59008=
23914 42999 10202 10232 20041 39918 40157 57009 80002=
23921 42999 23603 10201 20050 30051 40162 57007 81031=
23955 32998 63506 10126 20040 39982 40040 52013 82039   333 10145=
23966 11397 83604 10082 20059 39865 49984 52012 69942 78082 889//
333 10107=
28255 42999 03204 10177 20032 30015 40136 53001=
28440 42998 33503 10191 20000 39816 40142 57002 80005=
28661 42699 20207 10202 20065 30018 40104 52001 82100=
28722 42998 30204 10230 20038 30027 40148 57003 80001=
28748 42960 00505 10191 20059 39897 40121 53003=
29231 11497 82804 10120 20117 39876 49967 52024 60082 78082 883//
333 10147 88913=
29313 11498 83605 10102 20085 39896 40011 52024 69952 72082 886//
333 10135 85612=
29612 31498 63204 10163 20105 39854 49993 52006 70282 86200
333 10180=
29634 11657 82702 10184 20104 39781 49984 53006 60012 70382 8535/
333 10197 85933=
29838 11597 71801 10208 20097 39783 49994 58004 69902 70282 87530
333 10224=
23909 42698 23002 10254 20084 39926 40153 57008 81101=
28116 42998 20203 10240 20051 39950 40164 57005 80001=
28240 42997 23405 10189 20027 39848 40161 57003 80001=
28419 42998 60501 10233 20058 30032 40151 57009 80001=
28621 42981 60203 10227 20045 39940 40155 58006 80001=
29023 11398 83604 10087 20070 39906 49998 52019 69952 70262 885//
333 10104=
29122 11598 83603 10096 20081 39932 40003 52024 60022 72582 883//
333 10114 85924=
29328 11598 83303 10151 20093 39853 49982 52014 60032 70282 87901
333 10169 85921=
29348 11597 72903 10171 20104 39831 49964 53006 60042 70298 87900
333 10188 85647=
29405 11597 83506 10113 20069 39891 40029 52019 69932 70282 883//
333 10139 88925=
29418 11498 81602 10126 20095 39857 40006 52014 69902 70282 889//
333 10153 88916=
29430 11598 72702 10177 20098 39812 49973 52011 60042 70282 84980
333 10186=
29524 11484 83203 10164 20122 39835 49985 53008 60012 70282 86901
333 10182=
29605 12498 82904 10129 20094 39881 40014 52011 69902 889//
333 10169=
29631 11597 82302 10185 20115 499712 53009 60032 70282 8593/
333 10201=
29706 11499 80104 10159 20119 39859 49994 52003 60012 70282 883//
333 10163=
29736 32598 83402 10183 20123 39765 49994 53004 86401
333 10218=
29937 11496 81501 10161 20145 39817 40021 53025 60032 79598 889//
333 10209 88919=
36034 11598 80305 10148 20131 39735 49990 53012 60152 72998 82903
333 10229 91122=
48620 31563 70000 10287 20243 30060 40069 70522 82548 333 10336
82633 87276=
48647 31466 70000 10307 20227 30041 40066 70522 82952 333 10344
81917 86362=
48665 32470 70000 10290 20229 30057 40067 82952 333 10335 81917
84364 86078=
28216 42999 23204 10228 20017 39901 40162 58004 80002=
28321 42984 00202 10234 20021 39968 40156 57003=
28451 42698 23405 10188 20009 39980 40129 57001 82101=
28537 42982 53603 10198 20013 39751 40141 57001 80003=
28541 42984 20102 10194 20013 39672 40131 53002 80002=
28642 42697 43505 10194 20050 40135 54000 83101=
28655 32581 23605 10190 20064 39912 40119 53003 82200=
28925 42599 70405 10241 20099 39923 40129 54000 81101=
29557 32598 72106 10212 20070 39737 49978 53008 85371   333 10245=
29625 11598 73304 10173 20104 49984 52001 69932 70282 86930
333 10195=
29642 11660 82605 10174 20101 49994 52008 69902 72522 8337/   333
10214=
29813 32499 83002 10186 20171 49961 58031 889//
333 10196 88915=
29822 32597 73202 10198 20119 39833 49981 53002 87901   333 10216
87923=
29846 11597 82505 10177 20146 39641 49993 58005 69982 70298 8395/
333 10235=
29915 11498 80302 10178 20128 49988 54000 69962 78082 889//   333
10204 88912=
30385 32999 80000 10120 20043 39581 40095 53004 82030   333 10172=
30469 32999 03601 10167 21050 39388 40086 52009   333 10197=
30650 32999 80000 10165 20006 39060 40089 52001 80001   333 10198=
30781 32999 02603 10108 20043 39655 40097 52019   333 10212=
30844 32999 60000 10184 21036 39170 40063 57003 80006   333 10219=
30925 11599 82001 10143 20111 39167 40066 53029 60042 79598 86930
333 10277 86928 91118=
31371 32599 70000 10127 20106 39834 40083 52009 86930 333 10203=
31388 32699 50000 10140 20076 39836 40081 53010 85500   333 10217=
31478 32984 20901 10119 21038 39059 40081 53007 80000=
31532 32999 00000 10105 20045 40093 53006 33333 10232 55555 11038=
31594 32975 01502 10179 20081 39915 40072 57002   333 10220=
31754 32999 20000 10043 20011 39632 40119 53005 80001   333 10180=
48310 32560 70000 10293 20249 39570 40011 83536
333 10337 59018 70001=
48325 01520 80000 10245 20230 39789 40030 60152 79791 889//
333 10346 59016 60756 70745=
48329 31562 71302 10297 20228 39681 40011 71521 84806
333 10337 59025=
48357 32562 60000 10300 20258 39864 40030 82536
333 10337 59009=
48380 32560 50000 10290 20240 39927 40020 82946
333 10346 59026=
48383 32562 60000 10303 20259 39863 40018 83806
333 10338 59015 70033=
48403 32560 82106 10298 20250 39829 40034 84973
333 10316 59012 70358=
48405 32562 60000 10300 20250 39872 40031 83556
333 10325 59002 70068=
48421 01557 80000 10267 20253 39928 40041 60012 76062 83346
333 10345 59004 60016 70010=
48425 31460 81703 10284 20250 30024 40034 70392 8592/
333 10345 58000 70007=
48426 01560 80000 10270 20253 30021 40034 60042 70292 84876
333 10347 59001 60047 70038=
48430 01559 80000 10260 20238 30030 40038 69932 71062 83977
333 10342 59001 69936 70003=
48450 01560 80000 10266 20240 30004 40037 69962 70296 8587/
333 10341 59002 69927 70046=
48459 01564 80000 10275 20251 30031 40034 60082 71396 8597/
333 10335 59003 60017 70084=
48465 31558 83003 10270 20239 30036 40041 71722 8697/
333 10330 58003 70030=
48550 32560 82805 10282 20232 30043 40050 81146
333 10304 59004=
48552 32460 80000 10281 20230 30042 40048 86237
333 10309 59008=
48566 32560 83614 10290 20242 30055 40063 83877
333 10303 59021 70018=
48568 32460 82304 10290 20235 30048 40056 85876
333 10314 59007 70024=
48315 01557 60000 10277 20254 39758 40022 69982 71362 84976
333 10340 59024 69907 70008=
48413 32560 80000 10296 20255 39947 40026 83576
333 10345 59005 70002=
48416 32962 60000 10304 20256 39887 40032 82046
333 10320 59009 70157=
48418 31558 80000 10291 20250 39972 40028 71092 82976
333 10350 59009 70003=
48460 01560 81702 10285 20264 30008 40039 60022 70296 8697/
333 10313 58001 69907 70016=
48461 01560 80000 10285 20255 39967 40036 69902 76092 85976
333 10327 59004 69905 79999=
48478 11559 70000 10295 20252 30035 40040 60022 71062 83576
333 10343 59004 70027=
48501 01450 80000 10257 20243 30048 40056 60612 79596 8697/
333 1//// 58000 60347 70743=
48561 32560 80000 10289 20246 30057 40061 83546
333 10319 59011 70204=
48564 32560 80000 10287 20236 30054 40059 83206
333 10318 59006 70173=
48580 11558 80000 10275 20246 30048 40055 69942 71062 83847
333 10297 59004 70004=
26898 41458 83602 10170 20148 39860 40112 54000 72582 8597/   333
84919=
26997 42439 83405 10147 20143 39888 40097 57010 79598 889//   333
87914=
27595 42997 20000 10264 20085 30030 40163 52004 80001=
27612 42597 71502 10240 20176 39929 40107 53001 72998 86904=
27703 41597 82804 10238 20139 39881 40110 58002 71798 86901   333
84926=
27707 41476 72702 10207 20148 39839 40113 53002 78098 85970   333
83919=
27719 42697 51908 10272 20111 39881 40111 58004 83201=
27786 42997 20403 10262 20068 30012 40159 56001 80001=
27906 11597 62202 10182 20153 40111 53002 60032 72998 84330   333
20148=
27928 42698 61204 10273 20081 30023 40114 58005 82241=
27947 42697 21506 10275 20098 39997 40144 58004 82100=
27962 42797 50000 10282 20129 40147 58004 82201=
27983 42998 10502 10264 20097 30039 40158 58008 80001=
28711 42998 50104 10239 20034 39802 40148 57003 80001=
28807 42997 20504 10265 20107 30105 40152 58002 80001=
34009 41568 71403 10198 20129 39807 40093 58013 72598 86930=
34047 42984 01204 10271 20064 39970 40137 57003=
34123 42982 71506 10261 20055 39952 40121 57007 82031=
34152 42999 11402 10266 20092 39965 40145 57005 80001=
34172 42970 51202 10260 20077 39976 40154 57007 80001=
34186 42698 23303 10260 20100 30029 40156 57003 82100=
34247 42576 62003 10273 20076 30020 40125 57010 82106=
34336 42698 71103 10265 20090 30035 40131 57001 82202=
34391 32997 00202 10285 20085 30111 40139 57008=
35121 42698 60204 10249 20006 39994 40130 57001 81101=
22113 42584 72402 10184 20034 30021 40080 54000 86239   333 91004=
22217 42599 82001 10164 20059 30051 40080 55006 8225/   333 91002=
22235 42683 71902 10202 20124 39893 40075 58001 87500   333 87643
91004=
22349 41558 51201 10121 20098 30081 40092 58003 71022 81530   333
91002=
22408 41470 81501 10132 20084 39949 40093 54000 78082 883//   333
88917=
22721 41/02 91201 10112 20112 39994 40092 57005 74784=
22802 41498 82802 10117 20086 30104 40127 52005 70262 8221/=
22820 41442 82703 10129 20120 39961 40094 53003 78084 8793/   333
86912=
26059 41697 80201 10149 20080 30115 40138 51006 70282 86901   333
85633=
26063 41597 82402 10130 20084 30138 40145 52015 70286 8217/=
26094 41464 82804 10109 20099 30067 40142 53032 76162 8872/   333
88712 91113=
26258 42470 63502 10165 20076 30097 40149 52004 82950=
26298 41496 82702 10117 20102 39925 40149 52028 78082 889//=
26477 42565 83601 10156 20092 30020 40143 52006 883//   333 88926=
26585 41496 80202 10122 20112 39883 40148 52006 76162 8872/=
26702 42697 63103 10142 20061 30139 40164 52008 86200 333 86840=
26781 41596 83603 10123 20110 39856 40139 52005 78082 889//   333
88921=
27402 41697 72802 10177 20164 39944 40114 53013 70298 84330   333
91114=
22028 42983 20903 10161 20038 30057 40092 52006 80001   333 91005=
22106 42598 70000 10172 20055 30001 40075 54000 87900 333 84636
91001=
22127 42599 71503 10183 20045 39890 40079 58002 82130   333 91005=
22324 42599 71903 10166 20084 30044 40090 58005 85930   333 91004=
22621 42698 81102 10170 20121 39956 40088 57008 8397/=
22831 42698 72003 10265 20132 30029 40083 57011 82931=
22892 41598 71907 10115 20058 30120 40135 52010 70182 81202   333
91111=
26275 41598 80000 10141 20094 30117 40146 52008 70262 8321/=
26389 41459 83201 10118 20103 39887 40143 52012 71082 887//=
26695 41497 73204 10138 20123 39846 40142 52021 72582 86930   333
86612=
26882 41368 83505 10132 20121 39874 40139 52010 76186 8872/   333
88709=
21824 32370 20603 10007 21004 30110 40119 52008 81901 333
10012=
21908 32599 63602 10110 21009 30015 40089 53004 82501   333 10143=
21921 32999 60405 10069 20003 40081 52013 81031 333 10099=
21982 42482 80101 11018 21039 30187 40193 53001 885//   333 88617
91103=
25173 41995 73004 11050 21060 30174 40179 53008 71041 87030   333
91107=
25551 42598 70703 10043 21005 30104 40134 57004 87500=
25563 41440 81404 10003 21011 30086 40164 57002 74042 85602=
25594 42984 73601 11003 21009 30183 40205 57008 87030   333 91104=
31054 32599 70000 10158 20068 39791 40039 52001 87900   333 10225=
31123 32699 70000 10115 20071 39768 40069 52005 83570   333 10115=
41140 32660 12312 10354 20250 30024 40032 81100 333 58008 81830=
61017 32960 70410 10400 20060 39692 40075 80008
333 58006 87280=
61024 31950 61423 10412 20078 3395331 40069 70720 80008
3333 0//00 58006 86280=
61036 32965 6//// 10382 20186 39851 40080 80008 91145
333 58016 86280=
61043 32962 72608 10366 20160 39646 40068 80008
333 58011 87280=
61045 32662 7//// 10415 20130 39580 40052 81208 91145
333 59006 81840 87280 94905=
61049 32960 7//// 10422 20089 39744 40050 80008 91145
333 59013 87280=
61052 32965 72008 10394 20152 39834 40076 80008
333 0//00 58013 87280=
61075 32965 72406 10380 20184 39775 40071 80008
333 58010 87280=
61080 32765 72804 10390 20172 39648 40049 82208 91145
333 58002 82840 87280=
61090 32765 51006 10395 20172 39577 40063 81102
333 58005 81850 85080=
61096 32670 50602 10415 20169 39687 40051 81108 91148
333 59016 81840 85280=
61099 32965 5//// 10342 20212 39/// 4//// 80002
333 5//// 85080=
25621 11699 61301 10016 20011 39294 40110 53010 60030 70282 84531
333 10066=
25703 32799 20302 10080 21054 39853 40107 53015 82500   333 10135=
25913 32699 72702 10040 20009 39966 40109 52011 86530   333 10106
86636=
25954 11597 80207 10029 20005 30046 40050 57010 69930 78082 889//
333 10061=
31088 32599 71609 10068 20030 30059 40066 53009 86151   333 10092=
31829 32598 60409 10065 20034 30120 40151 52008 86500   333 10128=
31873 32999 10202 10168 20084 39945 40063 53005 81080   333 10234=
31909 32998 29901 10094 20041 30054 40130 53017 80009   333 10187=
31960 32298 61906 10086 20071 39860 40086 53020 82605   333 10207=
32053 12997 20000 10026 20021 30113 40155 52011 69900 80001   333
10113=
32061 12575 60000 10051 20049 30118 40156 53011 69900 83532   333
10078=
32098 32584 81906 10049 20030 30161 40171 51016 85543   333 10090
85632 91110=
32150 32696 79901 10086 20048 30124 40153 52013 87500   333 10163=
32165 32599 80503 10064 20014 30090 40150 53007 85175   333 10129=
32215 11596 22405 10032 20017 40088 52021 69900 70281 82500   333
10088 91011 91114=
32583 12599 23402 10039 20032 39996 40026 52020 60030 81530   333
10054=
32618 21497 80107 10026 20021 39880 49902 57011 78082 889//   333
10050=
28679 42699 83303 10177 20078 39903 40069 53008 885//   555 11019=
28766 42697 60203 10198 20062 39899 40075 54000 85201   555 10031=
28867 42598 73406 10188 20064 39839 40088 54000 87200   555 10024=
28952 42598 63603 10191 20043 39925 40107 54000 86900   555 1/023=
28966 41598 73206 10161 20095 39818 40083 52008 70282 86330   333
86995   555 11021=
29802 42597 83203 10160 20115 39866 49998 52004 86431   555 11018=
29807 42597 83201 10161 20085 39896 40006 53008 885//   555 12019=
35497 41598 73203 10147 20102 39291 40034 52012 70282 87900   555
11017=
36003 41496 82603 10149 20136 39859 40001 53007 78082 889//   555
11018=
36859 42599 62407 10248 20077 39334 40041 57002 82945   555 10031=
48353 31563 60000 10314 20241 39733 40014 71321 84903
333 10343 59022 70005=
48378 31458 81705 10300 20228 39967 40019 71522 8697/
333 10351 59015=
48431 31560 82105 10273 20238 39823 40034 70392 83867
333 10330 59006 70021=
34691 42998 13201 10287 20068 30147 40136 5/009 80003   555 1/051=
35108 42997 23203 10252 20074 40146 57004 80001=
35217 42998 33603 10251 20064 30108 40145 56001 80001   555 10035=
35229 42798 50602 10220 20041 39866 40118 52006 83101   555 10039=
35302 42998 13601 10254 20073 30129 40148 57004 80001   555 10041=
35406 42997 00000 10266 20064 40160 57007   555 10042=
35416 42697 30204 10250 20088 82101   555 10044=
35426 42899 60303 10222 39842 40111 53006 82065   555 10036=
35532 42698 60508 10208 20102 39648 40101 52005 85102   555 10040=
35671 42598 73606 10189 20080 39664 40061 52008 85942 555 10026=
35700 42998 00404 10287 20036 30139 40114 57011   555 10043=
35796 41697 62108 10202 20138 39633 40030 52001 86500 555 10025=
36152 41598 73105 10163 20127 39835 40010 53024 78098 87900   555
11019=
36177 41597 72006 10224 20088 39756 49978 53019 71798 86331   555
11021=
36428 41598 83203 10181 20123 39574 40033 51005 72598 889//   333
95000   555 11018=
36535 42599 81804 10228 20121 39445 40014 58006 889//   555 10025=
36639 41599 60000 10196 20139 39488 40041 54000 70282 85530   555
11024=
36821 42598 73303 10262 20093 40039 53005 83932=
36870 41497 81302 10183 20098 39151 40094 52041 79598 889// 333 88919
555 11019=
40706 3266 032007 10288 21034 38600 40036 56008 82101 91145 333
82835=
40745 32662 11308 10336 20092 38958 40012 57018 81400 91150
333 81635=
48010 32550 30000 10305 20239 49993 82802 333 10315 56506 59012=
48019 32556 40000 10306 20254 40013 81201 333 10327 56606 59007=
48025 32560 50000 10340 20257 49993 83230 333 10354 56990 59030=
48045 32459 60000 10247 20205 82168 333 10292 56999=
48053 32456 81801 10290 20230 40015 71799 8597/ 333 10370 56599 58003
48060 32556 60000 10284 20233 49987 82936 333 10310 56569 59051=
48071 32566 50000 10304 20253 81606 333 10330 56509 59013=
48080 21562 81301 10270 20256 40031 79596 86970 333 56590 59009=
48109 32597 52301 10294 20230 40047 83906 333 10315 56509 58019
48110 21496 80000 10266 20248 40062 75155 8672/ 333 10300 56999 58007
48112 31897 82701 10255 20255 40062 70152 8487/ 333 10274 5659/ 58003
48698 31466 70000 10282 20241 30048 40066 70522 81138 333 10312
50390 55011 00982 21272 31101 81818 85278=
56066 36/// ///// 10077 20019 36613 4//// 52018
555 10030 2//// 3//// 40111 51001 60/// 7//// 80000
9//// ///// 1/020 2//00 30000=
44210 32699 61404 10224 20030 38390 56002 83240 333 10251=
44217 32698 42303 10152 20073 37895 40062 56005 81244 333
10196=
44219 32698 50903 10259 21028 38506 49958 57013 81163 333
10275=
44221 32999 31601 10130 21044 38502 40048 57006 82048 333
10241=
44224 32698 20000 10209 21011 37994 49959 57007 81204 333
10269=
44263 32698 83202 10182 21037 37985 49990 51003 82248 333
10220=
44266 32699 72707 10200 20040 37733 49957 57009 85884 333
10213=
44286 32698 42905 10232 20056 38575 40020 52002 84200 333
10253=
44325 32699 31102 10283 20103 38730 49960 57006 82203 333
10298=
52681 32980 70202 10271 20017 38535 49981 57001 82042 333
05100=
52634 36/// /0000 10046 20014 36753 4//// 52013
555 10030 2//// 30123 41111 51011 60/// 7//// 80000
9//// ///// 1/113 2//00 30000=
57528 16/// /2000 10123 29756 37563 61430
555 1/145 2//09 30203 12100
11101 10101 00010 10110 1011/
/////
2//// 3//// 6//// ///// ///// 8//// 9//// ///// ///// //004
11101 11111 1011/
11111 110//=
58968 32970 01503 10300 20250 30068 40075 53017=
58974 32360 51606 10264 20259 39968 40085 52012 85600=
59358 32962 03002 10286 20243 30077 40088 52016=
59559 32560 62803 10279 20250 30055 40082 53014 86500=
59792 32560 20903 10288 20264 30078 40082 53006 81202=
59997 12562 72604 10266 20225 30058 40072 51016 60012 82220=
59158 32565 21902 10300 20234 39989 40086 53012 82200=
59562 32565 20203 10288 20240 30059 40070 52025 82100=
59567 32280 12431 10259 20233 39708 40075 51010 81100=
47105 32565 23201 10177 20117 30020 40051 52022 82502 333
10253 30017 55049 21656=
47108 32962 02704 10186 20109 39952 40054 52021 333 10257
30019 55073 22036 79999=
47115 32960 60000 10138 20117 39785 40044 52015 69902 83030
333 10202 30020 55071 70000 92041=
47135 32962 03202 10180 20131 39765 40047 50013 333 10258
31018 55068 22328 70001=
47138 32962 43602 10186 20143 30046 40049 52026 80001 333
10242 30019 55021 21476 70008 92022=
47159 11956 52303 10176 20166 39965 40046 52018 69972 71022
80001 333 10203 31016 55000 20992 70120 92022=
47165 32963 23604 10168 20128 30017 40060 52012 80001 333
10225 31017 55065 21973 70109 92022=
47184 12680 02503 10165 20148 30045 40072 52017 69902 333
10183 31016 21245 70180 92022=
47008 31260 80503 10136 20105 30015 40066 52011 71042 886//
333 10237=
47016 11540 80000 10138 20113 39219 40050 52006 69902 76166
889// 333 10241=
47020 32565 83604 10193 20123 39697 40241 53015 885// 333
10248=
47025 32960 40000 10113 20097 30022 40050 53019 84030 333
10252=
47035 32970 81803 10190 20152 30039 40047 52017 8807/ 333
10270=
47041 11560 81802 10158 20105 30036 40063 52026 69902 76062
8802/ 333 10248=
47055 32565 43602 10164 20132 30028 40072 52026 84500 333
10248=
47058 32966 13202 10170 20125 30017 40061 52016 81030 333
10226=
47069 32960 02705 10187 20130 39952 40046 53006 333 10245=
24641 32999 21301 10171 20002 39955 40086 57001 80001 333
10185=
31004 11597 80402 10090 20068 39298 40086 52011 60022 78082
87907 333 10117 87923=
31137 12598 53601 10082 20038 39098 40075 53002 69902 78082
83930 333 10154=
31329 32999 60000 10129 20015 39438 40064 53003 82032 333
10216=
10203=
10129=
47003 32980 81401 10144 20104 30083 40087 53020 885// 333
10209=
47005 12580 80000 10097 20086 38537 52010 60022 8535/ 333
10186=
47028 32965 82001 10226 20136 39951 40038 53014 8802/ 333
10280=
47031 11560 80000 10114 20112 60003 78081 889// 333 10202=
47039 32560 62301 10201 20198 39879 40058 52024 86500 333
10267=
47050 32965 31401 10159 20139 30010 40042 52012 83030 333
10224=
47052 32965 00000 10196 20139 39741 40059 52021 333 10244=
47060 32960 22704 10146 20133 30013 40069 53020 82030 333
10202=
47065 32965 03207 10153 20124 30005 40067 53014 333 10227=
47067 32965 00000 10201 20131 39930 40043 52017 333 10257=
47068 32970 02505 10139 20128 30028 40062 52014 333 10239=
47070 32970 02302 10177 20142 39971 40053 53013 333 10245=
98325 31458 43602 10290 20277 40076 51009 70544 81271 333
10348 56999 58004 81817=
98429 32560 51503 10300 20224 40086 52018 83830 333 10342
56999 58005 83825 84360=
98440 32475 20903 10294 20271 40085 53012 82201 333 10319
56299 59007 82815=
98444 32468 20401 10292 20261 40087 52018 82202 333 10328
56999 58009 82818=
98550 31460 50901 10288 20262 40083 52021 70544 81201 222//
20101 333 10330 56999 59010 81818 84075=
44214 32698 62706 10215 20030 38186 49955 54000 83280 333
10242=
44218 32698 70000 10256 20050 38479 49941 57005 86220 333
10270=
44232 32699 20000 10266 21030 39002 40012 57006 82100 333
10275=
44239 32699 20000 10236 20051 38707 49994 54000 82100 333
10257=
44259 32698 50905 10218 21012 39211 40057 52015 83272 333
10265=
44272 32698 20000 10223 20018 38144 49945 57008 82042 333
10231=
44277 32699 70000 10186 20050 37774 40977 57004 83504 333
10200=
44294 32698 63402 10200 20051 38515 40040 52005 86200 333
10235=
44314 32998 20000 10202 20036 39051 40049 53008 82060 333
10244=
44341 32599 61407 10189 20048 38557 40058 53009 83204 333
10234=
28879 41497 83404 10145 20094 39801 40071 52017 70282 889//
333 88918=
30230 32699 81203 10206 20017 39771 40068 57012 82531 333
10230=
30309 42998 51604 10204 20046 39479 40029 57011 80001 333
10215=
30710 42960 21507 10168 20004 39497 40079 53003 80001 333
10204=
35078 42498 70204 10137 20089 39708 40063 52007 87700 333
86625=
35188 41498 83002 10117 20107 39641 40051 52013 78082 889//=
35746 41999 60103 10210 20070 30019 40094 58011 70298 84042
333 91115=
38198 42699 22603 10286 20045 82100=
38341 42598 32802 10268 20084 39327 40037 54000 82900=
44354 32999 63209 10215 20043 39014 40008 53009 85702 333
10263=
44373 32599 20503 10224 21019 38470 40026 53001 81204 333
10242=
42348 32597 43204 10396 20181 49961 83803 333 10403 59014
82630=
42369 22996 04952 10312 20234 49981 333 10324 58006 6990/=
42452 32596 33202 10396 20185 49965 83400 333 10405 59019=
42647 32596 62004 10384 20204 40005 86800 333 10390 59017
82620 82825=
42724 32596 63601 10300 20261 40002 84330 333 10340 59027
83620 81930 85360=
42737 32597 43206 10372 20258 40004 84800 333 10381 56700
58017 82620 83830=
42809 21495 70501 10288 20233 49995 79596 84320 333 10364
59005 6993/ 83615 81930 85458=
42909 32597 32706 10322 20258 40035 83800 222// 20000 333
10331 56600 59020 81620=
43003 32596 62703 10314 20236 40041 86800 333 10330 59023
83620 83825=
43014 32596 52904 10348 20193 39373 49987 85800 333 10348
59025 83620 83825=
43063 32597 62903 10306 20204 39425 40028 83801 333 10335
59022 81628 83830 85070=
43117 32597 72503 10308 20229 40019 85332 333 10352 57990
59003=
43128 21596 72903 10310 20225 39421 40007 71792 84330 333
10358 57942 59011 6990/ 83620 81930 85360=
43185 32597 62301 10354 20269 39990 49993 82531 333 10366
59015 82620 85070=
43189 32597 70501 10340 20230 39990 49999 84802 333 10406
59015=
43192 21596 72702 10296 20268 40057 75052 84432 333 10310
59020 6002/=
43245 32597 53201 10334 20243 39981 40003 82570 333 10340
59015=
43279 32597 73201 10334 20227 39997 40014 81572 333 10356
59018 81620 85360=
43284 32597 72707 10300 20243 39950 40063 82830 333 10324
59015 82620 87359=
43295 21397 70000 10244 20209 39043 48460 75061 84931 333
10294 59008 57932 57973 6991/ 82612 83820 81925 85358=
43321 21496 72703 10256 20223 39610 40051 72162 83976 333
10334 56699 57964 57984 58005 6992/ 83615 81925 85358 86270=
43371 21596 83203 10252 20240 39993 40066 76096 8182/ 333
10308 5679/ 59008 6006/ 81620 88458=
22550 42597 62103 10289 20150 30080 40089 58003 82102=
22583 41675 73206 10241 20131 30053 40127 53010 79591 87900=
22768 42697 61903 10294 20110 30057 40108 57006 86900=
22845 42498 61802 10281 20191 39948 40091 57010 83301=
26850 42670 72401 10169 20045 39887 40149 52001 85131=
33008 42665 81001 10174 20058 39984 40157 58002 8221/=
37018 41698 82503 10218 20173 30077 40125 52010 70288 81534=
37054 42698 61204 10258 20146 39730 40085 57005 86900=
98223 31565 30000 10272 20245 40091 53012 70594 81261 333
10336 56999 58005 81820=
98328 31450 61601 10206 20186 38512 40074 53008 74644 86200
333 10248 56999 58006 86813=
98543 31470 50801 10297 20262 40085 52021 71322 82901 333
10345 56999 59015 82915 84075=
98618 11468 83402 10260 20240 40080 53004 69931 78084 83277
333 10332 56999 59007 82819 84358 85273=
98637 31465 60000 10290 20257 40069 53014 70242 83271 333
10332 56999 59008 83812 84358=
98755 11465 80000 10272 20254 40085 52023 60021 78022 8352/
333 10302 56999 59010 83618 88458=
98836 31565 40000 10273 20252 40085 52021 70594 81201 333
10334 56999 59011 81802 83081=
44241 32799 60000 10285 20076 39134 40007 57001 86240 333
10285=
44305 32599 50503 10219 20093 38970 40042 52002 85800 333
10155=
44347 32999 11403 10225 20081 38636 40021 55001 81060 333
10241=
44352 11599 60000 10193 20076 38851 40045 53007 60022 72998
86200 333 10244=
44358 32598 70910 10188 20122 38983 40089 53016 85360 333
10255=
44242 31697 63610 10225 20053 39193 40014 53012 73231 85740
333 10297 91216=
44317 11698 50901 10179 20086 38855 40040 52009 69952 72222
88404 333 10202=
44348 32997 30000 10194 20092 38642 40046 54003 83040 333
10224=
44374 32599 60903 10229 20041 38198 49965 56007 85202 333
10243=
44385 32699 10504 10235 20034 38829 40021 55000 81100 333
10251=
44386 32599 60000 10228 20043 38958 40031 53004 83340 333
10250=
48802 11397 60000 10197 20194 38370 54000 60182 72582 862//
333 02021 10225 59011 70156 85893=
48831 12498 20000 10286 20262 39986 40022 55006 60152 82200
333 01028 10300 59014 70158 82894=
48838 32698 10000 10287 20266 30034 40040 56004 81400 333
00029 10319 59022 70000 81696=
48863 11497 83202 10250 20242 30011 40020 50000 60432 71796
8692/ 333 01026 10276 59037 70525 84894 81995 85696 88499
96021 555 20250=
48866 11497 82703 10211 20211 39189 40059 52007 60192 76066
8672/ 333 01022 10222 59026 70203 86894 88499=
51705 11780 73402 10191 21001 37784 52008 69901 70098 86902
333// 05101=
51839 11/08 91402 10238 20057 49994 52013 69901 72583 333//
00154=
51931 31935 81805 10242 20091 40019 52009 70600 8802/ 333//
00152=
52424 32980 70000 10253 20109 49984 52001 84032 333 00153=
52576 32980 70000 10279 21040 38390 52001 85032 333// 05100=
52707 32770 73408 10190 21061 37232 52007 879// 333 00153=
56116 11680 60000 10156 20007 36315 57005 69901 70080 86800
333// 05401=
56137 32780 21802 10217 20026 36758 57009 82400 333// 05502=
10253 30017 55049 21656=
10270=
10280=
10224=
10348 56999 58004 81817=
10235=
10215=
80210 01240 80000 10178 20166 38667 60034 74154 81678
333 20172 31/// 55003 56000 58002 69907 81706 86357=
80214 11960 82403 10200 20188 69944 7052/ 88070=
80222 01462 80000 10104 20098 37530 62044 75065 8287/
333 20094 32/// 55011 56000 58006 60047 82612 87357=
80259 11356 80000 10191 20185 390-56 60044 71522 8457/
333 20187 30/// 50140 55002 5609/ 58007 84612 88457=
80315 11458 80000 10222 20217 39602 40091 769924 72052 8467/
333 20216 31/// 50270 55010 5669/ 58009 83710 88457=
80398 12960 80000 10238 20231 30023 40118 60044 84571
333 20229 31/// 50310 55060 5600/ 58012 84610 86358=
87078 32970 81802 10143 20089 30035 40187 52011 8807/ 333 10178
20143=
87097 31960 00000 10117 20098 39862 40181 52013 70240 333 10152
20102=
87155 31960 02001 10092 20088 30145 40208 52011 71000 333 10143
20057=
87162 32970 61608 10124 20103 30118 40119 51008 86030 333 10152
20113 56060=
87166 32970 01808 10094 20082 30129 40204 52008 333 10138 20083=
87178 32970 11404 10116 20094 30042 40191 53008 80001 333
10157 20094 56000 81075=
87270 31960 32004 10086 20078 30146 40210 52011 71000 80002
333 10120 20060 30003 56008 83070=
87289 32570 81810 10100 20084 30113 40198 53007 885//
333 10134 20068 56499 88615=
87374 31460 81406 10096 20084 30122 40216 52012 71011
8557/ 333 10122 20073 56339 85615 84360=
87393 31260 82002 10094 20082 30140 40204 52015 71021 886// 333
10138 20064 56399 88705=
87395 31156 80000 10094 20086 30160 40205 52016 71010 886// 333 10128
20068 56499 83703 88705=
87480 32465 70000 10088 20062 30194 40225 53012 87600 333 10105 20062
56300 83713 87630=
87497 31460 71405 10102 20094 30184 40210 52017 71011 85606 333
10116 20082 56306 83710 83620=
87534 32360 80902 10082 20076 30070 40236 52017 886// 333 10100 20047
30005 56399 88709=
87548 31959 80709 10086 20069 30116 40214 53005 71022 8807/ 333 10105
20079 30007 56009 88360=
87563 12865 80000 10061 20057 30178 40225 53018 69964 8802/ 333 10106
20052 56009 88558=
87576 11956 71807 10072 20054 30196 40220 52019 69904 71022 86078
333 10124 20062 56056 86360 87270=
87582 32960 71615 10104 20052 30212 40219 52019 80006 333 10129
20097 56006 87270=
87593 32960 71812 10068 20055 30192 40219 52019 87070 333 10122
20058 56200 87460=
87623 01130 81404 10063 20061 30021 40254 52015 60014 76362 8262/
333 10094 20060 32006 56399 60011 82703 88540=
87645 42965 42307 10034 20027 30014 40229 52011 84010
333 56050 84459=
87692 01560 81808 10100 20026 30205 40231 53009 60149
70382 83406 333 10118 20080 32000 56505 69901 83630
88270=
87715 01559 81110 10052 20043 39936 40267 52017 60174 76166 8472/ 333
10087 20052 33005 60081 84720 88545=
87750 11462 81410 10066 20050 30160 40262 52015 60034 71621 8472/
333 10093 20048 56009 84710 88560=
70026 31016 81109 11044 21044 30228 40235 55001 710// 91153 333
11006 21044 4/005 555 93112=
70133 31004 92004 11022 21028 30227 40233 53010 741// 91153 333
10033 21022 70005 555 93112=
70231 32666 60000 10078 20050 30133 40263 53010 91153 333 10122
20078 70015 555 93112=
70261 12666 89906 10094 20050 30084 40257 51012 69901 91153 333
10167 20094 555 93112=
70273 11566 80000 10067 20061 30232 40283 51003 69901 761// 91153
333 10128 20067 555 93112=
70308 31040 81611 10044 20039 30161 40172 53008 710// 91153 333
10061 20039 555 93112=
70316 32566 81318 10067 20050 30169 40206 53010 91153 333 10100
20061 70104 555 93112=
70326 32666 41606 10044 20017 30240 40262 51005 91152 333 10117
70013 555 93112=
70350 32966 60000 10061 20022 30246 40287 51003 91153 333 10128
20056 555 93112=
70361 32861 42803 10039 20033 30259 40277 55002 91153 333 10133
20039 555 93112=
70398 32966 23305 10089 20061 30185 40227 58004 91153 333 10150
20089 555 93112=
70341 32666 80000 10056 20039 30257 40285 51003 91153 333 10106
20056 555 93112=
70194 359// 82505 10080 20030 30055 91215 333 10140 555 93112=
78318 31562 10000 10258 20223 30155 40159 51018 70500 81202 333
10306 20234 30/// 50700 56909 58024 81820=
78325 31559 30701 1026 20229 30096 40153 53015 71000 81262 333
10304 20245 55027 56999 58025 81820 83080=
78333 32/10 20202 10235 20227 30144 40150 5/015 81243 333 10313
20206 30/// 55026 56999 58018 70002 818//=
78338 32560 52301 10236 20220 30140 40153 52016 83202 333 10314
20217 30/// 50810 55052 56201 57884 58023 83820 83070 555 10701
20005=
78349 31456 33201 10220 20215 30043 40154 52017 71000 81442 333
10301 20204 31/// 50490 56999 58024 70120 81819 83070=
78360 31568 70401 10258 20221 30137 40148 53016 72991 85903 333
10318 20254 30/// 55059 56909 57981 58016 81820 839// 92011=
78369 31568 60000 10260 20238 30135 40147 53010 70511 81262 333
10335 20245 30/// 55098 56999 58012 81820 86070 92000=
72201 32966 00000 10256 20228 30148 40156 53017 91153 333 10311
20256 70003 555 93112=
72202 12461 60205 10239 20228 30154 40159 51014 69951 91156 333
10333 20228 70180 555 93112=
72203 32566 40510 10261 20194 30162 40170 50012 91153 333 10306
20244 70046 555 93112=
72205 32862 20405 10228 20178 30147 40184 53016 91153 333 10317
20189 555 93112=
72206 32966 00000 10183 20167 30186 40195 51012 91156 333 10261
20150 555 93112=
72207 32966 00311 10178 20133 30198 40216 51017 91153 333 10278
20161 555 93112=
72208 32966 00207 10156 20122 30204 40218 53015 91156 333 10239
20133 555 93112=
72214 32966 00805 10194 20156 30182 40202 53017 91153 333 10317
20144 555 93112=
72217 32566 80000 10156 20133 30094 40223 53023 91153 333 10289
20128 555 93112=
72218 32964 00205 10161 20117 30179 40230 52023 91153 333 10289
20111 555 93112=
72219 32966 20810 10161 20128 39857 40228 51026 91153 333 10261
20144 555 93112=
72223 32864 40807 10222 20200 30105 40183 53015 91156 333 10311
20217 555 93112=
72226 32966 00905 10183 20150 30128 40201 51019 91153 333 10300
20150 555 93112=
72231 32562 40504 10239 20200 30158 40173 52015 91153 333 10333
20217 555 93112=
72234 32964 00000 10189 20161 30076 40186 53016 91153 333 10300
20178 555 93112=
72235 32962 00000 10183 20167 30061 40180 53017 91154 333 10311
20167 555 93112=
72240 31556 41104 10239 20228 30150 40168 53014 710// 91153 333
10339 20228 555 93112=
72243 32962 20000 10222 20222 30116 40154 53010 91153 333 10339
20217 555 93112=
72248 32761 20000 10211 20200 30065 40158 51011 91156 333 10328
20206 555 93112=
72250 32966 01307 10244 20228 30131 40136 53004 91156 333 10344
20244 555 93112=
72251 31559 41306 10230 20230 30123 710// 91212 333 10328 555
93112=
72254 35966 00000 10222 20211 39927 40139 53004 91153 333 10356
20222 555 93112=
72255 37956 00803 10217 20217 30110 40146 53008 710// 91151 333
10333 20211 70003 555 93112=
72256 32966 01908 10228 20217 39967 40143 53010 91153 333 10339
20222 555 93112=
72259 32966 41807 10244 20211 39941 40138 53009 91153 333 10350
20233 555 93112=
72261 35966 01211 10244 20206 39761 40112 53009 91153 333 10383
20244 555 93112=
72263 32966 01710 10228 20183 39459 40114 53006 91153 333 10367
20228 555 93112=
72265 32966 01511 10222 20167 39137 40091 53004 91153 333 10356
20222 555 93112=
72267 32966 01715 10211 20128 39015 40089 53008 91153 333 10361
20206 555 93112=
72270 32966 61413 10244 20133 38771 40039 53001 91151 333 10378
20244 91018 555 93112=
72274 32966 00000 10233 20033 39195 40067 53007 91155 333 10406
20233 555 93112=
72278 32966 00403 10272 20072 39678 40054 51011 91156 333 10417
20272 555 93112=
72280 32966 /1706 10239 20150 39979 40049 53003 91156 333 10420
555 93112=
72290 32462 81704 10167 20122 30114 40123 56004 91151 333 10194
20167 555 93112=
72295 32562 80704 10178 20139 30076 40113 56004 91150 333 10222
555 93112=
72304 37128 80111 10160 20160 30199 710// 91206 333 10161 91021
555 93112=
72308 32366 80612 10144 20128 30219 40226 53016 91151 333 10172
20139 70008 555 93112=
72310 32966 00207 10150 20100 30150 40231 51019 91156 333 10267
20133 555 93112=
72311 32962 00707 10150 20117 39950 40239 53026 91153 333 10272
20133 555 93112=
72314 32966 00206 10128 20094 39960 40235 53013 91151 333 10228
20089 555 93112=
72317 32964 20305 10111 20089 39910 40238 51010 91154 333 10189
20083 555 93112=
72324 32966 00000 10178 20156 39981 40227 51027 91153 333 10283
20156 555 93112=
72326 31658 60000 10167 20161 39869 40221 51023 710// 91153 333
10261 20156 555 93112=
72327 31956 20000 10183 20161 30000 40212 53023 710// 91153 333
10272 20167 555 93112=
72334 32966 21406 10222 20161 30091 40192 53025 91153 333 10317
20189 555 93112=
72340 32961 00000 10217 20194 30089 40180 53021 91153 333 10322
20200 555 93112=
72344 32962 00704 10211 20200 39997 40159 53016 91153 333 10339
20200 555 93112=
72351 32966 21607 10233 20206 39767 40122 53013 8/001 91153 333
10378 20233 555 93112=
72353 32966 21609 10233 20211 39676 40127 53012 91153 333 10350
20228 555 93112=
72356 32966 21812 10239 20211 39900 40138 53013 91153 333 10339
20239 555 93112=
72363 32966 02014 10206 20106 38898 40089 53015 91153 333 10367
20206 555 93112=
72365 32966 41605 10194 21044 38358 40058 51010 91156 333 10361
20183 555 93112=
72374 35966 01507 10144 21017 38485 40074 52002 91156 333 10361
20133 555 93112=
72384 32966 03104 10133 20061 39946 40121 51007 91156 333 10300
20133 555 93112=
72386 32966 02108 10244 21056 39292 40032 53008 91156 333 10394
20239 555 93112=
72389 32966 03207 10144 20072 30002 40117 55001 91156 333 10306
20144 555 93112=
72394 35966 01604 10061 20050 30037 40128 56011 91151 333 10178
20056 555 93112=
72401 32666 40605 10139 20106 30176 40240 51010 91154 333 10167
20111 555 93112=
72403 31459 20000 10111 20100 30125 40243 53007 710// 91151 333
10189 20039 555 93112=
72407 35466 83404 10122 20094 30219 40244 51012 91154 333 20106
555 93112=
72408 32466 80404 10117 20083 30225 40245 52006 91154 333 20100
555 93112=
72411 31458 80000 10106 20094 39820 40242 51014 710// 91154 333
10206 20067 555 93112=
72412 35966 00000 10139 20100 39345 40225 51017 91151 333 10206
20094 555 93112=
72414 32966 60000 10133 20128 39863 40216 51023 91154 333 10244
20117 555 93112=
72421 32964 62006 10189 20156 39877 40193 51014 91151 333 10222
20161 555 93112=
72422 32966 01904 10178 20156 39857 40211 53020 91154 333 10244
20150 555 93112=
72428 31959 42006 10183 20144 39899 40192 51007 705// 91151 333
10250 20156 555 93112=
72429 32961 62010 10189 20156 39830 40188 50005 91152 333 10233
20167 555 93112=
72432 32966 00000 10200 20167 30054 40192 51019 91154 333 10278
20172 555 93112=
72434 32962 61807 10222 20200 39967 40159 53013 91153 333 10311
20217 555 93112=
72438 32961 80000 10194 20167 39893 40181 53008 91155 333 10261
20167 555 93112=
72440 32966 01509 10211 20183 39714 40160 51016 91154 333 10311
20206 555 93112=
72445 32966 01807 10222 20194 39840 40156 53018 91154 333 10317
20222 555 93112=
72446 32962 41813 10239 20217 39766 40123 52014 91153 333 10328
20233 555 93112=
72450 32961 61713 10228 20206 39648 40111 53013 91156 333 10350
20228 555 93112=
72456 32966 01506 10250 20206 39815 40123 53018 91156 333 10344
20244 555 93112=
72458 35961 01305 10206 20194 39581 40093 53006 91155 333 10367
20189 555 93112=
72464 32466 89903 10150 20122 38533 40083 53001 91154 333 10389
20111 555 93112=
72465 31024 80608 10120 20120 38862 751// 91205 333 10267 96010
555 93112=
72476 32966 01110 10200 21067 38482 40021 53008 91156 333 10372
20183 555 93112=
72486 35966 01810 10022 21067 38054 40070 53005 91153 333 10289
20017 555 93112=
72492 32966 03208 10139 20067 30122 40131 50000 91156 333 10278
20100 555 93112=
72503 32466 80205 10122 20083 30232 40244 50003 91151 333 10189
20111 555 93112=
72508 32361 82903 10094 20083 30174 40248 51002 91151 333 10206
20078 555 93112=
72509 31232 81705 10094 20089 30246 40252 50005 710// 91154 333
10144 20072 555 93112=
72515 32966 21709 10111 20067 39642 40223 50002 91156 333 10200
20078 555 93112=
72518 32466 21808 10111 20089 30126 40235 50006 91151 333 10211
20089 555 93112=
72519 32962 61911 10150 20089 30054 40200 58001 91154 333 10233
20122 555 93112=
72520 32866 41505 10139 20100 39767 40214 51007 8/071 91151 333
10217 20111 555 93112=
72524 32966 42011 10189 20150 39910 40189 50007 91151 333 10222
20167 555 93112=
72528 32766 61910 10167 20100 39922 40181 52001 8/500 91154 333
10233 20144 555 93112=
72530 11559 40000 10211 20200 39888 40126 53005 69901 710// 91156
333 10267 20211 70008 555 93112=
72532 11866 81306 10194 20178 39914 40153 55009 60111 91154 333
10283 20183 70107 555 93112=
72533 32964 02211 10194 20167 39869 40166 50004 91154 333 10233
20150 555 93112=
72537 32961 62110 10189 20156 39921 40161 55001 91154 333 10217
20167 555 93112=
72546 31132 83205 10210 20210 39777 710// 91206 333 10311 555
93112=
72547 11656 80000 10194 20189 39752 40137 51030 60021 761// 91155
333 10267 20194 70028 96010 555 93112=
72552 11332 80411 10161 20156 39470 40121 55002 69901 710// 91156
555 93112=
72556 17456 60108 10161 20150 39591 40135 53009 69931 791// 91154
333 10278 20161 70003 96010 555 93112=
72557 31558 40309 10170 20150 39751 710// 91210 333 10283 555
93112=
72562 11116 80809 10139 20139 39159 40127 55008 69901 710// 91156
333 10200 20128 555 93112=
72564 31132 81609 10090 20090 38097 710// 91208 555 93112=
72565 31359 81406 10122 20106 38307 40079 56007 710// 91153 333
10250 20111 555 93112=
72569 32266 80406 10100 20083 38341 40108 53009 91155 333 10178
20100 70003 555 93112=
72572 32966 23412 10133 20044 38659 40066 53019 91156 333 10278
20106 555 93112=
72576 35466 81107 10106 20083 38269 40086 50005 91156 333 10217
20100 555 93112=
72578 32966 01908 10039 21022 38629 40131 53015 91156 333 10261
20039 555 93112=
72583 35966 03204 10006 21039 38693 40163 51017 91156 333 10250
20006 555 93112=
72591 32966 03414 10133 21011 30044 40165 53006 91155 333 10267
20133 555 93112=
72597 32666 22903 10044 20022 39759 40242 53001 91156 333 70003
555 93112=
72606 32366 61907 10110 20090 30227 91203 333 10172 555 93112=
72617 32966 01715 10150 20083 30081 40205 58004 91154 333 10233
20128 91020 555 93112=
72635 11448 81405 10178 20167 39851 40139 50008 69901 710// 91156
333 10233 20156 70038 555 93112=
72636 31556 61906 10180 20170 39909 710// 91212 333 10228 555
93112=
72637 12661 62106 10189 20161 39874 40150 53004 69901 91153 333
10222 20167 555 93112=
72638 37224 80000 10170 20170 39737 710// 91202 333 10194 555
93112=
72640 11332 89903 10150 20150 39881 40132 50010 69901 761// 8/82/
91152 333 70025 91020 96010 555 93112=
72641 31216 80000 10190 20180 39832 710// 91210 333 10228 96010
555 93112=
72644 11256 20911 10150 20139 39674 40147 50003 69901 710// 91154
333 10261 20144 70003 555 93112=
72645 31648 60208 10161 20144 39904 40158 53024 710// 91156 333
70043 555 93112=
72651 11762 80711 10133 20111 39652 40167 53026 69981 763// 91156
333 10233 20133 70008 555 93112=
72654 12866 21905 10144 20111 39701 40165 51016 69901 91155 333
10194 20139 70076 555 93112=
72659 12966 60103 10122 20106 39704 40172 55005 69981 91156 333
10211 20100 70008 555 93112=
72662 32666 82107 10117 20078 39064 40171 53011 91155 333 20117
555 93112=
72666 32966 81216 10106 20072 38752 40110 53005 91156 333 10144
20106 91026 555 93112=
72677 32566 80407 10117 20072 38873 40102 58005 91156 333 10128
20117 555 93112=
72681 32966 00000 10028 21006 39175 40178 53015 91156 333 10217
20028 555 93112=
72683 35966 00000 11044 21061 38752 40208 53009 91153 333 10117
21056 555 93112=
72688 11666 82522 10078 20044 39618 40160 53006 60041 761// 91156
333 10122 20078 70099 91031 555 93112=
72693 12666 81605 10072 20067 30109 40247 55001 69931 91156 333
10156 20056 70036 555 93112=
72694 12666 81707 10083 20078 30163 40239 55001 69951 91156 333
20078 70020 555 93112=
72698 12566 62303 10094 20089 30225 40234 53001 69931 91155 333
10150 20094 70056 555 93112=
72712 32966 01509 10111 20067 39969 40197 56004 91154 333 10200
20089 555 93112=
72745 32966 03605 10106 20094 39649 40169 53009 91155 555 93112=
72747 35966 09903 10083 20039 39745 40175 53021 91155 333 10222
20011 555 93112=
72753 32966 00000 10083 20050 39846 40178 53009 91153 333 10222
20067 555 93112=
72764 32966 80903 10100 20067 39584 40179 53002 91152 333 10222
20067 555 93112=
72767 32866 60509 10083 20011 39513 40197 53004 91152 333 10217
20061 555 93112=
72768 11766 80516 10072 20033 39363 40183 53006 69931 761// 91156
333 10211 20072 70003 555 93112=
72772 12266 82907 10067 20044 38778 40135 55003 60021 91156 333
20067 70109 555 93112=
72773 11566 80000 10072 20061 39027 40141 53010 60101 761// 91156
333 10183 20072 70122 555 93112=
72776 11258 80325 10033 20028 38865 40149 55003 60141 761// 91156
333 20033 70234 91032 96010 555 93112=
72777 17666 80816 10083 20000 39260 40180 53002 69901 761// 91156
333 10194 20078 91025 555 93112=
72779 17666 80413 10100 20000 39103 40142 53006 69901 761// 91156
333 10178 20100 555 93112=
72781 17666 82906 10100 20067 39768 40162 53004 69981 761// 91156
333 10161 20094 70089 555 93112=
72785 12266 80907 10044 20033 39308 40151 53009 60091 91156 333
10194 20039 70221 555 93112=
72793 12366 82207 10094 20083 30038 40205 53003 69931 91156 333
10111 20094 70008 555 93112=
72306 32466 60308 10133 20111 30073 40234 52011 91151 333 10189
20100 555 93112=
72315 32666 80000 10122 20100 39468 40231 53012 91154 333 10239
20100 555 93112=
72402 32466 80207 10128 20111 30230 40231 51015 91154 333 10167
555 93112=
72405 32566 40606 10139 20094 30219 40245 53008 91151 333 10178
555 93112=
72406 32464 80000 10122 20083 30183 40240 51012 91154 333 10178
20089 555 93112=
72423 32961 81504 10200 20161 30024 40197 51017 91156 333 10267
20178 555 93112=
72425 32964 01703 10150 20139 39908 40209 51019 91151 333 10239
20133 555 93112=
72504 32466 80000 10117 20089 30241 40246 53002 91154 333 10161
555 93112=
72507 31348 80000 10100 20083 30230 40254 51008 710// 91151 333
10183 20072 555 93112=
72513 32966 00000 10100 20078 39888 40229 54000 91154 333 10211
20061 555 93112=
72521 32961 41905 10167 20133 39755 40198 53009 8/079 91151 333
10217 20133 555 93112=
72529 32866 62011 10161 20100 39987 40188 53001 8/030 91154 333
10233 20139 555 93112=
72535 32461 63107 10206 20178 39881 40157 53013 91154 333 10228
20194 70008 555 93112=
72536 32961 02008 10194 20167 39914 40161 50004 91152 333 10244
20172 555 93112=
72544 11866 82113 10194 20178 39926 40139 53014 60251 91155 333
10283 20189 70246 555 93112=
72592 32966 03614 10133 21006 39989 40169 51006 91156 333 10267
20133 91018 555 93112=
72605 37024 81303 10090 20090 30117 710// 91208 333 10217 555
93112=
10156 20111 70008 555 93112=
72783 17661 81710 10067 20050 39639 40160 53006 60021 762// 91156
333 10189 70079 555 93112=
72784 11774 82916 10096 20082 39871 40138 58005 60091 76122 885//
333 10178 20090 70089 90962 555 93112=
72791 35566 82609 10111 20072 30221 40228 55001 91156 333 10150
20106 70018 555 93112=
82586 32598 81405 10256 20242 39887 40126 887// 333 20234 58005=
87016 32565 80000 10155 20147 39774 40190 52020 885//
333 10170 20153 56899 88625=
87022 32565 80000 10150 20125 39682 40202 52023 885//
333 10172 20141 56099 88630=
87046 32565 80000 10128 20109 39165 48539 52012 885//
333 10150 20116 56400 84630 84640=
87047 01462 80000 10107 20098 38831 48540 52011 60034
71052 8662/ 333 10121 20100 30010 56279 60031 83712
85630=
87121 01230 82306 10106 20094 39689 40217 53015 69944
75152 8872/ 333 10154 20106 56499 69941 86706 88540
96010=
87129 32470 80902 10128 20075 39980 40211 52013 885// 333 10180
20125 56499 85615 83625=
87217 31770 42306 10110 20069 39677 40178 52015 69901 72260 84500 333
10157 20110 56600 84656=
87222 32970 60516 10134 20075 39633 40158 52015 82079 333 10176
20124 56033=
87257 31958 51405 10054 20050 30102 40210 53005 71010 80008 333 10112
20036 56006=
87311 32665 81710 10105 20021 39508 40206 52020 8457/
333 10125 20101 56009 84645 88360=
87320 32665 71406 10120 20057 39658 40191 52015 87500 333 10164 20100
56300 87640=
87328 32680 80000 10095 20072 39535 40198 52016 886// 333 10100 20070
56099 88740 95060=
87344 32965 73202 10084 20045 39662 40225 53012 87070 333 10097
20052 56040 87360 94230=
87349 32470 82302 10075 20060 39824 40228 53013 8557/ 333 10112 20036
30004 56569 85615 83535=
87371 31356 80000 10086 20078 30201 40223 52013 71022
886// 333 10120 20065 56099 88707=
87416 32670 71808 10069 20040 39433 40195 53003 82508 333 10127 20067
30004 56191=
87418 31660 60505 10074 20055 39382 40204 52007 71022 83506 333 10120
20074 30000 56606 83645 83270=
87436 32680 73202 10100 20030 39361 40184 51009 87500 333 10125
20092
56599 87640=
87448 32365 81610 10064 20059 39636 40216 51005 8667/ 333 10084
20024 82715 84630=
87453 32770 80202 10076 20050 39719 40216 52009 8252/ 333
10104 20049 56779 82650=
87467 32465 80000 10061 20055 30090 40230 53024 886// 333 10083 20025
56049=
87506 01340 80000 10029 20020 38600 48519 55002 60034 72065 886///
10064 20023 56899 60031 88708 95080=
87509 31465 81408 10058 20045 39339 40210 50004 71022 886// 333
10104 20053 30005 56399 88720=
89062 41/93 63404 11100 21113 30151 40194 58011 74842 333 11070
21102 92601=
89061 11/// /0000 11060 30120 40130 55031 69922 77672 91135 333
11043 21071=
89063 41/93 90000 11058 21065 30173 40187 57018 74514 91141 333
11046 21060=
87791 12480 81404 10029 20016 30274 40283 52013 69974 8351/ 333
10075 20024 56359 83615 88460=
87803 01150 80510 10002 20002 39297 40238 53004 60014 75155 887//
333 10023 20000 31100 56099 69951 84703 88610=
87828 11450 40000 10006 20006 30252 40305 52003 60014 71022 81571
333 10064 21020 31103 56000 81618 84360=
87852 32584 80000 10015 20002 39734 40262 57008 8452/ 333 10025
21007 56009 84620 84550=
87860 12580 73204 10035 21002 30232 40290 58008 60024 81170 333
10055 20006 32101 56470 81830 86360=
87896 02980 03607 11008 21017 30197 40299 57009 69944 333 10029
21011 69922=
87903 12580 60000 10004 21002 39950 40225 57007 69924 83676 333
10033 20003 56555 83725=
87909 12980 03614 11003 21024 30198 40278 57020 69904 333 10028
21013 34000=
87925 32980 00213 10020 20001 30208 40232 57023 333 10030 20010=
87938 32580 10502 10007 21050 30140 40212 57016 81500 333 10018 21005
56600 81630=
61223 31956 52212 10416 20155 39981 40065 70622 83042
333 0//00 58001 83365 83075=
61226 31950 01206 10425 20111 39779 40158 70600
333 58001=
61230 32960 61012 10416 20040 39820 40078 80002
333 59007 86075=
61257 32960 01802 10395 20165 30041 40092
333 0//00 59006=
61265 11960 41810 10356 20176 3//// 4//// 69901 70196 84070
333 0//00 5//// 84365=
61270 32962 71402 10341 20291 39729 40095 87070
333 0//00 58004 87465=
61272 32560 70606 10330 20197 39790 40107 71570
333 0//00 58015 81630 85365=
61277 32970 61806 10315 20196 39796 40107 82042
333 0//00 58014 82365 85075=
61291 11960 72406 10240 20216 39697 40103 60101 70196 87072 962//
333 0//52 58015 87462=
61296 11570 71804 10292 20195 30709 40094 70196 8217/
333 0//53 58002 82830 86365=
61297 11570 71410 10268 20196 3//// 4//// 60131 70296 81570
333 0//34 5//// 81630 86365=
83840 31958 62606 10124 20093 39120 40154 51016 71041
80001 333 20086=
78397 11570 40911 10283 20262 30128 40144 60011 70198 84842 333 02009
10330 20246 58011 82820 83634 90951=
61202 31956 20612 10420 20056 39534 40051 70633 82040
333 59004 82365=
85196 32884 41806 10187 20164 39588 40156 52015 84030
333 20175 30/// 56040 58021 84357=
85207 32880 81805 10184 20169 39685 40161 52015 88050
333 20185 30/// 55049 56090 58014 88357=
85247 32880 71706 10220 20191 39845 40169 52017 87030
333 20190 30/// 56040 58026 87357=
85268 32580 80000 10195 20175 39858 40158 51006 8552/
333 20178 30/// 56499 58035 85630 88457=
85289 12480 83404 10200 20195 39994 40156 52015 60064 885//
333 20195 31/// 56599 58027 85610 88617=
85315 32684 80000 10152 20144 39280 40193 52012 8352/
333 20114 30/// 55000 56409 58018 83640 88457=
85245 11665 81815 10184 20129 39680 40166 52020 60114 70252 8652/
333 20170 30/// 56490 58034 70106 86633 88457=
85223 31940 00000 10076 20023 27517 47134 53009 70400
333 20032 30/// 55103 58036=
85283 32484 40000 10090 20082 37205 47128 53005 84500
333 20070 30006 55085 56100 58000 84610=
85293 32984 20000 10000 21043 36358 52005 80001
333 21054 30/// 56000 59001 82070=
85345 32684 80000 10160 20138 39712 40210 52010 8352/
333 20150 30/// 56009 58042 83636 88457=
85364 32484 80000 10102 20059 38155 48516 52005 885//
333 20096 30010 55068 56000 58005 85617 88630=
85365 32584 80000 10140 20123 39458 40205 52015 8652/
333 20133 30/// 56009 58018 86625 88457=
71472 36/// /3221 10083 30234 40252 58003 333 10085 20083 70000=
94151 35/// /2117 10228 30130 40150 52012=
94290 35/// /1524 10203 30148 40155 52002=
89573 32970 70723 10/// 21090 30037 40060 57006 8703/=
91503 11481 10000 10240 20239 40087 52008 60111 70285 81100
333 10304 55/// 56000 58000 81815=
91520 32480 10000 10242 20237 40080 52011 81200
333 10315 55/// 56900 59009 81818=
91527 01465 50000 10250 20244 4//// 5//// 69901 78082 84973
333 10323 56000 5//// 69907 83815 82916=
94129 35/// /1407 10254 30101 40124 52013=
94210 35/// /1804 10153 30148 40153 52014=
94289 35/// /1324 10221 30137 40146 52011=
94307 35/// /0907 10219 30145 40185 52021=
94371 35/// /1717 10182 30164 40170 52008=
94379 35/// /1817 10188 30145 40154 52001=
64400 32460 81806 10260 20223 30089 40109 888//
333 0//00 59002 81810 88633=
64450 32559 62010 10265 20220 39738 40099 84830
333 0//00 58018 82820 83626 85365 94918 95838=
64453 31465 52202 10258 20202 39218 40/// 70144 81132
333 0//00 58006 81816 85363=
64458 32565 61804 10311 20233 39700 40090 85201
333 0//00 58007 85823 94919 95833=
64459 32460 72802 10296 20238 39/// 40/// 84202
333 0//00 5//// 84816 87080 94919 95836=
96163 32565 80000 10268 20235 30070 40077 52014 8257/
333 10295 56000 82625 85462=
96295 32460 62505 10280 20239 39984 40088 51013 83221
333 56000 57802 59007 83815 80856=
96633 32560 70205 10280 20236 30067 40074 53026 84422
333 10312 56000 59013 84620=
96655 21457 61705 10261 20244 30053 40081 69981 71792 85973
333 10332 56600 57961 59009 81910 84612 80980=
96685 01450 80000 10252 20242 30046 40072 52014 60241 76096 85921
333 10324 56000 57902 59008 69947 81918 84615 80980=
96805 32560 51010 10280 20231 30068 40078 51014 83271
333 10306 56000 57801 58006 83820 80860=
96933 32961 10506 10289 20222 30068 40075 52014 81011
333 10326 56000 59009 81460=
97014 32562 40000 10254 20240 39982 40075 52013 81171
333 10300 56000 57802 59014 81825 80860=
97048 32561 20000 10274 20235 30039 40063 53018 81231
333 10326 56000 57805 59013 81825 80860=
97072 32558 71005 10270 20244 30003 40105 52012 83271
333 10364 56000 57801 59015 83820 87360 80860=
97086 32562 52104 10256 20226 30058 40081 52013 83271
333 10296 56000 57000 59010 83620=
97120 11459 70902 10278 20240 30033 40066 51003 69901 70262 83931
333 10308 56200 57900 57822 59025 81917 86360 80980=
97192 32458 30000 10248 20236 30038 40102 52006 82220
333 10296 56000 57804 59006 82817 80850=
97230 32460 41009 10272 20218 30081 40088 52017 82131
333 10298 56200 57802 59009 82819=
97260 32558 31506 10236 20208 30080 40086 52021 81501
333 10306 56000 59006 81620=
97270 31450 21605 10240 20204 30092 40097 51006 70500 82401
333 10295 56000 57601 59006 82615 80659=
97300 32560 32104 10244 20204 30065 40097 52008 82206
333 10292 56300 57835 59012 82820 80856=
97340 32960 10000 10234 20199 30097 40108 52016 80001
333 10294 56000 59007 81080=
97372 31459 20000 10242 20189 39983 40112 51014 70511 81230
333 10292 56000 57800 59006 81818=
97430 01460 50000 10252 20246 30045 40075 52014 60071 72162 83232
333 10294 56600 57862 59010 69947 83818 80860=
97600 11458 40000 10256 20241 30083 40088 53007 60011 70162 81231
333 10304 56000 57809 59011 81817 83080 80857=
97900 32458 81412 10264 20222 30081 40112 53004 8582/
333 10266 56309 57821 59003 84615 88458 80873=
96001 32560 72010 10278 20210 39933 40077 57006 84572
333 10306 56600 59013 84620=
96015 32562 71703 10286 20247 30064 40071 51010 83534
333 10307 56000 59003 83620=
96075 31459 63405 10274 20248 30065 40075 53005 70422 86871
333 10298 56000 57802 59028 82818 84619 80857=
96171 32459 70000 10288 20248 30033 40058 52016 82522
333 10320 56000 59006 82620 85458=
96535 31460 70000 10266 20253 30055 40075 51013 70292 85231
333 10329 56000 57803 59006 85818 80870=
96557 31462 70000 10278 20246 30017 40053 52009 71322 85921
333 10334 56400 57941 57841 59015 82914 80956 83815 80850 86460=
96737 01456 70000 10260 20227 30038 40087 52011 69931 79162 85521
333 10320 56000 59011 69937 85618=
96751 31540 70000 10217 20203 39032 48920 71792 86910
333 10261 56600 57961 58000 79999 82920 84620 85980=
96783 32558 50000 10246 20168 39195 48791 52018 83501
333 10306 56000 57600 59010 83628 82080 80680=
96791 31559 41103 10276 20217 30017 40077 52018 70511 82571
333 10334 56000 59002 82620 806//=
96837 32557 51203 10302 20221 30062 40065 52016 82231
333 10329 56000 57800 59016 82823=
97008 32560 70000 10253 20243 30054 40101 52008 83533
333 10300 56000 59017 83620 86460=
97016 31462 82401 10275 20255 40064 52012 70522 810//
333 10/// 56000 57901 57801 59015 81918 84820 80984 80860=
97126 01456 80602 10246 20235 39996 40056 51008 60471 72196 8392/
333 10308 56009 57900 59006 60117 82915 88460 80980=
97182 32559 31503 10276 20241 40069 52004 82231
333 10328 56000 57802 82820 80875=
97722 01457 80000 10256 20244 30087 40101 52011 60021 76096 8692/
333 10294 56209 57920 59004 69907 82916 84617 88457=
83334 32998 00904 10252 20166 3//// 4//// 333 20154 5////=
83383 32998 02702 10220 20172 3//// 4//// 333 20143 5////=
83386 32998 01402 10218 20176 39603 40158 333 20148 59008=
83388 32997 03203 10250 20180 39446 40114 333 20190 59008=
83437 31998 02701 10207 20170 39417 40136 70540 333 20158 59015=
83442 32597 80000 10210 20182 39804 40147 888// 333 20174 59012=
83492 31996 00000 10182 20143 39760 40150 74042 333 20150 59032=
83577 31597 20503 10182 20122 39294 40153 70511 81501
333 20110 58002=
83592 32598 60000 10194 20184 39452 40141 86400 333 20/// 59020=
83642 31495 63602 10160 20160 39338 40114 51014 71042 86200
333 20132=
83687 31996 22701 10150 20096 39120 40132 53006 74041 80005
333 20098=
64600 32680 52204 10322 20220 39435 40070 85200
333 0//00 59011 85833 94939 95839=
64601 32580 52406 10277 20198 38985 48501 85200
333 0//00 59007 85826 94939 95879=
64610 32580 60804 10340 20218 39556 40061 85232
333 0//00 59017 85833 83080 94939 95879=
64650 32575 41804 10317 20197 39667 40071 83202
333 0//00 59013 83830 94919 95839=
64655 31680 6//// 10310 20232 39433 40066 70342 84202
333 0//00 59042 84833 86080 94906 95836=
64656 32580 3//// 10319 20223 39525 40069 83200
333 0//00 59014 83830 94919 95839=
64659 32970 51806 10308 20205 39359 40062 83032
333 0//00 58004 83365 84080=
64660 31575 53402 10290 20239 39551 40072 70342 82202
333 0//00 59019 82827 85080 94913 95833=
64661 32980 6//// 10310 20225 39414 40066 86050
333 0//00 59029 86365=
85574 31930 82705 10095 20076 40187 52018 8803/
333 20079 30008 50010 55000 56009 88364=
89014 46/// ///// 11103 21164 39386 4//// 57009
333 11080 21118=
89758 46/// /14// 11362 37130 4//// 5////=
89568 46/// /1012 11296 37492 4//// 5////=
89774 46/// /0517 11329 37299 4//// 5////=
94997 46/// ///// 10040 39908 49924 52005=
22422 42475 54002 10119 20102 30074 40089 58004 87500   333 87612=
22471 42684 22003 10297 20121 30070 40092 57005 82900=
22954 42477 61806 10290 20093 39871 40097 57006 84901=
23405 41580 73004 10985 20143 30065 40159 52010 70282 85980 333 85930=
23412 42998 71603 10179 20027 30079 40171 57003 87030=
23803 42699 39901 10269 20094 39990 40155 58008 83100=
27066 42998 01903 10292 20080 39978 40139 57008=
27083 42599 22001 10285 20095 39938 40141 57003 82100=
27113 41697 62006 10288 20122 39960 40092 58006 71792 83931=
27242 42584 31103 10309 20115 30000 40116 57007 83900=
27329 42579 21604 10287 20113 39987 40101 57006 82200=
27355 42584 61404 10276 20125 39991 40141 58002 83402=
27373 42999 12202 10266 20038 39951 40151 54000 80001=
27665 41584 31701 10269 20160 39903 40151 54000 71700 83900=
27823 42582 81604 10234 20109 39890 40126 57003 86101   333 86822=
28009 42598 10901 10257 20071 39966 40160 57007 81100=
28411 42997 20404 10238 20041 39974 40157 57004 80001=
22282 41957 21702 10103 20086 30095 40103 53003 71000 82030=
22292 42980 23602 10141 20117 30106 40111 58001 80002=
22365 42474 61404 10198 20131 30060 40085 57008 85261=
22438 42569 30302 10138 20104 30066 40087 58006 82201=
22641 41684 82803 10247 20140 30066 40081 58009 70282 83231=
22695 42684 51902 10303 20064 39945 40123 57009 85200 333 85840=
22854 42484 61805 10274 20111 39826 40088 58004 83901=
22867 42580 81602 10302 20129 30007 40110 57006 86207   333 86822=
22939 42497 81406 10258 20094 39944 40093 57007 889//   333 88915=
22996 42670 21102 10291 20051 39969 40141 57009 82200=
27051 42465 62204 10292 20123 39969 40120 57009 86100   333 82916=
27225 41482 51804 10265 20150 39983 40103 57007 72998 85200   333
85822=
27252 42584 52002 10286 20122 39962 40131 57007 85200   333 85820=
27369 42999 01502 10278 20100 30020 40145 58005=
27393 42598 60702 10261 20086 30009 40164 57005 81101=
27479 42499 21002 10253 20089 30031 40155 58005 81301=
27532 42597 51904 10287 20123 39924 40118 57005 85200=
27648 42964 51903 10277 20129 39986 40140 58003 85031=
27679 42981 22901 10272 20098 39955 40160 57006 82041=
28214 42999 23601 10252 20041 39965 40160 57004 80001=
31285 32999 60301 10020 20017 40101 53005 81047   333 10209=
31561 32998 80804 10109 20062 40124 52007 80001   333 10170=
32010 32997 51604 10038 20036 40161 52011 80001   333 10134=
42479 32996 10508 10312 20228 49983 81030 333 10337 59005 81360=
42542 32696 32311 10364 20220 39436 49980 83200 333 10374 59012
83835=
42103 32996 02904 10357 20205 49971 333 10371 58008=
42273 21995 00000 10286 20224 49993 70560 333 10292 59003 6019/=
43221 32597 72302 10360 20213 39986 49999 81438 333 10362
59014=
43360 32597 81416 10356 20197 39888 40031 8433/ 333 10370
57932 57942 57962 59002=
91165 32566 20511 10233 20189 30121 40172 58014 91153 333 20233
555 93112=
91182 32566 20406 10233 20194 30156 40163 58016 91153 333 20233
555 93112=
91190 17666 80415 10222 20206 30138 40166 58014 69901 761// 91154
333 20222 555 93112=
91212 12566 41008 10278 20244 30018 40117 51012 69901 91154 333
20272 70015 555 93112=
91285 32566 80000 10210 20190 30152 91212 555 93112=
91334 11474 81414 10273 20244 30075 40078 58008 69901 70286 8327/
333 10290 56339 59016 70190 555 93112=
91366 11458 80514 10238 20226 30081 40090 51007 60061 76086 8782/
333 10291 56129 58000 70208 555 93112=
91408 32974 20503 10267 20239 30051 40089 52017 80001 333 10333
56//9 59012 555 93112=
91413 32469 81005 10281 20247 30066 40085 52019 82171 333 10317
56299 59009 555 93112=
91765 32566 30912 10263 20194 30097 40100 57008 83100 333 10294
562// 58005 555 93112=
91245 32566 20714 10270 20260 30140 91150 555 93112=
91353 11472 70507 10268 20229 30084 40089 51007 60151 70282 85270
333 10306 5619/ 58000 70406 85818 555 93112 91434 32474 21001
10272 20242 30100 40103 51027 82200 333 10311 562// 58004 79999
82818 555 93112=
16622 32565 22015 10280 20153 30138 40143 58012 82100 333 90730
91120 555 30000 10312 20306 30294 40276 50252 40000 47640
44265 50000 50202=
16641 32470 12006 10292 20145 30134 40140 58003 81100 333 90730 91111
555 40000 47633 44230 50000 50202=
16682 31558 13305 10270 20168 30133 40150 54000 7100/ 81600
333 90730 91108 555 30000 10340 20324 30282 40264 50245 60224 40000
47637 44260 50000 50206 70000 77Y// 7/Y//=
16716 32560 11911 10262 20154 30122 40140 50002 81100 333 90730 91115
555 40000 47627 44245 50000 50210=
16734 32570 12912 10238 20201 30084 40146 51001 81200 333 90730 91115
555 40000 47599 44235 50000 50214=
16743 32970 03106 10248 20168 39957 40150 52003 333 90730 91109 555
40000 47502 44230 50000 50198=
16749 32960 02415 10258 20219 30094 40107 58006 333 90730 91121 555
40000 47608 44255 50000 50232=
16754 32965 00509 10254 20202 30091 40137 52004 333 90730 91112 555
40000 47607 44260 50000 50220=
16643 32660 22709 10250 20194 30143 40147 56002 82200 333
90730 91114 555 40000 47644 44255 50000 50214=
16648 32660 10908 10304 20140 30040 40125 57006 81100 333 90730
91114 555 30000 10300 20274 30246 40228 50224 60194 40000
47568 44270 50000 50204=
16650 32970 00208 10256 20166 30136 40140 58006
333 90714 555 30000 20338 30312 40264 50246 60224
40000 47638 44265 50000 50200=
16684 32960 00205 10230 20175 30105 40130
56002 333 90730 91109 555 40000 47615
44260 50000 50190=
16732 32962 03605 10236 20189 30131 40144 51005 222// 00196 333 90730
91120 555 40000 47632 44230 50000 50206=
16614 32570 10000 10264 20129 39384 40119 57011 81200 333 90730
91113=
16627 32560 1//// 10250 20122 30142 40146 56009 81100 333 90730 911//
555 30000 10290 20278 30254 4//// 50226 60200 40000 47642 44250 50000
50170=
16667 32568 10103 10272 20202 30136 40141 55000 81100 333 90730 91109
555 30000 1//// 20380 30310 4//// 5//// 6//// 40000 47638 44255 50000
50226=
16675 32565 10911 10302 20150 30101 40120 57017 81100 333 90730
91117 555 30000 10320 20292 30262 40248 50232 60202 40000 47611
44240 50000 50208=
16710 32564 42111 10250 20090 39382 40110 51002 84200 333 90730 91117
555 30000 10260 20244 30220 40208 50208 60192 40000 47065 44200 50000
50160=
16723 32965 01110 10290 20095 30118 40126 58006 333 90730 91113=
16738 32960 00407 10282 20135 39950 40137 54000 333 90730 91111=
16746 32960 03010 10276 20164 39960 40134 52005 333 90730
91116 555 40000 47509 44260 50000 50206=
42516 21194 80000 10194 20188 38344 48436 70363 887// 333 10226
59013 6041/=
43466 21497 80000 10264 20247 30056 40064 70398 8612/ 333 01027
10277 59013 69907 70696 86818 88460=
38062 42699 61804 10256 20019 85200   333 86840   555 19952=
48820 32598 21402 10298 20259 30018 40026 53002 82900 333
00028 10325 59015 70000 81895 82995=
48826 32598 21403 10275 20263 39894 40021 55008 82900 333
00031 10330 59023 70000 82995=
48839 32598 61103 10276 20244 39970 40034 55006 81908 222//
2//01 333 00/// 10308 59020 70000 81995 80299=
48845 32598 70902 10283 20256 30024 40031 53004 81908 333
00030 10323 59009 70000 81995 87299=
48848 32598 70906 10288 20266 30028 40036 53002 86208 333
00031 10310 59013 70000 86895 87299=
48855 11598 73401 10282 20245 30025 40033 52007 60052 70262
8482/ 333 00027 10293 59026 70046 82895 83697 87499=
48900 11496 72501 10248 20244 30049 40059 52009 60222 70296
878// 333 10281 59011 83894 86696 555 20233=
48914 11497 82001 10261 20246 30055 40057 52006 60122 76062
888// 333 02027 10267 59006 70455 86894 86896=
48917 12598 82305 10285 20250 30048 40052 54001 60032 888//
222// 00296 2//01 333 01/// 10290 59001 70687 84895 88696=
48918 11498 83202 10269 20239 30050 40061 56005 60092 70362
8492/ 222// 00280 2//01 333 01025 10283 59010 70294 81894
83995 88499 91117 91532=
48615 32468 83202 10293 20236 30056 40062 8487/ 333 10335 84618
88469=
48657 31460 70303 10290 20255 30051 40069 71722 84935 333 10362
81917 83626 86276=
20046 41334 71413 11054 21072 30127 40155 58033 77173 875//
333 91116 92982 83707=
20069 32474 71505 11036 21065 30226 40239 57005 875// 333
11030 87620=
20087 32980 30502 11053 21074 30229 40240 52001 80001 333
11050=
20292 31478 70210 11035 21040 30197 40216 52010 73732 875//
333 11022 87613 91113=
20667 42498 70000 11024 21053 30257 40266 52001 87200 333   91103=
20674 32474 70408 11024 21053 30170 40230 52009 875// 333
11020 87611 91112=
20744 42998 81223 10033 21014 30105 40123 53007 8805/ 333   91134=
20891 11597 73403 10009 21002 30074 40116 52010 69962 72682
85330 333 10014 85927=
23022 42997 30808 11001 21015 30161 40222 57002 82031 333   91111=
23032 42468 60702 10009 21021 30211 40244 54000 85500 333   86621
91106=
23256 42599 23605 10056 21018 30127 40160 57001 82300=
23330 42598 20503 10081 21007 30197 40215 57005 82130=
23552 41497 83404 10063 20001 40135 52009 70732 885//=
23631 42999 60504 10101 20015 30158 40198 57001 80001   333 10023=
23734 42598 20404 10149 21012 30080 40166 57001 81101=
23849 42796 53305 10116 20023 40100 54000 83501=
23933 42597 20204 10120 20015 30091 40147 52003 82100=
28275 42599 13506 10156 20034 30049 40106 52005 81100=
28493 42599 80403 10170 20074 39944 40029 52004 84901=
28698 42598 60403 10166 20098 39886 40030 52004 82230=
23426 42581 80406 10046 20015 30192 40216 57004 885//=
23625 42999 53301 10178 20030 30152 40183 57004 80008=
28076 42997 03305 10122 20029 30054 40123 52007=
28367 42596 53403 10181 20051 39994 40113 52001 85200=
28382 42698 33507 10177 20059 30001 40066 52007 82109=
28481 42599 63506 10191 20038 39971 40063 52001 86200=
28491 42598 20205 10187 20040 39939 40040 52008 82100=
28573 42689 23505 10195 20034 39973 40069 52003 82100=
28593 41584 70206 10154 20076 39936 40027 52006 70282 82231=
28786 42998 82302 10163 20092 39895 40042 52006 86052=
28797 42597 80204 10149 20097 39892 40039 51003 86301   333 86920=
28799 41598 83402 10146 20114 39884 40019 52006 72582 889//   333
88921=
38933 42598 51802 10356 20129 39549 40007 57014 8420
10050=
23662 42499 50106 10068 20001 30030 40070 52006 85100   333 91012
91113=
23788 11598 81803 10128 20113 39893 57002 60022 70262 8672/   333
10142=
23986 11471 70000 10130 20109 49981 53002 60012 78082 82331   333
10169=
29149 11498 62302 10160 20120 49957 57008 69972 70298 86900   333
10175=
36087 32699 61302 10273 20070 40116 54000 83802   333 10299 95000=
36096 32699 71905 10297 21014 49955 57016 81131   333 10307 95000=
36103 32999 60000 10262 20038 49987 57013 80002   333 10267=
36231 32599 70000 10224 20058 49996 57007 84150   333 10240=
36259 32699 62704 10165 20023 38147 48402 53005 83902   333 10204=
36307 32599 60902 10258 20004 38815 48429 53004 83201   333 10289
95000=
23929 42998 23605 10170 20002 40158 57002 80001=
28383 42698 23302 10185 20056 40050 52004 82900=
28465 42680 33508 10193 20040 40107 54000 83200=
28586 42599 50307 10193 20040 40033 52005 85300   333 91113=
28588 42582 53609 10194 20040 40046 52004 85900   333 91013 91113=
28696 41699 73606 10152 20088 40028 52010 70282 87500   333 87640=
28791 42599 83603 10177 20077 40032 52005 885//   333 88626=
29367 32584 72303 10239 20086 39760 49964 53002 83904   333 10251
91112=
30117 32660 81604 10208 20034 39569 40023 57011 82571   333 10218=
60360 32565 30312 10247 20131 40200 51003 81202
333 0//00 81826 83074 95900=
60419 32580 23010 10308 20155 40165 58005 82200
333 0//00 82830 95900=
60571 32675 11508 10342 21003 39275 48582 50000 333 95900=
43413 32498 7//03 10284 20267 3//// 4//// 85130 333 0//// 10294
5//// 70590 85818 83358=
38403 43997 03403 10316 20095 39980 40090 57001   555 10054=
38178 42598 63105 10283 20030 39807 40068 57004 86100   555 10045=
43110 21497 72703 10294 20248 40058 72522 87730 333 56790 10312
59020 6990/ 83710 85620 85356=
60445 32680 22408 10297 20093 39034 48569 58004 81232
333 81840 95900=
98232 31470 43406 10280 20254 40081 53008 70544 84500
333 10353 56899 58000 84618=
98336 32475 33601 10275 20255 40092 52016 82201
333 10330 56999 59001 82815=
98431 31457 81801 10288 20236 40086 53018 70342 8387/
333 10332 56999 59005 83818 88459=
98646 32560 50000 10300 20253 40102 52017 82230
333 10322 56999 59010 82820 84360=
98653 31470 61202 10290 20257 40085 52019 70544 82201
333 10334 56399 59009 82818 86080=
98741 31470 60000 10283 20254 40089 52014 70244 82208
333 10306 56999 58001 82817 86275=
98747 31470 60000 10280 20255 40071 52015 70544 83230
333 10320 56999 59024 83818 83358=
44225 32698 20000 10215 20048 38207 49991 57011 81101 333
10232=
44256 32999 40203 10168 20051 39267 40072 53011 82082 333
10232=
44265 32999 70000 10258 20078 38739 49992 56002 80002 333
10279=
44313 32999 20000 10189 20055 39274 40042 53012 80004 333
10241=
44336 32999 31402 10236 21017 38624 40013 54000 80004 333
10267=
23074 32498 70208 10024 21012 30125 40149 52005 86530 333
10029 86617 91114=
23711 42998 61102 10240 20064 30001 40161 57006 86030=
23804 42699 32001 10281 20112 30006 40141 57008 81101=
24125 32999 80605 10128 21038 39817 40077 57001 80001 333
20132=
24143 11599 80000 10074 20074 30019 40066 52008 60022 70262
885// 333 10078=
24343 32999 60101 10094 20050 39966 40077 52007 83530 333
10111=
24738 32999 61802 10195 20040 39919 40083 57004 80005 333
10221=
24951 11699 52505 10113 20099 39938 40081 52010 69942 70262
82542 333 10125=
24959 12599 82902 10161 20092 39932 40051 52004 69902 85931
333 10196=
24966 32699 50000 10159 20059 39835 40034 53001 83931 333
10224=
29698 11698 61204 10253 20109 39551 40009 57003 69902 70282
82302 333 10261=
38232 42698 72306 10304 20059 30005 40094 58006 84362=
38413 42998 00501 10301 21002 39810 40075 57010=
38457 42997 21101 10298 20051 39508 40041 57011 82030=
38507 42998 23007 10332 20070 39976 40070 57007 82030=
38545 42998 03606 10289 20114 39923 40083 57007=
38687 42997 03205 10239 20046 39845 40058 57006=
38880 42699 30302 10355 20048 39716 40057 57017 82200=
38895 42997 23503 10354 20140 39801 40062 57007 82080=
38927 32997 62906 10359 20059 39680 40017 57013 86064=
42361 32597 32301 10374 20245 49971 83500 333 10384 58001
83625=
98135 31575 20000 10283 20239 40093 53017 70544 81601 333
10325 56999 58005 81820=
98329 31470 20702 10275 20253 40080 5/026 70544 81201 333
10345 56999 59003 81818=
11030 87620=
11020 87611 91112=
42667 21596 70706 10280 20207 39437 40008 79596 86901 333
10373 59003 6996/ 83620 83830 82930=
42779 21597 70901 10230 20212 39329 40016 76096 84870 333
10367 58006 6010/ 82620 83825 86358=
42867 21596 62903 10248 20224 40012 72996 84920 333 10358
5805/ 6004/ 83620 81930 85458 91058 91931 99961=
22887 42570 31303 10301 20111 30068 40132 57007 83100=
27037 42573 51806 10290 20104 39957 40103 57004 85900=
33345 42998 63604 10184 20085 39937 40133 52003 86050=
33658 42797 40702 10190 20046 39862 40148 58010 82130=
33791 41597 63104 10227 20150 39957 40100 50002 70298 86200
333 86824=
33837 42598 73002 10222 20132 30077 40126 53001 87001=
33946 41697 42307 10231 20136 39904 40111 53004 72991 82303=
34300 41597 80906 10220 20157 39921 40099 58009 71798 883//=
34560 42962 01504 10263 20046 39988 40142 58001=
34866 42998 20903 10306 20043 40128 57006 80001=
34880 42997 00904 10270 20082 40135 57004=
37472 42598 61003 10225 20131 30131 40109 52004 82231=
59031=
24266 11599 60000 10101 20099 39853 40017 54000 69950 70282
86900 333 10159 86917=
24329 32599 82901 10171 21005 39779 40053 57008 82237 333
10198=
24507 32998 81704 10191 20000 39785 49999 53004 83059 333
10225 91113=
24908 32679 71302 10188 20004 39726 40026 57017 86530 333
10192=
24944 32999 33502 10172 21009 39812 40102 52014 80002 333
10193=
29594 32599 63302 10245 20117 39661 40005 57005 85901 333
10258=
29676 12699 72402 10247 20105 39605 49981 57013 69902 84801
333 10264=
30054 32998 71302 10186 20034 39873 40093 57006 82041 333
10221=
30393 11499 83002 10054 20047 39097 40094 52005 60072 70282
889// 333 10088 88916=
30521 32998 61902 10200 20048 39585 40070 56001 80001 333
10230=
30603 32998 80602 10189 20093 39535 40056 57006 80001 333
10212=
30612 12999 30903 10167 20092 39582 40072 57011 60012 80001
333 10192=
35925 42698 33205 10293 20038 30000 40100 56002 82101=
36982 42598 62709 10047 21084 36480 47039 54000 86550=
38001 42998 30708 10273 20148 40105 57005 80002=
38353 32597 82703 10177 20117 39232 40082 57007 70282 883//=
38696 32599 52903 10302 20056 39261 40036 53001 82270=
11782 11465 72104 10143 20115 39825 40131 52013 60031 70262 871//
333 87815=
12882 11575 82602 10180 20111 30017 40146 55000 69921 76162 8487/
333 81830 84650=
15480 32560 61404 10200 20135 30143 40158 54000 86200 222 00176 2////
333   92427=
17038 11320 72504 10168 20166 40146 52014 60091 78188 87750
333 84708 85830 87359 92425 96010=
83821 86630=
10637 32682 63002 10146 20066 30065 40200 52022 86800 333
55301 82838 86646=
17609 32562 12006 10288 20177 30092 40094 55001 81800 333
81830=
12375 32770 71705 10151 20062 30024 40151 53002 8633/=
12843 34/82 /2403 10177 20083 39979 40144 51011 781//=
13272 32780 52302 10254 20130 30012 40125 56007 81102 333
81850=
41660 31695 22712 10361 21078 38329 48404 70700 82400 333
10377 56900 58002 82640=
42410 31596 60000 10294 20260 40002 70500 83530 333 10314
59013 83620 86360=
42634 32596 42509 10350 20226 40020 83830 333 10374 59003
82625=
42675 32997 33602 10360 20183 49985 80001 333 10392 59009
83070=
42754 32596 43208 10356 20185 39391 49991 82230 333 10375
59009 82825 83360=
42886 31496 60902 10392 20175 49968 71722 82930 333 10406
57931 59009 82618 83825 81930=
42971 21596 70305 10278 20243 40018 79592 86331 333 10390
57980 58007 6990/ 85620 81930 84360=
43198 32497 52506 10270 20202 39235 40042 83831 333 10300
56699 59024 83615 85075=
43201 21497 72303 10274 20219 39331 40034 76062 83771 333
10322 56799 59013 6996/ 81714 83618 86458=
43213 32597 52702 10354 20202 39703 40006 82832 333 10365
59010=
43329 32597 82501 10292 20229 30015 40028 8337/ 222// 20501
333 10353 57963 59017=
43353 22496 72904 10292 20252 40074 84970 333 10316 56790
57932 57912 59008 6990/ 82616 81925 87359=
43369 21596 73202 10298 20262 40077 76022 84470 333 10328
59007 6990/ 83620 87458=
43424 32478 82102 10282 20259 30058 40062 8417/ 333 00024
10286 59008 84816 86360=
43436 32498 82902 10309 20240 30042 40045 8807/ 333 0////
10322 59013 70006 82358 88460=
43467 21478 8//// 10266 20252 30066 40071 70382 8597/ 333
01026 10282 59014 69907 70293 85818 81920 88460=
43497 32574 82906 10276 20213 30041 40058 8497/ 333 10332
59012 81830 83922 87460=
48870 11497 80000 10243 20232 30011 40018 53008 60602 76098
8472/ 333 20023 10255 59037 70890 84894 88499 555 20239
48/96 11497 82702 10250 20238 30006 40015 53001 60462 76098
8672/ 333 20126 10268 59042 70595=
48877 12598 70000 10269 20240 30032 40037 53004 69992 8581/
333 01027 10282 59020 70104 81895 85696 87499 555 10025
23605=
48887 11496 82905 10242 20235 30049 40055 53005 60312 76398
8272/ 333 02025 10287 59010 70314 82894 88499 555 20243=
48920 11497 82506 10267 20249 30031 40031 60382 76162 8372/
222// 00293 20302 333 10309 58000 70583 83894 88499 91120
91525=
48803 32697 20000 10307 20246 39904 40013 55000 82501 333
00030 10334 59011 70000 82696=
48806 12698 70000 10278 20215 39281 40023 57002 69922 8393/
333 01028 10314 59011 70194 81996 83696 87399=
48808 11598 60000 10265 20242 39755 40030 55004 60152 70398
869// 333 02027 10319 70145 59011 85895 81996 555 20240=
48823 31598 61802 10288 20255 30020 40023 55003 71311 82908
333 00029 10336 59016 70000 82995 85299=
48830 11598 71401 10283 20236 39735 40030 53003 60032 70181
86401 333 01028 10234 59015 70032 82895 83696=
48840 32798 50902 10280 20259 30028 40034 53002 85500 333
00030 10317 59008 70000 85697=
48852 11598 70000 10279 20252 30024 40034 53003 60012 70382
86208 333 01028 10330 59013 70011 86895 87299=
48916 11598 82502 10262 20248 30011 40061 53001 60222 70362
889// 333 02/// 10289 59003 70256 83995 88696=
48919 11598 72710 10281 20227 30048 40070 57001 60182 70386
879// 22200 2//06 333 10294 59006 70360 83995 86696 91121
91527=
48810 11498 60000 10280 20256 39841 40040 53001 60052 70296
868// 333 01029 10315 59003 70222 82894 86696=
48846 32798 70903 10284 20260 30028 40031 53004 81508 333
00029 10319 59014 70000 81697 87299=
48875 11497 82002 10230 20224 39522 40050 52001 60072 76066
888// 333 01023 10242 59020 70112 83894 88696=
48907 11497 82508 10278 20245 30053 40055 57003 60542 70382
8592/ 333 00/// 10287 59003 70540 84894 81995 88499=
51232 11680 73409 10221 20100 40075 52037 69901 78000 86962
333 00258 91127 91532=
51087 32680 72203 10289 21005 39117 40010 57006 81102 333
05302=
51156 11770 73207 10176 20053 38633 40041 52007 69901 70080
82412 333 05155=
58017 82620 83830=
59025 83620 83825=
59022 81628 83830 85070=
59015 82620 85070=
10325 56999 58005 81820=
10193=
63671 32682 51609 10336 10256 83201
333 83832=
63772 32580 52020 10282 20214 83261
333 83827 83359=
82480 32697 30902 10274 20224 39933 40115 82130 333 20228 58005=
58004=
62309 32960 03007 10262 20178 40124 58003=
62325 32960 03608 10272 20178 40118 50000=
62332 32960 03412 10268 20192 40119 58003=
62387 32960 03613 10348 20118 40087 58017=
62459 31958 03424 10283 20193 40045 58012 70700=
71900 46/// /2208 30075  58022=
71800 46/// /1804 30230  53007=
71403 36/// /2315 10077 20070 30259 40271 53002 333 10080 20068
70000=
63624 31682 31810 10338 20174 40111 70111 82101
333 58011 82834=
67009 32582 11212 10297 20196 30015 40133 56013 81200
333 0//00 81820
555 10306=
67012 32582 1//02 10315 20232 30131 40141 57016 81800
333 0//00 81823
555 81640=
67019 32582 7//// 10311 20178 30063 40129 56017 878//
333 0//00 86820
555 82640=
67025 31580 6//// 10266 20220 30041 40141 56011 71522 86800
333 0//00 83820 84640=
67027 32682 23208 10312 20178 30119 40140 57012 82500
333 0//00 82640
555 10322=
67045 32582 23606 10329 20151 30040 40129 56021 82100
333 0//00 82823=
67072 31465 71802 10246 20/// 30165 40168 56010 71522 878//
333 0//00 82817 87640 92417=
67073 32582 22609 10273 20204 30126 40152 56010 82200
333 0//00 82823=
67083 32481 71004 10216 20125 38768 48540 57013 878//
333 0//00 83817 85620=
67095 12375 72410 10232 20214 30169 40176 57012 60021 878//
333 0//14 81707 82820 87640=
67117 32582 12604 10288 20164 30143 40152 57014 81200
333 0//00 81823=
67137 32480 30410 10214 20154 38934 48532 55011 83200
333 0//00 83817
555 10232=
67143 32582 41604 10256 20226 30173 40180 57015 84800
333 0//00 83820 92438
555 82640=
67157 32681 10906 10262 20214 30177 40184 57013 81100
333 0//00 81823=
67161 32582 12410 10271 20210 30155 40164 57013 81200
333 0//00 81823=
67197 32582 10608 10278 20211 30164 40174 57007 81800
333 0//00 81820
555 81640=
60715 32960 10310 10305 20132 30178 40183 58006 80002
333 51131 81070=
43157 32597 52703 10286 20217 39421 40039 83530 333 10309 59018=
43421 31498 82302 10271 20236 39954 40056 70282 82776 333 02022
10280 59007 70377 82714 85360 87288=
43450 21459 80000 10254 20233 30052 40060 70298 8672/ 333 00023
10255 59009 70527 83712 85815 88460=
43473 21097 82783 10154 20141 38113 48478 78088 887// 333 02014
10169 59011 69907 70039 85700 87808=
28688 42598 60206 10190 20038 40048 52006 82333   333 91112=
98536 31465 20902 10277 20246 40082 53022 71341 82901
333 10320 56999 59003 82918=
98753 11465 73601 10258 20247 40076 53019 60041 70598 81278
333 10331 56999 59017 81816 84358 87279=
43053 32596 62304 10310 20291 40011 83431 222// 20701 333 10338
59002=
62420 32960 00412 10336 20116 40102 58016=
62435 32960 03209 10362 20117 40086 58015=
62455 32960 03116 10330 20137 40081 56012=
38462 42699 50101 10172 20098 38708 48451 57004 85300=
42189 21596 21402 10320 20235 49983 70500 82800 333 10332 58014
6990/ 81630=
58007 6990/ 85620 81930 84360=
29862 31599 80601 10246 20145 39693 49978 57013 70292 82932   333
10266=
29675 32998 52503 10155 20073 39453 49988 53001 80003 10259=
29759 11599 80000 10128 20100 39064 40015 53007 60062 79592 8691/
333 10215=
29864 31599 80903 10225 20133 39395 49981 57008 71792 8497/   333
10237 95005=
29956 11699 70804 10172 20118 39499 40012 53011 69902 79522 87900
333 10267 91116 95050=
82825 83360=
42874 32596 53608 10362 20182 49972 83330 333 10396 59006 82625 81930
83360=
43041 31596 82006 10254 20213 39421 40025 71792 8592/ 333 10372
58008 84625 81935 88458=
21802 32299 83404 10009 20006 30099 40122 53005 886// 333
10014 88703=
23274 32598 23608 10045 21003 30067 40105 53002 82100 333
10060 91112=
23383 32999 23604 10090 21025 39698 40029 54000 80001 333
10099=
23472 32598 73406 10093 21012 30008 40054 53001 83501 333
10109 91112=
23678 11565 83205 10098 20090 39933 49988 57003 60052 76162
8672/ 333 10125=
23884 11570 70601 10136 20125 39895 49963 57003 60043 70262
87500 333 10140=
23891 11495 71101 10124 20114 39689 49996 57002 60052 70282
87900 333 10177 95050=
25400 32999 23503 10067 21006 30086 40139 53010 82030 333
10101=
29253 11597 80000 10159 20128 39803 49962 58004 60022 78082
889// 333 10183=
29263 11599 61502 10222 20109 39873 49964 57005 60022 70282
86900 333 10230=
29282 11598 42303 10225 20059 39865 40016 53003 60022 70181
82901 333 10226=
35067 41597 7//// 10121 20111 39822 40083 52001 78086 87300=
38763 42998 00906 10375 20104 39953 40047 57014=
38911 42698 33605 10367 20004 39766 40030 57006 83100=
38954 42899 80000 10208 20127 47913 48460 52004 86900 10049=
38987 42996 00203 10357 20059 39347 40012 57013=
40356 32960 02903 10364 21030 39118 48464 333 59004 555 04410 50026=
40361 32960 00305 10390 20010 39303 40016 333 59010=
40375 32960 02103 10382 21020 39208 40023 333 59009=
40400 31957 03009 10294 20230 30019 40046 70700 333 58017=
40405 32960 01306 10430 21060 39300 49981 333 59017=
40416 32960 03606 10405 20120 39989 40008 333 58002=
40439 32960 02512 10430 20180 30013 40025 333 58008=
41036 32560 32806 10372 20000 38524 48472 83440 333 58016 83625
555 04410 50007=
41136 32960 00604 10400 21090 39238 40000 333 58000=
41170 32960 00704 10334 20200 30003 40016 333 58010=
41196 32960 03304 10408 20156 39961 49998 333 58000=
41216 32960 03405 10335 20266 30000 40004 333 58008=
41256 31658 10303 10333 20273 30003 40012 70500 81100
333 58006 81830 =
41268 31958 03606 10343 20275 39999 40014 70600 333 58003=
23205 42984 11604 10225 20112 30119 40133 58007 81030=
23219 42998 20904 10182 20029 30072 40172 57002 80002=
23418 41965 81001 10200 20036 30097 40166 56001 76162 8807/=
27271 42998 01602 10283 20073 30005 40147 58007=
10338 32682 53202 10158 20040 30118 40189 51016 83231 333
55305 83845 83362=
17060 32660 60104 10224 20157 40154 58004 83230 333 83835
85360=
17128 32670 60504 10216 20084 39055 40111 58004 86200 333
86840=
17170 11570 62304 10190 20050 38305 48471 55008 69921 70392
84950 333 82925 84833 86358 10055=
11518 32480 73506 10117 20072 39742 40175 52028 8427/ 333
84816 86358=
15420 32570 61802 10226 20085 30043 40148 57010 86200 333
91003 91202=
15614 31698 60000 10236 20097 39451 40113 57022 70311 83260=
10143=
24982 32699 73002 10136 20025 39581 40044 52007 82501 333
10220=
25325 32599 30205 10075 21054 39970 40136 53008 83400 333
10107=
30777 32998 20903 10192 21022 39480 40075 53015 80002 333
10222=
31174 32999 10309 10047 20011 30109 4020/ 57003 80001 333
10128=
31624 32999 00000 10094 20077 40102 53014 333 10216=
36974 41798 72702 10133 20038 37945 48476 52014 70292 87900=
57134 32980 20000 10241 20147 49987 57002 80002 333 05302=
53821 32980 71402 10304 20026 49965 52008 8704/ 333 05101=
52984 11575 82902 10194 20082 38012 52016 69901 76080 885//
333 05154=
57980 58007 6990/ 85620 81930 84360=
59012 81830 83922 87460=
21946 12484 60906 11019 21040 30130 40208 51003 69900 86500
333 10019 86610=
25123 32998 00805 10027 21054 30115 40151 52009 333 10105=
67023 32582 116// 10276 20217 30133 40139 57013 81200
333 0//00 81820=
67037 32582 2//// 10295 20196 3//// 4//// 5//// 81102
333 0//00 81823
555 81076=
67107 32581 40602 10236 20103 38501 48539 57015 84800
333 0//00 82823 83630=
67131 32582 12410 10257 20169 30152 40157 56010 81100
333 0//00 81823=
63705 32570 72108 10249 20217 38855 48511 8195/
333 59003 81823 81925 87363
555 10///=
63674 32575 51405 10300 20187 38037 82943
333 59005 81828 81930 84080
555 10224=
63702 32670 51429 10272 20159 84933
333 84830 81940 84080
555 10198=
63658 32580 51805 10290 20178 38862 84205
333 58005 82820 84280
555 10215=
63602 32802 40504 10284 20161 38863 82921
333 58008 82825 81927 83000
555 10120=
63726 32565 51803 10226 20141 38136 48478 83131
333 59004 83820
555 10172=
91577 06/// /1406 10188 20176 40122 50007 60191
333 10274 55002 20525 58013 60077=
91579 36/// /1416 10194 20189 40111 51013
333 10295=
91582 06/// /1510 10198 20183 40112 50003 69921
333 10273 55020 21024 59006 69927=
91583 06/// /0102 10190 20175 40113 52005 60271
333 10271 55004 20749 59004 60237=
91587 16/// /1806 10197 20167 30074 40124 50004 60051=
91590 01458 80602 10180 20174 40126 58006 60081 76062 8587/
333 10271 55000 2//// 58010 60017 82813 85633 87362=
91592 01558 80104 10181 20169 40125 58005 60021 76062 888//
333 10251 55000 20471 56699 58009 69967 84820 87640=
96749 31558 83604 10281 20254 30056 40069 51015 70522 83521
333 10320 56000 59016 83620 87462=
63680 32575 62306 10265 20/// 38792 48/// 84935
333 58000 84824 81927 85365
555 10216=
63682 32584 61807 10272 20/// 38818 48/// 83930
333 58014 83820 81925 83363
555 10216=
63684 32580 72312 10284 20181 38814 48/// 84935
333 58006 82820 81925 85280
555 10215=
71421 46/// ///// 10096 21015 39476 40166 58036=
71433 36/// /2509 10038 20038 39936 40166 51017 333 10092 20035
70032=
71841 36/// /3011 10096 21004 39744 40134 51021 333 10196 20041
70000=
91753 36/// /1106 10259 20202 40097 58005
333 10293 55073 21799 59007=
91754 36/// /0804 10252 2//// 40104 58002
333 10279 55027 2//// 59006=
37549 42797 51705 10280 20146 39526 40070 55010 83370=
40582 31958 03512 10452 21015 40027 57015 70500 333 00050=
41150 32966 03511 10329 20229 40019 333 58005=
41184 32960 03409 10412 20161 40002 333 58002=
41194 32960 03310 10367 20232 39992  40004 333 58001=
41217 32962 03409 10360 20239 39976 40005 333 58007=
41246 01558 30808 10331 20272 30006 40011 6///2 70555 83400 91215
333 58002 83625 =
41254 32567 40110 10290 20067 38014 48279 84100 333 58004 84820=
41288 31958 02012 10341 20279 39991 40013 70600 333 58006 =
41314 32962 31620 10363 20201 39532 40045 80001 333
58009 83075 =
41316 02560 52214 10310 20254 30008 40033 69902 82530
333 58009 799990 82625 84359 =
42071 31996 02705 10350 20173 49973 333 10386 58009=
42379 21596 50503 10298 20218 49982 70521 83530 333 10304 59022
6001/ 83630 85360=
29756 32599 73111 10228 20064 40004 53006 86902   333 10256 91117=
29962 11598 81403 10211 20147 49983 56005 69902 70298 8695/   333
10254=
62600 31965 00212 10390 20050 39862 40061 70700 58010
62640 31965 03410 10442 20066 39699 40032 70600 58018
62641 NIL=
37484 41496 82305 10188 20175 30113 40122 53004 78082 883//
555   11020=
62640 31965 03410 10442 20066 39699 40032 70600 58018
62641 NIL=
81200 22215 00252 20101 330// 40503=
10035 32861 32902 10147 20034 30137 40195 53013 83200 333
55307 83840=
11036 11470 72802 10158 20139 39913 40136 50011 60031 72588
878// 333 81818 83835 85650=
17050 32670 21803 10256 20131 40148 57012 82100 333 82840=
17240 32575 23601 10226 20106 39019 40118 54000 82100 333
82830=
17350 32660 32005 10308 20175 40081 58007 83200 333 83835=
12560 11325 80000 10099 20093 39800 40141 53008 60051 75166
886//=
42101 32996 03601 10360 20195 49974 333 10370 58009=
42131 32696 52301 10414 20195 49957 85500 333 10430 59004=
42165 31995 02306 10404 20167 49962 70744 333 10411 59006=
42182 31595 30702 10366 20245 49965 70511 83300 333 10405
59001 82635 81940=
42309 21596 50000 10284 20241 40003 70522 82230 333 10305
59024 6996/=
42328 31956 02309 10390 20227 49964 70700 333 59012=
42339 32305 10344 20198 49974 70600 83500 333 10395 59014
83630=
42623 32496 63203 10260 20217 39155 49994 83531 333 10294
59015 83618 85360=
43314 32497 82903 10294 20266 40068 8381/ 222// 21001 333
10321 59010=
43333 21496 72705 10268 20233 40040 70262 82431 333 10286
59021 6990/ 81618 83824 86358=
44416 22682 42802 10290 20222 39254 40001 84200 333 10294
59006 60458=
44438 21558 40000 10298 20259 39874 49998 70152 84600 333
10305 59010 60018=
44454 22560 40000 10230 20190 38585 48424 82104 333 10250
59008 60138=
44477 21070 22401 10225 20203 38724 48438 72122 82100 333
10260 59015 69908=
91356 11262 81502 10246 20236 30079 40086 50003 60241 76186
8622/ 333 10306 56299 59001 70351 86805=
44212 32699 73202 10248 20027 38971 49980 57006 87500 333
10265=
44285 32999 00000 1017/ 20032 38284 40037 57003 333 10212=
44215 32998 72704 10215 20036 38305 49943 56000 87010 333
10254 91212 44216 32699 70705 10284 20051 388/9 49997 57012
84260 333 10296=
44275 32698 51803 10202 21009 37703 49988 54000 81202 333
10218=
44302 32599 50000 10213 20033 39025 40038 53007 83389 333
10261=
82993 32570 52008 10270 20241 40143 85200 333 10228
59001=
65545 11358 80000 10209 20200 39708 40129 60221 79196 8467/
333 58020 84706 88360=
65560 32460 7//// 10280 20237 39807 40117 87200
333 58009 87815=
65563 31460 72206 10295 20235 39873 40112 70342 86202
333 58013 86813=
65585 11460 2//// 10280 20252 69901 71796 889//
333 88913 95372=
61401 32960 01022 10407 20138 39724 40110
333 0//00 59006 =
61404 32960 00816 10404 21004 39747 40120
333 0//00 58003=
61415 32960 03616 10250 20170 30133 40138
333 0//00 58006=
61421 31958 00417 10420 20025 39853 40097 70700
333 0//00 58005=
61437 33958 00406 10438 20189 39981 40112
333 0//00 59013=
61442 32960 03206 10325 20203 30106 40110
333 0//00 59009=
61450 31930 00415 10400 21080 39661 40095 707//
333 0//00 59009=
61461 33960 03604 10415 20083 30024 40107
333 0//00 59010=
61489 31956 00000 10360 20098 30114 40121 706//
333 0//00 59004=
61492 32958 03704 10395 20103 30090 40109
333 0//00 59004=
61497 31956 00806 10424 21080 3//// 4//// 706//
333 0//00 5////=
61498 31956 00406 10430 21019 39950 40075 705//
333 0//00 59025=
61499 31940 03606 10420 20020 39828 40070 7050/
333 0//00 59011
63801 32980 62307 10280 20174 39197 48536 82031 91150
333 55310 59011 82360 85080=
64700 32665 33606 10390 20180 39732 40058 83202 91155
333 0//00 59022 82840 83075 94926=
64701 31920 00414 10426 20108 4//// 70500
333 0//00 5////=
64706 32665 60000 10338 20211 4//// 83232 940//
333 0//00 59017 83840 85075 94919=
64709 32665 52210 10360 20225 4//// 84202 940//
333 0//00 5//// 84840 84075 94919=
64750 32665 62408 10354 20199 39675 40094 83202 91200
333 0//00 59012 83840 86075 94919=
64753 31940 00423 10385 20066 3//// 4//// 70700
333 0//00 5////=
64754 32962 31404 10374 20187 4//// 80002 975//
333 0//00 5//// 83075=
64756 32962 01010 10410 20185 4////
333 59019=
64758 32665 41604 10390 20220 4//// 83202 940//
333 0//00 5//// 83840 82075 94919=
64860 32570 42810 10335 20222 39812 40073 82102
333 0//00 59017 82820 84080=
64870 32560 71406 10280 20185 38897 48485 85202
333 XXXXX 85820 85080=
64890 32480 53206 10318 20237 3//// 4//// 85200
333 59008 85817=
64910 32565 62204 10308 20247 30087 40097 86300
333 0//00 58010 86820 81923 94945 95835=
10020 32582 22407 10135 20069 30153 40189 52016 82200
333 55310 2//// 84820=
44284 32699 40000 10151 20013 37840 40038 54000 84200 33-
10207=
44287 325996000 10192 20070 38088 40016 53003 82242333
10214=
10261=
41594 32997 00506 10370 20191 49939 333 10385 58012=
59001 82635 81940=
83630=
10321 59010=
59021 6990/ 81618 83824 86358=
10305 59010 60018=
53502 32980 10703 10285 21022 40001 52004 80002 333// 00200=
59995 11470 82208 10274 20227 30051 40059 52006 60004 72186
8217/ 333// 91525 91123=
44288 32899 20000 10186 20045 38139 40027 57004 82400 333
10211=
98526 32575 80000 10281 20257 40081 52015 8327/ 333 10320
56999 59003 83820 88359=
44304 32599 60000 10215 20046 38915 40036 52007 85382 333
10249=
44213 32699 62303 10247 20045 38665 49956 57009 86500 333
10248=
98748 31470 60000 10294 20/// 40072 52017 70544 83902 333
10328 56999 59015 81917 82618 84075=
41515 32797 60000 10303 20033 48430 82470 333 10342 58009=
41560 31696 71303 10280 20072 38223 48432 71795 85970 333
10300 58009=
41710 32997 23604 10456 20001 39226 49913 82030 333 10461
56090 58007 82360=
41712 31996 01801 10425 20071 39063 48439 70500 333 10435
59007=
41715 32997 01304 10430 20234 39881 49940 333 10435 59005=
41718 32996 22301 10416 20205 39846 49941 82030 333 10420
59007=
41739 31696 52302 10390 20206 38939 48439 70500 83530 333
10395 56990 59011 83635 82360=
41744 32697 51309 10350 20058 48404 83630 333 10390 56990
59001 83635 82360=
41756 32697 11802 10320 20234 39951 40014 81200 333 10330
56900 59002 81834=
41768 32696 22309 10385 20238 39980 49986 82500 333 10395
56900 59004 82635=
41780 32697 22707 10325 20232 39988 40014 82500 333 10345
56900 58004 82630=
96607 11558 50000 10268 20249 30071 40085 57039 60151 70162 82171
333 10324 56000 59015 82820=
10328 56999 59015 81917 82618 84075=
10249=
62760 31958 70713 10388 20038 39246 40011 70722 820327
56019 59009 82365 87275=
62762 32970 72508 10390 20200 39573 40020 82047
56059 58004 82365 87275=
62770 31968 70911 10385 20075 39198 40042 70722 80007
56009 59008 87275=
62771 32970 72104 10375 20165 39411 40028 81107
56009 58011 81856 87275=
62772 32970 72707 10388 20166 39621 40031 87070
56090 58006 87365=
62781 32970 70000 10395 20160 39435 40034 82047
56909 59002 82650 87275=
62790 32970 71403 10386 20114 39359 40038 82047
456099 59005 82365 85856 87275=
62795 32970 72710 10370 20160 39546 40022 830487
56099 58015 83365 87275=
62801 12970 72006 10345 20210 39641 40062 69901 87070
56090 58009 87365=
62803 32970 71803 10320 20178 39102 40042 84857
561109 57813 58020 82650 82856 82365=
62805 32770 72705 10370 20150 39510 40012 81147
56299 58047 81850 82365 87275=
62809 32770 72706 10370 20160 39//// 40//// 83807
56909 58//// 81650 82856 87275=
62840 12670 72310 10285 20205 39664 40091 68101 82347
56719 58023 81840 83365 87275=
62871 32970 70201 10320 20215 39452 40042 84037
56099 59003 84365 87275=
62880 32970 71401 10325 20215 39585 40076 83107
56209 58008 83850 87275:/X-7?5?187
81
8/70 3568 40077 84347
56999 57941 82365 87850 84365 87275=
98531 32470 60402 10294 20268 40067 53015 83402
333 10320 56999 59005 83618 83080=
98132 31475 11802 10275 20259 40117 53012 70544 81100
333 10316 56999 58004 81818=
98222 31575 70201 10288 20257 40088 51006 71544 83570
333 10328 56999 58009 83623 87359=
98233 31570 31802 10290 20229 40083 52013 71344 83500
333 10345 56999 59000 82920=
98324 31470 41801 10300 20272 40096 53012 70544 82401
333 10330 56999 58005 82618=
98334 32575 10000 10272 20254 39890 40093 52010 81200
333 10311 56999 59005 81820=
98425 31462 61404 10310 20242 40067 52012 70242 82207
333 10355 56999 59010 82817 86280=
98427 32480 30000 10270 20243 40078 53011 82201
333 10318 56999 59019 82818=
98428 31562 61604 10302 20254 40065 53017 71344 82970
333 10341 56999 59005 82920 86359=
98430 31565 70000 10304 20237 40089 53016 70544 84270
333 10355 56999 59004 84820 84358=
98432 31568 50000 10296 20262 40090 52023 70544 82202
333 10334 56999 58020 82820 83075=
98434 32470 40000 10288 20265 40098 58020 83201
333 10335 56999 59002 83818=
98435 31470 60000 10285 20248 40083 53014 71344 83970
333 10320 56999 59008 81918 82819 85359=
98446 32470 20000 10284 20255 40100 52017 82200
333 10326 56999 59010 82818=
98447 32475 20402 10266 20234 39834 40096 53020 82200
333 10/// 56999 59012 82818=
98538 31470 40401 10293 20260 40081 53018 71342 81906
333 10315 56999 59006 81911 84072=
98546 31472 70000 10272 20252 40100 52020 71322 82968
333 10325 56999 59008 82819 82918 87275=
98548 32465 10000 10280 20247 40083 53014 81200
333 10320 56999 59020 81815=
98553 11460 82702 10280 20251 40094 51015 69921 78084 8397/
333 10310 56999 59010 83915 88358=
98558 11468 70000 10278 20261 40096 5/014 69921 72584 85901
333 10310 56999 59008 81915 84818=
98642 31470 20000 10278 20241 40077 52021 71320 81902
333 10312 56999 59021 81915=
98644 31465 40000 10288 20251 40075 53020 70144 81208
333 10343 56999 59008 81818 84272=
98751 11468 80000 10240 20226 39409 40081 52014 69901 70544
8397/
333 10305 56999 59018 83915 88356=
98752 31468 51801 10287 20261 40086 52024 70544 82208
333 10334 56999 59012 82818 84272=
98851 11470 70000 10270 20254 40069 5/012 60051 70182 82978
333 10340 56999 59016 82918 83358 86275=
40180 32960 03008 10309 20168 30048 40093 57005=
40362 32962 01006 10410 20060 39532 40013 333 59014=
40373 32960 00000 10422 20010 39632 40019 333 59003=
40430 32960 02704 10430 20000 39325 49991 333 58010=
40438 32960 03603 10420 21010 39371 40030 333 59007=
41024 32960 12506 10350 20200 30021 40040 80002 333 58015
81070=
41128 32960 03403 10370 21050 38757 48470 333 59013=
58009 79999 82625 84359=
40743 32662 22702 10370 20030 38953 40000 57020 82200 91150
333 82840=
40754 32660 12403 10338 20094 38746 49986 57017 81400 91155
333 81640=
40766 32960 03012 10324 21024 38642 40030 57010 91150=
40800 32960 02903 10364 20001 38386 49964 57020 91150=
40809 32670 12505 10370 21010 38444 49964 57023 81100 91150
333 81840=
40841 32660 10306 10370 20040 38191 49950 58023 81100 91150=
40848 32960 02305 10368 20050 38458 49971 57015 91150=
40856 32660 20305 10380 20118 38557 19957 57013 82100 91150
333 82840=
96525 31460 60000 10272 20241 30068 40074 57029 71322 85901
333 10332 56000 57951 58000 81910 84815 80980=
96529 11456 80000 10264 20252 30068 40091 52023 60251 70262 8512/
333 10324 56009 59002 85817 88460=
58006 81830=
40007 32570 22809 10325 20071 40044 57006 82100 333 82826=
40045 32970 22508 10364 20046 40061 57006 82100 333 82830=
40718 32560 01050 10240 20193 30109 40078 58003 81500 91150
333 81625=
40732 32562 10903 10254 20166 30092 40072 58008 81100 91145=
42895 21496 82303 10258 20238 40008 79596 8632/ 333 10347
57990 58008 6007/ 85618 81930 88458=
24688 11599 82801 10083 20064 39209 40066 52007 60030 71582
86931 333 10129=
42934 32597 72902 10284 20264 40025 71322 85930 333 10384
58008 85625 82830 87360=
42571 32997 53202 10362 20170 49992 83031 333 10372 58004=
42840 32596 22303 10320 20258 40038 333 10342 59019 81625=
57990 58008 6007/ 85618 81930 88458=
58008 85625 82830 87360=
58010 =
62641 32970 00412 10410 20210 30008 540054
58010=
62650 31960 00210 10422 20088 39797 40050
58006=
62660 31968 00410 10445 20030 39//// 40//// 70600
58////=
62680 32970 00904 10435 20095 39645 40013
58005=
62721 32970 70000 10405 20125 39604 40099 80007
56009 58007 87275=
62733 32970 31402 10415 20130 39567 40043 83200
56900 57892 58004 83856=
626752 32970 414305 10405 20165 39390 40022 84200
56800 57881 58010 84860=
42398 32596 60506 10288 20233 49991 84830 333 10320 56790 59016
82620 83359=
10406 20233=
10361 20183=
78897 32558 60905 10287 20227 40178 51013 82206 333 022/5
10317 20265 58015 70004 82823 85276=
91317 11468 80902 10261 20253 30098 40102 51012 60191 78082
889//=
76556 32360 60000 10212 20206 39078 40068 57011 86600 91130
333 10300 20202 30019 56600 58001 70000 86710=
78016 11464 71805 10239 20218 30166 40207 52011 69901 70382
81158 333 10270 20216 70010 90950=
81405 01250 81502 10242 20239 40136 60094 76186 8587/ 333
20235 58008 60057 82705 83815 87360=
80022 31459 82102 10272 20249 30097 40099 70522 8222/ 333
20264 30/// 55040 5659/ 59003 82815 87457=
91203 11469 80910 10300 20249 30084 40089 52010 60021 70282 82361=
48037 32557 10000 10357 20264 49993 81100 333 10373 56900 59016=
91555 31560 10000 10251 20239 40082 5//// 705/1 81101
333 10294 569/9 59020 81822=
91565 32580 20703 10247 20230 40114 5//// 82200
333 10283 561// 58002 82825=
91570 36/// /1418 10225 20222 30095 40098 51008
333 10284=
91574 36/// /2116 10182 20165 30126 40132 51010
333 10228=
91631 11599 31005 10284 20249 40073 69901 70281 83200 91146 333 10304

5
6
2
/
/
=
91636 11499 21106 10273 20247 69921 70182 81201 333 10307 562/9=
91650 31599 10000 10263 2023/ 40101 51004 70100 81100
333 10301 569// 81825=
91659 31599 50000 10245 2019/ 40114 58004 70311 85800
333 10277 569// 83825=
91680 31698 10903 10203 20174 40117 51002 70110 81100
333 10293 569// 81830=
91683 31598 50000 10205 20197 40126 58005 70311 82802
333 10279 569/9 82820 85080=
91691 36/// /1006 10253 20210 40121=
91699 36/// /0710 10235 20182 40138=
30731 32599 82502 10087 20036 39532 40107 57002 81901   333 10161=
43237 31497 83603 10276 20223 39622 4//// 71792 84938 333
10348 56799 57972 58000 83620 81925 86275=
43344 32597 72905 10314 20230 39940 40035 81538 333 10332
58004 81620 83360 87270=
40394 32960 12207 10420 20010 38945 48454 81040 333 59015 81360
555 04410 59982=
40762 32665 11702 10320 20062 38497 49998 57017 81100 91150
333=
41084 32960 00203 10398 21030 38801 48473 333 58005 555 04410
59991=
43303 32597 80000 10344 20228 39780 40013 8382/ 333 10356
59023=
43325 32597 60000 10300 20237 39728 40034 82445 333 10338
58013=
60101 32960 00507 10302 20170 40173 50003=
60115 32675 10402 10316 20169 40162 58005 81200
333 81833=
60127 32970 00902 10329 20119 39602 40158 57007=
60135 32450 23004 10255 20190 40164 57004 82600
333 82710=
60620 32958 00806 10400 20100 40102 58010=
60765 32960 50403 10279 20179 30185 40191 57008 80002
333 50771 85073=
62306 32960 03306 10240 20180 40141 50002=
62318 32960 03406 10264 20189 40125 58001=
62366 32960 00307 10331 20112 40102 57010=
62414 32960 02906 10392 20035 40058 58014=
58005=
65548 32460 71802 10290 20235 39737 40117 74270
333 58008 84815 86360=
65578 11560 70203 10260 20256 30104 40114 61331 72996 85570
333 58011 85620 87460=
65592 11115 8//// 10235 20228 30103 40126 60571 79596 8597/
333 58015 82703 85613 82923 88460 95339=
60107 31420 43404 10214 20206 40190 54000 74040 84600
333 84713 95380=
60185 32470 23004 10250 20177 40159 58007 82500
333 82616=
60230 32560 33002 10330 20127 40136 58006 82202
333 82833 83070=
60265 32670 31604 10316 20058 38935 48586 53010 83300
333 83840 82950=
60602 32970 00000 10365 20067 40140 58008 333 95900=
60725 32570 22902 10311 20143 30018 40178 57012 81202
333 50791 81823=
60735 32965 10000 10325 20126 30106 40183 56009 80002
333 50741 81070=
60760 32562 31704 10338 20127 30061 40165 58011 81202
333 51431 81823 83070=
60769 32962 60403 10293 20158 30182 40187 57006 80002
333 50711 86070=
60775 32975 60604 10314 20088 39843 40181 58008 80002
333 51561 86070=
61701 32960 03305 10285 20195 4//// 80000
333 5//// =
61711 32960 42702 10275 20215 4//// 80006
333 5//// 82272 83073 =
61712 32960 03208 10310 20234 4//// 80000
333 5//// =
61717 32960 02706 10310 20234 4//// 80000
333 5//// =
61721 32960 22808 10322 20194 4//// 80002
333 5//// 82071 =
61722 31959 02706 10322 20194 4//// 70500 80000
333 5//// =
61731 32960 31805 10334 20179 4//// 80000
333 83076 =
61733 32960 22206 10340 20204 4//// 80002
333 5//// 82073 =
65555 32460 72403 10278 20237 87200
333 58014 87816=
65557 32460 60000 10300 20241 39889 40126 86200
333 58022 86813=
65562 32460 6//// 10316 20258 86200
333 86813=
65599 11460 7//// 10257 20233 30044 40118 60181 79596
333 58015 85913 87460 95331=
64500 32475 72204 10280 20245 30086 40100 879//
333 0//00 58002 83813 87633 81923 94947 95837=
64501 32470 62212 10280 20237 30107 40117 86800
333 0//00 58014 83813 86630 94929 95839=
64503 11465 6//// 10270 20238 30071 40112 60071 70162 83230
333 0//64 58005 83813 86361 94919 95839=
64510 31575 5//// 10294 20212 3//// 40/// 70142 85200
333 0//00 5//// 85820=
64550 32460 5//// 10296 20236 39007 40108 85200
333 0//00 58012 85812=
64551 31457 7//// 10280 20237 30077 40106 71022 878// 912//
64552 NIL=
64556 31470 6//// 10315 20230 39516 40076 70242 86200 913//
333 0//00 59002 86816 94939 95839=
64565 11458 8//// 10224 20206 39461 40097 60081 71796 8692/ 911//
333 0//16 58003 85611 88460 81920 94959 95879=