ZCZC 000
SMCI10 BENJ 011800
AAXX 01181
59644 32570 70000 10262 20256 30063 40078 57006 878// 333//
10315=
59647 32968 62002 10266 20250 40075 57008 86040 333// 10308=
58457 11358 72004 10224 20215 30036 40085 57024 60061 72598
874// 333 10329=
57259 11965 80000 10212 20200 40040 57016 60261 70098 8807/
3333 10333=
57265 11256 80402 10207 20201 39944 40048 52009 60611 78098
889// 333 10318=
57279 11659 80701 10221 20220 40040 57013 60541 79598 889//
333 10329=
57378 11962 82202 10251 20241 40032 57011 69911 70080 8807/
333 10325=
57655 32961 00401 10238 20229 40050 54000 333 10328=
57766 32965 02002 10266 20219 40059 57007 333// 10317=
57799 32975 01603 10273 20222 39994 40073 57010 333 10334=
57845 32968 01804 10254 20220 40061 57001 333 10308=
57972 32960 02202 10270 20214 39868 40078 57008 333 10336=
52740 16/// /0000 10046 29089 36848 60000
555 1/132 2//00 /////=
59082 32964 42201 10255 20232 30018 40091 57012 81042 333
10339=
59117 32975 01101 10265 20239 30004 40105 57009 333 10353=
59211 32675 82701 10273 20242 39865 40062 52006 8547/ 333
10351=
59265 32965 00902 10262 20243 39952 40084 57006 333 10329=
59287 32560 51401 10266 20250 30051 40101 57014 82442 333XX
10324 =
59316 32468 20000 10269 20253 30102 40111 57013 82400 333
10325=
59758 32468 21101 10268 20254 30055 40076 57001 81102 333//
10315=
59023 32565 70902 10263 20243 39828 40065 52001 878// 333
10339=
59293 32965 01402 10267 20237 30056 40103 57013 333 10348=
59417 31570 70000 10256 20247 39922 40069 54000 71300 879//
333 10329=
59501 32570 20901 10277 20253 30097 40113 57015 82100 333
10324=
59663 11463 51404 10282 20255 30061 40088 57008 60061 70080
85100 333 10314=
59838 32580 11602 10262 20248 30054 40068 52004 81160 333//
10316=
59948 11568 60903 10285 20253 30055 40063 57004 60021 72580
86200 333// 10310=
59981 11580 31405 10279 20257 30072 40078 57007 69901 72500
83202 333// 10311=
59985 32575 71803 10278 20251 30061 40066 57009 86202 333//
10314=
58027 31958 80904 10233 20210 30032 40080 52001 71000 80007
333 10309=
58040 11/08 90702 10190 20187 30099 40103 57009 69901 75254
333 10263=
58251 31958 80904 10228 20216 30084 40090 57009 71000 8807/
333 10307=
58633 11656 31101 10233 20230 39990 40084 57019 60031 71098
83400 333 10319=
58659 31750 80000 10244 20237 30072 40105 57010 71000 885//
333 10302=
59431 11570 80902 10262 20251 39932 40075 57004 69901 78000
889// 333 10310=
57957 11758 70000 10244 20240 39891 40080 57002 69911 71098
875// 333 10308=
59046 31575 72202 10278 20239 40076 57003 70090 878// 333
10340=
59058 11965 60000 10245 20238 40084 57006 69901 70080 86040
333 10337=
59072 32970 52201 10243 20234 40087 57010 85040 333 10343=
59087 32560 40000 10245 20238 40099 57012 84140 333 10327=
59096 32568 73401 10242 20226 40098 57015 874// 333 10327=
59209 11464 82502 10241 20207 40059 52007 69901 78000 889//
333 10307=
59254 11970 03201 10251 20241 40081 57008 69911 70098 333
10323=
59278 32565 21102 10266 20248 40091 57013 81102 333 10323=
59493 32575 70902 10283 20249 40102 57011 85102 333 10333=
59632 32565 10902 10268 20251 40075 52004 81100 333 10331=
59658 32468 71103 10281 20259 40084 57001 87102 333 10300=
59845 32962 01104 10260 20234 40068 52001 333// 10315=
59855 11570 21802 10265 20251 40073 57003 69951 72580 82100
333// 10305=
50468 32675 10000 10087 20059 39923 40122 54000 81500 333
10218=
50745 32965 02201 10151 20100 39961 40134 52003 333 10256=
54337 32960 02001 10175 20140 30060 40142 52006 333 10259=
54342 31956 02201 10181 20149 30074 40134 52005 71000 333
10250=
54471 32960 02501 10185 20162 30134 40139 52008 333 10251=
54662 31960 01401 10147 20135 30024 40141 52005 70040 333
10229=
58345 11930 81401 10242 20207 40076 57016 69901 72500 8807/
333 10301=
58543 11968 70702 10238 20225 40087 57018 69921 70096 8704/
333 10312=
58556 11660 81802 10235 20231 40104 57005 60021 72598 884//
333 10326=
58569 11/09 92205 10230 20230 40103 57009 69901 74364 333
10259=
58646 11556 80703 10242 20239 40093 57023 60121 79198 889//
333 10346=
58660 31656 80000 10253 20240 40110 57003 71000 885// 333
10293=
58834 11764 73602 10243 20225 40107 57011 69911 70098 875//
333 10357=
58944 32461 11802 10261 20248 40109 57007 81500 333 10309=
58144 31558 80901 10225 20214 30065 40086 57006 71000 8252/
333 10312=
58150 31530 81402 10210 20204 30086 40094 57012 71000 875//
333 10279=
51468 16/// /2300 10025 29054 36554 60001
555 1/124 2//00 /////=
53513 32970 00000 10183 20048 38928 40058 52002 333// 00001
10284=
53772 31956 80901 10201 20147 39237 40103 57003 71000 8802/
333// 10266=
54218 32980 20000 10155 20129 39487 40135 52002 80002 333//
10258=
54401 32965 00401 10193 20120 39319 40127 52007 333// 10279=
54511 32760 70000 10206 20140 30100 40138 52007 875// 333
10284=
54823 31930 83402 10216 20198 39904 40098 57010 71000 8802/
333 10310=
59673 11576 61403 10283 20258 40094 57008 69911 70080 86200
333 10312=
57476 32962 70602 10250 20243 40033 57008 8704/
333 10328 =
57584 11965 01806 10281 20221 40047 57005 69901 70060 333
10334=
57598 32661 70402 10246 20228 40063 57008 87500 333 10351=
57662 32960 03402 10259 20246 39997 40036 57006 333 10347=
57745 32968 00000 10246 20229 39745 40051 54000 333 10322=
57776 11980 02021 10195 20187 40073 57004 60011 70084 333
10241 91138 91518=
57866 32970 01804 10271 20220 39867 40061 57007 333// 10335=
58102 32865 81102 10264 20220 30012 40059 57004 885// 333
10321=
58203 11558 80702 10230 20230 30019 40062 57014 60521 78096
889// 333 10331=
58221 11556 81603 10228 20219 30052 40085 52005 60151 79598
889// 333 10320=
58314 11558 83201 10251 20242 39983 40065 54000 60101 79598
889// 333 10340=
58321 11560 80903 10260 20240 40069 52004 60011 76060 885//
333 10325=
58338 11665 81102 10243 20211 40071 57012 60021 70080 885//
333 10329=
58424 11660 82003 10275 20247 30036 40058 57014 69901 76000
885// 333 10327=
58437 11/00 92009 10161 20161 38166 57012 60011 74564 333
10176=
58527 32665 70702 10254 20211 39993 40064 57017 81502 333//
10332=
58606 11762 70901 10257 20244 30014 40066 57010 69961 70098
875// 333// 10325=
58715 32980 71804 10270 20222 40080 57002 8704/ 333// 10336=
58813 32980 02001 10266 20228 40079 57004 333// 10343=
59102 32960 00000 10236 20230 40102 57011 333 10345=
45007 32475 41403 10294 20237 30088 40097 56016 84200
333  58024 81816 83825 =
58265 32563 81403 10218 20213 30089 40100 57013 885// 333
10277=
58472 31/05 91605 10227 20226 30007 40101 57003 74540 333
10252=
58477 11/09 90000 10235 20232 30062 40105 57009 69941 78095
333 10261=
58666 31/00 92205 10239 20239 30012 40110 57010 74540 333
10256=
58725 11765 81801 10216 20207 39861 40110 57007 60181 70098
885// 333 10329=
58760 11/04 90000 10239 20239 40104 57013 69901 74554 333
10276=
58921 32962 03402 10253 20228 39870 40101 57007 333 10356=
50953 32970 02201 10139 20132 39970 40145 52011 333 10253=
54497 31/04 90201 10150 20147 30126 40140 57001 74700 333
10222=
59456 32568 22501 10260 20243 40086 57004 82400 333 10340=
10321=
58238 11457 80702 10235 20223 30061 40070 57008 60031 79598
889// 333 10308=
52418 32970 00000 10190 20059 38775 49994 57008 333 00003
10299=
52955 11580 80000 10075 20055 36970 52003 60051 76086 8172/
333 00100 10152=
56033 11680 72902 10025 20003 36046 52007 69931 70080 879//
333 00101 10094=
56046 11680 70000 10045 20037 36272 52005 60021 70080 86902
333 00151 10154=
56080 11970 80000 10093 20084 37123 57006 60011 76086 8807/
333 05201 10141=
53915 32780 81101 10197 20098 38582 40010 57004 885// 333
00151 10273=
52652 11965 83203 10166 20126 38448 40015 57004 69921 76060
8802/ 333 00052 10271=
57006 32765 80000 10202 20111 40010 57011 885// 333 00052
10276=
53923 32980 81404 10198 20089 40015 54000 8807/ 333 10284=
59134 32475 62002 10259 20246 39954 40111 57010 81102
333 10343=
57083 32960 80603 10232 20177 39949 40076 57008 8807/ 333//
10315=
58926 11658 50000 10238 20232 40109 57005 69941 71080
85500 333 10358=
50834 32980 02902 10100 20071 40156 52008 333// 10262=
53673 11960 81801 10202 20137 40109 52007 69901 70060 8807/
333// 10270=
53787 32762 71401 10178 20136 40089 57004 875// 333// 10286=
53898 32961 80204 10210 20178 40113 52001 8802/ 333// 10271=
54725 32662 80403 10172 20159 40113 57002 885// 333// 10244=
54751 31956 80905 10143 20141 40133 52002 71000 8807/ 333//
10220=
54916 32960 80702 10234 20207 40088 57013 8807/ 333// 10327=
56294 32962 83402 10226 20169 39454 40019 57006 8807/ 333
00152 10274=
56492 11730 83204 10238 20202 39628 40008 57010 69901 71060
885// 333 00001 10330=
56571 32680 51103 10271 20126 38317 54000 85800 333 00003
10323=
56651 32980 03602 10170 20103 37609 52004 333 00100 10247=
56951 11670 81601 10208 20173 38465 52002 69911 70098 889//
333 00201 10288=
57328 11765 80406 10212 20200 39610 49999 57009 60011 79598
889// 333 10283=
57411 11457 80000 10103 20192 39655 40007 57009 60141 79198
889// 333 10241=
58362 11640 81401 10233 20230 30089 40099 57012 69901 71060
885// 333// 10268=
57399 11558 81102 10245 20232 40051 57026 60171 79598 889//
333 10329=
57447 11960 80000 10217 20208 39527 40042 57005 69991 72160
8807/ 333 10252=
57494 11965 60000 10245 20230 30011 40039 57015 69981 70098
80002 333 10326=
57687 32980 01404 10261 20229 39980 40056 57003 333// 10330=
57853 32775 81401 10251 20223 40058 57002 885// 333// 10323=
58506 11275 71609 10216 20195 40066 57015 69901 72500 874//
333// 10265=
58730 11462 80000 10220 20209 40105 57009 60151 70098 885//
333 10335=
58731 11968 21602 10210 20207 40106 57014 60061 70098 82030
333 10335 91117 91520=
58754 32962 82701 10245 20230 40108 57009 8807/ 333 10313=
58911 32768 50000 10221 20212 40108 57009 82402 333 10331=
58931 31/00 91806 10184 20184 38381 57006 74594 333 10252=
50527 32970 50000 10123 20037 39441 40143 52008 80002 333//
10235=
50727 32980 01402 10036 20024 39000 40166 52004 333// 10221=
53564 32980 01101 10221 20113 39118 40055 52007 333// 00205
10304=
53959 32965 70904 10261 20183 39627 40043 52003 8703/ 333//
10335=
54843 31930 81403 10182 20177 30089 40115 54000 71000 8807/
333// 10264=
54909 32966 80703 10242 20220 30014 40073 57007 8807/ 333//
10313=
56193 11762 80000 10191 20152 40026 57007 69901 76000 884//
333 00052 10256=
56196 32676 80000 10230 20159 40016 57005 885// 333 00051
10288=
56287 11957 82202 10212 20186 40029 57010 69921 71060 8807/
333 00152 10237=
56385 11/00 90000 10100 20100 36996 57012 60021 76064 333
00000 10158=
56666 32780 21603 10294 20148 49957 52011 82400 333 00103
10371=
56671 32780 30000 10209 20162 38160 52005 82402 333 00102
10290=
56684 32580 32504 10190 20146 37858 57004 81102 333 00000
10275=
56751 32680 11601 10202 20125 37979 52002 81400 333 00101
10268=
56786 32570 71803 10187 20169 38084 57006 87400 333 00100
10275=
56886 32980 02501 10183 20169 38238 57004 333 00151 10254=
56977 31159 82201 10204 20195 40058 57005 71000 886// 333
00252 10269=
57206 11680 80000 10214 20150 40016 57018 69901 70080 884//
333 10215=
57602 31950 52902 10241 20202 40003 57004 71000 85040 333
10306=
57713 32968 11601 10244 20193 40015 57001 81040 333 00002
10306=
50136 32970 01802 11010 21016 39630 40145 52008 333 10235=
50353 11970 10000 10084 20067 39906 40119 54000 69901 70080
81032 333 10202=
50557 32970 00000 10082 20020 39858 40145 52012 333 10239=
50756 32970 00000 10126 20075 39854 40136 52008 333 10239=
50788 32670 42905 10142 20118 30016 40097 57006 84500 333
10239=
50949 32965 00000 10154 20152 39983 40144 52012 333 10263=
50963 32960 02202 10094 20094 30004 40136 52010 333 10213=
50978 11978 02703 10139 20128 39840 40117 52003 69961 70080
333 10258=
54161 32970 00000 10156 20116 39855 40131 52009 333 10275=
54236 32962 22002 10185 20149 30028 40126 52003 80002 333
10278=
54292 11570 80000 10142 20122 39921 40130 52005 69901 70098
889// 333 10257=
54374 32562 70000 10144 20132 39757 40144 52007 876// 333
10243=
56586 32970 01602 10202 20148 37994 57002 333 00001 10308=
56748 32980 00000 10194 20157 38306 57001 333 00151 10285=
56763 32680 11804 10271 20174 49993 52007 81100 333 00101
10351=
56768 32680 61401 10216 20171 38193 52003 86400 333 00201
10295=
56838 32970 00000 10237 20218 40039 52004 333 00001 10309=
56946 31580 30000 10239 20199 40028 52006 71300 83900 333
00102 10319=
56954 11550 30000 10208 20196 40055 57004 69941 71398 83200
333 00251 10319=
56959 32762 70000 10229 20220 40042 57009 874// 333 00252
10334=
56966 32780 10901 10275 20215 40028 57002 81102 333 00251
10332=
56969 32660 80000 10222 20216 40062 57001 884// 333 00251
10310=
56986 11460 20000 10195 20181 40073 52003 69911 70080 82400
333 00200 10222=
57306 11756 83602 10182 20180 40012 57013 60261 79598 889//
333 10224=
57504 31857 80202 10233 20193 40000 57008 71000 885// 333
00152 10313=
59007 32970 00000 10210 20181 40057 57002 333 10264=
53463 32980 00401 10202 20065 38927 40081 52009 333// 00304
10278=
53480 32980 00000 10150 20092 40116 52001 333// 10228=
53646 32970 71103 10218 20128 38902 40040 52002 80002 333
00352 10296=
57127 11960 81601 10188 20180 39469 40047 57014 60041 70060
8802/ 333 10215=
53845 32965 80902 10236 20144 39008 40037 52008 8807/ 333
00400 10328=
53614 32880 23603 10218 20098 38825 40019 57002 81402 333
05101 10264=
53723 32968 71103 10222 20087 38586 40005 52001 8703/ 333
05101 10290=
52836 32980 70000 10085 20022 36902 57002 80002 333 00352
10141=
52866 11970 80000 10120 20112 37667 54000 60021 76086 8802/
333 00002 10228=
52754 11570 83402 10037 20027 36791 57009 60041 70060 8672/
333 05155 10147=
52713 32980 00000 10045 20023 36912 57002 333 00356 10113=
57016 32975 80000 10220 20137 40024 57006 8807/ 333 10271=
57046 32967 70000 10158 20051 37915 52001 8703/ 333 00154
10223=
53705 32965 80403 10218 20092 40005 52001 8802/ 333 00002
10281=
56018 11680 70000 10054 20041 36202 52007 60011 70080 879//
333 00200 10127=
56065 11970 80402 10070 20066 36619 57003 60031 76060 8802/
333 05101 10115=
54102 32980 00000 10141 20091 39031 40131 52003 333// 10256=
50632 32970 40000 10073 20025 39300 40151 52002 82032 333//
10234=
50548 32980 00000 10071 20041 40142 52010 333// 10251=
54527 31560 70202 10196 20156 40136 54000 71700 879// 333
10264=
54602 32760 80203 10208 20155 40131 54000 83507 333// 10279=
53798 31757 83603 10220 20161 30018 40107 57012 71000 82507
333// 10250=
54423 32970 00000 10155 20138 39695 40138 52002 333// 10286=
54618 32961 60202 10184 20152 30104 40121 52002 80002 333//
10236=
54308 32975 00000 10142 20121 40150 52011 333// 10259=
57461 32968 80000 10256 20239 39875 40026 57007 8807/ 333
10321=
58208 11460 83602 10253 20242 40060 52004 60091 96160 8772/
333// 10334=
53352 32980 01403 10142 20051 40085 52002 333// 10240=
53593 32962 70000 10184 20118 40116 52007 85032 333// 10276=
53764 11970 80704 10217 20158 40050 52002 69901 70060 8802/
333// 10322=
53863 11958 72001 10184 20161 40082 52001 69901 71060 80002
333// 10275=
53975 31958 70000 10216 20155 40072 57003 71000 80002 333//
10307=
54405 32960 60702 10207 20122 40127 52005 80002 333// 10279=
54436 32970 70000 10166 20154 40144 52007 80002 333// 10281=
54808 32966 73602 10209 20197 40092 57007 80002 333// 10308=
54826 31/00 90906 10146 20146 38453 57015 74540 333// 10222=
54836 32960 80902 10210 20193 40107 57010 8802/ 333// 10287=
54863 31/05 91103 10157 20157 40133 57004 74540 333// 10206=
57071 11961 80906 10232 20179 40065 57008 69901 76000 8802/
333// 10305=
50246 32970 02703 10017 20006 40142 52005 333 10217=
50658 32980 02501 10121 20032 40127 52007 333 10253=
50844 32962 01402 10170 20099 40134 52005 333 10272=
50854 32970 02501 10132 20128 40138 52006 333 10257=
50888 32980 21802 10139 20101 40106 52003 80002 333 10245=
50968 31/06 91801 10116 20116 40144 52008 74740 333 10253=
50983 11970 42201 10155 20139 40105 52003 69941 70060 82032
333 10242=
54096 11666 12701 10117 20113 40126 52006 60071 70098 81500
333 10242=
54259 32962 00000 10144 20132 40148 52005 333 10247=
54273 11970 60000 10156 20140 40135 52010 69931 70080 80002
333 10258=
54324 11965 00000 10187 20159 40132 52004 69921 70080 333
10275=
54346 32963 00903 10148 20132 40146 52006 333 10246=
54493 32970 00000 10123 20112 40148 52005 333 10212=
47401 41356 80705 10064 20061 30107 40121 55001 75155 886//=
47412 42460 83305 10115 20103 30067 40098 51005 886//=
47420 41/40 80305 10052 20048 30041 40088 53004 78088 887//=
47426 46/// /2301 10104 20101 30042 40086 56004=
47582 41/58 82503 10141 20123 30109 40134 53006 78082 882//=
47590 42980 00104 10159 20113 30059 40110 53007=
47600 41/50 62102 10125 20117 30139 40156 53008 710// 85230=
47648 41/70 70303 10171 20147 30081 40114 53012 70282 872//=
47662 41/60 70202 10194 20164 30079 40121 51012 70281 81101=
47678 42/70 42806 10200 20165 30023 40116 53004 81202=
47740 41950 23002 10135 20124 30113 40151 55001 71000 80002=
47778 42970 73003 10202 20150 30042 40129 53002 80002=
47807 41957 73302 10197 20171 30125 40142 55008 71011 80001=
47827 41965 43602 10193 20173 30102 40138 56002 70211 80001=
47843 41/58 70000 10184 20167 30102 40133 58011 71022 8223/=
47898 41965 73602 10200 20172 30095 40133 57004 702// 80001=
47909 42970 02001 10238 20213 30128 40137 56004=
47918 42/65 61702 10275 20249 30116 40124 55010 86200=
47936 42/70 51503 10251 20233 30077 40138 57003 85200=
47945 41/08 71302 10245 20242 30116 40139 56004 74642 876//=
47971 46/// /2601 10245 20235 30144 40153 55002=
47991 41/80 20905 10272 20236 30149 40159 53001 70280 82200=
54026 32980 20000 10196 20103 39824 40128 52006 80002 333//
10295=
54027 32980 00000 10146 20063 39571 40125 52003 333// 10282=
57516 11762 82902 10239 20208 39699 49990 57005 69901 70060
885// 333 05101 10322=
52681 32975 80402 10220 20063 38556 49992 57001 8802/ 333
00001 10289=
57036 11962 81603 10254 20141 39589 40031 52005 69901 76000
8807/ 333 10312=
57245 11762 82203 10207 20198 39721 40049 57005 60071 72198
885// 333 00352 10317=
51886 32975 00000 10082 21028 37112 57003 333 00054 10174=
56029 11680 83603 10089 20055 36498 52009 69901 78000 889//
333 00201 10202=
52602 32980 03202 10052 21059 37270 57004 333 00255 10183=
57348 32763 83604 10232 20205 40020 57003 885// 333 10282=
57426 11661 80402 10255 20212 49987 57011 69901 79590 889//
333 05306 10284=
47575 42/70 82204 10163 20119 30105 40109 53003 882//=
47585 42965 12302 10124 20105 30044 40100 53004 81032=
47598 42962 03001 10153 20121 30111 40117 51010=
47602 41/60 73503 10147 20131 30130 40150 53008 70282 872//=
47618 42/60 20101 10113 20094 39443 40154 53008 81502=
47624 42/70 13302 10161 20102 39996 40129 51012 81030=
47636 42/70 73402 10168 20125 30069 40135 53004 81502=
47655 42965 23003 10171 20114 30060 40115 53016 80002=
47750 41230 81001 10148 20140 30130 40156 53003 71022 886//=
47755 41/59 70702 10164 20154 30124 40148 53001 710// 83230=
47772 42965 70403 10191 20131 30047 40144 52001 81032=
47800 41150 83201 10180 20162 30121 40143 58006 71022 832//=
47815 42965 61802 10181 20154 30125 40140 58003 80002=
47817 41958 70701 10186 20171 30093 40134 58010 71022 80002=
47830 41957 23003 10205 20197 30118 40135 51002 71000 80001=
47837 42960 02604 10212 20190 30115 40136 58003=
47891 42965 01801 10186 20149 30133 40145 53007=
47899 42970 02802 10205 20184 39920 40135 53001=
47927 42/80 11502 10256 20246 30081 40128 56007 81100=
58847 32661 71404 10268 20242 30005 40102 57008 82502 333
10345=
50774 11658 20000 10081 20075 39835 40128 52004 69901 71080
82200 333 10193=
44210 32999 30000 10139 20079 38400 53007 83040=
44217 32998 10000 10074 20074 37855 40159 51006 81040=
44229 32999 20000 10083 21014 37906 40094 51001 82040=
44242 329// 20000 10174 20030 39217 40062 52007 82040=
44243 329// 10000 10130 20058 39315 40099 54000 81040=
44254 329// 02302 10116 20056 39012 40123 54002=
44257 329// 00000 10070 20043 38957 40164 52002=
44263 32998 10000 10112 20029 38003 40070 53007 81040=
44291 32998 01804 10157 21027 38704 40159 52010=
44329 325// 42305 10176 20052 37730 40008 58007 84500=
44374 32999 32305 10187 21064 38231 40027 54004 83070=
44385 32999 01405 10217 20017 38860 40064 56001=
57816 32668 62004 10220 20185 38734 40040 57003 86500 333//
00101 10268=
57554 31909 0000 10227 20223 40043 57011 74600 333 10277=
53068 32980 01403 10177 20014 39047 40111 54000 333// 00401
10275=
53231 32980 01105 10173 21051 38450 57002 333// 00002 10270=
53276 32980 00000 10158 20075 38850 40113 52001 333// 10247=
54135 32980 02501 10175 20137 39920 40129 52006 333// 10282=
54539 32970 00000 10163 20149 30128 40142 52005 333// 10248=
54753 32960 80000 10191 20152 30121 40127 52002 8807/ 333//
10234=
54857 31/01 91103 10159 20157 30037 40126 52002 74544 333//
10184=
57067 11957 80702 10229 20189 39414 40045 57002 69901 76000
8807/ 333// 10289=
57178 11740 80403 10222 20213 39897 40046 57016 60071 79196
8802/ 333// 10308=
57297 11640 80704 10221 20220 39911 40042 57022 60531 79598
889// 333// 10318=
56146 32780 52703 10126 20047 36728 52020 85900 333 00103
10219=
56172 11880 83201 10133 20110 37313 52022 69931 79598 889//
333 05201 10269=
56247 32980 11101 10194 20058 37384 52011 80002 333 00100
10306=
56444 11565 70000 10103 20079 36813 52003 69901 78000 874//
333 00100 10146=
56462 32687 00000 10123 20106 37126 52003 874// 333 00001
10252=
56691 32478 71805 10176 20142 37745 57002 876// 333 00001
10256=
56739 32580 10000 10182 20165 38313 54000 88110 333 00000
10248=
56964 11568 20000 10204 20192 38664 40051 57003 69941 70080
82200 333 00253 10301=
56985 32580 71803 10216 20175 38664 40052 57002 879// 333
00200 10273=
57633 32765 70000 10230 20215 39300 40032 57008 875// 333
05105 10293=
57902 32578 61402 10218 20187 38580 40039 57007 86100 333
00101 10263=
50564 32970 12502 10052 20038 40129 52006 80002 333 10231=
54049 32970 01802 10183 20130 40136 52009 333 10266=
54115 32980 00000 10156 20071 40134 52008 333// 10258=
54186 32962 02701 10119 40131 52008 333 10251 20100=
54377 32962 01801 10134 20127 40151 52001 333 10227=
54386 32970 00402 10102 20096 40134 57001 333 10235=
52533 11970 82203 10184 20082 38460 40021 52013 69911 70060
8802/ 333 00253 10257=
52323 32980 82203 10183 20010 38187 52004 80007 333 00101
10272=
56096 32775 80000 10196 20129 38853 40026 57006 885// 333
00152 10239=
52889 32970 60000 10205 20109 38399 49984 57007 86030 333
05102 10272=
52436 32970 80703 10212 20036 38393 49984 52003 8807/ 333
00107 10271=
52787 11770 82004 10065 20048 37024 57006 60011 72580 889//
333 05151 10145=
52996 32965 71406 10088 20081 37531 57009 80002 333 00052
10157=
56021 11680 72201 10028 20008 36106 54000 60011 70080 82902
333 00251 10084=
52737 32980 00000 10060 20043 37077 57004 333 00358 10137=
53588 31/02 90905 10090 20088 37817 52002 74544 333 10162=
53698 31956 83601 10213 20176 40124 54000 71000 8802/ 333//
10225=
56079 11880 81601 10081 20069 36682 57006 60111 79198 889//
333 00001 10162=
56144 11780 70202 10141 20052 36846 52014 69901 70080 86402
333 00103 10224=
56152 11580 81402 10056 20049 36326 52008 60021 78080 889//
333 00100 10192 91119 91532=
56167 31780 20000 10113 20087 37061 52013 70090 82400 333
00051 10250=
56173 11880 82503 10075 20057 36644 52014 60081 79198 889//
333 05100 10182=
56182 11780 80000 10116 20106 37164 57003 60041 70098 885//
333 05100 10216=
56257 32680 11102 10094 20014 36294 52007 81400 333 00001
10191=
56357 32680 12002 10095 20023 36468 52003 81400 333 00102
10212=
56374 32580 80000 10134 20119 37394 52001 884// 333 00000
10207=
57707 32970 01804 10226 20161 38421 57007 333 00002 10292=
57731 32978 01401 10257 20144 40030 57001 333 10332=
57832 32770 21802 10265 20201 40040 57004 82500 333 10306=
57916 32971 00000 10256 20218 40050 52003 333 10338=
57922 11565 18404 10222 20198 40062 57004 69901 76000 885//
333 10275=
57932 11462 72503 10260 20222 40055 57002 69901 76000 87500
333 10332=
50603 32980 02702 10121 21012 3650/=
54157 11962 01801 10174 20145 40130 52004 69931 70080 333//
10274=
54094 11662 42002 10136 20125 39847 40129 52005 69911 70080
84500 333 10276=
50442 32970 01801 10043 20021 40153 52010 333 10247=
53083 32980 00203 10132 20012 40132 52007 333// 00502 10258=
53487 32965 61103 10182 20109 40099 52008 82032 333// 10273=
54226 32980 00000 10151 20124 40135 52001 333// 10255=
54311 32980 00000 10140 20119 40143 52006 333// 10244=
54534 32960 00701 10185 20153 40142 52010 333// 10274=
54715 32965 80704 10196 20185 40111 57006 80007 333// 10251=
54929 31930 81602 10196 20182 40106 57004 71000 8807/ 333//
10298=
54945 31/00 90903 10168 20166 40125 57006 74544 333// 10201=
57193 32666 81401 10251 20218 40061 57002 885// 333// 10318=
57290 11960 81103 10230 20220 40054 57006 60041 76060 8802/
333// 10317=
52908 32980 10202 11022 21067 35802 54000 80002 333 00251
10035=
56004 32980 10205 10003 21023 35859 52004 80002 333 00351
10110=
52818 32970 22201 10090 20007 37235 54000 80002 333 00255
10176=
50434 32980 00401 10013 21003 39314 40168 52009 333// 10222=
50915 32980 00402 10128 21025 39198 40140 52004 333// 10271=
53149 32980 00403 10173 20048 38758 40083 57005 333// 00201
10258=
53192 32980 00000 10134 20014 38895 40138 52003 333// 10258=
53336 32980 00204 10184 20015 38675 40056 57001 333// 00103
10267=
53391 32980 00000 10118 20078 38518 40132 52003 333// 00502
10216=
53529 32980 70202 10197 20000 38572 40032 52001 80002 333//
00001 10284=
53543 32980 01404 10188 20035 38510 40062 52001 333 10254=
54012 32980 00000 10122 20069 39033 40148 52006 333// 10245=
54208 32980 00000 10096 20086 38771 40153 52009 333// 10223=
54776 31/01 91804 10142 20142 30075 40132 57004 74544 333//
10163=
51076 11680 40206 10194 20037 39220 40038 54000 69901 70080
81462 333 00202 10264=
51133 11680 72902 10171 20091 39452 40059 57007 69921 70098
879// 333// 00001 10264 91120 91529=
51288 32680 20903 10126 20024 38283 57001 81502 333 00152
10212=
51463 32980 12003 10192 20087 39007 40036 57003 80002 333
05351 10250=
51495 32980 03409 10233 20057 40080 52001 333// 00002 10321=
51656 11775 80904 10231 20072 38993 40000 52006 69901 79598
889// 333// 00005 10298=
51709 11880 70202 10220 20051 38612 49974 52005 69901 78090
84902 333// 05302 10285=
51053 32680 50000 10180 20093 40042 52002 81462 333 00000
10256=
51716 11865 70702 10219 20064 38783 49986 57004 69941 70098
879// 333// 05200 10312=
51828 31959 01402 10226 20037 38508 49947 57005 70600 333//
05400 10306=
51839 32975 10701 10217 20069 49951 57002 80002 333// 05401
10315=
51931 32968 70201 10184 20105 49962 57004 80002 333// 05301
10311=
52267 32980 60903 10232 21035 38999 40006 52001 80002 333//
00101 10336=
55578 32980 01403 10115 20008 36353 52017 333 00100 10225=
55591 11980 10902 10107 20071 36499 52005 69971 70098 80002
333 05153 10238=
55664 32980 00000 10073 20018 36021 52011 333 00100 10184=
55696 32680 11104 10098 20032 36360 52011 81400 333 00100
10191=
55773 32670 60000 10044 20017 36040 52010 86400 333 00100
10111=
56137 32780 50000 10138 20035 36791 52010 81402 333// 00102
10262=
56312 11680 81802 10124 20097 37077 52007 69901 78080 884//
333// 00100 10207=
58024 81816 83825=
45011 42475 61305 10277 20257 40106 57011 862// 333 58027=
56459 32880 13603 10194 20095 37609 52001 81400 333 00100
10278=
56475 31670 30000 10182 20160 38256 54000 70090 83400 333
00100 10319=
57313 11665 80000 10198 20192 40003 57022 60071 79198 889//
333 05251 10225=
57405 11765 80000 10216 20194 40009 57011 69991 72598 884//
333 10266=
56188 11762 82501 10204 20166 40018 57009 69901 72580 8247/
333 00052 10246=
22212 00259 20000 30000 40000 50000=
82100
22254 04238 20301 306// 41003 8////=
22271 00026 20804 336// 41010
333 80033=
15601 17153 35081 36020=
62120 01184 99564 10021 46897 ///// 1//// 20104 40072 57008 22200
80119=
62103 01184 99499 70029 46/97 /2412 1//// 2//// 40181 57010 22200
00120 10804 70022 555 1/177 05006 07240 10062 11884 13420 14945
15586 17114 35070 36084 05005 07215 10044 11093 12424 13420 14929
15587 17115 35069 36088=
15533 18003 19022 22175 23025 35067 36124 50059 51029 52011 53242
70001 71000 72552 73141 74012 75420 76900 90091 05362 07027 10085
11114 12391 13409 14553 15531 18001 19021 22175 23026 52011 53242
70001 71000 72552 74012 75421 76900 90142=
51433 52012 53269 70001 71000 73138 74012 75451 76900 90268=
80001 22212 00108 20000 31221 40703 53001 6//// 80120 ICE /////=
51243 32980 23406 10212 20067 39515 40020 52005 80002 333
05152 10299=
51431 32680 72703 10203 20076 39310 40050 52015 879// 333
05503 10261=
51765 32980 01103 10242 20095 39062 49970 52003 333 05105
10340=
51777 32970 60902 10228 20049 39014 49967 57006 80002 333
05203 10342=
52203 32980 00000 10179 20095 39187 49995 57006 333 00051
10315=
51334 32780 71401 10199 20103 40047 52017 81462 333 05101
10296=
51855 32970 40000 10219 20060 49945 57003 80002 333 05451
10315=
51644 32980 03601 10161 20106 38825 49996 52001 333 05252
10278=
51730 32670 71801 10149 20121 40005 52010 83902 333 05155
10280=
10035=
55228 32980 03202 10089 21132 36037 52023 333 00100 10163=
55437 32780 11604 10086 21004 36357 52010 81100 333 00101
10178=
55248 32780 21802 10072 21056 35920 52015 82100 333 00151
10156=
55299 11778 80904 10032 20017 35868 52004 69931 78080 889//
333// 00151 10128=
55279 11680 80902 10024 20014 35724 52010 69901 70080 889//
333// 00253 10100=
56106 11680 71403 10067 20039 36224 52003 69951 78000 874//
333// 00002 10154=
55472 32780 63608 10061 21008 35748 52009 86200 333 00253
10146=
51467 32980 20000 10144 20074 38198 52005 80002 333// 00053
10193=
57993 32975 00000 10263 20225 39947 40088 57010 333// 10352=
10277=
10184=
10235=
51811 32865 60000 10219 20094 38655 49958 52007 81962 333//
05401 10299=
52495 32980 30905 10216 21042 38611 40011 57006 80002 333//
05102 10290=
57793 32963 00000 10246 20234 40076 57008 333// 10331=
51379 32680 11604 10149 20109 40052 52001 81900 333 00100
10253=
51542 32680 50201 10030 20015 37537 52002 81402 333 05154
10127=
52118 32980 22704 10127 20036 38220 57001 80002 333 00153
10262=
51346 32980 21601 10208 20091 40021 54000 80002 333 05452
10295=
51567 11780 70000 10181 20112 40015 52006 69911 70098 85902
333 00100 10273 91120 91522=
52313 32780 70404 10190 21009 38359 57001 83902 333 00104
10284=
51087 32980 10000 10162 20065 39142 40039 52002 80002 333
00151 10264=
51156 32780 10000 10142 20061 38639 40049 52006 81400 333
00151 10232=
51232 32980 73409 10215 20067 40048 57004 80002 333 05201
10301 91127 91534=
96995 46/// /0806 10242 20232 39796 40090=
96996 45/// /1010 10266 20220 30098 40102 57008=
52895 32970 81102 10213 20084 49577 52004 80002 333 00001
10261=
60425 32665 33610 10356 20066 40150 56004 82230
333 10392 82840 95900=
60430 32565 30611 10285 20092 40162 55000 83900
333 10327 81923 83826 95900=
60444 32570 30410 10295 20101 39158 48576 55001 82202
333 10318 82830 95900=
60467 32670 31406 10348 20159 40123 56008 83200
333 10363 83833 95900=
60468 32570 30214 10287 20106 39258 48563 55001 82902
333 10321 81930 95900=
60515 32560 30614 10350 20109 40162 55003 82202
333 10370 82833 95900=
60518 32458 60000 10248 20218 40148 56009 81602 222// 20000
333 10265 81710 86073 91816 95900=
60581 32660 60608 10377 20120 40146 56006 85202
333 10394 85840=
71825 11469 72910 10064 20045 39423 40082 53018 60021 78072 87500
333 10071 20003 70172 90917 93102=
61990 42470 31001 10223 20205 40200 83800
333 10270 58004=
61995 42470 21203 10205 20197 39716 82200
333 10246 58002=
61988 42570 21103 10230 20186 40199 82200
333 10274 58007=
61986 42575 20914 10256 20223 40172 82200
333 10293 58003=
61974 41350 30811 10242 20233 40138 78182 888//
333 10267 59001=
64504 32465 7//// 10262 20242 30089 40104 8557/
333 5//// 85613 83460=
64507 32460 7//// 10260 20236 3//// 40/// 875//
333 10294 5//// 84613 87630=
64560 31460 6//// 10242 20233 39549 400085 71322 84903 910//
333 10285 58002 83610 81915 85073 94943 95833=
85041 32484 70000 10266 20223 39872 40189 57011 87500
333 56200 58014 87616=
85043 32484 40000 10295 20234 39963 40121 57018 84200
333 56020 58003 84817=
85104 32484 41008 10298 20214 39984 40141 57018 84200
333 56400 58012 84817=
85114 32584 61608 10303 20210 39980 40141 57019 82504
333 56400 50010 82620 85070=
85123 32584 71208 10263 20183 39965 40130 57020 83534
333 56300 58009 83630 83358 86070=
85154 32684 71410 10224 20153 39970 40151 57018 85550
333 56330 58014 85640 86358 91020=
85140 32484 71408 10228 20171 39890 40149 57014 88550
333 56330 58000 83615 85620 87357=
85141 32584 81204 10220 20177 39960 40194 57012 8552/
333 56339 58008 85620 88457=
85152 32484 81506 10218 20167 39925 40153 57010 8753/
333 56339 58010 87617 86357=
85201 32584 62913 10123 20019 36271 57021 84201
333 56000 59016 84827 81917 86070=
85230 32584 42012 10145 20027 36245 57024 82101
333 56404 59018 82823 84070=
85242 32584 42914 10156 20032 36509 57021 84200
333 56800 59021 84820=
13585 42698 23608 10150 20068 40212 52009 82500 333 10207 94068 90965
91113 91336=
13598 42698 43202 10127 20068 48523 53005 84500 333 10155 94033 91016
91110 91334=
91772 11498 51210 10249 20197 40114 69901 70282 84801   333 563/9=
91784 31599 20815 10237 20178 40144 70200 82100   333 562// 82820=
91792 31598 60805 10223 20171 40166 70221 868//   333 562// 83820
85640=
63980 32482 31207 10262 20227 40127 82802 919//
333 10129 59005 82819 943// 91115=
64500 32460 82204 10268 20243 30076 40090 885//
333 10290 58004 83611 88630=
64501 32465 62206 10256 20233 30096 40106 884//
333 10280 58003 83610 88626=
64503 32460 7//// 10243 20236 30058 40099 875//
333 0//00 59003 83611 87623=
64510 12465 7//// 10228 20216 3//// 40/// 69932 82502
333 10/// 5//// 82611 87073=
64550 32460 8//// 10275 20239 39984 40085 885//
333 10300 59004 85610 88610=
64551 32360 8//// 10272 20251 30064 40093 8493/ 906//
333 10213 59002 84606 81913 88360 94933 95835=
64552 32560 3//// 10252 20223 39434 40078 83200 920//
333 10306 59006 83820 94924 95834=
64556 31465 6//// 10230 20212 39512 40081 70192 85232 913//
333 10/// 58008 85813 84365=
64565 32460 5//// 10258 20224 39445 40077 875// 915//
333 10305 58000 87615=
86330 32598 11403 10147 20046 40212 58025 81105=
86360 32597 40000 10152 20054 40219 57026 84805=
86460 32598 40000 10134 20028 40221 57011 84400=
86500 32598 32205 10138 20021 40214 58012 83100=
86560 32597 32305 10120 20017 40220 57018 82104=
86565 32598 52207 10117 20053 40216 57005 84430=
86580 12597 72203 10112 20055 40213 57013 69901 86830=
61968 36/// /0902 10226 20203 30158 40163
333 10300 58003=
61970 36/// /1912 10257 20222 30167 40178
333 10288 59003=
61972 36/// /1508 10229 20180 30206 40221
333 10266 58003=
61976 32570 21416 11248 20215 40182 82200
333 10283 58006 82820 92448=
61980 32565 31310 10229 20169 40205 83800
333 10276 58009 81823 83656 924/7=
67005 32570 11708 10263 20224 40167 81800
333 10290 58001 81823=
61996 36/// /3119 10154 20144 40204
333 10176 59004=
61998 16/// /3625 10038 20034 39621 49655 58123 60042
333 10079 59392 91156=
91577 01565 80504 10193 20188 40102 55013 60061 7006/ 8227/
333 5646/ 60027 82820 88463=
91579 06/// /1902 10214 20212 40093 56007 69921
333 69927=
91582 01456 80000 10209 20202 40094 56010 60051 721// 8687/
333 56000 60047 83810 84630 88459=
91583 06/// /2202 10193 20188 40101 56006 60041
333 60027=
91587 06/// /1102 10210 20203 30055 40105 56009 60082
333 10214 20183 60037=
91590 01150 80704 10183 20180 40104 56012 60021 76266 8582/
333 5655/ 60017 81703 84823 85646=
91592 01456 83606 10185 20180 40110 56007 60031 76062 888//
333 56699 69987 85816 87633=
61415 31940 03619 10210 20161 30102 40107 70700
333 10254 59001=
71473 36/// /3406 30171 58015 333 70000=
71906 11474 82715 10048 21004 39944 49990 50003 69901 70282 8657/
333 10093 20032 79999 90925=
71915 32474 83514 10000 21039 30020 40102 50002 81502 333
10001 21023 70000=
71200 36/// /2205 10120 20089 333 10126 20096 70000=
89061 32489 61107 11045 30060 40070 57010 816/8 91734
222// ICE 0/6/0
333 43018 81710 851//=
89062 32999 83305 11035 21083 30016 40058 57003 81078
333 42012 83360 87463=
89063 32599 81801 11048 21063 30065 40079 57003 81537 91745
222// 03015
333 46111 92612=
89022 41995 02505 11256 21273 39839 49880 57031 71211=
91944 36/// /0222 10275 20239 30141 40147 51026=
91945 06/// /2606 10237 20227 30105 40110 51016 60121 333 60057
555 1//17 58021=
82863 32698 20000 10330 20205 39891 40099 82200 333 58003=
83064 32798 12305 10344 20148 39840 40109 81100 333 58005=
83228 32799 40902 10342 20156 39839 40/// 82101 333 58004=
83235 32698 20000 10328 20174 39434 40102 82200 333 58007=
83332 32597 60502 10311 20150 39202 40094 84220 333 58004=
83368 32699 30502 10328 20129 39742 40104 83200 333 58007=
83374 32698 40000 10320 20137 39539 40105 84200 333 58004=
83376 31597 60506 10297 20142 39274 40088 70542 83205 333 58012=
83378 32570 40000 10295 20117 38965 48522 84100 333
58008=
83423 31697 50503 10298 20166 39299 40113 7034/ 85200 333 58007=
83470 32698 60506 10278 20161 86100 333=
83526 32598 31803 10269 20149 39187 40122 83100 333 58009=
78866 32584 50912 10307 20237 30181 40185 57009 85200 333 58005 85823=
78988 31465 80915 10326 20269 30138 40147 57014 70622 82102
333 58014 82819 88081=
78982 31565 61019 10320 20251 30133 40138 57014 70622 82202
333 58011 82821 85081=
78990 32575 61019 10311 20234 30142 40149 57017 84201
333 58011 84821 85081=
86011 32570 71805 10218 20097 40185 58030 82570 =
86033 32870 42708 10234 20072 40156 57021 84030 =
86065 32870 80000 10178 20080 40220 58031 8807/ =
86068 32670 81808 10170 20074 40190 57026 8257/ =
86086 32870 41803 10210 20120 40200 56013 81084 =
86097 32970 61606 10182 20056 40179 57022 80006 =
86134 32970 71406 10194 20088 40183 57020 81036 =
86192 32970 41405 10180 20081 40157 57026 80004 =
86210 32970 61806 10190 20070 40170 57022 80008 =
86218 32570 71406 10177 20102 40204 57028 81108 =
86233 32970 61806 10174 20087 40184 57018 82106 =
86234 32870 71804 10176 20082 4//// 5//// 81034 =
86248 32670 51810 10180 20091 40180 57016 81105 =
86255 32570 71402 10176 20091 40142 57014 83504 =
86260 32970 71806 10174 20089 40182 57027 80008 =
86268 32670 72302 10172 20092 4//// 5//// 82104 =
86285 32570 61808 10170 20068 40180 58017 82105 333 82833 =
83766 32997 71402 10234 20133 39499 40161 56016 81031=
83767 31996 61802 10208 20084 39538 40170 58012 70542 80008=
83783 32997 71803 10208 20067 39466 40143 56011 80005=
83811 32997 72302 10182 20061 39244 40135 58001 80007=
83813 32997 80000 10200 20053 39036 40136 58017 80007=
83836 32497 82703 10169 20065 39160 40139 56009 82207=
83844 32597 81805 10174 20112 30170 40177 54000 8572/=
83872 31496 32302 10187 20112 30112 40195 58011 70521 82201=
83881 31497 62704 10160 20080 39887 40197 56020 70242 84204=
83883 31596 61402 10138 20059 39403 40191 57020 70542 82208=
83887 32597 51406 10119 20033 39112 40179 57013 82230=
83899 32670 31706 10183 20115 30178 40178 58009 83800=
83907 32997 41403 10167 20061 39891 40183 56015 80004=
83912 32597 61402 10140 20059 39656 40208 57010 86200=
83914 31596 62304 10125 20017 39408 40208 58012 70521 86400=
83919 21497 62704 10092 20042 38994 40198 57004 70265 86700
333 69971=
83927 32997 01402 10148 20090 30122 40206 57013=
83936 31496 61805 10158 20065 30062 40189 56010 70541 86200=
83948 32597 22704 10171 20108 30152 40190 51005 81905=
83953 32597 41804 10140 20056 39828 4//// 58017 84100=
83964 31596 41402 10126 20048 39699 40210 57008 70500 84200=
83980 31596 11802 10121 21030 39922 40214 57017 70510 81100=
83995 32597 42308 10144 20081 30198 40202 57010 84200=
83997 32497 32308 10134 20074 30171 40216 56004 83200=
83612 32470 71804 10220 20176 39532 40166 56010 84531=
83721 31540 71212 10175 20128 39405 40156
56011 70522 82530=
83722 31558 82210 10215 20144 39445 40141 57019 70522
83504=
83780 31350 80000 10153 20122 39253 40163 56014 71022
8653/=
83818 31562 80000 10210 20151 30165 40168 55010 70522
8655/=
83827 32570 61806 10178 20107 39899 40190 58018 82501=
83550 32597 3//// 10270 20213 30096 40126 70211 83200 333
58035=
83649 32570 81410 10252 20214 40148 55008 8257/=
83660 32797 3//// 10222 20161 30146 40157 5//// 837//=
83695 32696 80000 10240 20170 30014 40153 885//=
83698 32999 81808 10228 20177 30130 40144 50511 8802/=
83718 31595 80000 10194 20159 3//// 4//// 5//// 70544 88700=
83738 32698 80000 10186 20143 39646 40153 57004 887//=
64400 32656 30000 10242 20226 30082 40102 83500
333 10262 58001 83640=
64450 32958 02202 10271 20226 39720 40071
333 10312 59013=
83248 32570 21507 10280 20230 40134 82200 333 58013=
83349 32570 40607 10277 20233 40131 81101 333 58019=
82398 32570 21205 10314 20240 40105 82100 333 58002=
82579 32570 70804 10320 20230 40096 84204 333 58008=
82993 32570 61408 10280 20250 40116 85200 333 58002=
82026 21450 70806 10274 20238 40089 76262 87200 333
58003 60051=
82193 21450 70408 10251 20251 40077 79196 85220 333
58011 60091=
82281 21456 50308 10290 20245 40105 71561 85200 333
58002 60021=
82022 21458 70404 10270 20228 40111 72162 85801 333
58005 60191=
82332 42570 61804 10310 20256 40100 84830 333 58001=
82824 32570 41204 10324 20186 40103 84200 333 58001=
82042 32596 60000 10289 20262 84432=
82106 32597 73204 10286 20248 30014 40112 84230 333
58028=
82113 21497 73206 10272 20239 70362 82520 333 69921=
82212 32697 72702 10300 20260 30038 40100 8487/ 333
8487/ 333 59013=
82240 32496 63203 10293 20254 30084 40118 82608 333
59007=
82317 32399 33603 10300 20246 82260=
82326 21395 82306 10290 20258 30086 40151 72180 887//
333 58006 60031=
82331 32696 71804 10298 20230 30054 40136 83420 333
58022=
82336 21696 60903 10286 20239 70296 85146 333 60191=
82410 32597 60502 10294 20274 83361=
82425 32397 43602 10328 20248 30056 40111 83364 333
58000=
82533 32697 40902 10338 20276 30052 40107 84200 333
59002=
82610 32497 40000 10322 20253 84300=
82704 32697 53605 10304 20231 39889 40082 85200 333
58018=
82723 32697 41402 10320 20224 84200=
82807 32596 33602 10314 20248 83400=
84628 34961 21809 10236 20144 30144  40160  70144 80001
333   56001 58013 82076=
84455 31564 30000 10307 20251 39817 40169 70122 831//
333   560// 58017 83830=
84782 31460 80000 10160 20128 39666 40206 70322 886//
333   569// 58023 85715 83620=
84735 31666 53014 10162 20000 36402 70120 83101
333   56909 59021 83837 82077=
84377 31460 83604 10300 20246 30023 40126 70222 84530
333   5600/ 58020 84615 84360=
84425 21458 80103 10270 20243 39963 40172 76022 8653/
333   5699/ 58017 60031 86615 82360=
84474 31560 80000 10288 20233 39801 70222 83106
333   56000 58010 83823 85270=
84534 21560 80000 10250 20208 39400 40115 70264 8472/
333   5699/ 58010 60051 84825 87458=
84686 31762 60000 10175 20056 36870 70300 865//
333   569// 59010 86650=
84515 31460 50000 10315 20252 39960 40147 70122 8510/
333   569// 58012 85820=
84390 31970 41916 10260 20178 30048 40148 70302 84030
333   56000 58023 84363=
84472 31665 40910 10214 20104 37402 70202 84500
333   56000 58001 84643=
84444 31464 89902 10155 20095 37551 70224 8542/
333   5600/ 58004 85618 83460=
84542 31970 03605 10220 20104 37344 70200
333   58002=
84531 31964 01912 10235 20151 30129 40141 70140
333   58013=
84452 31960 61911 10255 20169 30111 40141 70321 86030
333   56000 58011 86360=
84370 31460 83407 10260 20217 30096 40125 70222 885//
333   569// 58028 88613=
84564 31960 00610 10262 20159 38151 70200
333   59001=
84501 31962 51607 10210 20164 30123 40163 70300 8503/
333   5600/ 58025 85362=
84752 31460 42611 10190 20040 37525 70300 82530
333   56990 59006 82612 82363=
84658 31562 60609 10260 20204 39886 40109 70122 865//
333   561// 58014 88630=
84401 31660 81710 10260 20218 30105 40173 70222 8352/
333   5600/ 58017 83640 85460=
89050 42598 70000 11078 21093 40119 56001 81144=
89512 32975 11332 11091 21212 49860 55001 80001 333 11089=
89592 41940 01228 11126 21128 49888 57006 73830 80000=
89606 41915 02318 11572 21604 36315 47651 54000 73830=
71051 46/// /0000 11058 21059 30178 40289 58005 333 11056 21094=
38613 115// 80402 10145 20119 40142 51010 60040 70282 889//
333 10250=
30372 42984 60000 10041 20013 40133 52004 82041=
30433 42999 22501 10136 20025 40084 58001 80001=
30554 429// 00000 10024 20011 40154 52008=
30635 428// 20000 10100 20080 40084 52007 82030=
30673 42999 40000 10020 21003 40159 52007 80006=
30692 42999 00000 10006 20006 40143 53006=
30758 42984 30702 10092 20041 40129 52004 80001=
30802 42799 60201 10097 20038 38633 48430 52005 85530=
30823 42570 60704 10162 20056 40063 52002 83042=
30879 42999 00000 10054 20016 40159 52009=
30935 42999 00000 10103 20086 40126 52019=
30949 42999 00000 10105 20038 40134 52004=
30965 42984 00000 10049 20011 40176 52003=
31300 42984 00000 10077 20064 40117 54000=
31329 41/93 90000 10068 20068 40100 52004 74541=
31369 42998 00705 10082 20056 40102 54000   333 91111=
31416 42999 83601 10098 20068 40075 54000 8802/=
31484 41538 80000 10118 20106 40084 53006 78182 889//=
31510 419// 02601 10103 20062 40112 54000 70281=
31707 42998 50000 10113 20111 40105 54000 80001=
31735 42597 72604 10146 20113 40075 56002 82930=
40706 32960 00810 10208 20060 38619 40068 50004 91745 333 55091
24548=
40718 32960 00000 10230 20179 30169 40138 53005 91750
333 55089 =
40732 32562 32102 10216 20172 30136 40116 54000 81430 91745 333
55057 81833=
40745 32560 60803 10230 20048 39008 40071 52023 86302 91750 333
55116 21072 82930 84635 83070=
40754 32960 28804 10270 20114 38764 40016 51008 82030 91755 333 55125
82360=
40766 32960 02905 10252 21004 38645 40028 52010 91750 333 55125
22865=
40800 32960 00000 10232 21033 38404 49999 53014 91750 333 55130
23089=
40811 32960 03005 10370 20052 39984 40010 53009 91750 333 55120
22837=
40841 32960 00204 10260 21036 38196 49954 51006 91750 333 55126
23065=
40848 31958 03103 10284 20060 38465 49979 52010 70600 91750 333
55125 22503=
40856 32960 02306 10324 20114 38552 49930 52014 91750 333 55122
21814=
44214 32998 62202 10138 20086 38208 40064 51009 83230=
44231 326// 60502 10187 20025 38638 40026 54000 84860=
44259 32998 20000 10141 21022 39297 40157 51004 82040=
44277 414// 82702 10131 20076 37792 40055 52012 76562 885//
333 91214=
44292 32999 00000 10188 21017 38670 40082 51011=
44304 325// 20000 10126 20030 38967 40129 51006 82900=
44373 32999 01604 10179 20021 38491 40061 54000=
41024 42960 00108 10310 20200 30030 40039 333 10410 58003 55091=
41030 42960 00000 10358 20170 39770 40030 333 10450 59003 55///=
41036 42960 03010 10290 20000 38535 48483 333 10358 58000 55110
555 04410 50022=
41084 42960 00902 10322 21060 38802 48471 333 10400 59007 55112
555 04410 50000=
41112 42960 01504 10214 20144 37929 48477 333 10319 59009 55107
555 04410 50018=
41114 42960 02004 10260 20083 37960 48472 333 10329 59011 55114
555 04410 50004=
41128 42960 00605 10316 21060 38752 48470 333
10390 59028 55111 555 04410 59998=
41136 42960 00605 10360 21060 39240 40005 333 10420 59011 55109=
41140 42960 03304 10330 20270 30030 40038 333 10383 58003=
40703 32660 30000 10212 20020 38887 40069 53011 83500 91745 333
55105 83640=
40712 32960 00000 10184 20085 38651 40051 52007 91750 333 55119
22665=
40729 32960 01004 10148 20056 38331 40085 53010 91745 333 55060
21702=
40736 32960 00000 10220 20182 30149 40122 56002 91745 333 55087=
40739 11665 30000 10174 20100 38642 40065 51019 60031 72598 83500
91750 333 55101 83635=
40743 31658 30606 10252 20054 39002 40059 52043 70700 83400 91750
333 55107 83640=
40762 32660 10708 10220 20041 38502 40025 51008 81400 91750 333
55116=
40768 32960 01802 10174 20070 38234 40038 53014 91750 333 55125
23717=
40769 32660 10000 10250 20024 38264 40007 52010 81400 91750 333
55122 81635=
40785 32965 00000 10292 20016 38986 40019 52034 91750 333 55123=
40809 32965 00902 10262 20010 38454 49969 52027 90750 333 55117
2////=
40831 32960 03602 10360 20080 30006 40014 52007 91750 333 55117=
33135 32597 63504 10154 20088 40186 52010 83411 333 10186=
33325 12598 73204 10132 20097 40206 52009 69902 82334 333 10176=
33177 11599 70000 10131 20098 40247 52010 60022 70282 87500 333
10160=
33990 32975 72702 10198 20127 40135 56001 85079 333 10229=
10124 82997 83697=
44203 329// 00000 10124 20029 38348 40067 54000=
44207 329// 13203 10078 21003 38274 40084 58002 81080=
44218 326// 60000 10186 20058 38500 49997 52004 86500=
44230 329// 53403 10132 20009 38725 40027 54000 82044=
44232 329// 00905 10170 20021 39014 40059 54000=
44237 32999 12702 10105 20034 38429 40080 52002 81020=
44239 329// 02303 10070 20006 38727 40100 51001 82040=
44241 329// 03603 10184 20084 39161 40062 54000=
44256 32999 01804 10128 20034 39313 40121 51002=
44265 32999 20000 10147 20081 38753 40054 51004 80004=
44275 32598 70000 10122 20006 37715 40075 54000 87500=
44282 32999 00000 10112 21012 38259 40096 54000=
44284 325// 70000 10121 21027 37866 40088 52006 87500=
44287 329// 00000 10133 20035 38110 40086 51006=
44298 329// 00000 10178 21018 38700 40098 54004=
44302 329// 10000 10110 20041 39088 40132 51012 81040=
44313 32999 00000 10073 21002 39364 4017(( (((
44314 32998 30000 10144 21019 39128 40171 52006 83060=
44336 32999 01403 10178 21017 38658 40091 54001=
44341 32999 00000 10163 20002 38573 40087 51002=
44347 32999 00000 10179 20035 38674 40076 54000=
52424 32980 70404 10230 20050 49980 52001 80002 333 00104
10309=
57144 11570 83201 10190 20182 40055 57001 60021 76060 8372/
333 10273=
56034 11680 20000 10015 21012 35940 52002 69941 70080 82900
333 00251 10099=
48300 32962 00000 10260 20238 39748 40050
333 58003 79999=
48327 32662 71907 10260 20230 39689 40041 85536
333 59004=
48331 01420 80000 10265 20249 39818 40045 60023 79592 8697/
333 58001 60026 70016=
48356 11560 80000 10248 20245 39852 40058 60323 70396 83476
333 58027 70352=
48378 32560 60000 10288 20254 39990 40042 85946
333 59002=
48407 01560 80000 10258 20250 39907 40049 60183 70262 8447/
333 58015 69957 70252=
48431 01550 80000 10247 20244 39841 40054 60303 76162 8492/
333 58006 60066 70297=
48456 32560 72312 10284 20241 30034 40047 82846
333 59007=
48480 01557 80000 10260 20251 30050 40054 60013 71062 8587/
333 58004 69915 70019=
48500 01558 82402 10260 20235 30050 40055 69913 76022 8652/
333 59002 69915 70001=
48551 01556 80000 10240 20233 30059 40067 60083 71066 83577
333 58000 69927 70077=
48565 01460 72609 10275 20240 30065 40076 60233 70266 82257
333 58007 69927 70230=
48569 32460 70000 10247 20234 30033 40073 82876
333 58002 70036=
48303 01560 80000 10242 20232 39606 40046 60053 76196 8697/
333 58014 60056 70058=
48328 32560 30000 10266 20241 39763 40036 82545
333 59015=
48330 31958 80000 10275 20257 39857 40041 71022 8807/
333 59002 70012=
48351 01559 80000 10280 20238 39963 40036 69903 76022 86536
333 59010 69905 79999=
48354 01457 80000 10241 20234 39845 40048 60413 76196 8477/
333 58019 60117 70406=
48379 31556 80000 10262 20246 39906 40038 71022 82836
333 58006 70010=
48400 32560 60000 10274 20239 30002 40042 84546
333 58001=
48432 01540 80000 10250 20242 39892 40060 60063 76196 8657/
333 58020 60037 70062=
48455 32562 62402 10287 20227 30044 40049 84846
333 58006=
48462 01558 60000 10255 20247 39997 40053 60023 71096 82506
333 58002 69907 70018=
48477 01459 82504 10285 20243 30041 40055 69903 76022 82978
333 58000 69906 70004=
48517 11560 80000 10251 20236 30059 40064 69923 70262 82576
333 58006 70039=
48532 01557 80000 10251 20237 30053 40062 60353 72162 85876
333 59003 60027 70603=
48310 31558 60000 10252 20225 39586 40042 71799 83936
333 58007=
48325 31510 30000 10241 20231 39813 40055 71010 82201
333 58005 70004=
48329 01560 60000 10250 20243 39710 40046 60073 70292 84876
333 58001 60076 70069=
48352 01562 80000 10248 20244 39857 40055 60113 70292 85576
333 58018 60037 70113=
48383 01457 80000 10252 20244 39879 40036 60113 76066 8677/
333 58002 69917 70263=
48405 32560 80000 10246 20233 39884 40046 83576
333 59001 70156=
48421 31558 50000 10253 20241 39948 40061 71022 82236
333 59004 70023=
48425 32560 82103 10279 20229 30034 40044 84276
333 59001 70001=
48430 01557 83603 10244 20228 30037 40045 60083 79599 85977
333 58007 60067 70076=
48450 32560 80000 10272 20229 30020 40052 82547
333 58000=
48459 32562 20000 10282 20239 30047 40059 81105
333 58004=
48465 32560 71602 10280 20228 30045 40049 82546
333 59003 70001=
48550 01560 82705 10259 20230 30053 40059 60043 70262 81177
333 59003 69937 70036=
48552 01458 80000 10250 20238 30054 40060 60023 71562 85876
333 58004 69976 70015=
48568 31459 80000 10262 20237 30062 40070 71022 82876
333 58004 79999=
23921 32999 20000 10107 20071 40182 53007 80001   333 10217=
23955 42684 13603 10096 20017 40111 52010 81500=
23966 42599 63102 10077 20027 40074 52008 85930=
28255 32971 00701 10112 20038 40183 52013   333 10180=
28440 32997 00902 10150 20009 40178 52016   333 10210=
28661 32960 23204 10085 20041 40171 52013 82030   333 10163=
28722 32967 02901 10198 20104 40163 53001   333 10255=
28748 32967 00501 10122 20048 40167 53016   333 10197=
29231 42698 72201 10084 20073 40078 52002 86530=
29313 42998 62901 10074 20045 40097 52009 86030=
29612 42998 33403 10080 20051 40087 52005 83020=
29634 41357 83605 10090 20081 40066 52006 70282 883//   333 85707
83916=
29838 42597 70000 10143 20132 40040 54000 83331=
36061 42997 50000 10127 20121 40052 52010 81031=
23909 31698 80401 10217 20127 40143 52007 79598 86967   333 10298=
28116 32697 80202 10199 20134 40151 53006 84902   333 10303=
28240 32999 10503 10096 20043 40185 53006 80001   333 10204=
28419 32996 02401 10167 20092 40163 53002   333 10265=
28621 32998 00000 10200 20111 40171 53006   333 10259=
29023 42998 23202 10064 20050 40084 52007 82032=
29122 42999 03202 10101 20040 40096 52017=
29328 41498 83001 10081 20061 40089 52002 70282 889//   333 86914=
29348 41597 80301 10083 20070 40069 52009 70282 885//   333 88626=
29405 42997 03302 10049 20016 40114 52005=
29418 42598 81501 10086 20048 40099 52008 8397/=
29430 42598 83402 10082 20062 40068 52005 884//   333 88620=
29524 42584 83603 10085 20056 40086 51004 86501=
29605 42998 00204 10071 20033 40097 52007=
29631 42597 80104 10079 20055 40068 52008 889//=
29706 42599 80205 10105 20083 40078 52010 883//=
29736 42998 80502 10130 20103 40049 54000 88050=
29937 41596 81601 10142 20138 40034 52005 78098 889//   333 88927=
36034 41598 81602 10148 20139 40017 58007 79598 889//   333 84926=
40155 32560 13307 10236 20210 30075 40085 53001 81400 333 10294=
40180 31459 13305 10245 20204 30040 40086 57007 71000 81400 333 10288=
40199 32970 00214 10348 20067 30047 40050 52008 333 10373=
28216 32998 00000 10230 20093 40154 54000   333 10292=
28321 32984 01801 10209 20098 40157 53003   333 10279=
28451 32997 00000 10122 21044 40159 54000   333 10195=
28537 32997 23601 10159 20084 40163 53008 82060   333 10225=
28541 32984 00000 10110 20009 40173 52014   333 10216=
28642 32997 00402 10128 20023 40181 52018   333 10200=
28655 32998 00202 10125 20015 40171 52013   333 10182=
28925 32997 03102 10200 20095 40159 52002   333 10257=
29557 41598 82901 10116 20104 40059 52011 70282 8635/   333 83924=
29625 42598 80103 10098 20077 40075 52003 885//
333 88622=
29642 42460 80104 10108 20098 40065 50004 8637/   333 86914=
29813 42999 80103 10093 20074 40044 52008 8805/=
29822 42497 83604 10111 20099 40048 52004 889//   333 88918=
29846 41597 83001 10140 20132 40040 51003 79598 8495/   333 85926=
29915 42999 30303 10110 20090 40051 52003 80002=
30385 42984 00000 10033 20008 40103 52005=
30469 429// 60000 10005 20005 40139 53016 80002=
30650 42984 00000 10068 20010 40139 52008=
30781 42699 82602 11007 21010 40165 53023 81507=
30925 429// 21801 10171 20076 40054 58001 80001=
31371 42984 00000 10050 20036 40127 52001=
31388 41993 50000 10061 20059 40117 58006 74641 85040=
31532 41584 80000 10074 20071 40101 53003 70282 8745/=
28879 115// 83602 10095 20071 40123 52012 69930 70282 889//   333
10135 88930=
28952 329// 00000 10103 20023 40170 52019   333 10186=
29802 325// 63202 10100 20076 40076 52008 85531   333 10158=
29807 32597 60201 10124 20065 40080 52014 85530   333 10166=
34691 32998 10905 10246 20053 40151 5/010 80002   333 10317=
35067 329// 1//// 10090 20027 40135 52026 81030   333 10179=
35078 11660 73405 10087 20077 40108 52013 69900 78082 87500   333
10170 84943=
35188 119// 80204 10102 20080 40074 52005 69950 70182 85031   333
10159=
35497 11598 83401 10093 20071 40041 52004 60010 70282 889//   333
10140=
35671 12998 32903 10113 20059 40094 52011 60010 83030   333 10190=
35700 32998 00603 10213 20103 40151 53010   333 10294=
35796 12984 02903 10148 20080 40051 52019 60010   333 10188=
36003 12470 80205 10130 20103 40047 52006 69960 889//   333 10152=
36152 315// 83602 10130 20123 40015 52001 72998 889//   333 10216=
36177 125// 52501 10138 20118 40010 54000 69910 84301   333 10221=
36397 127// 70000 10145 20130 40037 52005 60070 86340   333 10225=
36535 115// 62101 10118 20088 40045 58002 60010 70182 85930   333
10231=
36639 115// 80903 10123 20062 40062 58006 60030 70282 889//   333
10234=
36821 11598 81901 10157 20126 40073 52018 60020 71798 889//   333
10262 88927=
36859 32599 83601 10173 20088 40074 52020 70298 8397/   333 10269=
36870 11564 81701 10117 20098 40124 52025 60030 78072 889//   333
10245 88930=
28978 11597 50404 10079 20065 40121 52013 60040 70282 85900   333
10138=
35173 11494 83604 10091 20085 40110 52009 60080 76186 8872/   333
10172=
48413 31556 80000 10270 20256 39964 40044 71022 83576
333 59003=
48416 01456 80000 10252 20239 39906 40053 60013 76196 8672/
333 58014 69997 70038=
48418 31540 80000 10262 20242 39985 40041 71022 83556
333 59001=
48460 32562 42809 10292 20239 30028 40059 82146
333 58010=
48461 32562 40000 10285 20234 39976 40045 82146
333 59007=
48478 32560 82504 10290 20244 30050 40055 81176
333 59003=
10162 911//=
26898 32463 70503 10131 20081 40181 52009 86930   333 10137 85916=
26997 32462 63502 10131 20104 40180 52008 84930   333 10144=
27595 32997 11504 10197 20077 40169 56005 80001   333 10269=
27612 11497 83503 10120 20092 40173 52009 69922 70298 885//   333
10216=
27703 11497 83405 10108 20092 40175 52013 69902 75122 886//   333
10166 86715=
27707 12564 73603 10112 20090 40179 52012 60012 87500   333 10118
87627=
27719 12497 83303 10150 20123 40159 52013 60162 886//   333 10227
88711=
27786 32997 21502 10206 20084 40164 53006 82030   333 10274=
27906 32497 83506 10128 20109 40172 52015 883//   333 10184 85915=
27928 11997 80000 10168 20158 40146 52003 69930 70262 8807/   333
10241=
27947 32697 73203 10205 20162 40149 53009 84532   333 10276=
27962 32997 71703 10211 20094 40140 57006 84031   333 10295=
27983 32998 21202 10211 20114 40165 53006 80001   333 10278=
28711 32997 00000 10181 20084 40177 52006 333 10257=
28807 32997 20303 10176 20122 40172 52007 80001   333 10275=
34009 12568 83403 10146 20124 40143 53011 69902 885//   333 10187=
34047 32972 61101 10225 20125 40137 57002 84051   333 10276=
34116 11597 69901 10177 20160 40145 53002 60052 70298 83530   333
10215=
34123 32670 80000 10168 20159 40148 56002 60010 70282 883//   333
10203 88933=
34152 32698 51102 10230 20125 40144 53001 82440   333 10281=
34172 32960 71702 10222 20099 40162 53004 83031   333 10280=
34186 32977 31002 10218 20095 40163 53003 82031   333 10284=
34247 32470 81401 10220 20127 40139 58006 883//   333 10292 86913=
34336 11998 80501 10209 20130 40156 58005 69900 70282 8803/   333
10274=
34391 32997 00902 10230 20100 40157 53006   333 10298=
35121 32977 02902 10195 20084 40162 52010   333 10264=
22113 11484 72305 10129 20032 40121 52009 69902 72511 86963   333
10162 91008 91112=
22217 12599 73103 10134 20043 40135 52009 60012 86932   333 10174
83634 91006=
22235 32583 72002 10139 20051 40140 52005 81401   333 10175 91003=
22349 32599 72301 10114 20070 40159 57001 82570   333 10117 91002=
22408 32699 32601 10116 20021 40160 52003 82230   333 10142=
22602 11598 62802 10110 20036 40161 51006 69902 70282 84950   333
10143=
22721 32999 00000 10131 20068 40176 54000   333 10170=
22802 32599 21902 10116 20048 40193 54000 82400   333 10157=
22820 32499 20901 10128 20086 40178 57002 81431   333 10169=
26059 32997 23002 10141 20036 40205 51003 82030   333 10186=
26063 32997 13002 10137 20055 40208 52006 80001 333 10167=
26094 12982 50000 10116 20081 40195 53007 69902 83031   333 10168=
26258 32570 32801 10147 20071 40201 54000 82970   333 10189=
26298 12998 50000 10117 20089 40192 53004 60022 82801   333 10147=
26477 12570 42702 10153 20077 40197 53004 60012 82501   333 10171=
26585 32997 60202 10131 20076 40204 52012 83032   333 10160=
26702 32997 60501 10149 20050 40241 58006 80001 333 10183=
26781 11597 63502 10142 20084 40181 58003 69902 70282 84431   333
10165=
27402 12597 63501 10110 20074 40189 52005 82531   333 10117=
22028 32683 52205 10145 20041 40126 52004 85100   333 10158 91007
91112=
22106 11596 72703 10110 20070 40126 53015 60012 78182 87900   333
10165 85920 91006=
22127 32599 72103 10140 20009 40132 52004 87500   333 10170 87629
91005=
22324 32699 70902 10122 20061 40148 52004 86531   333 10173 91003=
22621 32698 62802 10138 20040 40177 52010 82930   333 10171=
22831 11998 60000 10103 20090 40184 58002 60032 70282 82031   333
10158=
26275 32998 70000 10165 20076 40200 53006 80006   333 10184=
26389 32966 63201 10136 20076 40194 52010 86030   333 10163=
26695 32997 50203 10119 20067 40193 52008 83031   333 10138=
26882 32670 60102 10141 20088 40195 53014 86200   333 10164 86841=
21432 42998 21607 11007 21067 40220 57007 80001=
21647 42974 00905 11073 21082 40229 57001=
21824 42270 80203 10000 21003 40147 54000 886// 333 88705=
21908 41599 83603 10025 20001 40119 52004 70272 86902=
21921 42999 30000 10040 20006 40119 53001 80001=
25123 42998 01001 10046 21054 40205 52011=
25551 11596 80206 10012 21008 40164 52006 69932 77176 8252/   333
20010 55003=
25563 11456 80212 11002 21020 40140 53002 69932 78586 889//   333
21003 55000 91116=
31054 42599 60000 10095 20070 40094 52005 85930=
31123 42999 00000 10018 20015 40150 52016=
10130=
10152 911//=
48353 01440 80000 10234 20213 39772 40061 60013 79592 8697/
333 58018 60095 70114=
33246 32597 80301 10156 20123 40177 53010 8342/ 333 10186=
25621 42699 20000 11009 21025 40171 52008 81531=
25703 42699 80000 10050 20017 40136 52005 83337=
25913 42299 70401 10025 20012 40153 58005 86601   333 85706=
25954 41599 83606 10033 20004 40063 52007 72582 889//   333 91112=
31088 42499 73503 10042 20025 40126 52006 85641=
31829 42598 60202 10066 20040 40119 57009 86500=
31873 41597 82704 10146 20140 40098 51005 72582 82907=
31909 42998 50000 10041 20034 40134 57004 85030=
31960 42598 61804 10080 20067 40146 53002 86500=
32053 41/93 91503 10004 20004 40139 58001 74542=
32061 42998 21202 10023 20021 40135 54000 80002=
32098 41340 83102 10025 20020 40163 57004 71052 886//   333 88709=
32150 41294 83507 10019 20019 40140 54000 75152 886//   333 88706
91112=
32165 41495 80507 10039 20037 40105 57006 76462 8872/   333 91011
91114=
32215 42996 03507 10105 20023 40169 54000   333 91015 91117=
32389 42999 63501 10071 20004 40149 52009 85031=
32583 42999 13504 10094 20017 40150 52008 80001=
33663 11998 72801 10138 20118 40213 52017 69982 70282
8707/ 333 10178=
41859 31330 40906 10275 20245 39975 40015 71792 84300 333 56800 59005
70092 82710 84618 81930=
41883 314// 80000 10280 20240 39985 40005 71322 8532/ 333 56399 59002
70000 85615 88460 81930=
41891 32450 50906 10260 20250 40031 83340 333 569990 58007 70343
82615 81930 84365=
41907 313// 80000 10280 20260 39997 40015 71392 8632/ 333 56999 59002
70000 85708 84615 88458 81930=
41923 32940 31803 10292 20260 30009 40019 83030 333 56090 58000
83362=
41936 31356 61904 10282 20260 40011 71311 85630 333 56990 59005 70080
81707 83615 83362=
41943 32950 01802 10288 20270 30025 40034 333 58002 70000=
41950 329// 00000 10280 20270 30014 40018 333 59002 70000=
41978 32940 02U02 10290 20280 40018 333 59015 70000=
41992 31450 20000 10290 20270 30016 40022 82400 333 56900 59003 70000
82616=
21946 42984 00805 11028 21048 40215 58005=
62306 32560 63310 10234 20167 40127 53005
86500 333   10260=
62318 32960 03508 10229 20188 40110 55000
333   10268=
62337 32960 03401 10232 20200 40097 53008
333   10290=
62366 32960 00114 10280 20139 40096 52011
333   10332=
62393 32960 03312 10289 20096 40079 53007
333   10346=
62405 32960 02707 10328 20095 40051 52012
333   10408=
62414 32960 01805 10332 20111 40052 53007
333   10402=
62417 32960 03101 10316 20139 40117 53004
333   10358=
62440 32960 03608 10254 20172 40105 53011
333   10338=
62463 32960 03312 10310 20132 40049 55002
333   10331=
62465 32960 03210 10282 20161 40056 53014
333   10300=
48601 32562 70000 10250 20231 30077 40081 82532 333 82625 83364
87078=
48615 32568 72604 10262 20246 30071 40077 83542 333 83622 87074=
48620 31462 70000 10260 20250 30075 40084 71322 82932 333 81917
87078=
48647 31458 70000 10274 20250 30055 40080 71322 82942 333 81917
87078=
48657 11058 70201 10244 20241 30061 40079 69901 71062 82542 333
81700 86078=
48665 31464 70000 10252 20246 30070 40080 71321 81942 333 81916
83364 86078=
96413 11465 70000 10246 20238 30055 40081 69901 71796 84942 333
81915 83623 85365=
96421 32465 70303 10251 20237 30052 40088 8457/ 333 84618 87365=
96441 32468 70000 10250 20239 30087 40092 83531 333 83616 86365=
96449 32460 60000 10247 20242 30067 40087 8357/ 333 83615 86365=
96465 32465 60000 10260 20241 30056 40090 81842 333 81813 86080=
96471 32470 61006 10237 20217 30082 40085 81838 333 81815 86277=
96481 32462 70000 10245 20231 30060 40083 82842 333 81817 84364
87078=
96491 32465 72202 10257 20244 30063 40076 82802 333 81817 87080=
56093 11570 81603 10129 20096 37650 57008 69901 70080 885//
333 05100 10162=
52446 32980 82502 10209 20095 40006 52007 80007 333 00152
10289=
52633 11975 80000 10004 21010 36758 57006 60141 77087 8802/
333 05252 10077=
34560 32962 70903 10218 20098 40150 53003 87030 333 10282=
34824 32996 62502 10206 20161 40140 52008 86030   333 10264=
34858 32965 30000 10225 20107 40134 53003 82032   333 10310=
34866 32998 61403 10235 20093 40145 53908 80001   333 10312=
34880 32997 20000 10201 20138 40152 53006 80001   333 10309=
37054 32698 60000 10202 20150 40129 53004 86500   333 10260=
37472 32984 60902 10199 20184 40138 53008 82034   333 10231=
34240 32675 83001 10227 20117 40140 54000 81131 333 10287=
34357 32598 60701 10241 20104 40148 53004 82336 333 10294=
34363 32998 71001 10257 20086 40154 56002 80002 333 10289=
34545 32998 22103 10196 20114 40140 53004 82061   333 10287=
34579 32979 60203 10238 20098 40150 53008 80001   333 10300=
34655 32997 61002 10254 20061 40150 54000 86030 333 10286=
34759 32998 41601 10209 20124 40142 53006 82031   333 10299=
34838 32597 81701 10208 20181 40143 53001 69900 8697/   333 10264=
34929 11664 70000 10205 20167 40140 52008 60030 70181 83931   333
10268=
34954 32598 70000 10225 20166 40133 53803 8753/   333 10286=
37031 31597 80000 10191 20177 40138 57001 72582 889//   333 10254
88929=
37085 32996 20503 10208 20158 40151 52005 80001   333 10287=
37145 12998 31401 10219 20175 40130 53001 69900 82031 333 10280=
37171 32996 50801 10184 20174 40142 57004 80001 333 10230=
37228 12997 31902 10164 20160 40144 58003 69900 70298 83030 333 10235=
26167 32570 63001 10137 20056 40210 52010 82101   333 10186=
27857 32998 70000 10215 20121 40158 53016 84039   333 10288=
28909 32999 00000 10202 20086 40165 53003   333 10263=
37061 32583 61301 10235 20088 40135 53006 83501   333 10298=
28049 32998 20905 10170 20011 40184 52001 81100   333 10185=
28319 32998 00000 10200 20118 40160 57002   333 10270=
28334 32984 20000 10164 20077 40164 52007 82040   333 10230=
28434 329// 00000 10180 20110 40164 52003   333 10242=
28552 32998 00000 10105 20070 40174 52014   333 10185=
29111 42998 03202 10090 20029 40108 52008=
29209 41596 10000 10033 20026 40113 53010 71000 81500=
29602 42976 23302 10053 20039 40097 52009 80002=
29636 42498 80403 10100 20088 40066 52008 883//
333 83710=
29654 42599 73501 10099 20090 40048 52002 84508=
29712 42698 80106 10111 20069 40082 52008 885//
333 88644=
29724 41497 80204 10102 20075 40064 52008 78082 883//
333 85919=
29726 42498 80204 10104 20088 40060 52004 883//
333 88914=
29814 42999 80203 10118 20068 40069 52009 8805/=
29827 42697 83605 10120 20112 40042 54000 885//=
29923 42599 80000 10143 20128 40027 53004 889//   333 88920=
29939 41597 70000 10141 20130 40040 58005 70298 86930=
36021 429// 70705 10126 20099 40035 52008 85052=
36022 42998 80303 10138 20129 40024 58002 8808/=
36038 41498 81602 10131 20102 40023 58004 70282 885//   333 88617=
36058 42999 00000 10128 20094 40050 58007=
48698 11466 70000 10272 20259 30054 40072 69901 70562 81148 333
70099 81818 84365 85278=
87078=
81200 22213 02275 20506 314// 41010 80250=
81001 22213 00150 2//// 3//// 4////=
58968 32960 01502 10273 20241 30105 40112 55006=
59358 32662 20902 10282 20247 30102 40113 57008 82500=
59559 32565 21202 10263 20237 30090 40118 58008 82500=
59792 32560 20905 10282 20261 30100 40105 57015 82200=
59997 32562 81202 10275 20233 30061 40075 58011 82220=
59158 32965 01101 10269 20228 30015 40113 57009=
59562 32665 32801 10274 20226 30107 40118 57007 83500=
47105 31550 52302 10130 20116 30114 40145 53001 71021 85500=
47108 31558 60000 10168 20138 30029 40131 57005 71022 86500=
47115 31558 50000 10141 20126 39889 40151 51003 71021 83530
333 92030=
47135 32666 40502 10161 20147 39847 40133 55008 84500=
47138 32962 73402 10168 20143 30149 40153 58002 80002 333
92022=
47159 31556 80503 10152 20146 30065 40147 57012 71022 8152/
333 92022=
47165 32965 51804 10177 20146 30084 40127 57018 80002 333
92022=
47184 32665 80000 1016/ 2014/ 30112 40139 5700/ 82505=
47008 42565 80000 10113 20080 30076 40128 53005 885//=
47016 42970 70000 10114 20100 39300 40140 58004 87500=
47020 42965 00000 10134 20118 39794 40158 54000=
47025 41/09 90000 10105 20102 30102 40130 52012 74344=
47035 42970 80501 10157 20147 30137 40145 52008 8807/=
47041 42565 80502 10131 20122 30115 40142 52007 885//=
47055 42965 02502 10137 20120 30101 40145 58004=
47058 42966 00000 10155 20115 30098 40143 54000=
47069 42565 10000 10152 20139 30039 40135 52003 81500=
24641 42599 70902 10099 21017 40075 58001 82531=
31004 42999 62401 10036 20004 40138 58003 82031=
56066 36/// ///// 10066 20047 36604 4//// 57003
555 10020 2//// 3//// 40111 51001 60/// 7//// 80000
9//// ///// 1/019 2//00 30000=
52634 16/// /0000 11004 21015 36747 4//// 57008 60012
555 10020 2//// 30123 41111 51011 60/// 7//// 80000
9//// ///// 1/111 2//00 30000=
57528 16/// /2000 10124 29756 37563 61430
555 1/144 2//07 30213 12100
11101 10101 00010 10110 1011/
/////
2//// 3//// 6//// ///// ///// 8//// 9//// ///// ///// //004
11101 11111 1011/
11111 110//=
47003 42960 30000 10103 20090 30138 40142 58002 80002=
47046 42969 62702 10129 20118 30119 40142 53003 86030=
47052 42965 40000 10127 20114 39824 40151 52002 80002=
47060 42960 02701 10160 20146 30079 40135 52004=
47065 42965 00000 10151 20138 30080 40142 54000=
47067 42965 00000 10151 20145 30021 40136 52005=
47068 42970 00000 10134 20119 30113 40147 52011=
47070 42970 00000 10147 20143 30057 40141 58002 47075 42980
00000 10135 20129 39732 40146 52005=
31137 42699 40000 10001 21026 40112 52005 84500=
44314 32998 30000 10144 21019 39128 40171 52006 83060=
28679 326// 50304 10080 20017 40150 52016 82430 333 10152=
30230 42598 80000 10113 20092 40027 52001 82541=
30309 41696 81703 10180 20102 40026 52007 70298 8495/=
30710 42960 81603 10112 20053 40038 57011 82031=
35108 32997 00000 10193 20141 40168 52004 333 10273=
35229 32998 00000 10158 20064 40155 52012 333 10259=
35416 32997 00000 10191 20106 333 10268=
35746 31998 63503 10211 20027 40117 53006 70331 86030 333
10259 91115=
38198 329// 03001 10175 20017 333 10253=
38341 11597 72801 10151 20093 40112 52018 60020 70298 87900
333 10277=
44288 32999 00000 10150 20009 38156 40080 54000=
44354 329// 00000 10172 20036 39067 40093 54000=
47005 41980 20000 10070 20065 38613 58002 70162 80002=
44212 315// 81806 10221 20080 38978 40002 51005 70932 885//
333 91116=
44272 31698 80000 10152 20032 38150 49998 50003 70233 885//=
44285 32999 00000 10121 20012 38300 40095 51002=
44294 329// 00000 10133 20006 38551 40116 52007=
44305 41599 63204 10129 20107 39036 40126 51002 70262 86500=
44352 32699 10000 10153 20041 38902 40143 51001 81500=
44358 32998 00000 10168 20051 39048 40124 54000=
10147=
26850 11970 53202 10154 20050 40219 52009 69902 70182 85030
333 10188=
33008 32570 53302 10163 20046 40241 52007 85300 333 10184=
98223 31565 10000 10262 20256 40092 58011 70544 81100 333
56999 81820=
98325 31460 20000 10256 20220 40085 58012 70544 81201 333
56999 81817=
98328 31460 11402 10176 20167 38515 40072 58009 70544 81100
333 56999 81814=
98429 31559 50000 10270 20225 40091 57008 70322 83801 333
56999 83823 84080=
98440 11470 50904 10288 20271 40085 57011 69901 71380 83908
333 56299 81915 83816 85278=
98444 31465 20000 10271 20251 40087 57011 71300 82300 333
56999 81918=
98550 31460 53201 10264 20248 40075 58012 71344 83941 222//
20101 333 56999 81915=
98618 31568 32702 10255 20235 40077 58003 70544 82201 333
56999 82820=
98637 32470 20202 10270 20243 40066 58011 81201 333 56999
81812=
98836 11562 70000 10260 20247 40071 58017 69901 71798 82970
333 56999 82920 87362=
48820 11597 70501 10271 20255 30055 40063 53007 69901 76098
878// 333 58020 83895 87697=
48826 11496 80501 10264 20259 39925 40053 58003 60041 79598
889// 333 5813 83894 88995=
48839 32998 41802 10276 20266 39997 40061 50002 80008 333
58021 84299=
48845 11598 83402 10258 20251 30045 40052 57005 60061 71398
889// 333 58013 83995 88697=
48848 11497 81408 10256 20250 30030 40038 55001 60051 76062
888// 333 59004 85894 88697=
48855 32597 70000 10254 20248 30041 40049 58008 86808 333
58025 81895 86697 87299=
48870 11498 70000 10262 20248 30048 40055 56007 60041 70298
878// 333 58032 82894 86696=
48877 11598 89902 10244 20238 30070 40075 58003 60291 70382
888// 333 58039 84895 88696=
48887 11497 80000 10243 20231 30068 40074 58002 60051 76062
8172/ 333 58024 81895 88499=
48900 41496 80901 10244 20243 30059 40069 57012 76196 8582/
333 58018 83894 83696 86499=
48914 11698 70000 10251 20244 30078 40080 58001 60021 70282
875// 333 58022 87696=
48917 11598 70000 10243 20237 30061 40066 57011 60151 72582
878// 222// 00290 333 58000 83895 87696=
48918 11498 83203 10263 20237 30065 40076 58008 60091 70362
8292/ 222// 00270 2//// 333 58018 81894 82995 88499=
48803 32497 80000 10259 20252 39953 40064 51015 888// 333
58029 82894 88696=
48808 32498 70000 10251 20236 39788 40064 50003 878// 333
58013 82894 87696=
48823 31597 20000 10271 20255 30050 40053 58006 71311 82900
333 58015 82995=
48830 31598 20000 10246 20243 39770 40069 53009 71311 82900
333 58012 81995 81697=
48840 11798 70000 10263 20257 30054 40060 54000 69991 70262
875// 333 58013 87697=
48852 32598 72502 10261 20238 30033 40043 58002 82838 333
58013 82895 86299=
48916 11497 82701 10252 20242 30027 40077 58000 60091 76162
888// 333 58009 81894 88696=
48802 32497 80000 10170 20162 38398 51003 83200 333 58018
81894=
48810 31495 60000 10246 20245 39873 40074 50003 71022 862//
333 58020 84894=
48831 31498 70000 10267 20256 30022 40059 50004 71322 879//
333 58016 81894 82996 86697=
48838 32598 70701 10282 20261 30061 40067 50001 878// 333
58015 83895 87696=
48846 11497 73602 10258 20254 30041 40044 58012 60122 70262
878// 333 58008 83894 85697=
48863 32998 03201 10260 20249 30041 40050 58004 333 58042=
48866 11598 40000 10208 20208 39212 40088 58003 60021 72586
84900 333 58023 82895 82995=
48875 32498 81801 10217 20208 39538 40072 58004 888// 333
58015 83894 88696=
48907 11497 82704 10252 20279 30072 40074 58003 60041 78082
889// 333 58019 82895 88995=
83208 22271 02261 20401 309// 40602 80235=
81100 22253 00252 20000 327// 40502 80240=
57035 75152 887// 22273 04105 20304=
58021 84299=
58025 81895 86697 87299=
51818 32963 00000 10202 20087 49955 52002 333// 05452 10311=
52378 32980 61108 10232 21076 40018 52004 80008 333// 00100
10340=
53502 32962 00704 10215 21022 40016 57002 333// 05101 10323=
10264=
58013 82894 87696=
58015 83895 87696=
67027 32580 51604 10257 20229 30137 40158 52013 85800
333 10301 82823 83640=
67083 32470 71206 10170 20152 38803 48573 52016 878//
333 10234 81817 87620=
67095 11470 70000 10210 20204 30200 40207 51016 60022 72162 878//
333 10240 82817 87633=
67197 32480 51008 10235 20182 30220 40230 52008 85800
333 10268 81817 85633=
71826 36/// /2710 11001 21017 30023 40052 56005 333 10028 21002
70000=
83264 32797 21404 10327 20211 39699 40112 81108 333 58011=
58010=
83309 31699 42309 10283 20210 39820 40143 71010 83642 333
58015=
83358 32797 70000 10305 20187 39730 40129 84462 333 58024=
83361 32498 61803 10282 20207 39959 40164 82223 333 58024=
83405 31597 71803 10248 20226 39992 40125 70544 87300 333
58024=
82979 32498 41405 10324 20167 39665 40127 82102 333 58000=
82986 32699 61407 10314 20197 39799 40082 84351 333 58004=
83076 32599 31803 10322 20184 39596 40098 81120 333 58013=
83090 32798 71805 10299 20183 39582 40098 87200 333 58014=
83096 32698 60903 10274 20243 30112 40119 86500 333 58001=
83097 21497 8//// 10244 20241 30079 40102 7206/ 889// 333 59009
60301=
83179 32598 40504 10340 20154 39644 40091 84200 333 58011=
83182 32597 61806 10304 20098 39280 40110 85251 333 58012=
83186 32699 11407 10281 20200 39539 40097 81030 333 58010=
83195 32599 409// 10287 20231 39875 40120 81241 333 58008=
83229 32598 11803 10267 20233 30077 40136 81200 333 58012=
83236 32598 43605 10327 20160 39606 40095 84200 333 58011=
83242 32497 51801 10296 20205 39625 40104 81135 333 58011=
83244 32997 01801 10318 20110 39811 40102 333 58012=
83286 322598 3//// 10317 20135 39441 40088 83200 333 58010=
83288 32598 32702 10346 20169 39599 40107 83200 333 58013=
83339 32498 31403 10294 20100 39144 40111 83200 333 58010=
83344 32598 42302 10285 20185 39135 40115 84400 333 58016=
83398 32598 30504 10274 20230 30109 40114 81144 333 58015=
83408 32598 21405 10341 20094 39579 40064 82200 333 58004=
82098 21796 80000 10250 20241 30077 40095 71662 8597/ 333
58010 60231=
82141 21798 60903 10266 20246 30094 40106 70296 86070 333
58009 60121=
82145 21597 70000 10272 20254 30056 40098 70362 84240 333
58006 60291=
82178 21698 73206 10274 20248 30034 40077 70362 85720 333
59002 60051=
82181 21497 60907 10264 20216 70365 82348 333 60021=
82184 21698 51802 10287 20262 30087 40105 70166 85800 333
59007 60081=
82191 21597 73604 10266 20243 30087 40093 76196 85760 333
59010 60021=
82198 32797 5//// 10306 20263 30024 40075 85200 333
59003=
82246 21597 81402 10248 20232 39920 40119 72122 887// 333
58009 60081=
82263 32598 30506 10323 20265 83300 333=
82280 31498 5//// 10298 20247 30034 40092 71510 84920 333
58000=
82353 32698 6//// 10289 20240 84256 333=
82361 21597 43204 10299 20264 30060 40097 70262 84300 333
59002 60011=
82376 32497 50908 10314 20235 30041 40093 83206 333
58006=
82445 21496 80000 10272 20252 30079 40131 72166 8493/ 333
58005 60131=
82460 32597 51404 10326 20238 30049 40079 83240 333
59013=
82562 32498 61804 10331 20229 30004 40115 85201 333
58001=
82564 32697 81406 10327 20213 83442 333=
82571 21597 80506 10249 20219 39918 40117 71796 885// 333
58019 69951=
82765 32598 60000 10318 20207 39872 40110 86200 333
58000=
58009=
82861 32799 20506 10338 20252 39905 40082 82040 333
58012=
37985 42996 01801 10210 20149 40133 52006 333   10297=
85196 32584 61606 10202 20149 39593 40169 57021 85530
333 56440 58023 85625 86357=
85207 32580 81906 10221 20162 39690 40166 57025 885//
333 56499 58018 88620=
85247 32580 81810 10210 20130 39854 40176 57024 8653/
333 56409 58028 86620 88357=
85268 32480 80000 10190 20150 39868 40182 57027 8652/
333 56499 58023 86617 88457=
85289 32580 81804 10208 20172 30008 40168 57016 8453/
333 56559 58028 84627 88358=
85315 12484 80000 10140 20114 39288 40187 57035 69911 885//
333 56499 58030 85630 88633=
85245 11470 81812 10165 20123 39690 40181 57026 60041 72162 8651/
333 56400 58025 81610 85825 88457=
85223 32584 72207 10220 20052 37472 47106 57030 82206
333 56203 59010 82825 86070=
85283 32484 70310 10110 20076 37178 47096 57013 87500
333 56100 58001 83610 87613=
85293 32584 43612 10148 21050 36324 57023 81201
333 56000 59014 81823 84070=
85345 32584 70000 10186 20126 39705 40192 57020 83530
333 56000 58007 83620 87357=
85364 32584 80000 10140 20050 38134 48481 57038 8652/
333 56000 58006 86630 88457=
85365 32584 80000 10170 20101 39453 40205 57029 8352/
333 56009 58007 83623 88457=
37575 42596 83603 10194 20114 40131 52005 885// 333   10222==
91650 11598 31205 10267 2022/ 40099 56007 69901 70380 83800
333 562// 83825=
91659 31598 41508 10252 2022/ 40117 53008 70300 84800
333 569// 83825=
91670 36/// /1009 10259 20232 40120=
91680 31698 20303 10201 20183 40125 53005 70200 82800
333 569// 81830=
91683 11598 60000 10210 20204 40133 53007 60021 70281 86200
333 569// 86820=
91691 36/// /0604 10248 20215 40136=
91699 36/// /0511 10241 20206 40145=
85766 31475 73303 10102 20096 40105 57030 70142 83130
333   56760 83818 87362=
83840 32470 71209 10147 20100 39135 40167 56015 87500=
83190 32599 20903 10294 20185 39714 40130 82200 333 58010=
83377 31697 61402 10253 20106 38862 40111 70542 85204 333 58007=
83522 32698 31802 10271 20163 39274 83200 333 58010=
71827 11466 82813 10040 21015 39937 40181 52006 69921 70154 885//
333 10025 20004 70026 90922=
83971 32570 62706 10160 20085 30206 40206 46010 86100=
82024 21597 60504 10258 20242 70366 8673/ 333 60051=
37735 42698 31101 10206 20163 40132 53009 83260 333   10254=
65338 32960 70000 10258 20215 39911 40100 8707/
333 10293 58002 87461=
88963 32465 80000 11085 21113 30112 40142 58008 886// 333 56499
88715 92407 95000=
88968 32565 62702 11055 21088 30085 40100 52015 86500 333 56600
86622 92417 92851 94062 D/W=
89053 32962 40515 11066 21098 30104 40118 57008 80006 333 56007
84270 92417 92840 95000=
89055 31907 40205 11126 21145 39886 40146 57007 74140 80009 333
56000 84170 90025 92700 92843 95139=
89066 32970 00000 11054 21100 30052 40061 57013 333 92407 92840
95000=
80210 11462 70000 10229 20171 38667 60081 70565 83835
333 56000 58006 83815 83358=
80214 31460 41340 10270 20214 70521 83802
333 569/0 83812=
80222 31568 61606 10177 20102 37530 71522 83850
333 5633/ 58012 83623 84358=
80234 32562 80402 10278 20212 39631 40120 8357/
333 5629/ 58013 83623 86359=
80259 31460 70602 10260 20186 39057 70522 84270
333 5629/ 57893 58005 84817 83359=
80315 31415 50000 10304 20208 39593 40080 70522 83850
333 5655/ 58005 83815 83358=
80342 31562 70000 10187 20166 38230 74142 84130
333 56421 48011 84620 86360=
80370 01463 81104 10126 20091 69931 71152 8687/
333 5630/ 69937 86815 88457=
80398 32470 72802 10280 20227 30031 40126 85870
333 5618/ 58026 85813 86358=
63708 32580 12706 10227 20181 48487 81403
333 10297 59007 81624=
63740 31970 10906 10178 20093 48517 70200 81030
333 10250 59001 81359=
63820 32580 22105 10246 20216 40150 82200
333 10296 59001 82822=
63612 31980 10910 10306 20098 40079 70200 81050
333 10357 59007 81360=
63619 31982 10000 10216 20126 48526 70200 80001
333 10270 58003 81080=
63641 32980 01540 10200 20087
333 10246=
63661 32980 01804 10184 20132 48525
333 10273 59008=
63671 32982 01511 10298 20175
333 10341=
63695 32980 01805 10173 20140
333 10242=
63714 32982 00000 10193 20104 48498
333 10283 59002=
63723 32982 11810 10281 20161 40128 80001
333 10342 58003 81077=
63766 32982 01107 10216 20114 48527
333 10292 59005=
61701 32960 12910 10282 20222 40109 81500
333 10327 58012 81612=
71907 17356 83222 10013 21005 30055 40087 51019 69951 7414/ 333
10019 20002 70030=
91811 11498 71109 10275 2024/ 40101 60031 72521 878// 333 562//=
91843 31599 52209 10211 20114 40145 51012 70315 85200 333 565// 85825=
61712 32960 03212 10315 20256 4//// 80000
333 10360 5////=
65545 11960 80000 10260 20224 39681 40097 60022 70396 8807/
333 10285 58012 88360=
65560 32460 6//// 10290 20240 39798 40109 82270
333 10300 59002 82813 86460=
65563 32460 70000 10286 20227 39869 40098 81232
333 10324 59002 81815 83360 87076=
65585 11456 8//// 10248 20244 60152 79596 8697/
333 10300 86913 88460 95332 95338=
65594 12460 81818 10270 20242 60162 882//
333 10285 88813=
29068 415// 83201 10090 20088 40047 51006 78022 883//=
29274 42584 30000 10132 20093 40041 52012 82839=
29363 42597 61602 10122 20119 40025 52011 82101=
29456 425// 72702 10133 20114 40050 52010 85931=
29467 42598 32502 10141 20109 40046 52008 83900=
29477 429// 02801 10132 20121 40035 52002=
29576 42597 62701 10145 20107 40043 53008 82931=
29756 42994 50000 10101 20067 40069 52004 80002=
29962 42884 21501 10138 20097 40059 51004 81071=
30157 42998 61001 10100 20045 40071 51007 83051=
30320 42997 80000 10148 20076 40030 52011 8802/=
30537 429// 32001 10088 20000 40100 53014 83070=
24143 42999 60000 10043 20036 40108 52007 83071=
24266 42699 40000 10074 20061 40108 52007 82530=
24329 42599 83501 10147 20013 40042 52001 889//=
24343 42999 80102 10088 20034 40098 52003 80002=
24639 42999 80901 10113 20078 40051 57003 83031=
24688 41599 82602 10055 20043 40091 52006 70262 8642/=
24724 41597 82104 10157 20082 40010 58003 72622 8494/=
24738 42999 81501 10114 20058 40043 57003 86031=
24768 42999 20000 10043 20036 40088 52006 80001=
24923 42799 83001 10120 20077 40047 53002 82531=
24951 42999 30000 10059 20025 40102 52009 83040=
24959 42999 23501 10067 21006 40090 52004 80001=
24962 42999 80000 10048 21002 40100 52022 82031=
24966 42999 62101 10056 20047 40090 52004 84031=
25400 42999 20802 10074 20023 40156 52013 80001=
30054 42698 72401 10100 20085 40046 52001 82938=
30493 42999 00000 11011 21012 40171 52002=
33345 11457 83003 10148 20119 40197 52019 60029 78182
889// 333 10197 88718=
62002  32960 40610 10274 20062 39477 48573 57001 80008 333 10285 8427
62007 32960 30408 10237 20208 40178 54000 83030 333 10260 83360=
62008 32870 50610 10220 20064 39404 48562 57007 85030 333 10280 85358
62010 32960 30312 10248 20189 40185 51004 83030 333 10305 83360=
62012 32560 73614 10226 20205 40203 5400087500 333 10265 87360=
62016 32652 33510 10217 20198 40163 545002 82530 333 10248 82625
83360=
62019 32960 43606 10231 20182 40163 53002 80004 333 10245 84070=
62053 32558 53620 10220 20180 4 185 54000 85500 33 85620=
62055 32960 03608 10220 20182 40159 57009 33 10270=
62062 32560 43308 10224 20196 40141 51003 83503 333 10251 83620 82070
62103 32670 30708 10343 20134 40153 57005 83100 333 10361 83835=
62124 32960 21511 10331 20033 39637 40117 53004 80004 333 10374 82070
62131 32972 50216 10313 20163 39828 40132 56003 82034 333 10324
82363 84070=
62161 32960 03610 10324 20142 40138 53003 333 10345=
62200 32960 20000 10342 20066 39599 40118 58014 80001 333 10362 82070
62212 32970 60308 10315 20093 39356 48544 57003 80007 333 10365=
62259 32960 03604 10325 20125 40123 58002 33 10390=
62271 32960 03307 10325 20047 40128 58001 333 10350=
24988 42498 81402 10036 20023 40124 52003 886//=
25325 42999 00000 10050 21022 40181 52008=
25378 32698 63506 10019 21074 40200 53005 83231   333 20008 91113=
31174 42999 70202 10036 20026 40095 54000 86031=
31263 42999 00000 10042 20037 39567 40128 52005=
31489 42699 70000 10067 20063 40071 52002 81430=
31959 42698 22901 10033 20030 40133 56002 82500=
32027 42999 21604 10045 20038 40123 54000 80002=
32076 42498 80201 11002 21002 40159 57006 886//=
32408 42999 10000 10031 21037 40115 52004 81030=
32509 42999 02809 10088 21012 40139 51008   333 91012 91112=
32594 42599 23206 10035 21018 40170 58006 82500=
35376 11598 80203 10102 20090 40063 52002 60140 70262 87500   333
10152=
35426 32999 00302 10164 20059 40158 53018   333 10261=
35532 32998 00705 10181 20071 40148 53015   333 10243=
35849 32998 23401 10174 20045 40121 52007 82030   333 10252=
35953 329// 03205 10183 20011 40113 52007   333 10264=
35969 329// 032// 10156 20094 40113 52009   333 10236=
38062 32997 22102 10199 20025 82040   333 10241=
38069 329// 02703 10171 20058   333 10242=
38196 32998 02501 10138 20015 40109 52015   333 10206=
38328 125// 20000 10144 20053 40123 52012 69910 82300   333 10262=
38334 11598 12802 10121 20085 40130 52011 60060 70191 81500   333
10241=
38439 32998 03402 10200 20043 40119 52023   333 10312=
48375 32562 30000 10250 20234 39816 40042 81505
333 59001=
61024 32960 71210 10395 20077 39511 40052 85082
333 10430 58002 85364 83080=
61036 32965 5//// 10372 20177 39834 40065 81042 91745
333 10388 58011 81364 85080=
61043 32960 50202 10384 20134 39627 40051 80002 91745
333 10399 58009 85080=
61045 31914 7//// 10385 20022 39561 40034 70522 80008 91745
333 10469 58006 87280=
61049 32960 7//// 10394 20104 39737 40048 80008 91745
333 10442 59016 87280=
61052 32970 72608 10380 20164 39818 40073 83082
333 10412 58019 83064 86080=
61075 32965 73204 10376 20144 39756 40053 80008 91745
333 10393 58016 87280=
61080 32965 70000 10374 20167 39626 40031 80008 91745
333 10392 58005 87280=
61090 31935 70410 10395 20218 39555 40043 70522 80008 91746
333 10415 58016 87280=
61096 32965 72204 10395 20094 39666 40029 80008 91745
333 10430 58001 87280=
61099 32970 7//// 10332 20209 39/// 4//// 87072 91745
333 10350 5//// 87464=
47075 42980 00000 10135 20129 39732 40146 52005=
42101 31995 00000 10302 20223 49966 70500 333 59010=
42131 32996 30902 10324 20208 49965 83030 333 59011=
42165 31996 01803 10356 20178 49962 70240 333 59011 =
42182 21595 60000 10274 20230 49974 70522 83330 333 59009 6018/
83630 81935 85360=
42379 32596 11402 10300 20227 49994 81500 333 59013 81625=
23074 42498 20313 10006 21008 40143 58017 82500 333 91119=
23274 42998 03606 10014 21003 40113 58005=
23383 42699 82502 10039 21010 40077 52008 885//=
23472 42999 23305 10042 21016 40085 52005 82030=
23678 42998 63104 10091 21002 40052 52007 86030=
23884 415// 80000 10078 20067 40041 54000 70282 8352/=
24507 424// 80000 10067 20041 40051 52015 885//   333 88614=
24908 42680 50000 10106 20090 40015 52008 82501=
29263 41575 72301 10139 20119 40025 52006 70282 86930=
29282 42584 70000 10142 20120 40028 52010 87900=
29570 42896 20000 10145 20094 40041 52003 82040=
29698 41597 82903 78160 20144 40045 52016 72598 889//=
29862 42981 32501 10137 20119 40041 58001 82031=
23973 41499 80000 10076 20076 40050 54000 70252 8672/=
29253 418// 80000 10104 20098 40049 52014 70262 8802/=
29471 429// 00000 10126 20117 40042 52007=
29481 42599 71401 10153 20151 40036 52002 87300=
29553 41572 60000 10132 20130 40063 52021 70282 86900=
29562 42984 21801 10135 20085 40041 5//// 8801/=
29581 42598 73201 10160 20140 40042 52004 84930=
29594 41599 81503 10160 20146 40041 52009 72998 8697/=
29653 42597 62701 10106 20085 40058 52009 84301=
29675 41598 52701 10084 20080 40078 52009 70282 85900=
29676 42698 23301 10139 20135 40046 52011 82500=
29759 42984 00000 10082 20071 40062 54000=
29766 41999 00000 10129 20120 40052 58005 70298=
29864 42984 23002 10114 20085 40052 54000 82030   333 95090=
29869 42670 52901 10140 20122 40047 51001 82501   333 95090=
29956 41984 22102 10102 20081 40063 52004 70282 82070=
30504 41997 82602 10183 20113 40022 52019 70198 8807/=
30603 42597 80000 10170 20067 40007 52011 82902=
30612 429// 82902 10170 20092 40011 54000 80001=
30622 429// 82601 10100 20092 40051 54000 80007=
30499 42999 00000 10028 20004 40150 52007 =
30683 42999 00000 10029 20016 40148 54000=
30695 42999 00101 10033 20023 40135 51006=
31253 42999 03602 10066 20017 40115 52011=
31295 429// 00000 10090 20062 40132 52008=
31348 426// 80000 10070 20061 40095 52003 86537=
31418 42599 80000 10105 20097 40082 54000 82972=
31442 429// 02903 10110 20070 40107 58001=
31445 42984 03102 10084 20068 40112 54000=
31474 42598 80000 10086 20082 40090 53001 889//=
31534 41/92 90000 10057 20057 40107 58002 74640=
31587 42981 70000 10089 20056 40118 54000 87050=
31632 42598 80000 10105 20076 40068 58006 889//=
31702 42984 33601 10067 20056 40100 51002 83030=
31725 41498 20000 10141 20100 40077 58005 70181 82300=
31801 41598 50000 10040 20035 40105 53001 85500=
30455 429// 00301 10002 21008 38882 48466 52004=
30549 429// 01802 10056 21018 38680 48457 52009=
30726 429// 20502 10044 20016 40082 58004 81071=
30731 42999 10000 10073 20043 40080 58003 80002=
30739 429// 00702 10128 20043 40092 52006=
30745 42999 11601 10120 20056 40116 52002 80002=
30764 42998 00000 10029 20011 40153 52008=
30811 429// 21201 10132 20076 40055 52012 82040=
30822 42999 60000 10069 20028 40076 52006 80002=
30824 42998 81801 10094 20029 40067 52006 80001=
30829 42984 82702 10151 20050 40067 52004 82031=
30846 42999 00000 10096 20056 40119 52004=
30859 42999 03203 10062 20033 40146 51004=
30862 42984 00000 10103 20023 40135 52002=
30957 42984 00901 10108 20036 40133 52007=
30975 42998 20202 10095 20038 40151 52006 80001=
31845 42598 80000 10092 20062 40096 52008 885//=
31878 41658 80000 10117 20110 40114 50002 78082 889//=
31915 42998 60000 10108 20104 40122 52014 70288 86030=
31921 41571 22305 10100 20094 40122 53003 70298 82900=
31969 42597 80203 10095 20081 40141 58007 885//=
31981 41598 81802 10104 20088 40117 56002 78082 889//=
31987 42999 10000 10078 20065 40143 54000 80001=
32069 42999 41205 10028 20012 40128 58008 80002=
31439 429// 22701 10012 20051 40106 58003 80001=
42410 22595 53604 10262 20251 40029 83530 333 59001 6990/ 83620
84360=
42415 21596 20000 10250 20241 40026 70520 82300 333 58010 6024/
82620 81930=
42492 31996 00000 10288 20245 40005 70500 333 59004=
42591 32996 00902 10310 20212 49998 333 59009=
42701 31996 01405 10276 20212 39305 40009 70500 333 59006=
42798 31595 50000 10282 20236 40006 70592 83430 333 59003 82620
83825 85360=
42809 31595 21802 10288 20248 40007 70521 82500 333 58002 82620=
42886 31596 61804 10326 20247 40007 71722 84930 333 57952 59020
83620 81930 85360=
42895  32996 02302 10292 20267 40018 333 58002 =
42971  31996  21804 10284 20267 40015 70500 81031 333 59019 81360=
43333 21496 52710 10270 20244 40049 70262 84401 333 56509 59005
6003/ 82618 84820=
47101 31658 43202 10167 20152 30043 40133 53003 71011 82501=
47112 31958 22703 10164 20148 30059 40139 58002 71000 82500
333 92022=
47131 31958 33602 10175 20143 30062 40129 55005 71011 80001=
47143 31956 71402 10169 20141 30076 40143 57005 71022 80002=
47146 31930 01102 10187 20153 30063 40128 55015 71000=
47152 32956 83201 10161 20139 30108 40147 57007 71022 8452/=
47156 32660 60000 10187 20150 30046 40131 57013 83540=
47168 31958 00901 10162 20144 30065 40143 57010 71000 333 92012=
47189 31557 80201 10177 20168 30076 40136 58008 71022 8452/
333 92011=
28867 32598 30000 10075 20017 40160 52028 83400   333 10186=
35217 32997 03602 10193 20102 40170 54000   333 10273=
35302 329// 00000 10224 20124 40169 52003   333 10279=
35406 32997 00000 10210 20125 40186 54000   333 10278=
24856 42699 12502 10026 20005 40100 52002 81400=
30686 42999 03603 10011 21003 40140 52004=
30777 42998 10000 10061 20019 40149 52002 80002=
30961 42999 01302 10113 20011 40143 52006=
30971 42984 12001 10022 20000 40187 51004 80002=
30978 42984 21501 10120 20015 40149 52001 80002=
24982 42699 70000 10025 20015 40119 52004 86531=
32121 42429 81007 10028 20018 40142 57002 886//   333 91112=
32128 42599 71002 10073 20023 40123 56001 87500=
22892 19057 15012 3//// 401/4=
41571 319// 00000 10294 20172  49967 70600  333 59014=
41594 319// 00503 10385  10355 20197 49953 70500 333 59017 AS=
42634 32596 22310 10298 20247 40026 81501 333 59008 81625=
42647 31996 12006 10324 20247 40020 70500 80001 333 59010 81075=
42737 32496 52908 10300 20249 40034 85500 333 56600 59003 85615=
42909 32596 32911 10302 20269 40043 83500 333 56600 59007 83620=
43003 21595 70000 10246 20234 40039 75096 86930 333 59023 6008/ 83620
83825 81930=
43014 21596 72708 10240 20223 39405 40044 71322 95930 333 59017
6002/ 83620 83825 81930 85360=
43063 21596 72701 10230 20200 39434 40055 75202 83530 333
59016 6001/ 83628 85356=
43110 21496 80000 10254 20248 40061 76196 8672/ 333 59016 6014/ 84710
85620 87456=
43117 21596 33202 10260 20253 40043 70165 82401 333 59025 6005/=
43086 31596 32502 10326 20231 39838 40010 71311 82330 333 57912
59028=
43128 31596 33208 10310 20215 39431 40018 70521 82530 333 59026
82620 83360=
43185 31596 60000 10300 20272 30019 40022 71392 82930 333
57983 59002 82620 81925 83360=
43198 31496 52505 10226 20201 39239 40057 71322 83901 333 56609
57954 59018 82612 81925=
43201 21496 62504 10230 20209 39341 40061 70165 83502 333 59013
6003/ 83618 85075=
43213 31596 52704 10296 20209 39721 40031 71311 82932 333 57923
57964 59012=
43279 21596 52302 10278 20246 30021 40038 72165 83301 333 57962
59004 6001/ 82620 81930=
43284 21496 80000 10246 20240 39970 40086 75196 8472/ 333 58004
6004/ 83710 83615 88458=
43295 21395 82503 10216 20207 39065 48475 76065 8672/ 333 5669/
59003 6011/ 83708 83615 85458=
43314 21596 80503 10242 20233 40099 72165 8387/ 333 58015 6027/=
43321 31496 62012 10228 20216 39630 40057 70522 84701 333 58002
82210 83415 85070=
43344 31596 32716 10276 20210 39956 40055 70511 81502 333
59005 83075=
43369 21596 73205 10290 20259 40090 75052 85470 333 59006 6998/
84620 87458=
43371 21596 83404 10248 20227 30013 40086 71362 8491/ 333 57942
58004 6002/ 83620 81925 88460=
11003 70014 333 91203 555 11024 22025=
10401 70004 333 91206 555 11052 22054=
41697 80913 10080 2007/ 40270 54000 70222 8855/
22265 00070 20201 315// 40403 5//// 6//// 80075=
80403 32475 80708 10326 20239 30121 40140 82206 333 30///
56209 58020 82816 88075 1014=
80407
80410 32470 81108 10278 20174 39450 40129 8427/ 333 30///
5699/ 58027 84820 84356 1016=
80413 32468 82503 10285 20184 39630 40118 84518 333 30///
56999 58007 84616 1014=
80415 32470 40502 10303 20244 30085 40139 84500 333 30///
56900 58015 84616 1014=
80419 32370 63104 10291 20171 30098 40107 8382/ 333 30///
5699/ 58008 83810 83458 1010=
80421 32462 60710 10310 20226 30119 40141 82775 333 30///
56299 58012 83816 1014=
80428 32470 70502 10305 20216 39948 40132 8253/ 333 5699/
58020 82617 85357 1016=
80435 32470 40406 10306 20180 30049 40125 84200 333 30///
56200 59004 84813 1012=
80438 32975 62004 10273 20074 38513 48510 80038 333 30///
56099 1019=
80444 32370 80505 10324 20237 30058 40111 84508 333 30///
56209 58008 84610 86280 1010=
80447 32565 81808 10273 20143 39687 40110 8552/ 333 30///
5699/ 58022 85620 83459 1015=
80457 12470 70902 10286 20192 30051 40138 69961 875// 333
31/// 569// 58029 87610 1013=
10315=
51711 11980 22001 10117 20060 37961 57011 69991 70098 80002
333 05153 10236=
10280=
51705 11980 12701 10131 20067 37775 52003 69941 70098 80002
333// 05351 10226=
52447 32980 82204 10199 20098 40010 52003 8807/ 333 00154
10293=
52576 11980 81105 10234 20016 38410 57007 69901 76000 8802/
333// 00051 10282=
52674 11970 82903 10127 20103 37970 52003 69941 76060 8802/
333 00051 10224=
52707 32975 02503 10062 21012 37271 52002 333 00257 10183=
52765 11972 83202 10076 20059 37170 57001 60051 76086 8802/
333 00053 10208=
52825 32980 01101 10074 20028 37243 54000 333 00359 10178=
52842 11970 23402 10068 20024 36978 57006 69901 70060 80002
333 00154 10114=
52856 11780 80000 10110 20044 37188 57004 69911 72186 8152/
333 00002 10202=
10261=
53738 32674 31405 10227 20131 40015 52006 83500 333 10297=
53821 32980 71601 10208 20083 40009 52003 8704/ 333 00051
10305=
53929 32765 81405 10204 20124 40021 57003 885// 333 10266=
56067 11680 72502 10068 20052 36532 57003 60081 70098 86902
333 00000 10149=
56125 11980 80000 10087 20062 36527 54000 60031 76080 8802/
333 00101 10220=
57106 32765 80000 10161 20154 40063 57011 885// 333 00254
10198=
57134 11680 81801 10155 20145 40031 57009 69951 70060 8657/
333 00153 10212=
10156=
56116 11580 83206 10080 20034 36349 52008 69901 78080 889//
333// 00151 10196=
10146=
92022=
56533 11680 80000 10174 20169 38367 52001 69911 70080 889//
333// 00100 10224=
56875 32680 10000 10210 20166 38331 52001 81400 333// 00100
10285=
56994 11665 80000 10215 20190 40065 52001 69901 70080 884//
333// 00200 10270=
96145 31467 81204 10266 20245 30066 40071 56008 71322 8592/
333 56400 57940 57840 81916 84817 88460=
96179 32460 71804 10268 20241 30045 40081 52004 83208
333 56400 57842 83817 80858=
96221 31558 50000 10250 20241 30077 40092 70521 81532
333 56099 81620 84080=
96249 32558 60000 10252 20242 30013 40072 57005 82131
333 56000 57801 82820 80863=
96839 32558 71104 10258 20214 30087 40088 52002 80002
333 56000 57000 83080=
96837 32956 31201 10258 20218 30086 40088 52002 80002
333 56000 57000 83080=
64700 32660 63408 10366 20172 39708 40035 81362 91755
333 10415 59002 83365 84075 81950 94943 95833=
64600 31960 70000 10213 20204 39432 40070 70199 8507/
333 10295 58008 87365=
64601 32960 02602 10230 20217 38978 48490
333 10270 58002=
64610 32960 10000 10302 20231 39539 40043 80001
333 10352 59014 81080=
64650 12960 50000 10257 20226 39667 40076 69962 82032
333 10300 55024 58006 82365 84080=
64655 31658 5//// 10290 20234 39428 40061 71322 82960
333 10335 59005 82940 85365 94944 95834=
64656 31660 4//// 10260 20200 39526 40074 71792 8297/
333 10340 58004 82940 87364 94959 95879=
64659 31960 50000 10238 20207 39355 40062 70192 80002
333 10330 59020 85080=
64660 31660 20000 10276 20246 39535 40060 71311 81903
333 10325 59011 81940 94942 95812=
64661 11660 8//// 10270 20242 39409 40061 60012 71798 8297/
333 10330 59008 82940 88365 94959 95839=
91753 01370 51208 10260 20240 40112 53011 60021 70381 85800
333 60027 81808 83815=
91754 01475 80706 10253 20226 40113 53001 69981 70282 888//
333 69987 81810 85819=
83334 32598 41402 10322 20143 3//// 4//// 84200 333 5////=
83383 32598 41402 10322 20143 3//// 4//// 84240 333 5////=
83384 32898 10000 10330 20136 39543 40117 81030 333 58005=
83386 32498 32302 10326 20156 39576 40121 81204 333 58011=
83388 32497 30904 10317 20173 39414 40079 83100 333 58007=
83393 32596 41404 10298 20198 39399 40119 82110 333 58011=
83437 32599 43604 10311 20124 39390 40103 82446 333 58009=
83442 32597 12302 10334 20129 39759 40100 81100 333 58001=
83479 32597 22706 10303 20162 39332 40123 82200 333 58008=
83483 32597 20502 10310 20146 39530 40112 82200 333 58006=
83488 32596 33202 10275 20149 39112 40118 83200 333 58000=
83492 32598 41402 10304 20157 39735 40117 84231 333 58002=
83514 32597 60505 10288 20167 39448 40136 84270 333 58010=
83531 32597 62705 10276 20159 39080 40122 86200 333 58012=
83538 32598 50000 10251 20110 38714 40129 85100 333 58004=
83543 32597 20904 10306 20190 39951 40121 82100 333 58011=
83570 32596 30000 10298 20159 39344 40113 82024 333 58010=
83574 32598 62708 10284 20182 39535 40153 58026 86124=
83577 32597 52308 10264 20160 39279 40128 83269 333 58006=
83579 32597 62706 10260 20128 38995 40118 86200 333 58007=
83582 32597 60505 10278 20155 39347 40114 57035 86200=
83587 32798 23205 10273 20160 39120 40117 82225 333 58006=
83592 32598 32703 10286 20168 39434 4//// 82240 333 58011=
83595 32597 60904 10320 20199 30023 40107 83254 333 58028=
83642 32496 63204 10274 20164 39335 40105 56016 86200=
83683 32697 61801 10232 20185 39148 40122 57018 84560=
83687 32697 62310 10244 20148 39111 40114 58010 87400=
83692 32396 81806 10179 20152 39112 40161 58014 88700=
82917 32570 31102 10312 20215 40121 83100 333 58008=
87097 32570 61808 10165 20097 39872 40190 57021 81106 333 56406
81825 85275=
87155 32465 70904 10158 20093 30150 40213 57024 84106 333 56306
84815 86270=
87162 32570 71104 10166 20094 30131 40203 57031 83508 333
56300 83625 87270=
87166 32468 81407 10170 20090 30136 40211 57024 85506 333 56106
85615 87280=
87178 32570 71403 10173 20077 30055 40204 57023 82106 333
56005 82820 87270=
87270 32565 40906 10158 20060 30148 40212 57031 84100 333
56200 84825=
87289 42970 31406 10154 20037 30137 40220 57025 80006
333 56003 83080=
87374 32565 40706 10141 20093 30124 40218 57032 84500
333 56100 84625 94067 94410=
87393 32570 11402 10154 20054 30153 40218 57033 81100 333 56000
81820=
87395 32565 40000 10128 20068 30177 40222 57025 84100 333 56200 84830=
87480 32565 80505 10130 20068 30190 40220 57033 885// 333 56000
88620=
87497 32965 53606 10130 20043 30196 40221 57021 85100 333 56500
85820=
87534 31560 80212 10105 20069 30031 40196 57035 70342 888// 333 56899
83822 88526=
87548 32565 40218 10126 20027 30109 40208 57019 82104 333 56800 82830=
87576 32660 13602 10122 20002 30198 40223
57021 81100 333 56700 81835=
87582 32660 20504 10115 20017 30220 40227 57021 82100 333 56200
82840=
87593 32560 12905 10117 20034 30201 40230 57020 81100 333 56600
81820=
87623 32382 83612 10096 20066 39948 40181 57036 886// 333 56899
88709=
83630=
87645 32570 53606 10090 20000 30000 40215 57021 85100 333 56400
85820=
87692 32562 22905 10100 20008 30193 40219 57023 81502 333 56605
81633=
87715 11360 83601 10082 20065 39806 40133 57028 69901 70252 8572/
333 56119 82707 84616 87545=
87750 32670 53224 10108 20047 30081 40183 57029 85500 333 56700
85640=
87765 32580 60000 10068 20006 39130 48419 57036 83644 333 56651
57353 83720 84080=
87016 32575 81802 10150 20097 39778 40198 57017 885// 333 56099
84625 84630=
87022 32665 80000 10162 20090 39671 40195 57032 885//
333 56499 88640=
87046 32565 80000 10127 20072 39143 48511 57032 885//
333 56400 88630=
87047 11260 80706 10094 20076 38813 48521 57024 69901 71552 887//
333 56199 82705 83708 85615=
87121 32565 80902 10136 20110 39654 40180 57038 888//
333 56899 83820 88640=
87129 32570 80506 10159 20082 39955 40191 57033 8687/ 333 83620
83825=
87217 32770 71805 10153 20078 39650 40151 57033 85560
333 56660 85656=
87222 61760 20526 10168 20087 39597 40118 57036 81570 333 56680
81656 81459=
87311 32965 61601 10124 20048 39456 40151 57032 86070
333 56000 86360=
87344 32565 40218 10130 20070 39630 40189 57040 82570 333 56110
82620 91123 94061 94466=
87371 42562 30504 10148 20057 30201 40223 57028 83500
333 56000 83630=
87416 32675 53602 10113 20046 39387 40150 57041 84870
333 56519=
87418 31560 80000 10090 20058 39342 40162 57032 71022 886//
333 56099 88723=
87436 42580 43615 10137 20042 39322 40152 57028 82504 333 56898
82630=
87448 32570 33612 10167 20066 39585 40156 57039 81505 333 56594
81620=
87453 32370 80216 10096 20062 39676 40176 57037 69901 886// 333
56199 83709 86615=
87506 32470 72302 10049 20017 38546 48468 57029 87600
333 56899 87712 95080=
87509 32670 61406 10128 20045 39275 40139 57035 82572 333 56777
82635=
70026 12366 82725 10006 21006 30144 40150 53007 60031 91753 333
10011 21027 91030 555 90118=
70133 11361 82204 10028 21011 30210 40218 51001 60021 761// 91753
333 10033 20017 555 90118=
70200 11259 81409 10039 20033 30208 40216 53002 69931 761// 91753
333 10044 20028 96010 555 90118=
70231 15766 89904 10117 20039 30136 40266 58002 69901 91753 333
10144 20067 555 90118=
70261 32766 41303 10133 20056 30094 40265 58006 91753 333 10144
20056 555 90118=
70273 32666 80000 10100 20044 30229 40277 58004 91753 333 10106
20067 555 90118=
70308 31224 81521 10050 20039 30067 40078 710// 91753 333 10056
20044 555 90118=
70316 32566 899// 10070 20010 30101 91755 555 90118=
70326 32566 61613 10094 20022 30240 40261 56006 91752 333 10106
20067 91017 555 90118=
70350 32666 69903 10100 20011 30246 40289 56006 91753 333 10100
20011 555 90118=
70361 32566 43208 10117 20072 30249 40265 58004 91753 333 10117
20000 555 90118=
70398 32966 09906 10122 20089 30202 40244 53000 91753 333 10144
20078 555 90118=
70341 32764 69903 10111 20039 30257 40283 56008 91753 333 10111
20056 555 90118=
72201 32966 01308 10306 20244 30182 40189 58005 91753 333 10317
20233 555 90118=
72202 32566 60814 10300 20228 30188 40193 56005 91756 333 10311
20267 555 90118=
72203 32566 40911 10306 20206 30199 40204 58002 91753 333 10306
20261 555 90118=
72205 32766 40108 10328 20178 30167 40204 58008 91753 333 10322
20239 555 90118=
72206 32666 49906 10300 20200 30203 40215 58007 91756 333 10311
20183 555 90118=
72207 32766 20810 10317 20139 30201 40219 91753 555 90118=
72208 32966 09903 10311 20150 30201 40215 58012 91756 333 10317
20183 555 90118=
72212 35/// /0808 10333 20161 30190 40206 58011 91753 333 10333
20183 555 90118=
72214 32966 00307 10328 20144 30192 40212 58009 91753 333 10333
20206 555 90118=
72217 32966 09904 10317 20139 30091 40218 58006 91753 333 10328
20161 555 90118=
72218 32966 00110 10328 20133 30159 40209 58015 91753 333 10328
20167 555 90118=
72219 32766 29906 10294 20122 39857 40226 58006 91753 333 10294
20194 555 90118=
72223 32966 21710 10289 20194 30139 40217 50002 91756 333 10300
20206 555 90118=
72226 32966 09905 10311 20150 30148 40220 58004 91753 333 10311
20194 555 90118=
72231 32666 61311 10311 20206 30192 40204 50001 91753 333 10317
20233 555 90118=
72234 31758 49904 10300 20161 30106 40216 58003 705// 91753 333
10306 20183 555 90118=
72235 32866 21107 10317 20172 30091 40208 58005 91754 333 10317
20217 555 90118=
72240 32866 29903 10300 20217 30177 40197 58001 91753 333 10311
20228 555 90118=
72243 32666 41408 10317 20211 30146 40183 56001 91753 333 10322
20228 91014 555 90118=
72248 32666 62007 10294 20200 30095 40191 58004 91756 555 90118=
72250 32966 01517 10333 20222 30155 40161 50004 91756 333 10339
20250 91022 555 90118=
72251 32666 21516 10306 20222 30150 40168 53004 91751 333 10311
91019 555 90118=
72253 32666 41412 10317 20194 39885 40159 58003 91753 333 10317
20233 555 90118=
72254 35666 21509 10328 20183 39947 40159 58003 91753 333 10328
20233 91015 555 90118=
72255 35666 41711 10317 20228 30137 40173 50001 91751 333 10328
20233 555 90118=
72256 32966 01911 10294 20217 39993 40171 56002 91753 555 90118=
72259 32666 61710 10311 20194 39968 40168 58004 91753 333 10317
20244 555 90118=
72261 35566 81313 10283 20206 39784 40140 50001 91753 333 10283
20244 555 90118=
72265 32964 01815 10256 20178 39165 40126 51015 91753 333 10272
20228 555 90118=
72266 32966 02012 10306 20156 39528 40141 58003 91753 333 10317
20222 91020 555 90118=
72267 32666 21515 10272 20161 39040 40122 53005 91753 333 10289
20211 91020 555 90118=
72270 32866 49904 10294 20106 38805 40086 56000 91751 333 10300
555 90118=
72274 32966 02104 10339 20072 39217 40069 91755 333 10333 20218
555 90118=
72278 32966 29906 10339 20089 39714 40089 51004 91756 333 10350
20256 555 90118=
72280 32966 /99// 10333 20139 30012 40084 51007 91756 333 20228
555 90118=
72290 32961 02707 10200 20133 30124 40134 51006 91751 333 10200
20172 555 90118=
72295 31558 22310 10217 20156 30093 40131 51009 705// 91750 333
10217 20172 555 90118=
72304 35961 02207 10233 20189 30209 40211 56007 91751 333 10233
20161 555 90118=
72308 32966 03204 10294 20183 30182 40188 58012 91751 333 10294
20172 555 90118=
72310 32966 02606 10317 20128 30130 40210 58014 91756 333 10322
20183 555 90118=
72311 32966 09904 10311 20139 39933 40219 58010 91753 333 10317
20178 555 90118=
72314 32966 49904 10311 20183 39936 40208 58009 91751 333 10317
20200 555 90118=
72317 32962 80000 10283 20189 39890 40209 58001 91754 333 10289
20200 555 90118=
72324 32766 29904 10306 20150 39978 40222 58012 91753 333 10317
20183 555 90118=
72326 32666 20000 10283 20172 39873 40222 57012 91753 333 10283
20189 555 90118=
72327 32764 29903 10294 20172 30010 40219 58010 91753 333 10300
20211 555 90118=
72334 32666 62109 10300 20206 30105 40206 58002 91753 333 10317
20228 555 90118=
72340 32661 42308 10300 20217 30105 40199 58004 91753 333 10300
20217 555 90118=
72344 32666 41906 10306 20200 30017 40179 58005 91753 333 10317
20211 555 90118=
72351 32666 61811 10328 20167 39790 40145 58004 8/102 91753 333
10328 20233 91018 555 90118=
72353 32766 61613 10317 20189 39702 40153 50001 91753 333 10328
20222 91021 555 90118=
72356 32666 42211 10311 20194 39926 40163 58001 91753 333 10317
20233 91018 555 90118=
72363 12666 41907 10267 20167 38928 40131 51011 69901 91753 333
10272 20194 555 90118=
72365 32866 69903 10278 20022 38379 40085 56002 91756 333 10283
20178 555 90118=
72374 35966 02209 10306 20000 38512 40100 58004 91756 333 10306
20111 91016 555 90118=
72384 32966 09904 10256 20050 39939 40112 58002 91756 333 10256
20161 555 90118=
72386 32966 00605 10300 20006 39353 40099 51006 91756 333 10306
20244 555 90118=
72389 32966 00000 10261 20078 39999 40115 51002 91756 333 10261
20139 555 90118=
72394 32966 03006 10200 20117 30041 40132 53006 91751 333 10206
20072 555 90118=
72401 32966 80000 10283 20194 30132 40195 58008 91754 333 10283
20178 555 90118=
72403 11659 63309 10300 20222 30065 40181 58013 60011 705// 91751
333 10300 20172 555 90118=
72407 32966 02508 10289 20189 30145 40168 58015 91754 333 10294
20150 555 90118=
72408 32766 22209 10289 20194 30144 40166 58018 91754 333 10294
20172 555 90118=
72411 32661 49903 10290 20190 39787 91809 555 90118=
72412 35662 49906 10250 20178 39352 40216 58008 91751 333 10250
20183 555 90118=
72414 31659 40000 10283 20206 39863 40211 58006 705// 91754 333
10283 20211 555 90118=
72421 32661 49906 10289 20194 39891 40200 58013 91751 333 10289
20194 555 90118=
72422 32966 09906 10289 20183 39864 40215 58009 91754 333 10289
20189 555 90118=
72428 31659 49903 10300 20200 39899 40190 58015 705// 91751 555
90118=
72429 32666 22312 10294 20194 39840 40196 58017 91752 333 10294
20222 91015 555 90118=
72432 32964 02509 10306 20194 30061 40198 58016 91754 333 10311
20194 91016 555 90118=
72434 32666 42310 10300 20217 39980 40174 56005 91753 333 10311
20228 555 90118=
72438 32661 22111 10289 20206 39906 40191 58013 91755 333 10294
20211 555 90118=
72440 32666 42108 10283 20200 39734 40181 58003 91754 333 10289
20206 555 90118=
72445 32666 42211 10294 20211 39853 40170 58002 91754 333 10306
20206 555 90118=
72446 32766 42114 10311 20222 39785 40144 56004 91753 333 10311
20239 91019 555 90118=
72450 32866 61915 10317 20194 39674 40138 58000 91756 333 10317
20228 555 90118=
72451 32766 62707 10306 20156 39240 40121 53003 91756 333 10322
20217 555 90118=
72456 32966 02113 10322 20200 39828 40139 58004 91756 333 10322
20244 555 90118=
72458 35766 22507 10300 20183 39617 40129 51006 91755 333 10311
20233 555 90118=
72464 32966 40110 10228 20011 38604 40173 91754 333 10228 20161
555 90118=
72465 32966 00117 10194 20078 38925 40175 53014 91756 333 10256
20139 91022 555 90118=
72476 32966 02305 10256 21017 38552 40113 58010 91756 333 10261
20117 555 90118=
72486 35966 09903 10167 21056 38111 40149 58009 91753 333 10167
20000 555 90118=
72492 32966 03107 10278 20017 30098 40109 50001 91756 333 10272
20094 555 90118=
72503 31658 60906 10278 20172 30144 40156 58013 705// 91751 333
10278 20167 555 90118=
72508 32662 42708 10289 20183 30073 40145 58015 91751 333 10289
20156 555 90118=
72509 32766 41809 10278 20189 30131 40137 58012 91754 333 10278
20156 555 90118=
72515 32666 43305 10239 20150 39609 91756 333 91014 555 90118=
72518 32966 09905 10283 20150 30052 40156 58014 91751 333 10283
20172 555 90118=
72519 32966 82908 10233 20139 30034 40176 58006 91754 333 10239
20183 555 90118=
72520 32666 42505 10272 20172 39757 40199 58007 8/101 91751 333
10278 20217 555 90118=
72524 32562 62506 10261 20200 39913 40192 58020 91751 333 10267
20194 91015 555 90118=
72528 32966 62404 10217 20089 39922 40182 58017 8/071 91754 333
10228 20183 555 90118=
72530 31759 62007 10272 20217 39921 40162 56012 705// 91756 555
90118=
72532 32964 02011 10294 20217 39924 40162 58006 91754 333 10294
20206 555 90118=
72533 32666 22511 10294 20200 39889 40185 56015 91754 333 10294
20189 555 90118=
72537 31558 42012 10261 20206 39941 40180 58015 705// 91754 333
10261 20194 555 90118=
72546 32764 42415 10311 20206 39777 40114 56007 91754 333 10317
20228 555 90118=
72547 32962 01812 10289 20228 39749 40133 58008 91755 333 10289
20183 555 90118=
72552 32666 63521 10178 20117 39521 40178 50023 91756 333 10244
20167 91026 555 90118=
72556 15466 63416 10172 20128 39624 40172 51021 69931 91754 333
91022 555 90118=
72557 32466 83219 10178 20139 39767 40161 53023 91755 333 10211
20172 91025 555 90118=
72562 32966 03419 10189 20056 39227 40197 50004 91756 333 10189
20133 555 90118=
72564 32966 09905 10133 21006 38190 40204 50014 91756 333 10144
20033 555 90118=
72565 32966 20307 10150 20017 38402 40205 50000 91753 333 10172
20061 555 90118=
72569 32966 00105 10139 20006 38428 40223 57005 91755 333 10144
20028 555 90118=
72572 32966 03306 10189 20006 38743 40175 58010 91756 333 10189
20067 555 90118=
72576 35966 01006 10128 21028 38364 91756 555 90118=
72578 32966 09906 10156 20006 38688 40211 56013 91756 333 10161
20006 555 90118=
72583 35966 00309 10189 21039 38696 40159 58011 91756 333 10189
20061 555 90118=
72591 32966 00905 10267 20000 39987 40106 58003 91755 333 10272
20122 555 90118=
72597 32966 09903 10183 20067 39658 40132 58023 91756 555 90118=
72606 32766 21809 10256 20150 30116 40134 56007 91751 333 10272
20144 555 90118=
72617 32666 23412 10239 20144 30031 40156 58004 91754 333 10256
20189 555 90118=
72635 12966 81915 10267 20194 39877 40165 56015 60101 91756 555
90118=
72636 12961 02115 10233 20194 39942 40171 55004 69931 91755 333
91018 555 90118=
72637 12466 42108 10261 20194 39897 40173 58007 69951 91753 333
10261 555 90118=
72638 15566 81007 10172 20089 39779 40195 53001 69901 91755 333
10183 20139 555 90118=
72640 32962 62008 10239 20211 39904 40153 56016 8/070 91752 555
90118=
72641 11459 41610 10244 20217 39835 40142 58015 60061 705// 91753
333 10244 555 90118=
72644 11959 02315 10250 20217 39638 40108 56008 60051 705// 91754
333 10250 555 90118=
72645 31158 61112 10140 20140 39894 761// 91803 333 96010 555
90118=
72651 32466 83320 10150 20111 39656 40168 51025 91756 333 91025
555 90118=
72654 12966 03118 10172 20100 39724 40188 51020 69931 91755 333
91024 555 90118=
72658 32462 83508 10180 20160 39819 91806 555 90118=
72659 12666 63017 10178 20094 39711 40177 51015 69901 91756 333
10178 20100 555 90118=
72662 32966 03316 10156 20044 39107 40219 53005 91755 333 10161
555 90118=
72666 32666 23213 10128 20022 38870 40257 55002 91756 333 10128
20017 91018 555 90118=
72677 32766 43507 10128 21028 39004 40261 58002 91756 333 10133
20033 555 90118=
72681 32966 01511 10183 21006 39200 40200 58017 91756 333 10183
20033 91015 555 90118=
72683 35966 00712 10156 20011 38758 40195 58010 91753 333 10161
21044 91016 555 90118=
72688 32966 09903 10150 20078 39654 40195 58014 91756 333 10156
20050 555 90118=
72693 32464 29903 10130 20090 30026 91814 555 90118=
72694 35966 03606 10167 20100 30082 40156 58020 91756 333 10167
20056 555 90118=
72698 32966 09905 10200 20100 30150 40157 58025 91755 333 10200
20067 555 90118=
72712 12966 03015 10222 20050 39882 40109 58004 69901 91754 333
10222 20161 91019 555 90118=
72745 11148 81011 10083 20083 39633 40151 50015 69951 710// 91755
333 10133 20083 555 90118=
72747 17566 80407 10100 20078 39748 40184 53003 69981 761// 91755
333 10122 20100 555 90118=
72753 12766 49903 10139 20100 39823 40155 50002 69951 91753 333
10139 20106 555 90118=
72764 32666 82916 10106 20050 39590 40192 91752 333 10117 20089
91022 555 90118=
72767 31459 83618 10090 20070 39510 761// 91757 333 96010 555
90118=
72768 11566 83014 10078 20056 39420 40255 51026 69901 761// 91756
333 10089 20039 555 90118=
72772 32666 69905 10094 20000 38895 40283 58006 91756 333 10106
20006 555 90118=
72773 12666 61112 10117 20022 39125 40259 58010 69931 91756 333
10122 555 90118=
72776 32766 62308 10089 20017 38978 40282 50000 91756 333 10094
555 90118=
72777 35566 83205 10089 21044 39338 40279 51003 91756 333 10089
555 90118=
72779 35966 09903 10122 20017 39199 40263 58010 91756 333 10122
21022 555 90118=
72781 32666 80605 10156 20067 39820 40213 58015 91756 333 10167
20056 555 90118=
72785 32766 60511 10133 20039 39380 40226 58016 91756 555 90118=
72793 32466 40107 10156 20100 30022 40185 58020 91756 555 90118=
72306 32964 63207 10294 20194 30050 40205 58003 91751 333 10300
20189 555 90118=
72315 32966 00109 10278 20161 39468 40221 58006 91754 333 10283
20167 555 90118=
72402 32966 42911 10272 20183 30182 40181 56013 91754 333 10278
20144 555 90118=
72405 32762 43110 10300 20211 30155 40179 58013 91751 555 90118=
72406 32666 43210 10300 20206 30116 40171 58012 91754 333 10300
20178 91014 555 90118=
72423 32864 22009 10306 20194 30027 40202 58012 91756 333 10306
20217 555 90118=
72425 32662 62105 10278 20200 39912 40209 58006 91751 333 10289
20200 555 90118=
72504 31758 22209 10239 20150 30153 40159 705// 91754 333 10239
20150 555 90118=
72507 31959 41610 10250 20172 30126 40147 58015 705// 91751 333
10256 20150 555 90118=
72513 31959 03405 10250 20183 39839 40174 58005 705// 91754 333
10250 20183 555 90118=
72521 32562 62904 10261 20178 39752 40192 58013 8/108 91751 333
10272 20206 555 90118=
72529 32966 62806 10239 20078 39980 40179 58015 8/072 91754 333
10239 20183 555 90118=
72535 32562 62210 10278 20206 39894 40171 58010 91754 333 10278
555 90118=
72536 32964 02009 10289 20211 39927 40176 58020 91752 333 10289
20194 555 90118=
72544 32966 02413 10306 20228 39929 40142 91755 333 10306 20194
555 90118=
72592 32966 09904 10278 20017 39926 40102 58003 91756 333 10278
20111 555 90118=
72605 35966 03608 10294 20111 30016 40140 56010 91751 333 10294
20189 555 90118=
72783 35566 49903 10150 20078 39701 40222 56017 91756 333 10156
20050 555 90118=
72784 32774 30409 10170 20076 39942 40210 57015 82101 333 10170
20060 555 90118=
72791 35966 03408 10156 20106 30167 40174 56020 91756 333 10156
20061 555 90118=
87791 32980 53213 10115 20026 30136 40145 57040 85500 333 56700
85625=
87803 32580 60506 10038 21029 39134 40058 57036 81576 333 56000
81620 83360=
87828 32980 42911 10130 20029 30030 40083 57040 80008 333 56006
84270=
87852 32584 63220 10079 20036 39492 40005 57033 81576 333 56666
81630 84270=
87860 32980 83210 10114 20009 39976 40032 57039 82076 333 56065
82360 88270=
87896 32980 63419 10094 20059 39922 40020 57043 80006 333 56006
86270=
87903 32680 80000 10070 21002 39640 49904 58048 8457/ 333 56669
84635 84360=
87909 32980 73413 10050 21003 39896 49972 57037 82078 333 56000
82360 85270=
87925 32980 70213 10058 20024 39892 49915 57049 86078 333 56000
86360=
87938 31575 73214 10072 21019 39861 49930 57041 71522 83570 333 56770
83630 85360=
67765 42784 10000 10125 20101 38718 48559 81400 333 10233 58001
81657=
67775 42980 01104 10144 20068 38560 48563 333 10217 58005=
67779 41965 01501 10135 20090 39117 48559 70500 333 10237 58022=
67853 42980 00000 10100 20026 38987 48553 333 10261 59001=
67861 42980 00803 10175 21017 38780 48556 333 10235 58004=
67867 42980 01302 10087 20053 38645 48567 333 10207 58007=
67881 41970 01003 10101 20067 38644 48567 70500 333 10199 58007=
67965 42980 01305 10116 20040 38750 48571 333 10230 58008=
67975 42680 11206 10115 20090 38998 48575 81500 333 10217 58012
81635=
67977 42980 00000 10152 20101 39749 48587 333 10247 58022=
67983 41665 10901 10123 20112 38973 48585 70500 81400 333 10202
81645=
67991 42980 00000 10172 20048 39672 48574 333 10263 58020=
67843 42980 00000 10128 20078 38992 48544 333 10259 58002=
82287 32596 63607 10291 20258 30043 40069 82275 333 58006=
82392 32598 53602 10319 20233 39971 40073 83631 333 59012=
82480 31597 72301 10318 20225 39897 40078 71511 86301 333 58011=
82493 32596 705// 10306 20230 30081 40095 83806 333 59001=
82583 32599 60510 10221 20191 39759 40095 84202 333 58001=
82586 32598 60506 10310 20203 39869 40105 83204 333 58012=
82678 32598 80804 10321 20203 39948 40105 85831 333 58009=
82686 32598 61405 10300 20217 39865 40111 83340 333 58012=
82689 32598 61803 10300 20197 39830 40094 84501 333 58008=
82693 32699 50907 10338 20175 39839 40091 81406 333 59003=
82780 32698 61405 10336 20197 39842 40093 83294 333 58001=
82784 21596 71804 10243 20226 39656 40124 72922 87800 333
58016 60021=
82789 32599 41403 10241 20195 39001 40111 82260 333 58006=
82791 21599 71803 10303 20204 39805 40089 70252 87500 333
58017 60011=
82795 32597 50504 10280 20195 39494 40106 82101 333 580087200 333 58016=
82879 32598 50904 10338 20162 39831 40096 85100 333 58009=
82882 32698 50905 10322 20226 39659 40073 85200 333 58004=
82893 32798 61406 10242 20232 39210 40106 86200 333 589005=
68174 31956 00806 10099 20073 38848 48574 52012 70500
333 10201 20098 91007 555 91025=
68242 32980 00208 10110 21031 38787 48571 52012
333 10235 20106 91009 555 91024=
68262 32970 00000 10094 20020 38774 48588 52012
333 10213 20094 91001 555 91027=
68263 32970 00000 10109 21025 38547 48571 52010
333 10191 20108 91003 555 91026=
68350 36/// /3606 10064 20001 38718 48570 52015
333 10231 20064 91008 555 91025=
68368 32982 03306 10101 21048 38363 48565 51009
333 10186 555 91026=
68372 36/// /0000 10091 21059 38517 48579 52007
333 10174 20090 91003 555 91027=
68424 32982 00000 10126 21041 39238 48544 52015
333 10275 20125 91004 555 91020=
68438 31974 00406 10088 21062 38868 48562 52014 70500
333 10238 20083 91006 555 91023=
68442 32982 00000 10044 21055 38714 48558 52011
333 10209 555 91025=
68461 32980 00000 10048 21055 38380 48565 52012
333 10172 20048 91001 555 91027=
68512 32982 12708 10103 20068 39057 48542 52008 80001
333 10225 20103 91009 555 91021=
68588 32482 13607 10201 20173 30182 40198 51008 81500
333 10236 555 91019=
68618 32980 02508 10106 20001 39084 48534 52013
333 10225 20104 91000 555 91020=
68668 32980 00000 10118 20073 39345 48544 51011
333 10224 20109 555 91021=
68714 32560 30000 10147 20136 30159 40196 52011 81574
333 10195 20147 91004 555 91019=
68752 36/// /0508 10135 2//// 39493 48524 57002
333 10233 20131 91007 555 91018=
68816 31362 63503 10146 20133 30130 40180 51004 71022 86600
333 10181 555 91018=
68828 32970 33504 10118 20101 39944 40176 51016 80001
333 10246 555 91017=
68842 32980 02106 10140 20077 30084 40158 51012
333 10238 555 91015=
68858 32982 43506 10148 20115 30024 40172 52002 80004
333 10215 555 91017=
80410 32470 81108 10278 20174 39450 40129 8427/ 333 30///
5699/ 58027 84820 84356 1016=
58020 82617 85357 1016=
62309 32560 62905 10218 20188 40108 53003
86500 333   10268=
62325 32960 00000 10227 20202 40101 53001
333   10274=
62332 32960 03414 10238 20202 40105 51003
333   10271=
62387 32960 03607 10296 20116 40074 53004
333   10345=
62459 32960 03206 10262 20195 40034 53001
333   10299=
82599 32570 71307 10295 20245 40119 84201 333 58006=
93004 16/// /3021 10139 20098 40029 52003 69921=
93023 36/// /2902 10126 20099 40031 52006=
93196 36/// /2822 10141 20083 49997 52014=
93305 41998 93239 10140 20061 49928 52002=
93334 16/// /3214 10060 20005 39016 52004 69981=
93404 36998 /3605 10074 20038 49942 52010=
93498 36/// /3221 10108 20049 49925 52026=
93527 16/// /0222 10110 20077 49902 52007 60051=
93597 16/// /3426 10105 20061 49871 52010 69961=
93615 16/// /1011 10072 20064 49857 52011 60121=
93678 36998 /1912 10113 20006 49836 52008=
93709 16/// /1206 10078 20061 49836 52016 69921=
93831 16597 /3302 10045 20030 49855 52012 60111=
93896 11496 81926 10085 20072 49832 54000 6//// 76326 887//
333 88720=
93947 16/// /1818 10015 21009 49923 52007 69921=
93994 16/// /2602 10186 20178 40128 52006 60181=
70194 32666 22610 10150 20030 30079 57003 91755 555 90118=
94151 35/// /2215 10220 30117 40137 57008=
94290 35/// /1317 10198 30142 40149 57004=
91503 31480 60000 10250 20240 40082 57002 69911 70552 81237
333 56099 81815 85278=
91520 31480 70000 10235 20231 40081 5//// 70522 81278
333 56999 81815 83360 86280=
94129 35/// /1010 10207 30099 40122 57008=
94210 35/// /1309 10212 30135 40140 57014=
94289 35/// /1318 10211 30130 40139 57004=
94307 35/// /1015 10201 30138 40178 57011=
94371 35/// /1812 10181 30144 40150 57009=
94379 35/// /2009 10187 30126 40135 57011=
97014 32562 30000 10226 20220 39982 40075 57017 81111
333 56000 57802 81825 80860=
97072 32458 70000 10254 20234 30012 40111 53014 84271
333 56000 57801 82818 80861=
71472 36/// /3611 10089 30225 40243 58002 333 10089 20079 70000=
80002 01570 80503 10261 20233 60111 75099 84130
333 01100 10283 20236 56100 57814 69917 84822 86270=
80022 31462 62704 10306 20247 30113 40115 71522 82931
333 56299 57921 58007 81915 81815 84357=
80028 31460 63406 10277 20265 30099 40116 71511 84903
333 568/9 57991 58007 849156 85070=
80063 31431470 60000 10322 20250 70522 85510
333 5600/ 85615=
80091 31470 70000 10296 20239 70522 82171
333 56999 82815 84357=
80094 32465 73203 10242 20193 38825 83130
333 5600/ 83817 85360=
80097 32570 71611 10298 20150 39764 40110
333 56000 58011 83823 84359=
80099 01559 89901 10268 20229 39934 40079 60011 71565 8587/
333 5699/ 58027 69917 85820 83357=
80112 31570 61006 10211 20132 37916 70522 83201
333 560/0 57893 58014 83820 83070=
10177 20111 70010=
97016 31460 70000 10235 20231 30064 40066 57018 70522 83972
333 56000 57901 57801 81918 82820 80984 80810=
97126 01456 80000 10242 20231 30006 40064 57006 60051 76196 8392/
333 56009 57900 60027 81915 82615 88460 809//=
97182 32458 71206 10255 20235 40081 57010 8327/
333 56009 57800 83818 87360 808//=
83716 32970 82507 10242 20055 39629 40142 57013 80002=
82400 32470 31207 10282 20240 40119 82101 333 59008=
82683 32595 61404 10300 20203 39655 40104 86700 333 58005=
82899 32570 71503 10294 20236 40119 84231 333 58000=
89568 46/// /1425 11365 37468 4//// 5////=
89774 46/// /06// 11353 37262 4//// 5////=
89816 46/// ///// 11258 38182 4//// 5////=
67755 42975 00000 10203 20158 39472 48540 333 10280 58024=
67761 42984 00000 10218 20140 39586 48544 333 10275 58006=
67781 41970 00806 10134 20075 38823 48559 70500 333 10216 58003=
67865 42980 01306 10138 20065 38863 48571 333 10245 58003=
67961 42980 00604 10130 20074 3//// 48/// 333 10235 5////=
24652 42999 20203 10074 20027 40103 52009 80001=
38232 32998 00503 10250 20034 40125 52007   333 10328=
35925 329// 00000 10193 20046 40153 52006   333 10283=
27199 32998 02401 10212 20115 40151 53001   333 10292=
27271 31597 71501 10216 20158 40135 54000 70292 82901   333 10296=
27459 32698 61701 10226 20124 40140 53004 83501   333 10289=
27730 31465 80000 10160 20150 40149 53009 72582 8693/   333 10244=
27083 32599 30000 10214 20128 40139 53004 82502   333 10299=
27242 11497 82802 10187 20169 40150 52025 60010 79598 889//   333
10298 88916=
27329 11465 83602 10130 20123 40163 52012 60050 79198 889//   333
10240 85918 83630=
27355 32582 62706 10218 20131 40152 53017 85902   333 10288=
27373 31599 51602 10195 20141 40144 53003 70291 82460   333 10292=
27665 32597 32401 10233 20137 40146 53001 83900   333 10289=
27823 11582 80000 10164 20147 40157 52003 60020 70282 83331   333
10229=
28009 32998 00000 10199 20118 40151 53001   333 10300=
28411 32997 01802 10205 20104 40163 57002   333 10285=
27225 33466 83005 10115 20076 40170 52017 885//   333 10197=
27252 32984 62702 10205 20125 40136 53018 69900 82031   333 10294=
27369 12680 61502 10227 20154 40141 53005 69900 86300   333 10293=
27393 32998 01602 10235 20093 40162 58003   333 10287=
27479 32999 21702 10234 20113 40145 54000 80003   333 10287=
27532 11597 73602 10181 20143 40143 51002 69900 72598 86330   333
10266=
27648 31597 82802 10200 20147 40150 52007 70292 85311   333 10283=
27679 32977 61602 10231 20113 40153 53006 86071   333 10286=
28214 10210 32999 02501 10210 20127 40156 57002   333 10280=
42123 31995 03602 10330 20245 49964 70600 333 59005=
43157 32596 42701 10244 20218 39421 40048 82530 333 59021=
38001 32997 03604 10226 20192 40148 52006   333 10264=
31285 426// 60000 10096 20088 40107 52003 86500=
31561 42999 30201 10089 20086 40074 53001 83030=
32010 41/92 91508 10011 20011 40131 58012 74741   333 91012 91113=
42103 32996 00000 10296 20216 49966 333 59014=
43311 21596 82703 10254 20251 40077 79596 8497/ 333 57990 59007
6020/ 83620 81925 86460=
84270=
62007 32960 30408 10237 20208 40178 54000 83030 333 10260 83360=
62010 32960 30312 10248 20189 40185 51004 83030 333 10305 83360=
62131 32972 50216 10313 20163 39828 40132 56003 82034 333 10324
82363 84070=
62212 32970 60308 10315 20093 39356 48544 57003 80007 333 10365=
43053 32996 01809 10302 20286 40020 333 59005 =
40001 32970 00000 10254 20054 40039 53011 333 10346=
40007 32970 02705 10272 20081 40048 52004 333 10338=
40045 32970 02902 10288 20043 40064 51003 333 10350=
40080 32965 02203 10268 20093 39383 40052 53007 333 10354=
40095 32970 00000 10250 20139 39466 40070 53007 333 10328=
40009 32970 03001 10250 20164 40045 53004 333 10346=
40016 32970 00000 10270 20126 40053 53007 333 10355=
40022 32965 11701 10246 20207 40101 53002 80001 222// 20000 333 10272 81070=
40030 32970 02201 10262 20106 40060 52008 333 10350=
40039 32970 02501 10282 20068 40049 53004 333 10336=
40066 32970 00000 10281 20180 40088 53003 333 10295=
40072 32970 02901 10300 20044 40P71 54000 333 10360=
40083 32970 00502 10200 20081 48464 51003 333 10280=
33910 11598 80504 10183 20168 40129 52007 60107 78082
88// 333 10272=
91165 12566 20313 10250 20200 30115 40165 53009 69901 91753 333
10244 20222 555 90118=
91182 12666 69903 10233 20200 30153 40157 51008 69931 91753 333
10250 20217 555 90118=
91190 32966 00310 10250 20183 30131 40162 53005 91754 333 10250
20206 555 90118=
91212 12966 00707 10272 20244 30008 40105 56011 69901 91754 333
10306 20272 555 90118=
91285 12566 82408 10217 20194 30152 40164 51009 69931 91753 333
10244 555 90118=
91334 11472 81213 10255 20254 30073 40076 56008 60091 78082 8432/
333 5639/ 70310 555 90118=
91348 11474 81512 10255 20221 30032 40084 56010 69951 70282 8627/
333 5649/ 70490 555 90118=
91366 11569 80913 10268 20233 30078 40087 51005 69901 70282 81171
333 56235 555 90118=
91376 32474 80914 10276 20234 30087 40095 53005 8/806 91757 333
10278 20244 555 90118=
91408 32474 81409 10278 20230 30042 40080 57012 82278 333 56399
70051 555 90118=
91413 31469 89905 10268 20250 30063 40082 58008 70282 83171 333
56999 70013 555 90118=
91245 32566 20713 10260 20250 30137 91750 555 90118=
62420 32960 00103 10294 20102 40095 53008
333   10356=
62435 32960 03006 10314 20071 40073 53013
333   10380=
62455 32960 03413 10292 20131 40079 53012
333   10328=
20046 42476 72105 10005 21015 40001 58016 87500 333 10016
87612=
20069 41862 81709 11007 21017 40048 57026 77973 8802/ 333
91113=
20087 41462 72009 11029 21036 40113 57042 77173 875// 333
87610 91113=
20292 42376 82604 11047 21050 40180 57010 886// 333 88707=
20667 32998 72109 10005 21015 40147 58027 87030 333   10006 91112=
20674 42480 71907 11020 21038 40195 57012 8253/ 333 87350=
20744 11/92 92009 10019 20019 40108 52026 60020 74542 333   10159
91119=
20891 41497 70304 11007 21019 40175 52009 78582 8535/ 333
85917=
23022 32997 51809 10087 20011 40127 57010 83031 333   10130 91111=
23032 32968 00807 10035 20006 40163 57014 333   10065 91108=
23256 32999 30105 10007 21013 40178 57003 83030   333 10065=
23330 32998 21601 10097 20013 40184 57003 80001   333 10129=
23552 41997 03404 10053 20012 40159 57001 70730   333 10110=
23631 32998 20000 10061 20024 40186 57004 80001   333 10151=
23734 32998 13401 10098 20041 40190 53003 80001 333 10180=
23849 42996 03404 10088 20013 40150 52007=
23933 32997 00000 10080 20023 40188 52006 333 10142=
28275 32999 03302 10106 20030 40173 52011   333 10141=
28493 32999 32902 10056 20027 40126 52006 83030   333 10118=
28698 32984 00104 10070 20025 40122 52016   333 10155=
23929 32998 00000 10081 20032 40195 52003 333 10173=
28383 32584 63301 10086 20040 40134 52004 83930   333 10130=
28465 32998 03504 10103 20017 40169 52014   333 10167=
28586 32998 33404 10046 21002 40135 52003 83040   333 10125=
28588 32584 23203 10044 20011 40139 52005 82500   333 10133=
28688 32975 00203 10067 21009 40139 52012   333 10147=
28696 32999 13503 10076 20030 40113 52013 80001   333 10165=
28791 32984 00504 10079 20021 40126 52017   333 10153=
29367 42984 21901 10131 20110 40039 52011 80001=
23426 32986 11902 10107 20034 40182 57003 80001   333 10150=
28076 32997 00102 10093 20027 40183 52015   333 10139=
28367 32999 00201 10095 20046 40178 52014   333 10160=
28382 32997 13504 10084 20027 40147 52012 81040   333 10139=
28481 32598 33601 10076 20029 40149 52004 83500   333 10134=
28491 32980 60000 10051 20016 40127 54000 86030   333 10100=
28573 32980 00000 10062 20046 40154 52004   333 10140 91112=
28593 32983 03204 10052 20025 40120 52010   333 10136=
28598 32998 00104 10060 20012 40132 52017   333 10141=
28786 12999 30303 10088 20023 40122 52016 69940 82032   333 10156=
28797 12997 20104 10079 20040 40118 52014 69900 80001   333 10153=
28799 11998 80202 10096 20045 40100 52016 69910 70282 80001   333
10166=
23662 32999 03603 10065 20007 40111 52003   333 10114=
23788 41597 83002 10085 20092 40034 52006 72022 889//=
23986 42984 20000 10078 20071 40038 51001 82031=
36087 41697 50901 10150 20068 40151 52003 70282 85900   333 95050=
36096 42698 80000 10198 20082 40005 52024 889//   333 95090=
36103 42699 20000 10112 20070 40238 52010 82900   333 95090=
36307 42899 70901 10142 20025 38820 48408 54000 87010   333 95090=
41678 319// 00000 10356 20256 49963 70500  333 59002=
41600 319// 00000 10300 20203 49958 70500  333 59024=
41506 329// 03609 10248 20033 48440  333 58007=
11101 10101 00010 10110 1011/
/////
2//// 3//// 6//// ///// ///// 8//// 9//// ///// ///// //004
11101 11111 1011/
11111 110//=
60360 32665 50508 10238 20172 40199 56003 81202
333 10277 81833 85073 95900=
60419 32570 20308 10267 20156 40187 53006 82202
333 10305 82826 95900=
60531 32570 73604 10280 20170 40159 55002 83232
333 10323 83826 84360 95900=
60566 32660 21208 10361 20113 40148 56009 82200
333 10375 82840=
60611 32660 30216 10330 20044 40123 53005 83200
333 10353 83840=
60670 32780 43503 10331 20061 39054 48524 55001 84202
333 10356 84850 95900=
16059 31940 00902 10233 20148 39887 40221 55005 71010
333 10250=
16080 32560 11504 10262 20143 30096 40215 55008 81200
333 10285 81830=
16153 32997 20104 10247 20172 39961 40216 58003 81034 91745 333
10253 55303 81360 555 0114/=
16105 32965 01503 10220 20114 30232 40238 55003
333 10238=
16191 32980 00403 10215 20109 30220 40237 55001
333 10243=
16158 32968 03207 10254 20154 30201 40208 55000 91745 333 10288
55310=
16242 32965 02907 10237 20141 30196 40199 50000
333 10268 555 0////=
16310 32598 11408 10252 20241 39967 40180 55001 81100 91745 333
10266 55310 81830 555 0216/=
16261 32980 03414 10220 20005 30134 40205 54000 91745 333 10272
55310 95000=
16320 32960 03017 10236 20109 30170 40182 56002 91745 333 10264
55310 555 0327/=
16420 32997 30506 10240 20181 30114 40177 55001 80001 91745 333
10272 55305 555 0200/=
16429 32464 43513 10226 20206 30170 40181 56003 81201 91745 333
10250 55310 81815=
16470 32260 53409 10202 20191 39959 40190 55000 85500 91745 333
10228 55310 22114 85605 95060=
16410 32970 01006 10234 20167 30050 40186 55000 91745 333 10274=
16560 32570 51608 10242 20234 30191 40197 58001 81201 91745 333
10312 55310 81830=
16066 31935 02704 10231 20124 39974 40225
57006 71011=
16084 31958 01102 10258 20130 30058 40217 56004 71000 91745 333
10268 55310=
16120 32960 02603 10227 20192 30208 40211 58003
333 10292 97062 555 0200/=
16090 32665 11803 10242 20125 30141 40220 56005 81100 91745 333
10253 55307 81840=
16170 32965 00409 10276 20135 30153 40196 55002
333 10306=
16206 32970 02110 10260 20165 30189 40197 56004 91745 333 10290=
16289 32965 01410 10253 20096 30112 40195 53003 333 10294=
16405 32960 00414 10237 20179 30137 40177
333 10298 95400=
16460 32470 30804 10240 20152 30168 40188 53005 83100
333 10287 83630 95711=
16362 32560 22502 10227 20196 30163 40180 51002 82100
333 10255 82820=
16008 42981 03605 10192 21004 38598 48559 53002 91745 333 10202=
16020 32970 01714 10235 20115 39914 40192 53001
333 10263=
16040 32665 31202 10160 20096 39330 42851 53006 83200 91745 333 10220
83840=
16110 32680 12604 10238 20142 30205 40229 55001 81200 91745 333
10246
55310 81840 555 0200/=
16134 31/12 60000 10114 20093 37921 48581 58001 71011 86200 91740
333 10122 55300 86800 95090 95190 444 78//5=
16149 32980 00909 10214 20126 30215 40230 58002 91745 333 10232=
16280 32997 03007 10236 20214 39971 40185 53001 91745 333 10286
55305 555 0217/=
16230 32975 03304 10230 20104 30209 40222 55003
333 10249=
16252 32968 00110 10188 20062 39300 42853 54000 91745 333 10210
55310=
16270 32960 03114 10219 20113 30152 40203 51003
333 10256=
16360 32998 00221 10232 20052 30034 40164 50000 91745 333 10274
55310 91034 555 0////=
16400 32998 50108 10226 20208 39903 40183 56005 83061 91745 333
10252 55309 22/// 83359 555 0100/=
16453 32997 31905 10230 20177 30102 40177 54000 80004 91745 333
10250 55305 98077 555 0100/=
16480 32998 40408 10238 20142 30125 40185 53003 80001 91745 333
10282 55305 555 0100/=
16520 32970 01603 10229 20164 30167 40194 56004
333 10268=
16522 32998 43412 10198 20174 39969 40208 56001 80001 91745 333
10212 55310 555 0200/=
16539 32597 33205 10208 20187 30088 40200 54002 81204 91745 333
10220 81830 555 0100/=
16550 32998 30708 10186 20168 30022 40199 53003 80001 91745 333
10262 55310 555 0300/=
16564 32998 41005 10232 20196 30059 40196 58004 80001 91745 333
10270 555 0113/=
62600 32970 00204 10345 20115 39856 40059 10390 59003=
62640  31965 02912 10375 20035 39707 40047 70700
10436 58007=
62641 32970 03505 10310 20204 390012 40059 10395 58000=
62650 32970 03507 10360 20090 39798 40056 10415 58006=
62660 32970 03202 10365 20050 39/// 40/// 10438 5///=
62680 31968 03103 10380 20100 39643 40016 70600
10450 58007=
62721 31730 72705 10350 20170 39629 40053 71322
81947 10425 56249 58026 981950 83365 87275=
62730 32970 03101 10353 20132 39/// 40/// 10426 58///=
62733 32970 72302 10357 20113 40045 80007
10415 56009 59002 87275=
62751 32970 73101 10336 20160 39600 40043 80007
1044 56009 59013 872765=
62752 32970 72001 10345 20150 39391 40039 80007
10394 56009 59006 87275=
62760 31968 00602 10345 20075 39244 40020 70600
10390 59004=
62762 32970 72504 10344 20184 39565 40018 80007
10400 56009 59018 87275=
62770 31958 723402 10320 20100 39186 40045 70622
83047 10393 56029 59002  83365 87275=
62771 32970 71811 10290 20220 39406 40033 87070
10366 56090 59006 87365=
24944 42999 80000 10092 20038 40077 53002 82049=
43189 21596 89902 10258 20238 30020 40029 79596 8497/ 333 57932
59003 6004/=
43245 32996 02302 10296 20245 30001 40023 333 59010=
43329 31596 42504 10290 20222 30033 40046 71322 82301 333 57912
59001=
60511 32570 20411 10323 20013 39089 48557 53002 82200
333 10342 82826 95900=
60535 32770 20605 10303 20070 38890 48554 55003 82203
333 10316 82847 95900=
60549 32560 50000 10310 20114 38908 48551 51003 85200
333 10358 85830 95900=
60550 32670 52706 10308 20021 38712 48562 56003 85200
333 10335 85840 95900=
60560 32670 62910 10320 20060 38984 48546 56003 85202
333 10356 85840 95900=
60620 32960 20406 10410 2//// 40092 56007 80002
333 10428 82075=
16622 32870 23614 10230 20108 30167 40173 52012 82040 333 10260
90730 91136 555 10000 40224 30000 10272 20274 30278 40274
50248 40000 47663 44270 50000 50162=
16641 32970 03212 10246 20146 30128 40134 56003 333 10294 90730 91128
555 10000 40220 40000 47630 44235 50000 50186=
16682 32560 13508 10230 20179 30120 40138 54000 81100
333 10262 90730 91118 555 10000 40224 30000 10314 20310 30302 40290
50250 60224 40000 47629 44270 50000 50198=
16716 32565 50707 10250 20147 30119 40137 52021 85800 333 10312 82825
85645 90730 91122 555 10000 40248 40000 47625 44245 50000 50188=
16734 32565 23212 10216 20188 30064 40124 57001 81240 333 10240 90730
91116 555 10000 40214 40000 47584 44240 50000 50198=
16743 32960 00620 10224 20166 39936 40130 53006 333 10260 90730
91129 555 10000 30260 40000 47487 44235 50000 50188=
16754 32465 33411 10228 20194 30079 40124 53005 81240 333 10264 81818
83359 90730 91114 555 10000 40228 40000 47598 44260 50000 55206=
16643 32560 22812 10236 20182 30132 40135 55000 81230 333
10260 90730 91121 555 10000 40230 40000 47635 44260 50000
50202=
16648 32660 30318 10226 20084 30069 40155 53016 83100 333 10290
90730 91126 555 10000 40226 30000 10254 20258 30254 40236
50226 60196 40000 47588 44260 50000 50150=
16650 11570 30210 10198 20158 30150 40154 51006 69902 70196 81130
333 10234 90721 555 10000 40198 30000 20248 30262 40262 50248 60226
40000 47648 44255 50000 50174 60000 60000 60030 70000 77/// 7TR//=
16684 32560 30210 10202 20169 30113 40138
53009 82240 333 10250 90730 91115 555
10000 40200 40000 47621 44255 50000
50180=
16732 32962 23614 10214 20175 30123 40136 52009 80001 222// 00194
333 10272 90730 91126 555 10000 40214 40000 47628 44240 50000
50190=
10400 56009 59018 87275=
16614 32570 10517 10172 20108 39414 40174 53012 81200 333 10240 90730
91127=
16627 12560 7//// 10180 20138 30150 40154 54000 60082 84570 333 10196
84625 87360 90730 911// 555 10000 40178 30000 10186 20200 30210 4////
50224 60200 40000 47655 44235 50000 50156 60000 60084 60240 70000
77/// 7R///=
16667 32565 33210 10220 20168 30127 40133 53008 83200 333 10308 90730
91126 555 10000 40222 30000 1//// 20304 30310 4//// 5//// 6//// 40000
47632 44255 50000 50188=
16675 32565 70000 10244 20145 30136 40155 52023 85550 333
10320 85625 86359 90730 91116 555 10000 40230 30000 10280 20280
30272 40262 50250 60204 40000 47640 44270 50000 50184=
16710 32564 51010 10170 20084 39385 40134 53015 85200 333 10258 90730
91116 555 10000 40100 30000 10268 20244 30254 40240 50214 60194 40000
47067 44200 50000 50124=
16723 32970 33614 10254 20144 30097 40105 53001 80005 333 10300
90730 91126=
16738 32560 20216 10220 20202 39937 40127 51003 82100 333 10310
90730 91122=
16746 32960 03110 10234 20162 39949 40122 53007 333 10302 90730 91116
555 10000 30228 40000 47500 44260 50000 50190=
58562 11656 81601 10242 20235 40090 57015 60021 78098 884//
333 10298=
44213 32699 70000 10172 20095 38673 49994 58006 87500=
44215 32698 72702 10166 20059 38313 49986 54000 87600=
44225 32998 30000 10102 20059 38217 40086 53004 81041=
38388 32998 03604 10260 20040 40126 52019 333 10335=
38413 429// 00502 10203 21027 40136 52016 333 10280=
38457 31999 00701 10187 20080 40109 52016 70233 333 10290=
38507 22596 80403 10267 20122 40106 53007 885// 333 69900
10303 88633=
38545 32998 00106 10246 20137 40120 52025 333 10304=
38656 32998 20000 10284 20046 40096 53006 82050 333 10353=
38687 32996 03603 10203 20077 40101 52013 333 10322=
38880 326// 80302 10290 20055 40096 52006 86530 333 10350=
38895 32997 30203 10272 20113 40099 52013 80001 333 10330=
38927 32997 20000 10248 20086 40053 52013 82030 333 10367=
38974 329// 80503 10291 20034 40080 52026 86070 333 10352=
44216 32599 70000 10209 20015 38855 49997 54000 87500=
44219 32698 40000 10165 20013 38497 49935 51004 84500=
44221 325// 80000 10130 20054 38485 40024 53005 8654/=
44224 32998 50000 10161 21038 37996 40009 54000 85070=
44266 329// 63604 10116 20002 37749 40053 52003 83044=
44286 329// 02009 10203 20004 38601 40028 52003=
44317 32998 21405 10136 20006 38945 40148 52002 82040=
44325 326// 71410 10239 20140 38760 40013 53013 83580 333
91214 555 96108=
44338 32999 00000 10173 20036 38443 40067 57006=
44348 329/=====0000 10162 200======8684 40120 54002=
44386 329// 00502 10179 20035 39002 40095 54000=
98135 31470 20902 10270 20250 40109 58008 70544 81105 333
56299 81819=
98232 31570 21802 10260 20233 40081 58013 70544 82200 333
56999 82820=
98329 31470 10402 10254 20243 40080 5/025 70544 81200 333
56999 81818=
98653 11468 82001 10262 20246 40082 58013 60021 71562 8397/
333 56999 83917 88358=
33393 11597 60102 10124 20081 40245 52007 60022 70282 86300
333 10138 84932=
33658 11597 82905 10127 20100 40232 52013 69902 78082 8637/
333 10155 85920=
33791 32797 83406 10184 20114 40149 52008 86501 333 10211
86650=
33837 32699 83003 10188 20103 40167 53010 8535/ 333 10240=
33946 32659 62002 10186 20153 40133 51007 86300 333 10241
86640=
34300 32497 83308 10190 20137 40142 53012 883// 333 10212=
38353 114// 81301 10122 20093 40109 58003 60040 78082 889//
333 10231=
38392 32997 00105 10227 20059 40137 52020 333 10322=
38696 329// 01601 10192 20064 40102 53018 333 10295=
38750 32997 02708 10230 20191 40119 52003 333 10290=
22550 31497 83004 10142 20045 40163 54000 76062 8577/ 333
10177 85711=
22583 31684 72701 10189 20127 40136 57002 71791 83972 333
10264=
22845 11397 83103 10092 20088 40169 53015 60040 76186 8872/
333 10131 86708=
27037 11470 82902 10120 20104 40163 52029 60140 70282 889//
333 10229 86710=
10385 32884 72102 10207 20067 30147 40206 55007 8147/ 333
10224 20109 55300 81657 87465=
10637 32682 32002 10225 20114 30074 40206 56011 81231 333
10229 20117 55310 81844=
17609 32965 12601 10245 20201 30082 40084 53002 80002 333
10308 81075=
12330 32970 51603 10186 20072 30126 40231 57004 81069 333
10203 20123=
12375 32770 69902 10161 20057 30123 40251 52002 81201 333
10184 20112=
12843 32684 40502 10204 20045 30075 40239 53007 83402 333
10220 83643=
13272 32970 23303 10183 20105 30118 40235 51005 82030 333
10218 82358=
96035 31550 50000 10247 20239 30091 40086 52003 70521 83536
333 56000 83620=
96073 11450 80000 10246 20230 30081 40088 56002 60031 76166 8697/
333 56009 57900 86910 80900=
38763 32597 70000 10294 20092 40090 52014 83240 333 10369=
38911 32997 03303 10246 20046 40072 52015 333 10345=
38987 329// 00305 10272 21027 40065 52023 333 10358=
10338 11782 71902 10196 20095 30114 40184 57009 69902 70262
8557/ 333 10204 20121 55300 85656 87460=
16597 32965 40803 10240 20182 30102 40187 53005 80001 333
10298 84075=
17060 11560 70307 10164 20136 40153 51009 60102 78088 85270
333 10244 85830 87359=
17128 32670 60502 10190 20088 39034 40087 56004 84250 333
10252 84840 85360=
17170 32670 30000 10144 20068 38329 48493 53004 83100 333
10190 83835 10098=
17200 32970 02903 10208 20119 39143 40074 53003 333 10294=
11518 32789 42302 10179 20085 39802 40228 58005 81141 333
10201 81856 83076=
15420 11560 43201 10166 20137 30084 40191 52008 60022 70181
82370 333 10196 31026 91001 91201=
22768 31496 83603 10160 20150 40128 55001 78098 889// 333
10212 86912=
22887 32570 61502 10208 20174 40119 57001 83131 333 10313=
83924=
23711 32580 60102 10158 20113 40154 53012 82501 333 10273=
23804 32998 62201 10206 20136 40126 56001 85031 333 10305=
57912 59028=
23219 32998 61903 10169 20073 40130 56001 84032 333 10253=
23226 32980 31405 10124 20019 40164 57005 80001   333 10189=
23803 11599 80703 10219 20130 40144 53007 69900 70298 333 10296 85929=
23412 32498 73303 10193 20125 40145 53004 82331 333 10251=
22695 11984 73604 10182 20123 40126 53004 69990 70298 84031 333 10306=
23701 12880 80000 10221 20170 40129 54000 69900 83045 333 10319=
22292 42578 11706 10100 20070 30151 40156 52000 81100=
22282 42576 11802 10069 20042 30142 40153 52018 81300=
98748 31470 22401 10260 20/// 40066 58012 70544 81101 333
56999 81818=
48806 31498 70702 10222 20220 39316 40076 51006 71311 879//
333 58019 82894 85996=
59017 6002/ 83620 83825 81930 85360=
57962 59004 6001/ 82620 81930=
58004 6004/ 83710 83615 88458=
58002 82210 83415 85070=
57942 58004 6002/ 83620 81925 88460=
60351 32980 23408 10250 20161 40196 55002 80002
333 10279 82070 95900=
87257 32565 60508 10154 20102 30101 40207 57036 84270 333 56170
84830=
87320 32570 80914 10128 20076 39634 40171 57028 885// 333 56200
88630=
87328 32680 53602 10158 20072 39503 40162 57043 85500 333 56700 85640
95010=
87349 32470 83608 10110 20079 39794 40198 58033 886// 333 56099
88719=
87467 32570 50206 10129 20064 30068 40207 57035 82860 333 56880=
71900 46/// /2908 39951  53006=
62772 32970 72902V 10335 20195 39621 40038 80007
10400 56009 59001 87275=
62781 31770 70000 10350 20150 39442 40048 71322
81907 10405 56309 57932 59001 81956 87275=
62790 32970 70908 10350 20160 39346 40035 81047
10353 56069 59008 81365 87275=
62795 31770 70305 10340 20170 395344 40015 71722
82947  10410 56119 57912B 58012 81950 82656 82365 87275=
62801 31770 70902 10330 20180 39622 40043 71322
81970 10402 56190 57910 59019 81950 87365=
62803 32770 71810 10286B 20170 39099 40048 82557
10337 56399 58004 82650 85365 87275=
62805 32970 70000 10320 20170 39500 40011 80007
10390 56009 59029 87275=
62809 232970 70000 10357 20189 39/// 40/// 80007
10402 56009 5/// 87275=
62840 32970 72602 10305 20210 39641 40096 82047
10370 56089 59013 82365 87275=
88903 41580 31000 10010 21019 49923 52023 70300 8/28/=
71800 46/// /2115 30079  58028=
48602 31564 70902 10262 20250 30074 40077 70522 82552 333 82626
85366 87076=
48603 32570 70000 10262 20251 30077 40082 82542 333 82630 87078=
48625 32564 70000 10267 20244 30034 40082 82542 333 82626 87078=
48674 11060 72603 10236 20235 30029 40079 69901 71362 84952 333
81700 81917 87364=
48679 32564 70000 10246 20240 30031 40080 81542 333 81622 86080=
71403 36/// /2313 10105 20098 30102 40114 58011 333 10105 20080
70000=
10402 56009 5/// 87275=
43221 32596 41402 10310 20238 30006 40019 82431 333 59009=
98531 32470 50402 10260 20247 40074 58009 82202
333 56999 82618 83080=
98536 32465 30603 10278 20248 40073 58016 82261
333 56199 82818=
98646 32560 43401 10284 20254 40093 58018 81101
333 56999 81820 84080=
98747 31470 31802 10242 20220 40063 57015 70544 81201
333 56999 82818 83075=
98753 31465 70000 10262 20243 40075 58008 70544 82238
333 56999 82816 86279=
40250 32970 00000 10298 20075 39307 40051 53004 333 10348=
40265 32960 02408 10246 20145 39326 40083 52004 333 10335=
40296 32965 00000 10318 20155 40091 52011 333 10375=
40310 32960 03210 10256 20102 38895 48464 54010 333 10345=
40255 32960 00000 10240 20122 39412 40099 54002 333 10310=
40260 32960 03310 10308 20138 39323 40054 53006 333 10365=
40270 32960 02805 10240 20103 39219 40072 52004 333 10330=
40272 32960 03106 10250 20167 39275 40069 52005 333 10334=
48380 12560 80000 10252 20246 39950 40044 60153 83546
333 58009 70150=
43150 31596 42705  10298 20221 39960 83930 333 57952 58007 82620
81930=
65528 32460 6//// 10296 20223 39628 40094 83232
333 10314 58020 83815 83360 85076=
65536 32460 6//// 10292 20232 39678 40102 82202
333 10312 58014 82813 86080=
65555 11960 72606 10224 20218 39667 40107 60062 72996 87070
333 10300 59001 87360=
65557 31460 70000 10240 20225 39875 40109 77992 87900
333 10320 59002 87813 81923 95337=
65562 32460 7//// 10295 20253 82272
333 10315 82813 84360 86080=
65578 11456 82503 10242 20237 30107 40117 61112 79596 8497/
333 10291 58026 81916 84620 88460 95370=
65592 12460 7//// 10270 20228 30091 40114 60012 87200
333 10292 58007 87813=
65599 11460 8//// 10264 20229 30029 40103 60032 70262 8697/
333 10275 58011 86913 88360 95331=
43353 21396 84952 10240 20240 40103 76086 8492/ 333 55679
05793 25801 46010 81708 83612 81925 88458=
40357 42962 00806 10320 20020 39439 40031 333 10400 58005 55///=
15450 01560 70000 10170 20170 39970 40200 52010 60012 79582 85960 333
10212 31040 69937=
98222 31975 10901 10277 20248 40101 58006 70544 80001
333 56999 81077=
98324 31470 20401 10262 20227 40082 58012 71344 81901
333 56999 81915=
98334 32470 83603 10264 20237 39893 40096 57012 8227/
333 56999 82818 88358=
98425 32458 73601 10285 20215 40080 57012 83108
333 56999 83817 87280=
98427 11475 40000 10256 20237 40084 58012 60041 71321 82968
333 56999 82918 83357=
98428 32560 20902 10276 20241 40088 58016 82400
333 56999 82620=
98432 31468 50000 10264 20243 40101 58013 71344 81902
333 56999 81918 84075=
98434 11465 70000 10270 20257 40100 58014 60051 71362 84370
333 56999 84918 86358=
98435 32470 70401 10266 20231 40091 58009 83202
333 56199 83818 86072=
98447 12470 60403 10257 20248 39820 40082 58019 69941 83202
333 56999 83818 85070=
98538 31464 70404 10274 20252 40082 58011 71522 83268
333 56229 83811 83357 86272=
98546 31472 71601 10256 20245 40100 58012 71322 82968
333 56999 82918 88275=
98548 32465 30000 10260 20258 40086 56007 81108
333 56999 81816=
98553 11465 62702 10250 20238 40094 58011 60061 71322 83941
333 56999 82915 85075=
98558 11466 70802 10260 20247 40088 5/010 60011 71382 83970
333 56999 83915 85358=
98642 31470 30403 10285 20248 40069 58012 71322 83901
333 56199 83915=
98751 32465 40000 10206 20197 39420 40088 57010 82201
333 56999 82815=
98752 31468 30000 10258 20247 40077 58011 70544 81271
333 56999 81818=
98851 32472 50000 10252 20236 40072 5/008 82208
333 56999 82818 85275=
15614 11698 72503 10146 20089 39517 40205 52011 69962 70222
87300 333 10168=
59321 32580 12203 10267 20259 40117 57007 81100 333 10310=
56778 32565 32003 10198 20165 38082 54000 83400 333// 00100
10262=
10224 20109 55300 81657 87465=
10203 20123=
41660 319// 01802 10256 20011 48416 70600 333 59012=
57923 57964 59012=
42348 31996 02701 10346 20176 49982 70500 333 59006=
42369 31996 32502 10298 20221 49984 70510 83030 333 59017
6001/=
42724 32596 40000 10260 20242 40025 82501 333 58003 82620=
43192 21495 82703 10264 20250 40064 79262 8673/ 333 59013
57982 6010/=
71433 36/// /0807 10061 20061 39962 40193 58018 333 10094 20037
70002=
71841 46/// /1406 10133 20026 39810 40204 58026 333 10143 20021=
71122 36/64 ///// 10118 21071 38644 40243 56018 333 10119 21041
70000=
42111 31695 40501 10256 20218 39243 49983 70522 83530
333 58000=
42542 32996 02306 10334 20221 39450 40000
333 59004=
41150 42962 03210 10321 20231 40001 333 10378 59019=
41170 42964 00304 10304 20242 39992 40005 333 10389 59020=
41184 42960 02103 10300 20231 40004 333 10430 59010=
41194 42960 01802 10298 20215 39987 49999 333 10390 59015=
41196 42960 01504 10287 20191 39959 49997 333 10414 59014=
41216 42960 00202 10282 20248 39996 40000 333 10396 59015=
41217 42960 00000 10293 20248 39973 4002 333 10405 59013=
41244 36/// /2406 10333 20176 39670 40021
333 0/035 10444 59000  =
41246 31558 10000 10319 20255 39990 49995 70500 81500 91816
333 1//// 59018 81625 =
41256 31959 13002 10310 20280 39975 49984 70500 80001
333 10374 59028 81075 =
41268 32960 01803 10334 20274 39990 40005 333 10409 59014=
41288 31957 02010 10285 20257 39992 40014 70500 333 10344 59013=
41314 32960 01718 10279 20225 39531 40044 333
10400 59018 =
41316 32560 32008 10291 20259 30008 40033 83500
333 10323 59015 83625 =
41055 42960 03613 10290 21040 38335 48474 333 10360 59007 55107 555
04410 50000=
10131 86708=
22471 32684 83604 10150 20080 40154 58010 8293/   333 10187=
22837 11999 70000 10100 20085 40195 53001 60080 70282 80005   333
10111=
22954 11268 83304 10124 20117 40142 52013 60030 70298 887//   333
10218 86704=
27113 11497 73404 10088 20076 40177 52013 60020 70282 83331   333
10125=
22641 31478 81402 10123 20095 40170 53011 78082 8693/   333 10175=
22854 11584 82803 10106 20084 40146 53002 69930 70282 889//   333
10161 86620=
22867 11468 80000 10172 20167 40123 52002 60070 78098 8697/   333
10270 86918=
22939 11497 82903 10088 20076 40182 52007 60050 72582 883//   333
10115 88915=
27008 11982 63202 10113 20076 40192 52012 60120 70282 80009   333
10131=
10253 55303 81360 555 0114/=
22165 32975 61507 10082 20057 40152 58004 81031   333 10095=
27051 11465 80000 10187 20162 40129 52017 60070 70298 8853/   333
10293 10293 83920=
27066 32498 62203 10203 20169 40132 53003 83330   333 10296=
96163 01558 80000 10244 20238 30087 40094 57002 60131 72166 84521
333 56000 60137 84620=