ZCZC 000
SMCI10 BENJ 010000
AAXX 01001
82879 22215 00253 20504 323// 40905 5//// 6//// 80235 ICE /////=
70200 822// 22274 00278 20601 308// 40801 80300=
59293 32570 40000 10281 20239 30045 40092 52016 81141 333
00100=
53782 31950 80000 10206 20168 40065 52004 71000 8802/ 333//
00401=
57522 31757 70401 10217 20200 40009 52001 71000 875// 333//
05804 79999=
54337 31956 80402 10165 20151 30023 40106 52023 71000 8802/
333 00651 70003=
54218 32970 30000 10167 20129 39458 40113 52016 80002 333//
00952 70165=
57602 31930 42501 10234 20205 40002 52006 71000 84040 333
05704=
51133 32680 40202 10136 20092 39450 40062 52002 81402 333//
00253 79999=
58834 31440 73201 10238 20226 40107 52015 71000 876// 333
00352 70051=
52652 32975 81802 10170 20092 38441 40014 52008 8807/ 333//
05103=
50527 32970 10405 10160 20088 39430 40128 52011 80002 333//
00751 70003=
59855 11573 71404 10285 20260 40052 52013 60041 70080 872//
333// 05201 70049=
59948 11578 70903 10287 20261 30036 40044 52007 60121 72598
82202 333// 05200 70138=
57006 11765 82502 10190 20145 40022 52010 69931 76060 885//
333// 00051 70003=
59626 11575 70404 10272 20257 40062 52018 60101 78098 86942
333// 05101 70101=
57127 32961 82501 10204 20169 39462 40031 52013 8807/ 333
05301=
51828 31959 72203 10190 20026 38548 40001 52005 70600 80002
333// 05100=
59845 32580 71403 10281 20247 40048 52012 82262 333// 05202
70026=
54662 32960 50402 10174 20139 39975 40093 52011 85030 333
00401 79999=
59647 32580 70904 10279 20255 40062 52021 82902 333// 05151=
56096 11765 80000 10199 20158 38855 40019 52011 69901 72160
885// 333// 05151 79999=
59134 32562 70000 10279 20249 39947 40104 52023 81142 333
00101=
57584 32970 71803 10276 20234 40062 52019 8704/ 333// 05107=
53513 32970 61102 10175 20035 38939 40076 52012 80002 333//
00354=
53915 11780 83402 10182 20121 38583 40012 52015 69901 76060
885// 333// 00100 79999=
54094 32965 02504 10176 20108 39823 40106 52007 333 00552=
53463 32980 50902 10198 20046 38919 40081 52011 82032 333//
00551=
56080 11980 80000 10089 20071 37136 52006 69901 70060 8807/
333// 05102 70038=
54602 32960 83605 10209 20159 40090 52014 80007 333// 00751=
59046 32580 22002 10282 20236 40073 52021 81131 333// 00001=
54326 32780 20000 10192 20138 40103 52020 82100 333 00800
70076=
51705 32880 62703 10111 21004 37789 54000 82402 333// 05201
79999=
51709 32980 22001 10140 20078 38635 40023 52003 82062 333//
05355 79999=
51716 11868 70203 10208 20047 38805 49997 52014 69901 72500
879// 333// 05305 70003=
57608 31950 20000 10232 20216 40003 52006 71000 82040 333
05603=
56666 32680 10000 10262 20175 49984 52010 81100 333 05405=
53543 32980 70904 10191 21021 38507 40060 52008 80002 333
00351=
78663 32470 71810 10248 20224 39424 40108 57007 84973 333 0011/ 10285
20198 30///
58014 81817 83940 83362 83465=
89664 32961 60604 11250 21310 39912 49952 57024 86/7/
333 11240 21360 59895 86362=
89758 46/// /12// 11316 37117 4//// 5////=
89568 46/// /1425 11384 37480 4//// 5////=
89774 46/// /05// 11308 37269 4//// 5////=
76256 32980 22004 10300 20197 30057 40073 58014 82070 92345
333   10350 20229 30/// 50720 56030 59003 70000 82360=
76640 32456 70804 10300 20246 30095 40125 56006 85631 92340
333   02229 10356 20228 30/// 50400 58005 70000 85817=
76687 32562 71803 10216 20178 38634 40110 57007 852/1 92338
333   10264 20176 31/// 50300 563/6 58001 70004 83824 82623
=
76737 01580 73601 10206 20179 38757 40105 55004 60026 76066
872// 92345 333   10260 20179 31/// 50180 562// 57895 58009
60026 70215 82720 84626 81826 91301 91599=
76741 31560 73603 10280 20253 30076 40096 56015 70544 83220
92340 333   10298 20240 30/// 50110 56890 58008 83820 84360
=
86360=
40582 32960 03410 10342 20047 40024 56005 333 00033 =
91334 11458 89904 10254 20252 30102 40105 51017 60174 78082 8437/
333 20240 56999 58007 70168 555 90100=
91348 11474 80707 10300 20245 30042 40094 50000 60024 70282 83331
333 20200 56299 59016 70023 555 90100=
52740 16/// /3402 10082 29057 36849 60000
555 1/132 2//01 /////=
57957 31540 70000 10253 20244 39886 40075 52019 71000 878//
333 00001 70002=
59082 32673 51803 10285 20238 30014 40087 52023 83441 333
00100=
59117 32562 50901 10270 20238 30001 40103 52022 81102 333
00100 70006=
59211 32568 70000 10257 20232 39864 40063 52022 8114/ 333
00000 70003=
59265 32564 20901 10292 20239 39948 40079 52020 81142 333
00002=
59287 32562 71102 10287 20255 30042 40091 52013 86102 333XX
00001 70063 =
59316 32578 62202 10288 20248 30086 40095 52013 85142 333
00101=
59431 32570 71402 10274 20247 39932 40075 52026 82142 333
00001=
59644 11565 70703 10260 20249 30051 40066 52021 60021 71798
83903 333 05152 70023=
59758 11470 71603 10273 20252 30035 40056 52016 69971 72580
81102 333// 05252 70208=
59023 31510 73401 10247 20238 39827 40067 52020 71000 8684/
333 00001 70068=
59417 32575 50000 10259 20243 39924 40071 52022 84842 333
00051 79999=
59501 32580 61604 10295 20247 30087 40103 52013 85202 333
00001=
59663 11465 71401 10266 20252 30051 40078 52017 60071 72598
85902 333 00052 70071=
59838 32570 70703 10268 20251 30037 40051 52012 8746/ 333//
05253 70235=
59981 11580 21406 10289 20249 30049 40055 52015 69911 70080
82240 333// 05101 70155=
59985 11580 71405 10280 20252 30043 40048 52019 69901 78000
8624/ 333// 00000 70211=
58040 31507 80403 10187 20185 30087 40091 52013 74600 885//
333 00402=
58144 31920 01401 10231 20205 30064 40086 52018 71000 333
00306=
58633 31630 70904 10247 20232 39998 40093 52012 71000 86540
333 00303 70435=
58659 31540 70000 10258 20239 30067 40100 52014 71000 878//
333 00501 70486=
59058 32573 70000 10263 20243 40078 52017 87102 333 00000=
59072 32975 60000 10279 20236 40085 52020 81042 333 00100=
59087 32562 33601 10276 20242 40090 52015 81142 333 00100
79999=
59096 32565 70401 10264 20234 40094 52019 86402 333 00100
79999=
59209 11365 82203 10230 20202 40066 52021 69901 78000 889//
333 00051 79999=
59254 32570 23201 10287 20250 40075 52023 81902 333 00001=
59278 32575 40000 10288 20253 40084 52016 82142 333 00001
70202=
59493 32580 70000 10287 20250 40090 52016 83101 333 00100
79999=
59632 11564 70902 10262 20254 40071 52024 60031 78090 879//
333 05152 70032=
59658 11465 71102 10262 20254 40068 52020 60201 72580 879//
333 05153 70195=
59673 11480 71402 10265 20255 40081 52020 60061 72500 879//
333 00052 70087=
70026=
50468 11575 53203 10153 20094 39907 40103 52007 69901 70060
81102 333 00101 79999=
50953 32965 71802 10196 20141 39921 40092 52012 87030 333
00401=
54342 31956 60402 10193 20158 30035 40095 52016 71000 86030
333 00502 79999=
54471 11650 80402 10175 20156 30093 40098 52020 69901 76060
885// 333 00501 70003=
54497 32570 80000 10157 20136 30094 40108 52018 885// 333
00551=
58543 31961 83601 10230 20224 40102 52015 70040 8807/ 333
00401 70007=
58556 31/02 90000 10225 20224 40101 52010 74344 333 00401
70228=
58569 31/03 90402 10223 20223 40109 52017 74344 333 00651
70091=
58646 32660 83601 10259 20236 40103 52016 885// 333 00500
70064=
58660 31657 80000 10243 20228 40105 52014 71000 885// 333
00601 70025=
54511 32960 03602 10221 20147 30059 40097 52016 333 00703
79999=
54823 11960 71406 10274 20179 39870 40061 52005 69901 70060
8707/ 333 00402 79999=
51468 16/// /0600 11013 29089 36542 60001
555 1/124 2//00 /////=
58150 31208 81402 10201 20195 30087 40095 52018 74240 886//
333 00402=
58345 31908 50701 10238 20226 40088 52010 74240 80002 333
00203=
58138 31950 01603 10235 20216 40075 52008 71000 333 00204=
58259 31/00 91403 10208 20208 40105 52015 74540 333 00500=
58343 31905 31404 10225 20216 40092 52013 74440 80002 333
00302=
58464 31910 71103 10224 20223 40101 52013 72840 8704/ 333
00402 70003=
58549 11758 71402 10253 20231 40095 52014 69901 71060 875//
333 00303 70458=
58665 31756 70702 10238 20226 40099 52015 71000 875// 333
00351 70115=
58667 31545 10903 10241 20229 40110 52018 71040 81140 333
00551 70107=
58944 31457 82002 10269 20252 40105 52024 71000 885// 333
00300=
58472 31163 21805 10227 20210 30020 40115 52026 70040 82600
333 00604 70002=
58477 11240 80902 10224 20218 30065 40108 52019 69911 72054
886// 333 00601 70224=
58666 31/08 91102 10228 20228 30009 40107 52016 74344 333
00500 70034=
58760 11557 73602 10241 20226 40104 52017 69901 71080 8213/
333 00600 70093=
58921 31958 70901 10254 20222 39871 40105 52017 71000 8704/
333 00351=
58531 31430 71802 10226 20214 40089 52011 72840 8564/ 333
00400 79999=
58436 31975 43602 10239 20220 40090 52012 70040 80002 333
00203=
58358 31908 81402 10222 20217 40097 52015 74440 8807/ 333
00301=
50745 32968 03603 10186 20080 39930 40102 52015 333 00400=
58562 31658 81402 10235 20217 40099 52013 71000 885// 333
00403 70296=
58457 31/07 92202 10224 20220 30044 40093 52013 74340 333
00301 70001=
58238 31912 11602 10243 20216 30075 40084 52018 71000 80002
333 00304=
58338 31950 70000 10238 20234 40085 52016 72840 80002 333
00203=
58265 31357 71403 10218 20203 30094 40106 52018 72840 876//
333 00501=
58221 31958 71602 10238 20201 30046 40080 52019 71000 80002
333 00203=
58203 32960 61404 10221 20209 30014 40057 52013 82042 333
00102=
58326 31958 71102 10253 20219 40079 52012 71000 80002 333
00205=
58122 32970 71401 10227 20210 40075 52018 80002 333 00305=
58102 32965 81803 10232 20192 30011 40059 52018 80007 333
00304=
58215 31956 41803 10236 20209 40074 52019 71000 80002 333
00204=
58424 32962 71802 10246 20219 30058 40081 52016 8707/ 333
00204=
58236 31409 71603 10241 20223 40075 52011 74440 876// 333
00205=
58437 31/00 92709 10161 20161 38166 52015 74540 333 00301=
58015 32962 71603 10234 20200 40061 52019 8704/ 333 00305=
58314 32965 60000 10226 20195 39992 40076 52019 80002 333
00203=
58321 32960 71604 10245 20209 40071 52013 80002 333 00204=
58311 32970 71602 10238 20211 40071 52015 80002 333 00104=
58319 32960 62003 10231 20213 40076 52011 80002 333 00203=
50632 11980 00000 10148 20083 39278 40123 52011 69911 70080
333// 00503 30045 70001=
53588 32980 50907 10120 20044 37790 52007 80002 333 00451=
57083 32960 71003 10253 20199 39914 40040 52023 80002 333//
00300=
58847 32960 72702 10270 20232 30005 40103 52021 86042 333
00451 70023=
58725 32960 70000 10255 20226 39856 40105 52016 8704/ 333
00551 70013=
50548 11580 13603 10171 20100 40123 52010 69991 70080 81100
333// 00401 70009=
53480 32980 00000 10150 20062 40098 52009 333// 00652 30007=
53673 32980 73602 10201 20062 40056 52005 8703/ 333// 00400=
53787 32765 70702 10220 20127 40034 52013 875// 333// 00303=
53898 32961 80207 10226 20195 40074 52024 8802/ 333// 00402=
54725 11965 80204 10189 20174 40085 52023 69901 76098 8802/
333// 00600 79999=
54751 31958 73202 10177 20155 40099 52023 71000 8703/ 333//
00500=
54916 32960 60903 10247 20195 40074 52012 80002 333// 00306=
58208 32970 31402 10242 20199 40063 52016 80002 333// 00204=
58251 31/03 91403 10210 20208 30091 40097 52021 74340 333
00402=
58241 31911 61603 10243 20213 40094 52012 72840 80002 333
00304=
56294 32961 83402 10239 20189 39453 40015 52007 8807/ 333
05503=
56492 31940 70000 10233 20198 39623 40005 52004 71000 8704/
333 05603=
56571 32780 20000 10243 20150 38328 52011 82800 333 05606=
56651 32680 22702 10162 20116 37600 52005 82400 333// 05303
79999=
56778 32565 50000 10200 20163 38072 52007 85400 333// 05204=
56951 32780 70000 10188 20160 38459 52012 83402 333// 05251=
57328 32961 70401 10227 20192 39625 40012 52001 8704/ 333
05705=
57411 11950 80000 10237 20188 39659 40007 52018 69901 76000
8807/ 333 05704 79999=
57516 31925 22702 10236 20208 39705 49998 52005 71000 82040
333 05805=
57816 32568 71803 10213 20189 38728 40040 52008 878// 333
05306=
58027 31930 81102 10227 20203 30025 40073 52018 71000 83047
333 00205=
58362 31558 21801 10224 20207 30095 40105 52016 71000 82100
333 00501=
58820 31909 80000 10226 20219 40105 52017 74600 8807/ 333
00453 70072=
53564 32975 72901 10214 20041 39113 40056 52007 80002 333//
00303=
53959 32975 80402 10284 20149 39581 49992 52010 8801/ 333//
00003=
54843 11657 81606 10178 20171 30054 40081 52009 60051 72598
889// 333// 00401 70047=
54909 32966 71603 10233 20196 30002 40061 52026 80002 333//
00303=
50136 32970 12705 10152 20026 39624 40130 54000 80002 333
00703 31021=
50353 32670 13405 10140 20062 39897 40110 52004 81100 333
00251 70104=
50557 11670 23408 10162 20092 39834 40118 52008 69901 70060
82100 333 00352 79999=
50756 11658 71404 10132 20121 39825 40106 52013 60021 79598
879// 333 00456 70019=
50788 32970 20705 10177 20057 30031 40112 52005 80002 333
00101=
50949 32965 70000 10196 20168 39935 40096 52013 80002 333
00503 70022=
50963 32960 01105 10188 20080 39966 40095 52009 333 00303=
50978 32578 20702 10177 20085 39829 40106 52008 82802 333
00302=
54161 32770 62702 10201 20124 39820 40096 52014 82532 333
00501=
54236 32962 11602 10188 20147 30000 40099 52018 80002 333
00602 70019=
54292 32670 70000 10151 20096 39909 40120 52007 875// 333
00751=
54374 32665 70000 10155 20121 39722 40112 52013 875// 333
00552=
58730 32765 71401 10252 20229 40105 52016 875// 333 00501
70085=
58731 32966 31801 10239 20223 40108 52012 83030 333 00400
70013=
58754 32560 80000 10252 20233 40105 52015 885// 333 00501
79999=
58911 32662 70000 10251 20235 40104 52019 81542 333 00200
79999=
58931 31980 72005 10193 20173 38376 52017 70040 86032 333
00302=
58926 31950 70000 10262 20227 40104 52017 71000 82042 333
00201=
56193 11540 80000 10187 20173 40034 52011 69971 76060 8342/
333 05301 70007=
56196 11660 80701 10229 20184 40020 52012 69901 70080 885//
333 05502 79999=
56287 11657 80000 10222 20192 40023 52009 69901 76000 8247/
333 05502 79999=
56385 31/00 92203 10099 20099 37001 52004 74544 333 05452=
56671 32780 20000 10187 20161 38165 52011 82402 333 05300
79999=
56684 32580 12502 10184 20153 37856 52008 81102 333// 05302=
56751 32678 31403 10195 20143 37980 52013 81102 333// 05302=
56786 32565 71602 10187 20169 38078 52011 872// 333// 05202=
56886 32675 42503 10197 20174 38232 52010 83440 333// 05101
79999=
56977 31/05 92501 10212 20203 40054 52017 74790 333// 05100
70098=
57206 11625 80000 10208 20191 40028 52019 69921 79598 889//
333 05451 70002=
57348 32980 00204 10206 20178 40040 52008 333 05402=
57426 32965 20704 10232 20184 40012 52002 82040 333 05608=
57713 32661 70000 10226 20205 40025 52012 8257/ 333 05408=
52889 32970 80901 10185 20129 38417 40005 52013 8807/ 333
00101 79999=
56046 11580 70901 10048 20025 36263 52003 69961 72160 875//
333 05303 30026 70018=
52533 32980 72002 10168 20081 38450 40012 52016 81042 333
05100=
52943 32680 73401 10069 20038 36794 52005 875// 333 05100
30016 79999=
52986 11765 70000 10145 20123 38058 52008 69901 70080 8654/
333 00101 70005=
57046 32974 70901 10189 20056 37912 52008 8703/ 333 00053=
56065 32680 80901 10060 20047 36628 52005 885// 333 05203
70026=
53923 32980 82502 10189 20118 40011 52016 8807/ 333 00152
79999=
53646 32675 70000 10212 20044 38897 40035 52014 86502 333
00206=
52418 32980 70000 10154 20082 38776 40009 52005 80002 333
05153=
57036 32965 70000 10261 20152 39560 49997 52016 8703/ 333
05102=
57245 32970 70201 10236 20193 39701 40027 52008 87030 333
05304=
53845 32763 60000 10246 20073 38987 40011 52012 84460 333
00106=
56033 11675 80204 10013 21015 36040 52004 69911 76870 885//
333 05251 31026 70002=
52754 11670 71102 10078 21006 36795 52008 69901 70080 875//
333 00003 30038 79999=
52836 32980 82202 10097 21021 36889 52021 8802/ 333 00052
79999=
52713 32980 80201 10104 21025 36893 52011 8802/ 333 00001=
54308 32980 00201 10156 20109 40117 52010 333// 00851 70029=
54527 32960 53602 10218 20169 40097 52016 85040 333 00603=
54423 32970 00000 10164 20138 39665 40113 52018 333// 00751
70019=
54401 32970 01601 10194 20101 39290 40099 52012 333// 00701=
50727 32980 13401 10140 20068 38964 40120 52006 80001 333//
00551 30017 79999=
53798 11960 80205 10208 20167 39985 40074 52018 69901 72160
8803/ 333// 00500 79999=
54618 32961 80403 10209 20168 30068 40085 52025 8807/ 333//
00601=
50834 32580 10000 10155 20058 40109 52014 81130 333// 00500=
58647 31656 80000 10235 20226 40105 52013 72840 885// 333
00551 70036=
58737 31630 80000 10230 20221 40106 52017 71000 885// 333
00454 70130=
58846 31657 61101 1025/ 20228 40105 52021 71000 82532 333
00453=
58918 32580 71602 10272 20238 40103 52018 81142 333 00102=
59126 32568 70000 10289 20242 40105 52021 81142 333 00103
70301=
59133 31640 80000 10260 20251 40100 52024 71000 885// 333
00200=
53352 32980 00901 10152 20029 40090 52013 333// 00400=
53764 32970 70401 10222 20081 40011 52008 80002 333// 10333=
53863 31950 80203 10218 20169 40050 52026 71000 8807/ 333//
00202=
53975 32960 70000 10236 20145 40030 52014 82032 333// 00203=
54405 31556 20401 10191 20155 40107 52013 71000 82600 333//
00801 79999=
54436 31970 00902 10204 20145 40099 52015 70040 333// 00604
70030=
54808 32966 81403 10226 20203 40064 52026 8807/ 333// 00404=
54826 32480 72504 10190 21007 38443 52018 86502 333// 00503=
54836 31920 12001 10223 20187 40082 52013 71000 80002 333//
00408=
54863 32460 82201 10162 20155 40113 52028 885// 333// 00501=
57071 32962 80406 10250 20164 40028 52018 8801/ 333// 00252=
57259 32980 20000 10181 20151 40049 52013 82042 333 05202=
57378 32960 81603 10239 20220 40050 52009 8807/ 333 05105
79999=
57447 32972 72701 10201 20166 39540 40056 52005 8703/ 333
05301=
57461 31956 71602 10236 20224 39889 40042 52010 71000 8704/
333 05205=
57476 32961 11803 10245 20232 40048 52013 80001 333
05206 79999=
57494 32965 30902 10256 20222 30030 40058 52012 83040 333
05106=
57554 32860 70000 10217 20203 40063 52014 875// 333 05103=
57598 31358 43601 10237 20222 40079 52018 71000 82630 333
00102=
57766 31958 61101 10254 20237 40069 52016 71000 86042 333//
00004 70004=
57776 32980 72013 10212 20179 40077 52013 8704/ 333 00103
91121 91520=
57799 31757 70000 10254 20241 39998 40078 52019 71000 875//
333 00100 70002=
57866 32675 71804 10259 20234 39873 40070 52016 8244/ 333//
00003 79999=
57972 32962 20000 10290 20243 39867 40079 52023 82040 333
00104 70230=
59102 32565 70000 10274 20231 40101 52022 81131 333 00101=
50246 32680 13605 10150 20025 40122 52001 81100 333 00501
30004 70002=
50442 32970 02704 10139 20075 40130 52010 333 00551 70036=
50658 32680 30705 10187 20072 40095 52009 82502 333 00400=
50844 32962 00205 10170 20090 40100 52016 333 00552=
50854 32970 83401 10214 20147 40092 52011 82037 333 00403=
50888 32980 23404 10173 20062 40106 57001 80002 333 00200=
50968 32970 00000 10174 20122 40100 52007 333 00402=
50983 32970 20203 10176 20071 40107 52009 81032 333 00301=
54096 32970 12902 10177 20102 40101 52005 81032 333 00401=
54259 32668 70000 10179 20136 40105 52015 875// 333 00401=
54273 31965 10404 10152 20123 40106 52011 70040 80002 333
00400 70098=
54324 32962 40000 10189 20148 40102 52017 80002 333 00751
70197=
54346 32960 80000 10182 20150 40102 52016 8803/ 333 00551=
54493 32962 82201 10173 20144 40104 52020 8807/ 333 00502=
56146 32780 70000 10095 20074 36727 52009 87800 333 05401
70007=
56172 11780 20000 10109 20097 37327 52005 60041 72598 82400
333 05506 70054=
56247 32880 20000 10135 20073 37395 52011 81440 333 05502=
56444 11570 70000 10097 20071 36805 52006 69921 78080 871//
333 05201 70002=
56462 11580 70000 10116 20096 37125 52004 69901 72500 85442
333 05502 70001=
56691 11480 61804 10169 20147 37740 52008 69901 70060 83642
333 05302 70001=
56739 31458 81801 10163 20153 38312 52011 71000 884// 333
05251 70001=
56964 11475 80000 10214 20195 38658 40041 52016 60101 78098
889// 333// 05101 70104=
56985 11580 71803 10219 20184 38655 40045 52012 69921 70080
85402 333// 05151 70002=
57633 32960 70000 10199 20183 39314 40056 52010 8704/ 333
05205=
57902 32576 71404 10212 20183 38573 40040 52011 875// 333
05203 70171=
47401 32/70 70908 10074 20051 30118 40132 57001 8763/ 333
20070=
47412 32/70 71102 10180 20094 30044 40074 56003 8287/ 333
20155=
47420 11/50 80405 10071 20067 30058 40105 56007 60032 78044
887// 333 20058=
47426 11/60 83402 10157 20144 30025 40068 53001 69952 78088
8427/ 333 20116=
47582 11/70 62304 10201 20094 30031 40055 51009 69902 70262
81132 333 20154=
47590 11/75 63604 10199 20149 39993 40043 50001 69952 70152
81272 333 20160=
47600 11/58 82201 10165 20154 30068 40084 51021 60032 72585
882// 333 20153=
47648 11/65 63602 10177 20159 30015 40047 51021 60092 70264
81132 333 20151=
47662 11/58 71202 10225 20168 30004 40045 51012 60022 71066
82232 333 20181=
47678 11270 72705 10219 20214 39971 40063 51021 60042 72582
872// 333 20215=
47740 12460 72503 10181 20142 30074 40111 51024 69902 872//
333 20164=
47778 12/80 72905 10232 20177 39988 40073 51017 60282 85831
333 20189=
47807 31459 81902 10202 20160 30103 40120 52021 71022 882//
333 20185=
47827 12570 73303 10236 20169 30082 40118 52018 69902 872//
333 20209=
47843 11/70 80501 10201 20162 30089 40120 51020 69902 72522
882// 333 20167=
47898 12980 22704 10232 20167 30060 40098 53021 69902 80002
333 20197=
47909 11/70 82201 10251 20233 30116 40124 51024 60032 76198
8127/ 333 20248=
47918 32470 71903 10292 20250 30111 40119 51023 82202 333
20274=
47936 11/70 72105 10274 20245 30070 40130 51021 69902 70282
86201 333 20255=
47945 31/09 62203 10265 20249 30113 40136 53019 74422 86600
333 20246=
47971 32380 51804 10271 20242 30136 40145 51006 82102 333
20246=
47991 32/82 21105 10296 20244 30156 40166 50000 82201 333
20271=
45007 12470 71303 10297 20249 30077 40086 52014 69902
84201  333  20284 59001 70009 81818 83825 85080 =
56079 32780 70402 10073 20060 36686 52004 875/2 333 05302
30035 70029=
56144 32980 70000 10097 20078 36847 52008 86042 333 05406
70001=
56152 11280 11101 10070 20035 36319 54000 69971 70080 81600
333 05305 31025 70035=
56173 11880 70000 10081 20056 36649 52003 69931 70080 879//
333 05304 70055=
56182 11380 80000 10106 20091 37182 52010 60011 76060 885//
333 05406 70030=
56257 32680 21804 10095 20024 36292 52002 82400 333 05404
30014 70001=
56357 32680 70201 10092 20051 36464 52005 874// 333 05302
30037 79999=
56374 32580 53063 10127 37396 52005 85400 333// 05500 70004=
56586 32675 61601 10186 20153 37996 52005 86802 333// 05406=
56748 32980 20000 10189 20158 38304 52012 80002 333// 05201=
56763 32680 11602 10250 20197 40002 52014 81142 333// 05403=
56768 32680 71602 10203 20171 38190 52015 87400 333// 05202
70003=
56838 32675 60000 10222 20203 40049 52014 81102 333// 05201
70128=
56946 32680 20000 10205 20190 40039 52017 82440 333// 05200=
56954 31570 73601 10213 20195 40050 52020 71790 8794/ 333//
05100=
56959 31775 70000 10239 20227 40039 52020 72990 86903 333
05202=
56966 32780 71403 10273 20233 40021 52015 83942 333// 05304
70029=
56969 31458 80000 10230 20223 40050 52015 71000 886// 333//
05201=
56986 31/65 71402 10198 20188 40056 52015 72990 879// 333//
05100 70061=
57237 32960 20000 10192 20163 40039 52003 82040 333 05401=
57306 11758 83202 10222 20191 40021 52023 69921 79598 8596/
333// 05502 70002=
57504 31930 83602 10248 20195 49996 52006 71000 8807/ 333
05704=
57707 32680 61402 10235 20175 38423 52008 82130 333 05408=
57731 32462 70000 10232 20205 40048 52007 875// 333 05404=
57832 32578 60000 10221 20211 40052 52014 86800 333 05204=
57916 11668 70000 10244 20238 40054 52016 60071 70098 875//
333 05203 70073=
57922 11459 81804 10206 20199 40075 52024 60051 76060 887//
333 00002 70062=
57932 11125 80000 10232 20226 40064 52017 69921 71060 886//
333 05202 70005=
59007 31456 80000 10198 20195 40065 52015 72840 886// 333//
05151 70115=
59456 32573 60701 10282 20233 40075 52018 82242 333 05102
79999=
44291 32598 20000 10142 20048 38701 40156 52007 82400 333
10077=
44374 32599 70000 10151 21054 38230 40054 51007 86270 333
20147 555 30114=
44385 32999 00000 10181 20040 38873 40093 53016 333 20140
555 30132=
50603 32980 50405 10170 20031 39499 40132 52020 80002 333//
00800=
81100 22234 00270 2//// 3//// 80262=
57002 71022 886// 22273 04022 20000 =
43110 62349 298080 295075 296078 293072 295072 298074=
50877 32775 80202 10169 20095 40104 52004 83507 333 00201=
57687 32970 71402 10277 20238 39988 40064 52018 87040 333
05107=
57156 32960 73402 10215 20160 40039 52008 80002 333// 00001=
57178 31915 80000 10221 20207 39896 40045 52010 71000 8807/
333// 00004=
54539 32970 00401 10191 20156 30084 40098 52016 333// 00502
70047=
51701 11460 70702 11010 21019 36629 52001 69951 78580 874//
333 05100 70005 92500=
56188 11758 80000 10213 20187 40020 52014 69901 78080 884//
333 05402 79999=
55585 32780 00000 10090 20045 36378 57001 85400 333 05351
79999=
53593 32980 12901 10175 20068 40084 52008 80002 333// 00652=
52436 32980 71801 10152 20054 38390 40008 52009 81032 333
05252=
52797 32980 70000 10169 20048 38309 52009 81042 333 00051=
52787 32780 70000 10086 21033 37025 52003 82502 333 00052
30006=
52996 32961 81605 10099 20087 37538 52010 8807/ 333 00054
70114=
57106 11461 80000 10184 20170 40049 52018 69901 76060 8172/
333 05151 79999=
56093 11480 80000 10126 20104 37660 52007 69951 70086 8162/
333 05102 70066=
52446 32965 70703 10184 20075 40015 52010 80008 333 05100=
52424 32980 70901 10181 20041 40002 52008 80002 333 05251=
52856 32580 70201 10101 20024 37191 52007 81102 333 00000
30043=
52323 32980 21602 10164 21013 38183 52005 81042 333 00051
79999=
52681 32980 70201 10182 20016 38570 40020 52011 85042 333
00101=
52866 32975 70000 10092 20064 37674 52012 81042 333 00000=
52955 32780 70000 10090 20045 36959 52005 86502 333 05100
79999=
56029 11680 70000 10071 20051 36483 52006 69901 72100 875//
333 05304 30045 70014=
56074 32680 83402 10073 20051 36660 52005 885// 333 05300
70031=
59462 11568 70000 10268 20241 40085 52022 69911 78080 879//
333 00051 70001=
53698 11956 83603 10212 20159 40091 52014 69901 71060 8802/
333// 00751 79999=
52645 11980 80201 10016 20010 36808 52001 60011 70070 8801/
333 05101 30000 70173 92501=
56018 32680 70000 10055 20046 36178 54000 875// 333 05304
30025 70002=
56034 11680 72901 10005 21003 35919 52010 60031 78386 86902
333 05301 31048 70034 92501=
56137 32780 70000 10086 20045 36795 52011 875// 333// 00405=
56116 32780 70000 10071 20036 36337 52002 87500 333// 05304
30034 79999=
56223 32680 60000 10063 20042 36518 52006 86400 333// 05403=
56331 32680 30000 10073 20040 36412 52004 83800 333// 05304
30050 79999=
56251 32680 10000 10086 20070 36941 52009 81400 333 05505
70004=
54351 11758 70401 10178 20165 40106 52017 60031 71060 875//
333 00500 70141=
55228 32780 10000 10016 21076 36030 52003 81100 333 05300=
55248 32780 23604 11001 21070 35925 52009 81142 333 05151
31024=
55437 32780 10000 10035 20002 36349 52001 81800 333 05200
31006=
58407 32662 21403 10257 20220 40070 52017 82100 333 00006=
55569 32780 10000 10089 21012 36225 52014 81100 333// 05251
30047=
55655 11577 71802 10060 20047 36479 57003 69911 70080 879//
333// 05100 30036 70003=
55664 32980 10000 10028 20008 36014 52007 80002 333// 05200
31004=
55578 32880 20000 10064 20032 36363 52010 82400 333// 05352
30036 79999=
55680 32880 40000 10054 20019 36233 52005 84400 333// 05252
30006=
55572 42780 40000 10080 20002 36240 52012 84400 333// 05252
70004=
55773 11470 72002 10046 20025 36022 54000 69901 70080 874//
333// 05201 30029 70003=
50774 11660 72503 10154 20089 39818 40106 52012 69901 78000
878// 333 00251 79999=
51818 31959 11802 10174 20082 40000 54000 70600 80002 333
05100=
57947 11759 72001 10253 20243 40077 52020 69901 71060 875//
333 05103 70038=
59303 32565 20402 10271 20236 40097 52021 81102 333 00100
70001=
59478 11575 60702 10273 20250 40085 52017 69961 70080 82202
333 00051 70060=
51356 11770 72001 10196 20139 40048 52004 69951 70080 86462
333 00101 70005=
53810 11780 73402 10200 20116 40013 52015 69901 70080 874//
333 00102 79999=
53817 11680 81102 10164 20111 38191 52014 69901 70060 8352/
333 00155 70013=
53903 32680 81402 10155 20075 38037 52018 885// 333 00102
70003=
52895 32980 70000 10177 20132 40013 52014 8704/ 333 00102=
52633 11580 70000 10029 20001 36764 57001 69961 70080 81642
333 00051 30003 70089=
53723 11770 70202 10206 21004 38594 40020 52002 69901 72500
8243/ 333 00103 79999=
52602 32980 83202 10085 21055 37251 52001 8801/ 333 00053=
51886 32968 80403 10106 21055 37111 52005 8802/ 333 00002
79999=
53705 32965 70904 10182 20055 40029 52008 8703/ 333 00101=
56021 11380 72701 10008 20000 36093 52003 60051 78588 87902
333 05201 30001 70100 92501=
78970 11560 50609 10266 20254 30116 40141 72582 82802
333 02209 10321 20259 58011 82820 85080 90916=
61832 31460 71416 10235 20228 40135 71799 85970
333 58012 85610 82923 87361 95374=
61849 32458 60000 10210 20202 39610 40140 86500
333 58008 86810=
91925 32480 51012 10286 20230 30041 40098 57023 83801
333 20234 56209 58000 83816
555 11023=
91938 01470 82012 10257 20234 30083 40086 58008 60134 72198 8587/
333 20246 56899 58004 60117 82816 85640 87460 91137
555 12937=
91943 32570 40314 10299 20228 30092 40095 55013 83202
333 20265 56109 59008 83823
555 10327=
91948 31470 70210 10252 20215 30021 40122 56025 71522 878//
333 20235 56199 59022 82818 87650
555 13525=
91954 12575 12719 10242 20177 30031 40034 56014 60054 81201
333 20210 56609 58013 81820 91131
555 12735=
91958 12570 73312 10232 20170 30018 40020 56010 60334 8683/
333 20207 56799 58004 83823 83643
555 13229=
78384 11460 70510 10281 20246 40150 69951 70298 85932
333 062929 10304 20237 58020 70003 84918 90999=
91554 32580 70405 10295 20253 40092 54000 81101
333 20210 561/9 59003 81825 87080=
91555 32570 70000 10287 20253 40092 51003 83208
333 20/// 569/9 58001 83825 87278=
91557 01460 81603 10251 20241 40107 58001 60114 78082 889//
333 20219 562// 58006 60114 82710 85818 82920 88638=
91565 01365 81513 10230 20213 40124 58006 60194 78088 888//
333 10215 563// 58005 60194 84709 85818 88640=
91568 01370 81212 10234 20202 40131 51005 60044 71588 888//
333 20207 563// 58020 60044 82708 85818 88640
96315 14240 83213 10250 20241 40101 60224 79598 8497/
333 20241 55090 81702 83812 82915 88465=
60020 32660 10000 10198 20164 30126 40171 51006 81500
333 924/6=
60030 31557 20214 10203 20185 30107 40162 51009 71044 82500
333 924/6=
78962 11460 70907 10270 20238 30140 40148 72511 87802
333 02209 10308 20244 58008 86815 90910=
91772 31499 51103 10281 20214 40099 70222 85800 333 20230 563//=
91784 11499 50916 10251 20175 40130 69904 70212 84205 333 20223
562/9 84818=
91785 31598 50512 10265 2023/ 70122 852// 333 20228 562//=
91786 31598 71409 10260 2017/ 40118 70222 874// 92030 333 20220
563//=
91792 31599 51108 10250 20243 40149 58009 70322 85101 333 20193
563/9 85820=
76390 31560 40406 10250 20142 38197 40025 57010 70544 82406
92345 333   10292 20160 30/// 50520 56405 59004 70000 82625
=
76405 32981 01805 10316 20149 30051 40071 57015 92345 333
10380 20150 30/// 50860 59007 70000=
76412 31966 02005 10311 20190 30065 40105 57015 70544 92350
333   10355 20220 30/// 50930 59019 70000=
76423 01580 82303 10218 20130 38138 40059 55000 69905 75052
8497/ 92345 333   10300 20135 31/// 50240 5699/ 58002 69905
79999=
76471 01580 81805 10182 20139 37683 40042 57013 69901 75052
8342/ 92345 333   10230 20110 31/// 50190 5612/ 58001 69901
70054=
76491 32356 21002 10300 20224 39714 40103 57007 81205 92340
333   10380 20225 30/// 50640 56405 58014 70000 81814 81078
=
76539 31668 70904 10239 20148 38095 40005 57008 70544 81406
92345 333   10280 20138 30/// 50650 56505 58002 70000 81634
86070=
76654 31562 32703 10297 20231 30082 40086 55005 70544 83900
92350 333   06800 10312 20245 30/// 50720 57985 59013 70000
81920=
76656 01575 80701 10215 20163 38481 40059 55003 69901 70362
8652/ 92347 333   10310 20145 31/// 50300 5631/ 59008 69907
79999=
76723 32965 71205 10268 20192 30062 40092 57011 80007 92340
333   10284 20223 30/// 58002 87280 92302=
71952 36/// /1006 10196 21016 39348 40187 55005 333 10210 20024
70000=
71967 36/// /0308 10134 20058 39294 40268 58003 333 10144 21029
70000=
71851 36/// /0211 10115 20060 39892 40226 58001 333 10128 20050
70000=
71852 36664 60412 10133 20055 39930 40223 53005 333 10153 21013
70000=
71873 36/64 /1105 10095 20012 39316 40273 53002 333 10103 21015
70000=
71875 36664 80908 10058 21008 38878 40267 51011 333 10083 20049
70000=
71918 460// /0224 11098 39795 40220 54000 333 11088 21132=
71103 36964 31610 10180 20038 39542 40195 53011 333 10217 20037
70005=
71115 36/// /1612 10154 20042 333 10192 20058 70006=
71121 36964 00000 10150 21049 39427 40253 56009 333 10158 21025
70000=
71127 46064 /0610 10147 21016 39525 40259 56009 333 10159 21023=
71143 36/// /3307 10116 20049 39925 40240 50001 333 10118 20071
70000=
71450 36/// /0511 10124 21008 39502 40218 58011 333 10138 21001
70000=
71490 36/// /0000 11085 21097 39981 40300 53005 333 11082 21111
70000=
71725 17964 02504 10222 20039 39706 40109 50000 69951 7//4/ 333
10235 20124 70050=
71726 36/64 /2303 10181 20088 39598 40120 50006 333 10192 20117
70036=
71727 32680 42314 10169 20121 39910 40101 55002 81260 333
10188 20145 70058=
71728 11674 22205 10164 20131 39883 40098 51007 69921 72511 82270
333 10197 20145 70010 90921=
71730 32974 42208 10218 20106 39723 40135 53004 80001 333
10249 20131 79999=
71731 33/// /2611 10196 20124 39701 40140 52005 333 10221
20138 70008=
71733 36964 02911 10202 20072 39930 40162 53006 333 10230 20126
70015=
71735 32974 02912 10240 20003 39821 40111 53010 333 10270
20130 70014=
71738 31/00 92206 10038 20038 39837 40190 51012 74544 333
10067 20036=
71739 32874 13112 10207 20041 39768 40120 52019 81101 333 10242 20117
70108=
71749 36964 33208 10185 20056 39936 40177 51017 333 10221 20004
70010=
71799 32580 60807 10148 20093 30219 40242 52004 85870 333
10159 20103 79999=
71801 32974 82311 10105 21008 30047 40219 51002 85057 333 10188 21003
70000=
71803 32974 72210 10126 20019 39993 40177 50003 85078 333
10203 20006 70000=
71807 36/// /2015 10062 20036 30218 40234 50002 333 10109 20036
70000=
71808 36864 62503 10060 20035 30089 40135 56013 333 10091 20017
70000=
71810 17/64 /0000 10112 20094 30012 40074 55017 60021 7//4/ 333
10162 20074 70020=
71811 11674 60000 10111 20100 39992 40059 56008 60021 70386 82201
333 10134 20064 70022 90951=
71813 17559 82010 10081 20071 30071 40084 58009 69951 7434/ 333
10164 20052 70005=
71814 36/// /2213 10076 20055  333 10084 20047 70000=
71815 32774 41810 10114 20050 30133 40164 56005 81570 333
10153 20028 70000=
76393 32666 71203 10334 20196 39507 40067 57015 85502 92355
333   10344 20222 30/// 50792 56305 58008 70000 85840 82070
=
76548 32475 40905 10290 20244 38082 40112 56014 81204 92355
333   06205 10312 20246 30/// 50560 58006 70005 81814 81918
=
76556 01560 63005 10280 20226 39051 40038 57014 69907 75054
86800 92332 333   10310 20208 31/// 50490 56300 59016 69907
79999=
76593 32370 10503 10286 20254 30110 40126 57011 81200 92352
333   10305 20240 30/// 50740 561// 58010 70000 81820 92023
91007 91505=
76644 31460 70503 10302 20234 30116 40126 52014 71500 87237
92355 333   10384 20235 30/// 50610 56339 58010 70000 84820
82330=
76658 31560 31406 10298 20189 39591 40128 54001 70540 83400
92346 333   10360 20210 30/// 50790 56800 59010 70000 83622
94063 98904=
76762 31961 71803 10200 20189 38737 40082 56013 74144 8702/
92340 333   10292 20180 31/// 50110 5602/ 59004 70268 87460
93016=
71397 32974 42112 10170 20033 30147 40181 57008 82071 333
10200 20040 70000=
71398 36/64 /1905 10121 20055 30144 40193 58004 333 10186 20042
70000=
71400 36/64 /2108 10134 20021 40164 333 10226 21029 70006=
71410 36/64 /2222 10113 20085 30148 40176 58009 333 10141 20062
70000=
71411 36/58 /2107 10095 20080 30206 40216 58011 333 10122 20041
70000=
71412 46/// /2115 10104 20066 30154 40167 58009 333 10111 20066=
71430 36/64 /3205 10176 20156 30056 40151 51006 333 10179 20113
70000=
71431 36/// /3102 10154 20113 30062 40155 53003 333 10164 20111
70000=
71432 36/48 /3508 10156 20156 30061 40156 53010 333 10233 20156
70000=
71435 36/63 /3602 10135 20001 =
71436 36/61 /3404 10169 20157 39815 40166 53011 333 10209 20147
70000=
71441 36/// /0412 10149 20035 39900 40206 58005 333 10163 20012
70000=
71443 36/// /0607 10126 20008 39839 40250 53005 333 10141 20052
70000=
71474 36764 30505 10133 20043 38982 40208 51007 333 10167 20037
70100=
71475 36/// /2307 10173 20077 30141 40234 55000 333 10179 20074
70000=
71600 36664 31710 10091 20076 30225 40231 56015 333 10125 20052=
71601 32474 61907 10100 20093 30145 40208 58011 81571 333
10131 20070 70000=
71629 36562 63304 10209 20165 39926 40155 53007 333 10223 20089
70000=
71114 37564 83107 10121 20097 30200 40248 53015 743// 333 10135
20101 70005=
71119 36/// /1002 10151 21038 333 10156 20018 70000=
71120 32774 41005 10160 21053 39595 40251 57009 81171 333
10164 20014 70000=
71122 36/64 /0307 10100 21099 38636 40239 58004 333 10113 21021
70000=
71123 32874 10903 10150 21026 39388 40256 58009 81101 333
10153 21032 70000=
71125 32574 50707 10160 21074 39668 40252 57007 81131 333
10164 20033 70008=
71129 32574 80608 10108 20011 39411 40241 58005 8851/ 333
10112 21014 79999=
71130 32774 80610 10147 21046 39788 40243 57002 81187 333
10159 20045 70000=
71131 17/64 /0215 10021 20009 38963 40224 51012 60111 7//44 333
10052 20020 70120=
71138 32674 70513 10148 20022 39619 40222 58007 81431 333
10154 20004 70000=
71140 32774 70611 10123 20036 39725 40225 58004 82571 333 10150 20008
70000=
71141 32974 23506 10138 21023 39958 40235 51003 80001 333
10141 20040 79999=
71145 32574 20109 10092 20021 39936 40230 51008 82500 333
10103 20037 79999=
71148 36/// /0511 10128 20051 39645 40222 58003 333 10150 20008
70000=
71182 17348 82308 10094 20084 39465 49987 56013 60021 7434/ 333
10101 20084 70026=
71187 36664 32415 10132 20106 30053 40079 55001 333 10161 20084
70005=
71188 11574 42610 10199 20090 30038 40078 58009 69901 70181
83570 333 10227 20040 79999 90921=
71196 36964 02223 10114 21026 30150 40187 58001 333 10174 20001
70000=
71200 36/// /2511 10148 20079 333 10168 20104 70006=
71201 17/// ///// 10134 60011 7//4/ 333 10134 20114 70060=
10177 20036 70045=
71194 36/64 /1703 10069 20034 30188 40201 56016 333 10111 20049
70000=
71197 36964 00809 10071 20029 30141 40190 58009 333 10099 20035
70000=
10005 21020 70050=
71846 36/64 /2808 10077 20007 39870 40181 53024 333 10085 20050
70007=
71865 36/64 /0805 10136 20025 39552 40232 58005 333 10138 20017
70000=
71866 36964 00810 10136 21006 39623 40234 58008 333 10141 20020
70000=
71867 32974 50503 10143 21020 39902 40235 50002 81071 333
10150 20041 79999=
71868 17964 00608 10150 21025 39800 40238 51001 69951 7//4/ 333
10152 20032 70005=
71869 32874 80611 10149 21047 39720 40243 58005 83087 333 10155 20017
70000=
71870 17459 80809 10067 20055 39253 40225 53001 60031 7434/ 333
10092 20026 70025=
71871 32774 60705 10129 21028 39452 40257 58007 83570 333 10130 20005
70000=
71872 11483 81008 10048 20030 39396 40255 51013 60021 78082 885//
333 10097 20046 70018 90931=
71874 37564 63609 10066 21012 39161 40260 50007 745// 333 10078
20047 70000=
71876 31774 80509 10140 21035 39581 40242 58006 71422 81572
333 10145 20009 79999=
71877 31686 70609 10097 21018 38988 40266 52004 71422 86870
333 10110 20013 70000=
71878 32774 30508 10141 21051 39182 40259 56004 83100 333 10142 21031
70000=
71879 36964 00905 10154 21041 39445 40247 56009 333 10161 20009
70000=
71880 31782 71807 10135 21051 39133 40223 53004 71422 83170
333 10144 20093 70000=
71881 36964 00403 10156 21080 39143 40235 58008 333 10162 21020
70000=
71882 36564 31811 10188 20023 39660 40189 51004 333 10223 20041
70005=
71883 36/// /0904 10198 21032 39386 40196 56006 333 10205 20003
70000=
71891 17964 31525 10180 20079 39922 40196 51002 60011 7//4/ 333
10186 20103 70060=
71892 32466 81509 10137 20097 30244 40249 52010 888// 333 10147 20109
79999=
71073 36/// /2808 10183 21085 39802 40218 56006 333 10200 21019
70000=
71075 36/// /2007 10145 20005 39613 40212 56027 333 10145 21025
70000=
71096 460// /1108 11093 39433 40169 58004 333 11064 21093=
71434 36/// /0310 10068 20043 30067 40132 53037 333 10112 20042
70000=
71702 36/// /1913 10134 20082 40154 333 10179 20076 70010=
71717 11874 72117 10165 20065 30083 40123 55002 69921 71582
87080 333 10222 20078 70002 90920=
71893 31680 50905 10138 20084 30208 40239 53008 71511 82270
333 10158 20088 70000=
71894 36/// ///// 10148 30246 40255 51011 333 10157 20085 70000=
71896 31789 70911 10206 21011 39364 40184 56007 71522 82201
333 10206 20148 70000=
71897 32585 61805 10139 20116 30211 40243 51008 81270 333 10175
20083
70000=
71898 36964 02808 10137 20087 30191 40235 51005 333 10158 20064
70000=
71899 32374 13015 10101 20081 30199 40249 51002 81100 333 10150
20070
70000=
71905 11266 72510 10033 20026 30052 40065 51023 60031 72582 87670
333 10158 20017 70032 90942=
71906 32474 63006 10066 20016 39970 40016 50002 86501 333 10080 20058
70040=
71907 36864 32411 10037 20011 39993 40025 55002 333 10076 20002
70005=
71909 36664 32302 10008 21018 39994 40037 56004 333 10008 21026
70000=
71910 36964 03612 10012 21013 39968 40031 55003 333 10026 21015
70010=
71911 46064 /3608 11071 30182 40239 56002 333 11068 21153=
71912 11574 33415 10061 20020 30079 40263 52052 69901 70155
83500 333 10063 20017 70007 90953=
71913 17364 83220 11017 21061 30184 40221 51021 60011 7//4/ 333
10003 21017 70165=
71915 32474 60326 10007 21016 39994 40076 52013 81571 333
10020 21003 70000=
71917 32686 32707 11035 21076 30209 40223 58001 81430 333
11031 21075 79999=
71922 32974 41706 10142 21053 39793 40258 56008 80001 333 10150 20019
70000=
71924 11374 73109 11062 21087 30167 40257 58006 69901 70172
87500 333 11053 21104 42025 79999 90953=
71925 11469 73610 11079 21114 30273 40310 55000 69901 78511
87500 333 11078 21169 42033 79999 90931=
71926 32580 43622 11039 21074 30192 40216 52014 84500 333
11033 21060 79999=
71928 36/64 /0000 10124 21058 39089 40258 58004 333 10124 21021
70000=
71043 32683 81605 10170 21001 30124 40216 56006 81270 333 10184 20057
70000=
71045 36/// /2004 10174 21022 39379 40233 58012 333 10174 21009
70000=
71050 36/64 /0000 10126 20042  333 10147 20031 70018=
71066 11774 63610 10172 20006 39809 40226 50008 69901 70282 82201
333 10238 21006 79999 90920=
71068 32774 11510 10184 21057 39543 40228 58010 81100 333 10194 20047
70000=
71069 36964 01403 10181 21061 39535 40236 56012 333 10186 21024
70005=
71076 46/// /2713 10110 20013 39837 40227 51021 333 10159 20012=
71077 36/16 /2403 10155 21008 39729 40255 56011 333 10156 20016
70000=
71078 32974 12906 10124 21052 39811 40253 56004 80001 333
10125 21004 79999=
71081 36464 83611 11046 21067 30154 40165 333 11025 21070 70000=
71082 36964 00000 11065 21093 30176 40217 54000 333 11046 21083
70000=
71083 11474 83417 10002 21021 30126 40163 51011 69901 70376 885//
333 10008 20001 42002 70010 90922=
71090 36964 03107 11061 21081 30156 40191 56008 333 11043 21083
70005=
71092 46932 01024 11099 39476 40143 56006 333 11076 21100=
71093 460// /1620 11095 39669 40169 58005 333 11080 21096=
71094 460// /0113 11086 39230 40129 58007 333 11063 21086=
71095 36964 01702 11075 21099 30114 40187 50000 333 11055 21137
70000=
71101 36964 01310 10137 20087 30232 40240 53003 333 10145 20087
70000=
71108 11480 82107 10129 20089 30184 40255 51010 69981 70282 888//
333 10130 20099 70020 90933=
71109 32680 63311 10123 20039 30222 40249 51005 86500 333 10136 20079
70000=
71816 11669 82012 10142 20089 39943 40002 57033 69931 78082
8657/ 333 10186 20089 70003 90936=
71817 36964 32317 10094 20012 30079 40093 56016 333 10171 20011
70000=
71821 17964 33111 10172 20063 39777 40113 53025 69951 7//4/ 333
10217 20118 70130=
71822 36864 30000 10159 20089 39627 40089 53007 333 10198 20115
70070=
71825 11474 62805 10082 20072 39381 40034 53027 60071 72586 85601
333 10109 20079 70140 90917=
71827 11574 22716 10091 20002 39845 40084 52018 69961 70181 82170
333 10160 20032 70006 90941=
71828 17564 63005 10072 20051 39391 40013 51014 60031 7//4/ 333
10089 20067 70145=
71831 32674 53311 10172 20051 39865 40139 52027 85400 333
10208 20095 70050=
71832 36/64 /3406 10166 20034 39840 40158 53026 333 10185 20077
70576=
71834 32674 52908 10166 20042 39749 40169 51017 83501 333
10167 20068 70000=
71836 17764 82912 10134 20038 30116 40127 51031 60021 7//4/ 333
10183 20100 70025=
71842 32674 33310 10140 20028 39726 40199 53007 82501 333 10156 20062
70000=
71845 32674 73010 10119 20027 39727 40198 53017 87500 333
10132 20055 70000=
71850 32674 73405 10127 20033 39714 40209 53004 83101 333 10145 20059
70000=
71854 32674 73306 10121 20034 39748 40218 52009 87501 333
10146 20040 70000=
71855 36664 60708 10116 20047 39865 40238 50000 333 10133 20011
70000=
71856 36564 63612 10113 20036 39946 40229 50000 333 10118 20019
70000=
71858 36/64 /0000 10126 21012 39963 40243 51004 333 10126 20045
70000=
71861 17964 00711 10137 20024 39488 40211 58014 60011 7//4/ 333
10145 20002 70010=
71862 31774 70913 10142 20034 39499 40196 57011 71422 81180
333 10151 20015 70000=
71863 36764 60813 10133 20020 39514 40210 56013 333 10145 21008
70000=
71603 32574 21708 10109 20094 30149 40202 57014 81502 333
10152 20032 70000=
71607 36/// /2104 10133 20100 30143 40175 58004 333 10181 20039
70000=
71609 31258 82214 10101 20077 30051 40184 58012 71022 886//
333 10132 20068 70000=
71610 16664 82704 10170 20114 39860 40149 53003 69951 333 10238
20097 70005=
71621 11569 82404 10174 20142 30047 40151 53004 69921 70282
885// 333 10208 20124 70002 90950=
71623 31635 83406 10204 20179 39835 40164 50010 70522 8477/
333 10234 20161 70086=
71624 11548 83007 10218 20178 39952 40158 53011 60011 70598
886// 333 10242 20140 70012 90950=
71625 37964 02004 10214 20162 39973 40129 56003 743// 333 10231
20148 70000=
71627 36662 82206 10191 20152 30096 40139 51003 333 10209 20128
70000=
71628 32662 72104 10195 20148 30007 40144 51003 82431 333
10203 20142 79999=
71630 32574 82805 10182 20148 39822 40158 52004 81107 333
10203 20138 79999=
71631 46/61 /3308 10173 20167 39691 40180 53011 333 10193 20136=
71632 17/64 /0000 10155 20112 39927 40156 51005 69921 7//4/ 333
10212 20130 70004=
71633 32974 72501 10167 20115 39903 40168 51008 83054 333
10206 20164 70030=
71700 32974 72215 10142 20081 30131 40156 58004 87070 333 10204 20048
70000=
71705 32974 72218 10149 20049 30068 40154 58003 86071 333
10195 20045 70000=
71706 32974 62210 10145 20085 30108 40168 55000 83070 333 10195 20073
70000=
71707 32974 61914 10086 20054 30114 40190 58010 80004 333 10182 20037
70000=
71709 32674 62013 10114 20060 30130 40143 56010 86501 333 10141 20078
70000=
71711 11774 82504 10182 20109 30051 40100 50001 69921 78082 8657/
333 10245 20069 70002 90916=
71714 36/// /2605 10163 20136 30047 40137 53001 333 10213 20129
70000=
71715 17/64 /2208 10153 20122 39933 40111 58002 69981 7//4/ 333
10209 20136 70008=
71718 11674 62309 10171 20123 30027 40090 58004 60011 70188 86570
333 10216 20158 70010 90951=
71719 36/// /1916 10156 20083 30087 40093 58012 333 10187 20057
70006=
71930 32874 10906 10152 21066 39314 40246 57007 81100 333 10160 20003
70000=
71931 36/64 /0000 10171 21038 39568 40253 56011 333 10171 21022
70000=
71932 17664 32910 10196 21036 39779 40231 58012 69951 7//4/ 333
10203 21028 70010=
71933 36964 03614 10152 20006 39947 40234 53016 333 10206 21005
70005=
71934 11674 63608 10110 20014 39992 40248 53002 69901 70282
82171 333 10186 20024 79999 90931=
71935 32574 60909 10071 21002 30066 40274 56004 81171 333 10112 20032
70012=
71940 32982 00805 10194 21096 39423 40220 57006 333 10202 20055 70000
=
71943 32774 22503 10189 21051 39397 40225 57007 82100 333 10191 20026
70000=
71944 36664 30802 10212 21065 39380 40197 58008 333 10212 20047
70000=
71946 32674 70603 10155 21042 30038 40249 58013 81106 333 10165 20045
70002=
71948 46964 00917 11049 30147 40261 58004 333 11047 21107=
71949 36/64 /1505 10157 20006 39370 40232 56009 333 10157 20020
70000=
71950 31882 63305 10207 20002 39571 40192 56006 71422 84261
333 10222 20023 70000=
71957 36964 03404 10075 21008 30154 40242 51003 333 10083 21017
70000=
71958 36964 03203 10170 21051 39289 40252 58007 333 10192 21024
70000=
71968 469// 03603 11020 30189 40254 53007 333 11017 21045=
71261 36/// /0205 10163 20157 39916 40171 51014 333 10196 20137
70004=
71265 17550 63208 10223 20180 30063 40155 53009 60051 7//4/ 333
10229 20122 70050=
10235 20130 70002=
10130 20091 70024=
89009 41561 40209 11569 36855 52008 77771 82018
333 11539 21568 82430 84241=
94120 46/// /1315 10192 20016 30103 40139=
94150 46/// /1418 10233 20147 30073 40134=
94203 46/// /1009 10155 20022 30154 40165=
94207 35/// /0817 1//// 30136 40147 52013=
94212 46/// /0920 10129 21038 39702 40188=
94216 46/// /1315 10174 21049 30132 40183=
94268 46/// /1313 10193 20017 30138 40153=
94287 46/// /1613 10193 20016 30161 40170=
94294 46/// /1814 10171 21013 30179 40189=
94298 35/// /1518 10208 30139 40145 52006=
94299 46/// /1420 10228 20139 30130 40141=
94300 46/// /1304 10147 20138 30188 40198=
94302 46/// /2106 10128 20099 30186 40192=
94312 46/// /1114 10168 20006 30170 40180=
94317 46/// /0000 10071 20014 39610 40219=
94319 46/// /1211 10124 20028 39868 40211=
94326 46/// /0804 10087 20024 39617 40261=
94332 46/// /1313 10134 21046 39815 40213=
94346 46/// /1315 10130 21006 39995 40224=
94363 46/// /1518 10126 20007 39975 40199=
94367 46/// /1718 10136 20009 30140 40178=
94374 46/// /2009 10149 21016 30168 40185=
94394 35/// /2015 10202 30126 40134 52002=
94403 46/// /1408 10143 20128 30193 40235=
94429 46/// /0000 10097 20019 39747 40227=
94430 46/// /0405 10110 21003 39620 40226=
94461 46/// /0709 10095 20007 39555 40252=
94462 46/// /1008 10082 20018 39687 40267=
61627 32958 02804 10292 20211 30070 40093
333 0//00 59008=
61641 32458 62804 10228 20210 30089 40122 86500
333 0//00 59003 86613=
61695 32960 01804 10230 20217 30110 40136
333 0//00 58018=
94510 46/// /1910 10115 20032 39856 40217=
94515 46/// /1909 10123 20034 39838 40200=
94552 46/// /2212 10099 20024 39691 40172=
94578 46/// /2713 10144 20006 30140 40151=
94584 46/// /2110 10134 20017 30035 40147=
94601 46/// /2923 10169 20073 30188 40205=
94610 46/// /3604 10102 20097 30207 40232=
94637 46/// /0000 10104 21032 39798 40238=
94638 46/// /3214 10126 20014 30187 40220=
94647 46/// /3609 10102 20036 30151 40274=
94651 46/// /0208 10093 20073 30210 40289=
94653 46/// /3603 10130 20070 30269 40288=
94659 46/// /1809 10118 20057 30077 40279=
94672 46/// /0000 10113 20087 30263 40268=
94693 46/// /1909 10116 20065 30180 40244=
94703 46/// /2308 10107 20069 30083 4////=
94729 46/// /2310 10062 20032 39288 40158=
94767 46/// /2513 10143 20023 30130 40136=
94776 46/// /2814 10130 20055 30132 40142=
94791 46/// /2407 10153 20003 30123 40130=
94802 46/// /3210 10100 20064 30117 40200=
94804 46/// /2009 10135 20071 30232 40271=
94842 46/// /2017 10119 20076 30117 40218=
94850 46/// /1920 10116 20083 30154 40200=
94865 46/// /2512 10107 20072 30185 40210=
94907 46/// /2713 10107 20060 30160 40170=
94910 46/// /3502 10075 20056 39924 40182=
94926 46/// /0000 10046 21018 39476 40163=
94954 46/// /2230 10103 20064 30075 40187=
94956 46/// /1915 10093 20077 30152 40178=
94968 46/// /3504 10082 20014 39916 40132=
94975 46/// /2313 10095 20056 30089 40122=
94983 46/// /2913 10082 20012 30081 40106=
94995 46/// /2428 10177 20084 30042 40050=
94996 41580 52818 10190 20105 39918 40047 50007 71522 81272
333 20161=
95711 46/// /2210 10091 20066 39895 40207=
95719 46/// /2308 10097 20055 39839 40180=
96995 46/// /1410 10239 20215 39798 40092=
96996 41580 21018 10266 20225 30090 40094 53005 71500 82801
333 20247=
89564 45/// /1263 11077 21080 39805 49826 57003
333 21106=
89571 45/// /0628 11054 21111 39953 49983 57023
333 21110=
89611 41860 81810 11058 21067 39794 49849 52016 770// 8802/
333 21093=
94934 35/// /2622 10117 30100 40124 52002=
94974 37/// /1927 10105 30152 40175 57001 7//44=
95288 35/// /1721 10222 30133 40148 52021=
95872 46/// /2218=
89002 42996 11404 11254 21285 39954 40006 57008
333 11136 21258=
78948 11560 60717 10275 20225 30151 40159 60021 70682 85802 333
02209 10305 20255 58009 70021 81820 85640 90944=
78947 11568 70911 10273 20226 30150 40153 69971 70682 84401 333
02209 10305 20260 58004 70017 83821 85080 90960=
78866 32570 71012 10266 20227 30184 40188 52010 84208 333
10304 20265 58014 79999 84823 85280=
85406 32960 01501 10158 20138 40167 52015
333 10190=
85418 31950 01906 10149 20120 40156 53014 70500
333 10180=
85432 32984 01709 10098 21080 37772 48483 53014
333 10194=
85442 32975 01002 10139 20112 40157 52010
333 10175=
85469 42570 53504 10218 20188 40223 57009 85800
333 56200 83820 84640=
85470 32960 60000 10120 20065 40139 51003 80001
333 10194 56006 86070=
85488 32958 20000 10110 20088 40156 57011 70511 80001
333 10145 56000 82075=
85574 31956 00000 10121 20039 39603 40163 52001 70511
333 10196 56///=
85585 32997 01806 10122 20116 40186 54000
333 10172 HR 93 LLANA=
85586 32960 00702 10096 20090 40166 57004
333 10162=
85629 31956 01803 10086 20078 40179 53006 70500
333 10165=
85672 31920 32102 10082 20078 40195 53005 71011 80001
333   10120 56004 83070=
85682 32360 72305 10104 20093 40189 54001 81501
333 10148 56505 81607 86070=
85743 31409 40201 10033 20027 40199 54002 74641 82601
333 10108 56606 82710 83075=
85766 31/01 90000 10052 20050 40195 57006 74741
333 10090 89/00=
85782 32960 50000 10070 20062 40193 58005 80009
333 10140 56007 85170=
85799 32960 40000 10074 20064 40197 57008 70122 80001
333 10135 56008 84070=
85864 32980 40203 10028 20009 40203 57010 80001
333 10076 56006 84070=
85874 32580 30000 11009 21020 39559 40199 57012 83500
333 10060 56600 83630 =
85892 32570 50000 10024 21008 40158 57016 81650
333 10064 56660 81730 85360=
85934 32480 80604 10023 20009 40134 57025 885//
333   10030 56199 88614 =
64700 32962 22204 10294 20186 39728 40052 80002 92355
333 0//00 59006 82075=
64750 32965 50000 10285 20193 39674 40071 80002 92359
333 0//00 58003 85075=
65352 31460 70000 10250 20231 39940 40117 71322 81903
333 58012 81916 87076 94942 95832=
65361 11960 70000 10222 20219 39677 40117 60101 70296 80002
333 58004 87076=
65376 31460 70000 10240 20218 39647 40103 70192 8257/
333 58001 82610 87363=
65387 31460 72404 10276 20249 30079 40107 71322 83902
333 58003 83810 81920 87073 94944 95834=
61697 32958 02606 10240 20218 30124 40138
333 0//00 58014=
78988 32475 61012 10287 20248 30129 40138 52016 83202
333 10329 20278 58020 83818 86081=
78982 32480 70917 10283 20245 30126 40131 52016 81238
333 10320 20271 58024 81818 86281
78990 12470 50816 10280 20233 30128 40135 52011 69921 83201
333 10320 20275 58016 70004 83817=
91577 01558 80402 10203 20195 40118 58005 60424 76062 8387/
333 20183 58025 60037 81820 88465=
91579 36/// /1304 10214 20202 40114 58009
333 20183=
91582 01560 81104 10198 20185 40122 58002 60124 76066 888//
333 20183 563// 58017 69967 82821 88636=
91583 06/// /3102 10212 20189 40116 50006 60474
333 20180 58012 69927=
91587 06/// /0000 10192 20182 30074 40124 58006 60021
333 60017=
91590 01462 80104 10200 20172 40115 58005 60294 76166 8582/
333 20172 5655/ 58016 69987 82716 83646 88462=
91592 01557 83012 10199 20169 40115 51004 60144 76066 8587/
333 20171 56779 58012 69987 83823 83640 87461=
86330 32597 82005 10121 20093 40202 52016 885//
333 10139 20106=
86460 32597 81604 10100 20065 40213 52013 84475
333 10144 20100=
86500 11596 82103 10102 20077 40209 52017 69911 76062 8357/
333 10148 20102=
86560 32597 81816 10110 20057 40229 52008 8227/
333 10130 20110=
86565 11497 72406 10102 20077 40202 53007 69901 70152 82476
333 10140 20102=
86580 11497 81611 10110 20025 40219 52011 69921 70252 86407
333 10132 20108=
91753 32582 11012 10294 20229 40090 58014 81100
333 20257 59005 81820=
91754 32582 70906 10282 20212 40098 58009 87200
333 20245 59006 87820=
37985 42996 00000 10180 20159 30111 40097 58009 555   10017=
53478 32975 20000 10132 20080 40089 52008 80002 333// 00555=
53231 32980 71405 10187 21045 38457 52012 80002 333// 00301=
53276 32980 00000 10172 20093 38839 40106 52016 333// 00702
79999=
53149 32980 10404 10178 20036 38752 40084 52014 80002 333//
00402=
53391 32980 00000 10144 20079 38497 40113 52015 333// 00701
30035=
53068 32980 01401 10174 20098 39039 40112 52017 333// 00701
70010=
53362 32980 10000 10154 20056 40094 52009 80002 333// 00502=
53336 32980 40401 10197 20009 38681 40069 52012 80002 333//
00401=
54115 32976 02002 10158 20112 40122 52016 333// 00800 70030=
50434 31265 10000 10076 20068 39302 40155 52011 72840 81600
333// 00858 30022 70002=
50514 32980 20902 10172 20000 40135 52014 80002 333// 00851
30033=
53882 32961 70202 10233 20133 40031 52007 8703/ 333// 00201
79999=
53868 31956 70201 10271 20075 40010 52017 70400 82042 333//
00103 79999=
17240 32975 00000 10127 20107 39026 40126 51002=
47101 31550 62702 10197 20142 30020 40108 53011 71021 86500 333
20136 30029=
47105 31558 63405 10165 20125 30097 40127 52021 71022 87530 333
20127 30018=
47108 31940 50702 10192 20144 30007 40109 52005 71022 80002 333
20151 30021=
47115 32960 01802 10170 20129 39843 40101 52020 333 20095 30027
92031=
47133 31950 02504 10188 20131 30030 40109 52007 71000 333 20131
31023=
47138 32662 60707 10194 20143 30121 40125 52024 86500 333 20157
30032 92023=
47159 31959 00706 10200 20127 30031 40111 52020 71000 333 20161
31026 70007 92022=
47165 3//// /3604 10195 20122 30065 40108 52007 333 20139 3/021=
47168 31940 01402 10208 20148 30033 40109 52017 69902 71000 333
20167 3/026 92022=
47184 32980 03406 10184 20143 30091 40118 52016 69902 333 20147
31020 92022=
47090 31658 73610 10149 20119 30107 40127 52020 71022 83530 333
20118 30024 92023=
47095 31956 72503 10181 20149 39928 40107 53011 71012 87030 333
20133 30022=
47100 32370 21105 10140 20099 39160 40114 52016 82600 333 20085
31020=
47106 32960 00215 10158 20121 30080 40123 52024 333 20129 30026=
47112 31958 02308 10186 20143 30031 40111 50008 71000 333 20141
30024 92022=
47114 31557 42501 10195 20126 39935 40107 53006 71022 82530 333
20132 31028=
47119 32957 31802 10186 20139 30071 40111 57002 71022 80002 333
20145 30026=
47121 31925 00901 10174 20140 39838 40111 53012 71044 333 20121
31027=
47129 32965 02902 10177 20126 30087 40116 50002 333 20118 30030=
47130 32963 00210 10169 20129 30062 40120 52023 333 20132 30026
92013=
47131 31959 02002 10190 20116 30043 40109 52008 71000 333 20134
30023=
47135 32963 02506 10196 20111 39824 40105 53011 333 20128 31032=
47136 32960 02501 10203 20129 39947 40110 52015 333 20145 30027=
47140 32962 00909 10197 20140 30075 40110 50006 333 20144 31025
92011=
47143 32958 01103 10217 20149 30043 40109 52015 71000 333 20168
30034=
47146 32965 00902 10202 20138 30045 40109 53004 333 20135 31023=
47152 32560 21102 10214 20120 30076 40114 52020 60042 80001 333
20159 31028 70124=
47155 31956 01804 10206 20172 30107 40111 52018 71000 333 20164
31027 92011=
47156 31959 00203 10199 20118 30024 40109 52010 71000 333 20139
31025=
47162 31950 01604 10204 20168 30074 40111 52017 71000 333 20156
31026 70002 92022=
47170 32965 03602 10190 20132 30070 40110 52011 333 20137 31026
92021=
47185 32960 03205 10176 20152 30034 40117 52019 333 20145 31025
70001 92033=
47189 32565 82302 10194 20178 30057 40117 52017 8562/ 333 20175
31022 70003 92011=
47192 31930 00000 10208 20170 30087 40113 52016 72800 333 20162
31026=
58005 32962 82003 10229
20195 40062 52023 8801/ 333//
00303=
26141 42997 21502 10059 20022 40189 52010 80002=
91366 12574 80616 10286 20239 30078 40087 58003 60124 82171 333
20236 56125 58002 70119 555 90100=
61967 32461 41206 10261 20239 40105
83108 333 10272 57005 70000
54929 31920 81103 10193
20182 40088 52017 71000 8807/
333// 00402=
17090 32965 00000 10080 20057 38730 48510 56001=
17150 32960 00000 10148 20107 40139 58001=
17190 32970 00000 10122 20104 39021 48510 54000 333
10143=
17234 32970 00000 10198 20154 40113 53001=
17370 32965 00201 10226 20200 40109 58005 333 92417=
17034 32670 31302 10170 20119 40155 56004 83200 333
83835 92438=
17070 32565 60000 10124 20110 39300 40138 57004 86500
333 86630=
17084 32970 00000 10100 20089 39275 40156 56003=
17160 32970 03603 10132 20098 39020 48517 54000 333
10135=
17184 32970 00000 10200 20153 40125 54000=
17260 32970 03304 10182 20049 39311 40081 58001=
17290 32970 03605 10240 20173 40121 58002 333 92428=
26229 42984 21302 10013 20010 30184 40191 52010 82030=
26313 42997 01901 10047 20040 30184 40190 52009=
26314 42497 11502 10076 20062 30187 40190 52006 81100=
26324 41996 02401 10022 20017 30188 40196 52006 71211=
26348 42999 52601 10076 20053 30018 40193 52008 83072=
26406 42964 02302 10096 20079 30189 40197 52008=
26422 42997 02702 10081 20065 30168 40200 52009=
26446 42970 72901 10083 20055 39996 40188 52003 80003=
26544 42960 70000 10072 20064 30037 40189 52009 84031=
91324 11466 80904 10267 20244 30081 40083 60604 76162 887//
333   20233 56299 58007 88810 555 90100=
57193 31958 81602 10221
20199 40050 52012 71000 8807/
333// 00202=
84695 87598=
33088 41597 82503 10122 20088 39987 40175 52009 78082 889//=
33261 42563 82302 10121 20107 39960 40138 52004 885//=
33275 42397 83003 10139 20124 39917 40132 52005 8665/ 333 86709=
33325 42997 63201 10124 20097 39895 40163 52007 84031=
33377 42662 13601 10125 20110 39957 40145 52003 81500 555 11012=
33415 41697 72903 10100 20070 39785 40178 52011 70282 83330=
33429 42997 80000 10128 20094 39749 40162 53002 85041=
33466 41559 80000 10134 20119 39967 40149 52002 71011 8655/ 333
86621=
33526 41460 80000 10108 20090 39843 40178 70282 883// 333 86926=
33562 42997 63002 10124 20684 39805 40158 54000 86030=
33614 42968 53401 10149 20125 40136 52008 85030=
33761 42965 52702 10124 20105 39931 40149 52001 80001=
33889 42998 30000 10112 20061 30109 40145 54000 80001=
33990 42977 02601 10172 20098 30044 40128 51001=
34415 41597 60000 10160 20157 30030 40122 52003 71722 86300=
34712 42498 71804 10206 20203 30039 40119 58001 87700 333 87712=
41170 31208 52203 10250 20244 39995 40008 74141 85600 333
59003 85703=
37549 42797 72908 10182 20147 39587 40129 56002 83570=
54587 21570 81402 10164 20143
40069 52028 70040 885// 333// 00402
79999=
12295 11560 73202 10100 20085 30019 40203 52010 69971 70162 875//=
12595 11596 80601 10099 20090 39928 40186 52007 60021 76188 885//=
36911 42698 71501 10269 20071 39143 40053 53002 85931 555
11012=
36982 42598 72103 11016 21052 36480 47017 57010 87552=
38345 42998 00802 10107 20050 38732 48439 57002 82030 555
10007=
12272 11970 03302 10052 20043 30059 40229 52012 69901 70281 =
12580 11365 82805 10110 20103 39945 40188 52012 69941 70182 876//
333 87709=
83995 83697=
26554 42960 63502 10092 20064 30020 40181 52006 82031   555 11009=
26666 41956 30000 10098 20084 39960 40171 52005 71011 80001
555 11010=
26850 41360 83602 10130 20050 39908 40175 52006 76162 885//   333
88708   555 10012=
26941 42960 73302 10107 20071 39943 40176 52003 87070 555 11012=
26951 42565 83102 10102 20084 39973 40168 52006 8695/   555 11010=
33008 41470 83302 10102 20088 30023 40199 52009 78182 889// 555 11010=
33019 42660 73502 10122 20070 30003 40174 52008 86530 333 86646
555 11012=
33036 42960 60000 10124 20081 39939 40164 52010 83054   555 10011=
33041 42960 03202 10103 20082 30006 40158 52002   555 11009=
57181 31957 71807 10252
20200 40036 52009 71000 8703/
333// 00203=
48008 32556 60000 10253 20233 40036 70222 84970 333 20238 56660 59026
48010 32540 50000 10260 20246 40026 83770 333 20236 56530 59017=
48019 32550 82206 20254 20219 40046 71799 8597/ 333 20250 56769 59011
48025 21025 60000 10252 20252 40026 70396 84770 333 20260 56560 59012
48035 31550 80000 10204 20200 40034 71722 83200 333 20200 56790 59029
48037 32456 00000 10277 20250 40021 82656 333 20253 56669 59017=
48042 32556 71801 10275 20226 40023 84961 333 20268 56449 59018=
48045 32762 60000 10206 20160 82019 333 20202 56099=
48053 22456 51802 10252 20233 40049 82541 333 20244 56499 59009=
48060 32440 60000 10277 20214 40020 83831 333 20210 56569 59024=
48062 32559 50902 10270 20260 40230 70213 83330 333 20260 56190 59018
48071 NIL=
48077 32456 80000 10271 20256 40030 85970 333 20260 56490 59019=
48078 22430 81801 10254 20244 40044 8577/ 333 20200 56299 59012=
48080 22560 80000 10255 20255 40034 86870 333 20248 56590 59010=
48097 32456 80000 10260 20246 40042 71096 84971 333 20245 56999 59019
48108 31495 80000 10245 20233 40060 75166 8572/ 333 20230 5639/ 58001
48109 NIL=
48112 21396 82706 10255 20247 40080 75355 8677/ 333 20244 5659/ 59002
41244 36/// /0102 10296 20089 39669 40021
333 0E030 59000  =
41256 31956 00000 10288 20272 39993 40002 70500
333 59011 =
41262 36/// /1012 10310 20229 39804 49994
333 0E033 59000  =
41268 32960 02708 10300 20275 39995 40010 333 59010=
41304 36/// /2104 10291 20142 39696 40013
333 0E029 59000  =
41312 36/// /2204 10286 20257 39995 40035
333 0E/// 58002  =
41314 32960 01818 10262 20214 39536 40049 333 58001 =
41316 32561 42405 10292 20256 30008 40033 84500
333 58001 84625 =
11414 32970 01101 10049 20039 39534 42855 52007
333 55031
555 393// 50117 60122 70126 80124=
11438 32962 02703 10058 20042 39852 40254 52006
333 55025
555 389//=
11502 36/// /0000 10078 20047 39795 40253 52007
333 55045
555 381// 50117 60130 70142 80136 90127=
11538 11840 62602 10063 20063 39652 40265 52009 69901 71082 86070
333 55007 86456
555 300// 50129 60146 70151 80138=
11628 32962 02803 10053 20044 39620 40264 52010
333 55010
555 394//=
11643 36/// /2201 10012 20009 39290 42856 52013
333 55000
555 398// 50095 60104 70111=
11683 32980 03503 10067 20036 39375 42852 52011
333 55004
555 381//=
11693 32965 03304 10068 20059 39763 40256 52014
333 55012
555 394//=
11698 36/// /3403 10069 20053 39841 40254 52013
333 55026
555 389// 50142 60149 7//// 8//// 9////=
11710 36/// /3204 10063 20055 39629 40252 51018
333 55049
555 395// 50117 60120 70140 80137=
26645 42997 60000 10087 20068 39932 40189 52007 80002   555 12010=
26659 42560 73502 10119 20064 39967 40175 52002 83531   555 11011=
26763 41950 50000 10090 20084 39943 40168 52001 71022 85030   555
11006=
26825 42560 72905 10110 20074 30034 40197 52013 8633/   333 86923
555 11010=
26832 42660 73002 10118 20068 30002 40192 52005 875//   555 12011=
26887 41458 83506 10108 20100 39943 40144 51001 71011 886//   333
88710   555 11011=
26961 42960 70000 10112 20092 39979 40168 52004 8707/   555 10///=
33027 41660 83202 10126 20073 30005 40168 52004 72522 8592/   333
85936   555 11012=
38149 42998 02903 10168 20100 30014 40086 54000   555 10014=
38262 32698 20000 10172 20135 30012 40089 52002 82500   555 10015=
38264 35998 00000 10175 20095 39998 40804 57003   333 00013   555
10014=
38396 42996 60402 10177 20111 40098 53001 80001   333 00012   555
10013=
38457 42999 60901 10143 20085 39505 40068 54000 84042   555 10011=
38565 329// 20000 10132 20030 40085 58006 82040   555 10008=
38579 32999 32701 10136 20077 39660 40062 57007 83040   333 00009
555 10009=
38583 42997 40000 10133 20109 39757 40066 57003 80001   333 00010
555 10011=
38611 42697 73101 10176 20128 39534 40074 56002 82390   333 00017
555 00017=
38618 42699 80000 10170 20132 39405 40058 52001 82539   333 00015
555 10015=
38683 42997 23404 10167 20032 39807 40071 57007 80001   333 00011
555 10014=
38812 42997 21402 10193 20076 40057 57003 80001   555 10019=
38927 32997 03001 10188 20109 39689 40045 52004   333 00015   555
10017=
57996 32563 60000 10286 20239 40089 52023 81140 333 00201=
59021 11557 80000 10232 20228 40067 52019 60171 71098 888//
333 00051 70395=
59065 32580 70902 10280 20239 40078 52020 81132 333 00101
79999=
59218 32575 71802 10238 20204 40060 52015 86142 333 05100=
59228 32570 70000 10264 20241 40074 52022 878// 333 00000
70003=
59242 32570 32002 10283 20234 40068 52019 81101 333 00001=
59271 31557 72702 10268 20247 40083 52022 71000 85242 333
00000 79999=
59298 32566 21103 10290 20252 40089 52014 82101 333 00001=
59446 11578 70902 10276 20248 40069 52018 69901 78000 879//
333 05100 79999=
59453 11573 71402 10275 20236 40079 52022 69901 72580 86430
333 00000 79999=
59664 11470 71405 10293 20260 40070 52018 69901 70080 85242
333 05101 79999=
59754 11470 71103 10275 20261 40058 52017 69981 70080 86902
333 05151 70008=
59849 11580 21403 10256 20248 40055 52013 60011 72580 82100
333// 05201 70101=
59954 11465 71102 10282 20263 40051 52013 60071 78098 87902
333// 05201 70224=
60360 32960 02502 10172 20167 40215 58001
333 0//00 95990=
60390 32970 00000 10177 20165 40201 51004
333 95490=
60402 32960 00000 10177 20165 40201 58002
333 95990=
60419 32970 00000 10175 20142 40195 58005
333 0//00 95990=
60475 31760 30000 10195 20161 39282 48585 56002 70192 81502
333 81650 83073 95990=
60490 32970 20606 10201 20185 40178 50001 80002
333 82073 95990=
60525 31660 22102 10308 20130 40172 52011 70199 82200
333 0//00 82840 95990=
60531 32975 00000 10220 20146 40177 51005
333 0//00 95990=
60566 32960 00000 10283 20106 40170 51106
333 0//00=
60571 32662 21606 10295 2//// 39264 48574 50003 82200
333 0//00 82840 95990=
60580 32960 00000 10280 20105 40158 51004=
60590 32965 00510 10305 20055 40146 50004
333 0//00=
60611 32960 00000 10245 20069 40141 52004
333=
60656 32960 03107 10315 20076 40115 52011
333 0//00=
60670 32765 21507 10268 20062 39073 48547 51004 82200
333 0//00 82850 95990=
60680 32760 30610 10260 20068 38671 48541 58002 83230
333 0//00 82856 95990=
26863 41958 32701 10076 20070 39931 40165 51003 71011 83030
555 11007=
16022 32570 10404 10044 21021 37923 48554 51013 81200 92345 333 81830
=
40356 32960 00112 10220 20040 39132 48482 333 58012 555 04410 50042=
40360 32960 02816 10214 20070 39514 40066 333 58030=
40373 32960 00603 10294 20000 39624 40010 333 58002=
40375 32960 03308 10250 20070 39232 40050 333 58026=
40394 32960 03606 10296 20020 38959 48568 333 58006 555 04410
59990=
40405 32960 00000 10290 21050 39294 49974 333 59010=
40416 32960 03110 10290 20060 39975 49994 333 59005=
40430 32960 02804 10330 20020 39341 40009 333 58014=
40437 32960 01402 10282 21050 39350 40002 333 59010=
40438 32960 01205 10310 20000 39357 40011 333 59009=
40439 32960 02712 10270 20150 30021 40033 333 58025=
41024 32960 03204 10260 20210 30018 40037 333 58018=
41030 32960 00000 10298 20160 39764 40028 333 58012=
41036 32960 02908 10264 20060 38526 48472 333 58006 555 04410
59991=
41112 32960 00000 10193 20106 37927 48473 333 58000 555 04410
50009=
41114 32960 02703 10194 20128 37960 48470 333 59002 555 04410
59997=
41128 32960 00000 10230 21050 38762 48478 333
58010 555 04410 50018=
41136 32960 00000 10250 21040 39249 40017 333 58004=
41140 32660 12805 10313 20280 30023 40031 81400 333 58013 81630=
54171 32975 20000 10187 20096 40096 52008 80002 333 00400
79999=
54237 31958 72701 10189 20147 40109 52023 71000 81032 333
00800 70009=
54335 32960 52202 10185 20162 40102 52019 80002 333 00601
70054=
54339 11757 80000 10183 20154 40103 52023 69931 72160 8552/
333 00501 70003=
54365 11565 83401 10175 20148 40112 52016 69901 72160 885//
333 00500 79999=
54454 31658 50901 10160 20150 40104 52023 71000 85500 333
00651 70038=
54563 31440 21102 10168 20149 40098 52016 71000 81630 333
00502 70015=
59321 32580 72002 10280
20247 40105 52023 81142 333
00100=
57077 32968 72902 10188
20115 40037 52007 82042 333//
00151=
34504 42997 73402 10158 20136 39946 40118 54000=
33631 41697 82802 10126 20111 30048 40189 52018 76162 885//
333 88640=
33393 42560 80000 10108 20097 39791 40176 52004 8247/=
33135 42997 13203 10093 20082 39977 40154 54000 80001=
33663 42997 80000 10136 20095 30060 40153 54000 88030=
60355 32960 00000 10210 20171 40207 50000
333 95990=
60445 32965 20000 10197 20120 39056 48589 58001 82030
333 82360 95990=
60511 32965 00000 10190 20079 39098 48566 50006 82220
333 0//00 95990=
60555 32970 21504 10287 20139 40167 51002 80002
333 0//00 82073=
60559 32760 20000 10283 20154 51006 82200
333 0//00 82856=
60607 32960 00716 10295 21030 40139 50003=
60620 32960 00617 10320 2//// 40090 51001
333 0//00=
60640 32960 00806 10259 20069 40129 50001=
82100 333 00352 79999=
12195 32670 83203 10099 20043 39983 40209 52017 885//=
12435 11950 02902 10068 20064 30082 40256 53026 69901 71081 =
35849 42998 00000 10114 20073 30026 40107 54000   555 11008=
36864 42599 62901 10165 20058 40052 53001 86900   555 91112=
38222 42697 30000 10120 20097 39538 40068 54000 83900   555 10010=
38341 42999 01801 10131 20064 39326 40071 57007   555 10008 91111=
38343 42998 00000 10108 20070 40072 57001=
40706 32960 31002 10172 20067 38613 40048 57008 81042 92345 333
81359 82070=
40718 11960 00000 10222 20207 30124 40093 58009 69999 70181 92350
333 90212=
40732 32960 03002 10204 20164 30100 40080 57018 92350 333=
40745 32660 10000 10190 20044 38981 40036 52007 81500 92350
333 81640=
40754 32960 02706 10210 20106 38751 40001 53004 92355 333=
40766 32960 01202 10136 21051 38653 40052 58007 92350 333=
40811 32960 00000 10304 20035 39988 40014 58008 92350 333=
40841 32960 02103 10200 21072 38202 49967 53004 92350 333=
40848 32960 02805 10240 20003 38471 49983 58001 92350 333=
40875 31950 03602 10288 20262 39987 49999 57006 71000 92350
333=
40703 32960 00000 10140 20096 38873 40070 58003 92350 333=
40712 32960 00000 10132 20074 38655 40064 54000 92345 333=
40729 32960 00000 10102 20046 38322 40058 54000 92345 333=
40736 31956 00000 10214 20204 30120 40093 51008 71000 92350 333=
40743 32962 00000 10244 20032 38972 40023 53008 92350 333=
40762 32963 00807 10204 20052 38499 49985 56003 92350 333=
40809 32965 00505 10230 20030 38440 49948 56008 92350 333=
40821 32960 03103 10252 21041 38715 49977 51009 92350 333=
40831 32960 03606 10324 20104 30012 40020 58005 90250 333=
92021=
12488 11596 83403 10094 20092 30057 40211 52016 60041 76166 885//=
12280 32670 80000 10105 20066 30059 40220 52014 885//=
47407 32/80 63504 10168 20077 39948 40084 58011 81232
333 20093=
47409 11/70 72907 10113 20066 30055 40107 56005 69902 78022 877//
333 20086=
47418 11/60 80314 10097 20086 30049 40093 56013 60022 78082 887//
333 20085=
47421 11/58 71707 10175 20151 30026 40070 53002 69902 71052 81631
333 20142=
47430 32/60 81410 10152 20123 30020 40071 50006 886//
333 20131=
47570 11/58 83503 10179 20150 39810 40056 51010 69902 71022 885//
333 20160=
47575 31/58 83205 10161 20128 30056 40060 51007 71022 886//
333 20129=
47585 11/40 80404 10145 20139 39997 40052 54000 69952 74154 886//
333 20134=
47598 11/62 70606 10212 20166 30032 40038 50004 60052 70262 81131
333 20152=
47602 11/70 83409 10173 20136 30054 40074 53019 69902 70262 828//
333 20154=
47605 11/60 82907 10174 20161 30057 40096 53030 60092 72585 882//
333 20171=
47618 11/58 73104 10193 20152 39365 40048 53008 69952 71022 86202
333 20142=
47624 12/70 72802 10242 20177 39906 40034 55000 60012 81231
333 20159=
47636 12/75 63014 10227 20148 30008 40072 51019 60012 81872
333 20171=
47655 12/60 72705 10214 20182 30000 40054 51017 60122 8623/
333 20180=
47663 12/60 70906 10229 20204 30041 40072 53016 60072 83101
333 20179=
47675 11470 72206 10216 20178 39964 40055 51019 60382 70282 8187/
333 20182=
47741 12/65 22907 10202 20158 30086 40111 51019 60012 82200
333 20166=
47746 11/60 83108 10189 20148 30099 40117 53027 60032 70282 882//
333 20171=
47750 11470 83407 10190 20159 30081 40107 51029 69952 78082 882//
333 20173=
47755 12465 22506 10195 20169 30093 40117 51022 60022 82200
333 20171=
47772 11/65 73304 10209 20169 30002 40097 51028 69952 72582 872//
333 20190=
47800 32/65 10901 10209 20169 30090 40112 51018 81100
333 20153=
47815 12/60 20104 10222 20171 30097 40112 51021 69902 82100
333 20183=
47817 12/70 82902 10206 20166 30083 40124 53022 69902 882//
333 20183=
47830 32/82 43303 10241 20185 30090 40107 53023 84201
333 20214=
47837 11958 72912 10236 20195 30093 40114 53018 69902 71022 80002
333 20215=
47887 31456 72704 10205 20167 30073 40112 51024 71022 872//
333 20185=
47891 12/68 22607 10234 20157 30092 40103 51027 69902 82200
333 20187=
47899 11/65 70604 10200 20195 39879 40094 53023 69952 70242 87200
333 20185=
47927 32/80 71909 10284 20246 30077 40123 51022 85202
333 20263=
41240 32960 00603 10300 20274 39998 40001 333 58000=
33924 41958 23303 10180 20159 30125 40137 52010 71011 80003=
80002 333 20215=
57545 31857 70000 10210 20192 40053 52009 71000 875// 333
05304=
57016 32970 81401 10247 20162 49998 52014 8807/ 333 00102=
54026 32980 2000XP10201 20114 39791 40099 52016 80002 333//
00701 70011=
54027 32980 03201 10183 20107 39550 40107 52016 333// 00801=
54518 32562 20403 10215 20162 40094 52009 81102 333// 00601=
54852 31958 81602 10170 20155 40102 52025 71000 8807/ 333//
00501=
57089 31656 81803 10237 20205 40045 52013 71000 85507 333//
00202=
54135 32775 72901 10192 20146 39890 40100 52017 85432 333//
00701=
54753 32960 70703 10195 20156 30092 40098 52024 82042 333//
00501=
54857 11/01 91804 10156 20154 30016 40106 52018 60041 79594
333// 00551 70035=
57067 32975 72202 10206 20154 39396 40027 52006 80002 333//
00001=
57297 31958 71102 10234 20204 39918 40050 52010 71000 80002
333// 00103=
50564 32670 72902 10159 20086 40100 52001 87500 333 00102=
54049 32970 12201 10196 20151 40106 52017 80002 333 00603=
54157 32968 52902 10201 20138 40102 52017 80002 333 00501
79999=
54186 32965 00702 10142 20099 40108 52007 333 00553=
54377 11665 70701 10163 20125 40110 52010 69901 70080 874//
333 00500 79999=
54386 32565 30000 10146 20104 40107 52011 83200 333 00600
70006=
53664 32970 72501 10207 20093 40038 52012 8703/ 333// 00202=
54429 31940 00000 10191 20159 40095 52013 71040 333// 00501
70115=
54623 31950 00405 10211 20169 40091 52012 71000 333 00602
70033=
54705 11859 80403 10208 20178 40072 52018 69901 72160 82507
333// 00400 79999=
54736 31950 80903 10193 20168 40080 52019 71000 8802/ 333//
00402=
54824 11656 72201 10230 20190 40072 52011 69911 71098 874//
333// 00551 70001=
54936 32960 71603 10196 20173 40093 52013 87030 333// 00403=
57091 31956 61802 10238 20203 40052 52023 71000 80002 333//
00303=
53614 32980 40203 10198 20058 38841 40042 52009 82032 333
00201=
54102 32980 22202 10139 20107 39011 40126 52017 80002 333
01001 70021=
53772 31956 80402 10219 20157 39203 40055 52023 70400 8802/
333// 00301=
84600 22200 02150 20201 3//// 4//// 5//// 6//// 80120 ICE=
10803 70016
333 91207=
85123 22273 00120 20202 330// 40403 5//// 6//// 80110 ICE=
84396 22215 00200 20404 31023 40705 50704 6//// 80233 ICE=
11003 70017
333 91207=
81200 22233 00243 20102 316// 40302=
81001 22211 00137 20505 331// 41204 5//// 6//// 80106 ICE=
53083 32980 13403 10158 20084 40117 52017 80002 333// 00902
70036=
53487 32968 63602 10184 20057 40072 52010 80002 333// 00500=
54226 32580 60201 10188 20135 40107 52020 82102 333// 00853
70016=
54311 32970 00401 10148 20106 40118 52015 333// 00800 70100=
54534 32965 03401 10201 20165 40098 52013 333// 00503 70051=
54715 11965 80405 10204 20182 40077 52027 69901 72160 8807/
333// 00500 79999=
54945 31/05 90903 10168 20166 40106 52014 74540 333// 00401=
57290 32960 61403 10232 20200 40042 52011 86040 333// 00103=
53195 32970 00904 10184 20096 40108 52018 333// 00904 79999=
54624 32963 70406 10218 20162 40095 52014 80002 333// 00603=
54774 32962 41604 10190 20146 40093 52020 80002 333// 00403=
44210 32699 40000 10136 20034 38404 54000 82260 333 21137
555 30093=
44219 32698 60000 10174 21036 38522 40018 53009 83570 333
20158 555 30109=
44221 32999 30000 10134 20079 38496 40048 53002 83040 333
20085 555 30028=
44224 32698 71804 10155 21007 37998 49997 56001 85184 333
20040 555 30030=
44254 32598 70000 10147 21007 39019 40123 53012 82280 333
20101 555 30094=
44257 11598 70505 10137 20029 38957 40138 53016 69902 72168
87800 333 20127 555 30097=
44263 32998 00000 10079 21012 38002 40095 52002 333 20046
555 30015=
44338 32899 30000 10177 20074 38444 40041 52008 81088 333
20078 555 30057=
56066 36/// ///// 10058 20022 36612 4//// 52002
555 10050 2//// 3//// 40111 51001 60/// 7//// 80000
9//// ///// 1/020 2//00 30000=
57251 32963 70000 10222 20185 40035 52010 8703/ 333 05102=
57265 31611 72003 10232 20220 39940 40044 52016 71000 875//
333 00004=
57279 31950 81403 10220 20203 40052 52008 71000 8802/ 333
00005 79999=
57355 32965 20000 10213 20182 40048 52010 82030 333 05403=
57458 32980 21401 10176 20156 40065 52010 80001 333 05202=
57574 32960 71803 10261 20243 40041 52009 87042 333 05207=
57649 32962 50401 10233 20211 40054 52011 85040 333// 05303=
57662 32960 60000 10268 20235 30008 40047 52011 86040 333
05206=
57745 32965 60000 10238 20226 39747 40056 52011 86040 333
05204=
57793 31930 70401 10250 20233 40089 52032 71000 8704/ 333//
00104 70003=
57845 32962 72002 10247 20231 40064 52020 8704/ 333 05105
70001=
57853 31930 60000 10245 20229 40068 52014 72840 86040 333//
00002=
57872 31958 70000 10258 20241 40061 52013 71000 87040 333
05105=
57894 32675 70000 10219 20200 40097 52017 8754/ 333// 00253
70006=
57965 32961 70702 10249 20242 40076 52021 87040 333// 00151
79999=
57993 32964 70000 10266 20243 39947 40089 52018 8704/ 333//
00252=
58506 32270 71803 10231 20189 40091 52017 87802 333// 00307=
58519 32962 50903 10250 20225 40081 52013 85040 333 00204
70002=
58527 32961 10202 10248 20223 30004 40076 52010 80002 333//
00303=
58606 31957 71101 10268 20250 30024 40076 52018 71000 8704/
333// 00105 70002=
58608 31956 70000 10260 20246 40080 52019 71000 8707/ 333//
00102 70130=
58626 32962 00901 10267 20241 40082 52013 333// 00204 70344=
58634 31605 80402 10231 20228 40091 52013 74240 885// 333//
00301 70501=
58715 32562 71804 10252 20235 40086 52020 8114/ 333// 00301
70206=
58813 31330 70000 10238 20231 40082 52015 71040 82640 333//
00354 70290=
52737 11780 81102 10116 20032 37059 52014 69911 70080 885//
333 05101 70001=
52908 11965 80706 11028 21037 35774 54000 60011 77077 8802/
333 05252 31004 70028 92502=
56004 11680 71602 10010 20004 35820 57002 60021 72287 86502
333 05301 30001 70023 92500=
52818 32975 81801 10135 21050 37216 52006 8802/ 333 00001=
50915 32980 10000 10160 20096 39166 40111 52010 80002 333
00802=
53192 32980 10000 10148 20085 38877 40130 52016 80002 333//
00902 70006=
53529 32980 70904 10192 21002 38576 40044 52010 80002 333//
00201=
54012 32970 30000 10122 20104 39002 40126 52013 80002 333//
00852=
54208 32580 40402 10127 20102 38739 40126 52015 81102 333//
00951 30024 70070=
54776 31320 71807 10138 20136 30042 40099 52015 71000 876//
333// 00401=
52634 36/// /0000 10024 20008 36755 4//// 52002
555 10040 2//// 30128 41111 51011 60/// 7//// 80000
9//// ///// 1/117 2//00 30000=
56386 31930 80000 10243 20198 40004 52006 71000 8803/ 333
05604=
56459 32880 63403 10193 20114 37606 52007 81140 333 05506=
56475 32675 70000 10188 20158 38259 52010 87400 333 05604=
56485 32562 60201 10193 20173 40011 52007 81142 333 05502=
56565 31580 50901 10187 20120 37459 52004 70090 82440 333
05406 79999=
57313 32978 80000 10219 20185 40013 52007 8807/ 333 05602=
57405 11965 83601 10233 20200 40008 52016 69901 70080 8807/
333 05703 79999=
57432 32965 00000 10223 20202 40022 52003 333 05604=
56178 32980 00000 10163 20097 37625 52009 333 05603 70004=
57528 16/// /2000 10161 29756 37563 61430
555 1/135 2//00 30207 12100
11101 10100 10111 01110 1111/
/////
2//// 3//// 6//// ///// ///// 8//// 9//// ///// ///// //004
11101 11111 1011/
11111 110//=
45011 11475 61307 10296 20261 40090 52014 69902 71582 85231
333 20273 59001=
53853 32968 80000 10231 20052 40016 52014 8801/ 333 00203=
57655 32960 70000 10231 20216 40057 52010 8704/ 333
05203=
47008 12565 80000 10120 20098 30075 40127 52005 69902 885//
333 20101=
47014 31560 80000 10147 20136 39710 40090 52009 71022 88500
333 20132=
47016 12570 60000 10142 20101 39274 40110 52014 69932 86500
333 20108=
47020 12565 82701 10169 20126 39756 40114 52010 69912 8653/
333 20125=
47025 32560 71602 10115 20110 30092 40123 52022 87500 333
20100=
47035 11560 82301 10160 20137 30102 40110 52017 69902 71062
8412/ 333 20152=
47041 11760 82002 10152 20123 30101 40127 52010 69902 71042
88020 333 20128=
47055 31560 80502 10158 20118 30095 40138 52027 71022 8653/
333 20130=
47058 32566 80702 10153 20133 30063 40108 52004 885// 333
20132=
47069 32960 01403 10198 20123 30003 40097 52002 333 20121=
23914 42999 71101 10144 20068 39919 40163 53006 87070=
23921 42999 23101 10045 20035 30080 40198 52011 82040=
23955 32598 83506 10056 20005 30019 40079 52010 885// 333
20051 55076 88626=
24641 32999 72302 10157 20023 39956 40087 53002 80002 333
20065 55177=
28440 42998 23101 10087 20051 39831 40170 52006 80005=
28748 42960 23201 10078 20058 39912 40145 52004 81041=
29231 12498 83001 10079 20059 39927 40018 52008 69962 883//
333 20078 55006 86917=
29838 11597 82004 10137 20134 39779 49995 53013 69992 78182
885// 333 20136 55073=
30372 32999 20000 10099 21009 39324 40151 51002 80001 333
21014 55114=
30673 32999 00000 10098 20006 39425 40158 52004 333 21020
55153=
30823 32998 00705 10150 20025 39514 40107 53001 333 20094
55116=
30935 12699 52604 10133 20100 39238 40115 53002 60032 82981
333 2//// 55100=
30965 32999 30703 10142 20021 39376 40153 52009 80002 333
20021 55148=
31004 11599 20302 10095 20041 39336 40127 52011 60052 70281
82100 333 20059 55044=
31088 32599 72302 10085 20034 30086 40093 52007 10021 30005
7000/=
31137 12699 82702 10079 20048 39905 40083 53003 69902 889//
333 21035=
31168 32999 80603 10078 20015 30083 40094 57003 81058 333
20001 55135=
31300 11599 63201 10123 20078 39821 40092 52008 69902 70282
86900 333 20067=
31329 32699 72603 10152 20025 39447 40068 58004 87900 333
20019 55014=
31369 32998 01008 10136 20062 30055 40137 58010 333 20042=
31371 32699 13204 10134 20045 39861 40110 52005 81100 333
20070 55035=
31388 11599 40000 10028 20105 39851 40097 52007 60032 70282
83980 333 20104 55046=
31416 32999 11501 10137 20059 30024 40110 58007 80001 333
20077 55150=
31510 119// 33101 10161 20089 39944 40099 52002 69902 70261
82031 333 20109=
31594 32698 21806 10166 20080 39935 40093 58004 82130 333
20122=
31707 32999 30000 10162 20090 30027 40112 58003 80001 333
20087=
31735 32997 70302 10147 20077 30028 40111 51001 80001 333
20073=
31866 32498 30304 10063 20052 30144 40149 54000 83600 333
20058=
31873 32599 32803 10171 20099 39976 40095 52006 81501 333
20114=
31909 11999 51302 10138 20050 30057 40131 58004 69900 70282
80009 333 20065 55105=
31960 32999 22105 10124 20050 39901 40126 51012 82030 333
20077 55057=
32053 31398 11305 10060 20039 30121 40162 58003 70141 81600
333 21008=
32061 32599 22505 10082 20038 30118 40156 57004 81501 333
20043=
32098 32598 71402 10069 20033 30171 40181 53006 87500 333
20045 87624=
32150 32598 23603 10100 20045 30121 40150 58009 82100 333
20029=
32165 11340 80505 10050 20041 30068 40128 58007 69940 76362
8872/ 333 20052=
58402 32960 10000 10226 20209 40077 52017 80002 333
00003=
57562 32966 62501 10254 20219 40039 52012 86040 333
05105=
51288 32980 61404 10145 21008 38278 52005 81042 333 05102=
56038 32680 70000 10048 20019 36099 54000 874// 333 05304
30006 70036=
47003 12980 81402 10144 20095 30131 40135 52015 69902 85031
333 20120=
47005 32680 31801 10117 20071 38567 52003 83200 333 20018=
47028 32667 83201 10174 20145 30014 40103 52013 885// 333
20146=
47031 32570 80000 10119 20113 885// 333 20085=
47037 31542 80000 10162 20148 39999 40117 52022 76062 8802/
333 20156=
47039 32960 60000 10195 20177 39926 40106 54000 86500 333
20149=
47046 32569 60904 10143 20111 30108 40131 52024 82530 333
20113=
47060 11950 71102 10148 20130 30045 40106 52001 69902 72162
87030 333 20122=
47061 32670 80502 10155 20124 30089 40131 52025 885// 333
20127=
47065 11560 61801 10148 20128 30050 40113 58001 69902 72160
85530 333 20118=
47067 31960 80000 10167 20139 39992 40107 52013 71022 8801/
333 20127=
47068 32960 00000 10174 20143 30067 40100 52002 333 20107=
98223 31565 10902 10285 20252 40091 52011 70544 81100 333
20243 56999 59004 81820=
98325 31462 11804 10284 20260 40080 55001 70544 81200 222//
20000 333 20247 56999 59008 81817 98308=
98429 31560 40000 10303 20222 40099 52015 70544 83801 333
20262 56999 59001 83823=
98440 12480 40903 10302 20276 40095 53014 69934 84201 333
20275 56299 59003 70003 84818=
98444 11468 50902 10268 20252 40096 52011 60034 70182 82202
333 20256 56999 59001 70026 82818 84070=
98550 11460 30000 10292 20260 40088 53010 60014 70544 82261
222// 20101 333 20258 56999 59003 70012 82818=
98618 11475 43402 10272 20251 40079 52013 69934 70544 81201
333 20244 56999 59001 70003 81819 84075=
98630 32580 20402 10296 20265 40084 53009 82201 222// 2//01
333 20254 56199 59007 82820=
98637 31475 33602 10288 20245 40082 53015 70521 81201 333
20254 56999 59005 81812 83075=
98755 11575 70000 10265 20259 40090 53014 60184 72582 84561
333 20232 56999 58001 70146 84820 86359=
98836 31565 42801 10280 20240 40078 53007 70544 81201 333
20246 56999 59017 81820 84081=
44207 32999 30000 10082 20011 38284 40105 54000 81086 333
20008=
44231 32699 20000 10152 20058 38650 40059 54000 82100 333
20094=
44232 32999 00903 10127 20055 39043 40107 52005 333 20089=
44239 32999 20000 10129 20062 38738 40036 54000 333 20039=
44241 32999 00000 10126 20090 39188 40111 52014 333 20080=
44259 11698 61405 10162 20011 39288 40140 52015 69902 76061
84570 333 20094 55149=
44272 32998 80000 10127 20027 38163 40032 52006 83088 333
20083 55147=
44277 32599 71801 10136 20053 37787 40046 53007 85854 333
20085 55///=
44285 32999 00000 10100 20046 38307 40120 52008 333 20032=
44288 32999 20000 10146 20068 38158 40080 53011 80001 333
20059=
44292 32699 31403 10159 20029 38666 40098 51006 82280 333
20118 55136=
44298 32999 10000 10158 21009 38692 40098 53014 80002 333
20119=
44304 32599 40205 10165 20002 38973 40116 52035 82384 333
20066=
44347 32999 10902 10179 20071 38675 40088 51010 80004 333
20117=
44373 32999 11403 10183 20064 38495 40073 52006 80008 333
20125 55142=
28661 42999 03605 10079 20045 30040 40130 52005=
28679 42699 23403 10088 20058 39913 40084 53003 82900=
28879 42997 62902 10091 20067 39803 40078 57008 86050=
28952 42598 60000 10083 20059 39942 40130 53001 86500=
29023 12598 80202 10051 20021 39945 40038 52007 69992 8693/
333 20050 55000=
29122 12699 83203 10069 20031 39975 40047 52010 69902 885//
333 20069 88641=
29807 42597 83301 10100 20076 39916 40028 58004 885//=
30230 32599 81201 10116 20058 39774 40079 52003 83932 333
20035 55106=
30309 42998 61804 10156 20045 39468 40026 54000 83031 333
20124=
30385 32999 30000 10091 20041 39617 40132 52005 80001 333
20015 55012=
30650 32999 50000 10080 21002 39099 40165 52006 80001 333
21022=
30710 42960 61505 10113 20011 39490 40083 58002 80001 333
20034=
30844 32999 21603 10136 20016 33920 40115 52002 82030 333
20051=
31532 32999 22501 10151 20050 39779 40103 57011 82030 333
20011 55107=
31829 32498 60410 10050 20041 30123 40155 53005 86630 333
20050=
31989 32599 51404 10107 20059 30063 40115 52010 81201 333
20093=
35078 41698 72804 10096 20092 39711 40072 57006 70262 83571=
35108 42997 00000 10109 20090 40162 52010=
35188 41498 83302 10106 20100 39642 40053 57003 70282 8595/=
35229 42997 00000 10075 20059 39888 40154 52005=
35416 42997 10000 10089 20070 80001=
35671 42998 23203 10098 20061 39670 40080 57001 82040=
35746 42998 03402 10118 20070 30028 40104 53004=
35796 41598 73003 10149 20118 39638 40044 53007 78081 87500=
36003 41497 83402 10126 20119 39871 40014 58001 78082 889//=
36177 41597 80801 10130 20115 39797 40026 53001 78081 883//=
36428 42699 70902 10144 20106 39575 40040 51005 85951 333
95000=
36859 42599 80403 10147 20097 39351 40084 57006 8597/=
36870 42998 81401 10152 20050 39103 40052 57004 8807/=
38198 42999 63105 10157 20065 86040=
44214 32698 63201 10136 20043 38197 40022 58002 84840 333
20095=
42361 22596 52202 10282 20236 40000 83430 333 59008 6002/
82625 83830 84360=
42647 32996 12703 10298 20228 40029 81030 333 59024 81360=
42667 21596 70206 10236 20184 39464 40044 72166 84331 333
58002 6003/ 83520 81925 85360 86075=
42724 31496 70000 10266 20260 40020 70520 85630 333 59020
82710 83620 86360=
42737 32996 12302 10278 20252 40026 80001 333 59018 81075=
42779 22597 41801 10232 20193 39335 40021 81501 333 59015
6011/ 81620 84075=
42809 21995 30000 10270 20244 40007 70521 80001 333 59021
6993/ 83075=
42867 22596 52004 10242 20230 40028 82530 333 59008 6004/
82620 84360=
42909 32596 12704 10298 20257 40036 81500 333 56600 59016
81620=
43003 21595 60000 10278 20258 40041 71322 84930 333 59026
6990/ 82620 83825 81930=
43014 21596 72703 10222 20213 39409 40050 70196 84570 333
59014 6088/ 84620 83458 85360=
43063 32596 70000 10248 20217 39436 40053 87700 333 59018
84724 83628=
43117 21596 83601 10238 20232 40043 75066 8677/ 333 59025
6034/=
43128 21496 63203 10236 20227 39447 40048 70522 84701 333
56705 59012 6990/ 83710 83615 85070=
43185 31596 72301 10280 20254 30013 40016 71322 83308 333
57951 59011 82620 81925 83270=
43189 32596 71402 10294 20266 30007 40016 83832 333 59011=
43192 21495 81103 10250 20247 40056 76162 8592/ 333 57982
59024 6030/=
43245 21596 82301 10260 20243 30007 40029 72162 8352/ 333
59011 6010/=
43279 32596 60000 10280 20224 30012 40029 82536 333 59016
82620 83360 86270=
43284 53205 10215 20215 39948 40064 72122 83310 333 57950
59018 6009/ 82610 81925 85258=
43295 22996 22702 10204 20198 39051 48461 80001 333 59027
6019/ 82078=
43321 21496 60000 10234 20228 39615 40060 70522 83531 333
59019 6005/ 83615 84358 86070=
43344 31596 62904 10268 20233 39950 40048 70522 82532 333
59012 82620 83360 85075=
43371 21496 73203 10240 20231 30002 40075 76096 8437/ 333
5679/ 57962 59008 6007/ 82715 81925 87458=
22550 41497 82804 10145 20128 30109 40119 52013 70298 885//
333 88615=
22583 42680 72302 10139 20128 30040 40117 57002 81272=
22845 41498 93302 10109 20097 30009 40160 52013 70282 893//
333 89917=
26063 42997 60000 10097 20095 30164 40177 52006 80001=
26298 41596 80000 10099 20093 39948 40174 58001 78082 889//=
26477 42570 80000 10110 20094 30040 40165 52001 885// 333
88625=
26702 41996 00301 10055 20050 30194 40220 52011 71000=
26997 41445 83302 10127 20121 39904 40116 52009 71022 889//
333 86915=
27595 42997 01202 10146 20095 30037 40175 52009=
27612 419// 63201 10147 20130 39934 40119 57007 71022 86060=
27947 42997 01403 10153 20099 39993 40146 51002=
27962 42997 00000 10150 20103 40162 52006=
34009 41596 82003 10143 20139 39816 40108 52007 71022 885//=
34172 42960 29901 10174 20092 39982 40166 53002 80001=
34247 42967 50000 10132 20088 30031 40141 52011 50001=
34391 32997 01801 10137 20094 30124 40154 52005=
37054 41697 62602 10152 20142 39763 40133 52008 70398 86900=
44212 32999 51804 10177 20048 38958 49994 53005 85080 333
20110 55131 30100=
44218 32998 20000 10173 20047 38489 49996 54000 82040 333
20115=
44282 32999 13401 10132 21007 38275 40106 53004 80004 333
20069=
44294 32998 30000 10151 20093 38537 40092 58002 83100 333
20073=
44314 32998 33602 10162 21002 39116 40142 52017 82063 333
20073=
44341 32999 00000 10159 20041 38580 40098 53010 333 20099=
44352 32999 20000 10173 20090 39000 40111 52022 80004 333
10115=