ZCZC 000
SMCI10 BENJ 141800
AAXX 14181
82145 22275 00290 20404 312// 40804 5//// 80255=
91800 22273 04240 80210=
54094 32962 00705 10169 20070 39901 40182 52010 333 10293=
50968 32970 00404 10138 20064 40181 52008 333 10279=
50557 32970 00202 10080 20011 39943 40235 57003 333 10195=
50854 32970 00704 10116 20030 40200 57004 333 10238=
59072 32970 02501 10238 20216 40101 54000 333 10345=
54662 32970 03403 10211 20181 30037 40153 57001 333 10268=
54337 31958 00901 10187 20167 30081 40163 57003 71000 333
10291=
58436 32962 71401 10180 20172 40122 57003 80002 333// 10280=
54455 32965 00000 10154 20147 40151 57008 333 10268=
54623 32970 61402 10229 20162 40154 57005 80002 333 10272=
57584 32960 01101 10257 20202 40105 57004 333// 10316=
54335 32960 03602 10166 20128 40158 57003 333 10285=
58549 32763 73201 10228 20186 40100 57007 875// 333 10289=
57378 32962 63401 10253 20203 40126 57001 86030 333 10332=
59087 31958 00000 10230 20218 40092 57003 71000 333 10335=
59673 32964 00000 10270 20253 40085 57010 333 10332=
53975 32962 80000 10215 20164 40136 57008 8807/ 333// 10267=
53673 32960 83201 10198 20147 40132 57004 8807/ 333// 10267=
54471 32960 03601 10191 20171 30138 40155 57005 333 10285=
50873 32970 03401 10112 20035 40216 52011 333 10259=
56571 32780 80000 10220 20181 38385 57001 884// 333 00203
10280=
57972 32962 00000 10242 20207 39889 40101 57002 333// 10330=
54339 32960 00000 10196 20148 40131 57004 333 10285=
54157 32762 20401 10179 20147 40160 57004 82500 333// 10279=
56492 11725 80000 10215 20210 39725 40116 57010 60011 76060
885// 333 00300 10240=
50888 32980 03203 10109 20037 40202 52005 333 10300=
50844 32962 70403 10122 20063 40199 57006 80002 333 10218=
50877 32970 00703 10125 20021 40215 52002 333 10280=
54096 32970 00902 10140 20094 40190 52008 333 10280=
50745 32965 60704 10134 20034 30040 40216 52003 80002 333
10211=
50963 32960 00706 10119 20057 30072 40202 52010 333 10262=
50353 32970 20000 10038 20023 30051 40271 52004 80002 333
10143=
50564 32970 00000 10003 21008 40246 57005 333 10184=
50136 32770 70000 10041 20036 39720 40245 57006 87500 333
10117=
50953 32970 03402 10120 20073 30009 40182 57006 333 10242=
50658 32980 80704 10099 20019 40220 57004 80007 333 10209=
50788 32970 03602 10093 20048 30126 40208 52011 333 10251=
58918 32962 02201 10223 20202 40091 57006 333 10334=
58926 31758 70000 10215 20196 40089 57002 71000 87500 333
10336=
58737 32962 00000 10203 20186 40096 57004 333 10330=
57328 31950 80901 10221 20204 39701 40093 57006 71000 8807/
333 10256=
56287 31840 80000 10202 20196 40123 57014 71000 885// 333
00201 10225=
54476 32962 01801 10146 20137 40166 57003 333 10272=
59948 32570 70701 10267 20247 30081 40089 57008 81142 333//
10306=
59102 32960 00000 10202 20191 40091 57005 333// 10327=
58606 32962 00202 10237 20194 30052 40104 57006 333// 10313=
53782 31957 80000 10195 20158 40139 57007 71000 8802/ 333//
10267=
57780 32963 00000 10253 20220 40102 57002 333// 10336=
58040 32960 03601 10198 20174 30135 40139 57008 333 10265=
58358 11461 83407 10228 20200 40103 57009 69901 76000 8277/
333 10288=
58141 32961 00000 10182 20177 30119 40136 57009 333 10281=
58241 32570 83602 10215 20196 40130 57008 885// 333 10285=
53463 32670 72201 10199 20131 38944 40107 57003 82902 333//
05105 10246=
54236 32980 60203 10168 20111 30060 40159 57004 80002 333
10291=
54563 32965 03603 10192 20172 40144 57005 333 10289=
91772 31498 61104 10245 20197 40148 70222 868// 333 563//=
91776 31498 51409 10247 20201 40160 70222 851// 333 563//=
91784 11498 21008 10220 20185 40160 69931 72500 82200 333 562//
82818=
91792 31499 21408 10199 20176 40187 53007 70100 82100 333 563//
82818=
16597 32970 31606 10234 20194 30045 40130 55006 80002 333 10280 83075
=
54135 32980 70203 10163 20064 39957 40167 57014 80002 333//
10265=
52652 32980 01802 10181 20082 38455 40025 57018 333// 05201
10262=
50948 32970 00404 10147 20065 40179 57010 333// 10237=
54266 32962 00000 10132 20119 40163 52002 333// 10276=
54181 32962 00901 10120 20113 40173 52005 333// 10287=
54273 32970 00000 10124 20115 40165 54000 333// 10288=
54186 32970 02501 10116 20107 40166 54000 333// 10277=
54386 32970 00402 10096 20092 40166 52009 333// 10269=
56096 32780 80000 10211 20159 38920 40097 57009 885// 333//
00451 10245=
59294 31957 13402 10244 20226 30051 40094 57006 71000 81040
333 10334=
59287 32960 50000 10263 20225 30040 40089 57005 83042 333
10338=
59096 32968 02701 10217 20189 40098 57004 333 10332=
59293 32962 03201 10249 20218 30038 40085 57004 333 10341=
50978 32980 00203 10142 20014 39918 40195 52006 333 10300=
50468 32975 03202 10036 20021 30059 40263 52005 333 10174=
50862 32970 00403 10099 20030 40204 57001 333 10241=
50950 32965 01103 10136 20032 40183 57007 333 10248=
50349 11670 81801 10029 20019 40263 57008 69921 70080 889//
333 10152=
50758 32970 00705 10102 20017 40230 57006 333 10214=
53480 32980 21801 10159 20088 40122 57002 80002 333// 10239=
58321 32960 02901 10210 20167 40130 57005 333// 10292=
58326 32970 00203 10211 20164 40127 57006 333// 10298=
58236 32670 50202 10205 20172 40126 57010 85500 333// 10293=
58311 32965 00901 10213 20164 40127 57004 333// 10307=
58102 32965 00902 10212 20159 30086 40135 57004 333// 10293=
58015 32965 00902 10206 20157 40142 57005 333// 10285=
58437 31970 00705 10124 20063 38164 57009 70040 333// 10172=
58314 32970 02901 10176 20159 30047 40131 57005 333// 10307=
58215 32960 00902 10182 20158 40141 57003 333// 10290=
57602 11715 82201 10212 20207 40115 57006 69901 76060 885//
333 10232=
53845 32960 80000 10192 20165 39061 40121 57012 8807/ 333
00100 10223=
50853 32970 00406 10104 20033 40202 57002 333 10235=
50442 32970 10000 10055 20018 40247 52004 81030 333 10207=
50774 32960 20000 10040 20030 39940 40236 52002 80002 333
10215=
50756 32970 00405 10093 20020 39931 40217 57007 333 10219=
50656 32970 21103 10070 20024 40236 54000 80002 333 10197=
53646 11970 81104 10190 20148 38952 40112 57011 69901 70050
8802/ 333 00102 10236=
59758 32970 60000 10269 20256 30070 40091 57010 80002 333//
10318=
59855 32570 20000 10266 20256 40088 57008 81102 333// 10339=
59838 32970 00702 10272 20254 30075 40089 57007 333// 10301=
57522 31720 80000 10246 20216 40098 54000 71000 885// 333
10305=
57259 32965 70000 10206 20187 40122 57004 8704/ 333 10289=
56691 11465 81403 10169 20163 37795 57003 69961 78086 889//
333// 00200 10231=
57707 32662 80000 10205 20181 38489 54000 885// 333// 00201
10283=
57713 32665 81101 10254 20194 40086 57001 885// 333// 00202
10308=
57832 32768 80000 10204 20198 40102 57008 885// 333// 10314=
57816 32665 51402 10219 20184 38775 40078 57002 85500 333//
00101 10306=
58543 32970 03602 10217 20182 40109 57007 333 10301=
58556 32560 80202 10221 20191 40101 57007 885// 333 10283=
58633 32962 03602 10210 20190 30007 40102 57006 333 10296=
58646 31658 70000 10211 20194 40100 57006 71000 875// 333
10296=
58666 11465 83410 10215 20215 39966 40063 57009 60031 76060
887// 333 10271=
58667 32875 23210 10253 20179 40059 57017 82500 333 10306=
58760 32970 03207 10253 20179 40060 57017 333 10315=
58457 32765 73403 10238 20190 30055 40104 57010 874// 333
10290=
58660 32775 73203 10251 20175 40082 57005 875// 333 10298=
58027 32963 00201 10194 20160 30096 40145 57005 333 10285=
59211 31940 70000 10257 20241 39891 40089 52002 71000 8704/
333// 10339=
59023 31959 70000 10271 20237 39849 40086 57001 71000 8704/
333// 10348=
59265 31930 00201 10254 20245 39957 40089 57004 71000 333//
10335=
59058 31958 70000 10250 20230 40096 54000 71000 8704/ 333//
10341=
59209 32565 60000 10212 20202 40102 54000 86800 333// 10300=
59647 32560 22702 10274 20259 40088 57009 81902 333// 10306=
59632 32962 02201 10274 20251 40091 57004 333// 10332=
59254 32960 00000 10264 20237 40085 57002 333// 10342=
59849 32963 02201 10243 20234 40097 57004 333// 10320=
54454 32961 00000 10165 20155 40170 57001 333 10277=
57662 32960 02901 10250 20209 30072 40112 57005 333// 10333=
57447 32960 82002 10211 20193 39603 40120 52002 8807/ 333
10291=
54511 32960 70000 10207 20180 30118 40156 52004 8703/ 333
10292=
57405 11762 80000 10213 20205 40111 57006 60061 76066 885//
333 10234=
56294 31957 80000 10207 20199 39543 40122 57010 71000 8807/
333 00200 10235=
56188 11858 80000 10191 20186 40120 57006 69911 71060 885//
333 00200 10208=
57411 11920 82001 10208 20205 39751 40108 57007 69901 71060
8807/ 333 10211=
57306 11940 80000 10207 20199 40113 57004 60041 76066 8802/
333 10219=
59278 32960 02503 10262 20231 40082 57008 333 10335=
57996 32963 00000 10232 20208 40095 57002 333 10329=
59658 32462 22201 10282 20251 40089 57006 82100 333 10329=
50983 32970 03403 10109 20071 40195 52011 333 10266=
50742 32965 00904 10115 20019 40220 52002 333 10211=
54753 32970 00000 10177 20153 30143 40149 57003 333// 10270=
54916 32962 01601 10184 20167 40152 57004 333// 10303=
54823 32960 01403 10190 20142 39949 40144 57003 333 10297=
54909 31959 00000 10183 20175 30086 40146 57001 71000 333//
10290=
54725 32965 00902 10168 20158 40147 57005 333// 10299=
54863 32980 03202 10190 20155 40145 57009 333// 10278=
54715 32963 00903 10193 20163 40143 57001 333// 10301=
54836 32960 00000 10172 20145 40154 57005 333 10282=
59037 32560 60000 10271 20251 39891 40086 54000 81141 333//
10339=
57957 32960 70202 10259 20219 39909 40096 54000 8703/ 333//
10350=
50838 32980 70703 10146 20021 40195 57006 80002 333// 10232=
53915 31757 80902 10157 20151 38651 40127 57015 71000 885//
333// 00200 10170=
54618 32961 50901 10191 20159 30130 40147 54000 80002 333//
10297=
54423 32965 70000 10158 20148 39728 40171 52008 80002 333//
10281=
54602 32960 83601 10218 20167 40152 54000 80007 333// 10308=
57793 32962 30000 10238 20195 40113 57003 83040 333// 10330=
57799 32975 03202 10235 20195 30022 40102 57003 333// 10325=
57896 32980 72501 10234 20199 40102 57003 8703/ 333// 10319=
58626 32968 00901 10233 20183 40099 57006 333// 10322=
52533 32980 00201 10140 20070 38492 40076 52016 333// 00151
10257=
58725 32960 01401 10189 20181 39850 40100 57002 333 10322=
58847 32661 72702 10251 20212 39982 40079 57008 875// 333
10345=
58730 32961 03601 10202 20172 40101 57005 333 10314=
58944 32562 22702 10261 20228 40076 57012 82500 333 10306=
58933 32970 00401 10167 20136 40091 57010 333 10273=
58731 32968 00000 10181 20159 40103 57006 333 10295=
58846 32960 03401 10247 20196 40078 57014 333 10321=
58820 31950 00000 10191 20179 40095 57005 71000 333 10306=
58754 31659 10000 10231 20179 40080 57012 71000 81500 333
10325=
59954 11565 43201 10258 20249 40093 57007 69901 70080 82202
333// 10319=
59126 31557 73101 10256 20227 40084 57007 71000 83440 333
10355=
51709 32980 20201 10183 20092 38716 40113 52015 80002 333//
00452 10254=
51839 11/35 90902 10176 20032 40105 57001 69901 70680 333//
00551 10260=
59644 32962 02502 10274 20257 30072 40087 57005 333// 10312=
59046 31750 80000 10280 20252 40091 54000 71000 885// 333//
10357=
51431 32980 13201 10129 20037 39461 40231 52007 80002 333//
00204 10198=
50527 32970 71104 10141 20010 39451 40154 57016 80002 333//
10212=
57461 32965 80000 10234 20195 39967 40121 57006 8807/ 333
10289=
58343 11462 83603 10227 20207 40117 57008 69901 76000 8577/
333 10278=
58150 32961 00203 10224 20178 30121 40129 57008 333 10266=
58259 11562 80205 10228 20221 40111 57008 60011 76060 885//
333 10272=
58138 32660 63603 10207 20193 40129 57012 86500 333 10271=
51628 32960 10000 10097 20083 40141 52008 80002 333// 00456
10225=
59981 32580 43601 10271 20253 30075 40081 57014 82102 333//
10311=
59845 32965 71801 10256 20250 40089 57013 80002 333// 10324=
59985 32580 10401 10272 20252 30071 40076 57015 81100 333//
10315=
57516 11730 82501 10226 20205 39807 40104 57004 69921 71060
885// 333 00202 10266=
53513 32970 02003 10184 20150 38954 40092 52002 333// 00151
10256=
58424 32965 20204 10229 20183 30093 40116 57003 82040 333//
10293=
58221 32962 00701 10199 20164 30103 40137 57008 333// 10290=
58203 32965 00903 10212 20155 30089 40133 57004 333// 10303=
58531 32975 00000 10196 20183 40113 57005 333// 10297=
58122 32970 00402 10205 20164 40137 57007 333// 10299=
58319 32965 03402 10222 20165 40123 57002 333// 10295=
58338 32962 00000 10202 20181 40120 57006 333// 10287=
58472 11475 80410 10242 20238 39989 40083 57004 69911 70080
888// 333 10251=
58647 31958 00000 10187 20177 40108 57004 71000 333 10305=
58562 11462 82903 10222 20211 40089 57010 60021 78080 884//
333 10272=
58464 11565 83402 10227 20224 40098 57009 60031 78080 8647/
333 10280=
58752 32668 52903 10251 20168 30030 40073 57013 83540 333
10308=
54401 32962 81103 10208 20136 39335 40142 57001 8807/ 333//
10290=
59456 32566 70701 10264 20238 40090 57004 874// 333 10352=
59664 32968 10000 10271 20254 40095 57003 80002 333 10332=
59082 31956 01101 10241 20208 30019 40093 57002 71000 333
10333=
59663 32962 02702 10278 20256 30061 40088 57006 333 10340=
51133 32680 40000 10075 21033 39596 40234 52009 83402 333//
00203 10165=
56666 32780 30000 10237 20205 40042 52002 83400 333 00200
10316=
57206 31758 80000 10207 20177 40110 57013 71000 885// 333
10215=
56386 11820 80000 10210 20205 40117 57011 69901 71060 885//
333 00200 10224=
57313 11930 80401 10209 20197 40103 57009 60011 76060 8807/
333// 00102 10212=
56193 32664 80000 10193 20177 40108 57014 8347/ 333 00201
10262=
57237 31956 80000 10188 20183 40127 57008 71000 8807/ 333
10214=
59417 32970 00000 10266 20248 39946 40092 57002 333// 10334=
54259 32965 01101 10136 20123 40166 57003 333 10289=
54342 32962 00201 10167 20153 30099 40157 57004 333 10288=
54497 32962 00402 10189 20179 30134 40148 54000 333 10302=
54237 32960 00701 10169 20120 40166 57008 333 10291=
54324 32965 50402 10207 20112 40158 57001 80002 333 10290=
54333 32960 00000 10171 20142 40158 57002 333 10278=
54493 32974 00000 10155 20143 40148 57003 333 10303=
54365 32965 00000 10152 20131 40164 52005 333 10301=
54579 32980 03603 10216 20199 40144 57001 333 10266=
54584 32965 03202 10186 20159 40141 57005 333 10293=
54346 32965 20902 10152 20134 40161 57008 80002 333 10293=
54527 32960 71101 10214 20185 40155 57004 80002 333 10297=
54012 11678 71605 10160 20037 39020 40123 57009 69901 76000
875// 333// 10243=
50915 11575 71804 10186 20080 39168 40104 57006 69901 78080
86902 333// 10229=
54208 32980 70000 10131 20108 38773 40139 57008 80002 333//
10240=
53192 11580 71805 10192 20076 38869 40093 57007 69911 70080
85902 333// 10258=
57265 32960 00000 10228 20177 30015 40120 57001 333 10307=
53882 31957 80000 10184 20150 40134 57008 71000 8802/ 333//
10254=
53487 32960 70902 10176 20103 40121 57001 85032 333// 10273=
53564 32970 82204 10217 20142 39160 40108 57003 8802/ 333//
00007 10273=
53772 32960 80000 10209 20178 39267 40132 57005 8802/ 333//
10271=
53663 32970 80202 10182 20106 40103 57004 8802/ 333// 10261=
53853 11965 81404 10197 20162 40125 57005 69901 70060 8802/
333// 10240=
53787 32962 82002 10192 20146 40140 57004 8807/ 333// 10253=
53478 32770 71802 10176 20122 40118 57001 875// 333// 10236=
53868 11960 81802 10223 20186 40120 57003 69901 76000 8802/
333// 10283=
53664 32970 71602 10211 20139 40113 57004 8703/ 333// 10269=
59133 31957 23401 10260 20228 40073 57006 71000 82030 333
10303=
59321 32975 72503 10265 20241 40074 57011 86042 333 10291=
58921 31957 02201 10219 20201 39859 40093 57002 71000 333
10322=
58911 32962 02901 10187 20177 40100 57004 333 10299=
58834 32964 02901 10219 20189 40092 57001 333 10321=
58931 32962 03605 10148 20117 38350 57009 333 10210=
54351 32962 20401 10135 20130 40165 57005 80002 333// 10292=
57399 32965 00201 10222 20158 40127 57001 333 10343=
50775 32965 03602 10095 20025 40220 52011 333 10223=
56964 11465 80000 10220 20204 38694 40082 57004 69961 78080
889// 333// 00100 10288=
56444 32578 72701 10114 20094 36848 57005 874// 333// 00102
10208=
56533 32380 50000 10187 20182 38401 57002 85400 333// 00100
10271=
56586 32465 83601 10166 20150 38060 54000 885// 333// 00301
10268=
56651 32680 60000 10156 20145 37639 52004 86400 333// 00202
10259=
56684 32580 10000 10172 20155 37904 52001 81100 333// 00202
10243=
56748 32580 10901 10184 20173 38347 52007 81400 333// 00100
10279=
56751 32680 22501 10165 20152 38018 52003 82100 333// 00200
10266=
56763 32680 60000 10250 20194 40030 52005 84402 333// 00100
10330=
56768 32680 70000 10197 20171 38228 52001 87400 333// 00201
10266=
56778 32562 70000 10196 20170 38112 57001 87400 333// 00100
10260=
56786 11575 82002 10186 20171 38120 57003 60041 72598 889//
333// 00101 10263=
56838 32670 13601 10238 20210 40081 52007 81400 333// 00101
10317=
56875 32980 00000 10187 20162 38365 52001 333// 00100 10277=
56886 32770 73601 10186 20172 38296 52001 87400 333// 00103
10265=
56951 32670 73202 10210 20177 38496 54000 874// 333// 00102
10289=
56954 31540 70000 10232 20206 40080 54000 71300 879// 333//
00102 10318=
56959 32970 00000 10241 20229 40080 52007 333// 00200 10329=
56969 32660 10000 10228 20224 40084 57002 81400 333// 00101
10320=
56977 32370 40000 10210 20200 40096 52002 84400 333// 00101
10287=
56985 32980 01804 10212 20172 38695 40084 54000 333// 00101
10295=
56986 32360 31802 10181 20169 40104 57004 83100 333// 00100
10245=
56994 32665 71402 10205 20181 40089 57006 87400 333// 00101
10281=
59007 32970 70000 10196 20182 40093 57002 87030 333// 10283=
56946 32980 00000 10214 20199 40077 52005 333// 00151 10306=
52707 32975 12908 10113 21007 37245 52007 80002 333 05301
10235=
56125 32980 20000 10091 20079 36569 57001 80002 333 00100
10203=
52754 32970 40906 10083 20056 36834 57004 80002 333 00351
10175=
52833 32980 00000 10133 20091 37095 54000 333 00052 10225=
56033 32680 10703 10056 20028 36086 57003 81500 333 00201
10138=
56034 32980 10000 10015 20007 35980 57001 80002 333 00251
10151=
57504 11820 80000 10214 20206 40109 57007 69931 76060 885//
333 00201 10234=
57016 31940 80000 10202 20172 40119 57015 71000 8807/ 333
10220=
58519 32970 03402 10225 20189 40111 57002 333// 10305=
57993 32968 01601 10239 20214 39940 40098 57002 333// 10325=
58634 31956 00901 10215 20190 40101 57008 71000 333// 10303=
58608 32965 00000 10225 20168 40110 57001 333// 10315=
57894 32661 52702 10187 20171 40116 57009 85500 333// 10285=
58506 32970 00409 10155 20137 40122 57007 333// 10223 91120
91504=
57598 31958 00000 10191 20178 40120 57001 71000 333// 10344=
54218 32980 02702 10153 20097 39517 40166 52001 333// 10264=
56182 32780 80000 10138 20103 37238 57001 885// 333 00302
10226=
56079 11880 40702 10096 20086 36739 52002 69901 70098 84900
333 00451 10194=
56172 11480 82702 10131 20120 37386 52011 60081 79198 889//
333 00502 10276=
56178 32880 80000 10184 20132 37685 52004 889// 333 00203
10292=
56173 11880 80000 10100 20090 36695 57002 60051 70098 889//
333 00303 10212=
54776 32980 03405 10224 20164 30089 40143 57008 333// 10264=
54871 32980 03402 10211 20147 40143 57008 333// 10267=
53602 32980 00903 10165 20110 38419 57003 333// 10224=
52495 32980 00000 10157 20096 38659 40094 54000 333// 00454
10250=
53502 32970 00000 10175 20149 40083 57002 333// 00454 10263=
52267 32980 13405 10160 20042 39058 40101 52006 80002 333//
00751 10259=
52378 32980 00000 10157 20049 40099 52007 333// 00656 10277=
52576 32980 01103 10193 20043 38449 57012 333// 00200 10246=
53798 31958 70000 10233 20194 30052 40141 57007 71000 80002
333// 10300=
56479 32462 80202 10157 20149 37951 57001 885// 333 00201
10243=
56565 31580 80000 10165 20146 37509 57002 71790 889// 333
00201 10245=
56671 32780 80000 10195 20180 38209 54000 884// 333 00201
10265=
56459 32780 60000 10185 20140 37654 52002 86900 333 00200
10271=
56475 32580 80000 10182 20167 38336 57003 884// 333 00301
10235=
56485 11550 80000 10182 20176 40124 57009 69901 76066 8647/
333 00300 10217=
58362 11662 80405 10244 20234 30085 40095 57006 60031 76060
885// 333// 10261=
53543 32980 81804 10165 20132 38534 40108 57006 8802/ 333//
10213=
59631 32960 00000 10258 20244 40091 57004 333// 10328=
53738 11661 80000 10162 20152 40133 57005 69901 76060 885//
333 10179=
57134 11665 80000 10174 20172 40138 57009 60031 70060 8652/
333 00201 10179=
57144 32970 80000 10182 20177 40146 57010 8807/ 333 10192=
57037 11962 80402 10201 20171 40112 57010 69901 70060 8807/
333 00251 10255=
57106 11458 80000 10176 20174 40135 57010 69951 76060 885//
333 00301 10196=
57127 11557 82201 10189 20187 39548 40132 57013 60021 76166
8372/ 333 10199=
57036 32961 80000 10231 20184 39658 40108 57012 8807/ 333
10280=
53929 32765 80000 10168 20157 40123 57011 885// 333 10202=
54405 32660 80901 10216 20154 40139 57002 884// 333// 10291=
54624 32962 01402 10201 20170 40160 57001 333// 10296=
53698 32961 83602 10219 20184 40142 57007 8802/ 333// 10301=
57845 31930 00000 10215 20206 40099 57004 71000 333// 10333=
57745 31950 00000 10237 20213 39799 40106 54000 71000 333//
10337=
54102 32980 81808 10201 20090 39006 40085 57003 8802/ 333//
10275=
52424 32980 70904 10190 20032 40051 52010 80002 333 00108
10295=
53821 11970 80000 10164 20158 40124 57006 69931 70060 8807/
333 00251 10183=
56093 11580 80000 10139 20129 37715 57007 69921 70080 885//
333 00501 10205=
52674 32980 00000 10113 20090 37998 57015 333 00352 10230=
52889 32970 70000 10183 20132 38457 40071 57012 8703/ 333
00551 10245=
52418 32980 03202 10188 20056 38827 40058 52015 333 00207
10293=
52546 31970 00701 10172 20076 40028 57002 70090 333 00000
10262=
52983 32980 02901 10136 20119 38110 57012 333 00551 10200=
52436 32980 00902 10139 20038 38441 40070 52012 333 00204
10260=
57731 32661 80000 10244 20214 40099 57005 885// 333// 10344=
57902 32670 70902 10211 20184 38623 40088 57001 875// 333//
00101 10281=
57916 32670 80000 10237 20215 40095 52006 885// 333// 10349=
57922 32661 80000 10222 20198 40098 57001 885// 333// 10301=
57932 31459 10000 10248 20231 40094 52001 71000 81600 333//
10361=
57494 32965 00902 10244 20174 30089 40117 57002 333 10335=
54857 32965 00901 10215 20162 30056 40143 57006 333// 10274=
54843 31915 00000 10130 20126 30118 40145 57005 71000 333//
10288=
54808 31956 00000 10182 20175 40148 54000 71000 333 10298=
54826 32975 03205 10146 20073 38492 57005 333// 10179=
59431 32960 80000 10254 20245 39950 40093 57002 8807/ 333//
10335=
50949 32965 70403 10131 20072 30006 40168 57011 80002 333//
10246=
54377 32962 01801 10158 20144 40157 52002 333// 10311=
50936 32970 03601 10124 20056 40189 57005 333// 10235=
54374 32962 03601 10141 20127 39779 40164 52002 333// 10295=
54292 32965 00000 10131 20108 39961 40170 52003 333// 10278=
54263 32970 00000 10130 20119 40160 57003 333// 10276=
54276 32960 00000 10100 20090 40169 57001 333// 10274=
54161 32965 30403 10169 20108 39886 40162 57006 80002 333//
10275=
54049 32970 00402 10139 20099 40173 57008 333// 10257=
57348 32960 20403 10234 20166 40107 57004 82040 333 10287=
57426 31958 82501 10218 20195 40094 57005 71000 8807/ 333
00102 10278=
57432 31958 00000 10229 20216 40093 57001 71000 333 10311=
57633 31956 00000 10203 20188 39373 40113 57001 71000 333
00200 10297=
58238 32768 73603 10225 20184 30111 40120 57012 875// 333
10284=
58251 11562 73601 10216 20196 30118 40123 57007 69901 70060
875// 333 10269=
58265 11565 80406 10239 20224 30099 40110 57003 60051 78088
8642/ 333 10258=
57476 32963 20401 10260 20197 40116 57002 82040 333 10314=
59493 31950 00000 10271 20242 40080 57008 71000 333 10318=
54945 32975 03403 10191 20180 40145 57002 333// 10266=
56146 32880 50000 10122 20102 36774 52003 85400 333 00302
10232=
56247 32880 10000 10147 20128 37438 52009 81400 333 00100
10270=
56462 11580 72901 10140 20126 37170 57002 69901 71380 86902
333 00200 10238=
56167 11780 81402 10142 20116 37124 52004 60011 70098 889//
333 00302 10274=
56144 32980 00000 10096 20080 36907 52001 333 00200 10227=
51573 32765 70701 10209 20054 30090 40131 52005 82962 333//
00500 10263=
57853 32960 00000 10234 20204 40107 57002 333// 10321=
57687 32962 02202 10244 20217 30022 40098 57007 333// 10332=
57866 32962 01803 10232 20203 39912 40109 52001 333// 10324=
57766 32962 21101 10239 20203 40110 57001 82040 333// 10336=
54534 32960 70000 10197 20174 40160 57004 80002 333// 10283=
53588 31/08 90000 10092 20087 37842 57004 74444 333 10168=
54326 32975 70000 10161 20140 40154 57003 80002 333 10264=
54486 32962 00000 10161 20147 40155 57005 333 10299=
56196 32962 70000 10212 20198 40112 57012 8704/ 333 00202
10237=
50548 32980 60000 10055 20041 40234 52004 80002 333// 10215=
50425 32980 71103 10134 20015 40174 57018 80002 333// 10207=
50632 32970 00000 10047 20015 39352 40216 57007 333// 10193=
58477 11463 80204 10250 20241 30033 40075 57010 60091 78080
887// 333 10256=
58569 32470 83404 10234 20205 40070 57008 8617/ 333 10265=
54518 32962 71402 10210 20174 40160 57002 8703/ 333// 10300=
54308 32960 82001 10179 20151 40156 54000 80007 333// 10272=
56257 32680 20902 10096 20061 36340 57001 82400 333 00200
10189=
56152 32680 70000 10076 20064 36373 52006 87900 333 00302
10188=
56357 32680 20000 10106 20084 36508 57002 82400 333 00202
10204=
56374 32/62 80902 10129 20126 37460 57007 885// 333 00301
10188=
53276 11770 72005 10208 20095 38840 40081 57001 69901 70060
81502 333// 10282=
54027 32980 42202 10130 20058 39623 40184 52001 80002 333//
10252=
54026 32980 03601 10160 20044 39872 40182 57004 333// 10249=
54115 32980 81404 10155 20050 40166 57002 8802/ 333// 10248=
50834 32680 70000 10092 20046 40196 57007 85502 333// 10231=
54226 32980 00000 10141 20097 40165 57002 333// 10274=
50727 32580 71410 10106 21017 38999 40151 57024 86502 333//
10213 91119 91514=
58527 31958 00902 10226 20177 30033 40105 57004 71000 333//
10315=
58813 32965 02701 10200 20187 40105 57004 333// 10318=
56739 32575 80000 10198 20188 38344 52002 889// 333// 00101
10267=
56966 32775 71104 10284 20201 40061 52005 87900 333// 00100
10357=
53446 11968 80000 10186 20152 40120 57002 69901 70060 8802/
333// 10223=
53614 32970 33402 10170 20160 38876 40096 57004 80002 333
00253 10244=
53705 32965 41602 10200 20143 40079 57003 80002 333 00300
10249=
53723 32968 81804 10174 20141 38638 40100 57006 8807/ 333
00101 10211=
53806 32980 01102 10139 20119 38138 57013 333 10202=
57776 32970 00204 10184 20162 40107 57005 333// 10238=
57655 32960 23601 10247 20203 40107 52004 82040 333// 10317=
59134 31658 53601 10253 20235 39920 40077 57008 71000 85500
333 10304=
51156 11770 72202 10049 20024 38764 40246 52004 69911 78080
86402 333 00401 10117=
51068 32980 10000 10045 20028 40237 57002 80002 333 00357
10156=
51186 32980 00000 10018 21013 40229 54000 333 00456 10125=
54254 32962 00000 10152 20145 40160 57002 333 10293=
57554 31959 70000 10220 20189 40124 52002 71000 8704/ 333//
10307=
54751 32975 00401 10213 20189 40146 57007 333// 10261=
54929 32975 00000 10190 20170 40147 57006 333// 10289=
54311 32970 00000 10146 20119 40160 52001 333// 10262=
58345 31958 73602 10229 20196 40119 57008 71000 8704/ 333
10285=
59117 32964 02001 10234 20207 39983 40085 57002 333 10341=
59316 31958 02903 10264 20251 30064 40073 57010 71000 333
10312=
58665 32962 73205 10247 20174 40069 57009 8704/ 333 10303=
58467 11660 83603 10230 20224 40084 57014 60141 78088 885//
333 10279=
51804 32980 00000 10087 21026 37020 52016 333// 00451 10184=
51705 32980 13202 10124 21089 37855 52006 80002 333// 00301
10214=
51716 11968 32702 10144 20103 38890 40130 52007 69901 70080
83060 333// 00555 10231=
51811 32962 40000 10150 20106 38772 40125 52003 82032 333//
00452 10233=
51818 32962 20902 10152 20073 40122 52010 80002 333// 00454
10228=
51931 11865 81603 10172 20096 40105 57005 69901 76060 8552/
333// 00402 10261=
57608 11420 80000 10215 20206 40121 57005 69911 76060 885//
333 10238=
57279 32964 71101 10249 20163 40125 57002 8703/ 333 10327=
54429 32961 71101 10194 20178 40160 57001 80002 333// 10285=
58715 32962 00000 10201 20182 40102 57002 333// 10307=
57874 31959 02701 10243 20216 40099 57001 71000 333// 10330=
50603 11678 72007 10156 20052 39467 40101 57020 69901 78000
87902 333// 10221=
50434 32980 72002 10024 20014 39364 40226 57002 80002 333//
10188=
52836 32780 10903 10151 20042 36902 57007 81500 333 05203
10212=
52866 11972 80000 10135 20117 37714 57008 69901 70060 8802/
333 00552 10211=
56004 32980 00901 10053 20004 35885 52001 333 00202 10142=
52955 32680 31402 10131 20089 36998 57005 83900 333 00301
10206=
52737 32980 00703 10168 20028 37077 57005 333 00003 10215=
52856 32980 00901 10130 20091 37228 57006 333 00400 10210=
52908 32980 10402 10036 20009 35827 57003 80002 333 00102
10120=
52984 32765 80000 10160 20144 38078 57005 885// 333 00600
10205=
52679 32980 00000 10162 20122 38431 57015 333 00351 10257=
52797 32980 01603 10181 20123 38345 57010 333 00301 10252=
52661 32980 00705 10196 20063 38184 57018 333 00005 10245=
56080 32675 80000 10112 20097 37185 57009 889// 333 00551
10187=
52323 32980 53205 10079 21016 38245 52001 81042 333 00455
10192=
52681 32980 00702 10164 20088 38599 40065 57007 333 00452
10262=
52996 31/00 91603 10104 20104 37593 57011 74544 333 00501
10125=
52787 11720 81806 10082 20082 37060 57012 69901 71060 885//
333 00200 10129=
52986 32770 70000 10169 20128 38107 57012 875// 333 00501
10206=
52447 32980 00704 10184 20059 40062 52014 333 00104 10280=
52895 32980 01402 10180 20139 40085 57007 333 00452 10252=
53863 11961 81601 10201 20168 40131 57001 69941 70060 8807/
333// 10263=
53764 32970 83402 10197 20175 40125 57007 8802/ 333// 10255=
53959 32970 81802 10248 20174 39691 40114 57003 8807/ 333//
10296=
53963 32960 81403 10246 20172 40122 57005 8802/ 333// 10295=
54436 32970 30000 10168 20158 40166 57006 80002 333// 10280=
53593 32961 72501 10194 20122 40137 52002 83032 333// 10280=
53231 32970 01805 10147 20097 38472 52001 333// 00454 10233=
53529 32970 81603 10163 20137 38610 40106 57005 8802/ 333//
00151 10206=
53352 32680 52204 10165 20128 40107 52001 85500 333// 10226=
53336 32970 21401 10159 20144 38701 40107 57003 80002 333//
00152 10208=
53068 32780 32204 10196 20096 39015 40070 52005 82402 333//
05404 10272=
53149 32980 72202 10167 20128 38758 40090 52003 80002 333//
05100 10236=
53083 11675 72007 10176 20122 40070 57008 69931 70080 86902
333// 05707 10253=
53391 32980 61805 10146 20134 38517 40111 57003 80002 333//
05203 10237=
56046 11780 10000 10067 20054 36321 57002 60091 70098 81500
333 00200 10190 93909=
52765 11678 60701 10105 20080 37217 57001 69901 72160 86500
333 00501 10181=
52825 32980 00000 10116 20066 37223 57007 333 05452 10243=
56067 11680 21601 10090 20074 36592 57002 69921 70098 82900
333 00302 10200=
56021 11980 00000 10051 20034 36135 54000 69901 70080 333
00201 10158=
56065 11680 80000 10099 20085 36679 57003 60021 70098 885//
333 00301 10189=
56029 32980 00000 10086 20069 36537 52002 333 00100 10212=
53898 32962 80401 10227 20196 40146 57004 8807/ 333// 10296=
53986 31958 70000 10218 20196 40140 57004 71000 8703/ 333//
10298=
57051 11960 80000 10225 20189 40144 57003 69901 70060 8807/
333// 10275=
57067 11459 80000 10190 20185 39496 40142 57002 69951 76066
8177/ 333// 10250=
57071 32965 83601 10226 20187 40136 57001 8807/ 333// 10288=
57178 32961 00401 10227 20185 39987 40137 57001 333// 10317=
57193 32962 00000 10197 20174 40137 57001 333// 10297=
57290 32960 00000 10202 20183 40135 57002 333// 10310=
57297 32970 02702 10199 20146 39999 40131 57004 333// 10322=
58208 32965 00902 10216 20169 40133 54000 333// 10305=
55578 32980 00000 10079 20070 36421 52002 333 00101 10180=
55773 32570 20000 10042 20035 36085 57001 82400 333 00200
10115=
55664 32980 00000 10068 20014 36077 52005 333 00100 10167=
55591 32680 10000 10107 20076 36566 52002 81400 333 00151
10219=
56385 31/00 90000 10099 20099 37059 57009 74544 333 00301
10147=
52101 32980 20000 10056 20023 38390 52001 80002 333// 00555
10109=
52118 32680 73403 10089 21044 38290 52001 83102 333// 00551
10130=
50246 32670 70000 10040 20033 40263 57003 87900 333 10143=
54606 32960 71402 10199 20176 40146 57003 85032 333// 10301=
54539 32965 20000 10178 20165 30146 40160 57004 80002 333//
10276=
51711 32980 02201 10063 20031 38027 52006 333 00400 10204=
51828 11958 70701 10174 20063 38619 40096 52002 69901 70660
80002 333// 00352 10248=
51542 32680 70704 10010 21014 37612 52002 85502 333// 00203
10040=
51567 32780 50000 10148 20071 40132 52006 85900 333// 00551
10212=
51642 32770 20000 10137 20064 40123 52005 82402 333// 00451
10234=
57245 32961 81101 10209 20201 39796 40131 57009 8807/ 333
00201 10231=
57046 11362 82006 10132 20124 37969 57011 69991 76000 885//
333 00202 10152=
57083 31958 81301 10206 20191 30014 40143 57006 71000 8807/
333// 10302=
40405 61749 028041 033026 018012 015011 348015 344018=
83090 22264 20201 30000 80269= BBXX=
82100 22244 04292 20101 80246=
86460 22214 04170 20601 335// 40802 80147=
11105 70025 333 91205 555 11039 22042 31708 41906 61749 165036
169033 172040 177044 180049 173045=
40072 70300 84310 22273 85697=
50639 32970 00000 10114 20028 40223 57001 333// 10224=
50618 11970 81805 10152 20010 40124 57018 69901 76000 8802/
333// 10221=
53923 11980 80000 10150 20142 40126 57010 69901 70060 8807/
333// 10179=
51243 11880 73605 10112 20069 39691 40227 52012 69961 78080
874// 333 00301 10179=
51288 32980 10000 10029 21038 38370 52001 80002 333 00351
10089=
51463 32980 23601 10098 20047 39139 40220 57001 80002 333
00004 10128=
51644 32980 03602 10109 20065 38925 40131 52002 333 00456
10233=
52203 32980 32201 10154 20048 39288 40119 52015 80002 333
00601 10257=
51232 11880 83408 10125 20060 40244 52001 60031 76086 885//
333 00200 10186=
51356 32770 72001 10110 20076 40222 52010 82462 333 00100
10176=
53399 32665 71804 10156 20120 40126 57002 875// 333// 10232=
54705 32962 71101 10204 20180 40140 57007 80002 333// 10299=
56312 32680 70000 10123 20103 37126 52004 87400 333 00200
10225=
55299 32880 33601 10063 20028 35922 57001 83400 333 00202
10148=
55472 32880 11105 10078 20006 35799 52003 81100 333 00101
10147=
56106 32780 40000 10059 20044 36276 54000 84400 333 00251
10173=
55279 32980 01804 10059 21004 35771 52001 333 00251 10148=
55696 31980 01403 10097 20041 36406 52006 71300 333 00100
10196=
56227 32980 00000 10122 20120 37359 52002 333 00100 10225=
56434 32580 62202 10175 20141 37703 57005 86800 333 00100
10269=
52313 32980 70707 10137 21004 38413 52003 80002 333// 00302
10246=
51467 32980 00000 10085 20007 38277 52007 333// 00101 10146=
51656 32780 61601 10136 20093 39091 40137 52007 85402 333//
00651 10230=
51526 32780 61102 10160 20025 40144 52007 81902 333// 00500
10213=
51765 32880 83401 10184 20044 39183 40125 52012 885// 333//
00700 10267=
51777 32970 80401 10193 20078 39138 40123 52022 8802/ 333//
00803 10266=
56137 32980 00000 10105 20090 36848 52005 333 00101 10232=
56116 11780 23203 10101 20043 36402 52003 69901 70080 82400
333// 00201 10169 91118 91532=
55228 32780 23202 10077 21077 36080 52011 82100 333 00301
10154=
55248 32780 12707 10093 21067 35967 52010 81100 333 00201
10186=
55437 32780 12005 10067 20018 36417 52010 81100 333 00301
10159=
56223 32980 01405 10101 20040 36585 52003 333 00200 10219=
56331 32980 00000 10070 20057 36466 52002 333 00251 10204=
51495 32780 73418 10155 21043 40226 52005 82432 333// 00401
10181 91127 91534=
51855 11875 80000 10185 20083 40112 52008 69901 76060 885//
333// 00602 10270=
52446 32780 70406 10194 20067 40064 52005 81902 333 00104
10266=
56074 11980 70000 10110 20095 36716 57003 69901 70080 80002
333 00401 10192=
57006 32762 80701 10174 20156 40119 57009 885// 333 00451
10202=
51886 32980 21102 10107 21026 37118 52011 80002 333 05151
10207 91117 91502=
52818 32980 00000 10152 20053 37206 57001 333 05402 10246=
52602 32980 23605 10124 21020 37249 52001 80002 333 05307
10226=
52633 32980 01107 10113 20037 36772 57001 333 00005 10180=
52713 32980 02501 10121 20013 36908 57008 333 05203 10216=
59501 32562 20000 10265 20248 30076 40092 57005 81102 333
10321=
54449 32962 00000 10162 20153 40159 57008 333// 10264=
51053 32980 30401 10075 20015 40230 57002 80002 333 00201
10141=
51730 32970 00000 10098 20084 40136 52003 333 00555 10217=
51720 32965 00000 10125 20097 40134 52008 333 00552 10224=
51334 32980 71801 10123 20081 40229 52006 86032 333 00202
10180=
51379 32980 70000 10088 20067 40217 57002 80002 333 00001
10142=
51346 11780 81802 10131 20080 40224 52006 69911 78000 884//
333 00103 10175=
45007 32556 71802 10276 20241 30070 40079 57009 8113/
333  59001 81820 86358 =
56018 32980 21801 10061 20033 36241 52001 80002 333 00251
10174=
10291=
10338=
10215=
10280=
89664 41/02 91337 11225 21256 39927 49971 51033 73933
333 01143 89/03=
78897 32470 41608 10321 20242 40138 58022 84900
333 02306 10335 20249 58011 70004 81916 84828=
78858 31478 41008 10300 20256 30090 40146 71511 84903
333 10313 20254 58014 83817 81921=
78663 31570 71802 10286 20244 39435 40111 57002 87902 333 062// 10294
20202 30///
59005 85827 82933 83080=
68240 42560 70722 10139 20066 48571 52024 87500 333 10160 555 30000=
63705 32580 21801 10226 20196 38837 48493 82901
333 59016 81823 81925
555 10204=
88963 32965 42323 11080 21141 39934 49965 52012 84070
333 56050 84360 92417 92870 95000
555 19963=
88968 11465 61410 11066 21140 39870 49885 52011 69901 70172 83550
333 56060 83620 85358 90128 90932 92407 92800 94062
555 19884 D/SE=
89034 32970 02715 11155 21226 39449 49771 58005=
89053 11459 70710 11036 21064 39960 49974 52009 69901 71072 85570
333 56560 85615 84360 90951 92426 92800 94065 95005=
89055 31865 62324 11132 21148 39721 49977 52033 70232 86070
333 56060 86358 90115 91145 91523 92417 92833
555 19953 52333=
89066 32960 33608 11148 21171 30075 40084 52027 83070
333 56000 83460 92800 95000=
76061 32581 71204 10328 20259 30092 40158 52012 81161 91740
333   00446 10330 20280 30/// 58020 81828 85358 81072 90802
=
76243 32374 40904 10321 20252 39893 40174 52010 84700 91730
333   10329 20242 30/// 56200 59011 84707=
76258 32580 40000 10332 20231 30104 40148 51006 84200 91730
333   01300 10332 20244 30/// 58002 84827=
76373 32488 31203 10248 20155 38229 40137 56008 82300 91738
333   10304 20108 30/// 56200 59004 82910 81810=
76382 32970 03601 10290 20179 38907 40117 57003 91740 333
10291 20212 30/// 58000=
76402 31560 21802 10310 20199 30087 40142 52001 70544 82100
91740 333   00400 10320 20215 30/// 58033 82828=
76405 32680 12701 10320 20239 30106 40127 57006 81200 91740
333   10320 20256 30/// 58014 81840=
76491 32256 73601 10304 20230 39770 40171 52005 87200 91742
333   01800 10310 20220 32/// 58/// 87812=
76571 32581 23601 10240 20118 38189 40134 54006 82100 91730
333   10246 20138 31/// 56200 59010 82833=
76577 32570 23602 10232 20167 38064 40143 57007 82400 91745
333   10240 20140 30/// 56100 58000 82623=
76612 31660 31602 10254 20162 38473 40117 57007 70544 83200
91756 333   10260 20175 31/// 56100 59010 83840=
76683 21668 83602 10198 20117 37844 40182 51003 72055 83770
91745 333   10220 20098 31/// 56220 58003 69905 83845 85360
=
76687 01554 83203 10170 20164 38668 40191 52010 60111 76166
8542/ 91750 333   10186 20145 31/// 5657/ 59003 60087 83621
82823=
76737 32580 80000 10232 20177 38779 40149 52012 886// 91740
333   10242 20150 30/// 562// 58000 88727 91104 91513=
76843 32565 69901 10288 20199 39531 40178 57009 83239 91745
333   0/999 10297 20190 30/// 59006 83830 82360=
76848 32570 42504 10234 20166 38378 40127 54000 82270 91740
333   10240 20135 30/// 56590 58000 82823=
76903 32681 60000 10320 20239 30037 40173 56006 84201 91735
333   0/102 10348 20230 30/// 59006 82833 83633 81070=
81405 32570 20808 10316 20186 40113 82200
333 59009 82830
555 10323 20216=
76113 32680 52702 10294 20287 39632 40085 57022 85200 91735
333   10294 20222 31/// 56300 59054 85834=
76305 32970 10902 10310 20211 30122 40130 52008 80004 91730
333   0/004 10320 20242 31/// 58023 81070 90801=
76412 31566 33201 10310 20236 30105 40149 54000 70544 83200
91745 333   01300 10320 20220 30/// 59021 83823=
76556 32470 40801 10290 20225 39096 40096 52003 84200 91730
333   02200 10305 20210 30/// 59014 84820=
76585 02680 30901 10254 20241 30010 40165 51003 60041 81270
91740 333   0221/ 10260 20221 32/// 58011 60041 81833=
76640 11450 72701 10266 20220 30145 40157 50007 69981 71526
8242/ 91735 333   0/22/ 10270 20240 31/// 58013 82713 85540
=
76726 31465 41802 10270 20149 38401 40110 57002 70544 82210
91750 333   10270 20144 31/// 56750 59009 82815 82454=
76741 01460 73203 10247 20242 30102 40134 52004 60141 72192
8137/ 91745 333   0679/ 10276 20211 32/// 59013 60127 81818
81358=
78384 32560 62113 10315 20247 40113 82242
333 0/599 10323 20278 59006 82822 83070=
48698 31466 71601 10269 20248 30082 40100 70522 81132 333 70003
81818 87080=
78948 32581 51211 10302 20248 30130 40138 70311 85201 333
02205 10320 20251 58010 70009 85824=
78583 32580 62806 10322 20246 40096 85203 333
03703 59013 85826=
65201 12458 72015 10254 20229 40113 69932 84538
333 10279 59010 84611 86460 =
89532 42980 00313 11220 21278 39859 49887 53009=
89004 32975 71217 11203 21231 38709 49781 52009 83072
333 11186 21221 91019 555 90965=
78792 11460 71805 10272 20239 30104 40119 57016 60051 71566 83260
333 064// 10278 20230 31/// 59005 83818 84359=
78793 31470 82210 10290 20233 30083 40114 57008 70242 84933
333 068// 10292 20222 31/// 57950 58001 81910 83815 83360=
78795 31365 62908 10260 20240 30016 40116 57011 71799 86300
060// 10295 20220 31/// 58004 82915 84818=
88889 11335 72121 10047 20035 39902 49987 53029 69901 76086 875//
91750 333 85707 87618 90710 91131 91029=
63980 32482 31410 10270 20231 40125 83200
333 10298 59004 83819 943// 91123=
60096 32960 03616 10245 20189 40120 56017
333 10260=
60101 32358 33006 10226 20171 40114 56010 81602
333 10251 81708 83070=
60115 12960 23612 10256 20143 40090 55001 69932 82030
333 10301 82360=
60135 32958 03008 10228 20173 40116 56003
333 10255=
60150 32560 23206 10256 20149 39473 40093 57005 82200
333 10273 82820=
60155 32458 43604 10230 20183 40116 56009 84200
333 10254 84816=
60156 32456 43408 10222 20174 40125 58004 84200
333 10266 84816=
60230 32558 23606 10273 20132 40088 58020 82200
333 10276 82826=
13585 42998 00000 10182 20053 39364 40125 55001 333 10257 94113=
13598 42998 00000 10134 20042 48481 53003 333 10225 94111=
96315 14460 71802 10255 20242 40097 69903 71798 82978
333 81815 81916 86364=
89642 43/// /1351 11143 21161 39642 49697 58022
333 01278 91078 91178=
64210 32959 02606 10267 20182 39743 40096
333 10292 59001=
91925 32580 20502 10295 20206 30081 40140 51015 82200
333 56200 82820
555 10314 59008=
91938 32580 10308 10278 20201 30152 40155 51017 81200
333 56200 81826
555 10314 59012=
91944 36/// /0912 10258 20223 30171 40177 51017
555 1//19 59015=
91948 32570 80104 10211 20159 30114 40218 53014 8687/
333 56199 84820 87463
555 10416 59015=
91954 01360 83416 10232 20222 30139 40142 51015 69921 76022 888//
333 56799 69927 82806 84813 88650
555 13421 59019=
91958 01460 83410 10200 20190 30151 40153 53002 60511 72166 888//
333 56199 60127 85818 88646 91131
555 13431 59089=
78866 32583 51409 10329 20265 30148 40152 57017 85973 333
58013 85825 81900=
60060 32957 20409 10225 20152 40113 56010 80002
333 10229 82070 95300=
60105 32958 00000 10225 20186 40112 56006
333 10255=
60106 32965 03605 10291 20178 40101 55008
333 10320=
60141 32960 03408 10260 20126 39451 40086 57006
333 10278 95400 95800=
60185 32470 20213 10235 20183 40111 57012 82200
333 10248 82816=
60190 32662 52407 10282 20113 39516 40086 56016 85200
333 10296 85833=
60191 32662 40000 10279 20131 40086 56007 85900
333 10290 84833 81950=
60195 11660 7//// 10182 20124 38489 48503 53019 60032 71789 879//
333 10289 86833 82940 85500=
60210 32660 61005 10330 20114 38921 48478 56008 83332
333 10345 83830 81933 83358=
60220 32458 43612 10190 20155 40111 55006 84500
333 10206 84626=
60265 11658 60614 10296 20130 38823 48473 56010 69912 71788 86300
333 10353 83840 83950=
60318 32960 02808 10270 20156 40108 56002
333 10310=
65352 11460 70000 10262 20239 39918 40095 60094 72996 83902
333 10/// 59017 83816 87076 81920 94948 95838=
65361 11960 70000 10220 20200 39669 40110 60052 70196 8794/
333 10280 58005 87362=
65376 32460 73204 10240 20208 39646 40109 8127/
333 10283 59007 81813 87363=
65387 11460 72604 10241 20232 30087 40104 60052 71796 8397/
333 10293 59010 83613 81920 87360 94948 95838=
78894 36/// /1506 10336 20247 30088 40146 56019
333 10336 20268 58012=
60020 12580 33308 10250 20173 30110 40153 56009 69962 83800
333 10276 92428=
60030 32570 30117 10244 20155 30090 40144 56009 83800
333 10273 92448=
60040 32565 60216 10261 20170 30117 40142 56009 86500
333 10289 92437=
60338 32975 02906 10258 20141 30030 40092 57008
333 10282 92428=
78705 31570 53510 10317 20246 30087 40103 58012 70544 83201
333 02200 10317 20204 30/// 59015 83824 85075=
78706 43562 43306 10317 20238 30104 40121 58008 84200
333 1//// 2//// 59013 84822 911//=
78708 32670 30604 10333 20216 30065 40095 58021 82205
333 02100 10333 20218 30/// 59015 82834=
78714 32565 41303 10309 20237 39673 40096 58014 84102
333 01202 10309 20196 30/// 59015 81620 84075=
78717 31560 40704 10266 20178 38930 40077 58013 70544 84201
333 10269 20164 30/// 56100 59014 84825=
78720 31568 40303 10288 20172 39009 40066 56030 70544 83301
333 10290  20163 30///  59009 81932 82832=
60710 32558 72110 10222 20188 30027 40103 53011 85982
333 10330 81820 81926 83630=
60714 31558 71204 10269 20224 30081 40088 52005 71792 879//
333 10355 84820 82923 85630=
60720 32560 71706 10255 20226 30060 40094 56003 84802
333 10288 83820 84070=
60728 32558 72014 10270 20255 30087 40091 57004 81882
333 10272 81820 84360 92447=
60734 11560 62504 10195 20192 39636 40138 52045 60072 70181 84280
333 10349 84823=
60738 11560 63212 10163 20144 38924 48503 50008 60032 72598 85902
333 10286 85823 81930=
60740 11558 72010 10299 20210 30098 40101 53009 69902 78081 8493/
333 10345 82823 82933 84360=
60745 32560 62606 10312 20139 39751 40100 55002 83202
333 10347 83830 84070=
60748 32562 61208 10275 20157 39715 40111 53010 86800
333 10334 83826 84633=
60750 32560 41708 10269 20226 30079 40110 54000 82202
333 10298 82820 83070=
60764 32662 43106 10334 20115 30051 40099 53001 83502
333 10369 83633=
60770 32965 30908 10302 20161 39941 40073 57004 80002
333 10361 83073=
60780 32965 00404 10354 20090 39804 40088 57005
333 10376=
65338 11460 82204 10230 20223 39912 40102 60292 72196 8457/
333 10300 59014 84611 88460=
61901 16/// /1312 10140 20140 40181 5//// 60012 333 10160=
61627 32460 22002 10334 20271 30040 40063 81502
333 10348 59031 81616=
61630 32460 20000 10340 20257 30047 40066 82500
333 10353 59024 82616=
61641 32462 43308 10296 20253 30050 40082 84500
333 10315 59046 84613=
61679 32462 52804 10320 20265 30071 40079 81502
333 10343 59051 81616 85073=
61687 32460 62006 10317 20256 30024 40081 86200
333 10335 59023 86816 94919 95879=
61695 32462 62406 10304 20278 30063 40089 85270
333 10336 59036 85816 84363 94937 95877=
81401 36/// /0508 10322 20211 40109
333 59006=
71893 32480 33608 10158 20107 30156 40187 50000 81601 333
10166 20105 50340 70000=
71897 11/16 90907 10111 20111 30163 40195 51007 69941 751// 896//
333
10137 20106 70004 90999=
71898 36061 82402 10114 20108 30156 40199 51012 333 10118 20072
70005=
71899 31908 92003 10124 20124 30146 40196 51006 74544 81111 333
10127
20102 70000=
71902 11574 61003 10097 20040 30128 40136 56001 69901 70262
83530 333 10110 20048 70054 90969=
71905 11474 83470 10075 20037 30210 40223 58008 69991 72082 86530
333 10076 20050 70018 90910=
71906 11474 61005 10069 20001 30122 40172 58004 69921 78022 86500
333 10079 20021 70008 90921=
71907 36564 82209 10070 20024 30157 40189 58013 333 10072 20020
70010=
71909 17564 33207 10058 21021 30099 40142 58005 69951 7//4/ 333
10065 21003 70005=
71910 36464 81507 10012 21011 30060 40124 56018 333 10012 21017
70000=
71911 46364 81810 10086 39903 49957 56004 333 10088 20044=
71912 32974 82415 10184 20062 39986 40166 57033 80007 333
10186 20036 70000=
71913 36964 02419 10178 20091 30052 40088 58026 333 10180 20084
70005=
71915 11/00 91507 10050 20050 39980 40061 57025 69921 75154
333 10051 20002 70006 90973=
71917 32586 70000 11054 21075 30099 40113 52008 87570 333
11040 21102 70010=
71922 32975 02313 10193 20075 39752 40210 57009 333 10194 20074 70000
=
71925 32274 72710 10070 20053 39964 49999 52020 83571 333
10077 20035 70000=
71926 11480 43015 10142 20086 39974 49996 53001 60011 70161
82504 333 10144 20085 70031 90932=
71928 36/64 /0301 10171 20079 39083 40235 58002 333 10171 20011
70000=
71816 11574 73210 10108 20058 30058 40118 53001 69901 70282
87800 333 10120 20078 50020 70046 90960=
71817 469// 01009 10139 20076 30068 40082 56010 333 10161 20091=
71818 32574 60205 10151 20081 30071 40089 55006 85501 333
10166 20092 70000=
71821 36564 63310 10101 20016 39920 40266 58003 333 10106 20057
70005=
71822 36564 33112 10087 21004 39760 40235 58001 333 10096 20044
70015=
71827 11574 72810 10076 20012 39996 40240 57006 69901 70152 87500
333 10076 20029 70016 90936=
71828 17564 60402 10063 20030 39530 40165 56007 60011 7//4/ 333
10072 21007 70065=
71831 32674 62910 10160 20063 39996 40275 57014 85102 333
10172 20062 70002=
71832 46/64 /3311 10176 20065 39963 40286 58015 333 10176 20045=
71834 32674 72604 10140 20044 39879 40308 58011 83176 333
10146 20040 70000=
71836 36564 32705 10138 20064 30243 40254 58016 333 10141 20034
70000=
71842 32574 62305 10134 20053 39832 40312 58015 82106 333 10141 20029
70000=
71845 32674 32408 10144 20029 39816 40289 58021 82101 333
10150 20053 50340 70000=
71850 32674 62205 10144 20042 39808 40302 58010 81501 333 10147 20068
70000=
71852 36664 31405 10162 20072 39986 40279 58012 333 10171 20058
70000=
71854 32674 32506 10138 20049 39823 40297 58018 82102 333
10151 20020 70000=
71855 36964 02205 10170 20032 39899 40273 58013 333 10174 20003
70000=
71856 36964 01207 10152 20088 39999 40283 56014 333 10160 20019
70000=
71858 17/64 /2608 10179 20079 39983 40262 58012 69921 7//4/ 333
10179 20015 70002=
71861 17964 31805 10151 20035 39552 40278 58008 69951 7//4/ 333
10156 20009 70010=
71862 32674 61012 10156 20057 39573 40270 57005 86401 333
10161 20047 50280 70000=
71863 17564 61909 10139 20086 39574 40270 58004 69951 7//4/ 333
10142 20053=
71931 36/64 /2705 10177 20102 39542 40219 58001 333 10177 20052
70000=
71932 17964 02907 10188 20098 39749 40196 55001 69951 7//4/ 333
10189 20021 70005=
71933 36964 02310 10182 20104 39878 40161 58001 333 10182 20072
70005=
71934 32974 12806 10191 20086 39892 40142 52002 80001 333
10198 20087 5//// 70000=
71935 32974 32511 10196 20069 39929 40131 52002 80001 333
10196 20109 70000=
71936 32974 60000 10174 20084 39865 40117 52009 80004 333 10174 20088
70000=
71940 32982 00000 10065 20044 39416 40209 52004 333 10226 20039 70000
=
71943 32983 22207 10160 20076 39378 40199 58002 80001 333 10162 20060
70000=
71944 36964 00302 10115 20079 39401 40225 58011 333 10115 20025
70000=
71945 32983 40000 10165 20076 39712 40173 58005 81071 333 10165 20064
70000=
71948 46900 02717 10032 39934 40043 51022 333 10060 20026=
71949 36/// /0000 10093 20038 39295 40146 51010 333 10130 20066=
71950 31982 60000 10117 20080 39582 40205 57007 70241 80001
333 10117 20016 70000=
71951 32980 60102 10135 20091 39940 40204 53003 81601 333 10136 20086
70000=
71957 36864 82402 10105 20043 39978 40064 51023 333 10106 20025
70000=
71958 36664 30000 10092 20058 39262 40193 58005 333 10092 21001
70000=
71964 11586 71606 10093 20071 39319 40160 53013 69921 72582 81670
333 10110 20051 70002 90915=
71968 469// 02807 10017 30008 40071 51036 333 10055 21004=
71866 36964 02209 10174 20110 39640 40248 58008 333 10174 20041
70000=
71867 32974 12409 10180 20090 39906 40237 58010 80001 333
10180 20047 70000=
71868 17964 02008 10177 20065 39814 40251 58017 69951 7//4/ 333
10179 20016 70010=
71869 32974 02405 10157 20085 39728 40249 58009 333 10161 20026 70004
=
71870 36564 31908 10151 20089 39287 40249 58001 333 10157 20072
70000=
71871 32974 02205 10193 20070 39437 40230 58004 333 10193 20045 70000
=
71872 32983 02204 10176 20102 39393 40236 58002 333 10178 20051 70000
=
71874 36964 00203 10187 20053 39155 40237 50000 333 10190 20035
70000=
71876 32974 01503 10169 20085 39584 40242 55007 333 10171
20028 79999=
71877 32983 11908 10193 20067 38984 40240 50000 81070 333
10199 20039 70000=
71878 32974 01702 10176 20077 39177 40240 58001 333 10178 20020 70000
=
71879 36964 01905 10184 20094 39422 40213 58004 333 10184 20059
70000=
71880 32982 00000 10197 20049 39134 40211 58010 333 10200 20088 70000
=
71881 36964 02203 10178 20072 39140 40223 58007 333 10179 20014
70000=
71882 36964 03603 10183 20081 39681 40207 58014 333 10184 20072
70005=
71883 36/// /0000 10151 20079 39417 40229 58015 333 10155 20005
70000=
71887 32983 00000 10186 20074 39792 40205 57010 333 10187 20084 70000
=
71891 16964 00102 10200 20051 39922 40193 58015 69951 333 10202
20098 70010=
71892 32983 43005 10182 20155 30180 40185 51004 80001 333 10183 20110
70000=
71114 36964 00905 10213 20105 30127 40174 58012 333 10213 20137
70005=
71120 32974 01804 10182 20089 39574 40223 58002 333 10182
20038 70000=
71123 32974 02304 10197 20098 39368 40224 58002 333 10200
20011 70000=
71125 32774 12505 10193 20083 39647 40222 58001 81500 333
10194 20026 79999=
71129 32974 11808 10162 20080 39421 40241 50000 80001 333
10166 20053 50920 70000=
71130 32974 12314 10180 20077 39791 40242 57013 81070 333
10180 20043 50460 70000=
71131 36/64 /1808 10101 20090 39008 40259 50006 333 10101 20075
70000=
71135 46/64 /1405 10102 20079 39193 40276 333 10102 20070=
71138 32974 11204 10152 20047 39672 40276 56009 80001 333
10152 20024 70000=
71140 32974 11502 10160 20047 39782 40282 57010 80001 333 10163 20019
70000=
71141 32974 52312 10163 20088 39969 40246 57013 80001 333
10166 20021 70000=
71145 32574 62409 10157 20070 39962 40253 58019 81408 333
10157 20086 50360 70000=
71148 36/// /1707 10169 20065 39710 40287 58010 333 10172 20057
70000=
71182 36564 83408 10075 20001 39626 40161 58003 333 10081 20023
70074=
71185 36964 03106 10142 20110 30067 40090 56011 333 10151 20133
70000=
71187 36664 32109 10115 20070 30148 40175 56009 333 10136 20000
70000=
71188 32574 43309 10144 21020 30097 40137 58010 81571 333
10157 20024 70000=
71196 36020 81713 10156 20152 30061 40097 56024 333 10163 20129
70000=
71200 36/// /2104 10133 20119 333 10144 20110 70000=
71603 32674 73313 10135 20077 30119 40171 53004 83571 333
10154 20108 70000=
71607 36/// /2108 10169 20041 30149 40181 58010 333 10169 20077
70000=
71609 32974 63611 10154 20015 30032 40164 58009 86070 333 10166 20084
70000=
71610 17664 83008 10130 20043 39925 40219 58008 69951 7//4/ 333
10156 20034 70005=
71621 32674 50105 10164 20035 30155 40261 56016 85100 333
10172 20062 70000=
71623 32674 20407 10169 20027 39947 40284 56011 82100 333 10170 20044
70000=
71624 32774 20209 10166 20029 30064 40275 58016 82100 333
10177 20068 70000=
71625 36664 62810 10153 20064 30092 40252 56021 333 10161 20028
70000=
71627 36564 83214 10129 20069 30187 40231 55011 333 10168 20062
70000=
71628 31680 63108 10156 20040 30104 40244 58019 71411 82170
333 10171 20058 70000=
71630 32674 73110 10136 20038 39938 40283 56013 87400 333
10152 20027 70000=
71631 17/64 /0307 10143 20056 39784 40286 56013 69941 7//4/ 333
10143 20013 70004=
71633 32674 20107 10149 20056 30025 40296 56007 82100 333
10152 20093 70000=
71700 32774 63312 10169 20030 30144 40169 58010 83130 333 10169 20045
70000=
71705 32674 63009 10160 20031 30064 40150 56010 81172 333
10165 20063 70000=
71707 32574 83416 10170 20118 30019 40093 57009 84502 333 10178 20153
70016=
71709 32580 83216 10124 20073 30116 40129 56001 884// 333 10138 20115
70000=
71711 32774 53012 10159 20031 30111 40160 57011 83502 333 10161 20048
79999=
71714 36/// /3006 10143 20049 30120 40211 56011 333 10147 20038
70000=
71715 36/64 /2506 10121 20041 30017 40199 56012 333 10121 20037
70000=
71718 32583 42510 10135 20042 30119 40184 57010 82570 333 10135 20045
70000=
71719 36/// /0104 10157 20057 30134 40140 56015 333 10158 20082
70000=
71397 32974 63008 10168 20043 30121 40155 56009 86031 333
10169 20099 70000=
71398 36/64 /3206 10179 20069 30092 40141 58008 333 10179 20077
70000=
71400 17/64 /1001 10186 20161 39950 40076 58022 69971 7//4/ 333
10190 20131 70247=
71410 36/64 /3612 10171 20070 30126 40154 58010 333 10171 20082
70000=
71411 36/64 /2907 10195 20083 30142 40152 56006 333 10211 20089
70000=
71412 36/// ///24 10146 20096 30116 40129 56004 333 10165 20130
70000=
71430 36/64 /3309 10181 20047 30159 40255 56014 333 10186 20072
70000=
71431 36/// /3209 10173 20036 30170 40264 56017 333 10173 20080
70000=
71432 36/64 /0306 10161 20071 30184 40280 58007 333 10161 20128
70000=
71435 36/// /2201 10119 39727 40326 333 10124 21017 70000=
71436 36/// /3306 10144 20049 39921 40280 56014 333 10149 20059
70002=
71441 36/// /1706 10177 20078 39969 40276 58013 333 10179 20050
70000=
71443 36/64 /2407 10172 20012 39865 40276 58011 333 10172 20013
70000=
71474 36964 01703 10186 20029 38995 40207 58007 333 10188 20034
70005=
71538 32674 30411 10162 20052 30063 40293 50004 83550 333
10168 20095 70042=
71600 179// 03218 10192 20154 30088 40094 53009 69951 7//4/ 333
10195 20171 70020=
71601 32974 23110 10190 20072 30072 40133 58005 81071 333
10201 20122 70000=
71725 36564 33209 10121 20058 39850 40265 58004 333 10121 20052
70005=
71726 17/64 /3205 10106 20021 39701 40238 58006 69921 7//4/ 333
10106 20018 70010=
71727 11580 32806 10109 20061 30009 40205 58010 69921 72581
83800 333 10117 20040 70004 90915=
71728 11582 62810 10106 20060 39989 40209 58007 60011 71688 86100
333 10117 20047 70014 90922=
71730 32674 83201 10142 20045 39868 40293 57011 888// 333
10151 20026 79999=
71731 32674 63413 10135 20028 39829 40281 58013 86800 333
10135 20031 70002=
71733 36964 02704 10159 20040 30062 40299 58007 333 10165 20072
70000=
71735 32574 63211 10140 20054 39980 40280 57008 83130 333
10145 20050 79999=
71738 32574 72410 10144 20071 39958 40313 56010 82801 333
10151 21002 79999=
71739 32774 62911 10155 20043 39915 40277 57016 86100 333 10156 20043
79999=
71749 36964 02505 10152 20045 30071 40319 58017 333 10158 21010
70000=
71799 32983 20904 10205 20128 30159 40182 58002 80001 333
10208 20090 70000=
71800 36/32 /1128 10162 20158 39995 40027 58064 333 10163 20143
70007=
71801 11/02 91312 10155 20149 39912 40080 57041 69961 75154
333 10159 20131 70018 90983=
71802 17/// ///// 10205 20202 39962 40020 58051 60091 7//4/ 333
70113=
71803 11162 81303 10178 20167 39899 40080 58024 60141 76066
887// 333 10179 20125 50560 70224 90983=
71807 36/// /1115 10206 20169 30037 40053 56043 333 10206 20162
70000=
71808 36964 02309 10141 20104 30037 40082 58014 333 10154 20096
70000=
71809 11369 72005 10165 20144 30058 40085 57018 69921 70282 88600
333 10175 20135 70294 90945=
71810 36/64 /2909 10126 20053 30075 40138 58008 333 10126 20061
70008=
71811 32783 63208 10138 20019 30090 40158 57007 88501 333 10143 20019
70002=
71813 36564 83310 10146 20052 30099 40112 56008 333 10158 20065
70000=
71814 36/// /2008 10134 20112 30089 40098 58012 333 10141 20052
70000=
71815 32474 83315 10159 20122 30058 40089 57013 83543 333
10181 20143 70126=
71952 36/// /1605 10148 20099 39362 40206 58009 333 10149 21006
70000=
71967 36/// ///// 10063 333 10090 21035 70000=
10184 20030 70012=
71702 36/// /3212 10156 20062 30119 40145 56007 333 10160 20094
70000=
71717 32574 23208 10156 20008 30114 40154 56010 81179 333
10170 20046 70000=
71732 36/// /3511 10137 20041 333 10146 20045 70000=
71043 32983 30000 10112 20058 30006 40097 51014 81071 333 10112 20023
50290 70000=
71045 36/// /1904 10111 20065 39324 40168 53007 333 10114 20088
70000=
71051 46/// /0403 10018 20018 39917 40028 51019 333 10018 21007=
71066 32974 10000 10166 20089 39770 40182 50000 80001 333 10166 20015
70000=
71068 32974 11505 10153 20072 39523 40205 50002 80001 333 10155 20016
70000=
71069 36964 03103 10131 20083 39519 40218 54000 333 10134 20014
70005=
71076 46/// /2305 10148 20104 39775 40159 51003 333 10148 20081=
71077 36/64 /2405 10171 20108 39684 40204 56003 333 10171 20067
70000=
71078 32974 12313 10181 20089 39741 40173 56011 80001 333
10183 20078 70000=
71079 32974 32315 10195 20076 39918 40191 57018 80001 333 10195 20075
70000=
71081 36464 81618 10013 21018 30059 40070 58008 333 10017 21011
70000=
71082 36964 01104 11069 21082 30082 40122 51009 333 11058 21077
70000=
71083 11569 72710 10102 20094 39965 41001 56023 60051 76086 85520
333 10106 20081 70050 90977=
71090 36764 83405 10045 21001 30071 40105 54000 333 10046 21002
70000=
71091 460// /1511 11011 39915 40121 58008 333 11002 21017=
71092 46240 62307 11036 39480 40138 56003 333 11024 21046=
71093 460// /2617 10008 39633 40121 51001 333 10009 21006=
71094 46902 00109 11016 39220 40106 53001 333 11014 21020=
71095 36964 03403 10006 21056 30016 40087 58002 333 10013 21048
70000=
71101 36964 03005 10130 20118 30191 40199 51006 333 10132 20105
70000=
71104 32974 00000 10171 20072 39119 40211 58005 333 10173 20026 70000
=
71108 32983 30000 10208 20134 30112 40182 50001 80001 333 10211 20108
70000=
71109 11/32 90403 10107 20100 30176 40202 52006 69901 75155
333 10111 20103 70002 90983=
10147 20044 70010=
71075 36/// /2710 10174 20089 39570 40161 56003 333 10175 20077
70000=
71096 460// /3406 11003 39413 40136 50001 333 11001 21020=
71629 32774 23406 10160 20023 30034 40268 58016 82100 333
10169 20061 70000=
10162 20067 70000=
71450 36/// /1607 10151 20095 39543 40257 58002 333 10151 20068
70000=
71475 36/// /2002 10165 20138 30098 40190 58002 333 10165 20078
70000=
71434 36/// /3114 10168 30146 40211 56027 333 10169 20005 70000=
71201 36/// ///// 10191 333 10193 20131 70000=
10143 20047 70080=
71851 36/// /1604 10165 20078 39944 40278 58012 333 10165 20039
70000=
71873 36/64 /1904 10206 20074 39303 40237 58004 333 10206 20023
70000=
71875 369// 01105 10195 20055 38874 40237 58003 333 10195 70000=
33815 32998 01502 10174 20085 40167 53007 10221=
71103 36156 30000 10099 20081 39566 40224 58006 333 10099 20041
70000=
71107 36/// /3218 10122 20122 30097 40209 53009 333 10122 70002=
71115 36/// /2402 10198 20088 39625 40192 58007 333 10199 20085
70000=
71121 36964 02305 10181 20100 39404 40219 58002 333 10185 20034
70005=
71143 36/// /1607 10163 20094 39959 40273 58010 333 10164 20090
70000=
71261 36/// /0506 10170 20063 30031 40291 56008 333 10176 20048
70000=
71265 36664 33403 10172 20049 30179 40273 58016 333 10180 20096
70000=
71197 36664 33013 10168 20121 30035 40083 56017 333 10197 20146
70090=
71826 36/// /3008 10055 20001 30079 40108 54000 333 10063 20036
70000=
71846 36/61 /2410 10167 20041 39957 40267 58019 333 10169 20038
70000=
76122 01580 70000 10216 20193 38582 40160 52003 69901 70352
83720 91740 333   10218 20176 31/// 56590 58001 69901 83630
84558=
76220 32580 70000 10232 20128 38183 40217 57002 87070 91745
333   10232 20150 31/// 56440 58010 81827 87357=
76225 32460 40000 10262 20165 38622 40140 50003 84200 91750
333   10262 20186 30/// 56500 58009 84820=
76256 32580 41804 10305 20237 30113 40127 57003 84200 91750
333   10314 20238 30/// 563// 59010 84820=
76323 32770 41301 10264 20142 38309 40193 58005 83201 91745
333   10264 20145 30/// 56307 59006 83850 81068=
76423 32584 21101 10246 20167 38187 40153 57003 82100 91755
333   10292 20130 30/// 59004 82830=
76632 31540 80206 10150 20113 37620 40105 58003 71442 886//
91800 333   10204 20118 30/// 561// 59004 86725 91304 90083
=
76644 11460 73202 10265 20235 30095 40108 51004 60031 71555
84761 91450 333   07359 10328 20228 31/// 58007 82620 82520
82328=
76680 31558 63203 10202 20100 37760 40075 58013 70442 84830
91755 333   10210 20135 30/// 56780 57861 58010 83827 83357
=
76695 02560 12703 10315 20244 30080 40086 57004 69901 81200
91750 333   026// 10328 20230 31/// 59015 69901 81824 91005
91528=
76698 32660 62601 10321 20232 30084 40096 57013 862// 91750
333   026// 10330 20222 32/// 59011 86820=
76743 21558 82705 10300 20234 30155 40163 50001 70305 8757/
91750 333   0160/ 10318 20240 31/// 59026 69907 87627 81356
=
76750 32560 52004 10338 20238 30092 40102 57010 85200 91054
333   04200 10348 20233 30/// 59023 85820=
76840 32560 11902 10325 20278 30090 40145 57011 81200 91750
333   02800 10345 20240 30/// 58002 81828=
76845 32560 52203 10210 20141 37944 40160 51004 85700 91750
333   10220 20104 30/// 56200 59002 83727 82630=
76118 32580 60302 10264 20200 38903 40006 5//// 84201 91746
333   10264 20200 30/// 56505 57892 59004 84830 82070=
76499 31557 33602 10342 20218 30116 40138 55009 70310 83200
91745 333   001// 10344 20237 30/// 58001 83816=
76548 32475 70307 10302 20230 30115 40145 50002 83270 91756
333   10305 20256 30/// 56870 59003 81918 82818 84357=
76593 32370 42702 10282 20244 30083 40099 56003 82470 91755
333   0666/ 10285 20240 31/// 59007 82620 82330 92011=
76855 32580 31602 10318 20303 30066 40090 52004 81220 91757
333   01290 10320 20238 31/// 59004 81820 92001=
60285 32450 40420 10217 20161 40121 56011 84500
333 10242 84616=
60340 32960 01006 10255 20186 40102 57008
333 10273=
78988 32584 10915 10319 20273 30100 40109 57025 81201
333 59002 81820=
86011 31958 01805 10326 20133 40105 57039 70500 =
86033 31965 00000 10320 20161 40077 57022 70500 =
86065 32870 51408 10286 20092 40138 58029 85030 =
86068 32870 61605 10292 20088 40104 57031 86070 =
86086 31865 71810 10266 20075 40128 57010 70511 87070 =
86097 31460 81812 10182 20158 40126 57020 71042 885// 333 88613 =
86134 32870 71810 10256 20120 40128 57016 87070 =
86192 32870 41806 10236 20093 40085 58023 84070 =
86210 21262 82304 10202 20156 40104 57024 70422 886// 333 69971 88704
=
86218 32970 31813 10254 20076 40131 57023 83030 =
86233 32970 11806 10234 20096 40099 57028 81040 =
86255 32670 32308 10254 20080 40137 57010 83100 =
86260 32970 02103 10240 20092 40118 57024 =
86268 32670 32305 10236 20096 40139 57020 83100 =
86285 32970 02708 10220 20111 40123 56010 =
94120 46/// /2402 10253 20240 30083 40123=
94122 46/// /0000 10231 20216 30116 40125=
94150 46/// /0000 10210 20203 30050 40111=
94203 46/// /1006 10202 20111 30119 40130=
94212 46/// /1002 10227 20053 39661 40136=
94216 46/// /1602 10258 20218 30068 40118=
94238 46/// /1116 10212 21026 39737 40164=
94268 46/// /0000 10200 20194 30108 40120=
94283 46/// /0000 10181 20174 30123 40134=
94287 46/// /2605 10200 20162 30130 40139=
94294 46/// /0000 10182 20178 30136 40146=
94296 35/// /0611 10246 30123 40133 57008=
94298 35/// /0512 10236 30123 40129 57012=
94299 46/// /0915 10243 20210 30115 40126=
94300 46/// /1714 10163 20129 30182 40192=
94302 46/// /2305 10196 20154 30172 40178=
94312 46/// /1907 10218 20059 30147 40157=
94317 46/// /2704 10176 20049 39573 40168=
94319 46/// /1707 10213 20016 39825 40160=
94326 46/// /2803 10064 20002 39577 40205=
94332 46/// /1905 10156 20002 39784 40174=
94346 46/// /1806 10129 20022 39957 40181=
94363 46/// /1815 10177 20077 39938 40158=
94367 46/// /3006 10198 20195 30089 40127=
94374 46/// /1705 10205 20189 30120 40137=
94393 35/// /0311 10221 30123 40133 57009=
94394 35/// /0308 10222 30137 40145 57010=
94403 46/// /0307 10082 20076 30163 40205=
94429 46/// /2303 10139 20009 39713 40187=
94430 46/// /1907 10155 21072 39578 40173=
94462 46/// /1704 10079 20000 39630 40194=
61612 32960 00000 10369 20244 30068 40076
333 10380 59029=
61666 32462 62804 10322 20261 30062 40072 86200
333 10341 59040 86817 94919 95879=
61697 32460 62204 10295 20260 30070 40084 83270
333 10317 59049 83816 86363=
61699 32565 63206 10311 20236 39893 40080 85202
333 10325 59030 85820 84073 94916 95836=
68234 42560 80920 10126 20077 48564 52023 8657/ 333 10158
555 30001=
68328 41560 80522 10174 20094 48541 52032 71322 8498/ 333 10235 555 30106=
94510 46/// /1706 10098 20066 39839 40194=
94515 46/// /2504 10124 20117 39829 40185=
94552 46/// /2504 10122 20090 39704 40178=
94578 46/// /1804 10167 20142 30154 40165=
94584 46/// /2706 10189 20180 30037 40148=
94601 46/// /2821 10149 20116 30151 40168=
94610 46/// /2906 10157 20110 30171 40195=
94637 46/// /3502 10089 21002 39742 40175=
94638 46/// /2808 10122 20101 30132 40164=
94647 46/// /3408 10119 20018 30041 40162=
94651 46/// /0209 10101 20051 30099 40177=
94653 46/// /0309 10094 20054 30163 40182=
94659 46/// /3604 10114 20028 30004 40202=
94672 46/// /0406 10093 20084 30185 40190=
94693 46/// /0000 10064 20060 30140 40203=
94703 46/// /2205 10070 20064 30079 4////=
94710 46/// /2301 10043 20033 39949 40208=
94729 46/// /0000 10028 20028 39333 40200=
94750 46/// /2908 10101 20069 30056 4////=
94767 46/// /2510 10118 20066 30176 40182=
94776 46/// /3005 10104 20096 30177 40187=
94791 46/// /2701 10109 20105 30169 40176=
94802 46/// /3109 10126 20107 30068 40151=
94804 46/// /3514 10134 20121 30116 40154=
94821 46/// /3410 10112 20102 30068 40152=
94850 46/// /3121 10125 20106 30071 40117=
94865 46/// /3609 10100 20062 30146 40171=
94893 46/// /2817 10122 20073 30020 40137=
94907 46/// /0000 10074 20068 30149 40159=
94910 46/// /0605 10044 20042 39950 40206=
94926 46/// /1002 10024 20020 39520 40203=
94954 46/// /2917 10127 20100 39993 40104=
94968 46/// /3316 10103 20100 39881 40095=
94975 46/// /3406 10123 20052 30012 40045=
94983 46/// /3023 10128 20096 30066 40091=
94995 46/// /1802 10145 20129 30172 40180=
94996 46/// /3507 10185 20165 30056 40187=
94998 46/// /3526 10061 20061 39886 49896=
95719 46/// /1403 10030 20026 39862 40201=
96995 46/// /1415 10232 20213 39836 40132=
96996 45/// /1118 10259 20223 30130 40134 57015=
89564 419// /1430 11164 21235 39862 49883 52007=
89571 419// /1208 11159 21228 39835 49865 52010=
89611 419// /0510 11111 21197 39692 49746 57007=
94974 35/// /3222 10128 30048 40071 57006=
95288 35/// /1210 10244 30116 40131 57004=
95872 46/// /3618=
64500 32465 52412 10250 20221 30091 40106 85500
333 10282 59015 85611=
64501 32465 42204 10250 20214 30103 40113 84800
333 10272 59008 81810 83620 94906 95836=
64503 32460 8//// 10238 20211 30073 40114 885//
333 10275 58005 83611 88623=
64510 11465 7//// 10218 20206 3//// 40/// 69902 71362 82972
333 10/// 5//// 82811 87460 81925 94944 95874=
64550 32460 8//// 10252 20216 39003 40105 885//
333 10270 59013 83611 88630=
64551 32465 6//// 10254 20218 30073 40102 885// 910//
333 10292 59002 84610 88623=
64552 32460 6//// 10259 20203 39441 40086 86900 916//
333 10280 59012 84816 81920 85626 94968 95838=
64556 32465 6//// 10240 20210 39511 40080 86300 915//
333 10/// 59009 86615 81916 94942 95832=
64565 32460 4//// 10228 20201 39446 40080 82131 913//
333 10270 59022 82813 83360=
89002 41/90 90942 11174 21195 39640 49693 52015 73933 89///
333 00863 92941=
84628 34458 81905 10177 20144 30129 40145 71044 886//
333 564// 59015 82710 88713=
84452 31960 61913 10210 20147 30103 40134 70222 8601/
333 5600/ 59027 86460=
84370 31460 82710 10240 20196 30088 40117 70222 885//
333 560// 59006 85614 83622=
84531 31561 52014 10185 20153 30108 40120 70114 855//
333 569// 59027 85620=
84542 31670 53504 102302 20072 37364 7030/ 8383/
333 5699/ 58012 83845 82365=
84444 31564 81014 10175 20080 37540 7022/ 8442/
333 5600/ 58006 84625 84460=
84673 31668 70407 10230 20079 37350 70122 8381/
333 5600/ 58020 83850 84460=
84686 31662 53505 10204 20046 36875 70222 851//
333 569// 58010 82840 83850=
84455 21456 80000 10240 20226 39827 40179 76060 8472/
333 5600/ 58014 60021 84816 85460=
84691 31960 02909 10194 20142 30116 40123 70204
333 59017=
84377 31460 50706 10320 2026 39994 40096 70222 85200
333 560// 59006 85815=
84474 31559 80305 10309 20237 39786 70584 82106
333 56000 58003 82825 86270=
84425 31560 71606 10312 20240 39923 40131 70242 8773/
333 5699/ 59006 86825 81363=
84534 31660 80000 10300 20214 39380 40084 70312 8323/
333 5699/ 58010 83840 86362=
84752 31965 02509 10221 20025 37541 70200
333 58011=
84472 31665 31505 10200 20068 37395 70302 83500
333 56000 59005 83643=
84735 31564 43608 10164 20027 36442 70200 84100
333 56900 59040 84840=
84515 21460 71207 10290 20227 39942 40127 70196 8313/
333 5699/ 58015 60081 83820 84360=
84564 31560 80615 10230 20162 38149 76022 84520
333 56110 58013 84630 86461=
84658 31562 51504 10310 20229 39842 40061 70322 855//
333 563// 58003 85620=
84390 31970 41908 10250 20160 30027 40128 70122 84030
333 56000 59019 84364=
84401 31960 32106 10260 20172 30085 40153 70122 8303/
333 5600/ 59018 83360=
84501 31360 81710 10170 20154 30116 40157 70244 886//
333 560// 59022 83710 86613=
84782 31967 02409 10184 20111 39655 40188 70212
333 58011=
85406 32960 02311 10173 20114 40169 56018=
85418 32565 12012 10171 20105 40172 58017 81500
333 56000 81630 =
85442 32570 12013 10164 20102 40179 58016 81500
333 56400 81620=
85469 42460 73310 10202 20174 40209 52003 87810
333 56660 84810 86630 86462=
85470 32980 02614 10221 20086 40145 57019=
85488 32465 32608 10140 20110 40191 58013 83500
333 56600 83613=
85574 31957 01603 10213 20063 40176 57010 70500=
85585 32598 31305 10148 20090 40245 58002 83100
333 56300 83825=
85629 31980 01909 10180 20087 40196 58021 70241=
85672 32980 02110 10192 20056 40216 57009
333   =
85682 32965 02212 10186 20049 40215 57012=
89009 41216 80609 11480 36950 55006 71022 886//
333 88705=
10321 20270 58011=
60107 32960 00204 10250 20165 40107 56002
333 10264 95300=
91554 01470 81212 10245 20237 40111 57003 60021 78022 888//
333 563// 60021 82712 84818 88640=
91557 32575 31302 10220 20205 40142 55002 83800
333 562// 81822 83635=
85743 32965 02110 10166 20041 40247 58009
333 =
85766 32580 21605 10138 20061 40258 56009 82500
333 56400 82625=
85782 32565 51805 10113 20052 40266 50003 85500
333 56500 85625=
85799 11560 61704 10101 20055 40274 58010 69901 70282 86100
333 56400 86825=
85836 32780 22412 10126 20010 40248 55008 82080
333 56050 82356=
85864 32680 22309 10125 20008 40221 53013 82100
333 56600 82835=
85874 32680 11607 10129 21077 39591 40199 53021 81100
333 56600 81840=
85892 32680 11814 10120 20024 40216 52023 81200
333 56600 81840=
85930 32597 72410 10056 20014 40265 52034 87500
333 56500 87624=
85934 32580 22512 10084 21033 40225 52029 82100
333 56600 82823=
85972 32597 62206 10022 21003 40187 52043 86400
333 56500 86625=
78906 32580 23305 10313 20250 30137 40142 82200
333 10314 20244 58004 82824=
78905 32580 21210 10311 20252 30124 40140 81803
333 10313 20239 58010 81826= 41-6NN  93E
64504 12465 7//// 10252 20227 30102 40117 69962 875// 913//
333 10/// 59006 85813 87630
64507 NIL=
64545 HS=
71894 36/// /1405 10116 20113 30183 40192 53008 333 10120 20075
70000=
71896 31916 0000 10089 20083 39400 40228 57003 74244 333 10089 20033
70000=
71924 11369 81213 10003 21008 39939 40025 53007 69901 70365
886// 333 10004 21017 42002 70004 90926=
71930 32974 10000 10166 20085 39298 40219 58007 80001 333 10170 20048
70000=
71946 32974 52407 10188 20089 39915 40121 52006 81071 333
10189 20110 70000=
68226 41960 01316 10185 20001 48528 53023 70400 333 10235 555 30105=
91577 02570 10304 10171 20151 40152 55010 69921 81100
333 56300 69927 81826=
91579 36/// /1206 10211 20167 40153 55005=
91582 32465 50000 10136 20125 40158 55005 85200
333 56000 85810=
91583 36/// /18// 10197 20177 40155 55009=
91587 16/// /2402 10102 20102 30117 40169 55006 69922
333 10221 20100=
91590 32970 00000 10160 20152 40160 56007
333 56000=
91592 32965 00808 10182 20165 40160 55007
333 56000=
91943 32565 50817 10261 20217 30129 40132 55000 84802
333 56209 82820 83073
555 10927 59009=
91945 32580 30410 10264 20218 30167 40172 51016 83200
333 56100 83820
555 10416 59018=
17601 32970 02606 10243 20176 30065 40094 53009 91750 333 10278=
11816 11462 83205 10133 20108 39931 40090 52007 69922 76162 8782/
333 10199 83712 84620 87650=
11826 11560 80201 10145 20137 39897 40090 52008 60032 76062 8652/
333 10176 83630 86650 88460=
11903 11657 80503 10124 20111 39730 40100 53004 60012 76062 885//
333 10139 88643=
11934 11660 80000 10102 20088 39308 42748 53002 60022 72162 8652/
333 10126 86636 88459=
11968 11680 83502 10153 20133 39836 40107 53001 69902 70266 885//
333 10180 83640 88656=
11841 11522 80000 10128 20119 39727 40092 51009 60012 72162 885//
333 10169 85629 88641=
11858 11556 89901 10153 20137 39941 40087 52008 69912 76182 885//
333 10214 83723 88636=
11916 11/00 91912 10041 20040 37935 48430 53008 60052 76064
333 10042 89/00=
11927 11761 80202 10132 20122 39845 40099 53001 69932 70262 8352/
333 10145 83650 88459=
11930 11/00 92106 10007 20006 37349 47035 53011 60102 76374
333 10007 89/00=
11993 32975 82202 10172 20106 39902 40110 53001 8807/
333 10193 88360=
11855 11758 80000 10144 20138 39926 40086 53008 60042 72162 8552/
333 10176 85650 88458=
11867 11462 80204 10135 20116 39782 40088 52008 60062 70262 885//
333 10150 81713 88638=
11880 11650 60601 10143 20138 39926 40092 53006 69992 72162 86500
333 10167 86640=
11933 11262 82701 10080 20071 38600 48454 53005 60032 72162 885//
333 10082 88603=
11938 11556 82101 10108 20089 39070 42740 53002 60042 71062 8557/
333 10108 85630 88459=
11976 11665 73201 10139 20126 39855 40111 53001 69902 70262 82570
333 10162 82646 87360=
11978 32780 82801 10163 20143 39979 40104 53001 885//
333 10190 88650=
12772 32680 51103 10166 20124 39829 40103 53002 82362
333 10223 82933=
12843 32680 71402 10183 20119 39922 40085 57002 84572
333 10214 84646=
12882 32980 61303 10162 20114 39980 40109 55000 83072 333 10228=
12925 11970 83401 10165 20137 39904 40070 56004 69912 72162 8807/
333 10212=
12942 32965 61305 10180 20134 39839 40075 57007 85031 333 10237=
12982 32975 21403 10170 20112 39998 40096 55002 81042 333 10243=
11036 11664 83104 10117 20113 39871 40097 53011 60062 76386 8802/
333 10174 88548=
11010 11380 79901 10105 20094 39749 40120 52011 69932 70286 8683/
333 10129 81808 83642 86657=
11120 11365 89902 10079 20069 39436 40136 52005 60082 70286 8787/
333 10123 82607 83830 87658=
11150 11580 71604 10098 20075 39596 40127 52014 60062 70266 8687/
333 10113 81830 86650=
11240 11440 83305 10110 20103 39685 40094 52022 60232 76366 8572/
333 10212 82710 83718 88535 91119 91212=
10004 46/60 /3010 10144 20090 30057 40057 53012
222// 00164
333 10156 20118 55303 91113 91211=
10015 01482 72811 10146 20116 30031 40040 51009 69932 70381 878//
222// 02167
333 10160 20133 31012 55300 69907 85816 85650 91114 91212=
10020 01480 73005 10142 20113 39993 40028 53010 60042 70382 878//
333 10157 20128 31012 55300 69927 81816 87640=
10035 11565 62304 10127 20108 39977 40034 53009 60022 70381 85832
333 10158 20090 31009 55300 82820 84633=
10055 01575 72205 10147 20115 30026 40036 51007 69902 72162 878//
333 10173 20094 31009 55300 69907 82820 83633 87650=
10224 11481 42505 10128 20109 30058 40064 53014 69912 71411 81131
333 10169 20099 31010 55301 81817 83358=
10270 11960 32301 10125 20105 30007 40061 53016 69962 70398 83050
222// 06154
333 10166 20098 31009 55301 83359=
10361 01772 62502 10132 20100 39971 40072 53014 69992 78082 86300
333 10163 20094 31008 55300 69907 83950 86657=
10384 01880 62502 10134 20120 30008 40066 53020 60032 70186 86500
333 10156 20106 31010 55300 69907 82657 86658=
10393 01570 72303 10127 20120 39948 40072 53019 60022 72582 878//
333 10148 20106 32011 55300 20026 30023 69917 84830 87656=
10400 12570 72403 10138 20106 30051 40099 52014 69912 8383/
333 10162 20109 31011 55300 81831 83650 86358=
10438 46/60 /2703 10121 20080 39818 40094 51017 8////
333 10140 20097 3/009 55300 88/56=
10469 12884 32203 10118 20093 39916 40077 51017 69942 83500
333 10151 20105 31010 55300 83657=
10488 11886 72203 10118 20088 39811 40086 53018 69902 70382 875//
333 10145 20117 31010 55300 87657=
10548 01582 73402 10103 20089 39564 40096 53016 60032 78082 873//
333 10135 20087 31008 55300 20047 60017=
10637 11575 53004 10139 20087 39971 40105 51019 69952 70182 83831
333 10173 20103 31010 55300 81828 83656 85358 91113 90940 96480
96415=
10685 12682 62101 10105 20075 39432 40092 53017 60022 85232
333 10123 20087 31009 553// 85840=
10738 11584 33102 10116 20076 39651 40111 51014 69982 83530
333 10153 20101 31009 55302 83630=
10763 01582 32502 10123 20082 39731 40105 51017 69902 70181 82831
333 10144 20108 31010 55303 20120 69907 81830=
10788 01482 72202 10109 20091 39682 40106 51011 60042 70162 8687/
333 10126 20109 31010 55304 69907 81810 86650 87358=
10852 01570 52302 10089 20073 39552 40114 51008 69972 70262 83831
333 10117 20088 31006 55301 69907 82820 83359=
10946 01575 71502 10079 20064 39297 40119 51010 60042 70262 85832
333 10095 20079 32007 55302 69917 81830 85643=
10091 11581 31802 10132 20108 39998 40048 52008 60022 82331
333 10154 20105 31010 55301 20039 30034 81920 81633=
10113 01472 53010 10143 20101 30036 40055 51009 60032 72111 85832
333 10156 20129 31011 55300 69927 83818 83650 91113 91211=
10129 01475 52505 10137 20104 30042 40055 51011 60022 83831
222// 02157 20000
333 10162 20107 32009 55301 69907 81818 83648=
10131 01575 62604 10143 20101 30033 40047 52009 69922 72581 86831
333 10163 20097 31009 55300 69907 82824 85649=
10170 01670 42003 10139 20091 30028 40042 51010 69902 70181 82330
333 10178 20091 31009 55300 69907 82933 83363=
10253 06/72 32203 10129 20106 30041 40062 53013 69902 83///
333 10176 20074 31008 55300 69907 83/56 86/59=
10305 06/// /2401 10126 20120 30049 40080 53010 60022
333 10155 20107 3/011 55300 60027=
10315 01565 72203 10135 20112 30018 40081 51012 69952 78086 8587/
333 10155 20107 31010 55300 69907 82825 84640 87359=
10348 01770 72403 10121 20097 39969 40073 53015 69962 70382 8553/
333 10157 20095 31009 55300 69967 85650 86360=
10385 01675 82303 10127 20114 30007 40067 53020 60022 76082 875//
333 10161 20107 31011 55300 69907 83640 85656 87657=
10427 01/02 92805 10072 20068 39102 48419 51014 60022 74185
333 10091 20054 31006 55300 69927=
10453 11/90 92510 10049 20047 38770 48407 52012 60162 74542
333 10059 20035 32004 55300 91113 96441=
10474 01868 62301 10117 20116 39948 40074 51021 60022 72186 86500
333 10158 20105 31010 55300 20008 69927 86657=
10490 16/59 /2504 10130 20098 39960 40079 53020 69922 8////
333 10162 20115 3/011 55300 20035 82/24 82/31 88/58=
10499 11680 82205 10119 20096 39799 40081 53018 60012 70382 83577
333 10137 20118 31011 55300 83637 88278=
10501 01470 72403 10126 20101 39860 40103 52011 69902 70265 8487/
333 10158 20099 31010 55300 69907 81818 84650 85358=
10513 01575 72803 10133 20093 39987 40106 51017 60042 72582 8387/
333 10162 20107 31010 55300 69907 81830 83650 87359=
10532 11570 72802 10132 20089 39869 40099 51021 60032 70286 8383/
333 10153 20101 31010 55300 81820 83640 85360=
10544 11362 82803 10066 20066 39040 48429 52017 60022 72586 885//
333 10094 20055 31006 55300 87607=
10554 11681 52603 10101 20087 39709 40090 53017 60022 70182 85800
333 10133 20101 31008 55301 20103 81836 84657=
10577 01581 72203 10099 20088 39596 40091 53018 69902 72582 873//
333 10137 20099 31009 55300 20020 30017 69907 82824 85941 91114=
10578 11/65 72510 10041 20039 38714 48417 52015 69962 74142 872//
333 10057 20040 31004 55300 20050 30043=
10609 11582 73101 10133 20086 39796 40118 51018 69902 70281 878//
333 10164 20096 31/// 55300 82830 87650=
10655 01480 52702 10109 20092 39779 40101 51020 60032 72586 85800
333 10152 20103 32010 55302 60037 81817 85656=
10688 12584 51501 10096 20082 39579 40095 51021 69912 83801
333 10126 20096 31008 55301 82820 83076=
10708 01582 63303 10117 20091 39735 40113 51015 69992 70181 86800
333 10151 20091 31009 55301 69907 81820 86657=
10729 01680 73301 10128 20107 39987 40106 51018 60032 70286 875//
333 10184 20103 31009 55300 60027 87640=
10776 12480 62401 10114 20099 39676 40112 51014 69962 82531
333 10134 20109 32009 55302 82616 84366=
10803 06/59 /3501 10133 20087 39769 40122 51023 60012 8////
333 10171 20113 3/011 55300 69907 86/50 87/59=
10836 01486 62503 10077 20072 39248 40106 51009 60072 72598 84932
333 10115 20074 31005 55303 69907 82810 81913 85076 96495 96482=
10929 01580 62202 10105 20097 39591 40116 51012 60022 72582 85432
333 10155 20103 31009 55300 60027 96015 96281=
10961 11/00 93604 11059 21059 37022 47987 52011 60242 74374
333 11016 21077 3//// 49135 55300 91117 96473 96449=
10962 11789 62405 10061 20038 38985 48438 51011 60082 70162 85508
333 10076 20060 31005 55301 85656 95157
444 17070=
10063 91108=
17600 32565 53104 10240 20184 30080 40096 53008 85800
333 10279 81825 85650=
17609 32980 02310 10250 20189 30088 40090 52010
333 10282=
41170 42964 01904 10319 20267 30043 40056 333 10377 58019=
15004 32998 40702 10144 20115 39807 40133 52003 81041
333 10227 20097 31028=
15020 32997 60000 10169 20110 39960 40151 53001 80006
333 10224 20088 31032=
15090 32997 11202 10176 20084 30032 40153 52005 80001
333 10231 20116 31030=
15108 32299 22304 10062 20062 38120 48530 58002 81401
333 10104 20020 30/// 95100=
15120 32998 63501 10168 20092 39648 40125 52003 80008
333 10216 20080 31034=
15150 32997 11802 10178 20090 39929 40151 53001 81040
333 10227 20094 31029=
15200 32998 21404 10154 20105 39966 40104 57003 80001
333 10241 20120 31026=
15260 32597 21403 10158 20072 39614 40130 52007 81360
333 10218 20067 31029=
15280 32999 02312 10020 21002 37513 47056 57007
333 10045 21008 31/// 91018=
15292 32998 01604 10173 20093 39855 40139 57005
333 10236 20120 30027=
15310 32998 01401 10184 20125 30078 40160 53004
333 10236 20129 31031=
15346 32997 13203 10167 20111 39871 40150 56005 80001
333 10234 20091 31037=
15350 32997 01002 10185 20076 30039 40153 52003
333 10246 20126 30043=
15360 32997 01403 10200 20129 30165 40176 53002
222 00214 20000  333 10232 20177 92417=
15410 32997 00000 10182 20090 30034 40125 57003
333 10261 20131 30038=
15420 32997 00301 10113 20082 30030 40139 57002
333 10258 20112 30040 91001 91201=
15450 32998 10906 10212 20029 39904 40130 57018 80001
333 10255 20102 30035=
15460 32997 01003 10199 20086 30126 40148 52006
333 10267 20143 30050=
15470 32997 00000 10217 21022 30017 40137 56002
333 10271 20090 30048=
15480 32997 01802 10205 20149 30146 40161 58005
222 00176 2//// 333 10235 20145 30038 92417=
11423 12482 72503 10079 20079 39240 42739 51023 69992 8754/
333 10098 87610=
11464 12281 72508 10069 20063 39127 42727 51014 69992 8117/
333 10094 81803 87459=
11487 11584 72601 10100 20074 39494 40105 52017 60032 70262
8147/
333 10118 81620 87459=
11518 11686 72003 10111 20088 39668 40098 51017 69992 70262 85471
333 10134 81640 85656 85467=
11603 12470 70802 10101 20089 39622 40095 53015 60022 83831
333 10131 81816 86357=
11659 01473 72802 10103 20095 39481 40107 53017 60032 76062
8252/
333 10123 69915 82616 87458=
11782 11257 82501 10130 20124 39788 40094 52012 69952 72186 885//
333 10177 83706 88620=
11101 11470 71704 10095 20079 39601 40118 51010 60052 70282
875// 333 10115 81715 87650=
11022 17/// /3005 10115 20099 39716 40097 60012 7404/ 333 10171=
11028 11656 82402 10106 20100 39771 40108 52009 60052 76362 8802/
333 10151 88533=
11130 11480 82302 10090 20072 39544 40125 50006 60112 70262
8167/ 333 10119 81710 88358=
11146 11/01 90311 11064 21070 36878 47973 57002 60132 77374
333 11015 89/00 91122 92612=
11157 11458 82304 10074 20053 39369 40131 53008 60142 76366 885// 333
10123 82615 83625 87640=
11172 11445 80000 10057 20042 51006 60102 76562 887// 333 10138
83710 88717=
11231 11358 82602 10101 20085 39560 40119 52041 60332 76398 889//
333 10199 81707 84620 81940 87645=
43555 22470 73208 10280 20252 40114 83238 333 58006 6004/
83818 87276=
43599 21450 82709 10244 20229 40125 78082 84907 333 58003
6004/ 83815 81916 88274=
10264=
51581 16/// /2000 11022 29087 39941 69951
555 1/130 2//00 /////=
17022 32670 21204 10195 20155 40148 57004 82100 333
10215 82834 92438=
17050 32970 01104 10220 20087 40146 53007 333 10279=
17060 32960 00512 10213 20118 40142 53002 333 10254=
17096 32970 00000 10146 20031 38235 48496 52013 333 10252=
17124 32965 02406 10190 20088 39235 40120 53005 333 10250=
17128 32970 00306 10188 20084 39056 40104 53003 333 10255=
17170 32970 00000 10124 20009 38338 48502 51010
333 10248=
17195 32970 21806 10217 20104 38940 48491 53010 82030
333 10284 82362=
17200 32970 22006 10228 20092 39136 40060 53003 82030
333 10314 82360=
17219 32965 03610 10245 20091 40102 52007 333 10302=
17240 32675 21302 10210 20120 38988 40078 53005 82100 333
10272 82835=
17244 32970 03609 10197 20061 38953 48476 50000 333 10272=
17280 32970 02104 10234 20003 39312 40055 52009
333 10344=
17350 32660 52006 10256 20200 40092 52014 85200
333 10314 85835=
17034 12670 71602 10194 20146 40172 58002 60012 84270
333 10204 84835 87359 92438=
17070 32965 02001 10158 20128 39294 40142 52009 333
10242=
17084 32970 00811 10160 20118 39268 40144 52011 333
10240 91021=
17090 32965 03602 10180 20097 38710 48494 52012 333
10258=
17098 32970 00611 10140 20089 38226 48516 52016 333
10230=
17150 32960 00110 10200 20070 40127 52010 333 10280=
17160 32970 00213 10202 20114 38994 48493 53006 333
10270 91023=
17184 32970 03407 10227 20118 40106 53012 333 10304=
17190 32670 11804 10198 20102 38990 48479 54000 81100 333
10254 81840=
17210 32975 02202 10265 20116 39100 40062 53010
333 10340=
17234 32970 02904 10242 20132 40090 53010 333
10321=
17260 32970 02704 10244 20087 39298 40067 53018 333 10336=
17290 32970 02702 10252 20148 40096 53005 333
10300 92428=
17370 32665 63406 10274 20229 40093 53003 84230 333
10304 84835 86360 92437=
17024 32970 01106 10190 20145 40160 54000 333 10224
92428=
17056 32970 00810 10208 20129 40154 53008 333 10252
92438=
17092 32970 02608 10224 20104 38836 48494 53010
333 10286=
17112 32970 00607 10220 20086 40136 53002 333 10269 92418=
17115 32960 00320 10208 20146 40133 53004 333 10248=
17116 32970 00204 10190 20127 40144 53005 333 10274=
17188 32970 03202 10216 20079 39072 40080 53003 333
10278=
17202 32970 02904 10210 20021 39102 40082 53004 333 10334=
17248 32675 22505 10236 20115 38930 48470 54000 82100 333
10284 82840=
17292 32970 00903 10215 20107 39370 40094 52010 333
10300=
17300 32970 01601 10247 20186 40082 53002
333 10290=
17330 32970 00000 10243 20191 40096 52010 333 10306=
33393 32960 51303 10140 20110 40123 58001 85030 333 10206=
33506 32997 23102 10140 20104 40181 53001 80001 333 10196=
33631 12997 71003 10180 20112 40113 54000 69902 87030
333 10209=
33658 32997 21103 10144 20082 40145 52003 82030 333 10213=
33663 32997 00000 10149 20118 40158 53005 333 10222=
33837 32999 02302 10160 20105 40184 55004 333
10205=
33924 32968 00902 10164 20093 40188 52001 333 10219=
33946 32959 00703 10172 20108 40175 53006 333 10236=
34300 32997 03003 10140 20089 40175 53005 333 10181=
34504 32997 03503 10141 20077 40178 52007 333 10217=
34519 32960 52902 10141 20081 40169 53011 85030 333 10211=
34601 32997 03403 10132 20080 40182 53005 333 10210=
17074 32970 00206 10160 20095 39243 40149 53003 333
10205=
17085 32970 10203 10190 20124 40149 52006 81030 333
10237 81360=
17100 32970 00402 10236 20045 39160 40095 52032 333
10310=
17140 32965 00604 10139 20116 38708 48502 53008 333
10225=
17203 32970 00000 10250 20084 38870 48549 53002=
17205 32980 00000 10162 20041 38340 48504 52020 333 10264 92418 555
10104=
17237 32670 20000 10244 20141 40080 54000 82100 333
10305 82840=
17250 32975 00703 10220 20087 38773 48480 52011 333
10280=
17255 32970 03010 10250 20196 39441 40073 52023 333
10352=
17270 32970 02406 10260 20125 39458 40061 53014 333
10349=
17375 32975 00000 10246 20202 40082 54000 333
10302 92408=
11406 01475 49902 10107 20086 39526 40099 53015 60042 72581
84241
333 10132 69905 84811 91178=
11457 11382 72405 10050 20044 38827 48433 52008 60052 70165
8357/
333 10073 83607 87359=
11520 12582 71902 10114 20088 39742 40100 52018 60022 82571
333 10139 82626 87459=
11636 01574 89901 10097 20091 39439 42742 51016 60022 76162
8157/
333 10133 69945 81622 88558=
11679 12965 70000 10105 20089 39625 40103 53015 69912 8707/
333 10141 87358=
11723 11762 82903 10125 20100 39811 40102 52018 69912 76162 8352/
333 10163 83656 88557=
11766 11108 82903 10092 20090 39227 42732 53010 69932 74665
887//
333 10123 88701=
11774 11425 83101 10134 20123 39829 40094 52012 60022 71062
885//
333 10173 83715 88623=
11787 01/00 91906 10080 20079 38608 48432 52009 60042 76164
333 10080 60015 89/00=
10146 84/37 86/56 555 7/098=
10156 82818 87642 90710 91126 91025=
26313 11497 61903 10136 20116 40075 52008 60022 70282 83930 333
10173=
26348 12584 61402 10125 20113 40122 52005 60032 86500 333 10129=
26406 11560 80902 10136 20131 40065 54000 69982 72582 889// 333
10176 88921=
26416 12599 81404 10145 20118 40076 52003 69912 889// 333 10173
86626=
26422 11997 81504 10141 20127 40094 52010 60032 70282 84031 333
10171=
26544 12562 71303 10141 20119 40123 53005 60022 85330   333 10163
85930=
11204 17/// /1102 10074 20074 39345 40125 60212 74044 333 10161 90438
91115=
10177 81822=
82915 86618 88630=
12205 12970 32102 10127 20118 30052 40060 52013 60022 83032
333 10163 20106=
12465 11660 82302 10149 20125 39859 40084 53012 69952 70382 8657/
333 10188 20121=
12560 11560 82401 10139 20122 39762 40097 53011 69902 70262 885//
333 10185 20134=
12120 11497 72103 10123 20112 30048 40055 52019 60232 72522 83332
333 10153 20105=
12250 11697 70000 10131 20106 39993 40079 52020 69902 70382 86508
333 10178 20116=
12330 12960 52002 10124 20102 39974 40080 53016 69902 83032
333 10154 20119=
12375 11665 89902 10134 20129 39960 40087 52007 60022 76122 8252/
333 10187 20123=
12424 11999 62001 10126 20108 39940 40089 52016 69902 70186 85071
333 10161 20126=
12100 11556 51801 10124 20110 30050 40056 52010 69962 71022 84530
333 10153 20108=
12105 11558 70000 10115 20106 30016 40057 52013 69942 71082 8393/
333 10144 20111=
12135 11497 72104 10152 20134 30050 40053 53012 69932 72582 872//
333 10170 20125 91111=
12185 11570 71603 10139 20131 39949 40080 51006 60022 72582 875//
333 10181 20133=
12195 32570 51503 10134 20120 39873 40094 51002 84502
333 10164 20116=
12235 11497 82103 10114 20101 39864 40069 52019 69922 70182 85507
333 10148 20114 91114=
12270 11540 72001 10144 20136 39906 40082 53009 69992 71098 873//
333 10188 20122=
12300 12660 62401 10126 20115 39980 40068 52015 60022 865//
333 10145 20100=
12360 11697 82001 10142 20121 39952 40081 53008 69952 70382 8457/
333 10193 20121=
12385 12997 51703 10156 20116 39914 40097 52007 69902 85030
333 10196 20127=
12400 11670 41902 10113 20100 39851 40081 53015 69932 70181 81430
333 10137 20102=
12435 11560 72202 10136 20120 39917 40084 53010 69932 70282 875//
333 10180 20127=
12495 11597 71502 10134 20106 39823 40107 52004 69902 70182 8353/
333 10184 20124=
12510 11/90 92509 10020 20020 38299 48420 52014 60032 74584
333 10045 20020 =
12520 11598 72201 10110 20095 39675 40099 52013 69922 70182 8357/
333 10159 20106=
12570 11996 81403 10133 20114 39788 40096 53005 69902 76082 8807/
333 10189 20126=
12575 11560 81301 10145 20119 39852 40099 55000 60032 70262 885//
333 10197 20134 91110=
12595 36/// /9902 10145 20101 39856 40119 52004 60012
333 10204 20118=
36911 429// 03003 10093 20061 39284 40233 58004 333 10171=
36974 329// 00000 10072 21071 37999 48539 52011 333 10157=
38345 32998 00000 10072 20041 38844 48538 58004 333 10159=
38353 429// 00000 10079 20004 40251 58003 333 10168=
16622 32560 11004 10226 20145 30134 40139 57002 81100 333 10276
90730 91116 555 10000 40160 30000 10274 20276 30282 40276
50260 40000 47637 44265 50000 50178=
16641 32460 10000 10224 20158 30127 40133 56006 81200 333 10270
90730 91108 555 10000 40152 40000 47628 44230 50000 50184=
16682 32960 0//// 10216 20163 30117 40136 56002 333 10274
90730 911// 555 10000 40172 30000 10280 20288=
16716 32970 00508 10248 20047 30110 40127 52001 333 10290 555 10000
40222 40000 47621 44270 50000 50146=
16734 32570 13408 10224 20154 30071 40133 54000 81200 333 10262
90730 91115 555 10000 40220 40000 47590 44245 50000 50182=
16743 32960 00000 10218 20139 39950 40145 54000 333 10258
90730 91107 555 10000 40218 40000 47498 44240 50000 50172=
16754 32570 32910 10236 20125 30079 40124 53001 83200 333 10262 90730
91119 555 10000 40234 40000 47598 44260 50000 50172=
16650 32965 03505 10200 20096 30126 40130 54000
333 10258 90730 91111 555 10000 40200 30000 20334 30304 40294 50286
40000 47630 44260 50000 50144=
16732 32965 03424 10234 20151 30105 40117 51001 333 10252 90730 91134
555 10000 40230 40000 47615 44250 50000 50184=
16614 32975 00000 10192 20098 39376 40128 53003 333 10254 90730
91106=
16627 32960 00000 10222 20128 30137 40141 52011 333 10274 90730 91107
555 10000 40160 30000 10232 20236 30238 40236 50244 60234 40000 47636
44245 50000 50168=
16667 32970 03609 10242 20171 30109 40114 53003 333 10282 90730 91117
555 10000 40222 30000 1//// 20226 30246 4//// 5//// 6//// 40000 47619
44265 50000 50198=
16675 32970 00905 10222 20124 30104 40123 53003 333 10290 90730
91117 555 10000 40144 30000 10270 20276 30272 40264 50262 60255
40000 47605 44220 50000 50166=
16710 32564 20000 10186 20046 39390 40134 54000 82100 333 10262 90730
91112 555 10000 40092 30000 10238 20230 30230 40226 50226 60237 40000
47073 44220 50000 50116=
16723 32965 03610 10262 20053 30082 40090 51005 333 10290 90730
91122=
16746 32560 12604 10210 20142 39955 40131 53002 81200 333
10256 90730 91112 555 10000 40204 40000 47504 44250 50000
50170=
26038 12497 71504 10127 20116 40084 52014 69932 87900   333 10134
555 50115=
26045 11598 61704 10127 20114 40106 53010 69902 78082 85930   333
10169   555 50128=
26058 11497 81503 10131 20116 40120 52011 69932 70285 886//   333
10176 87711   555 50133=
26115 12598 52005 10149 20116 40062 52015 60032 83231   333 10160
91113   555 50139=
26141 11597 71705 10123 20112 40099 52011 69932 70252 87500   333
10149 87622   555 50117=
26242 11597 31603 10130 20113 40115 52015 69902 70181 82530   333
10146   555 50121=
26247 11597 21802 10127 20114 40116 52013 69942 70181 82500   333
10141   555 50117=
47101 32975 00202 10136 20122 30061 40151 57005=
47105 32968 32505 10162 20135 30122 40153 57010 80001=
47108 32975 00702 10192 20128 30038 40139 57004=
47115 32565 60208 10182 20165 39871 40126 57004 86500 333 92043=
47133 32968 00202 10174 20161 30056 40136 57007=
47138 32662 83607 10209 20167 30130 40134 56006 8552/ 333 92043=
47159 3//// /0708 10199 20178 30038 40118 57006=
47165 32962 01105 10200 20198 30075 40118 57006 333 92022=
47168 42968 00215 10219 20157 30039 40115 57006 333 92022=
47184 32670 60905 10225 20195 30083 40110 57007 83530 333 92033=
47090 32665 22503 10163 20129 30133 40154 57010 82500 333 92022=
47095 32975 00901 10132 20113 39970 40153 57005=
47100 32562 20901 10137 20124 39196 40150 57010 82500=
47106 32670 22905 10182 20131 30109 40152 82500=
47112 32970 00000 10184 20147 30060 40140 56001 333 92000=
47114 32970 00000 10141 20126 39970 40147 57006=
47119 32973 00703 10187 20124 30101 40141 57003=
47121 32965 00201 10127 20122 39872 40152 57006=
47129 32968 00705 10176 20129 30111 40131 57011=
47130 32668 33207 10173 20144 30088 40146 57005 82530 333 92023=
47131 32662 20201 10170 20145 30071 40138 57007 82500=
47135 32665 20201 10154 20140 39856 40143 57006 82500=
47136 31/02 93201 10142 20135 39980 40147 58004 74744=
47140 32662 20906 10191 20161 30093 40128 57006 82500 333 92011=
47143 32662 80000 10199 20182 30069 40135 57006 8452/=
47146 32965 01802 10177 20164 30066 40131 55003=
47152 32570 80202 10199 20170 30090 40129 57004 8252/=
47155 32565 43408 10214 20158 30117 40122 56006 84500=
47156 3//// /0000 10185 20168 30038 40123 57006=
47162 32665 20204 10198 20171 30084 40121 57005 82500=
47170 32670 31111 10205 20165 30075 40115 57006 83500=
47185 32575 80908 10229 20190 30013 40095 51000 8552/ 333 92033=
47189 32670 80712 10239 20202 30043 40101 57002 8452/ 333 92022=
47192 32675 83403 10205 20162 30103 40128 57006 8652/=
51468 16/// /2103 11035 29027 36588 60001
555 1/123 2//00 /////=
12160 11497 51804 10150 20121 30015 40066 53013 69902 70182 82232
333 10180 20123=
12210 11597 41901 10122 20114 39991 40058 52012 60022 70181 83460
333 10160 20102=
12230 11456 70000 10123 20114 39982 40070 52011 69902 71022 83332
333 10141 20103=
12310 11565 62102 10126 20115 30043 40072 53018 60032 72522 869//
333 10161 20103=
12399 32597 81803 10164 20098 39950 40112 52011 883//
333 10194 20124=
12418 12697 72301 10118 20098 39970 40082 53013 69932 81338
333 10173 20118 96122=
12469 11435 82002 10141 20133 39864 40088 52013 60022 76182 8552/
333 10195 20129=
12488 11596 81704 10149 20114 39947 40097 52009 69902 71062 875//
333 10188 20127=
12540 11520 82802 10132 20122 39849 40094 52014 60012 76186 8557/
333 10173 20124=
12566 11656 80602 10139 20129 39814 40096 53007 60022 76162 875//
333 10194 20112=
12625 11580 72801 10117 20090 39124 42743 53007 60022 78082 872//
333 10149 20117=
12690 32598 71102 10134 20090 39623 40118 53001 875//
333 10165 20121 96122=
60715 11550 82023 10290 20206 30093 40098 53029 69952 79596 889//
333 10350 83823 86626 82933=
60725 11558 71906 10222 20193 39957 40121 50037 60092 78098 8498/
333 10369 81823 81926 83630=
60735 11556 7//// 10250 20188 30038 40116 53033 60022 79598 85902
333 10355 85826 81933=
60760 32656 63219 10334 20104 30005 40103 55001 84202
333 10367 84833 83070=
60765 32560 41002 10281 20247 30101 40107 53002 82502
333 10305 82630 83073=
60769 32765 41210 10287 20196 30094 40097 55004 81582
333 10338 81656 83359=
60775 32975 20804 10331 20072 39755 40087 56006 80002
333 10360 82070=
12115 11497 62103 10127 20118 30041 40054 52012 60052 70182 83330
333 10145 20107=
12125 11496 72502 10120 20112 30010 40059 51024 69932 7108/ 875//
333 10157 20106=
12200 32960 41701 10117 20110 30047 40054 51013 84030
333 10164 20103=
12272 32565 71803 10152 20134 39915 40077 52012 879//
333 10173 20124=
12280 12560 71602 10152 20130 39924 40080 50003 69902 8197/
333 10175 20125=
12345 11570 72001 10143 20117 39942 40082 52012 69902 72582 879//
333 10183 20122=
12415 12698 72302 10130 20107 39937 40086 52014 69902 8153/
333 10162 20127=
12455 11960 82301 10134 20113 39850 40089 53010 69912 70262 8807/
333 10191 20125=
12497 11570 72103 10158 20147 39904 40116 51010 69902 70382 879//
333 10210 20119=
12500 12598 72503 10119 20069 39684 40090 52016 69912 8596/
333 10157 20114=
12530 11640 82101 10133 20121 39897 40091 52011 69952 71086 8557/
333 10179 20133=
12550 11556 81901 10132 20120 39742 40090 52011 60032 78062 889//
333 10188 20127=
12580 11965 81203 10134 20124 39868 40107 56008 60022 70182 8807/
333 10196 20127=
12585 11597 81502 10134 20122 39846 40105 53001 69902 70382 885//
333 10195 20128=
12600 11540 80000 10130 20123 39625 40094 53012 60022 72582 885//
333 10174 20129=
12650 11/00 92014 10044 20044 37948 48441 53006 60122 74584
333 10044 20025 91020 91123=
12660 11570 72602 10150 20115 39751 40097 55001 69932 70282 875//
333 10187 20143=
33791 32997 00903 10160 20094 40184 53004 333 10218=
33711 32960 30704 10140 20070 40185 53005 83030 333 10218=
10161 83361=
60025 81/11 83/16 85/20=
60015 81/04 83/05 88/06=
91161 91224=
16059 11770 51603 10140 20058 39711 40049 52036 60052 70396 85500
333 10208 85650=
16080 11570 83114 10128 20084 39902 40024 50013 60162 70296 889//
333 10202 81920 87830=
16045 11558 6//// 10172 20164 39988 40050 55005 60072 70196 81270
91745 333 10192 55300 81830 85357=
16105 32565 50805 10176 20135 30028 40034 55005 85100
333 10210 85825=
16191 11556 81511 10173 20163 30057 40074 50004 60162 79192 85370
333 10244 81925 84640 86360=
16158 11560 42418 10190 20186 30040 40047 55004 60042 72596 84200
91745 333 10240 55300 82820 83822=
16242 11460 81610 10211 20197 30086 40089 55009 69942 70262 8427/
333 10249 84818 87458 555 0////=
16310 32698 21309 10222 20169 39887 40100 57009 82100 91745 333
10254 55300 82840 555 0100/=
16261 32570 32411 10244 20117 30017 40086 57006 81150 91745 333
10302 55300 81830=
16420 32998 00902 10238 20192 30051 40114 56009 91745 333 10286
55300 555 0100/=
16429 32566 42114 10240 20197 30095 40106 57008 81502 91745 333
10288 55300 81620=
16470 32465 71923 10232 20197 39871 40098 56009 81284 91745 333
10264 55300 22/// 81817 83360 95010=
16410 32570 30000 10232 20159 39962 40097 57010 81101 91745 333
10254 81825=
26554 12960 61302 10136 20107 40136 52006 69932 86030   333 10157=
26666 32960 31603 10141 20090 40161 52004 83030   333 10187=
26850 32970 61401 10131 20102 40156 52004 80001   333 10174=
26863 32960 31405 10131 20088 40166 53001 83030 333
10188=
26941 12960 51704 10150 20098 40129 53005 69902 83031   333 10190=
26951 32962 11002 10144 20092 40145 52002 81030   333 10195=
33008 32960 82102 10166 20106 40109 53006 8807/ 333 10188=
33019 32960 21502 10153 20098 40127 57001 82030   333 10206=
33036 32960 02402 10149 20090 40160 57001   333 10201=
33041 32960 00000 10125 20106 40184 53009   333 10198=
13160 32997 41402 10179 20104 39986 40090 55004 84030 333 10257=
13262 32998 00000 10180 20125 39962 40105 56006 333 10270=
13272 32980 11204 10187 20110 39978 40098 56008 80001 333 10254=
13285 32998 01302 10168 20105 30031 40130 54000 333 10246=
13289 32998 00904 10133 20069 48/// 57/// 333 10185=
13363 32970 01402 10154 20077 48477 55003 333 10214=
13376 32999 21601 10184 20127 39859 40111 56001 81041 333 10246=
13388 32998 20902 10185 20088 39885 40121 56004 80001 333 10265=
13462 32970 21001 10201 20119 30096 40139 57004 81041 333 10265 81360
=
13489 32998 20000 10196 20049 39621 40116 57003 80001 333 10256=
15502 31998 00000 10180 20134 40123 56004 70200 333 10260=
15525 31997 00202 10199 20068 40135 56000 70100 333 10272=
15535 31998 00502 10211 20082 40137 56002 70200 333 10271=
15549 31998 01106 10192 20090 40152 54000 70200 333 10256=
15552 31998 00901 10192 20155 40155 54000 70200 222// 2//00 333 10258
555 92010 92418=
15614 31998 00000 10184 20067 39457 40131 53004 70100 333 10255 555
95000=
15615 31/99 10000 10017 20011 37154 47101 57001 70121 81100 333 10070
555 95100=
15627 31999 11602 10039 21005 37646 47100 56002 70200 81020 333 10088
555 95110=
15655 31998 00904 10206 20139 40153 53006 70200 222// 00230 20501 333
10256 555 92025 92428=
15712 31998 00901 10215 20100 40124 56000 70100 333 10284 555 95000=
16066 31460 80403 10133 20087 39797 40046
50007 76196 888// 333 83815 85635=
16084 11457 82815 10130 20115 39884 40047 52040 60072 76163 889//
91745 333 10250 55300 85915 83820=
16120 11682 40209 10168 20099 30045 40048 50038 60012 70196 84800
333 10229 82835 84645 97086 555 0434/=
16090 11458 72205 10160 20159 39938 40018 55002 60152 72996 87900
91745 333 10202 55300 84915 84840=
16170 11558 41104 10190 20169 30001 40045 55019 60022 71062 84200
333 10257 84830=
16206 11465 71718 10194 20163 30058 40066 55020 60102 70196 83870
91745 333 10240 81818 83620 85460=
16289 32560 32004 10215 20175 30020 40103 57009 83100 333 10241
83830
=
16405 32560 12513 10246 20207 30062 40101 58008 81100
333 10265 81825=
16460 32960 00503 10237 20152 30097 40117 55005
333 10296 95000=
16362 32960 30000 10211 20156 30096 40113 56007 80001
333 10255=
16008 11562 80508 10040 20015 38470 48432 52014 60012 70262 8222/
91745 333 10096 82820 88457=
16020 11665 82902 10111 20083 39816 40103 52050 60172 79566 883//
333 10176 83940 86856=
16040 11440 81102 10100 20101 39187 42721 53018 60262 79596 889//
91745 333 10148 83915 85820=
16110 11496 80707 10150 20142 30060 40065 53012 60262 79596 889//
91745 333 10216 55300 85915 83820 555 0200/=
16149 11565 71611 10198 20159 30035 40050 58002 69922 70262 85270
91745 333 10240 81820 84830=
16181 11565 81407 10150 20143 39838 40079 58004 60622 72996 8797/
91745 333 10220 55300 81923 85628 95069=
16219 11/00 92323 10072 20069 38090 48467 56009 60072 76064 91745
333 10080 55300 89/00 95090 95190=
16280 32597 31609 10212 20167 39893 40107 57007 83200 91745 333
10242 55300 83820 555 0215/=
16400 32997 51608 10208 20146 39832 40112 57011 80004 91745 333
10254 55300 22/// 83359 555 0100/=
16453 31596 32005 10230 20182 30052 40128 56007 71000 81508 91745
333 10244 55300 81622 98066 555 0100/=
16480 32998 02407 10240 20210 30070 40129 56002 91745 333 10270
55300 555 0200/=
16061 11986 60810 10142 20097 39227 42689 53026 60032 70396 86070
91745 333 10182 55301 86361=
16076 11357 80216 10132 20080 39743 40018 50016 60182 71092 888//
333 10195 83910 86635=
16114 11568 31310 10196 20160 39407 42704 52027 69902 70196 82201
91745 333 10220 82820=
16138 11475 71707 10180 20135 30020 40031 56012 60112 70296 87300
91745 333 10254 82918 85820=
16021 11/06 92912 11008 21010 37887 48405 58008 60192 77376 91745
333 10054 41001 89/02 92821 93101=
16022 11/00 93620 11010 21010 37775 48413 53002 60142 79597 91745
333 10042 47003 55300 89/00 92802 93103=
16033 11430 80000 10060 20060 38721 48435 53023 60112 76366 887//
91745 333 10118 84715 84820=
16088 11558 71806 10128 20121 39912 40027 53007 60052 72996 82973
91745 333 10205 82925 84359=
16094 11450 80000 10182 20168 39967 40029 55008 60042 70222 883//
91745 333 10184 82912 86815=
16098 11460 70805 10184 20164 39990 40039 53002 69922 70262 87800
91745 333 10204 82815 85620=
16108 11560 81606 10159 20155 30028 40048 53004 60222 79596 8391/
333 10213 83930 86640=
16140 11440 82915 10137 20114 30003 40052 53033 60082 78098 8436/
333 10245 81815 83930 84356=
16146 11598 62006 10204 20181 30033 40040 58005 69902 70362 85260
91745 333 10230 85825 555 0213/=
16179 11462 62115 10148 20128 39389 42700 56006 60112 79198 86900
91745 333 10210 83917 83822=
26645 12597 51403 10143 20117 40122 52004 69952 82530   333 10157=
26659 32597 71601 10134 20105 40152 52007 87500   333 10170 87626=
26763 32960 01803 10118 20085 40171 52008   333 10185=
26825 12960 71604 10156 20121 40101 52004 69902 8703/   333 10171=
26832 12960 61202 10148 20114 40116 52006 69992 86030   333 10188=
26887 31957 01102 10108 20097 40185 53005 71011   333 10192=
26961 32962 11302 10131 20098 40159 52003 80002   333 10196=
33027 32965 21501 10131 20102 40151 53001 80001   333 10203=
40100 32560 52004 10254 20187 40103 53010 85200 918//
333 10292 85826 924/7=
40102 36/// /2304 10190 20122 39098 48504 53019 918//
333 10293=
40103 32565 63004 10254 20215 40103 53006 86800
333 10284 83827 84640 555   10285=
33261 32997 00000 10119 20102 40187 53004 333 10201=
33275 32997 20000 10124 20103 40183 53005 82030 333 10193=
33301 32597 71304 10141 20099 40144 53004 82530 333 10190=
33377 31959 00000 10121 20104 40190 53007 71000 333 10215=
33415 32997 31404 10134 20086 40145 57001 80001 333 10183=
33429 32997 21303 10126 20088 40155 54000 80001 333 10191=
33526 12660 60000 10138 20105 40136 53003 69902 83530 333 10200=
33562 32997 21503 10152 20071 40162 53002 80001 333 10202=
33761 32979 01301 10143 20092 40176 53015 333 10216=
33889 32998 01102 10167 20125 40164 53002 333 10240=
33983 32997 23003 10154 20094 40178 52003 80001 333 10227=
34415 32997 23401 10154 20097 40165 52005 80001 333 10204=
26231 12997 51503 10138 20127 40087 52010 69912 83031   333 10160
555 50125=
40356 42960 02806 10270 21010 39133 48476 333 10340 59009 55112
555 04410 50052=
40357 42962 02307 10290 21020 39458 40057 333 10382 58000 55///=
40360 42960 02911 10264 20110 39519 40080 333 10340 59011 55113=
40361 42960 02805 10270 20000 39340 40072 333 10350 58003 55///=
40362 42962 00507 10330 20080 39558 40045 333 10396 58004 55106=
40373 42960 03610 10320 20040 39655 40045 333 10413 58013 55///=
40375 42960 00000 10296 20080 39220 40051 333 10350 59022 55105=
40377 42960 00308 10314 20020 39603 40054 333 10410 58004=
40394 42962 00304 10306 20020 38991 48497 333 10359 58003 55108
555 04410 50048=
40416 42960 00105 10330 20220 30012 40031 333 10390 58019 55///=
40420 42960 00602 10318 20160 39858 40052 333 10435 58019 55///=
40430 42660 43008 10380 20070 39344 40014 82130 333 10420 59002
55107 82845=
40437 42960 00705 10330 20000 39391 40048 333 10405 58009 55100=
40438 42960 00703 10340 20040 39390 40053 333 10400 58003 55105=
40439 42960 02710 10318 20250 30030 40042 333 10410 59006 55///=
16738 32960 00114 10220 20090 39938 40128 53001 333 10266 90730 91120
555 10000 40220 40000 47491 44255 50000 50150=
37549 42996 03008 10217 20128 40160 51027=
12295 12570 81403 10157 20130 39919 40098 52004 69902 885//
333 10174 20122=
41024 42960 23404 10310 20260 30032 40051 82030 333 10360 59007
55080 82360=
41030 42960 43202 10352 20240 39777 40037 80001 333 10452 58002
55/// 84070=
41036 42560 52710 10275 20140 38542 48493 82440 333 10360 58008 55080
82625 83359 555 04410 50036=
41055 42960 02806 10280 20030 38349 48489 333 10350 58001 55105
555 04410 50016=
41084 42560 20506 10300 21050 38826 48488 82100 333 10385 58000
55102 82830 555 04410 50040=
41114 42560 32406 10232 20078 37983 48499 83400 333 10314 58012
55100 83625 555 04410 50040=
41128 42960 00000 10280 21010 38772 48488 333
10370 58001 55100 555 04410 50030=
41136 42960 00505 10350 21040 39264 40026 333 10417 58011 55088=
41140 41660 40000 10326 20280 30049 40057 71312 83930 333 10383
58013 82630 81935=
41240 32960 01013 10320 20257 30060 40063 333 10345 58033=
41244 36/// /3506 10333 20226 39728 40082
333 0E036 10411 58025=
41246 32560 51504 10301 20247 30068 40073 84530
333 10323 58029 84625=
41256 32960 20603 10287 20259 30065 40074 80001
333 10342 58025 82075=
41258 36/// /1306 10280 20269 30065 40071
333 0E/// 10288 58000=
41262 36/// /1408 10336 20159 39866 40068
333 0E033 10389 58025=
41288 31958 11607 10247 20230 30068 40090 70500 81600 333 10306 58035 81708=
41304 36/// /1110 10271 20203 39742 40061
333 0E028 10402 58020=
41312 36/// /2104 10250 20227 30042 40082
333 0E/// 10290 58024=
41314 32660 21618 10253 20193 39570 40084 82500 333
10398 58013 82630=
41316 32560 52307 10264 20227 30056 40082 84630
333 10300 58025 84625 81359=
41883 329// 00000 10280 20260 30052 40072 333 58009 70000=
41891 32450 60904 10255 20255 30042 40082 82831 333 56999 58002 70176
82615 83365=
41907 114// 60000 10270 20270 30058 40076 69926 70596 82550 333 56490
58011 70152 82615 85360=
41923 32950 30000 10288 20270 30070 40084 82051 333 56099 58012 70000
82362 83080=
41936 31956 10000 10282 20260 40076 70500 81030 333 56090 58011 70000
81362=
41943 32450 20000 10280 20260 30072 40086 82500 333 56900 58006 70000
82618=
41950 329// 00000 10274 20260 30069 40073 333 58000 70000=
41978 32540 61806 10280 20250 40085 83430 333 56990 58011 7//// 82615
84360=
41992 32450 50000 10275 20260 30078 40082 83430 333 56990 58014 70000
83615 83362=
11414 11580 40000 10092 20076 39391 42733 53016 69962 70181
83871
333 10113 82820
555 390// 50126 60128 70128 80132=
11438 32680 62401 10114 20078 39712 40100 52017 83542
333 10136 83640 83360 85070
555 379//=
11502 12586 72303 10111 20074 39648 40094 53015 69942 8547/
333 10126 81823 85634 87461
555 378// 50134 60134 70135 80139 90149=
11538 11686 72302 10098 20086 39512 40108 52015 60032 70286
8551/
333 10119 85640 87456
555 12203 392// 50128 60129 70134 80144=
11628 11465 82701 10097 20086 39479 40102 52015 60012 70262 885//
333 10124 88613
555 393//=
11643 01460 60000 10071 20062 39151 42731 53016 60022 72162
86500
333 10094 69905 86610
555 12406 394// 50105 60105 70101=
11683 01470 82503 10087 20086 39249 42740 53016 60012 76062
8457/
333 10120 69905 84611 88460
555 12403 399//=
11693 01665 82904 10112 20098 39631 40103 52016 69972 76162
886//
333 10163 69965 88733
555 12807 391// 50138 60137 70139 80141 90151=
11698 01365 83003 10112 20095 39705 40104 53015 60022 76162
887//
333 10171 60015 88709
555 389// 50140 60140 70141 80144 90153=
11710 01575 83104 10102 20086 39496 40100 53014 60022 76086
885//
333 10141 69905 88620
555 390// 50134 60141 70133 80132=
48300 01560 80000 10242 20232 39788 40094 60423 70262 8657/
333 58021 69907 70570=
48327 11460 81904 10238 20226 39736 40092 60063 70362 86675
333 58022 70061=
48331 31565 50000 10250 20235 39865 40095 70292 82576
333 58016 70003=
48356 11958 10000 10259 20248 39899 40095 69943 71091 80001
333 58007 70004=
48378 32560 40000 10251 20230 30036 40088 82546
333 58010 70002=
48407 32560 30000 10277 20259 39947 40087 81141
333 58004=
48456 12560 62007 10252 20238 30079 40093 69903 82836
333 58004 79999=
48551 31557 30000 10247 20237 30093 40101 71011 81104
333 58000=
48565 31560 70000 10265 20249 30084 40088 71722 82936
333 58003 70042=
48569 32460 60000 10251 20230 30051 40091 82236
333 59006 70001=
26135 12497 81402 10126 20120 40101 52019 69912 8634/   333 10138
86314   555 50116=
60360 11658 61815 10265 20164 40090 51015 69902 70196 83932
333 10340 81930 83833 95900=
60390 32558 60000 10261 20205 40105 51007 83832
333 10317 82826 83650 95900=
60419 11660 32406 10200 20151 40121 55007 69912 70161 81533
333 10322 81646 95900=
60490 32960 30210 10238 20192 40092 80002
333 10301 83073 95490=
60525 12665 40000 10305 20152 40099 56020 69912 83282
333 10325 83840 95900=
60531 32960 13608 10247 20170 40099 55005 81082
333 10300 81073 95900=
60566 32960 30716 10317 20109 40100 56003 83032
333 10353 83360=
60571 32658 21710 10351 20083 39176 48486 56008 81202
333 10363 81840 95900=
60580 32956 03620 10330 20167 40079 56003
333 10390=
60590 32760 71314 10375 20054 40072 53001 872//
333 10400 87840=
60611 32660 20000 10380 20035 40053 53002 82200
333 10419 82840=
60630 32760 42107 10429 20038 40036 55000 82230
333 10456 82856 83362=
60656 32960 02713 10353 20103 40029 56005
333 10372=
60680 32760 31716 10320 21007 38643 48511 54002 83200
333 10366 83856 95900=
12285 36/// /9901 10151 20125 39974 40085 52006 60052
333 10191 20117=
48303 32565 20000 10249 20227 39649 40091 82100
333 58013=
48328 32562 50000 10230 20223 39818 40096 83545
333 58022 70131=
48330 31550 70000 10242 20232 39905 40092 71021 84606
333 58016 70050=
48354 32960 10000 10260 20243 39882 40085 80002
333 58009 70046=
48379 32560 40000 10247 20237 39940 40073 82205
333 58007=
48400 32560 40000 10257 20247 30050 40091 82545
333 58013 70008=
48432 31958 20000 10266 20252 39921 40089 71000 80005
333 58002=
48455 32561 30000 10276 20234 30086 40091 81235
333 58002=
48462 31958 20000 10270 20253 30036 40092 71010 80005
333 58000=
48475 32560 30000 10257 20215 30090 40102 81105
333 58010=
48477 32560 60000 10264 20251 30077 40091 82846
333 58000=
48517 32560 30000 10250 20238 30091 40096 81105
333 59001 70034=
48532 32560 40000 10253 20240 30089 40098 82105
333 58004 70010=
48567 11556 80000 10247 20240 30077 40094 60223 71096 81247
333 59004 70222=
83818 81920 91105=
83358=
10152 91102=
28679 326// 80401 10067 20031 40275 52005 885//   333 10127=
28766 31596 20902 10056 20032 40258 52002 71011 81501   333 10130=
28867 32998 00000 10088 20038 40244 53003   333 10134=
28879 329// 30000 10043 20028 40265 52004 80001   333 10102=
28952 315// 80903 10091 20071 40233 58005 78082 889//   333 10183=
28966 329// 53602 10054 20035 40247 58003 83031   333 10121=
35067 329// 00902 10066 20043 40245 58004   333 10148=
35078 32770 20203 10042 20030 40256 50001 82500   333 10125=
35085 129// 00202 10035 20014 40263 52009 69980   333 10115=
35108 32997 00000 10156 20120 40216 54000   333 10278=
35188 129// 20303 10065 20029 40245 52005 69900 82030   333 10125=
35217 32997 01102 10172 20048   333 10286=
35302 329// 00000 10192 20105 40220 52008   333 10288=
35394 12997 53302 10057 20041 40220 52009 60060 80001   333 10097=
35406 32997 01601 10192 20045   333 10277=
35497 12998 00000 10032 20013 40227 52006 60020   333 10095=
35671 32598 40000 10112 21012 40229 53005 84900   333 10206=
35796 11584 62405 10148 20019 40208 58009 69900 72581 86900   333
10156=
36859 32599 31201 10080 20030 40249 52013 82901   333 10200=
38196 32998 03404 10133 21025 40212 51002   333 10173=
38198 329// 00401 10173 21017   333 10250=
38328 329// 00803 10143 21002 40192 54000   333 10231=
38334 32998 00904 10126 21022 40216 52004   333 10220=
38439 32998 03601 10150 20015 40189 54000   333 10258=
60355 32960 30000 10275 20216 40090 53003 80002
333 10314 83073 95900=
60445 11965 20804 10209 20110 38976 48505 56006 69902  70361 81032
333 10259 81360 95900=
60511 11560 63210 10267 20124 39027 48497 55004 69912 79596 85330
333 10314 81923 85826 95900=
60535 11660 52606 10235 20132 38820 48502 53003 60032 76196 85500
333 10272 85640 95900=
60550 31670 11910 10270 20027 38652 48501 55002 70210 81531
333 10297 81633 95900=
60555 32965 21008 10318 20126 40096 58019 80002
333 10356 82073=
60559 32760 50000 10325 20160 40095 58014 83204
333 10355 83850 84073=
60560 31960 61008 10303 20097 38903 48469 56005 70211 83082
333 10326 83360 85073 95900=
60602 32960 02202 10398 20047 40017 56012
333 10416 95900=
60607 32760 23006 10410 20025 40026 55003 82200
333 10448 82856=
60620 32758 42410 10425 2//// 40029 55002 84200
333 10456 84853=
60640 32660 51807 10400 20045 40042 53002 82232
333 10430 82846 83360=
40706 32960 00804 10228 20078 38632 40068 52021 91745 333 55109
21741=
40732 32560 50000 10238 20207 30133 40113 52018 82530 91750
333 55084 82630 84360=
40745 32960 02302 10160 21035 39051 40160 53009 91750 333
55113 22335=
40754 32960 00000 10274 20086 38805 40068 52007 91750 333 55118=
40766 32960 00000 10226 20014 38664 40059 52020 91750 333 55110
22264=
40800 32960 01105 10268 20005 38422 40024 52014 91750 333
55110 22992=
40811 31957 00000 10344 20051 30018 40044 52020 70500 91750 333
55109 2////=
40841 32960 00804 10230 21018 38254 40046 52029 91750 333
55103 22402=
40848 32960 00000 10246 20044 38503 40042 52019 91750 333 55109=
40856 32960 00105 10206 21088 38628 40082 52014 91750 333
55102 22259=
40875 31535 63302 10308 20252 30058 40070 53010 70510 84330
91750 333 55050 21843 82930 82640 84359=
16648 32960 01108 10214 20139 30043 40130 53001 333 10288 90730
91118 555 10000 40150 30000 10260 20264 30262 40254 50260
60258 40000 47568 44250 50000 50170=
16643 32970 02608 10220 20157 30142 40148 55000 333 10260
90730 91114 555 10000 40196 40000 47643 44260 50000 50182=
16684 32960 03407 10222 20177 30090 40115 55001
333 10254 90730 91111 555 10000 40222 40000
47604 44255 50000 50194=
47401 42370 12211 10185 20170 30129 40142 53002 81600=
47412 42/70 61402 10165 20138 30127 40158 56008 81602=
47420 41/13 82206 10147 20142 30117 40163 56011 71065 886//=
47426 42/75 70506 10162 20146 30115 40158 58014 81672=
47582 41/58 80703 10205 20195 30116 40141 58005 76166 8652/=
47590 41250 83505 10201 20189 30091 40142 56010 75165 886//=
47600 41/60 82203 10210 20203 30100 40116 56017 72588 8627/=
47648 41/00 93204 10216 20214 30109 40141 56010 74584=
47662 42260 71704 10249 20226 30096 40137 56009 87600=
47678 41/80 70805 10250 20223 30040 40132 58008 70282 82202=
47740 41/50 83204 10209 20202 30058 40094 56002 78188 882//=
47778 41/70 51304 10250 20223 30031 40116 56013 7028/ 85200=
47807 41/60 82102 10237 20216 30079 40096 58004 70282 8527/=
47827 41482 70306 10250 20227 30045 40080 58012 721// 8177/=
47843 41460 80203 10236 20217 30058 40088 58005 72582 882//=
47898 41/58 80404 10245 20226 30064 40101 58012 78082 8227/=
47909 41/65 81103 10273 20240 30045 40053 58010 70282 8727/=
47918 42/65 72712 10273 20211 30030 40038 57018 872//=
47936 42/60 21508 10264 20239 39979 40039 58012 82201=
47945 41/65 61111 10268 20246 30027 40050 58010 72582 85201=
47971 41/60 70806 10261 20252 30074 40083 56017 72582 872//=
47991 41/82 10908 10265 20240 30124 40134 56005 70281 81200=
47407 42/60 71202 10158 20140 30030 40167 55001 876//=
47409 42/70 72310 10156 20131 30098 40149 55007 84032=
47418 42/70 72603 10151 20136 30114 40161 58014 876//=
47421 41/75 71603 10176 20166 30112 40157 56006 7026/ 84602=
47430 41/65 83002 10183 20170 30103 40154 56008 70252 886//=
47570 42/60 61502 10205 20192 39887 40132 56008 82232=
47575 41/58 81402 10193 20180 30145 40149 55002 71022 886//=
47585 41/18 80000 10190 20190 30095 40150 56009 78164 882//=
47598 41/05 91702 10211 20201 30137 40143 56012 74562=
47602 41/40 80802 10208 20203 30113 40132 56009 78082 882//=
47605 41/65 80910 10227 20210 30069 40107 56015 70262 8257/=
47618 41/65 61203 10198 20170 39442 40129 56010 70282 82530=
47624 41/18 81403 10229 20215 30006 40136 56010 71086 885//=
47636 41980 71004 10229 20204 30062 40126 58014 70282 82032=
47655 42/62 50904 10246 20234 30082 40135 56010 85200=
47663 41/65 73004 10232 20222 30093 40124 56011 7258/ 872//=
47675 41/75 10602 10221 20209 30048 40140 56008 702// 81200=
47741 41/65 83104 10222 20210 30065 40090 57005 78082 882//=
47746 41/60 81203 10225 20217 30075 40093 58008 78086 8427/=
47750 41230 82801 10223 20215 30079 40104 58013 72122 8467/=
47755 41/50 81901 10231 20224 30065 40088 58009 7818/ 882//=
47772 41/65 70701 10254 20209 30015 40109 56011 70282 8627/=
47800 41/60 83307 10224 20188 30087 40109 58006 70282 882//=
47815 41/65 82103 10239 20220 30075 40090 57011 78082 8627/=
47817 41360 80106 10237 20218 30050 40090 55005 70298 882//=
47830 41/60 72803 10235 20225 30071 40088 58011 70282 83272=
47837 41/82 81103 10244 20230 30059 40080 56013 78082 882//=
47887 41/50 81003 10231 20212 30056 40095 58011 78088 882//=
47891 41/65 82202 10233 20216 30092 40103 56014 78088 8627/=
47899 41/60 61410 10245 20238 39899 40110 56012 70282 84202=
47927 41/65 82513 10272 20224 39983 40029 56015 72582 888//=
48310 32560 20000 10235 20224 39636 40087 81505
333 58014 70074=
48325 11210 80000 10235 20228 39852 40095 60273 71062 886//
333 58016 70709=
48329 31558 70000 10240 20233 39752 40088 71022 85805
333 58019 70073=
48383 31450 50000 10253 20248 39927 40085 71021 83641
333 58007 70210=
48403 32960 20000 10261 20245 39882 40092 80005
333 58006 70005=
48405 32561 30000 10265 20243 39926 40087 82505
333 58003=
48430 11557 50000 10265 20243 30085 40093 69943 71062 82546
333 58006 70004=
48450 11560 50000 10260 20237 30061 40095 69943 70162 82546
333 58009 70004=
48465 32561 33102 10262 20245 30085 40090 81505
333 59001=
48550 31558 50000 10263 20247 30094 40099 71022 81846
333 58000=
48416 32960 20000 10270 20256 39941 40088 81035
333 58004=
48418 31930 00000 10255 20240 30034 40090 71000
333 58005=
48460 32560 20000 10275 20246 30065 40096 81105
333 58004=
48461 32562 30000 10269 20242 30023 40092 82105
333 58007=
48478 32560 2//// 10285 20257 30091 40096 82505
333 58005=
48501 32560 10702 10255 20240 30089 40097 81101
333 58004=
48561 32960 10000 10259 20244 30091 40097 80005
333 59001 70003=
48564 01558 80000 10273 20244 30093 40097 69903 79522 8397/
333 58002 69905 79999=
48570 11557 60000 10255 20248 30083 40091 60013 71022 82206
333 59008 70013=
48580 31556 50000 10256 20247 30081 40088 71022 81106
333 59004 70010=
40703 32960 00000 10226 20090 38880 40067 52018 91748 333
55103=
40712 32960 02702 10174 20056 38657 40065 52016 91748 333
55111 20714=
40729 32960 00000 10202 20047 38327 40055 52018 91745 333 55108
22097=
40736 32960 02402 10242 20209 30135 40108 52012 91750 333
55089=
40739 32965 00000 10216 21012 38662 40098 51009 91750 333
55108=
40743 32965 00805 10196 20002 39046 40138 51020 91750 333
55110=
40762 32960 00903 10154 21120 38564 40131 52013 91750 333
55118=
40768 32960 00000 10214 21030 38252 40070 52016 91750 333 55111
22305=
40769 32960 00000 10210 21008 38295 40068 52021 91750 333 55107=
40785 32965 00000 10290 20022 39008 40055 53019 91750 333
55104=
40809 32970 00000 10160 21058 38515 40106 51019 91750 333
55115 2////=
40821 32960 01507 10288 21060 38759 40048 52017 91750 333 55105=
40831 32960 03102 10300 20053 30042 40050 52023 91750 333
55110=
38149 42998 00203 10129 20032 40219 52006   333 10235=
38178 429// 00107 10157 21022 40208 54000   333 10224=
38264 35998 00303 10128 21041 40212 52003   333 10237=
38396 42997 00203 10110 21033 40212 57001   333 10230=
38403 439// 00904 10188 20040 40204 54000   333 10247=
38413 429// 01103 10165 21005 40204 52003   333 10240=
38457 32998 01401 10121 20038 40189 57003   333 10241=
38462 42997 00000 10092 20000 38786 48533 52006   333 10192=
38565 329// 00000 10145 20027 40166 53003 333 10238=
38579 329// 00000 10106 20053 40190 57001   333 10227=
38583 42997 02501 10117 20051 40188 58006   333 10248=
38611 42997 03402 10148 20058 40186 51004   333 10245=
38618 329// 01201 10124 20073 40178 51004   333 10247=
38683 42997 03605 10131 21005 40168 57005   333 10254=
38696 329// 01402 10152 20004 40167 52001   333 10250=
38812 42997 01201 10176 20085 40148 58001   333 10276=
38927 32997 02701 10171 20104 40148 52007   333 10289=
10325=
10317=
10320=
10235=
10203=
10249=
10205=
10130=
80002 333// 00352 10248=
30372 42984 30000 11004 21035 40274 58010 83030=
30433 42999 23401 10098 20095 40138 57013 80001=
30554 429// 80000 10020 20005 40192 57007 8807/=
30673 42999 80000 10048 20015 40242 57013 8807/=
30758 41584 80902 10130 20084 40106 57018 70262 8397/=
30823 41584 81001 10110 20706 40082 57020 72582 889//=
30879 42599 80000 10079 20073 40184 57012 789//=
30935 41697 80602 10098 20090 40063 57010 76166 8452/=
30949 41996 80000 10083 20065 40077 57020 76362 8802/=
30965 42584 80707 10153 20013 40110 57032 8532/   333 85923=
31168 42999 02701 10010 21094 40164 58009=
31300 42984 00000 11023 21032 40287 52004=
31369 41398 22902 10004 21032 40200 52003 70182 81602=
31484 415// 80000 10025 20001 40255 52003 70282 889//=
31510 429// 00000 10055 20015 40254 52004=
31735 42997 00204 10079 20064 40196 52026=
22282 00106 20001=
10706 70032 333 91218 555 11154 22164=
41598 10000 10280 20239 40105 55004 70200 81///
22263 00286 20000 3//// 80250=
70200 85213 22223 00264 20503 3//// 40503 5//// 6//// 80220=
82022 22253 00040 20303 323// 4//// 5//// 6//// 80090 ICE /////=
62120 14184 99564 10021 46998 /2608 10116 20086 40043 57011 22200
80100=
62103 14184 99499 70029 46/97 /2923 10159 20103 40155 57008 22200
00171 10601 70007 555 1//28 05111 07288 10117 11135 12459 13471
14533 15573 17106 18007 19007 35054 36024 70001 72863 73147 74019
75535 76401 80099 05112 07250 10118 11139 12458 13470 14625 15573
17106 18007 19007 35053 36024 70001 72864 73147 74019 75541 76406
80119=
51368 52005 53089 70004 71066 72077 73132 74499 75248 76961 77000=
80063=
15601 18003 19004 22175 23031 35070 36092 50047 51302 52008 53275
70001 71000 72040 73133 74012 75483 76900 80097 05382 07334 11082
12463 13477 14780 15601 18003 19002 22175 23030 35069 36091 50047
51302 52008 53275 70001 71000 72039 73134 74012 75484 76900 90117=
15533 18003 19008 22175 23025 35056 36111 50057 51000 52009 53530
70001 71000 72616 73139 74012 75453 76900 90195 05412 07295 10104
11159 12427 13438 14770 15533 18003 19007 22175 23024 35056 36110
50057 51000 52009 53530 70001 71000 72584 73137 74012 75451 76900
90145=
51572 53399 70001 71000 72247 73136 74012 75455 76900 90176=
64301 22263 00240 20302 32300 40503 80224=
51076 32980 23202 10066 21004 39363 40231 57007 80002 333
00452 10135=
51087 32980 00000 10051 20007 39277 40227 52002 333 00453
10144=
60351 32660 20000 10268 20158 40096 58003 81502
333   10321 81633 95900=
60425 32558 43408 10306 20155 40087 57003 83202
333 10348 81830 82833 95990=
60430 32558 70613 10240 20179 40111 54000 8583/
333 10319 83826 83633 95900=
60467 12660 41006 10252 20170 40099 56008 60062 82202
333 10280 82833 83073 95900=
60515 32560 53607 10242 20180 40135 55003 84202
333 10283 84830 95970=
60518 32960 00000 10240 20210 40087 57009 222// 20000
333 10268 91806 95900=
60581 32960 00412 10360 20110 40079 58005
333 10394=
61990 41465 70000 10212 20198 40183 72522 87800
333 10270 59020=
61995 41465 40906 10190 20180 39694 71582 84800
333 10223 59015=
61988 42570 21009 10220 20172 40181 82200
333 10262 59018=
61986 42470 21110 10240 20202 40164 82200
333 10291 59008=
61974 42570 31308 10251 20224 40142 83800
333 10296 59001=
71473 36/// /3005 10199 20170 30151 40180 51001 333 10200 20145
70000=
71819 11474 83008 10173 20108 30042 40076 57014 69901 70152 82531
333 10185 20110 70002 90971=
61980 32565 51606 10207 20159 40181 85800
333 10270 59017 82820 84640 924/7=
91631 11498 50907 10280 20252 4//// 60051 71518 81342 333
56299=
91636 11498 80915 10265 20248 4//// 60071 78099 8237/ 333
5629/=
91643 11498 81215 10284 20256 40095 56007 60011 71518 83376
333 56399 83918 85460 88280=
71825 11574 72804 10080 20027 39505 40170 57007 69941 72522 875//
333 10081 2004 70036 90921=
91753 32375 61414 10265 20223 40128 53010 86802
333 81808 85633=
86330 32598 72315 10168 20089 40134 55004 86806=
86360 11597 72310 10172 20056 40142 57019 69901 70352 87870=
86500 32598 52708 10166 20079 40101 56022 85801=
86560 32697 82420 10118 20054 40130 57019 8847/=
86565 32498 72515 10138 20067 40094 57021 87200=
86580 11496 82520 10110 20048 40103 57022 69901 76161 884//=
85432 32984 03015 10218 21218 37773 48452 57010=
65319 11960 70000 10241 20211 39573 40087 60142 70296 85032
333 10289 59016 85361 83076=
65330 12460 70000 10226 20206 39613 40092 60342 81832
333 10250 59014 81613 83361 85076 94902 95812=
65335 11458 70000 10240 20221 39858 40084 60032 70296 8257/
333 10294 59021 82613 87361=
65344 11458 70000 10246 20236 30091 40101 69902 72165 83972
333 10296 59013 82612 81923 85362 94968 95818=
89022 42/// /1408 11258 21290 39706 49746 55014=
83377 31697 72306 10248 20151 38850 40095 71594 87400 333 59014=
83208 32570 62710 10320 20189 39419 40097 84130 333
58004=
83362 31556 10000 10380 20207 40078 70511 81100 333
58001=
83768 21459 73508 10218 20209 39460 40107 58027 76062
85231 333 69921=
83840 21570 73011 10234 20170 39076 40088 56033
70362 85501 333 60041=
83971 32570 22612 10220 2//// 30088 40093 58027 82100=
83612 21570 73512 10304 20206 39460 40081 57033 70296 8113
1 333 69951=
83722 21156 83205 10188 20180 39418 40105 58011 79596
8592/ 333 60071=
83780 21458 83304 10198 20167 39230 40119 56015 76162
8241/ 333   60071=
83827 21570 52408 10233 20086 39825 40104 58023 70196
81134 333 69901=
83550 32897 8//// 10260 20212 30103 40133 70222 8807/ 333
59050=
83649 32570 53612 10310 20220 40120 56029 82105=
83650 31397 70714 10240 20197 40185 52024 7032/ 8477/
02235 20301=
83695 32696 80000 10292 20183 39993 40131 5//// 885//=
83698  32999 82703 10310 20206 30092 40106 50730 8802/=
83718 21595 8//// 10261 20176 39556 40128 52620 72055 88700=
83738 21697 82703 10200 20176 39630 40133 54000 70166 8472/
333 60061=
82979 32498 41406 10329 20154 39653 40111 83160 333 59017=
82986 32598 31406 10315 20132 39825 40109 81101 333 59013=
83076 32594 40905 10360 30196 39595 40087 81130 333 59004=
83096 32695 20904 10267 20204 30145 40152 82100 333 59006=
83097 32597 30908 10291 20191 30110 40133 83200 333 58013=
83179 32598 20505 10342 20125 39633 40075 82100 333 59018=
83182 32596 40505 10313 20106 39273 40108 81201 333 59021=
83186 32598 31410 10295 20171 39573 40109 83100 333 59018=
83190 32599 71405 10291 20169 39720 40135 85101 333 59013=
83195 32598 30906 10280 20160 39898 40136 83200 333 59013=
83229 32998 10505 10271 20208 30082 40141 80005 333 59016=
83236 31597 53202 10339 20148 39587 40068 70504 85200 333
59011=
83242 32497 61802 10266 20195 39630 40121 84533 333 58012=
83244 21497 61403 10284 20196 39838 40121 70352 84402 333
59012 69971=
83248 32470 20810 10270 20230 40146 82200 333 59012=
83286 32598 23203 10349 20143 39439 40072 82200 333 59013=
83288 32598 32703 10353 20150 39586 40091 83200 333 59003=
83339 32497 30505 10287 20116 39132 40099 82202 333 59012=
83344 32498 70906 10277 20175 39155 40108 82209 333 59031=
83349 22570 50810 10267 20214 40144 83230 333 59019 69911=
83398 32596 60506 10268 20218 30146 40151 84540 333 59014=
83408 32598 51403 10339 20172 39582 40075 81102 333 59017=
83497 32570 60616 10272 20209 40137 83201 333 59032=
82287 32595 23610 10305 20227 30041 40067 82200 333 59013=
82392 32499 41401 10346 20155 39983 40084 84200 333 59010=
82398 32570 20910 10300 20217 40098 82100 333 59030=
82400 21456 61304 10252 20236 40117 71561 85130 333 59015 69981=
82480 32597 32304 10354 20176 39902 40083 83200 333 59008=
82579 32570 51605 10346 20181 40090 83104 333 59008=
82599 32570 41318 10273 20188 40118 83230 333 59018=
82678 32596 53201 10362 20183 39952 40106 83101 333 58001=
82689 32598 21407 10351 20132 39828 40082 82100 333 59019=
82780 32698 31804 10157 20361 39858 40106 82260 333 59007=
82789 32599 30903 10278 20126 38997 40101 83100 333 59011=
82879 32598 60905 10350 20158 39823 40084 86200 333 59004=
82882 32698 21405 10324 20154 39682 40095 82100 333 59004=
82886 32699 30910 10319 20178 39728 40106 82101 333 59012=
82893 21798 2//// 10238 20180 39216 40130 70155 82100 333
59014 60031=
82899 32570 71913 10283 20195 40131 83231 333 59022=
82900 32597 61803 10273 20207 30125 40134 86700 333 59017=
82976 32596 50903 10342 20174 39522 40099 85200 333 59012=
82983 32595 40506 10318 20173 39698 40111 84100 333 59006=
82993 32570 51508 10284 20216 40131 85200 333 59016=
82026 32570 30506 10318 20187 40104 83100 333 58001=
82098 32597 20506 10325 20198 30086 40103 82200 333 59005=
82141 32698 20505 10310 20236 30091 40103 81240 333 59014=
82178 32698 41406 10310 20223 30032 40074 83221 333 59006=
82181 32497 50910 10312 20208 30005 40147 82201 333 58015=
82184 32898 53602 10325 20225 30100 40118 83201 333 59003=
82191 32597 53603 10315 20239 30100 40106 85200 333 58010=
82193 32570 43612 10300 20259 40102 84200 333 59011=
82198 32797 30512 10295 20222 30056 40108 83200 333 58001=
82246 32597 50904 10319 20261 39913 40111 84340 333 59012=
82263 32598 20506 10329 20253 30106 40134 82200 333 59016=
82280 32497 6//// 10297 20235 30045 40103 84230 333 59007=
82353 32698 50908 10337 20220 39973 40057 84230 333 59011=
82361 32597 53606 10334 20234 30062 40099 85200 333 59014=
82376 32497 40507 10332 20207 30046 40098 84200 333 59009=
82445 32597 60504 10338 20263 30067 40119 82313 333 59001=
82460 32597 51403 10357 20213 30063 40092 85200 333 59023=
82562 32598 30505 10349 20213 39975 40083 83100 333 59013=
82564 32597 70906 10361 20181 39953 40091 82169 333 59014=
82765 32598 60502 10358 20188 39881 40116 86200 333 59008=
82861 31698 30506 10349 20250 39887 40054 70444 84100 333
59013=
82024 32498 43206 10325 20233 30010 40091 85169 333 58004=
82042 32599 53204 10346 20248 3//// 4//// 83500 333 5////=
82106 21497 73204 10350 20249 39980 40078 70366 84320 333 59004
69931=
82113 32597 63206 10330 20250 3//// 4//// 82420 333 5////=
82212 32598 50504 10338 20329 30030 40092 83261 333 59017=
82240 32498 23602 10337 20232 30086 40120 82200 333 59001=
82317 32598 33602 10342 20239 3//// 4//// 82201 333 5////=
82326 32597 41806 10322 20260 3//// 4//// 83201 333 5////=
82331 32797 30904 10344 20240 30040 40122 82079 333 59011=
82336 32698 40507 10326 20215 3//// 4//// 83101 333 5////=
82410 32597 63602 10334 20264 3//// 4//// 84204 333 5////=
82425 32397 40903 10348 20241 30056 40111 82383 333 59016=
82533 32497 50502 10342 20254 30047 40102 85200 333 59001=
82610 32498 40000 10342 20261 3//// 4//// 84302 333 5////=
82704 31698 60000 10316 20271 39866 40057 70322 86500 333 59003=
82723 32598 60902 10340 20248 30027 40108 86200 333 58000=
82807 32592 73602 10304 20248 3//// 4//// 83290 333 5////=
82824 32570 40603 10340 20230 40090 84200 333 59003=
89050 41498 70114 11045 21065 49983 52026 72272 87500=
89512 31958 61246 11158 21230 39594 49746 57019 73832 81041
333 11129=
89592 41975 21639 11193 21271 49852 54000 73730 80001=
89606 42970 01807 11637 21661 36299 47650 58005=
78970 32580 51010 10325 20250 30101 40126 85242
333 02299 10328 20243 58004 85830=
83721 21558 81206 10177 20169 39374 40143 57029 71096
8651/ 333 60061=
64387 32565 70404 10225 20141 38498 48492 8593/
333 10296 59022 81926 84830 94968 1017.3
48602 11562 70602 10243 20231 30099 40102 60251 70596 82532 333
82630 83365 87076=
48603 11565 70000 10242 20239 30090 40095 60031 70196 82542 333
82630 87078=
48618 32564 70000 10248 20236 30094 40101 82542 333 82624 87077=
48674 32564 72605 10234 20231 30051 40101 82542 333 82625 87077=
48679 32564 50000 10240 20234 30055 40102 81542 333 81625 85080=
83378 21568 72204 10245 20163 38947 48516 71596 83933 333 59003
60031=
78397 32578 71516 10313 20217 30100 40116 82208 333 01209
10326 20271 58000 82820 86270=
38262 329// 01402 10128 21007 40209 57002 333 10247=
28978 32997 00000 10018 20015 40264 54000   333 10104=
28984 329// 00000 10037 21006 40262 52001   333 10099=
35173 32598 30502 10060 20031 40250 52003 83500   333 10123=
44214 32998 00000 10017 21069 38295 40231 52012=
44259 416// 81403 10113 20089 39220 40079 57042 72166 888//=
44277 326// 30000 10036 21017 37825 40176 52012 82550 333
91212=
44288 32999 00000 10088 20088 38142 40101 52021=
44292 325// 80000 10096 20077 38644 40095 52010 8872/=
44304 415// 52307 10128 20121 38899 40050 53016 70282 82940=
44354 329// 03202 10142 20125 39049 40071 53020=
44373 32999 02706 10148 20098 38497 40091 51005=
41112 42560 41910 10220 20133 37945 48496 82360 333 10306 58005
55100 82825 81930 555 04410 50040=
62306 32560 33111 10250 20166 40129 51003
83500 333 10287=
62318 32560 33208 10258 20160 40112 53006
83800 333 10297=
62337 32560 33501 10252 20177 40111 53015
83500 333 10309=
62366 32960 03509 10263 20185 40113 53012
333 10313=
62393 32960 03212 10278 20104 40099 53012
333 10344=
62414 32960 03311 10350 20119 40057 53011
333 10400=
62417 32960 03001 10286 20129 40120 55001
333 10330=
62440 32560 43610 10260 20183 40110 52014
84400 333 10324=
62463 32960 03322 10318 20112 40067 53016
333 10348=
48353 32562 50000 10245 20230 39802 40091 82536
333 58005=
48480 31557 60000 10263 20246 30086 40090 71021 84836
333 58004=
48500 32560 40000 10243 20231 30087 40093 81146
333 59002=
48351 32962 20000 10245 20238 30017 40090 80005
333 58011 70032=
48357 32560 50000 10252 20249 39916 40086 83506
333 58000 70356=
48425 11560 60000 10250 20240 30076 40088 60163 70192 83576
333 58004 70163=
23914 12699 61102 10098 20056 40283 52017 60100 86500   333 10154=
23921 12684 83001 10074 20058 40058 52015 69900 8557/   333 10141=
23955 41984 80302 10062 20036 40278 52005 70282 80001=
23966 41999 30000 10026 20018 40294 58001 70181 80001=
28255 32970 00000 10039 20027 40287 52010   333 10126=
28440 11597 81203 10075 20067 40258 52015 60080 66162   333 10123=
28661 32960 80805 10063 20019 40268 52002 80007   333 10139=
28722 11964 72703 10168 20104 40209 54000 69940 70391 80001   333
10239=
28748 11557 80904 10097 20089 40215 58003 60020 78182 8697/   333
10187=
29231 41498 60501 10053 20048 40261 52008 70282 8733/=
29313 41598 80301 10061 20054 40249 51004 70281 889//=
29612 42998 03601 10040 21003 40249 52003=
29838 42997 01701 10036 20010 40256 54000=
36061 41597 80901 10062 20058 40255 54000 78082 889//=
23909 12998 21103 10093 20086 40273 52015 69910 80001   333 10153=
28116 32997 00504 10105 20099 40254 52015   333 10194=
28419 12596 73601 10172 20138 40202 53020 69900 84330   333 10250=
28621 12598 50000 10178 20114 40203 53004 69960 85500   333 10232
85624=
29023 41498 80901 10062 20043 40285 52010 70282 889//=
29122 42999 30703 10060 20051 40272 52008 83030=
29328 41698 80302 10053 20048 40245 52009 70282 885//   333 88642=
29348 42997 70000 10055 20050 40251 51004 87030=
29405 42797 83402 10067 20014 40256 54000 885//
333 88652=
29418 42998 00000 10014 21006 40249 52003=
29430 42998 00000 10027 20022 40251 51007=
29524 42498 02201 10023 20013 40242 52006=
29605 42598 70802 10059 21001 40254 52001 87500=
29631 41996 80000 10028 20025 40239 51002 71081 85030=
29706 42999 60301 10059 20019 40242 58001 84031=
29736 42598 20000 10033 20020 40248 54000 82500=
29937 42697 60000 10057 20022 40245 52010 86500=
36034 42997 70402 10064 20014 40228 54000 87030=
28216 12698 80501 10159 20128 40218 52001 60060 885//   333 10185=
28321 12998 20903 10131 20118 40234 52022 60010 82030   333 10191=
28451 32997 70901 10083 20045 40255 53007 8707/   333 10133=
28537 11497 20501 10122 20113 40200 53001 60060 71398 82300   333
10196=
28541 11556 81202 10083 20074 40224 53011 60140 76162 885//   333
10134=
28615 32972 02705 10153 20089 40212 52003   333 10259=
28642 11395 80906 10086 20080 40239 52008 60060 78082 8637/   333
10144 86906=
28925 12597 81801 10160 20142 40221 57002 69900 889//   333 10250
88923=
29557 42998 70901 10045 20030 40247 52004 80002=
29625 42998 01802 10032 20030 40244 52003=
29642 42960 31902 10050 21019 40249 52004 80001=
29813 42999 00502 10055 20020 40234 52002=
29822 42999 70000 10020 21023 40246 52006=
29846 42697 80000 10033 20023 40250 51003 8355/=
29915 42499 80702 10084 20017 40208 58002 885//   333 88914=
29634 41957 40000 10023 20023 40247 52004 71181 84300
,,,,
O 1806 5000 -SHRA TEMPO 0618 5000 -SHRA=
30385 42984 00000 11026 21052 40187 58003=
30469 426// 80000 10005 20005 40253 58006 85542=
30664 41597 80503 10061 20044 40186 58014 78082 8392/=
30925 415// 80000 10098 20088 40081 53002 70282 779//   333 88928=
31371 429// 60000 10042 20019 40279 52004 80001=
31388 42999 00000 11022 21030 40267 51005=
31594 42982 00302 10019 20016 40242 51005=
31754 42999 00000 10055 20042 40196 52019=
28428 11480 60502 10138 20127 40208 52013 60100 70298 86500   333
10220=
44203 315// 23605 10034 21001 38377 4//// 52020 71562 87800=
44207 329// 21804 10036 20010 38274 40114 51010 82060=
44212 32999 63202 10040 21012 39127 40231 52016 86070=
44213 41999 00000 10028 20015 38796 40228 52022 70262=
44215 32998 00000 10004 21039 38418 40233 52015=
44225 32698 30000 10040 20010 38267 40193 52014 83040=
44230 419// 20502 10069 20004 38727 40102 52013 70280 81044=
44232 319// 00000 10089 20085 39036 40123 52011 70161=
44237 32999 30000 10065 20015 38454 40130 52010 83040=
44239 316// 22702 10050 20046 38734 40110 53010 70262 82500=
44241 425// 80000 10111 20105 39163 40085 52010 885//=
44256 415// 81405 10116 20081 39273 40086 57030 76162 8852/=
44272 415// 80000 10036 20030 38224 40165 52025 72199 889//=
44275 326// 20000 10002 21038 37730 40184 51007 82500=
44282 32999 00000 10063 20056 38277 40156 52016=
44284 329// 00000 10033 21014 37866 40181 52010=
44285 32999 00000 10094 20090 38299 40115 53021=
44287 325// 50000 10086 21019 38111 40116 52021 85500=
44302 415// 80902 10126 20109 38986 40025 57027 70262 8802/=
44305 41599 62708 10170 20129 38942 40029 57028 70292 86800=
44313 415// 81805 10124 20050 39349 40148 56002 78182 887//=
44314 415// 81802 10144 20100 39047 40071 57041 70262 885//=
44317 32698 52309 10173 20117 38872 40056 57025 85500=
44336 32999 23203 10145 20077 38637 40089 53020 82060=
44341 32999 23201 10086 20076 38557 40115 53006 82041=
44347 32999 02703 10120 20090 38671 40108 52011=
44352 32999 32305 10148 20128 38845 40056 56010 83040=
44358 32698 52305 10191 20123 39008 40072 54000 85500=
28240 11598 81104 10080 20069 40270 52009 60090 70282 885//   333
10110=
26898 32960 00000 10116 20068 40185 53002   333 10190=
26997 31957 02001 10115 20099 40199 53007 71000   333 10193=
27595 32997 00000 10165 20120 40215 52004   333 10257=
27612 316// 70000 10144 20124 40199 52003 71022 87500   333 10175=
27703 31965 20000 10094 20090 40199 53002 71111 80001   333 10176=
27707 31956 00000 10104 20094 40196 53005 71000   333 10176=
27719 11697 70301 10120 20109 40193 51001 69962 72582 86350   333
10155=
27786 31930 00000 10148 20092 40220 56002 73100   333 10266=
27906 32960 03401 10112 20084 40189 53003   333 10186=
27928 11256 80000 10133 20129 40167 53004 60110 76162 8772/   333
10139 87705=
27947 32697 60000 10147 20123 40181 52013 85330 333 10221
85633=
27962 32997 51404 10160 20081 53003 80001   333 10262=
27983 32969 03203 10148 20106 40221 53002   333 10260=
28506 32997 53002 10175 20102 40214 54000 85030   333 10269=
28711 32997 00000 10129 20094 40228 52002 333 10250=
28807 32997 50102 10173 20128 40221 50003 85080   333 10290=
34009 32997 00103 10122 20084 40182 52001   333 10180=
34123 11465 80802 10141 20137 40165 52005 60140 72582 887//   333
10152 88910=
34152 42979 71701 10179 20081 40177 53007 8707/   333 10247=
34172 32960 41303 10188 20077 40197 54000 84030   333 10253=
34186 32980 00000 10169 20058 40208 57001   333 10263=
34247 11461 81403 10154 20121 40148 57003 60020 72582 883//   333
10175 85613=
34336 11998 50402 10143 20132 40144 57006 60280 70282 85010   333
10253=
34391 32997 01803 10167 20027 40206 53004   333 10275=
35121 32976 50802 10201 20117 40221 52005 85030   333 10278=
22113 32584 71806 10157 20128 40101 52007 84530   333 10210 91009
91112=
22217 11680 61603 10117 20111 40120 52016 60042 70282 86500   333
10137 86643 91005 91111=
22235 32480 81803 10148 20135 40136 58001 889//   333 10163 85914
91004=
22349 11445 72002 10120 20117 40150 53010 60022 71082 87900   333
10172 91003=
22408 12584 71302 10132 20099 40127 52010 60022 875//   333 10143
87627=
22602 12976 11703 10115 20078 40111 52009 69932 81030   333 10141=
22721 32698 31601 10113 20102 40165 52013 82430   333 10145=
22802 32984 71805 10145 20103 40138 53002 87030   333 10155 91012
91111=
22820 32981 01704 10122 20088 40168 52012   333 10168=
26059 11597 61602 10128 20111 40124 52013 69932 70282 86900   333
10180=
26063 32697 81603 10149 20103 40143 52014 885// 333 10182
88641=
26094 32980 21101 10116 20092 40174 52010 80001   333 10186=
26258 12568 80000 10132 20117 40130 52007 69992 8255/   333 10158=
26298 31996 01802 10122 20109 40179 53011 71011   333 10172=
26477 32570 81702 10138 20103 40151 53008 885//   333 10182 88632=
26585 32997 01802 10115 20089 40187 52010   333 10184=
26702 31596 81302 10154 20134 40056 52002 71022 88500 333 10183=
26781 32997 00000 10098 20090 40181 53006   333 10182=
27402 31997 00901 10104 20084 40195 57001 71211   333 10149=
22028 32681 71912 10161 20126 40108 53001 82532 333 10204 91016
91117=
22106 11581 72704 10150 20123 40099 53013 69902 70282 87900
333 10204 85924 91006=
22127 11467 71204 10139 20130 40122 52001 69902 70282 87900   333
10184 85915 91005 91111=
22324 11984 81504 10114 20100 40139 52014 69902 70382 86051   333
10129 91006 91115=
22831 12998 00000 10097 20090 40186 52011 69902   333 10174=
22892 11497 81409 10149 20105 40115 52002 69982 70282 883//   333
10174 91011 91114=
26275 32997 51302 10147 20110 40155 52011 85030   333 10187=
26389 31996 01401 10108 20088 40175 52007 71011   333 10177=
26695 32997 21201 10121 20104 40192 52009 82040   333 10184=
26882 32984 01402 10118 20088 40188 52005   333 10189=
21908 41599 72705 10040 20028 40119 57011 70262 875//=
31054 42699 60000 11024 21084 40201 57006 81501=
31123 42998 00000 11062 21102 40264 52001=
43418 21497 6//05 10254 20241 30005 40093 79598 85906 333 59005
69957 70013 83818 83920 86278=
43421 32998 60000 10261 20232 39995 40097 80006 333 58003 70035
86280=
43424 32468 22302 10270 20247 30091 40093 82100 333 58002 82818=
43436 32998 20000 10274 20239 30081 40084 80001 333 58005 82080=
43450 32466 52308 10280 20233 30087 40095 85100 333 58003 85816=
43467 32459 4//// 10/// 20/// 30093 40098 84100 333 58000 84818=
43473 22998 00000 10138 20131 38128 48496 333 59001 70040=
43497 32470 12302 10270 20238 30074 40092 81100 333 58008 81818=
38392 32997 00302 10140 20013 40208 53001 333   10234=
38507 32996 00906 10244 20086 40141 53015 333   10317=
38545 32998 03603 10128 20073 40181 53001 333   10243=
38687 32996 03203 10120 20015 40174 53001 333   10253=
38750 32997 03204 10260 20200 40104 52005 333   10304=
38763 31997 00908 10222 21025 40133 52009 70230 333   10299 91118=
38880 32997 01204 10161 20002 40164 51005 333   10285=
38974 329// 00502 10161 20029 40167 52003 333   10276=
38895 32997 03602 10172 21036 40185 54000 333   10265=
38987 329// 00000 10148 21050 40170 52010 333   10258=
38911 32997 03501 10167 20038 40152 54000 333   10274=
38647 329// 00904 10230 21139 40138 52012 333   10304=
38774 329// 01401 10183 20032 40171 52010 333   10287=
38799 32997 00203 10174 21014 40163 54000 333   10281=
38806 32997 00000 10112 20023 40168 50000 333   10273=
38886 329// 01402 10186 20061 40181 52011 333   10281=
38915 32997 02702 10175 20036 40153 51002 333   10285=
38388 32998 00202 10165 21050 40194 53008 333   10258=
38656 32998 00902 10192 21044 40173 53006 333   10275=
25703 42599 73604 11030 21093 40100 57018 87500   333 87628=
25913 41495 80406 11019 21030 49997 57025 77372 8472/   333 84713
91114=
25954 42999 73602 10015 21036 40045 57019 87070=
31088 42599 73105 10009 21085 40030 57023 86551=
31829 42998 10515 10128 20094 40163 53025 80002   333 91018 91118=
31873 42998 13303 10127 20067 40175 51005 80001=
31909 42998 03103 10138 20134 40150 53010=
31960 42999 03607 10167 20142 40162 56001=
32053 42597 63105 10046 20013 40172 51019 84502   333 91111=
32061 42476 63609 10078 20030 40187 52020 86900   333 86915 91014
91113=
32098 42998 70306 10097 20030 40170 52032 87070   333 91113=
32150 42996 73201 10143 20139 40136 53006 87050=
32165 42599 82306 10144 20122 40161 58013 85931   333 91111=
32215 42696 23403 10104 20051 40084 57026 82500=
32389 41499 82904 10080 20071 49981 57051 78082 889//=
32583 42598 81502 10077 20058 40046 57026 83531=
15640 31998 00000 10201 20105 40147 53004 70200 333 10260=
15730 31998 20000 10195 20066 40142 53005 70200 82030 333 10273 555
95000=
38599 32998 02204 10133 20038 40186 58001 333   10243=
38954 329// 00000 10142 21041 48510 52007 333   10247=
38933 329// 00901 10163 20070 40213 53017 333   10290=
29802 325// 80603 10082 21009 40236 52002 885//   333 10123=
29807 12997 33201 10076 20017 40235 54000 69900 83030   333 10126=
35229 32997 20000 10172 20115 40219 52007 82030   333 10259=
35376 12998 00000 10048 20009 40237 54000 69900   333 10158=
35416 32997 02302 10162 20036   333 10275=
35426 32999 50000 10165 20088 40224 53003 80005   333 10266=
35532 32998 00000 10172 20074 40224 57001   333 10245=
35746 32998 00000 10154 20040 40223 52002   333 10247=
35849 32998 00000 10114 20058 40235 52003   333 10225=
35925 329// 01101 10164 20015 40236 53008   333 10249=
35953 329// 00000 10124 20013 40239 52004   333 10225=
35969 329// 00000 10096 21012 40243 52001   333 10226=
36003 11497 80801 10079 20050 40209 58008 69960 78088 889//   333
10154=
36152 315// 83202 10094 20059 40202 58011 70288 882//   333 10166=
36208 325// 60901 10022 20003 40246 58004 82340   333 10106=
36397 329// 21604 10082 21050 40219 51004 81042   333 10154=
36428 327// 60502 10048 20004 40227 58001 82531   333 10142 95090=
36639 329// 20000 10021 21040 40247 51004 82030   333 10155=
36821 32998 00000 10079 20009 40242 58004 333 10186=
36870 119// 01301 10081 20040 40247 58005 69900 70282 333 10162=
38001 32997 00000 10204 20130 40183 53008   333 10262=
38062 32997 00000 10140 21012   333 10229=
38069 329// 00302 10135 21025   333 10224=
38232 32998 00000 10167 21057 40199 51013   333 10270=
44210 32999 00000 10027 21054 38525 51003=
44216 32999 03208 10022 21038 38987 40215 52016=
44217 32998 20000 11023 21065 37858 40244 50002 80004=
44219 32998 00504 10058 21012 38618 40142 52024=
44221 415// 80000 10033 20002 38593 40214 52022 70263 885//=
44224 41698 20000 10006 21015 38059 40207 52002 70181 82400=
44229 32999 02703 10035 20012 37921 40129 52015=
44242 329// 40000 10103 20102 39220 40083 52006 84040=
44243 425// 82302 10108 20097 39317 40104 54000 885//=
44254 415// 80000 10077 20062 38947 40073 58018 78162 887//=
44257 415// 83603 10090 20081 38889 40081 56004 76162 8872/=
44263 32998 00000 10001 21093 38085 40264 52006=
44266 329// 60000 10030 21036 37801 40203 52006 86070=
44291 415// 72302 10086 20064 38685 40138 52010 70262 87500=
44325 329// 30000 10121 20055 38819 40138 52010 83060=
44329 325// 32707 10075 20017 37782 40141 51005 83500=
44338 32899 20000 10137 20089 38458 40109 52012 82040=
44348 329// 60000 10113 20109 38652 40076 52006 86060=
44374 32999 32707 10125 20032 38258 40112 51003 81042=
44385 32999 00000 10169 20107 38860 40086 53006=
44386 329// 20000 10166 20126 38982 40077 52007 82040=
28049 329// 50603 10082 20051 40297 52015 83031   333 10129=
28319 12998 00402 10145 20127 40214 52012 60020   333 10209=
28334 11598 80704 10092 20080 40240 52026 60102 75165 8872/   333
10138 88720=
28434 115// 81701 10114 20103 40215 53018 60150 70282 889//   333
10177=
28552 32598 70902 10082 20038 40260 52005 87500   333 10130=
28825 11996 80000 10153 20147 40219 53001 60080 71092 83031   333
10228=
29111 41998 00502 10055 20041 40278 52008 70281=
29209 42598 30000 10024 20016 40263 51003 83500=
29551 42997 30000 10047 20040 40251 51007 83030=
29602 42984 63402 10064 20038 40250 52002 80001=
29636 42998 00000 10053 20031 40256 52014=
29654 41999 31201 10004 21002 40259 52004 70282 82041=
29712 42998 00401 10021 20010 40258 52009=
29724 42997 00000 10027 20014 40251 52004=
29726 42998 00000 10040 20028 40243 58002=
29814 42999 00601 10070 20009 40237 58001=
29827 42997 03601 10018 20007 40247 51001=
29923 42999 00000 10008 20003 40249 52004=
29939 42997 00701 10029 20029 40262 54000=
35026 11394 80000 10110 20104 40237 58003 69930 71098 886//   333
10217 88708=
35037 11580 73204 10147 20125 40212 58011 60060 70198 82930   333
10225=
36021 429// 80904 10089 20038 40223 52002 8805/=
36022 42698 60503 10079 20015 40228 54000 82570=
36038 42998 70000 10032 20022 40235 58003 83032=
36058 41499 20000 10033 20030 40265 58002 70281 82600=
29467 41597 81801 10040 20040 40250 52006 78088 8692/=
30157 42998 02301 11009 21018 40254 54000=
30439 42999 20102 10072 20061 40137 57012 80003=
38222 32997 00000 10098 20019 40334 54000 333 10200=
38343 32997 00901 10100 20040 333 10195=
38341 32997 00302 10107 20002 40224 58006 333 10203=
36096 42998 00000 10062 21003 40222 52026=
37432 42997 00000 10160 20148 38968 48518 52005 60010   333 10205=
41530 316// 6306/ 10255 20188 40098 70522 82530 333 56990 58076=
41624 326// 30902 10260 20223 40096 81520 333 58059=
41640 129// 0203/ 10254 20218 40092 60273 333 58053=
41660319// 00504 10194 21033 48478 70600 333 58029=
41675 116// 70503 10240 20214 40086 60503 71392 85320 333 56990
58047 81930 84640 84460=
41715 329// 00000 10305 20241 40073  333 58044=
41756 329// 00000 10265 20221 40075  333 58017=
41764 329// 02314 10280 20221 40076  333 58020=
41768 329// 02306 10280 20221 40055  333 58023=
41780 3295//EEE 325// 32306 10245 20224 40091 83600 333 56900
58025 ( 83720=
41571 315// 10000 10222 20189 40098 70500 81500 333 56900 58050=
41594 316// 71804 10250 20204 40092 70522 83530 333 56990 58056
6006/=
41718 329// 03603 10265 20229 40074  333 58043=
41744 329// 01302 10255 20137 48468  333 58030=
41749 329// 01805 10290 20224   40061 70500 333 59010=
45011 42460 32305 10271 20255 40090 58007 82430
333 58000=
81100 22253 00200 20101 313// 40402=
83470 22233 04200 20301 323// 40503 80160=
48820 32998 01401 10275 20254 30081 40089 50000 333 58006=
48826 32997 02003 10255 20252 39958 40110 58001 333 58008=
48839 32998 00000 10264 20248 30020 40090 58005 333 58008=
48845 32798 70000 10269 20262 30082 40089 58004 875// 333 58008
87697=
48848 32998 70000 10254 20250 30085 40093 58006 80008 333 58010
87299=
48855 32998 72001 10256 20242 30078 40086 58011 80008 333 58004
87299=
48877 32798 20000 10263 20234 30085 40090 58013 81501 333 58010
81697=
48887 32798 60000 10268 20252 30093 40099 58002 81508 333 58009
81697 86299=
48900 31496 32202 10280 20262 30086 40096 57007 71300 82901 333
58003 81894 81994 83099=
48914 32998 70000 10274 20255 30102 40104 57006 80008 333 58011
87299=
48917 32598 20000 10288 20260 30095 40100 58018 82200 222// 00303
333 58007 82895=
48918 32498 70000 10265 20255 30089 40100 57011 82108 222// 00299
2//// 333 58007 82894 87299=
48920 32598 52003 10280 20249 30076 40076 57013 81108 333 58011
81895 86299=
48803 32997 00000 10255 20246 39982 40093 51003 333 58007=
48806 32498 80000 10229 20217 39343 40104 58001 888// 333 58006
82894 88696=
48808 32998 00000 10240 20236 39817 40095 50002 333 58005=
48823 32997 00000 10266 20257 30083 40086 56002 333 58008=
48830 32498 71801 10251 20241 39796 40095 57002 878// 333 58007
82894 86697=
48840 32798 20000 10264 20254 30084 40090 57005 82500 333 58004
82697=
48852 32798 80000 10247 20245 30080 40090 58003 82508 333 58006
82697 86299=
48916 32998 70000 10264 20243 30058 40105 58002 80008 333 58008
87299=
48802 32997 03601 10173 20168 38422 58002 333 58010=
48810 31996 00000 10246 20240 39897 40099 58001 71000 333 58009=
48831 32498 20000 10268 20258 30051 40088 52002 82100 333 58013
82894=
48838 32598 50000 10262 20249 30084 40090 58008 85200 333 58005
85895=
48846 32998 00000 10266 20246 30087 40090 56003 333 58011=
48863 32998 60000 10252 20239 30080 40091 58013 80008 333 58008
86299=
48866 32698 80000 10207 20200 39244 40125 58013 884// 333 58007
83895 88697=
48875 32698 20502 10223 20209 39567 40101 57012 82500 333 58005
82696=
48907 32598 62704 10294 20249 30098 40100 58002 862// 333 58005
86895=
10402 70008 333 91211 555 11102 22108 31801 41111 61819 105096
106094 099087 104085 098081 103087=
54764 32965 00000 10178 20161 40152 57004 333// 10266=
59001 81820 86358=
91652 36/// /1313 10233 20205 40151=
91660 36/// /1120 10242 20200 40141=
91670 36/// /0909 10244 20223 40142=
91676 36/// /1113 10235 20176 40157=
91680 31699 10907 10211 20187 40146 53004 70200 81800
333 569// 81830=
91683 31599 70000 10215 20195 40166 53005 70222 878//
333 569// 85825 86645=
91691 36/// /1206 10232 20197 40164=
91697 36/// /1904 10226 20185 40170=
91699 36/// /3508 10218 20176 40176=
61996 16/// /3221 10131 20123 40172 69922
333 10134 59043=
61998 16/// /2917 10009 21025 39819 49854 58018 69962
333 10049 59226=
64700 32962 51804 10280 20237 39767 40104 85032 91755
333 10320 58006 85365 83075=
64750 11560 60000 10215 20207 39686 40099 60332 70196 82532 91755
333 10290 59003 82630 83365 84075=
61701 32460 43309 10305 20256 40084 84500
333 10325 59038 84612=
58003 81894 81994 83099=
64400 12458 81804 10230 20212 30101 40121 69942 888//
333 10258 58008 81810 88630 94907 95817 =
64450 32957 02606 10260 20190 39734 40086
333 10285 58000 =
64452 32560 10000 10265 20230 39/// 40/// 71399 81900
333 10/// 5//// 81930 94947 95837 =
64458 32560 40000 10258 20223 39683 40077 84902
333 10308 59013 83823 81933 94922 95832 =
64459 31570 60000 10284 20242 39/// 40/// 71311 86900
333 10324 5//// 85620 81930 94943 95833 =
61731 32960 60000 10317 20260 40062 80002
333 10330 59029 86076=
78982 32584 20917 10342 20229 30094 40099 57031 81201
333 59012 81826=
78990 32582 11115 10320 20250 30114 40121 57020 81101
333 58005 81822=
78873 02575 31108 10316 20207 30105 40150 57018 69921 83200
333 58013 69927 83820=
83766 21496 83202 10212 20193 39462 40109 58027 76122 885//
333 60021=
83767 21596 80502 10206 20199 39487 40110 56022 72096 8572/
333 60031=
83783 21496 83608 10204 20201 39414 40077 58032 71096 8392/
333 60181=
83811 21596 63602 10192 20179 39191 40070 5//// 71062 85560
333 60081=
83813 21694 83208 10180 20175 39004 40094 56016 79592 8692/
333 60011=
83836 21396 83604 10185 20169 39106 40068 56017 79598 8697/
333 60061=
83844 21597 81802 10208 20196 30055 40062 56026 70265 8572/
333 60021=
83872 31495 80000 10232 20203 39994 40074 58024 71022 8727/=
83881 32597 62704 10228 20133 39816 40117 58020 84704=
83883 31596 32702 10189 20125 39330 40101 57020 70521 82201=
83887 21595 72710 10146 20135 39051 40097 57024 74254 85630
333 69921=
83907 32497 12306 10228 20130 39859 40142 56026 81200=
83912 32997 02704 10200 20096 39596 40141 57010=
83914 31596 32308 10195 20099 39327 40097 57019 70521 83400=
83919 32497 40902 10180 20106 38935 40110 57027 82201=
83927 32597 82306 10174 20154 30060 40143 57013 885//=
83936 32997 22304 10214 20103 39998 40121 58022 80001=
83948 31595 82308 10195 20162 30047 40085 56015 71011 83367=
83953 31496 62306 10178 20107 39740 40121 58017 70521 86200=
83964 31596 22302 10200 20080 39611 40104 57020 70500 82100=
83980 32597 83202 10138 20084 39836 40122 56014 885//=
83995 32497 22303 10154 20102 30098 40101 58001 81160=
83997 32497 62310 10152 20091 30071 40115 58021 86400=
68180 32480 81312 10145 20108 39662 48597 53015 885//
333 10160 2//// 555 91028=
68272 42880 80000 10159 20107 39165 48590 53002 882//
333 10190 2//// 555 91027=
68322 32987 40000 10165 20029 39157 48508 56007 84200
333 1//// 20212 555 91017=
68338 32580 80908 10145 20061 38828 48556 53019 886//
333 10175 2//// 555 91024=
68362 42480 70908 10068 20021 38611 48610 53017 8555/
333 10122 2//// 555 91031=
68400 42569 61803 10142 20106 30261 40338 52021 86500
333 10201 2//// 555 91033=
68408 42980 00000 10150 20113 30139 40150 52001
333 10240 2//// 555 91014=
68416 42750 60904 10145 20055 39054 48521 52019 83280
333 10170 2//// 555 91019=
68478 42589 31805 10075 20033 39022 48631 52017 83100
333 10126 2//// 555 91034=
68488 41370 80000 10084 20070 39438 48628 53017 75052 887//
333 10143 2//// 555 91034=
68496 42370 81810 10150 20103 30203 40331 52019 885//
222//
333 10280 2//// 555 91033=
68524 41686 60910 10110 20061 39113 48537 53007 71321 83970
333 10163 2//// 555 91022=
68546 42989 01312 10094 21004 38709 48551 52009
333 10174 2//// 555 91024=
68570 42888 81304 10040 20004 38646 48628 54000 886//
333 10060 2//// 555 91034=
68580 41330 81810 10063 20052 39112 48639 52014 76065 886//
333 10120 2//// 555 91035=
68614 32980 03112 10190 20058 30152 40195 57016
333 10216 555 91019=
68624 11582 71110 10077 20028 38810 48565 53013 69962 70280 876//
333 10115 555 91025=
68674 42470 20514 10160 20056 30281 40338 54000 82200
222//
333 10175 2//// 555 91033=
68712 42768 40000 10176 20068 30131 40212 53008 84060
333 10228 555 91021=
68718 42689 41404 10146 20078 39999 40243 53005 84500
333 10205 2//// 555 91024=
68722 32780 51330 10082 21017 38600 48549 56005 85070
333 10091 555 91023=
68832 32885 10912 10102 20024 39302 48584 52003 81200
333 10154 555 91028=
68916 42766 21335 10144 20081 39925 40216 56002 82030
222//
333 10172 2//// 555 91021=
68920 42970 00936 10159 20132 30237 40247 58012
222//
333 10173 2//// 555 91024=
68928 42568 20930 10155 20098 30199 40273 56007 82500
333 10170 555 91027=
68938 42464 10936 10166 20093 30302 40310 58006 81200
222//
333 10177 2//// 555 91031=
83895 88697=
68174 31560 80817 10102 20052 38864 48590 52015 70522 885//
333 10137 20101 91018 555 91027=
68242 32578 80415 10143 20049 38794 48568 52025 885//
333 10160 20140 91016 555 91025=
68262 32960 70000 10109 20063 38797 48605 52021 8707/
333 10151 20109 91009 555 91029=
68263 32470 80923 10080 20050 38574 48596 52019 885//
333 10113 20078 91032 555 91029=
68350 36/// /0815 10111 20080 38739 48584 52018
333 10145 20109 91024 555 91027=
68368 31360 81019 10060 20055 38389 48593 52020 70522 886//
333 10085 555 91029=
68372 16/// /1212 10041 20032 38541 48602 52012 69922
333 10073 20040 91024 555 20002 91030=
68424 32780 30704 10164 21012 39218 48519 52014 81470
333 10222 20160 91006 555 91018=
68438 11550 80315 10147 20068 38874 48556 52018 69922 72126 88500
333 10186 20147 91027 555 20002 91024=
68442 11682 60216 10105 20026 38727 48573 52020 69902 70260 81370
333 10197 555 91026=
68461 32280 51019 10042 20036 38411 48601 52014 83700
333 10110 20038 91031 555 91030=
68512 32982 31015 10117 20037 39031 48509 52005 83080
333 10144 20110 91019 555 91018=
68588 11470 73103 10144 20101 30344 40361 51014 60012 70262 875//
333 10186 555 91036=
68618 32980 40619 10112 20028 39095 48537 52001 84070
333 10131 20098 91029 555 91022=
68668 12580 10908 10078 20046 39461 48627 52010 69962 81500
333 10136 20077 91012 555 20006 91033=
68714 31560 40613 10196 20020 30173 40210 52011 70500 82540
333 10239 20196 91021 555 91021=
68816 32682 20912 10148 20058 30164 40215 52003 81540
333 10218 555 91021=
68828 32670 11013 10130 20075 30030 40263 57006 81500
333 10172 555 91026=
68858 32582 20511 10144 20057 30200 40351 52005 82500
333 10184 555 91035=
82863 31696 30000 10340 20224 39876 40083 70540 83200 333 59027=
83064 31694 40504 10330 20205 39828 40094 70540 84200 333 59019=
83228 31799 32304 10366 20182 39819 40094 70500 83200 333 59031=
83235 32698 40000 10342 20174 39426 40084 84200 333 59013=
83332 32696 63604 10325 20154 39200 40091 84220 333 59011=
83368 31696 80502 10340 20200 39727 40084 70544 85210 333 59003=
83374 31998 52704 10319 20191 39542 40108 70544 85200 333 59004=
83376 31596 63210 10322 20165 39255 40061 70542 84205 333 59029=
83423 31696 63604 10332 20148 39279 40086 70541 83272 333 59021=
83522 31698 40502 10305 20188 39236 40072 7054/ 84200 333 59027=
83526 32598 53206 10321 20163 39147 40068 82106 333 59024=
82493 32599 10904 10345 20178 30074 40088 81100 333 59025=
82683 32595 51406 10336 20151 39643 40089 85100 333 59016=
82693 32599 31410 10332 20117 39841 40094 83100 333 59017=
82784 32698 61404 10334 20140 39636 40098 86200 333 59013=
82791 32599 20911 10335 20114 39813 40097 82100 333 59022=
82795 32597 21413 10274 20161 39518 40135 82100 333 59024=
82975 32595 60000 10361 20190 39720 40090 824/3 333 59004=
82571 32597 31802 10346 20209 39898 40091 83200 333 59016=
93023 16/// /0311 10145 20135 40219 57004 60021=
93196 16/// /3614 10136 20109 40266 54000 60011=
93305 42/98 90430 10145 20117 40205 58005=
93334 36/// /0306 10077 20052 39266 57004=
93404 36898 /1004 10099 20066 40228 57008=
93498 36/// /0404 10112 20064 40224 57002=
93527 16/// /0116 10131 20119 40200 57008 60041=
93597 36/// /3313 10118 20094 40196 57004=
93615 16/// /1010 10105 20086 40176 57019 60031=
93678 36998 /3105 10123 20019 40168 57011=
93709 16/// /0607 10121 20091 40147 57023 69921=
93831 36998 /0205 10090 20031 40127 57017=
93896 31/91 93610 10072 20068 40136 57017 74544=
93947 16/// /3611 10091 20073 40081 57022 60031=
93994 36/// /1107 10166 20104 40244 52008=
91843 31598 41404 10215 20164 40168 52020 70510 84100 333 563//
84825=
63756 32580 13210 10238 20193 38844 48482 81932 91747
333 10297 55300 59023 81824 81925=
63791 32980 00910 10220 20147 39141 48519
333 10285 55300 58006=
63844 12465 42005 10224 20203 30103 40143 69912 82250
333 10290 58020 82819=
63866 32580 10414 10240 20171 39540 48/// 81500 91750
333 10293 55300 58009 81625=
63894 32980 00000 10231 20195 30093 40153 91750
333 10305 55300 58013=
83565 21596 82304 10219 20197 39639 40107 76366 88/2/ 333 58032
60031=
83623 21265 81808 10200 20187 39512 40085 58012 76162 86540 333
60061=
83630 21295 81404 10200 20192 39007 40109 57039 76062 887// 333
60011=
83676 21595 82308 10223 20214 39502 40126 56018 79596 889// 333
60041=
83704 22799 83204 10263 20218 39672 40082 58022 85572 333 60051=
83714 21592 80000 10134 20128 3//// 4//// 5//// 76366 885// 333
60231=
83716 21996 80502 10218 20199 39595 40084 57056 76096 8807/ 333
60021=
83726 21594 80906 10183 20178 39166 40139 56039 76066 887// 333
60141=
83773 21297 83606 10174 20168 39134 40008 58012 76096 8667/ 333
60081=
83821 21498 83203 10220 20189 30085 40090 58030 72055 887// 333
60611=
83334 32598 40000 10330 20159 3//// 4//// 84200 333 5////=
83383 32597 60000 10354 20180 3//// 4//// 84260 333 5////=
83384 32597 40502 10354 20156 39524 40090 84200 333 59012=
83386 32498 20905 10339 20179 39560 40096 81204 333 59016=
83388 32497 60000 10338 20166 39406 40069 83204 333 59034=
83393 32596 41403 10292 20160 39396 40114 82211 333 59038=
83437 31598 60503 10318 20153 39372 40077 71511 84304 333 59035=
83442 32597 22302 10334 20163 39754 40088 81101 333 59048=
83479 32797 83204 10309 20197 39311 40095 8807/ 333 59019=
83483 32597 83604 10345 20188 39512 40083 83267 333 59022=
83488 32596 73602 10263 20182 39127 40130 87200 333 59022=
83492 32598 70901 10278 20209 39748 40131 8752/ 333 59044=
83514 21498 81402 10251 20189 39411 40101 71762 85660
333 59008 60041=
83531 32597 42706 10298 20179 39059 40090 83201 333 59020=
83538 32598 63602 10245 20155 38711 40129 86500 333 59029=
83543 32696 81402 10274 20195 39963 40131 88570 333 58069=
83570 32596 63602 10300 20157 39324 40088 83220 333 59026=
83574 21894 82306 10220 20199 39503 40116 59003 76006 887//
333 60051=
83577 32896 80512 10260 20182 39247 40092 888// 333 59006=
83579 32596 63603 10264 20166 38954 40068 86200 333 59024=
83582 21296 80503 10248 20168 39340 40102 57021 70162 885//
333 69921=
83587 32697 63601 10265 20163 39112 40109 86400 333 59027=
83592 32598 63603 10244 20176 39444 40126 83240 333 59039=
83595 32597 82702 10280 20206 30046 40131 885// 333 59046=
83642 32896 83602 10234 20164 39354 40125 56026 8802/=
83683 21598 80000 10184 20178 39154 40123 58026 72166 887//
333 60071=
83687 21697 80903 10202 20174 39117 40124 56014 70262 887//
333 69941=
83692 32396 80904 10210 20164 39095 40139 58020 882//=
71072 85570 333 56560 85615 84360 90151 92426 92800 94065
95005=
71472 36/// /2103 10110 30196 40213 53005 333 10115 20105 70000=
71122 36/64 ///// 10158 20051 38654 40230 58014 333 10162 20002
70000=
71966 36/// ///// 10060 21019 333 10063 21014 70000=
71706 32574 63511 10141 20079 30083 40142 58002 86501 333 10167 20107
70000=
83264 32797 40506 10333 20202 3//// 4//// 83204 333 5////=
83309 31694 62704 10324 20228 39775 40084 70510 83520 333
58000=
83361 31697 83604 10346 20209 39902 40100 70444 83238 333
59001=
83405 31698 20503 10368 20229 39935 40065 70544 82700 333
59012=
63740 32575 70907 10181 20130 48510 875//
333 10291 58003 87620=
63820 32480 10000 10240 20208 40145 81100
333 10285 58014 81821=
63619 32982 01604 10214 20148 48508
333 10279 58007=
63624 32981 02009 10314 20158 40089
333 10371 58001=
63661 31580 22703 10170 20116 48529 71300 81963
333 10277 59010 81920=
63708 32580 20908 10226 20146 48475 81963
333 10298 58023 81922=
63723 32980 01607 10280 20174 40106
333 10331 59001=
34560 11997 71406 10172 20078 40171 52008 60010 70282 87030 333 10261=
34824 32997 02902 10182 20134 40169 52009 333 10228=
34858 11558 80000 10192 20169 40164 53017 60020 71082 8237/   333
10260=
37018 12998 00102 10185 20134 40159 52006 69940 333 10274=
37054 11698 63004 10198 20153 40149 57004 69900 70282 84900   333
10261=
37472 42970 81203 10221 20177 40149 52008 8707/   333 10257=
34240 32970 81107 10179 20064 40164 58001 82031 333 10211=
34357 11497 80902 10154 20109 40157 57002 69940 78082 889// 333 10222
88912=
34363 32998 81005 10190 20058 40183 53003 82037 333 10253=
34545 11998 11001 10134 20130 40156 53011 60222 70181   333 10169=
34759 11598 61201 10174 20151 40161 53011 69942 70282 82951   333
10216=
34838 12597 50000 10173 20152 40169 52012 60080 83501 333 10221=
34929 12964 03303 10172 20131 40177 52016 60010 333 10237=
34954 32998 20000 10186 20166 40164 52013 82030   333 10247=
37031 32997 21601 10181 20139 40166 52004 82030 333 10215=
37085 11596 50000 10199 20180 40167 52011 60020 70282 85900   333
10251=
37145 12998 23601 10193 20185 40160 52013 60120 81031 333 10226=
37171 12996 00000 10190 20175 40165 53014 60060 333 10256=
37228 11497 82801 10168 20149 40159 52014 60020 72582 883// 333 10205=
23226 32976 01306 10048 20028 40332 52006 333 10143=
23606 32960 21405 10122 20077 40272 52019 82030 333 10193=
23701 32583 21701 10135 20103 40217 53018 82500 333 10212=
26167 11962 81703 10128 20114 40146 52008 69942 70262 8805/   333
10171=
27857 32997 01301 10143 20067 40188 52010   333 10253=
28909 32999 70000 10170 20129 40221 53004 87030   333 10275=
37061 12571 71101 10198 20177 40159 52015 69900 84501   333 10237=
36864 32984 00000 10077 20040 40246 58003   333 10177=
24125 41498 82706 10040 20033 40182 53001 76162 8872/   333 85712
91112=
24143 41497 83312 10012 21002 40115 57010 78682 889//=
24266 42998 22002 11050 21095 40102 57033 80001=
24329 42698 42701 10012 21026 40222 57016 84500=
24639 42999 02403 11059 21072 40256 57022 80001=
24641 429// 82503 11004 21112 40225 57024 8801/=
24656 42999 03203 11040 21117 40193 57020=
24671 42999 83501 11060 21113 40167 56010 886//=
24724 42999 02804 11005 21088 40298 57009=
24738 42998 01701 11052 21073 40285 57011=
24768 42998 23001 11040 21094 40199 57011 80001=
24923 42999 00000 11060 21075 40312 58002=
24944 42998 00000 11059 21066 40299 57006=
24951 42999 02702 11021 20099 40269 57012=
24959 42999 03202 11029 21105 40202 57015=
24966 42584 83103 11022 21061 40179 57015 82931=
30054 42998 03605 10005 21049 40275 57004=
30393 42999 09902 11059 21138 40322 54000=
30493 42999 00000 11097 21123 40330 53005=
31004 42999 01802 11071 21109 40316 58005=
31137 42999 00000 11144 21164 40136 52005=
40001 32970 00000 10272 20108 40057 53014 333 10350=
40007 32970 02705 10246 20156 40060 53013 333 10334=
40045 32970 00000 10282 20105 40071 53011 333 10368=
40061 32970 00000 10264 20112 40054 53012 333 10347=
40080 32965 01910 10233 20136 39397 40075 52014 333 10335=
40095 32970 02801 10224 20156 39484 40091 53011 333 10292=
40009 32970 00000 10261 20137 40054 53012 333 10356=
40022 32565 31202 10260 20196 40106 53004 83200 222// 20501 333
10288 83830=
40030 32970 02302 10246 20159 40068 52009 333 10336=
40039 32970 00000 10235 20150 40057 53011 333 10336=
40066 32570 33401 10226 20183 40097 53007 83500 333 10285 83626=
40083 32970 03301 10188 20143 48464 52007 333 10274=
35700 32998 00501 10156 20056 40203 57002   333 10247=
34691 32998 21401 10156 20043 40203 5/009 80002   333 10264=
41506 329// 21803 10193 20074 48511 82020  333 58038=
41600 129// 02702 10222 20197 40096 60153  333 58055=
41678 314// 81306 10289 20224 40100 71722 8692/ 333 58053=
41697 016// 83102 10244 20215 40083 60403 75051 84520 333 56990
58054 60027 84635 82460=
41700 326// 30902 10260 20223 40096 81520  333 58059=
41725 329// 01805 10310 20206 40070  333 58036=
41746 329// 01806 10280 20205 40071  333 58020=
41759 329// 02306 10270 20226 40081 333 58017=
41785 329// 02702 10275 20231 40090  333 58029=
24988 41495 83003 11028 21028 40037 57022 78682 889//=
31174 42999 03004 10026 21092 40225 54000=
31263 42999 00000 11070 21080 39708 40303 52017=
31959 42998 30000 10143 20130 40147 53009 80001=
32027 42599 83613 10056 20005 40189 52026 82930   333 91015 91118=
32076 42998 61704 10067 20063 40160 51021 86030=
32408 42698 80502 10084 20067 49996 57038 8255/=
32509 42698 60000 10057 20036 40024 57025 84531=
32594 42598 41908 10104 20030 40074 57028 84300   333 91010 91114=
44231 329// 82705 10071 20017 38683 40137 52021 83040=
42111  22696  32301  10194  20172  39327  40089  81530
333  58022  6007/  81635  83360  =
42131 22696 42303 10250 20223 40086 84500 333 58037 6006/=
42182 21695 42703 10250 20214 40080 70596 82530 333 58025 6002/
82640 83360=
42189 31595 52701 10274 20239 40079 70522 83501 333 58020 83630
84070=
42369 31596 20000 10270 20254 70521 82500 333 58023 82625=
42379 22596 80000 10274 20254 40070 8552/ 333 58014 6002/ 85625
88458=
42475 31995 20000 10280 20263 40073 70500 80001 333 58030 82070=
44218 32998 00000 10053 20011 38588 40184 52022=
44265 32999 40000 10040 21009 38891 40264 51002 84040=
44294 329// 23203 10088 20062 38509 40091 52020 82040=
44298 329// 00000 10081 20032 38665 40102 51020=
48601 11562 73602 10241 20228 30096 40100 60321 70296 82532 333
82625 83364 87077=
48615 32568 70000 10253 20246 30093 40099 83542 333 83620 87075=
48620 11564 70000 10252 20243 30083 40092 69921 70296 82542 333
82632 87078=
48647 31562 72401 10247 20235 30067 40092 70592 81542 333 81625
87078=
48657 31560 60000 10248 20238 30084 40102 70522 81541 333 81625
86079=
48665 11564 50000 10242 20233 30087 40097 69901 70262 81542 333
81630 84080=
96413 11058 80703 10236 20233 30080 40106 60031 76162 8552/ 333
81701 84620 88465=
96421 32465 60000 10245 20238 30075 40111 82531 333 82616 83365=
96441 32468 71204 10257 20240 30097 40102 83531 333 83616 84365
87080=
96465 11365 70000 10259 20249 30059 40093 60031 71796 82942 333
82810 81915 87080=
96471 32470 71206 10250 20226 30091 40094 81838 333 81814 83364
87277=
96491 31465 70000 10256 20244 30084 40097 70392 85842 333 82816
83364 87080=
42314 21596 60000 10254 20248 40084 71322 83330 333 57941 58016
6001/ 83620 81925 85360=
42398 21596 40205 10258 20252 40076 70262 82431 333 58001
6992/ 81630=
42492 31495 60000 10282 20271 40072 70522 85330 333 58015 82618
83825 81930 85360=
42591 21496 70000 10282 20262 40072 71322 85930 333 58015 6990/ 84618
81930 86360=
42724 32996 00000 10270 20262 40081 333 58004=
42798 31595 52702 10266 20246 40070 70522 84430 333 58013 82620
83825 85360=
42809 21495 41802 10276 20259 40072 70596 82501 333 58014
6990/ 82615 83070=
42895 21996 00000 10260 20246 40069 70196 333 58010 6008/=
42971 31495 31806 10280 20257 40074 70521 82501 333 58006 83618=
40155 32560 12708 10254 20168 30089 40099 52008 81100 333 10282=
40180 32660 52903 10259 20175 30060 40106 52018 85500 333 10300=
40199 32970 03508 10318 20158 30074 40077 52019 333 10362=
44286 326// 30000 10086 20072 38526 40120 53009 83201=
23074 42697 72705 10069 20028 40352 54000 875// 333 87636=
23274 42997 70401 10022 20009 40366 52007 85031=
23383 42998 61804 11003 21024 40345 52007 84031=
23472 42984 20802 11002 21052 40359 52011 80001=
23678 429// 00702 10026 21042 40332 52010=
23884 429// 00201 10011 21065 40317 52011=
24507 42981 03101 11032 21053 40348 52004=
29282 429// 00000 11005 21017 40275 52006=
29570 41596 80101 10056 20054 40235 52009 76386 8802/=
29698 41597 83002 10062 20062 40185 53010 78082 889//=
29862 42984 02601 10021 20013 40255 52016=
30230 42998 00204 10017 21024 40232 57009=
30521 425// 80000 10074 20036 40152 54000 8595/   333 85926=
23973 42999 00504 10055 21003 40307 52010=
29562 41560 82601 10033 20028 40248 52007 76162 8872/=
29581 415// 70504 10075 20062 40221 52006 78082 8692/=
29594 42999 80302 10062 20023 40205 51002 8802/=
29653 42597 70000 10023 20004 40255 52006 87300=
29675 41596 80000 10039 20037 40233 54000 76162 8802/=
29676 41596 83202 10056 20056 40208 52006 76366 8802/=
29759 42984 00000 11020 21035 40279 53013=
29766 42999 00000 10014 20009 40261 52016=
29864 42984 43202 10023 20001 40259 52012 80001=
29869 42665 70000 10058 20049 40263 52019 87900   333 95090=
29956 42984 20000 10032 20017 40265 52017 82040=
30504 41495 83602 10060 20049 40181 51001 78088 883//   333 88915=
30612 415// 70602 10096 20081 40124 57002 78082 8697/=
30622 416// 80702 10072 20038 40127 58006 70282 8392/=
42779 32996 20000 10250 20227 39392 40080 82030 333 58012
82360=
42867 32596 31802 10246 20228 40076 82530 333 58012 82625
83360=
42934 32996 12701 10278 20222 40084 81030 333 58019 81360=
43041 21595 80000 10238 20227 40080 75096 8552/ 333 58005
6002/ 85620 88458=
47058 42966 01102 10153 20124 30115 40160 52004=
47008 42970 00000 10153 20133 30101 40152 57011=
47016 42970 00000 10108 20094 39352 40182 54000=
47020 42965 00000 10151 20135 39811 40173 52003=
47025 42960 00000 10152 20137 30129 40157 57009=
47035 42970 10201 10198 20182 30139 40147 57015 81030=
47041 42970 00501 10147 20138 30134 40160 58010=
47055 42965 00000 10150 20132 30127 40171 57002=
47069 42960 00000 10182 20130 30046 40141 58003=
23975 429// 00000 10049 20008 4////=
23987 42999 00603 10062 21016 40296 52015=
29253 429// 70000 10021 20018 40267 52009 85031=
29553 41570 80000 10040 20025 40237 53002 72582 8592/=
29263 42976 70602 10054 20002 40270 52005 87030=
29471 425// 80401 10064 20041 40246 52004 889//   333 88926=
24908 42982 00000 11050 21108 40313 52001=
29481 42599 60000 10066 20043 40232 52002 86300=
25173 32498 82002 11052 21066 40070 52004 87600   333 21064 47027
87710 91110=
21982 nil=
25248 nil=
25399 nil=
25551 nil=
25563 nil=
25594 nil=
25325 nil=
25378 nil=
42634 32996 00000 10272 20243 40078 333 58024=
42647 31996 02302 10274 20217 40093 70500 333 58020=
42737 32596 12008 10272 20231 40090 81500 333 58015 81625=
42909 32596 12502 10276 20229 40096 81500 333 58021 81620=
43003 31595 60000 10268 20230 40099 70500 84830 333 58013 83620
84360=
43014 32596 30000 10254 20213 39449 40086 83500 333 58010 83620=
43063 32596 62701 10240 20204 39482 40103 81530 333 58012
83626 83356=
43110 32596 30000 10256 20233 40102 83500 333 58011 83620=
43117 21596 71802 10274 20236 40080 75095 8432/ 333 57990 58013
6001/=
43192 32596 53204 10264 20238 40101 83530 333 58008=
30499 42998 00000 11052 21062 40317 52002=
30683 42699 30102 10052 20004 40262 58008 83300=
30695 4/999 32403 10047 21052 40264 52006 8802/=
31253 42999 03601 11044 21078 40289 54000=
31295 415// 80301 10021 21004 40283 51002 72711 8333/=
31348 429// 00000 11062 21081 40266 52008=
31418 42589 60000 10011 21009 40259 52010 83402=
31442 429// 00000 11016 21022 40269 58001=
31445 42984 02902 11016 21028 40265 52007=
31474 42998 00000 11029 21036 40256 52008=
31587 42981 03402 10035 20003 40252 52006=
31632 42998 00000 10000 21008 40224 52012=
31713 429// 03404 10110 20030 40219 52025=
16230 32565 72215 10254 20129 30057 40069 53002 82451
333 10284 82630 83357=
16252 32475 52705 10168 20123 39197 42758 56004 82230 91745 333
10212 55300 82810 85356=
16270 32560 22008 10226 20142 30047 40097 51005 82100
333 10280 82830=
16325 ///// 41520 10242 20215 30090 40103 57011 80004 91745 333
10264 98270 555 0423/=
16360 32597 11410 10234 20202 39992 40121 57004 81100 91745 333
10244 55300 81820 555 0////=
30455 426// 83504 10030 20012 38902 48507 57007 87502=
30549 425// 80702 10048 20048 38676 48470 57010 889//=
30726 419// 80602 10092 20092 40101 58013 76362 8802/=
30731 41997 70701 10117 20107 40110 53005 78082 8305/=
30739 416// 80305 10104 20095 40099 57017 78082 8597/=
30745 41597 80903 10094 20086 40121 57015 76186 8572/=
30764 41998 80502 10075 20066 40160 58015 76186 8802/=
30822 41597 80000 10109 20099 40086 57011 70282 8297/=
30824 41598 82101 10110 20104 40081 57004 70282 883//   333 88922=
30829 41584 80301 10112 20106 40080 57007 70262 885//   333 88624=
30846 41999 80401 10107 20080 40099 57019 76162 8802/=
30859 42899 81004 10142 20036 40104 57024 8802/=
30862 42984 80804 10084 20045 40150 58017 8802/=
30957 41680 81502 10177 20050 40091 57021 78182 889//=
30975 42598 70702 10096 20041 40168 58023 82933=
31825 42984 00000 10094 20086 40159 52025=
31845 42598 30000 10075 20071 40178 52013 83900=
31878 42975 03401 10131 20094 40179 52006=
31915 42998 00000 10120 20116 40193 52017=
31921 42584 23407 10164 20102 40188 52008 82900=
31969 42998 00000 10151 20148 40161 57003=
31981 42999 02102 10120 20117 40163 51002=
31987 42999 00303 10138 20130 40163 58002=
32069 42599 10000 10080 20058 40180 52025 81900=
47003 42980 00000 10146 20139 30149 40153 58011=
47005 42980 03403 10083 20070 38648 57002=
47022 41/07 90000 10082 20080 38869 57001 74744=
47037 42970 00000 10174 20160 30037 40154 52001=
47039 42560 10000 10157 20151 39982 40166 52001 81500=
47046 42969 02701 10147 20132 30143 40166 57003=
47050 42965 00000 10172 20146 30110 40142 52003=
47052 42965 00000 10131 20109 39841 40170 54000=
47060 42965 00903 10181 20123 30098 40154 52003=
47061 42980 03602 10160 20144 30125 40167 57003=
47065 42965 03202 10147 20093 30099 40159 52002=
47067 42965 03201 10131 20124 30048 40165 52001=
47068 42970 00000 10138 20115 30117 40151 54000=
47070 42980 00504 10171 20112 30070 40154 54000=
47075 42980 00000 10105 20090 39751 40171 57008=
43086 32596 63202 10266 20240 39905 40081 83531 333 58021=
43128 21596 60000 10266 20223 39484 40082 70522 83530 333 58014
6995/ 83620 85360=
43150 31996 20000 10282 20242 30013 40087 70511 80001 333 58017
82075=
43213 21596 70000 10263 20235 39763 40077 75852 82570 333 58013
6994/=
43279 32596 30000 10278 20258 30062 40079 81501 333 58005
81620 83075=
43321 21396 52004 10226 20220 39645 40093 70596 83631 333
59009 6046/ 81708 83615 85070=
43353 21496 79903 10266 20243 40108 70252 83831 333 58008 6995/
82614 83359 85075=
43369 32596 50000 10278 20240 40106 83501 333 58007 83620
83075=
43371 21596 83606 10258 20232 40101 70262 8387/ 333 58001
6993/=
16320 32960 11811 10238 20181 30098 40110 57005 80001 91745 333
10288 555 0////=
16300 32562 22411 10174 20116 39174 42775 56005 82500 91745 333
10208 82625=
24856 42998 02604 11047 21087 40215 57017=
30686 42699 80000 10055 20046 40258 57001 8354/=
30777 41598 80606 10080 20056 40177 57019 70362 8577/=
30961 42899 81406 10157 20141 40106 58030 8802/=
30971 42584 83304 10098 20085 40149 58021 83902=
30978 42984 80000 10111 20034 40146 57024 8807/=
24982 42699 80404 11009 21111 40048 56008 885//=
32121 41497 80408 10131 20112 40144 52023 78082 889//   333 88713
91013 91115=
32128 42599 61903 10177 20167 40129 50001 84530   333 91113=
38613 429// 00201 10179 20061 40188 51005 333 10224=
34880 32997 81202 10177 20121 40185 52003 8807/   333 10237=
34579 32979 81203 10188 20036 40185 53012 80002   333 10261=
98329 31470 30000 10246 20235 40083 57018 70544 82201
333 56999 82818=
98444 11465 42202 10253 20242 40080 57018 60011 70182 82202
333 56999 82818 83070=
98747 31470 12002 10250 20222 40101 58003 70544 81100
333 56999 81818=
24652 42984 82902 11027 21080 40191 57023 85031=
43181 21596 70000 10256 20244 30056 40083 72166 82938 333
57921 57961 58018 6993/=
22271 31980 11507 10120 20100 40202 58001 70800 80001   333 10155=
22550 11425 81501 10159 20158 40171 52006 69900 78182
889// 333 10202 88918=
22583 32984 01401 10090 20076 40126 52002   333 10192=
22768 11697 80000 10164 20159 40183 52009 60020 70282 8657/   333
10186=
22845 12998 61501 10129 20107 40191 52008 69900 83031   333 10170=
22887 32974 71102 10159 20143 40208 52009 84031   333 10202=
23205 32980 01502 10069 20053 40259 53001   333 10131=
23418 32970 20904 10115 20074 40297 52019 82030 333 10185=
23711 32977 00902 10081 20061 40307 52022 333 10181=
23804 32997 01302 10124 20111 40244 52010 333 10151=
27037 12898 82102 10127 20107 40201 52007 69930 8805/ 333
10168=
27199 32498 61002 10167 20142 40227 52010 85340   333 10217=
27271 32997 20000 10145 20111 40201 52010 82030   333 10262=
27459 12999 00000 10158 20076 40199 52010 69900   333 10244=
27730 11408 80302 10135 20133 40193 52007 60070 74642 8802/   333
10136 88513=
57020 70322 861// 22225 00141=
91212=
36177 325// 71002 10092 20023 40212 58002 82331 333 10166=
85041 31557 64608 10328 20222 39848 40156 57030 70420 85200
333 56700 59008 86820=
85043 31458 63608 10345 20220 39938 40091 57022 70422 84201
333 56800 59002 84817 84070=
85104 31558 53208 10374 20211 39948 40105 57030 70420 85200
333 56800 58008 85820=
85114 32556 43212 10358 20198 39940 40099 57030 70420 84200
333 56700 58020 84817=
85123 31550 33112 10352 20209 39931 40093 57039 70410 83200
333 56700 59009 83820=
85154 31558 33310 10336 20241 39920 40095 57035 71700 83900
333 56700 58005 82823 81925 96004=
85140 31430 43408 10326 20241 39868 40110 75028 70422 83201
333 56708 58008 83817 84070=
85141 31550 60000 10318 20266 39918 40147 57022 70400 84501
333 56707 58016 84620 84070=
85152 11556 70000 10250 20236 39890 40113 57030 60101 71582 86930
333 56779 58008 85820 81923 86357=
85201 11570 63404 10124 20005 36297 57009 60031 71562 84361
333 56000 58011 83820 81923=
85230 32584 22212 20154 21020 36280 57010 82100
333 56500 58013 81823=
85242 32584 23040 10166 20031 36541 57019 82200
333 56800 58010 82820=
81225 32670 30704 10332 20206 40109 83200
333 56300 59004 83840=
81200 32670 20506 10326 20208 40114 82200
333 56200 59004 82838=
81202 32470 20210 10301 20237 40113 82100
333 56200 58000 82815=
81209 32670 30000 10320 20200 40119 83200
333 56200 59005 83840=
81251 32670 20804 10326 20164 40112 82101
333 56209 59002 82835=
70026 11464 82817 10028 20011 30042 40046 53025 69951 761// 91753
333 10044 20006 91021 555 91418=
70133 12666 80203 10044 20011 30078 40085 51014 69901 91753 333
10044 20033 555 91418=
70231 32866 81003 10078 20061 39962 40089 53021 91753 333 10106
20039 555 91418=
70261 32966 40403 10067 20039 39937 40108 51019 91753 333 10094
20022 555 91418=
70273 12666 80000 10083 20072 30067 40114 51022 69901 91753 333
10106 20072 555 91418=
70308 32566 80309 10072 20056 30056 40068 52011 91753 333 10078
20067 555 91418=
70316 32566 81211 10094 20061 30007 40043 53001 91753 333 10094
20067 555 91418=
70350 32366 80000 10089 20083 30060 40101 53020 91753 333 10094
20050 555 91418=
70361 32966 00000 10089 20083 30144 40162 51014 91753 333 10106
20072 555 91418=
70398 32966 29903 10139 20111 30162 40202 51009 91753 333 10139
20078 555 91418=
70341 32866 81105 10094 20083 30082 40109 53022 91753 333 10094
20061 555 91418=
70194 32766 42104 10090 20040 39918 91755 333 10090 20020 555
91418=
78318 01561 73006 10288 20242 30083 40087 58012 60031 70596 83972
333 06999 10288 20233 32/// 57982 58002 60027 70087 82820 86358
819//=
78333 31410 72505 10313 20249 30095 40101 56007 70522 83968 333
08590 10326 20225 30/// 57953 59005 79999 83819 86270 819// 555
12303=
78338 31559 72604 10318 20239 30076 40089 58016 70511 84942 333
06499 10318 20230 30/// 57923 59015 83822 85070 819// 555 12002=
78349 01550 72003 10287 20252 39995 40104 58018 69931 71798 85903
333 06409 10291 20242 30/// 57941 59006 69937 70003 84820 86070
82921 555 11804=
78369 31568 41707 10319 20242 30109 40121 57012 70511 83903 333
06409 10329 20246 30/// 5796/ 58001 82820 819// 92014 555 11703=
72201 11559 62220 10261 20244 30067 40073 58004 60011 761// 91753
333 10283 20239 91026 555 91418=
72202 12466 82116 10272 20244 30049 40055 58016 60101 91756 333
10278 20239 91024 555 91418=
72203 12461 82018 10272 20239 30033 40040 58014 60071 91753 333
10283 20233 91026 555 91418=
72205 11566 81229 10244 20200 39928 49963 58054 60241 761// 91753
333 10256 20217 91037 555 91418=
72206 11524 80616 10228 20217 30064 40075 58018 60111 763// 91756
333 10228 20206 91024 96010 555 91418=
72207 12566 60413 10250 20211 30103 40121 56016 69931 91753 333
10250 20217 555 91418=
72208 32566 40708 10261 20217 30116 40129 58015 91756 333 10261
20206 91016 555 91418=
72211 11432 83416 10222 20211 39978 49991 50015 60821 765// 91753
333 10228 20206 91024 96010 555 91418=
72212 15/// /0417 10228 20211 30042 40057 56019 60061 91753 333
10228 20211 91024 555 91418=
72214 32566 20211 10272 20194 30077 40096 56015 91753 333 10272
20211 91021 555 91418=
72217 32966 00510 10272 20167 30007 40134 58016 91753 333 10272
20172 555 91418=
72218 32966 00810 10278 20161 30084 40137 58015 91753 333 10283
20183 555 91418=
72219 32664 40607 10283 20161 39782 40146 58014 91753 333 10289
20183 555 91418=
72223 32966 00413 10300 20178 30061 40137 57013 91756 333 10300
20200 91021 555 91418=
72226 32566 40111 10300 20194 30071 40141 56014 91753 333 10300
20178 91014 555 91418=
72231 32566 20211 10294 20189 30134 40147 58009 91753 333 10294
20239 555 91418=
72234 32662 43610 10300 20206 30046 40154 56012 91753 333 10306
20178 91019 555 91418=
72235 32966 00210 10300 20194 30041 40158 58010 91754 333 10300
20200 555 91418=
72240 32966 00512 10306 20200 30143 40164 58009 91753 333 10306
20217 555 91418=
72243 32666 40506 10317 20200 30122 40161 58007 91753 333 10317
20217 555 91418=
72248 32666 23508 10311 20211 30072 40164 58013 91756 333 10311
20217 555 91418=
72250 32666 60509 10317 20233 30148 40153 50003 91756 333 10317
20233 555 91418=
72251 32666 61008 10311 20228 30139 40158 58002 91751 333 10317
20233 555 91418=
72253 32666 41706 10311 20222 39878 40155 58006 91753 333 10311
20217 555 91418=
72254 35666 29905 10317 20217 39943 40156 58005 91753 333 10317
20217 555 91418=
72255 35966 00706 10317 20228 30124 40160 58004 91751 333 10317
20222 555 91418=
72259 32666 69904 10300 20211 39968 40167 58010 91756 333 10306
20200 555 91418=
72261 35766 21512 10306 20206 39797 40153 58004 91753 333 10306
20233 555 91418=
72263 32666 29903 10289 20172 39501 40163 58009 91753 333 10294
20194 555 91418=
72265 32666 21707 10278 20156 39186 40149 58009 91753 333 10283
20200 91015 555 91418=
72266 32666 49903 10283 20178 39547 40164 58008 91752 333 10289
20206 555 91418=
72267 12966 61909 10256 20150 39068 40157 58005 69901 91753 333
10256 20200 555 91418=
72270 12466 80000 10222 20178 38856 40158 58000 69901 91751 333
10228 20194 555 91418=
72274 11466 80000 10244 20211 39267 40158 50000 60031 761// 91755
333 10256 20211 555 91418=
72278 32966 60000 10322 20194 39760 40140 58002 91756 333 10322
20272 555 91418=
72295 31259 22708 10200 20156 30107 40143 51004 705// 91750 333
10200 20167 555 91418=
72304 35966 00208 10256 20167 30158 40162 56012 91751 333 10261
20206 555 91418=
72308 12461 80215 10200 20161 30175 40184 51006 69901 91751 333
10239 20178 91025 555 91418=
72310 32666 80709 10278 20150 30066 40146 58015 91756 333 10283
20183 555 91418=
72311 32664 20708 10289 20161 39861 40147 56015 91753 333 10294
20161 91015 555 91418=
72312 32666 20408 10278 20178 39816 40147 58013 91755 333 10278
20156 555 91418=
72314 32666 60510 10272 20183 39887 40159 58013 91751 333 10278
20161 555 91418=
72317 32566 80615 10217 20139 39864 40186 50003 91754 333 10233
20167 91023 555 91418=
72324 32666 20219 10283 20172 39922 40165 58011 91753 333 10283
20178 91023 555 91418=
72326 31558 60409 10239 20167 39830 40178 58004 705// 91753 333
10244 20183 555 91418=
72327 32666 20414 10239 20156 39987 40197 58014 91753 333 10239
20178 555 91418=
72334 32964 20609 10278 20178 30085 40185 58009 91753 333 10278
20200 555 91418=
72340 32961 40109 10272 20183 30099 40192 58011 91753 333 10272
20194 555 91418=
72344 32966 20811 10294 20167 30020 40183 58012 91753 333 10300
20194 555 91418=
72351 32766 82205 10300 20189 39803 40165 58012 8/108 91752 333
10300 20189 555 91418=
72353 32966 61809 10289 20183 39715 40172 58009 91752 333 10289
20194 555 91418=
72356 32866 61806 10300 20189 39936 40173 58016 91753 333 10300
20161 555 91418=
72363 12966 22315 10233 20150 38946 40157 58001 69901 91753 333
10244 20189 555 91418=
72365 32566 42705 10228 20161 38419 40153 58006 91756 333 10228
20183 555 91418=
72374 35966 09906 10250 20139 38555 40166 50000 91756 333 10250
20150 555 91418=
72384 32964 02204 10261 20117 39969 40142 58001 91754 333 10261
20161 555 91418=
72386 32964 00806 10306 20178 39394 40142 50003 91756 333 10306
20239 555 91418=
72389 32962 01606 10267 20122 30029 40146 50004 91756 333 10272
20161 555 91418=
72394 32366 22905 10172 20128 30068 40159 50003 91751 333 10172
20117 555 91418=
72401 32566 63611 10189 20128 30149 40214 50005 91754 333 10194
20172 555 91418=
72403 12666 60316 10189 20094 30108 40224 56011 60031 91751 333
10217 20133 555 91418=
72407 37362 83411 10128 20122 30189 40213 53016 761// 91754 333
10183 20128 555 91418=
72408 12566 80310 10139 20111 30205 40224 58001 60081 91754 333
10217 20133 555 91418=
72411 12566 80309 10161 20133 39794 40215 51012 69901 91754 333
10206 20156 555 91418=
72412 15566 60208 10161 20094 39339 40217 58006 60011 91751 333
10161 20111 555 91418=
72414 32566 60507 10189 20106 39880 40232 58007 91754 333 10189
20128 555 91418=
72421 32666 40807 10183 20083 39927 40245 58013 91751 333 10183
20117 555 91418=
72422 32566 20612 10189 20089 39881 40238 58012 91754 333 10189
20133 91016 555 91418=
72428 32666 20607 10178 20083 39958 40257 58008 91751 333 10183
20094 555 91418=
72432 32966 00814 10200 20100 30094 40233 58016 91754 333 10206
20144 91017 555 91418=
72434 32766 60811 10206 20100 30037 40238 58014 91753 333 10211
20139 91015 555 91418=
72438 32966 20711 10178 20067 39965 40260 58015 91755 333 10183
20100 91019 555 91418=
72440 32966 00908 10244 20167 39757 40207 58012 91754 333 10244
20156 555 91418=
72445 32666 80812 10189 20089 39912 40238 58010 91754 333 10194
20122 555 91418=
72446 32966 81115 10200 20128 39851 40216 58019 91753 333 10206
20139 555 91418=
72450 32766 61411 10278 20167 39706 40174 58014 91756 333 10278
20172 91017 555 91418=
72451 32966 02015 10289 20156 39265 40153 58008 91756 333 10289
20178 91020 555 91418=
72456 32966 00912 10211 20144 39894 40211 58016 91756 333 10211
20150 555 91418=
72458 35966 01315 10222 20156 39659 40182 58018 91755 333 10222
20178 555 91418=
72464 32966 03508 10283 20078 38572 40125 58005 91754 333 10289
20117 555 91418=
72465 32966 09904 10256 20156 38892 40135 57006 91756 333 10256
20150 555 91418=
72476 32966 40000 10233 20106 38581 40159 58008 91756 333 10239
20139 555 91418=
72486 35966 09905 10217 21044 38133 40160 58005 91753 333 10217
20011 555 91418=
72488 32966 00000 10194 21006 38696 40174 58003 91756 333 10200
20089 555 91418=
72492 32966 03404 10256 20133 30135 40143 50002 91756 333 10256
20133 555 91418=
72494 32361 43104 10161 20133 30153 40159 51006 91756 333 10161
20122 555 91418=
72503 12466 80311 10133 20111 30202 40213 50002 60181 91751 333
10172 20128 555 91418=
72508 12566 60208 10128 20106 30134 40207 56016 60101 91751 333
10150 20100 555 91418=
72509 11466 80205 10122 20111 30202 40209 58010 60041 761// 91754
333 10167 20111 555 91418=
72515 32666 63414 10133 20033 39658 40241 58007 91756 333 20078
91023 555 91418=
72518 32666 43307 10178 20072 30112 40221 58013 91751 333 10178
20106 555 91418=
72519 32666 43509 10167 20056 30101 40248 58010 91754 333 10172
20100 555 91418=
72520 32666 40412 10167 20050 39809 40262 58007 8/500 91751 333
10167 20111 555 91418=
72524 32966 00314 10167 20078 39992 40278 58007 91751 333 10167
20128 91018 555 91418=
72528 32666 20107 10167 20033 30005 40268 56008 8/100 91754 333
10172 20106 555 91418=
72530 32666 41012 10167 20056 30041 40289 58015 91756 333 10167
20128 555 91418=
72532 32966 00911 10172 20083 30027 40274 58013 91754 333 10172
20100 555 91418=
72533 32666 40813 10178 20067 39985 40287 56009 91754 333 10178
20072 91018 555 91418=
72537 32666 40205 10167 20061 30051 40294 58003 91754 333 10167
20100 555 91418=
72546 12466 81011 10144 20083 39909 40261 58012 69901 91754 333
10144 20117 555 91418=
72547 32666 21111 10150 20061 39894 40291 58012 91755 333 10150
20072 555 91418=
72552 11359 81412 10161 20150 39528 40189 56012 60031 710// 91753
333 10167 20144 555 91418=
72556 17256 81414 10128 20122 39650 40207 58015 60141 761// 91754
333 10150 20128 96010 555 91418=
72557 11559 81212 10111 20106 39839 40241 56014 60141 763// 91754
333 10139 20111 96010 555 91418=
72562 12966 01508 10206 20156 39196 40160 56011 69901 91756 333
10211 20150 555 91418=
72564 32866 29904 10222 20083 38157 40144 58004 91756 333 10228
20094 555 91418=
72565 32866 40506 10233 20094 38365 40145 58005 91753 333 10233
20106 555 91418=
72569 32566 60608 10161 20100 38407 40179 50001 91753 333 10161
20072 555 91418=
72572 32966 23408 10239 20089 38746 40165 50004 91756 333 10239
20128 555 91418=
72576 35966 60909 10161 20089 38341 40170 58001 91756 333 10167
20078 555 91418=
72578 32966 03205 10161 20117 38691 40213 50001 91756 333 10161
20050 555 91418=
72583 35966 09903 10261 20078 38723 40169 58000 91756 333 10283
20083 555 91418=
72591 35966 09904 10289 20133 30021 40141 58003 91754 333 10289
20172 555 91418=
72594 37156 83005 10122 20106 30140 40167 50003 710// 91753 333
10128 20106 555 91418=
72597 32966 00000 10222 20133 39694 40165 58007 91756 555 91418=
72606 12766 40603 10156 20061 30183 40201 58009 69931 91751 333
10156 20106 555 91418=
72617 32666 43210 10161 20028 30101 40229 58010 91754 333 10161
20094 91017 555 91418=
72635 32666 60909 10161 20078 30006 40303 58008 91756 333 10161
20056 555 91418=
72636 32766 60308 10167 20056 30071 40306 58013 91755 333 10178
20056 555 91418=
72637 32766 80406 10167 20072 30019 40303 58002 91753 333 10172
20061 555 91418=
72638 35666 42907 10150 20044 39887 40315 58008 91755 333 10161
20017 555 91418=
72640 32666 40708 10156 20078 30047 40301 58012 8/101 91752 333
10156 20122 555 91418=
72641 32666 40710 10161 20067 39984 40299 58018 91753 333 10167
20061 555 91418=
72644 32566 21112 10133 20072 39811 40295 58010 91754 333 10133
20061 555 91418=
72645 32666 60309 10156 20089 30053 40313 58012 91756 333 10161
20056 555 91418=
72651 11456 81213 10100 20089 39724 40243 58002 60071 763// 91756
333 10139 20100 91019 96010 555 91418=
72654 11366 81612 10122 20117 39740 40211 56004 60161 761// 91755
333 10133 20117 91021 555 91418=
72658 32566 81210 10133 20089 39981 40289 58018 91753 333 10133
20111 555 91418=
72659 11440 81310 10117 20111 39753 40227 58006 60131 761// 91756
333 10122 20111 96010 555 91418=
72662 12366 83513 10150 20117 39086 40195 52006 69901 91753 333
10178 20106 555 91418=
72666 17264 83307 10117 20106 38846 40219 52004 69951 761// 91753
333 10133 20106 555 91418=
72677 12166 83605 10111 20100 38986 40236 53006 60031 91756 333
10111 20100 555 91418=
72681 32966 01205 10200 20122 39200 40192 50002 91756 333 10200
20117 555 91418=
72683 35966 40303 10189 20100 38776 40199 50003 91753 333 10189
20089 555 91418=
72688 32966 09905 10267 20122 39628 40156 50001 91756 333 10267
20144 555 91418=
72693 32966 09903 10200 20133 30036 40172 58001 91754 333 10200
20117 555 91418=
72694 32966 09904 10206 20144 30096 40168 58003 91756 333 10206
20111 555 91418=
72698 32361 62805 10172 20144 30167 40176 58002 91755 333 10206
20139 555 91418=
72712 35666 83108 10133 20039 39952 40184 56008 91754 333 10156
20072 555 91418=
72745 32666 41307 10117 20061 39782 40314 58015 91755 333 10117
20044 555 91418=
72747 35966 01405 10144 20044 39866 40310 58014 91755 333 10144
20022 555 91418=
72753 11466 81407 10122 20111 39938 40275 56003 69951 761// 91753
333 10128 20111 555 91418=
72764 11340 80911 10111 20111 39622 40227 58008 60011 761// 91752
333 10111 20100 96010 555 91418=
72767 12466 80810 10122 20089 39567 40257 58002 69901 91752 333
10122 20089 555 91418=
72768 12466 80905 10111 20083 39429 40259 51004 69901 91756 333
10111 20083 555 91418=
72772 32966 09904 10217 20089 38868 40213 50000 91753 333 10217
20156 555 91418=
72773 32966 09903 10233 20078 39091 40192 58006 91756 333 10233
20089 555 91418=
72776 11016 80000 10106 20100 38962 40244 51007 69931 710// 91756
333 10122 20089 555 91418=
72777 35566 83204 10150 20089 39316 40243 50004 91755 333 10150
20089 555 91418=
72779 35966 00000 10217 20067 39168 40206 50001 91755 333 10222
20117 555 91418=
72781 32966 09904 10256 20117 39781 40165 58001 91756 333 10256
20106 555 91418=
72793 32962 22705 10183 20139 30018 40180 58001 91756 333 10183
20117 555 91418=
72797 37004 90000 10117 20117 30115 40189 51003 730// 91753 333
10117 20100 555 91418=
72306 32562 80417 10222 20167 30026 40185 53004 91751 333 10256
20150 91022 555 91418=
72315 32762 23315 10256 20167 39408 40160 56015 91754 333 10256
20144 555 91418=
72402 12466 80111 10161 20139 30192 40194 51009 69901 91754 333
10217 20161 91019 555 91418=
72405 12566 60316 10183 20117 30199 40224 56008 60041 91751 333
10217 20139 91020 555 91418=
72406 12566 60413 10178 20111 30163 40218 58004 60021 91754 333
10206 20133 555 91418=
72423 32966 20514 10206 20083 30054 40233 58015 91756 333 10206
20156 91019 555 91418=
72425 32666 60512 10183 20083 39935 40235 58007 91751 333 10189
20128 91018 555 91418=
72429 32666 20607 10172 20067 39899 40264 56017 91754 333 10178
20083 555 91418=
72504 31566 60310 10122 20094 30207 40214 58001 761// 91754 333
10194 20117 555 91418=
72507 31459 80411 10122 20111 30180 40204 58011 761// 91751 333
10189 20111 91018 96010 555 91418=
72513 12766 63617 10161 20061 39881 40221 58006 69901 91754 333
10161 20111 91020 555 91418=
72521 32666 60312 10172 20144 39811 40261 58009 8/500 91751 333
10172 20094 555 91418=
72529 32666 40108 10156 20033 30060 40266 58008 8/100 91754 333
10161 20122 91017 555 91418=
72535 32666 40907 10167 20072 30010 40295 58014 91754 333 10167
20067 555 91418=
72536 32966 00714 10178 20056 30033 40288 58002 91752 333 10178
20078 91019 555 91418=
72544 32966 01213 10172 20072 30062 40280 58016 91755 333 10172
20094 555 91418=
72592 32966 03506 10289 20128 39959 40137 58002 91756 333 10289
20172 555 91418=
72605 15766 20000 10144 20083 30083 40210 58014 60021 91751 333
10144 20100 555 91418=
72783 32966 00104 10239 20089 39662 40171 58004 91756 333 10239
20144 555 91418=
72785 32966 00606 10233 20083 39349 40175 50004 91756 333 10233
20122 555 91418=
72791 37058 83305 10128 20128 30177 40185 53002 710// 91755 333
10133 20117 555 91418=
89062 42599 21212 11111 21155 30036 40079 52028 81502 333 49024
81620=
89061 32382 83307 11100 30001 14002 15202 886// 91725 222// 01017
ICE 526/3 333 44074 88706=
89063 42399 31603 11113 21128 30023 40037 52024 81630 91741 222//
03017 333 44166=
87078 32965 00910 10278 20090 39981 40129 57029 =
87097 32970 51810 10227 20154 39800 40108
57020 85070 333 56060 85360=
87155 31560 72313 10201 20117 30098 40160 56008 70421 84570 333
56470 84630 86360=
87162 31565 22306 10257 20088 30043 40113 57027 70500 82500 333
56500=
87166 31560 72313 10208 20115 30081 40154 57013 70411 85850 333
56570 82625 83830 86360=
87178 32970 12008 10235 20087 39974 40120 57025 81070 333
56050 81360=
87270 32565 52011 10186 20067 30113 40176
55009 85506 333 56406 85620=
87289 32570 62025 10182 20105 30057 40140 57013 85506 333 56505
85630=
87374 32565 62312 10155 20042 30076 40169 57027 85860 333 56490
82630 83834=
87393 32465 82306 10166 20102 30084 40148 57011 8457/ 333 56009
84618 88360=
87395 11565 82304 10170 20080 30114 40160 58008 69901 70152
84576 333 56455 84620 83360=
87480 32765 42016 10168 20020 30139 40168 57029 84100 333 56400
84850=
87534 32660 32704 10183 20016 39998 40162 57032 83100 333 56400
83840=
87548 32662 52315 10138 20014 30046 40144 57033 85200 333
56400 57896 85835=
87576 11562 72510 10121 20062 30106 40131 58023 69901 70282 87800
333 56500 83832 86642=
87582 32560 82513 10119 20037 30128 40135 57023 8457/ 333 56369
84630 88360=
87593 32460 82710 10112 20059 30102 40131 57019 888// 333 56599
83810 88612=
87623 31970 42511 10192 21011 39894 40123 57047 70700
80002 333 56005 84070=
87645  11570 62316 10118 20033 39894 40105 57032 69901
70252 86800 333 56500 84620=
87692 11560 82508 10096 20063 30073 40098 57023 69921 70285 885//
333 56599 88620=
87750 32970 32302 10193 20027 39985 40084 57045 80006 333 56007
83270=
87765 32980 02724 10164 21080 39214 48500 57028=
87016 31956 63604 10280 20096 39705 40107 57035 70510 86070
333 56800=
87022 32660 51403 10275 20112 39603 40106 57037 85500 333
56000 85635=
87046 31660 50505 10230 20061 39113 48502 57027 85500
333 56300 85640=
87047 31560 40709 10223 20050 38783 48500 57028 70511 84100
333 56000 84825=
87121 31760 81410 10158 20068 39680 40200 58008 70422
8357/ 333 56869 83634 88360=
87129 32970 41408 10192 20066 39964 40199 57020 84070=
87217 32770 11805 10214 20157 39684 40198 81100 333 56200 81856=
87222 32770 60906 10164 20056 39658 40181 57020 86500
333 56400 86650=
87257 32470 82308 10132 20080 30087 40192 57020 8272/ 333 56459 82715
87530=
87311 32965 00214 10190 20001 39504 40194 57035=
87320 42670 30000 10210 20079 39644 40171 57051 83002 333 56005
82040=
87328 32680 23203 10169 20026 39527 40186 57027 82100 333 82850
95000=
87344 11565 30503 10144 20066 39626 40180 57033 60021 70161 83100
333 56400 83825 94488=
87349 31570 21804 10170 20023 39784 40180 57039 70151 82100 333 56400
82820=
87371 32562 32319 10174 20056 30149 401170 57035 83500
333 56000 83630=
87418 32965 03607 10179 20015 39366 40176 57031=
87436 32980 03412 10163 21019 39357 40175 57032=
87448 32970 03215 10170 20006 39602 40170 57039=
87453 32970 02312 10168 21017 39670 40164 57033=
87467 32570 52020 10173 20029 30030 40166 57036 85100 333 85820=
87506 32975 11808 10181 21007 38589 48511 57024 81040 333 56050 57301
81360 95000=
87509 32980 03608 10193 21001 39303 40160 57039=
87791 32980 22031 10154 20017 30088 40097 53003 80009 333 56004
82170=
87803 32980 02723 10113 21086 39250 40178 57024=
87828 32680 20928 10175 21034 30077 40129 52016 82800 333 56800
82835=
87852 32684 22318 10136 21018 39682 40191 52029 82500 333 56000
82640=
87860 31575 81818 10124 21039 30116 40172 52037 71521 888// 333
56599 83825 85635=
87896 11465 72037 10068 20033 30041 40139 52043 69901 72161 87700
333 56400 84715 85820=
87909 32580 31834 10094 20006 30113 40189 52052 83100 333 56000
83830=
87925 32980 02321 10090 21035 30186 40210 52047=
94151 35/// /0000 10241 30098 40118 57013=
94290 35/// /0000 10238 30130 40137 57003=
96035 31440 70000 10252 20242 30059 40091 57013 70522 84976
333 56000 57902 81918 83618 80957=
96073 31456 70000 10244 20232 30081 40088 56001 71322 83922
333 56000 57902 81917 80960=
96163 32560 70000 10243 20237 30092 40099 52013 84258
333 56000 84620=
96253 01457 70000 10237 20235 30071 40092 57008 60661 71592 83972
333 56000 57900 69907 81915 86460=
96749 31550 51904 10260 20253 30092 40105 58011 71021 82521
333 56000 81625 84462=
96805 31559 71210 10262 20229 30105 40116 56011 71422 84210
333 56000 57801 84820 85460 80860=
94129 35/// /1603 10253 30095 40118 57015=
94289 35/// /0906 10246 30124 40133 57001=
94307 35/// /2210 10232 30123 40163 57006=
94371 35/// /3109 10229 30130 40136 57005=
94379 35/// /0304 10229 30133 40142 57004=
97072 31458 60000 10246 20223 30025 40127 56001 70520 82520
333 56000 82619 84460=
97086 32562 32902 10250 20197 30083 40108 56008 82211
333 56000 57809 82820 80858=
97180 31558 40000 10276 20201 30075 40093 81532
333 56000 82620=
97260 31558 21004 10247 20216 30096 40103 57013 70500 81501
333 56000 81620=
96033 31450 62404 10266 20252 30081 40088 58014 70522 83938
333 56000 57903 81920 83617 80980=
96171 31406 70000 10234 20231 30068 40093 56007 74242 85522
333 56000 85616=
96925 32465 30910 10273 20230 30103 40110 57008 82201
333 56200 57820 82817 80860=
97008 32960 00000 10232 20220 30076 40126 57009
333=
97016 32563 32702 10263 20236 30096 40097 56009 82232
333 56000 57802 82820 80860=
97126 01450 80000 10245 20237 30008 40066 60121 76196 8492/
333 56009 57900 60017 82915 82615 88460 80980=
85196 11520 71904 10278 20250 39547 40111 57028 60101 70422 84204
333 56609 58016 84820 87070=
85207 31557 53306 10326 20199 39640 40103 57036 70421 85300
333 5670 58012 84820 81927=
85247 31550 43105 10360 20165 39782 40101 57033 70421 82101
333 56700 58026 82820 84070=
85268 31540 42306 10333 20164 39793 40089 57037 70411 82101
333 56709 58031 82820 84070=
85289 31920 03612 10345 30229 39910 40062 70040 70400
333 56012=
85315 31665 41810 10289 20099 39229 40100 57035 70400 83830
333 56870 58032 83836 84357=
85245 11565 82108 10202 20178 39646 40128 57028 60051 72196 8457/
333 56809 58056 84630 87357=
85223 32584 72310 10228 20077 37488 57130 57032 84260
333 56260 58018 83833 81836 86358=
85283 32584 30312 10190 20077 37181 47113 57027 83200
333 56100 58006 83823=
85293 32584 12120 10154 21003 36342 57017 81100
333 56000 59003 81820=
85345 32584 30905 10313 20168 39613 40116 57057 83100
333 56400 59004 83827=
85365 31558 53606 10270 10120 39410 40131 57028 70420 85800
333 56100 58027 85825=
68906 12497 33110 10100 20067 30122 40187 52012 60012 82870
222// 333 10131 20098 91021 555 20014 91018=
61085 32965 30000 10295 20233 39//// 4//// 81042
333 10350 5//// 81365 83080=
61091 32765 71802 10282 20231 39647 40092 81938 91745
333 10325 58002 81950 83364 87280 95871=
61024 32760 71210 10350 20141 39517 40066 82902
333 10373 59013 82950 85080 94974 95874=
61036 32965 6//// 10332 20223 39833 40066 84082 91745
333 10360 59023 84364 83080=
61043 32760 70000 10300 20204 39633 40066 81152 91745
333 10315 59002 81850 85365 94901=
61045 32670 7//// 10305 20196 39591 40078 81948 91748
333 10342 59030 81940 87280 94946 95836=
61049 32965 60000 10300 20226 39759 40079 81038 91745
333 10346 59034 81364 86280=
61052 32960 73204 10315 20208 39817 40065 86072
333 10345 59024 86464 83080=
61075 12965 70000 10296 20203 39770 40075 69932 83078 91747
333 10324 59010 83364 87280=
61080 12665 70000 10296 20214 39649 40063 69922 81948
333 10320 59006 81940 83364 86280 94941 95811=
61090 31665 50000 10293 20206 39583 40084 71722 82942
333 10378 58008 81840 81950 83080 94948 95878=
61099 12965 7//// 10266 20230 39/// 4//// 60052 86072
333 10275 5//// 86464 83080=
68024 41960 00000 10173 20035 48520 52014 70400 333 10268
555 30109=
68026 42960 31503 10205 20109 48521 53021 83080 333 10286 555 30071=
68029 41960 41608 10215 20133 48522 52014 70400 84070
333 10246 555 30014=
68032 42960 60920 10214 20030 48532 53026 86070
333 10272 555 30108=
68040 42560 80912 10146 20083 48550 52028 8457/ 333 10190 555 30025=
68054 41460 81020 10115 20094 48574 52024 79596 889// 333 10182 5/5
30000=
68148 42560 80617 10120 20087 48570 52028 888// 333 10153 555 30000 =
80001 32570 51004 10308 20274 30115 40116 83206
333 08290 10311 20248 56290 57832 58000 83823=
80009 31559 63103 10312 20250 30099 40104 72522 83235
333 56008 57861 58002 83815 84270=
80022 31463 72704 10304 20248 30107 40109 71592 85221
333 56229 57822 59001 85813=
80028 41460 40204 10284 20287 31009 40011 69991 71511 842//
333 569// 57800 58002 84815=
80035 11965 80000 10576 20237 30086 40091 90031 72055 80008
333 56//9 58005 69977 88270=
80036 32465 82504 10312 20236 82878
333 56000 82820 86270=
80091 11570 60000 10294 20231 70522 85135
333 56999 83820 84070=
80094 11230 83205 10198 20191 38816 69901 75022 86875
333 56799 58006 83805 83810=
80097 32570 71507 10337 20181 39737 40079 84841
333 56000 59006 84823=
71900 36/// /3413 10067 30118 40131 50007 333 10074 20059 70000=
22471 32984 21405 10146 20112 40193 53004 80001   333 10188=
22676 32384 81203 10163 20113 40201 52005 887//   333 10208 86707=
22837 12984 01401 10117 20092 40191 53018 69900 333 10176=
22954 11974 62402 10126 20103 40199 52010 69900 70282 82041
333 10175=
23405 32980 00904 10134 20084 40254 53004 333 10170=
23412 32980 01502 10104 20080 40292 52015 333 10152=
23803 32983 01001 10102 20094 40273 52013 333 10179=
27066 12998 60000 10149 20129 40198 52009 69900 86030 333
10241=
27083 31684 40000 10167 20146 40209 52005 70281 84500   333 10205=
27113 32997 50000 10094 20090 40204 53016 82031 333 10184=
27242 11898 50000 10140 20127 40200 52006 70162 85030   333 10190=
27329 11572 70000 10136 20120 40203 52007 69900 78082 82930   333
10152=
27373 32999 81503 10160 20125 40203 51007 80001   333 10234=
27665 32997 01402 10154 20078 40207 52010   333 10245=
27823 11456 80000 10134 20130 40182 52001 60060 71022 886//   333
10154 88712=
28009 12696 70902 10120 20090 40250 52018 60030 87500   333 10198=
28411 32997 60402 10160 20131 40213 52016 86030   333 10250=
22292 31468 51506 10094 20092 40232 57004 70242 86500   333 10120=
22438 11584 71804 10122 20112 40158 52012 69900 80282 87500   333
10150=
22563 31397 81102 10155 20135 40181 52003 72581 8637/   333 10216
84709=
22798 11956 00000 10116 20110 40238 52009 69900 71011   333 10194=
22854 11884 80000 10120 20111 40192 52014 69990 70282
84052 333 10171=
22867 11470 82601 10158 20144 40190 52013 69900 72582 8655/   333
10218 86616=
22939 32697 11401 10105 20085 40198 52012 81400 333 10167=
22996 32998 61103 10151 20107 40225 52010 82035 333 10199=
27008 32984 21801 10110 20094 40196 52018 80002 333 10165=
27051 11460 83002 10156 20152 40191 52007 70282 8655/ 333
10220 85916=
27225 33496 80000 10128 20097 40207 52013 885//   333 10162 88619=
27252 32998 83402 10152 20132 40195 52007 85031   333 10252=
27369 12998 01401 10152 20117 40196 52005 69900   333 10227=
27393 32996 50000 10166 20110 40213 52005 83031   333 10253=
27479 42999 01903 10188 20071 40104 52007   333 10256=
27532 11496 83202 10130 20121 40196 53002 69900 72582 8637/   333
10148=
27648 32997 80801 10127 20102 40189 53009 80001   333 10236=
27679 32975 01803 10156 20071 40215 52003   333 10252=
28214 12999 20603 10125 20110 40232 52020 69932 80002   333 10202=
71805 11230 80219 10168 20166 30009 40036 56038 61082 79196 885//
333 10176 20149 84703 88613=
31285 429// 00000 11038 21038 40274 52009=
31561 42698 83606 10054 20025 40234 52029 885// 333 88647
91011 91114=
32010 42697 33407 10049 20013 40155 52020 83500   333 91012 91114=
10044 20033 555 91418=
91165 32566 20409 10261 20200 30105 40156 53014 91753 333 10261
20217 555 91418=
91182 32566 23306 10256 20200 30146 40151 53017 91753 333 10261
20228 555 91418=
91190 12566 83206 30128 40159 51017 69931 91754 555 91418=
91285 32566 22205 10239 20139 30142 40155 53017 91753 333 10250
555 91418=
91334 11474 89904 10258 20247 30090 40093 54000 69901 70296 82271
333 56999 70071 555 91418=
91348 32474 21305 10240 20228 30044 40096 55007 81101 333 563/9
555 91418=
91376 32474 82713 10276 20240 30095 40098 53003 84871 333 56669
70036 555 91418=
91408 32474 12103 10264 20247 30064 40102 57010 81101 333 564/9
70043 555 91418=
91413 11466 79904 10256 20247 30081 40100 57005 69931 78022 83101
333 569/9 70005 555 91418=
91245 32566 40904 10270 20260 30127 91750 555 91418=
43466 32498 42302 10282 20239 30089 40097 84100 333 58002 84818=
42886 31596 40000 10262 20245 40075 70292 81530 333 58009 81620
83360=
43333 22596 30000 10254 20248 40095 82401 333 58000 6008/
81620=
20069 41497 83102 11019 21027 40212 51008 77187 8552/ 333
85611=
20087 42498 73108 11025 21041 40167 52016 8713/ 333 87810=
20292 42480 33106 11013 21027 40105 52011 82530=
20674 41259 82609 10064 20060 40280 52003 71022 886// 333
88704 91112=
20744 32598 21601 10040 20028 40273 58003 81501 333 10083
91110=
20891 41398 72809 10064 20055 40184 58007 70282 875// 333
86707 91115=
23022 32997 21606 10054 20037 40313 52006 80001 333 10126
91108=
23032 32568 20805 10062 20051 40330 52003 82500 333 10113
91107=
23256 32998 50901 10038 20012 40371 52009 85030   333 10098=
23330 32697 50000 10047 20027 40343 52009 82430   333 10160=
23552 32997 00202 10039 20024 40354 52008   333 10119 50056=
23631 32998 00000 10010 20005 40342 52014   333 10133=
23849 42996 00503 10047 21003 40317 52010=
28275 32999 20402 10063 20016 40287 52004 82030   333 10138=
28493 32999 70101 10068 20024 40262 53005 87070   333 10113=
28698 32584 50302 10068 20024 40259 54000 85500   333 10121=
28383 32984 82801 10048 20033 40283 52002 8802/   333 10110=
28586 32998 53501 10060 20026 40265 52003 85030   333 10107=
28588 32984 70201 10058 20034 40271 52001 87070   333 10121=
28688 32980 80202 10056 20029 40264 57002 8802/   333 10125=
28696 32999 00202 10042 20014 40263 54000   333 10121=
28791 32982 03401 10049 20019 40261 52002   333 10126=
29367 42584 80504 10041 20015 40244 51006 84507=
30253 429// 02602 10014 21024 40259 54000=
23426 32984 21901 10016 20013 40343 52018 82030   333 10130=
23625 12998 00000 10050 20038 40338 52013 69900   333 10140=
28367 32999 00701 10039 20019 40285 52008   333 10129=
28382 32998 70000 10068 20055 40279 52001 87050   333 10110=
28491 32973 73501 10057 20014 40269 52003 87070   333 10103=
28593 32982 70000 10060 20031 40261 58001 87070   333 10114=
28598 32997 80000 10054 20027 40258 52001 8802/   333 10122=
28786 32999 03602 10056 20013 40258 54000   333 10120=
28797 32997 00102 10029 21010 40251 51002   333 10129=
23662 32999 00401 11023 21032 40342 52011   333 10117=
23788 42998 00901 11035 21046 40336 52009=
23986 42984 60802 10029 21022 40312 52012 86030=
36103 42699 80000 10044 21020 40230 52018 889//   333 95090=
36307 42799 70902 10053 20018 38945 48529 51020 86501   333 86657
95090=
30635 40103 80000 10119 20082 30638 40202 58001 83003=
62600 32970 03605 10350 20120 39845 40047 333 10410 59008=
62640 32970 70000 10410 20070 39694 40069 80007 333
10453 56009 58002 87275=
62641 32970 03601 10305 20228 30018 40066 333 10406 58002=
62650 32970 03608 10375 20055 39782 40045 333 10440 59009=
62660 32970 03602 10360 20060 3//// 4//// 333 10450 5////=
62680 31965 72201 10375 20155 39648 40023 70622 83047 333
10431 56099 59008 832365 87275=
62721 31962 71420 10330 20180 39605 40030 70722 84047 333
10417 56099 59005 84365 87275=
62730 32970 760000 10325 20180 39488 40032 80007 333
10387 56009 59009 87275=
62750 11770 70907 10320 20220 3//// 4//// 71322 69902 81907 333
10390 56209 57920 5//// 81950 87275=
62751 11770 73305 10264 20216 39617 40071 69962 71322 82947 333
10387 56299 57921 58004 81950 81640 84365 87275=
62752 32970 71802 10300 20200 39397 40056 80007 333
10360 56009 59010 87275=
62762 32970 72702 10300 20224 39550 40051 82047 333
10375 56099 59011 82365 87275=
62770 32970 71802 10300 20180 39205 40075 80007 333
10345 56009 59010 87275=
62771 32970 7180(4 10290 20220 39418 40049 80007 3433
10362 56009 59006 87275=
43185 21596 60000 10276 20253 30073 40076 71321 82906 333
57983 58012 6014/ 81620 81925 85270=
43344 21596 62904 10270 20241 39990 40089 71392 84930 333
57972 59001 6992/ 82620 82925 85360=
60402 32970 21206 10250 20193 40100 53004 82032
333 10344 82359 95900=
43311 32596 30000 10284 20253 40111 82501 333 58015 82620=
22165 32978 01415 10138 20102 40183 50500   333 10150 91119=
76055 877// 22223 02287 20302 320// 40505 80249=
87649 22273 00180 20502 32722 40603 50502 80160=
58968 31556 22001 10247 20188 30058 40065 57013 70500 82400=
59158 32960 01101 10236 20214 39974 40072 57007=
59358 31950 00102 10255 20222 30062 40073 55005 71000=
59559 32560 30000 10244 20228 30039 40067 57012 83500=
59562 11665 63101 10256 20233 30049 40060 57020 60031 70262
86500=
59792 32560 61401 10273 20242 30070 40074 57016 86200=
59997 32562 22502 10272 20259 30075 40089 58018 82100=
43237 21495 83203 10240 20210 39700 40093 79596 85902 333
56609 57912 58028 6006/ 84618 81925 88075=
43245 32596 40000 10294 20251 30056 40078 82501 333 58012=
43284 21496 60000 10258 20246 39996 40112 72052 82530 333
58015 6001/ 82615 83359=
43295 21496 82702 10210 20201 39088 48493 72096 8572/ 333
5669/ 58007 6020/ 82710 83612 85458=
58016 70003=
58002=
58004 79999=
33345 32976 01502 10149 20199 40183 53006 333 10205=
67215 32970 00805 10235 20212 40166 333 10275 58021=
67237 32970 01108 10244 20177 40151 333 10328 58023=
67261 31565 51618 10268 20185 40154 70700 81530 333 10336 58102=
67283 32580 61410 10250 20222 40198 86200 333 10312 58090=
67297 11359 61818 10232 20202 40208 69932 70722 86800 333 10285
58100=
67341 32570 71712 10172 20092 40322 52031 857// 333 10198=
62772 31770 72706 109280 20190 39638 40040 71322 81907 333
10396 56409 57942 58000 81950 87275=
62781 32970 70000 10302 20206 39440 40057 80007 333
10365 56009 59018 87275=
62790 31770 70000 10300 20220 39356 40056 71322 81907 333
10350 56409 57941 59008 81950 87275=
62795 31770 70000 10255 20220 39563 40059 71322 81947 333
10355 56799 57973 59003 81950 83365 87275=
62803 11670 71403 10230 20190 39097 40066 60062 71792 85970 333
10333 56390 57931 59024 84640 81950 87365=
62805 32970 72405 10255 20210 39531 40057 80007 333
10350 56009 59002 87275=
62809 31770 71402 10307 20203 39554 40052 71322 81907 333
10352 56409 57942 59016 81950 87275=
62810 12970 70000 10250 20220 39525 40085 60012 87070 333
10345 565090 59023 87365=
62840 11770 70902 10235 20230 39634 40074 60142 71799 81970 333
10350 56390 57932 59013 81950 87365=
71403 36/64 /3014 10211 20094 30093 40105 56013 333 10211 20145
70000=
80210 01458 82302 10198 20169 38676 69931 75152 8957/
333 5600/ 58016 69937 83612 86357=
80211 01458 80000 10206 20189 69951 75052 8472/
333 5600/ 69957 84710 88458=
80214 01220 80903 10198 20194 60261 75065 887//
333 563// 60027 88703=
80222 41558 81802 10152 20134 37530 72055 8487/
333 5699/ 58015 84820 88457=
80234 01558 80000 10232 20216 39629 40120 60591 75065 8252/
333 5629/ 58034 60087 82620 88459=
80241 32562 83301 10286 20231 39910 40104 8687/
333 5679/ 58020 86820=
80259 11459 83503 10210 20195 39089 60061 75055 8482/
333 5629/ 58038 84815 88458=
80370 01470 80000 10118 20069 69911 70262 8112/
333 5630/ 69917 81816 88458=
80398 32460 82402 10312 20239 30003 40098 85801
333 561/9 59011 85816 85070=
62309 32960 02710 10250 20150 40113 53007
333 10292=
62325 32560 43008 10254 20180 40114 53003
84200 333 10290=
62332 32560 33411 10257 20181 40112 53009
83500 333 10299=
62387 32960 03301 10284 20141 40097 53006
333 10338=
62459 32960 03115 10278 20200 40064 53009
333 10323=
63612 32980 10000 10305 20145 40055 81040
333 10370 59018 81360=
63641 32980 01632 10208 20123
333 10252=
63695 32480 11806 10183 20129 81530
333 10255 81619=
63714 31982 00000 10171 20122 48491 70292
333 10266 59008=
63766 32580 11316 10228 20143 48517 81500
333 10274 59002 81623=
63793 32580 71814 10233 20150 40127 84502
333 10300 58011 84620 87078=
71060 36/// ///// 10162 20049 38693 40240 58006 333 10162 20023
70000=
82583 32599 20904 10341 20156 39752 40086 82100 333 59016=
82586 32598 50903 10341 20145 39848 40083 85100 333 59009=
91570 36/// /1012 10235 20208 30136 40139 55007=
91574 36/// /0908 10221 20170 30147 40153 55007=
91598 06/// /1204 30133 69961
333 69967=
96109 31958 30000 10250 20236 30049 40088 58006 70521 81031
333 56000 81360 83080=
31439 425// 39000 10034 20032 40214 52023 83900   333 91109=
33088 32987 01501 10339 20090 40123 54000 333 10204=
84200 333 10290=
62420 32960 03403 10276 20126 40117 53009
333 10328=
62432 32960 03403 10298 20088 40089 51014
333 10375=
62435 32960 03406 10306 20073 40084 53020
333 10391=
62455 32960 03409 10284 20159 40096 52011
333 10332=
33177 32672 81701 10146 20712 40122 58002 885// 333 70200=
12822 11958 83001 10136 20126 39950 40090 53005 69992 76086 8807/
333 10217=
43198 32496 32505 10210 20195 39271 40096 82501 333 56609
58008 82618=
43201 31496 62705 10246 20201 39378 40093 71312 83904 333
57913 59001 82618 81925 86075=
43329 32596 40000 10286 20261 30070 40083 81101 333 58009=
33317 32980 01302 10121 20085 40158 53002 333 10194=
41150 42962 02804 10315 20264 40046 333 10374 58018=
41184 42960 01204 10322 20250 40059 333 10382 58031=
41194 42960 10408 10336 20255 30053 40058 81030 333
10407 58026 81368=
41196 42960 20704 10322 20223 30024 40062 82030 333
10418 58027 82365=
41217 42960 00207 10320 20265 30029 40058 83030 333
10415 58018 83364=
43221 31596 60000 10280 20227 30067 40080 71322 82931 333
57962 58017=
33910 32998 03602 10176 20038 40176 53007 333 10248=
83831 333 10173 20103 31010 55300 81828 83656 85358 91113
90940 96480 96415=
83618=
58008 82618=
57913 59001 82618 81925 86075=
42840 32996 32701 10270 20241 40096 83030 333 58001 83360=
21824 41575 82713 10015 20004 49968 57028 70283 8295/ 333
91119=
21946 42984 82207 11055 21089 40051 57030 86031=
25123 42584 83403 10023 21055 40088 54000 885// 333 88631=
91754 32475 51208 10259 20216 40139 85200
333 85819=
63772 11580 31705 10248 20215 69902 78010 83200
333 10297 83823=
85586 32960 02706 10167 20099 40197 57004=
67969 41570 80909 10110 20107 39265 48577 75195 885// 333 10125 58124 88620=
68268 32474 80509 10125 20052 38981 48591 52026 885//
333 10179 2//// 555 91028=
68296 11580 81810 10150 20083 39991 48620 52025 69932 70265 885//
333 10182 2//// 555 20003 91031=
68842 32682 20721 10150 20073 30241 40316 57005 82500
333 10182 555 91031=
71433 36/// /2908 10138 30085 40316 58011 333 10141 20105 70000=
71841 36/// /2505 10154 20029 39896 40295 58024 333 10155 21020
70000=
68994 32491 32906 10063 20002 30190 40217 52005 83500
333 10082 20057 91027 555 91021=
33135 32997 00000 10120 20098 40182 53006 333 10210=
17038 32670 71807 10209 20172 40175 52006 84250
333 10230 84835 87360 92428=
34712 32998 03404 10170 20073 40163 52012 333 10237=
33466 32989 01601 10150 20088 40189 53006 333 10216=
34523 11497 82401 10147 20138 40161 52013 60062 78086 889//
333 10162 88917=
33902 32997 00000 10169 20105 40178 53004 333 10231=
62002 32960 20907 10330 20094 39411 48513 57007 80004 333 10330
82070=
62007 32960 30913 10280 20236 40098 58015 80004 333 10300 83570=
62008 32970 21805 10300 20123 39349 48524 56003 80002 333 10315
82070=
62010 32960 00810 10277 20220 40116 53005 333 10352=
62012 32960 00912 10268 20227 40/// 5//// 333 10332=
62016 32562 11306 10261 20193 40127 51004 81500 333 10319
81625=
62019 32958 0//// 10265 20205 40142 5400 333 10290=
62053 32560 33412 10249 20171 40154 53002 83500 333 10280 83625=
62055 32960 00306 10260 20173 40148 51002 333 10320=
62056 32550 23505 10185 20142 39/// 48/// 5//// 82500 333 10215
82620=
62059 32560 23510 10255 20185 40147 57006 82500 333 10270 82620=
62062 32560 23310 10245 20173 40120 54000 82500 333 10280 82625=
62124 32960 42105 10381 20140 39600 40075 55005 84040 333 10405
84360=
62131 32968 01215 10330 20164 39795 40097 57025 333 10355=
62176 32960 00000 10285 20156 40115 51005 333 10325=
62200 32960 60000 10386 20081 39569 40078 54000 80006 333 10433
86270=
62212 32970 50904 10395 20103 39328 48533 58020 85070 333 10423
85360=
62259 32960 00000 10340 20148 40127 53003 333 10380=
62271 32960 00610 10350 20057 40118 56006 333 10375=
40250 32970 00000 10284 20142 39309 40056 52006 333 10345=
40265 32960 02806 10220 20203 39344 40109 52013 333 10292=
40296 32965 00000 10318 20225 40119 52009 333 10378=
40310 32960 02408 10226 20132 38902 48472 54002 333 10310=
40255 32960 03204 10210 20184 39417 40107 53007 333 10288=
40260 32960 03210 10270 20175 39355 40100 52012 333 10330=
40270 32960 02704 10212 20184 39234 40097 52013 333 10284=
40272 32960 02907 10222 20172 39289 40092 52007 333 10290=
40340 32960 00000 10312 20233 40065 52017 333 10359=
33990 32976 02801 10178 20130 40185 53005 333 10239=
33325 32997 21302 10130 20094 40167 53002 82030 333 10200=
10261 20217=
56669 70036=
71923 36/// /3023 10159 20087 39668 40095 51006 333 10160 20103
70000=
71490 36/// /3616 10140 20071 39759 40059 53009 333 10140 20062
70000=
61401 33958 03624 10296 20131 30680 40085
333 10310 59038 =
61404 32960 03616 10340 20149 39699 40080
333 10353 59025=
61415 31957 03619 10244 20201 30100 40105 70700
333 10323 59012=
61421 31956 00408 10381 20090 39820 40065
333 10400 59025=
61437 32958 03604 10395 20164 39843 40075
333 10402 59017=
61442 31950 03212 10312 20238 30074 40078 70600 91814
333 10410 59017=
61450 33960 11004 10394 20076 39612 40046 81070
333 10415 59014 81363=
61461 32960 00804 10390 20180 39989 40077
333 10395 59016=
61492 32958 20000 10350 20237 30096 40115 82070
333 10360 59011 82363=
61498 33960 21804 10366 20212 39923 40045 82030
333 10374 59008 82363=
61499 32958 52204 10380 20187 39801 40046 85080
333 10400 59007 85363=
61223 11540 81225 10295 20159 39793 40083 69902 79596 8497/
333 10388 58005 82630 82940 88463 94953 95873=
61226 31608 50821 10315 20126 39781 40065 79893 82940
333 10377 59010 82840 82950=
61230 32960 12804 10348 20224 39787 40049 81040
333 10370 59019 81365=
61233 32960 52202 10336 20225 3//// 4//// 80002
333 10350 5//// 85075=
61240 31560 50000 10338 20217 39742 40058 72799 82942
333 10352 59020 82840 84365 81950 94962 95832=
61257 32570 30000 10320 20258 30026 40078 81502
333 10340 59022 81630 83075=
61265 31570 72804 10333 20226 3//// 4//// 72999 84970
333 10350 5//// 83830 87365 81950 94944 95834=
61270 32965 32602 10300 20243 39700 40071 82042
333 10315 59026 82365=
61272 32660 50000 10325 20252 39748 40068 83202
333 10335 59021 83840 85075=
61291 11560 52408 10301 20236 39660 40065 69942 70162 82342 930//
333 10325 59021 82630 81940 94942 95812=
61293 11570 73606 10230 20207 39677 40089 60032 71796 83970
333 10317 59008 82620 81940 85465 94948 95838=
61296 32570 53204 10290 20248 39682 40069 83202
333 10332 59025 83830 83075 94913=
61297 32570 50000 10290 20213 3//// 4//// 82940
333 10317 5//// 82630 81940 94947 95837=
60670 32760 2//07 10340 2//// 39077 48522 53003 82200
333 10370 82840=
98325 32458 61801 10264 20232 40069 58006 82201 333 56999
82817=
98328 11410 80000 10162 20159 38500 40079 58008 69901 74684
885// 333 56999 88612=
98429 31558 70000 10258 20233 40092 57013 70544 8387/ 333
56999 83823 85360=
98440 32465 40000 10253 20245 40082 58011 81202 333 56999
81815 84079=
98550 31460 70000 10254 20241 40076 57025 71344 83368 222//
20101 333 56999 82915 87272=
98618 32568 32702 10255 20235 40094 58011 82201 333 56999
82820 83074=
98630 32570 80000 10278 20244 40089 58018 82207 222// 20000
333 56999 82820 88275=
98836 32565 40000 10252 20236 40102 58017 81201 333 56999
81820 83081=
98232 31565 21802 10266 20237 40058 58014 70244 82200 333
56999 82820=
98653 31468 62201 10258 20240 40090 58005 71444 82970 333
56999 82918 84358=
82332 32570 31306 10335 20226 40100 82101 333 59011=
71421 46/// /////=
87497 32565 62318 10142 20051 30116 40141 57020 86500 333 56500
86620=
83899 31565 81808 10204 20190 30074 40080 56017 71022
84537=
82686 32598 21406 10346 20155 39848 40091 82200 333 59016=
82281 32570 60312 10307 20234 40107 86200 333 59009=
98336 32475 40000 10250 20245 40071 58011 81270
333 56999 81815 84357=
98431 31456 70000 10260 20247 40091 58006 70222 83270
333 56999 83818 87459=
98536 32465 42104 10267 20240 40088 58015 82261
333 56599 82818=
98646 31460 82801 10258 20244 40085 57013 71322 82907
333 56999 82918 88275=
98222 31575 40901 10252 20243 40093 56005 70544 84500
333 56999 84625=
98324 32470 30701 10248 20237 40083 58017 81471
333 56999 81615=
98425 32450 80601 10271 20243 40081 57016 86207
333 56999 86817 88280=
98427 32475 30000 10242 20223 40087 58007 82260
333 56999 82818=
98428 32560 70000 10269 20245 40091 58012 82470
333 56999 82620 87359=
98430 31558 20000 10242 20228 40104 53011 70544 81270
333 56999 81820=
98434 32465 30000 10252 20236 40083 58018 82201
333 56999 82818=
98446 11462 82802 10246 20235 40082 58004 60011 70262 84208
333 56999 84818 88270=
98447 11470 82504 10238 20221 39808 40070 5//// 60061 70292
84207
333 56999 84818 88270=
98538 32468 31801 10260 20251 40090 58008 81206
333 56999 81811 83072=
98546 32575 61801 10254 20243 40084 57016 82208
333 56999 82820 86275=
98548 32465 40000 10268 20241 40091 56004 82201
333 56699 82816=
98553 31462 60000 10250 20239 40095 58009 71322 83908
333 56999 82915 85272=
98558 32466 32801 10270 20243 40092 58011 82271
333 56999 82818=
98642 31468 40000 10252 20229 40094 58011 71321 81902
333 56999 81918 84072=
98751 32465 80000 10218 20207 39424 40092 57006 8497/
333 56999 84915 88356=
98851 31470 60000 10258 20239 40095 5/010 70544 81206
333 56999 81818 86075=
96481 32462 53302 10248 20228 30069 40092 81801 333 81818 85080=
58012 55100 83625=
58026 81368=
58025 84625 81359=
71194 17/64 ///// 10177 20154 30047 40062 56028 69981 7//4/ 333
10177 20153 70968=
33587 32997 00000 10113 20099 40176 53001 333 10213=
91371 11474 81805 10239 20223 30119 40122 60041 70181 87677
333 56449 87815 85360 88480 70016=
43233 32496 72303 10254 20207 39280 40077 82531 333 56599
58006=
30650 41570 80000 10078 20078 40165 54010 76186 885// 333
88595=
62801 14184 99452 70050 46/// /3408 10178 40190 52006 22200 00197
10807=
80300=
67009 32680 1//16 10229 20187 30041 40161 52017 81500
333 10306 81633=
67027 32980 02610 10249 20219 30125 40146 52018
333 10313=
67083 32470 30000 10188 20116 38769 48540 52016 83800
333 10274 81816 83620=
67095 32475 10000 10204 20185 30160 40166 52011 81800
333 10264 81817
555 81640=
67157 32580 1//04 10226 20198 30165 40172 52029 81200
333 10/// 81820=
67161 32580 12214 10227 20209 30195 40204 52025 81200
333 10282 81820=
89014 46/// ///// 11170 39155 4//// 52002
333 11132 21172=
89816 46/// /1512 11239 38148 4//// 5////=
89758 46/// /20// 11472 36953 4//// 5////=
89568 46/// /14// 11426 37273 4//// 5////=
89774 46/// /06// 11451 37045 4//// 5////=
97230 32460 71304 10264 20237 30097 40103 57023 85231
333 56300 57831 85818 80857=
91367 11474 62412 10272 20242 30105 40108 60051 70182 84278=
78016 31564 61103 10288 20237 30125 40166 58013 71511 84230
333 10302 20237 70000=
10328 20243 58004 85830=
87416 32975 03205 10176 20006 39427 40179 57029=
87938 32580 42332 10039 21013 30110 40182 52028 84500 333 56600
84630=
55598 32780 10201 10111 20069 36644 52003 81400 333 00151
10231=
76342 31662 50901 10320 20124 39451 40131 57025 70021 85200
92040 333 30/// 56300 58009 85820=
76581 32470 50000 10284 20163 39062 40136 52004 85100 91752
333 01200 10288 20177 30/// 58000 85820=
67765 41960 71510 10200 20120 38688 48533 70511 874// 333 10295 58041
87659=
67775 41360 81413 10140 20106 38550 48554 70522 886// 333 10217 58054
88705=
67779 41960 01210 10210 20132 39092 48552 70500 333 10314 68064=
67853 41975 71011 10151 20119 38965 58527 70262 8707/ 333 10234 58047
87459=
67861 41940 70915 10140 20094 38760 48538 70522 87030 333 10247 58060
87360=
67867 41356 81314 10097 20093 38646 48569 75252 885// 333 10190 58074
88608=
67881 41401 81809 10104 20104 38651 48574 75355 885// 333 10129 58082
88610=
67965 41375 81225 10099 20077 38746 48599 75052 885// 333 10118 58064
88610=
67975 41475 81317 10124 20098 39018 48588 75052 885// 333 10126 58091
88610=
67977 41258 81510 10141 20131 39800 48619 75155 876// 333 10145 58116
87703
88610=
67983 41005 81109 10120 20120 38990 48600 75865 8877/ 333 10125 58092
88700=
67991 41670 81706 10150 20114 39738 48598 75052 885// 333 10157 58101
81920
88620=
76311 32480 31402 10292 20253 39855 40121 50005 83200 91752
333   01100 10292 20233 31/// 59011 83818=
76393 31650 51401 10302 20200 39576 40150 57001 70544 85200
91755 333   01300 10305 20218 30/// 59007 83834 82634=
76471 32580 20702 10234 20159 37722 40109 57001 82400 91745
333   10240 20110 30008 56100 59008 82635=
76658 31560 20502 10
000
SIMX01 MXBA 142100 RRB
AAXX 14211
76243 32374 51202 10354 20229 39876 40158 57017 85205 92030
333   30/// 56306 59002 83810 82070=
92040 333   30/// 56300 58009 85820=
76654 31450 31902 10314 20287 30071 40075 57027 70544 82950
92050 333   06890 30/// 59027 81920 81821=
92035 333   0/100 30/// 58002 82930 84630 82830=
78846 32582 31311 10299 20235 30104 40143 82202
333 10324 20271 58010 70000 82821=
31416 42999 03601 11025 21045 40151 52019=
31801 42998 00000 10042 20032 40184 52013=
96797 32558 51804 10252 20222 30103 40107 58002 81271
333 56000 57803 81820 80870 83080=
96973 32558 21210 10272 20244 30097 40101 57010 81101
333 56200 57824 81821 80833=
96449 31465 70000 10252 20240 30075 40095 71722 82941 333 83614
81915 85365=
48375 32560 80000 10231 20222 39860 40087 84576 333 58007
70439=
48583 31558 32103 10347 20225 30088 40093 71021 81105
333 59004 70180=
48376 32560 60000 10243 20216 39959 40103 82536
333 58012 70074=
48377 32560 60000 10235 20227 39929 40095 82536
333 58016 70103=
48352 32562 20000 10264 20248 39892 40089 84505
333 58008 70002=
48421 31557 80000 10238 20226 39994 40109 71022 83536
333 58013 70058=
48459 32563 ///// 10284 20244 30090 40093 82105
333 58006=
48552 31458 50000 10254 20242 30085 40091 71322 82945
333 59009=
48566 01560 82706 10265 20257 30095 40103 60023 70262 83847
333 58001 60027 70120=
48568 31459 40000 10270 20233 30087 40095 71022 82201
333 59002=
48431 31958 10000 10268 20234 39883 40095 71000 80001 333
59015=