ZCZC 000
SMCI10 BENJ 310000
AAXX 31001
57522 31/04 90000 10178 20170 40091 52006 74544 3333/ 05100
70003=
54171 32675 72502 10190 20125 40053 52006 82502 333// 00253=
54266 11765 81402 10168 20142 40052 52012 69981 76060 885//
333// 00154 70008=
54285 32565 72001 10152 20116 40059 52009 82102 333// 05253=
53564 32965 72201 10180 20075 39086 40031 52020 86032 333//
00253=
53868 31956 00401 10244 20104 49999 52014 70400 333// 05304=
53975 32961 00000 10211 20092 40013 52015 333// 05205=
53959 32980 00000 10255 20132 39584 49999 52013 333// 05405=
53478 32675 23203 10181 20045 40015 52005 82402 333// 00201=
57602 31920 01101 10192 20179 40075 52011 71000 333 05300=
58122 31415 81102 10179 20177 40051 52011 72840 886// 333//
00000=
56964 32565 70000 10209 20190 38670 40058 52015 874// 333//
00000=
57245 31930 00000 10199 20185 39732 40064 52011 72840 333
05303=
54339 32960 02202 10176 20112 40049 57001 333 00257=
50442 32970 11403 10150 20053 40078 57003 80002 333 00103
30046=
57516 31903 02501 10186 20184 39780 40080 52009 74440 333
05200=
54218 32775 72502 10190 20122 39373 40017 52010 81102 333//
00254 70016=
57127 31957 00000 10195 20179 39494 40068 52014 71000 333
05204=
59948 32580 20701 10283 20251 30055 40063 52009 81102 333//
05201=
54346 32965 20000 10191 20108 40050 52002 80001 333 00153=
56096 32980 00401 10204 20125 38861 40018 52008 333// 05403=
54094 32960 33603 10193 20097 39775 40055 52004 80002 333
00103=
59293 11565 22203 10277 20247 30040 40087 52017 69901 70080
82100 333 05200 79999=
58634 11440 80201 10218 20217 40060 52017 60461 79598 889//
333// 05201 70898=
59855 32575 20000 10280 20258 40067 52011 82102 333// 05151=
59845 32580 22002 10260 20243 40072 52010 81102 333// 05151
70003=
59058 32765 70000 10261 20247 40079 52018 875// 333// 05101
79999=
54337 31457 61806 10172 20137 39959 40041 52005 71000 86600
333 00254=
57766 31950 71601 10218 20212 40075 52008 71000 8704/ 333//
00002 70035=
59849 32580 22201 10249 20226 40074 52008 82100 333// 05151
70042=
51573 11875 71802 10262 20112 39975 40017 52009 69901 70080
84462 333// 00100 79999=
59644 32575 71404 10284 20256 30060 40075 52017 85202 333//
00001 79999=
58027 31908 81403 10173 20170 30001 40050 52013 74444 8807/
333 00001 79999=
58457 11220 80401 10216 20211 30013 40062 52022 60181 78088
887// 333 00001 70348=
58472 11264 83402 10191 20191 39959 40053 52016 60351 78096
8677/ 333 05251 70508=
58667 31430 70401 10252 20233 40057 52019 71000 82162 333
05404=
58562 11657 83402 10209 20198 40063 52028 60131 78080 884//
333 05151 70185=
59117 32680 72201 10271 20236 39991 40092 52020 874// 333
05201=
53513 32980 20701 10217 20028 38908 40032 52015 80002 333//
00302=
54471 32660 72005 10164 20126 30043 40048 54000 87500 333
00155=
57067 32975 02003 10198 20152 39400 40035 52006 333// 05204=
58549 11661 83203 10227 20221 40060 52029 60571 79298 889//
333 05151 70756=
53782 31956 61401 10196 20139 40023 52008 71000 80002 333//
00052=
57993 32966 70201 10284 20237 39929 40070 52017 80002 333//
05101=
54527 32860 80702 10193 20163 40036 57008 885// 333 05152=
59254 32570 72003 10281 20238 40074 52017 878// 333// 05102
70026=
59663 32468 70902 10284 20249 30052 40079 52015 85102 333
05100=
53463 32980 13404 10208 20022 38870 40022 52014 80002 333//
00302=
78384 32560 70806 10288 20231 40130 81180
333 10310 20237 58010 81820 87359=
89664 32961 00000 11330 30041 40081 57021
333 11300 21340 59122=
76256 32980 11805 10299 20220 30060 40076 57023 80005 92345
333   10355 20223 30/// 51060 56003 58019 70000 81070=
76373 31388 32605 10281 20096 38161 40046 57011 71622 83900
92338 333   10304 20138 30/// 50450 56500 59046 70023 83910
=
76571 31770 83602 10236 20100 38122 40005 57018 71722 88700
92330 333   10298 20160 31/// 50327 56200 59004 70065 83958
85856=
76683 01660 80000 10142 20129 37805 40084 51010 60221 72998
86970 92350 333   10246 20137 33/// 50830 56810 58009 60226
70282 86945 82359=
76243 32974 61402 10370 20188 39782 40056 57024 80006 92340
333   10410 20254 30/// 50110 56006 59021 70000 86070=
76499 31958 01103 10318 20207 30066 40096 57006 70544 92345
333   10364 20210 30/// 50720 59011 70000=
76581 32580 60901 10281 20165 39009 40063 57002 82106 92350
333   10346 20183 30/// 50540 56206 59003 70000 81830 84070
=
76585 02680 40000 10271 20242 39955 40104 56010 60021 83270
92338 333   10317 20209 31/// 54500 5626/ 58012 60021 70071
83833=
91413 32469 60705 10315 20250 30073 40092 51010 83271 333 20228
56299 59008 555 93100=
40582 32960 03310 10313 20093 40027 56006 333 00030=
91376 11474 50812 10293 20239 30085 40088 58010 60024 70282 83801
333 20256 562/9 59009 70015 555 93100=
91334 11469 80406 10279 20268 30095 40098 50010 60134 72586 84371
333 20247 56239 58005 70127 555 93100=
16597 32970 03309 10200 20184 30088 40174 55001=
347086 349090 348092 345092 345089 345086=
132096 130097 132098 131102 131099 128098=
288071 291076 291078 284072 286074 286076=
57003 70222 886// 22233 04020 20202 81010 =
40155 51005 70000 80000 22274 00210=
10908 70040 333 91214 555 11121 22129=
59046 32562 81403 10274 20251 40075 52018 888// 333// 00001=
57504 31920 00000 10206 20187 40076 52011 71000 333 05202=
59647 32580 30903 10284 20255 40071 52015 81942 333// 00001=
51828 31958 72202 10186 20070 38555 40016 54000 70600 80002
333// 05152=
59134 32467 12501 10268 20239 39937 40095 52017 81140 333
05203=
50527 32970 20000 10169 20048 39360 40053 52009 82030 333//
00203 30030=
57687 31920 21403 10210 20194 39994 40072 52013 71000 80002
333// 05102 70053=
59838 32580 60702 10297 20240 30055 40069 52010 81902 333//
05151 79999=
59954 11580 73402 10269 20242 40067 52009 60021 72580 86242
333// 05152 70021=
53614 32780 70202 10184 20068 38819 40018 52007 82402 333
00000=
50775 32968 20902 10153 20048 40102 52007 80002 333 00552=
53543 32980 20000 10200 20014 38474 40022 52011 80002 333
00202=
53588 32980 52704 10126 21023 37753 52011 80002 333 00102=
51709 32880 73404 10189 20040 38667 40047 52018 84962 333//
00205=
51839 32965 72202 10210 20034 49996 52003 80002 333// 00151=
54497 32562 63201 10169 20124 30047 40061 52003 86100 333
05151 79999=
54236 32775 72006 10170 20125 39937 40035 52007 87502 333
00354=
54365 32570 23201 10176 20132 40060 52003 82500 333 05251
79999=
54454 32670 81803 10172 20137 40048 52004 885// 333 00254=
54662 32360 51803 10160 20128 39937 40055 52004 83630 333
05153 79999=
54324 32965 41803 10203 20103 40027 52005 84030 333 00255=
54335 32962 71807 10179 20159 40038 52003 82032 333 00252=
51133 32680 60202 10168 20083 39434 40037 57001 82902 333//
05303=
58646 11660 71801 10255 20241 40054 52020 60021 72580 8654/
333 05403 70024=
58834 32962 11801 10258 20232 40071 52015 81040 333 05302=
57006 32970 00000 10202 20113 40017 52008 333// 05404=
54909 32962 01803 10206 20181 39968 40028 52015 333 05203=
54836 31/00 90000 10145 20142 40050 52010 74740 333 05151=
54195 32570 70000 10164 20105 40051 57001 81102 333// 05100=
54142 32670 72004 10189 20126 40040 52010 83502 333// 00453
79999=
50949 11665 81801 10166 20154 39887 40047 52012 60151 76098
885// 333// 00453 70281=
54263 32665 81102 10174 20136 40055 52013 889// 333// 00253=
54276 11660 80000 10130 20125 40068 52009 60131 78098 889//
333// 00056 70134=
54181 11562 72204 10177 20137 40054 52011 69901 78000 872//
333// 00100 79999=
54377 11662 81801 10162 20132 40063 52010 69931 70060 885//
333// 05100 70004=
54063 32970 71602 10208 20138 40012 52007 80002 333// 00100=
54186 11662 80000 10172 20109 40054 52010 69901 70098 82507
333// 00051 79999=
54161 32970 72007 10194 20103 39771 40045 52006 80002 333//
00452=
54386 11565 72704 10146 20104 40028 52007 69901 70060 875//
333// 05503 79999=
59316 32570 32902 10281 20248 30080 40089 52020 83200 333
05202=
57089 31956 02203 10214 20181 40023 52009 71000 333// 05203=
59626 31563 73201 10264 20253 40071 52017 70090 86902 333//
00000 70021=
58647 31656 70000 10247 20241 40058 52018 71040 875// 333
05403 70067=
58659 31909 70000 10249 20236 30019 40052 52022 74440 8704/
333 05403 79999=
58660 11460 80000 10235 20228 40049 52010 60141 79560 889//
333 05403 70140=
58556 11550 80203 10216 20210 40058 52023 60261 78098 884//
333 05201 70380=
56386 31940 00000 10204 20179 40074 52013 71000 333 05202
79999=
58527 11662 72501 10216 20210 39979 40052 52013 60151 72198
8754/ 333// 05100 70631=
56287 32980 02002 10203 20161 40077 52009 333 05101=
54401 31958 03401 10184 20133 39222 40032 52017 71000 333//
00252 70001=
54736 32962 21403 10177 20144 40041 52006 82030 333 05153=
57682 31908 83201 10183 20183 40083 52018 74240 8807/ 333//
00000 70388=
57562 32966 00000 10208 20191 40053 52013 333// 05202 70093=
59446 32575 70000 10274 20246 40077 52018 878// 333// 00000
79999=
59453 32561 71402 10272 20242 40083 52021 874// 333// 00000=
59228 32965 70000 10262 20246 40076 52013 8704/ 333// 00051=
52378 32780 70903 10191 21011 40019 52012 81902 333// 00052=
52576 32980 60000 10197 21043 38421 52013 80002 333// 00002=
52267 32880 70702 10176 20009 38992 40016 52014 81402 333//
00001=
53602 32980 50702 10229 21057 38373 52003 80002 333// 05104=
53502 32980 73602 10195 20011 40019 52009 80002 333// 00001=
52495 32880 70000 10165 21042 38601 40015 52002 85502 333//
00053=
58259 11557 73402 10209 20189 40060 52020 69901 71060 875//
333 05101 70117=
54623 31758 81604 10194 20164 40036 52010 71000 884// 333
05152=
54602 31959 72001 10215 20177 40025 52004 71000 80002 333//
05102=
54534 32960 81403 10174 20147 40045 52009 8802/ 333// 00054=
56492 31956 00000 10206 20184 39686 40075 52005 71000 333
05201 70001=
56666 11780 80901 10209 20175 40051 52010 69901 70080 885//
333 00355 79999=
51628 32960 70000 10122 20088 40066 52007 80002 333 00258
79999=
54102 32680 40204 10134 20089 38910 40015 52015 84402 333//
00255 70001=
58345 31956 70000 10212 20190 40065 52024 71000 8707/ 333
00101 70249=
58251 31958 83402 10186 20170 30049 40055 52013 71000 8807/
333 00001 70007=
58138 31920 70000 10200 20179 40055 52010 71040 8704/ 333
00002 79999=
58040 32760 80903 10169 20154 30047 40051 52010 885// 333
05101 70001=
58343 31612 73402 10201 20192 40063 52022 72840 875// 333
00101 70216=
58358 31925 82902 10208 20197 40063 52026 71000 8807/ 333
00001 70294=
57872 11640 81101 10212 20206 40071 52013 60301 78098 889//
333// 00001 70336=
50774 32965 11103 10166 20078 39794 40082 54000 80002 333
00204 30044=
59209 11567 72702 10236 20211 40064 52017 60021 70080 87800
333// 00100 70015=
53480 32980 03605 10165 20051 40023 52015 333// 00200 30025=
57405 31957 00000 10207 20188 40079 52008 71000 333 05202=
56294 32962 02002 10214 20178 39505 40074 52010 333 05102=
50788 32970 20704 10170 20049 30017 40098 52010 80002 333
00700=
50844 32962 70901 10193 20073 40048 52014 80002 333 00251
79999=
50963 32760 80706 10160 20082 39932 40061 52006 885// 333
00151=
50854 32970 62701 10183 20106 40048 52005 80002 333 00153
79999=
50888 32980 30000 10171 20072 40088 52003 83030 333 00552=
50877 32980 83602 10161 20085 40080 52006 85037 333 00352=
50953 11975 61402 10190 20148 39884 40054 52012 69901 70080
86030 333 00100 70015=
50136 11670 62701 10125 20084 39558 40061 52013 69971 70080
81932 333 05202 70007=
50853 32970 71104 10191 20068 40056 52010 80002 333 00100=
50468 32975 00000 10139 20065 39896 40094 52004 333 00205
30037=
50246 32680 60000 10144 20053 40068 54000 83932 333 05203
31001=
50745 32968 73603 10183 20066 39890 40061 52006 82032 333
00252=
50968 11675 70203 10154 20099 40060 52008 60011 70080 86502
333 00151 70046=
50557 32970 20703 10182 20038 39801 40084 52005 80002 333
00203=
50862 32960 21104 10201 20064 40061 52003 80002 333 00102=
50742 32965 70203 10196 20053 40058 52001 80001 333 00051=
50349 32970 11804 10152 20038 40068 57004 80002 333 05104
30009=
54096 32670 70904 10172 20074 40065 52005 81502 333 00151=
50564 32970 00901 10141 20053 40090 52005 333 00202 30020=
50658 32980 20403 10188 20056 40060 57001 80002 333 00100=
59065 32565 71801 10274 20254 40073 52019 81132 333// 05101
79999=
57965 11962 72001 10263 20242 40065 52017 69911 70098 8704/
333// 05102 70002=
57193 32961 01803 10200 20178 40031 52012 333// 05202=
57290 32962 01402 10205 20173 40030 52006 333// 05203=
53882 32963 60201 10227 20100 40016 52016 80002 333// 05105=
53863 31958 00000 10200 20131 40021 52017 70400 333// 00000=
53663 32975 63401 10164 20026 40029 52017 80002 333// 00251=
53673 32960 12201 10197 20101 40015 52007 80002 333// 00100=
54857 32560 81602 10163 20139 39965 40054 52008 8552/ 333
05200 70009=
54259 32965 71401 10170 20122 40060 52008 80002 333 00256=
54493 32974 02201 10156 20118 40058 52001 333 05252=
54237 11962 62203 10190 20125 40029 52007 69901 70060 83032
333 00353 79999=
54326 32962 40000 10195 20134 40021 52005 80002 333 00154
79999=
57143 32965 00000 10176 20139 40049 52011 333 05103=
59417 11572 70401 10266 20245 39924 40072 52012 69901 70060
81142 333// 00000 70030=
59758 32480 50000 10290 20255 30052 40072 52010 84102 333//
05101 79999=
59023 11460 80402 10239 20229 39829 40068 52019 60151 79598
889// 333// 00151 70147=
54945 31556 81103 10157 20147 40063 52013 71000 885// 333//
05201 70051=
54826 32960 12210 10164 20040 38395 52007 80002 333// 00107
70002=
54824 32960 51803 10239 20159 40026 57003 80002 333 05204=
54808 31958 81803 10190 20180 40026 52017 71000 8802/ 333
05200=
54823 32960 01104 10255 20149 39828 40021 52002 333 05206=
59431 31558 70902 10267 20253 39936 40080 52017 71000 87242
333// 00051 70081=
59493 32577 10000 10285 20245 40086 52017 81141 333 05100=
59211 32567 70000 10261 20238 39864 40063 52020 87462 333//
00100=
53231 32980 30906 10179 21037 38427 52010 80002 333// 00203=
53276 32980 22906 10148 20063 38771 40029 52019 82032 333//
00453=
53362 32980 13201 10134 20047 40046 52016 80002 333// 00451=
53529 32980 20202 10180 21011 38554 40022 52012 80002 333//
00151=
53149 32980 13602 10162 20048 38711 40041 52019 80002 333//
00600=
53391 32580 23206 10137 20067 38424 40022 52017 81102 333//
00200 79999=
53083 32680 70703 10136 20078 40025 52017 85932 333// 00451
70114=
53068 32780 73605 10163 20000 38967 40036 52020 86902 333//
00651 79999=
53336 32980 23405 10185 21010 38642 40027 52015 80002 333//
00401=
57866 11425 80903 10233 20230 39875 40073 52016 60071 78098
889// 333// 05103 70113=
57669 32680 20000 10216 20193 40069 52011 81140 333// 05203
70169=
54646 33962 71607 10172 20155 40042 52006 80002 333 05153=
54157 32767 62004 10190 20108 40047 52012 86500 333// 00355=
57036 32964 00000 10241 20150 39570 40013 52023 333 05405=
57037 32965 00203 10224 20092 40003 52012 333 05306=
53845 32965 02202 10186 20038 38979 40016 52013 333 05200=
57144 32970 00000 10164 20152 40060 52015 333 05101=
57106 32763 70402 10192 20158 40053 52009 875// 333 05305=
50514 32980 01804 10185 20050 40041 52010 333// 00105 30020=
50603 32980 22202 10172 20062 39418 40047 52014 82030 333//
00302=
50425 32980 12201 10179 20034 40058 52007 80002 333// 00105=
50548 32980 70000 10159 20062 40080 52003 80004 333// 00202
30045=
50434 32980 00202 10154 20040 39225 40055 54000 333// 00005
30009=
50632 32980 40000 10122 20034 39233 40079 52010 80002 333//
00202 31012=
59265 32560 70000 10270 20238 39950 40082 52018 81102 333//
05100 79999=
57649 32662 82002 10207 20185 40083 52016 8657/ 333// 00003
70102=
56571 32770 20000 10184 20135 38384 52006 82802 333 00151
70005=
56193 32968 03203 10173 20125 40069 52005 333 05151=
57608 32965 00000 10198 20172 40076 52004 333 05302=
57306 31958 80000 10198 20185 40076 52005 71000 8807/ 333//
05202=
57957 11464 82501 10244 20235 39887 40076 52018 60111 72598
889// 333// 00000 70274=
59072 32570 70000 10282 20250 40073 52016 86442 333 05101=
57996 32962 20000 10273 20240 40072 52016 80001 333 05200=
59317 32562 72202 10282 20254 40095 52022 872// 333 05101=
59673 11580 10000 10281 20260 40082 52014 69921 70080 81200
333 05151 70002=
59298 32563 61602 10281 20254 40088 52019 86400 333 05100=
59082 32570 61804 10283 20237 30001 40074 52015 86440 333
05201=
59664 11470 60902 10280 20258 40079 52016 60171 70080 86100
333 05151 70173=
59087 32561 72702 10273 20246 40084 52015 86201 333 05200=
59096 32568 71602 10268 20230 40085 52019 874// 333 05100=
59462 32573 23201 10277 20238 40082 52018 81102 333 05100=
59271 32580 70000 10270 20240 40082 52020 81242 333 05102=
58666 31960 72006 10228 20227 39958 40056 52021 70040 8704/
333 05402 91117 91520=
58633 11456 82702 10218 20215 39966 40061 52021 60641 78098
884// 333 05100 71059=
58760 32561 72204 10243 20231 40048 52015 8113/ 333 05503=
58543 11465 80000 10224 20221 40063 52023 60261 76098 885//
333 05101 70651=
52707 32770 72907 10132 21087 37255 52010 8554/ 333 05207=
52889 32965 20000 10180 20035 38407 49992 52012 80002 333
05500=
52418 32980 70901 10179 20056 38789 40010 52017 81042 333
00204=
53646 32972 72901 10148 20037 38875 40025 52011 82032 333
00153=
56046 32980 10703 10019 21009 36295 52002 80002 333 05301
31024=
56033 32680 70702 10021 21017 36058 52002 86502 333 05304
31031=
53915 32965 10000 10178 20089 38575 40015 52008 80002 333
05201=
52652 32978 71601 10145 20074 38452 40026 52012 81042 333
00000=
52533 32980 72702 10172 20044 38462 40024 52010 82042 333
00102=
57034 32960 00000 10224 20151 40003 52010 333 05505=
53740 32970 53402 10164 21013 40027 52017 80002 333 00152=
56151 32980 00000 10032 21017 36662 52005 333 05252 31007=
52657 32980 61401 10058 20007 37264 52009 80002 333 05201
30008 79999=
52661 32980 71403 10156 21008 38180 52012 81042 333 00003=
57046 32971 02004 10214 21028 37914 52014 333 00108=
52645 32980 70000 10009 21019 36814 52009 80002 333 05101
31027=
52797 32980 60000 10178 20027 38306 52017 80002 333 05152=
58238 31730 70000 10205 20184 30049 40058 52018 71000 875//
333 00002 70045=
58265 11330 83202 10205 20189 30042 40053 52017 69911 71060
8662/ 333 05101 70081=
53399 32980 12706 10150 20040 40028 52019 81030 333// 00251
70004=
54618 32961 71401 10196 20163 30009 40026 52008 80002 333//
05151=
54423 32765 80000 10178 20142 39593 40036 52003 885// 333//
00052 70019=
58931 31/00 92210 10173 20173 38350 52018 74544 333 05101
91122 91522=
54929 31920 81103 10170 20160 40055 52004 71000 8802/ 333
05101 79999=
54751 32965 01104 10173 20138 40052 52004 333 05251=
54342 32960 72204 10178 20123 39986 40046 52001 80002 333
00356=
53898 32960 03603 10208 20179 40035 52022 333// 05103=
57091 31958 02003 10206 20182 40024 52014 71000 333// 05203=
57181 31940 01803 10218 20178 40020 52003 71000 333// 05304=
57297 32960 01803 10201 20169 39912 40046 52012 333// 05202
79999=
58005 32960 01603 10198 20177 40035 52010 333// 05102=
58208 32960 01403 10199 20176 40048 52013 333// 05102 79999=
58847 31958 21402 10284 20244 39968 40065 52013 71000 80002
333 05405=
53352 32980 03401 10153 20028 40041 52018 333// 00451=
59242 32568 61602 10278 20247 40071 52015 81130 333// 05102
79999=
57584 32962 01603 10206 20187 40072 52013 333// 05102 70142=
56586 32980 10000 10131 20098 38039 52002 81040 333// 05101=
56684 32580 72501 10163 20129 37890 52002 875// 333// 00103=
56969 31458 80000 10224 20215 40073 52011 71000 886// 333//
00000 79999=
56778 11562 83602 10162 20143 38096 52011 60031 70080 884//
333// 00153 70044=
56954 32565 30000 10212 20189 40062 52011 81141 333// 00001=
59007 11462 80000 10205 20195 40063 52013 69951 70080 885//
333// 00100 70129=
56548 11580 70000 10144 20129 37693 52006 69921 70080 8343/
333// 00001 70002=
56856 31680 60000 10211 20188 40058 52013 70090 82130 333//
00002 70002=
56533 32480 70000 10169 20156 38389 52012 878// 333// 00001
70002=
56543 32680 71802 10100 20077 36880 52010 874// 333// 00102
79999=
56751 32675 21601 10177 20154 38007 52007 82400 333// 00101
79999=
56977 31259 81801 10210 20200 40065 52014 71000 884// 333//
00051 70059=
56966 11565 82901 10232 20217 40051 52030 60051 79598 889//
333// 00152 70050=
56741 32580 70000 10174 20139 38181 52011 82442 333// 00000
70003=
56951 32780 70000 10196 20178 38476 52015 8744/ 333// 00001
70003=
56664 11580 73202 10200 20179 40073 52014 69981 72580 879//
333// 00352 70008=
56786 11570 81401 10166 20158 38095 52003 60381 72598 884//
333// 00152 70395=
56768 11680 60000 10181 20154 38212 52012 69901 70080 86400
333// 00152 70004=
56985 32580 72003 10224 20185 38667 40055 52014 879// 333//
00001=
56946 32680 73601 10209 20188 40056 52016 81142 333// 00001
79999=
56651 11680 70000 10137 20124 37634 52007 60131 70098 87400
333// 00252 70135=
56994 32580 41402 10218 20190 40059 52010 82102 333// 00000=
56886 11760 73602 10184 20175 38243 52008 60081 72598 874//
333// 00052 70077=
56739 32473 70000 10170 20157 38329 52012 874// 333// 00051
70006=
56875 11570 82001 10182 20165 38344 52019 60021 78098 889//
333// 00152 70015=
56838 32665 71601 10212 20195 40078 52018 85432 333// 00000
70031=
58626 11658 80000 10228 20228 40061 52017 60431 78098 889//
333// 05100 70840=
58506 31/00 92001 10158 20158 40075 52014 74544 333// 05153
70560=
58813 32575 61801 10278 20232 40054 52020 81102 333// 05201=
59102 32565 62202 10263 20227 40087 52016 86100 333// 05201=
59218 11572 72002 10237 20204 40070 52013 69931 70098 8714/
333// 00001 70006=
50834 32580 72901 10157 20034 40057 52008 85532 333// 00200=
54027 32680 73602 10172 20101 39475 40027 52013 86202 333//
00352 70001=
54115 32680 50000 10160 20098 40026 52013 85400 333// 00255
79999=
54026 32580 73603 10191 20090 39720 40025 52010 83802 333//
00353 79999=
54134 32674 73602 10200 20066 40013 52011 82902 333// 00301
79999=
50727 32580 71405 10151 21020 38913 40061 52014 81532 333//
00302 79999=
54226 32980 71101 10214 20118 40019 52005 80002 333// 00352=
54213 11680 70000 10172 20103 40027 52012 69901 76000 87502
333// 00352 70029=
59632 32566 50902 10280 20258 40079 52022 84902 333// 00003=
59321 32580 22503 10276 20248 40093 52020 81140 333 05203=
54273 11670 80906 10153 20132 40058 52018 69951 76080 885//
333// 00256 70005=
50936 11670 70401 10164 20142 40041 52013 69941 78098 81902
333// 00454 70004=
54292 32975 73601 10157 20109 39843 40050 52007 82032 333//
00055=
54041 11770 81405 10166 20127 40032 52010 69901 76098 8352/
333// 00555 79999=
54049 11770 72004 10166 20125 40046 52001 69901 70098 875//
333// 00554 70311=
54363 11663 80000 10161 20140 40055 52011 69921 72160 8252/
333// 00054 70002=
57083 31957 00501 10249 20184 39889 40016 52013 71000 333//
05204=
59658 32467 70903 10289 20260 40077 52012 872// 333 05100=
58311 31564 81803 10198 20189 40058 52010 70040 885// 333//
05102 79999=
51931 32962 71602 10164 20101 40019 52002 80002 333// 05155=
53738 32980 20000 10150 20042 40022 52013 80002 333 05151=
53754 32970 13202 10180 21004 40012 52013 80002 333 00051=
54518 31958 81103 10209 20168 40034 52006 71000 80007 333//
05100=
54429 11940 80000 10178 20147 40041 52009 69901 71060 8807/
333// 00054 79999=
54705 31958 82002 10206 20179 40030 52013 71000 80007 333//
05101=
53798 31956 73201 10209 20182 39937 40025 52012 71000 80002
333// 05103=
54308 32660 61103 10166 20126 40030 52011 86500 333// 00051
70026=
57662 32965 02202 10213 20189 30024 40064 52014 333// 05202
70148=
59981 32580 70903 10280 20256 30045 40060 52011 83242 333//
05152 70040=
59985 11575 70905 10279 20260 30045 40050 52012 69911 72580
86902 333// 05252 70001=
54715 32962 02003 10206 20165 40031 52010 333 05201=
54843 32965 81806 10172 20150 30013 40040 52001 8807/ 333
05200=
54916 31958 01605 10191 20166 40047 52009 71000 333 05102
79999=
54725 31958 00904 10190 20157 40029 52005 71000 333 05252=
54863 32465 81102 10153 20146 40063 52008 885// 333 05252
70007=
56385 32980 01605 10119 21007 37041 52007 333 00003=
58715 11368 83602 10242 20230 40060 52017 69911 79598 8597/
333// 05251 70001=
57894 32568 73403 10244 20199 40073 52019 8684/ 333// 05102
79999=
58608 11340 82202 10237 20227 40070 52029 60181 78098 889//
333// 00052 70299=
57598 32568 60000 10216 20194 40075 52019 85101 333// 00001
70314=
58519 11770 83601 10210 20196 40065 52013 60061 72198 885//
333// 00052 70504=
57156 32970 02703 10209 20164 40036 52006 333// 05303=
57816 31903 01102 10151 20149 38753 40092 52010 74240 333//
00000 70001=
56459 32680 70000 10136 20095 37659 52013 8243/ 333 00353
70019=
56196 31950 80000 10207 20180 40074 52012 71000 8807/ 333
05101=
56565 32580 72701 10129 20098 37500 52011 8146/ 333 00252
70001=
56475 32480 10000 10148 20130 38320 52006 81400 333 05202
70004=
56671 32780 70000 10191 20165 38196 52010 86440 333 00200
79999=
56485 32980 01401 10172 20143 40092 52005 333 05203 70002=
54624 32961 21602 10190 20151 40039 52013 80002 333// 05153=
52754 32980 73403 10051 21025 36799 52006 80002 333 05302
31007=
52868 32980 70000 10088 20044 37729 52009 80002 333 05551
30032=
56125 32980 60000 10043 20008 36541 52005 80002 333 05401
30005 79999=
57432 31920 80000 10188 20180 40086 52003 71000 8807/ 333
05100=
57426 31/02 90000 10157 20157 40089 52005 74740 333 05152
79999=
57633 31/06 90000 10149 20149 39338 40093 52011 74540 333
00151 70001=
57348 32765 70000 10186 20173 40096 52004 875// 333 00003
79999=
58477 11458 83604 10214 20208 30010 40053 52023 60071 78098
887// 333 05300 70083=
58665 11530 82908 10252 20235 40066 52040 69901 79500 8697/
333 05204 79999=
54776 31/00 91403 10131 20131 30005 40062 52008 74544 333
05254 70001=
54871 31/08 90000 10148 20143 40065 52012 74340 333// 05252
70012=
54774 31456 81802 10157 20139 40056 52009 71000 886// 333
05253 79999=
58144 31915 80701 10175 20160 30032 40054 52011 72840 8802/
333 00001 79999=
58150 32570 80404 10177 20159 30049 40057 52019 885// 333
00000 70022=
57447 32965 70901 10192 20170 39569 40089 52013 8703/ 333
00003 70025=
57077 32968 02702 10193 20113 40032 52005 333// 05103=
57411 31920 00000 10197 20183 39726 40080 52010 71000 333
05201=
57476 11/03 92202 10183 20183 40067 52015 69901 75040 333
05200 70089=
54405 31958 21802 10179 20146 40029 52012 71000 80002 333//
00151 70005=
54606 32961 01803 10212 20170 40020 52005 333// 05102=
53593 32761 62501 10194 20124 40015 52012 82130 333// 00102
79999=
54311 11556 70000 10151 20125 40030 52004 69901 71080 875//
333// 00052 70076=
53705 32970 50000 10174 20089 40018 52019 80002 333 05151=
53723 32970 70000 10176 21001 38589 40022 52016 85032 333
00152=
53810 32975 71801 10182 20018 40010 52010 80002 333 05201=
53487 32762 70000 10181 20058 40017 52018 84532 333// 00251=
53772 31958 20000 10214 20103 39169 40021 52015 70400 80002
333// 00003=
53853 32967 00000 10202 20092 40006 52009 333// 05204=
53787 32970 03201 10186 20055 40012 52012 333// 05103=
54449 11762 80000 10167 20146 40049 52006 69901 79500 889//
333// 00155 79999=
58569 11470 80402 10230 20217 40049 52017 60191 76064 8177/
333 05303 70187=
57178 11905 82704 10180 20180 39893 40045 52010 69901 74264
8807/ 333// 05201 79999=
54852 11565 80902 10164 20140 40052 52008 69921 70060 885//
333 05252 70002=
54936 32560 71603 10169 20156 40051 52005 875// 333// 05102
70001=
58606 11450 80401 10216 20213 30014 40067 52027 60121 76098
887// 333// 00052 70328=
56137 32980 70000 10040 20015 36830 52007 80002 333// 05451
30030=
56116 32680 50000 10034 20001 36371 52010 81432 333// 05301
31004=
56223 32680 50000 10037 20021 36556 52010 85500 333// 05400
30015=
56331 32680 10000 10030 20007 36441 52008 81400 333// 05251
30019=
59754 32472 41403 10284 20257 40070 52011 82102 333 05100=
59278 32568 50000 10280 20247 40083 52017 82142 333 05201=
52842 32980 70000 10076 21033 36977 52007 8701/ 333 05402
30015=
52856 32780 70201 10102 21020 37192 52003 875// 333 05502
30027=
59501 32580 52003 10290 20261 30085 40101 52022 85200 333
05101=
57947 11460 80000 10219 20214 40086 52016 60051 78098 889//
333 00153 70805=
54284 11565 73402 10128 20114 40060 52005 60171 70098 872//
333// 05255 70170=
54374 11665 70000 10171 20131 39668 40053 52005 60171 70098
874// 333// 05201 70182=
56257 32680 10000 10053 20022 36327 52009 81400 333 00000
31011=
56357 32680 70701 10073 20043 36496 52008 874// 333 00000
30033=
56152 32980 00000 10024 20001 36353 52001 333 05201 79999=
56374 32680 10000 20125 20071 37444 52002 81100 333 00003=
56146 32780 10000 10082 20021 36768 52009 81100 333 05200
30020=
56247 32880 70000 10119 20040 37441 52018 82440 333// 05200=
56462 32480 60000 10095 20074 37171 52006 82830 333 00151
70002=
57313 31940 80000 10198 20187 40081 52007 71000 8807/ 333
05102=
89009 41661 20311 11497 36876 57018 77670 80008
333 11497 21639 82241=
96315 15475 62104 10259 20228 40082 60154 81142
333 20234 55069 81814 86080=
60101 32960 00810 10215 20124 40172 51011 92350=
60115 32970 12404 10196 20100 40192 52009 80002
333 81073=
60135 32450 72608 10210 20202 40177 50008 876//
333 87708=
60150 32556 31404 10255 20089 39531 40153 50001 83200
333 83823=
60155 31440 73404 10200 20184 40179 53008 71022 876//
333 87710=
60156 32450 42404 10196 20186 40182 50002 84600
333 84710=
60230 32960 02603 10250 20144 40176 51004=
60107 32960 00000 10191 20191 40190 51005
333 95300=
60127 32960 20000 10253 20107 39610 40182 56005 80002
333 82073=
60141 32660 50610 10265 20084 39513 40154 50004 88230
333 83833 95400 95800=
60185 32960 03603 10204 20185 40183 51015=
60191 32970 02004 10250 20112 40157 51013=
60195 32965 1//// 10187 20106 38477 48592 51004 81030
333 81360 95500=
60210 32665 41604 10265 20091 39035 48580 52009 84200
333 84830=
60265 32965 02602 10260 20092 38937 48582 50014=
60318 32457 70402 10205 20193 40198 50011 872//
333 84710 84820=
89054 32970 42804 11022 21037 40208 57016 80005
333 11010 21068 76006 84270=
89056 32462 42411 11011 21020 40123 57019 82501
333 11009 21058 76605 82616 83070=
89057 32960 53004 11030 21042 40206 57023 80006
333 11030 21060 77000 85265=
89058 32962 12712 11020 21032 30196 40212 57020 80002=
89059 32/60 01605 11046 21083 40192 57018
333 11040 21058=
89251 32962 00403 11017 21031 40190 57010
333 10013=
78583 32575 40909 10284 20243 40105 83203 333
03307 10313 20242 59006 83820=
78897 11558 70906 10273 20235 40166 53017 69941 70286 83806
333 0/2// 10317 2//// 58018 70004 83821 86276=
33815 42498 73303 10138 20099 39919 40132 52007 86340 555
19014=
81405 32560 60602 10256 20236 40122 84830
333 10312 58010 81820 83633 85360=
61901 36/// /1213 10176 20136 40186 5////=
61902 32586 21015 10258 20202 40139 82100 333 58002 82825=
88889 32582 72212 10015 21022 40291 57005 875// 333 10027 87620=
88963 32965 32310 10019 21033 30149 40179 56012 80006
333 10059 21096 56006 83280 92407 95000 99650
555 64201 65092=
88968 32565 81412 11072 21101 30076 40092 57027 85506
333 11070 21110 56402 85620 83275 92417 92851 94069
555 64202 65091 D/INV=
89053 32962 02005 10002 21069 30197 40211 57023
333 10010 21049 92407 92840 95000
555 64167 65091=
89055 32860 52325 11030 21069 39928 40182 57004 85070
333 10014 21040 56050 85358 92843 95190
555 10166 64205 65126=
89066 32970 50000 11080 21098 30264 40272 57004 80005
333 11050 21101 56009 85270 92417 92840 95000
555 64157 65185=
81408 36/// /0000 10248 20243 40120
333 10315 58008=
81415 16/// /0000 10241 20236 40121 60171
333 10319 58010=
60710 32960 00000 10172 20148 30129 40208 57001
333 55141=
60714 32960 02905 10190 20154 30190 40197 58003
333 55134=
60720 32960 03006 10200 20169 30153 40189 58002
333 55135=
60738 32960 01608 10170 20102 38990 48574 54000
333 55138=
60740 32960 00000 10222 20173 30197 40200 50004
333 55134=
60745 32960 03508 10243 20112 39830 40190 52011
333 55132=
60750 32960 00000 10226 20200 30164 40196 58003
333 55136 22952=
91570 06/// /0208 10269 20247 30094 40097 50002 69944
333 20251 59022 69927=
91574 16/// /1914 10210 20188 30118 40124 58002 69924
333 20201 59013=
91598 06/// /1324 10187 30078 40110 58011 60034
333 20164 59017 69927=
89642 42975 71725 11103 21228 30086 40142 56030 87050
333 01847 11064 21141 87359 91041 91147=
78663 21560 83102 10230 20216 39410 40093 57002 75009 84920 333 0918/
10304 20214 30///
59009 82830 81940 86467=
16059 31857 60000 10157 20144 39813 40153 56007 71022 86070
333 86358=
16080 32660 60402 10179 20151 30023 40144 56012 86500
333 86635=
16153 32897 22206 10184 20145 39893 40151 58004 82080 92345 333
82358 555 0////=
16191 36/// /2107 10168 20149 30127 40144 56023=
16105 32962 42204 10163 20144 30144 40150 56006 84030
333 84358=
16066 31558 63602 10145 20116 39899 40150
52013 71011 86100 333 86830=
16084 31658 60000 10142 20139 39985 40149 58008 71022 83530 92345
333 83640 84358=
16120 32680 73502 10193 20159 30148 40151 55002 87500
333 87635 97080 555 0300/=
16090 32870 23403 10158 20154 30064 40145 58008 82030 92345 333
82357=
16110 32975 80000 10170 20104 30126 40150 58007 8807/ 92345 333
84359
84460 555 0////=
16134 31/00 93008 10070 20070 37839 48504 57007 74741 92340 333 89/00
=
16149 32964 02806 10154 20146 30133 40148 58017 92345=
16008 41213 81810 10064 20060 38520 48480 54000 71022 888// 92345
333 84806 86630=
16020 36/// /0000 10147 20093 39856 40141 56004=
16061 31240 80000 10106 20099 39322 42774 58007 71022 882// 92345
333
85803 83807=
16114 31520 70000 10144 20144 39502 42786 56007 71022 84260 92345
333 84820 83357=
16022 31/00 92005 10030 20029 37847 48478 57010 74344 92345 333
89/00=
16033 32562 80000 10076 20040 38781 48492 54000 885// 92345 333
88625=
16088 32960 20000 10150 20135 30035 40151 58013 82030 92345 333
82360=
16420 32598 30205 10228 20187 30108 40171 50001 83500 92345 333
83625 555 0////=
16429 32962 00000 10170 20167 30170 40181 50000 92345 333 55300=
11036 11880 71605 10142 20068 39890 40115 57020 69901 76061 8707/
333 82358 87459=
11010 166// /9901 10111 20110 39749 40119 57021 60031=
11120 163// /9901 10105 20103 39445 40135 57015 69961=
11150 167// /1707 10114 20098 39593 40120 57017 60061=
11240 369// /9901 10128 20094 39721 40129 57017=
11816 32870 51704 10145 20061 39970 40129 57018 85051
333 55133 85357 =
11826 32980 71304 10136 20042 39938 40133 57018 87070
333 55129 87360 =
11903 32981 00000 10063 20036 39780 40161 58006
333 55117 =
11934 32682 12702 10047 20032 39346 42780 58008 81500
333 55089 81640 =
11968 32780 13603 10092 20056 39879 40158 58008 81500
333 55040 81650 =
11841 36/// /0902 10076 20056 39770 40144 57016
333 55080 =
11858 36/// /1503 10128 20070 39996 40144 57012
333 55113 =
11916 46/// /1807 11006 21026 37954 48460 57011 6///1 =
11927 35/82 /0000 10074 20050 39898 40159 57002
333 55114 =
11930 46/// /2504 11046 21049 37354 47033 57009 6///1
333 55045 =
11993 36/// /1801 10089 20058 39946 40161 57006
333 55055 =
11855 35/82 /1201 10101 20059 39981 40145 57012
333 55118 =
11867 35/81 /3501 10083 20058 39838 40153 57015
333 55108 =
11880 36/// /0801 10078 20059 39980 40151 57009
333 55117 =
11918 36/// /0000 10042 20030 39340 42778 57008 =
11933 36/// /0601 10027 20023 38624 48474 57009
333 55082 =
11938 36/// /0602 10040 20033 39107 42778 57008 =
11976 36/// /0000 10089 20070 39902 40164 57005
333 55060 =
11978 36/// /0402 10091 20074 30031 40160 57005
333 55052 =
12772 32981 02804 10103 20039 39876 40158 57006=
12822 32975 31902 10143 20066 39996 40136 57015 83040=
12843 32975 01201 10094 20050 39985 40155 57009=
12882 32975 01301 10098 20078 30022 40155 58006=
12925 32984 82101 10118 20093 39975 40145 57015 82047=
12942 32968 73401 10111 20090 39913 40158 56017 8707/=
12982 32980 10000 10087 20063 30059 40160 57008 80002=
16242 31957 01001 10170 20163 30165 40168 50000 71000 555 0////=
16310 32997 03306 10186 20168 39951 40167 50001 92345 555 0////=
16158 31458 82614 10196 20164 30150 40157 58007 71011 888// 92345
333 55300 84814 84625=
16560 32970 03309 10200 20191 30190 40197 51001 92345=
10004 46/60 ///01 10110 20065 30150 40150 52004
222// 00123
333 55300=
10015 32484 23302 10092 20050 30134 40144 52005 81802
333 553// 81816=
10020 32484 33103 10081 20043 30105 40141 51004 83800
333 55/// 22407 55300 2//// 81816 83633=
10035 32670 12802 10060 20046 30086 40145 53003 81500
333 55/// 22510 55300 81640=
10055 32481 13006 10106 20068 30125 40135 53003 81101
333 55300 81818=
10147 32783 20101 10062 20037 30121 40139 53004 82500
333 55300 82656=
10162 16/60 /3601 10059 20051 30050 40134 51002 69901
333 55300=
10184 32870 32501 10064 20057 30127 40134 55001 83500
333 55300 83657=
10270 11980 00301 10074 20062 30079 40134 55003 69901 70281
222// 06158
333 55300=
10338 11980 60603 10090 20059 30055 40127 53001 69901 70262 8603/
333 55300 86360=
10361 32970 40000 10068 20046 30026 40130 55003 84030
333 55300 84363=
10384 32983 33401 10094 20060 30069 40129 55003 82031
333 55300 82360=
10393 32982 52401 10086 20061 30007 40133 56006 85040
333 55/// 21764 55300 20000 30000 85360=
10400 11575 80101 10098 20086 30079 40128 51003 69961 72162 8453/
333 55300 82525 83644 87363=
10438 11568 80000 10091 20070 39848 40128 56005 69901 76162 885//
333 55/// 21802 55300 81630 88643 96460=
10469 11781 71602 10097 20079 39965 40129 55007 69901 70262 8157/
333 55300 81650 84358 85460=
10488 11665 81302 10092 20078 39853 40132 56009 69951 76162 875//
333 55/// 22181 55300 87638=
10548 11458 83401 10072 20066 39582 40122 56009 60021 76165 8372/
333 55300 83710 88546=
10637 11158 80103 10097 20089 39982 40119 55004 60051 76366 8752/
333 55300 81703 83707 87614=
10685 11560 80502 10072 20072 39452 40122 56014 60021 76162 888//
333 553// 83820 87622=
10738 11159 82401 10108 20106 39640 40101 56007 60131 76366 8352/
333 55300 82703 83640 88550=
10763 11460 81002 10093 20088 39729 40107 57013 60061 76166 885//
333 55/// 21499 55300 20000 84618 87630=
10788 11258 81602 10103 20101 39676 40101 56019 60081 76366 885//
333 55300 85706 88630=
10852 11462 82101 10107 20100 39544 40102 58013 60111 76366 8652/
333 55300 82715 84640 88556=
10946 11565 82504 10123 20102 39296 40103 58009 60161 76062 875//
333 55300 83620 87630=
10091 32586 12805 10089 20052 30082 40133 53001 81200
333 55/// 22025 55300 20000 30000 81823=
10113 32583 10802 10092 20068 30122 40141 52004 81100
333 55/// 22937 55300 81820=
10129 32982 20202 10105 20055 30128 40141 53003 82030
222// 2//00
333 55300 82360=
10131 32581 10102 10101 20043 30126 40141 53003 81130
333 55300 81827=
10170 32584 12203 10081 20045 30115 40130 54000 81200
333 55/// 22364 55300 81830=
10253 36/60 /3301 10046 20040 30113 40135 53001
333 55300=
10280 36/60 /0802 10078 20066 30036 40134 56005
333 55300=
10291 32881 13401 10073 20069 30066 40133 57005 81500
333 55300 81656=
10305 16/// /3401 10097 20090 30106 40138 52003 69911
333 55300=
10315 11775 80302 10093 20079 30065 40129 55000 60011 76166 875//
333 55300 87650=
10348 32770 40000 10071 20049 30025 40132 56003 81531
333 55/// 22071 55300 81650 83075=
10427 11268 80802 10044 20037 39124 48432 55001 69951 76362 8272/
333 55300 81705 88459=
10453 11682 63603 10028 20007 38806 48438 56006 69901 70162 83571
333 55300 83533 86458 96460=
10474 11880 70602 10080 20065 39999 40128 56007 69901 70381 8151/
333 55/// 21995 55300 20000 81657 87462=
10490 16/59 /0000 10096 20076 30009 40130 56010 69901
333 55/// 21675 55300 20001=
10499 11560 80502 10092 20077 39842 40128 56015 69911 76162 8552/
333 55300 85621 88546=
10501 11230 80501 10092 20086 39877 40123 52003 60021 72166 885//
333 55300 86704 88610 96010=
10513 11563 80401 10094 20090 30005 40126 52001 60021 76162 875//
333 55300 82630 87640=
10532 11360 80102 10090 20088 39889 40123 57003 60021 76162 875//
333 55/// 21289 55300 82807 87626=
10554 11784 71804 10076 20063 39737 40123 56008 69901 70162 8257/
333 55/// 21950 55300 20007 82650 87361=
10577 11667 81201 10080 20068 39626 40126 56010 69971 76362 875//
333 55/// 21917 55300 20001 30006 87645=
10578 11/90 90904 10029 20027 38734 48435 56013 60021 76165
333 55/// 21821 55300 20006 30006 96045 96458 96451 96441=
10609 11108 80302 10095 20095 39786 40112 53002 60041 76166 886//
333 55/// 20978 88702 96046 =
10655 11256 80404 10090 20090 39782 40107 56012 60051 76166 885//
333 55/// 21314 55300 84704 87620=
10688 11560 80000 10088 20082 39591 40110 56014 60041 76166 888//
333 55300 84820 88636 96463 96461=
10708 11140 80501 10094 20091 39730 40111 53002 60061 76166 887//
333 55300 85703 88705 96263=
10729 11362 83603 10109 20100 39987 40107 56006 60061 75866 8752/
333 55/// 21086 55300 83708 86620=
10776 11350 81201 10101 20101 39670 40108 56018 60101 76366 885//
333 55300 85708 87616=
10803 11484 82209 10146 20115 39767 40118 55000 60331 76086 878//
333 55/// 20797 55300 81810 83816 87643 91123 91213 96482 96481 96465 96463 96
10836 11257 82604 10089 20087 39242 40095 56013 60121 76366 887//
333 55300 88706=
10929 11768 82405 10138 20128 39593 40112 55004 60031 76162 8557/
333 55/// 20816 55300 82650 85657 96463 96461 96460=
10961 11/00 92715 11019 21019 37054 47023 55001 60032 77174
333 55300 96049 91133 91224=
16170 11556 81304 10177 20175 30106 40151 56009 69941 75352 887//
333 88830=
16206 32870 13202 10164 20159 30151 40160 50001 81030 92345 333
81357=
16362 32560 32401 10211 20190 30149 40166 56002 83200
333 83820=
16460 32965 00000 10181 20167 30142 40162 55001
333 95000=
91348 11461 81406 10238 20233 30058 40110 50010 60824 78082 8637/
333 20222 5629/ 58012 70818 555 93100=
16480 32997 02602 10208 20164 30105 40165 58003 92345 333 55300
555 0////=
17601 32975 02803 10202 20136 40076 57008=
91408 12472 80804 10306 20244 30056 40094 52008 60034 82108 333
20233 562/1 59008 70028 555 93100=
11101 16/// /1301 10133 20122 39607 40118 60061=
11022 36/// /3603 10120 20061 39723 40104=
11028 36/// /2702 10129 20090 39774 40109=
11130 17/// /2003 10107 20099 39545 40122 60051 74044=
11157 11365 89901 10108 20096 39373 40125 58001 69951 76162 885// 333
81708 83650 87656=
11172 32665 80000 10112 20046 57013 885// 333 88640=
11204 36/// /0000 10102 20097 39372 40146=
11231 369// /0000 10108 20082 39587 40146 57011=
16270 32960 02403 10187 20185 30110 40162 55001=
16360 32997 00309 10206 20156 30014 40145 51003 92345 555 0////=
11423 01215 80903 10064 20064 39242 42740 57013 60051 76166 887//
333 55079 69985 88705=
11464 11370 80406 10051 20044 39153 42751 57017 69951 76166 887//
333 55074 88706=
11487 01263 80802 10082 20081 39501 40117 57018 60041 76162 8772/
333 55095 60025 86706 85616 88556=
11518 11570 80000 10089 20069 39690 40125 57012 69971 76162 885//
333 55098 83626 88640=
11603 01660 80000 10084 20068 39653 40129 56017 69911 76062 885//
333 55070 69915 88640=
11659 01465 89901 10084 20069 39493 40125 58023 60021 76062 887//
333 55113 69955 88711=
11782 32880 89901 10083 20074 39826 40139 57018 8807/
333 55117 88358=
16325 32998 03107 10216 20181 30123 40136 51002 92345 333 98070
555 0100/=
16252 32964 00000 10166 20148 39253 42810 55005 92345=
16261 32870 23003 10188 20174 30083 40154 58004 82030 92345 333
55300 82357 95090=
16320 32860 10000 10210 20210 30136 40148 51001 81030 92345 333
81358 555 0////=
17600 32970 00000 10180 20131 30071 40087 58006=
17609 32982 00000 10230 20117 30076 40078 55001=
16230 32970 02601 10172 20167 30136 40149 55009=
52740 16/// /3205 10040 29054 36855 60000
555 1/133 2//02 /////=
16219 31/00 92514 10102 20085 38165 48537 51002 74544 92345 333
89/00 95090 95190=
16520 32970 02004 10177 20177 30173 40200 57003=
16522 32998 02610 10184 20172 39971 40211 54000 92345 555 0////=
57002 70000 80/// 92350=
91203 11469 80911 10297 20251 30092 40097 51010 60014 70362 82376
333 20256 56299 70013 59005 82917 84368 85080 555 93100;
91317 11469 80905 10300 20271 30095 40099 52011 60264 70282 82352
333 20211 56299 70264 59002 82915 83365 85080 555 93100
=
33317 42975 03402 10092 20084 39822 40155 53007=
33345 41468 83003 10132 20117 39915 40105 58007 78082 889// 333
88710=
33506 42597 40000 10156 20142 39903 40191 57008 84500=
33631 42997 61202 10127 20067 30015 40155 58003 86030=
33658 42997 00000 10081 20065 39873 40171 54000=
33663 42997 32602 10127 20100 30052 40145 52002 83030=
33711 41360 83002 10163 20159
39889 40090 58002 78082 883// 333 88707=
33791 41997 83403 10170 20153 39938 40084 54000 70292 8805/=
33837 41565 83203 10165 20146 30055 40105 52008 78098 83304=
33910 42998 22702 10196 20180 30067 40085 54000 80004=
33946  42959 01604 10141 20100 39882 40095 58007=
34519 41660 71306 10188 20122 39841 40102 53001 78082 84930=
15004 32965 01402 10084 20073 39839 40151 57005=
15020 11965 03202 10098 20092 39966 40162 52002 69921 70261=
15090 01560 73207 10125 20089 30035 40160 51003 69971 70262 85570 333
69917=
15108 11/01 92704 11002 21002 38079 48498 58005 60011 74584=
15120 32960 02302 10072 20072 39681 40177 57005=
15150 11560 63202 10128 20099 36636 40162 52004 69911 70282 84530=
15200 32970 01101 10090 20055 30016 40160 58007=
15260 32965 00000 10068 20068 39649 40181 58006=
15280 31984 03414 11035 21035 37494 47025 58002 70141 333 41998 91120
=
15292 32970 00000 10070 20061 39905 40200 53004=
15310 32570 83205 10138 20107 30058 40142 52004 8457/=
15346 32962 03202 10124 20073 39875 40158 51007=
15350 11560 70506 10145 20103 30043 40158 52011 69921 70182 83470=
15360 01562 83610 10163 20152 30111 40122 52005 69911 70282 8497/ 333
69917 92437=
15410 32960 00000 10118 20098 30066 40162 51007=
15450 32960 02701 10120 20114 39936 40169 52011=
15460 01560 80502 10144 20127 30134 40158 52013 69981 72582 8397/ 333
69967=
15470 32960 52702 10128 20109 30029 40153 52014 85070=
15480 32960 83206 10170 20151 30127 40142 52013 8807/ 333 92427=
60715 32960 02902 10220 20137 30188 40193 57003
333 55136=
60725 32958 03302 10184 20155 30040 40208 50000
333 55120 22961 30166=
60735 32965 00000 10234 20133 30122 40202 54000
333 55131=
60760 32960 01216 10275 20132 30060 40166 50013
333 55134=
60765 32958 00604 10231 20155 30189 40195 50002
333 55130 22974=
60769 32960 01906 10225 20161 30188 40193 52003
333 55136 23211=
26038 42998 71802 10058 20037 30064 40110 52003 87030   555 10003=
26058 42998 82902 10100 20079 40118 53004 83042=
26141 42597 70000 10075 20060 40118 52003 83540=
26231 42997 22601 10094 20061 30110 40119 54000 82040   555 10008=
26247 42997 80000 10086 20084 30043 40124 51001 87038   555 11010=
57071 32970 02703 10269
20133 40005 52010 333// 05309=
17038 11540 70805 10183 20175 40117 53002 69941 78022 85650
333 83720 84830 85359 92426 96010=
17240 32975 00000 10132 20122 39005 40102 51004=
17244 32970 31102 10128 20108 38961 48481 57002 83050
333 83360 10088=
17022 32670 53002 10182 20166 40126 52004 83250 333
83834 85360 92428=
17050 11970 22903 10170 20147 40141 52006 69901 70182
82030 333 82360=
17060 32960 20000 10187 20149 40131 53004 82030
333 82360=
17096 32970 00908 10084 20054 38204 48457 57006 333 10074=
17124 32665 22605 10140 20120 39242 40121 51001 82100 333 82840=
17128 32670 20000 10104 20048 39044 40103 53001 82100 333 82840=
17170 32670 20000 10144 20037 38311 48471 57003 82100
333 82835 10055=
17195 11670 62703 10130 20114 38938 48488 58002 69921 70392 84150
333 84835 86359 10088=
17200 32970 31204 10170 20101 39120 40042 57005 83030 333 83360=
17219 32965 01304 10177 20092 40132 52004=
17280 32670 43002 10242 20089 39292 40023 53001 84200 333 84840=
17350 32660 60506 10200 20159 40074 55001 83150
333 83835 86360=
17034 11670 71502 10180 20167 40104 56006 69931 72582
84270 333 84835 87459 92428=
17210 32975 01801 10220 20058 39061 40019 51001=
17070 32565 22401 10128 20106 39278 40117 51002 82200
333 82833=
17084 32670 50000 10146 20131 39228 40091 58002 82550
333 82640 85360=
17150 32660 33402 10168 20124 40130 52005 83100 333 83835=
17160 11670 50000 10140 20124 38985 48486 51002 60011
70181 83150 333 83840 85360 10092=
17184 32970 00000 10200 20159 40120 52012=
17190 11670 33406 10140 20117 39004 48494 58002 60051 70191 81130 333
81840 83360 10109=
17234 32970 00000 10198 20134 40105 52005=
17260 32970 30000 10188 20086 39276 40040 57005 83030
333 83360=
17290 32970 00203 10220 20171 40119 51003 333 92428=
17370 32665 30000 10230 20204 40077 54000 83200
333 83835 92417=
54511 11657 80803 10187 20158 39992 40030 52009 69901 71060 885//
333 00051 79999=
17116 32960 32504 10184 20112 40132 52003 83030 333 83362=
17092 11970 00000 10170 20114 38800 48457 50005 69911 70181
333 10032=
17112 32970 00000 10189 20178 40138 51002 333 92408=
17115 32660 40401 10181 20116 40129 52005 83230
333 82835 84360=
17188 32970 00103 10136 20109 39091 40105 51003=
17202 32670 12004 10164 20071 39076 40049 58004 81200
333 81835=
17248 32975 01502 10108 20094 38942 48478 50001 333
10095=
17292 32970 03302 10190 20125 39379 40094 51002=
17300 32970 00104 10210 20150 40086 50000=
17330 32970 02202 10216 20153 40073 56004=
17042 32670 52202 10205 20190 40117 52007 83250 333
83835 85360 92428=
17085 32670 63301 10160 20146 40101 51001 83250 333
83840 86360=
17237 32970 43203 10210 20130 40102 52007 84070 333
84360=
17270 32970 02708 10226 20116 39437 40033 57007=
17375 32975 00901 10200 20169 40086 54000 333 92408=
17074 32970 02002 10118 20111 39210 40113 54000=
17140 11665 51101 10130 20113 38670 48468 58002 69991
70282 83250 333 83840 85360 10071=
17205 32980 00000 10120 20067 38310 48476 54000 333 92418 10067=
26242 41596 80000 10088 20086 30039 40124 52003 71022 8257/   333
82621   555 11009=
41170 32964 02602 10269 20192 39998 40011 333 58002=
12205 32965 02301 10048 20041 30127 40135 57002 =
12465 32970 11101 10084 20073 39918 40149 58006 80002=
12560 32698 20000 10087 20059 39807 40149 58011 81530=
12250 32997 00000 10050 20039 30056 40145 58001 =
12330 32962 71101 10092 20066 30033 40140 56005 8705/=
12375 31970 30000 10063 20059 30024 40155 58004 71100 82031=
12105 32997 11601 10066 20058 30094 40136 56002 81030=
12270 32597 30000 10061 20055 39970 40153 54000 83500=
12300 32965 00000 10080 20064 30047 40137 56006 =
12360 32997 01101 10059 20051 30016 40150 57004 =
12385 31996 20000 10064 20060 39967 40157 56002 71000 80002=
12495 32997 10000 10061 20053 39871 40164 56001 80001=
12570 32997 10000 10053 20049 39845 40164 57004 80001=
17250 32675 51101 10111 20099 38777 48484 54000 83260
333 83840 85360 10094=
26045 42998 62002 10066 20059 30114 40119 52005 84072   555 11008=
54753 32762 61803 10183 20136 30040 40046 52001 86500
333// 05251=
59287 32560 51601 10280 20255 30039 40088 52015 85200 333XX
05200 =
12160 32997 01303 10067 20061 30088 40141 57001 =
12230 32962 00000 10040 20033 30051 40142 57004 =
12399 31996 00000 10064 20058 39991 40160 50002 71000 =
12469 32698 31301 10077 20061 39922 40153 57007 81508=
12540 32997 71301 10099 20076 39887 40135 58015 8703/=
12566 32970 20801 10077 20063 39865 40154 58009 82030=
12625 32960 00000 10036 20023 39161 42779 58011 =
12690 32597 31301 10068 20060 39665 40175 58005 83500=
12115 32598 12104 10073 20048 30120 40133 56002 81200=
12200 32980 02101 10054 20045 30129 40136 55001 =
12285 36/// /1901 10052 20046 30036 40152 57003 60021=
12345 32560 31401 10076 20068 30001 40145 58007 83500=
12455 32970 51203 10082 20070 39901 40145 58011 80006=
12580 32960 00000 10040 20031 39920 40168 58005 =
12600 32970 71103 10084 20049 39668 40147 58012 80002=
12660 32560 30901 10085 20073 39805 40161 58009 83500=
82100 333 05200 79999=
44454 42457 60000 10184 20177 38604 48441 83832 333 59006=
26115 42998 11905 10087 20081 30083 40097 58004 80001   555 11007=
11406 11340 80602 10081 20075 39562 40120 57013 60031 76166 887//
333 55053 88706=
11457 01970 89902 10056 20056 38829 48436 57018 60041 76166 8807/
333 55068 69985 88358=
11520 01570 82201 10094 20075 39762 40125 57010 69961 76162 8172/
333 55095 69945 81726 88550=
11636 01765 80302 10082 20076 39446 42748 56029 60021 76162 8802/
333 55104 69945 88556=
11679 11360 80601 10095 20084 39654 40136 58012 69901 76162 887//
333 55129 88708=
11723 11765 81203 10132 20081 39825 40115 57023 69901 76162 8802/
333 55115 88456=
11766 32984 81602 10095 20011 39257 42759 58018 80007
333 55119 88266=
11774 32980 71604 10132 20045 39857 40123 57021 87032
333 55134 87359=
11787 32889 61607 10056 21014 38641 48463 58015 86050
333 55112 86357=
26135 42997 71101 10055 20043 30041 40121 52006 87042   555 11005=
40055 52004 71000 8802/ 333// 05101
79999=
70026=
59456 32970 20000 10264 20237 40082 52015 80002 333 05151=
58926 31750 40000 10256 20225 40085 52018 71000 81140 333
05200=
58944 32465 62203 10266 20240 40078 52015 85130 333 05303=
51468 16/// /3200 11012 29065 36558 60001
555 1/124 2//00 /////=
58464 11430 82202 10203 20198 40063 52023 60461 76098 8777/
333 05100 70812=
58725 32960 70000 10264 20234 39811 40058 52009 8704/ 333
05303=
58424 11662 82001 10206 20190 30039 40062 52018 69901 70060
885// 333 00151 70666=
58326 31530 80000 10202 20196 40065 52013 72840 885// 333
00001 70085=
58820 31959 70000 10256 20229 40061 52012 71000 86042 333
05302=
57545 31/02 90000 10166 20164 40088 52013 74700 333 00000
70032=
51243 32880 70201 10221 20075 39519 40022 52006 81462 333
05402=
52203 32780 60203 10232 20059 39197 40006 52005 81432 333
05105=
58921 32665 22901 10264 20220 39841 40073 52017 81102 333
05302=
58203 31930 01803 10197 20179 30002 40046 52010 71000 333
05102=
58221 31957 01803 10206 20180 30023 40057 52008 71000 333
05102=
58531 11680 83401 10224 20221 40051 52014 60041 76098 885//
333 05101 70799=
58015 31556 81404 10187 20176 40036 52010 71000 885// 333
05101=
58102 32960 02003 10194 20175 39986 40035 52010 333 05203=
58215 31530 11803 10194 20189 40054 52010 72840 81100 333
05102 79999=
58314 32965 02901 10199 20180 39976 40061 52018 333 05102
70023=
58437 11/00 93402 10147 20147 38134 52018 69921 74564 333
00052 70675=
58319 31520 83401 10197 20197 40062 52017 71000 885// 333
00000 70237=
58321 31906 02002 10202 20197 467 52022 69931 70060 8807/
333 00100 70413=
57328 31/00 90402 10174 20172 39690 40086 52011 74540 333
05151=
45007 11465 53301 10303 20247 30078 40087 53020 69902
70281 85200  333  20279 59009 79999 82814 83825 =
58241 31530 70402 10204 20183 40060 52015 71040 875// 333
00003 70001=
58730 31770 70000 10246 20237 40057 52013 72840 8751/ 333
05301 70106=
58754 32960 70000 10246 20230 40057 52017 87030 333 05503
79999=
58911 31658 70000 10248 20232 40082 52018 71000 875// 333
05200=
50353 32670 11603 10148 20054 39878 40089 57001 81130 333
00104 30039=
50756 32970 11103 10190 20050 39784 40062 52003 80002 333
00001=
50978 32580 60404 10160 20071 39799 40077 52009 85802 333
00353 79999=
57206 31650 81101 10216 20180 40069 52014 71000 884// 333
05205=
57713 31/02 93601 10146 20144 40093 52007 74740 333 00052=
57251 32976 00000 10207 20158 40048 52011 333 05203=
57259 31459 70000 10161 20153 40072 52011 71000 876// 333
05151=
57279 31956 81603 10169 20166 40057 52006 71000 8802/ 333
05200=
57355 32570 10000 10184 20163 40091 52013 81100 333 00102
79999=
57378 11958 81803 10190 20182 40065 52011 69901 76000 8807/
333 05202 70023=
57385 31658 81603 10190 20172 40056 52011 71000 8257/ 333
05202 70018=
57399 32760 72202 10202 20171 40075 52016 8354/ 333 05102
70021=
57458 32980 00000 10152 20147 40089 52011 333 00100 70057=
57461 31908 81402 10182 20182 39905 40061 52010 74240 8807/
333 05100 70018=
57494 32968 81401 10193 20174 30035 40063 52012 8807/ 333
05201 70089=
57554 11/08 90000 10188 20186 40083 52015 69921 74354 333
00001 70102=
57574 31915 81802 10188 20186 40063 52012 72844 8807/ 333
05100 70103=
57655 31950 80000 10199 20190 40083 52014 71040 8807/ 333
05103 70123=
57745 31925 80000 10198 20192 39767 40081 52009 71000 8807/
333 00002 70153=
57774 31756 80000 10214 20208 40071 52012 71000 885// 333
05102 70089=
57776 11680 72207 10179 20171 40077 52013 60011 72184 875//
333 05151 70058=
57799 31756 83402 10258 20244 39987 40067 52030 71000 885//
333 05100 70046=
57845 11758 80000 10201 20195 40083 52015 69931 76060 885//
333 00251 70328=
57853 11765 72201 10224 20192 40077 52013 69901 70080 86540
333// 00002 70053=
57972 11730 83602 10248 20234 39862 40074 52020 69901 76000
885// 333 00052 79999=
58338 31650 80000 10204 20195 40062 52018 71000 885// 333
00051 70230=
58402 31759 80000 10194 20178 40085 52022 71000 885// 333
00001 70125=
58407 11960 82702 10199 20178 40072 52021 69901 70060 8807/
333 00001 70206=
52787 32980 30205 10110 21090 37029 52005 80002 333 05203
30002 79999=
52996 32980 11406 10137 20069 37535 52003 80002 333 05303=
53923 32980 22502 10207 20056 49999 52013 80002 333 05205=
58846 32960 70000 10278 20238 40062 52014 80002 333 05505
79999=
58918 32480 71602 10255 20229 40092 52020 871// 333 05201=
59126 31658 61201 10264 20239 40096 52019 71000 86400 333
05201=
59133 32561 12004 10257 20244 40083 52020 81102 333
05302=
53764 32968 10402 10193 20051 40022 52008 80002 333// 00002=
50983 32970 20704 10169 20077 40081 52002 82030 333 00451=
58362 11960 83402 10212 20196 30044 40054 52019 69991 70060
8802/ 333 05101 70315=
47401 32/70 53604 10138 20093 30102 40115 51010 81232 333
20077=
47412 32/70 71003 10199 20076 30058 40088 58004 83232 333
20124=
47420 32/80 61605 10146 20043 30080 40126 51011 80002 333
20073=
47426 12/70 82702 10150 20091 30057 40100 55007 69902 83032
333 20100=
47582 32986 81402 10195 20097 30041 40066 58016 8807/ 333
20151=
47590 32970 81303 10206 20110 30033 40083 55000 86077 333
20189=
47600 11/65 81904 10190 20149 30050 40066 50006 69902 76122
8172/ 333 20174=
47648 32/65 71706 10234 20172 30057 40089 56001 81132 333
20197=
47662 11/60 72204 10241 20130 30040 40081 57002 69902 72122
8707/ 333 20215=
47678 12465 72104 10236 20203 30003 40095 58002 69902 8227/
333 20197=
47740 11157 80902 10162 20151 30008 40045 57007 60092 76366
8672/ 333 20150=
47778 11/15 81003 10186 20174 39984 40071 58003 60052 76122
8672/ 333 20184=
47807 11/60 80701 10204 20187 30007 40024 52007 60212 78086
882// 333 20165=
47827 11/50 80601 10208 20195 30017 40053 50000 60152 78062
8627/ 333 20181=
47843 11256 81904 10216 20201 39995 40025 51006 60242 78186
882// 333 20178=
47898 11275 80307 10181 20176 30013 40051 56009 60182 70286
882// 333 20163=
47909 11/75 71703 10275 20231 30076 40084 51006 69902 78082
872// 333 20242=
47918 32/75 42007 10293 20253 30084 40092 53015 82801 333
20274=
47936 32/65 72006 10273 20246 30037 40097 51010 872// 333
20253=
47945 11/10 71905 10262 20250 30086 40109 52001 69902 74454
876// 333 20245=
47971 12/80 61904 10262 20237 30124 40133 51004 69902 82232
333 20235=
47991 11/70 71305 10283 20242 30151 40161 51006 69952 70281
8227/ 333 20242=
56748 32580 60000 10175 20159 38325 52015 83442 333 00051=
56763 32580 70000 10218 20205 40053 52012 86442 333 00253
70075=
56959 32562 70000 10222 20215 40057 52016 86460 333 00051
79999=
56986 11062 80000 10195 20189 40069 52016 69971 79500 889//
333 00151 70007=
57237 31956 70000 10183 20167 40087 52009 71000 8704/ 333
00003=
57265 11725 82001 10195 20184 39941 40047 52012 69901 71054
885// 333 05202 79999=
57583 32562 22201 10202 20178 40073 52020 82100 333 05102
70098=
51076 32980 70000 10159 20075 39218 40038 52002 81062 333
05302=
51288 32980 60902 10121 21015 38292 52007 81032 333 05252
30041=
51463 32780 72004 10182 20040 39016 40043 52003 82462 333
05301=
51053 32680 72001 10168 20073 40032 52005 81462 333 05400=
51379 32680 71803 10185 20083 40054 52005 84962 333 05304=
51730 32970 20201 10126 20092 40041 52002 80002 333 00255
79999=
52681 32980 70000 10176 20041 38565 70015 52015 82042 333
05102=
52323 32780 73602 10175 21104 38187 52005 83502 333 05105=
56029 32980 70000 10028 20012 36513 52006 80002 333 05400
31012 70003=
52713 32980 73601 10092 21065 36896 52002 80002 333 05404
30022=
51886 32870 71604 10090 21058 37113 52010 81502 333 00000=
52602 32980 73405 10113 21108 37254 52007 80002 333 05306=
52866 32970 70000 10090 20036 37673 52007 80002 333 05400
30034=
56080 32980 60000 10072 20021 37147 52007 80002 333 05301
30005=
52436 32980 71402 10168 20010 38405 40017 52006 81032 333
00104=
56018 32980 70000 10016 21001 36211 52006 8701/ 333 05402
31010=
52737 32780 80704 10110 21027 37065 52007 83547 333 05404
30043=
52943 32680 70401 10070 20002 36800 52007 85502 333 05504
30003=
56065 32680 71101 10028 21002 36643 52006 85502 333 05303
31046=
51431 32980 60901 10139 20098 39324 40073 57001 80002 333
05100=
51334 32980 11602 10177 20086 40047 52004 80002 333 05301=
51765 32980 70702 10181 20092 39096 40023 57007 86032 333
00255=
51467 32680 60000 10100 20057 38225 52002 81502 333 05153
70036=
51495 32780 73608 10246 20004 40091 52010 82502 333 05101=
51542 11680 72202 10040 20032 37550 57002 69941 70080 83902
333 05201 30013 70016=
52118 32680 72207 10151 21001 38233 52011 85902 333 00101=
47575 32/65 83502 10170 20121 30079 40083 57006 8157/ 333
20142=
47585 32975 70303 10166 20107 30031 40086 56002 87072 333
20140=
47598 31/12 71602 10178 20151 30079 40085 58005 71022 81602
333 20142=
47602 32/75 81403 10202 20106 30038 40057 56001 888// 333
20171=
47618 11/58 82103 10166 20128 39391 40084 53009 69952 76162
8177/ 333 20166=
47624 11/50 81301 10201 20155 39951 40082 58001 69902 76122
8652/ 333 20181=
47636 11/30 81303 10192 20180 30014 40079 58001 60022 76122
8672/ 333 20187=
47655 11/57 80403 10208 20158 30033 40087 55001 69902 76162
8382/ 333 20184=
47750 11/68 82404 10182 20147 30032 40058 58010 60022 76062
8172/ 333 20170=
47755 11250 82001 10174 20168 30013 40037 53001 60192 76166
8672/ 333 20165=
47772 11/65 80301 10202 20139 39964 40059 58012 69902 72162
8182/ 333 20197=
47800 11457 83402 10176 20161 30010 40032 53001 60312 76366
8372/ 333 20158=
47815 11/58 83203 10182 20167 30018 40033 56008 60232 72562
8627/ 333 20161=
47817 11215 82205 10219 20209 39991 40031 51004 60082 78082
882// 333 20172=
47830 11/20 81501 10192 20179 30033 40050 58004 60142 78062
8727/ 333 20171=
47837 11/70 72206 10259 20230 30039 40060 51003 60232 70282
84831 333 20202=
47891 11/60 80902 10201 20159 30032 40043 56016 60022 72162
8177/ 333 20180=
47899 11/01 90506 10168 20163 39840 40057 58013 60082 76362
333 20161=
47927 32/70 72006 10282 20254 30049 40095 53014 87201 333
20264=
51855 31958 80000 10191 20038 40007 52010 70600 80007 333
00201=
44219 32998 20907 10130 20006 38585 40087 52008 80004 333
20112 555 30067=
44221 32999 00000 10083 20053 38543 40124 52005 333 20021
555 30004=
44224 32999 00000 10060 21028 38029 40127 52003 333 21006
555 31028=
44266 32999 63605 10083 21009 37763 40102 53002 83084 333
20055 555 30019=
44291 32898 70000 10119 20059 38687 40140 52010 81042 333
20037=
44325 32999 30000 10160 20074 38774 40061 52015 82088 333
20131 55/// 555 30107=
44329 32998 00000 10106 20041 37734 40048 53008 333 20037
555 31020=
44348 32997 30502 10152 20081 38647 40080 53024 83080 333
20096 555 30086=
44374 32999 61803 10159 21005 38212 40023 53008 81042 333
20101 555 30060=
44385 32999 13202 10152 20034 38833 40060 53024 80001 333
20110 555 30088=
44386 32999 20000 10151 20031 38964 40062 52032 82060 333
20113 555 30095=
56172 32980 00000 10046 20027 37376 52008 333 05154 30025=
56444 32680 70000 10091 20077 3829/ 52003 87100 333 00001=
56691 32571 10000 10146 20107 37767 52005 81542 333 00004=
57902 32462 73601 10183 20172 38594 40079 52011 875// 333
00253 70038=
52836 32980 81602 10119 21011 36891 52009 8802/ 333 05406=
52955 32980 21403 10088 21021 36967 52006 80002 333 05402
30014=
52986 32980 70202 10133 20057 38052 52009 81042 333 05501
30049=
56021 32580 70000 11005 21016 36112 57001 84802 333 05300
31031 79999=
51818 31857 72501 10178 20099 40014 57003 70600 82502 333
05151=
51705 11780 70000 10103 20053 37809 52009 69921 78080 879//
333 00151 70002=
51644 32980 10000 10135 20089 38858 40041 52002 80002 333
00259 79999=
54539 11670 81601 10172 20148 30035 40049 52009 69901 72500
884// 333// 00053 79999=
54436 11670 72501 10166 20135 40042 52003 69901 72100 82102
333// 00056 79999=
53664 32970 81403 10188 20099 40019 52017 8807/ 333// 00051=
53698 31940 00000 10219 20181 40025 52010 71000 333// 00003=
84160 22234 04260 20402 311// 40402 80255=
83498 22253 0//// 20407 3//// 4//// 5//// 6//// 80235 ICE=
56079 32980 00000 10054 21008 36714 52007 333 05203 31045=
56144 32980 00201 10042 20013 36889 52005 333 05300 30018=
56167 32980 00000 10067 20029 37128 52011 333 05153 30016=
56173 32980 00000 10045 21009 36681 52006 333 05200 31017=
56182 32980 00000 10050 21011 37225 52005 333 05154 31005=
57707 32971 10000 10156 20094 38465 52007 81030 333 05102=
57731 31440 83602 10189 20181 40092 52011 71000 885// 333
00001 70001=
57832 31/08 90000 10184 20182 40085 52012 74340 333 00002
70040=
57916 11430 80000 10216 20212 40082 52017 60181 71098 885//
333 00353 70198=
57922 11430 81103 10183 20180 40089 52013 60211 76098 887//
333 00254 70334=
57932 11157 80000 10217 20214 40087 52019 60071 76098 887//
333 00251 70182=
59995 11480 82207 10282 20238 30059 40067 52012 60021 70080
82212 333// 00100=
31004=
10836 11257 82604 10089 20087 39242 40095 56013 60121 76366 887//
333 55300 88706=
91317 11469 80905 10300 20271 30095 40099 52011 60264 70282 82352
333 20211 56299 70264 59002 82915 83365 85080 555 93100
=
84270 333 84835 87459 92428=
83840 86360=
81100 22225 04293 20202 80253=
83881 22253 20201 329// 40503 80165=
62402 31004 99548 10046 41/98 /2207 10101 20072 40142 56005 7////
8//// 22200 00100 20302 334// 40202 5//// 80086=
85460 22283 02203 20504 80164=
50758 32970 30905 10190 20064 40059 52004 80002 333 00051=
50656 32975 21602 10184 20061 40074 57001 80002 333 00101=
51811 32962 00000 10135 20070 38705 40031 52005 333// 00054
79999=
51526 11875 72904 10199 20082 40043 52009 69901 70060 87502
333// 00152 79999=
59021 11458 80000 10244 20237 40062 52014 60151 72586 887//
333// 00151 70153=
51642 11775 20402 10142 20092 40047 52008 69951 70080 81402
333// 00359 70005=
51437 32780 10000 10053 20025 38114 57001 81402 333// 05100
30013 70005=
56251 32980 00000 10039 20025 36986 52008 333 05153 30018=
53195 11980 62904 10144 20093 40016 52013 69901 70060 84032
333// 00454 70118=
53192 11575 70000 10126 20081 38784 40030 52018 69991 78080
87902 333// 00351 70009=
50915 11580 70705 10143 20060 39089 40037 52019 69901 72500
87900 333// 00658 70032=
54208 32965 71401 10132 20103 38649 40021 52010 84032 333//
00051 30042 70034=
54012 32580 70902 10139 20093 38918 40034 52019 86202 333//
00455 70130=
50948 11570 81802 10166 20142 40039 52002 60121 78098 889//
333// 00455 70121=
52974 32980 60000 10123 20040 37504 52007 81042 333 05502
30033=
56043 32680 70000 10032 21002 36485 52007 82502 333 05302
31028=
52825 32980 70000 10130 21001 37228 52014 80002 333 05407=
56034 32980 70000 11002 21033 35948 57002 80002 333 05303
31048 79999=
52876 32970 72902 10152 20036 38130 52011 80002 333 05403=
52765 32980 22901 10056 20007 37181 52007 80002 333 05201
31020=
56067 32980 10000 10021 21014 36561 52003 80002 333 05301
31010=
52633 32980 71402 10042 21021 36766 52006 80002 333 05102
31012=
56038 32980 60000 10006 21025 36131 54000 80002 333 05300=
59303 32562 30902 10274 20237 40088 52017 83400 333 05200=
59478 32575 22001 10284 20243 40085 52015 81202 333 05200=
56188 31956 00000 10192 20156 40069 52008 71000 333// 05102=
51716 32965 60000 10156 20094 38831 40045 52009 86062 333//
00400 79999=
54351 32962 80000 10182 20133 40058 52005 80007 333// 00255=
51356 32970 61401 10187 20106 40043 52006 85062 333 05300=
56178 32980 03602 10132 20044 37684 52009 333 00152=
51701 32580 30000 11008 21032 36641 52001 82402 333 00000
79999=
54428 13/// ///// 69902 333// 79999=
63980 42480 51205 10262 20231 40112 85200 918//
333 58006 85818 85075 943// 91125=
91925 32480 20914 10281 20232 30041 40099 56019 81201
333 20229 56209 58016 81816
555 10923=
91938 01465 73514 10304 20250 30079 40082 58016 60034 71582 8693/
333 20267 56899 58011 69907 81915 85816
555 13627=
91943 32575 30416 10294 20240 30100 40103 56016 83200
333 20265 56100 58018 83820
555 10425=
91948 12582 63606 10260 20229 30043 40144 55008 69944 86200
333 20236 56800 58029 86820
555 13623=
91954 11457 73221 10257 20220 30018 40021 56015 60104 71611 878//
333 20229 56799 58007 81810 85820
555 13133=
91958 01460 72910 10233 20202 30014 40016 56012 60314 72582 85202
333 20219 56709 58000 60097 85818 87073
555 13235=
13585 42998 00000 10120 20109 39389 40157 54000=
13598 42998 00000 10097 20077 48482 54000=
76122 32680 53601 10336 20007 38483 49993 57022 82462 92345
333   10364 20162 30/// 50960 56669 59017 70000 82335 82357
=
76225 32460 80000 10310 20109 38541 40010 57015 88400 92345
333   10335 20206 30/// 50840 56500 59009 70000 88620=
76342 01562 72201 10286 20216 39407 40075 54000 69921 76262
83920 92335 333   10360 20240 31/// 50700 56350 59007 69927
70002=
76390 31560 80704 10230 20148 38201 40030 57002 70544 82446
92340 333   10294 20166 30/// 50340 56876 59007 79999 82630
83356=
76402 31858 33203 10258 20153 30053 40113 57004 70634 80050
92345 333   10290 20160 30/// 50530 58016 70000 83357=
76405 32680 41807 10276 20149 30078 40098 57007 84230 92345
333   10347 20058 30/// 5//// 56530 58027 70000 82840 82356
=
76412 31766 12203 10316 20178 30084 40124 57013 70544 81030
82340 333   10364 20210 30/// 51020 56030 58016 70000 81356
=
76423 01470 83203 10212 20125 38136 40056 57001 69901 75052
87580 92350 333   10330 20150 30/// 50480 56990 59013 69907
79999=
76471 01680 62504 10192 20129 37682 40033 57013 69907 70592
8630/ 92330 333   10251 20109 30/// 50010 5650/ 58004 69904
70002=
76491 32556 20901 10334 20191 39701 40089 57017 82200 92345
333   10380 20215 30/// 50810 56700 59020 70000 82825=
76539 31970 70704 10226 20141 38093 40011 57004 70544 87020
92352 333   10277 20132 30/// 50590 56050 59006 70000 87460
91107 91511=
76640 32458 40903 10308 20246 30090 40120 57010 83401 92340
333   10364 20242 30/// 50560 569/9 59006 70044 83619=
76654 31464 22803 10297 20232 30095 40099 57005 70544 82200
92352 333   10316 20243 30/// 56820 56800 58003 70000 81820
=
76656 32575 80000 10215 20163 38489 40068 52002 8552/ 92348
333   10302 20150 30/// 50390 5639/ 58004 70000 85620 83458
91106 91516=
76685 01560 70000 10164 20130 37852 40050 52004 60031 72954
87700 92350 333   10242 20138 31/// 50400 56900 58007 60031
70183=
76687 11562 81602 10200 20171 38624 40107 57008 69941 71462
888// 92345 333   10235 20164 31/// 50010 563// 59004 69906
70183=
76698 32660 40503 10295 20238 30063 40078 55000 8225/ 92354
333   10345 20225 31/// 50520 5622/ 59009 70000 82820 82358
=
76723 32965 52004 10278 20214 30060 40090 57016 80007 92340
333   10303 20235 30/// 58013 85280 92302=
76726 01450 82501 10223 20214 38367 40041 55010 60024 79517
887// 92350 333   10288 20163 31/// 50350 568// 59001 69975
70012=
76737 01480 73601 10196 20182 38748 40095 56005 60021 76066
8567/ 92345 333   10240 20168 31/// 50110 5629/ 59001 60017
70162=
76220 32880 82702 10250 20100 38147 40053 52010 88500 92345
333   10330 20100 30/// 5///0 56700 58/// 70000 88427=
76393 32666 71202 10328 20182 39499 40060 57013 81226 92350
333   10347 20230 30/// 50580 56355 59013 70000 81849 82460
84075=
76519 12560 80000 10232 20143 38325 40065 52001 69963 8132/
82340 333   10327 20154 31/// 50420 56220 58001 70019 81328
87460=
76548 32470 31303 10288 20236 30076 40106 56006 81204 92340
333   10315 20256 30/// 50510 56305 59005 70000 81813 82082
=
76556 32565 52805 10262 20212 39062 40050 57009 84220 92332
333   10300 20200 30/// 50450 56380 58002 70000 84815 81460
=
76658 31560 21408 10294 20176 39601 40139 54001 70540 82300
92347 333   10346 20220 30/// 50780 56100 58/// 70000 82922
94093 98904=
76662 32670 70000 10224 20159 38425 40051 57016 87500 92340
333   10290 20160 31/// 50440 56200 59013 79999 87633=
76741 31460 63602 10286 20243 30069 40089 57011 70544 85201
92335 333   10305 20242 30/// 50890 568/9 59010 70490 85814
=
76762 31980 61803 10218 20179 38740 40086 56008 70222 86020
92340 333   10253 20186 31/// 50130 56020 58003 70027 86460
93016=
76805 31570 62702 10294 20240 30095 40095 57001 71421 8446/
92340 333   10348 20252 30/// 50690 5688/ 59003 70000 84622
82356=
76848 11360 81401 10192 20170 38360 49965 53004 60031 70265
8462/ 92340 333   10260 20168 31/// 50390 5639/ 58003 69957
70355=
76903 01665 80401 10240 20217 39985 40115 53016 72205 83942
92345 333   10350 20244 31/// 50374 5632/ 59016 70047 81933
82633=
91811 31598 82408 10277 2024/ 40087 70322 8582/ 333 20250
5659/=
91843 31598 52311 10241 20165 40062 58009 70312 84201 333
20198 565/9 84823 85080=
91643 31599 21118 10314 20246 40082 58013 70200 82100 333 20277 563//
8
2
8
2
0
=
91631 11599 30908 10297 20247 40089 69901 70128 83200 333 20266 562//=
91636 11499 51113 10304 20254 4//// 69921 71682 82306 333 20252 562/9=
91648 31599 21705 10302 20242 40099 58009 70200 82200 333 20273 564//=
61990 42470 41102 10214 20198 40178 84800
333 58015=
61995 41465 31003 10196 20190 39696 71581 83800
333 58014=
61988 42575 20903 10226 20202 40183 82200
333 58013=
86330 32998 32208 10114 20083 40156 53011 80006
333 10204 20110=
86360 32997 22505 10112 20096 40173 52020 80005
333 10190 20112=
86460 31998 12706 10114 20094 40142 51002 80005
333 10166 20114=
86500 32598 32904 10128 20099 40123 52015 83500
333 10191 20118=
86560 11597 72324 10131 20108 40150 52015 69901 72022 85470
333 10144 20113=
86565 31497 62409 10134 20111 40104 53006 82476
333 10167 20120=
86580 11497 71816 10132 20109 40130 52018 69901 70262 87470
333 10148 20125=
68994 11598 43023 10037 21027 39865 49892 52006 60041 72100 84500
333 10065 20026 91032 555 20038 90989=
48698 31464 72604 10275 20236 30063 40081 70592 83838 333 20259
58005 82815 85278=
81401 31965 01002 10255 20237 40120 70091 80000
333 10302 58010=
61641 32358 73206 10223 20200 30092 40125 87600
333 0//00 58004 87710=
61679 32960 02806 10243 20228 30119 40127
333 0//00 58006=
61695 32460 22802 10244 20234 30092 40118 82500
333 0//00 58003 82616=
60020 32965 01602 10197 20155 30135 40179 55002
333 924/7=
78792 11459 81104 10262 20234 30095 40110 52014 60011 71396 8496/
333 10322 20241 31/// 562// 58014 84918 86358=
78793 11350 80904 10236 20230 30076 40107 52021 60101 79598 8492/
333 10314 20228 32/// 564// 57940 58005 70225 81908 83810 88458=
78795 11462 80000 10242 20230 39995 40095 52012 60051 72996 82560
333 10328 20218 32/// 560// 58002 70050 83608 85357=
61442 32957 03604 10223 20177 30111 40115
333 0//00 58004=
61450 31930 03605 10325 20010 39664 40199 705//
333 0//00 59003=
61461 32958 00000 10358 20080 30002 40103
333 0//00 59005=
61499 31956 00404 10340 20012 39827  40069 707//
333 0//00 59019=
78397 32570 50310 10285 20246 30114 40130 83902 333 01009 10330 20245
58008 83920 85070=
78970 11465 70806 10259 20244 30105 40130 70686 8387/
333 00299 10298 20240 58012 81818 87460 90916=
78958 01450 81214 10235 20231 30124 40134 60141 78086 8787/
333 10282 20231 58018 70277 85810 86458:=
91772 31499 41709 10277 20182 40117 70210 84800   333 20190 563//=
91784 31599 11510 10252 20167 40122 70200 81101   333 20220 563/9
81820=
91785 31598 51315 10259 2022/ 70322 852//   333 20229 563//=
91786 31598 61813 10252 2017/ 40129 70222 864//   333 20223 564//=
91792 31599 31411 10246 20152 40140 56009 70200 83100   333 20201
563// 84824=
61697 32958 00108 10237 20222 30110 40124
333 0//00 58002=
71918 460// /0426 11071 39794 40215 50000 333 11065 21082=
71261 36/// /1808 10191 20091 39914 40169 55011 333 10211 20109
70000=
71265 36964 00710 10139 20097 30096 40189 50000 333 10193 20107
70000=
71103 17964 03307 10114 20073 39536 40195 53009 60011 7//4/ 333
10190 20011=
71115 17/// /1205 10134 20093 69981 7//4/ 333 10193 20049 70008=
71121 36964 00512 10158 21076 39403 40225 55001 333 10168 21006
70000=
71127 46664 30115 10109 21048 39497 40232 51006 333 10113 21038=
71143 36/// /3120 10118 20038 39819 40130 53018 333 10140 20073
70000=
76050 31264 62708 10210 20180 30103 40113 52011 6//// 705//
86500 92350 333   10210 20160 30///=
76382 32580 70000 10301 20198 38831 40014 57016 87279 92353
333   10315 20205 31/// 50920 56550 59008 28112 84458 810//
=
76644 12460 30504 10302 20233 30094 40104 57004 60011 83130
92355 333   10367 20235 31/// 50300 5622/ 59012 70012 82820
81330=
76743 31456 62001 10290 20244 30077 40097 55003 70222 86500
92345 333   10333 20244 30/// 50240 562// 59006 70084 86619
=
76750 32560 30904 10290 20243 30088 40098 57003 82201 92354
333   10335 20237 31/// 50450 56205 59003 70000 82820=
76773 11564 82501 10224 20166 38375 40117 57005 60681 7156/
84435 92339 333   10277 20152 32/// 50281 57299 58004 70068
84620 84357=
76843 01565 82001 10236 20228 39501 40138 51002 60221 72162
84720 92351 333   10333 20225 31/// 50510 567// 59007 60226
70218 81820 83720 84459=
71397 32974 62305 10104 20034 30220 40254 53011 81071 333
10190 20019 70000=
71398 36/64 /0901 10126 20037 30212 40261 53014 333 10187 20030
70000=
71400 36/64 /1102 10076 20021 40234 333 10166 20004 70007=
71410 36/64 /1503 10117 20024 30227 40256 50004 333 10178 21006
70000=
71411 36/56 /2109 10082 20065 30262 40272 51004 333 10113 20075
70000=
71412 46/// /2007 10062 20047 30242 40255 56001 333 10088 20034=
71430 36/64 /0809 10157 20115 30098 40194 56007 333 10173 20078
70000=
71431 36/// /0702 10185 20108 30099 40192 58011 333 10185 20095
70000=
71432 36/64 /0911 10135 20131 30092 40188 58002 333 10186 20090
70000=
71436 36/64 /1706 10185 20102 39827 40179 58005 333 10227 20104
70000=
71441 36/// /3121 10221 21068 39816 40116 53003 333 10239 20049
70000=
71443 36/// /2914 10102 21011 39745 40153 53012 333 10130 20025
70000=
71474 17964 02908 10102 20056 38950 40176 50001 60101 7//4/ 333
10151 20017 70105=
71538 32974 71609 10204 20117 39940 40165 55004 87070 333
10217 20119 70000=
71600 46964 02707 10065 20046 30271 40277 333 10101 20056=
71601 32974 22206 10084 20058 30207 40270 51012 80001 333
10125 20035 70000=
76253 31680 30000 10280 20224 39979 40069 57014 70540 83400
92358 333   10340 20240 30/// 56300 58/// 70000 83640 92001
=
76305 32970 21604 10330 20185 30052 40062 57024 82030 92345
333   10343 20260 30/// 50733 56030 58006 79999 82358 90802
=
76593 32370 10502 10282 20238 30100 40116 57011 81200 92352
333   10302 20228 30/// 50340 561// 59006 70000 81820 92021
91005 91505=
71201 17/// ///// 10165 69921 7//4/ 333 10177 20095=
20107 70060=
71043 31683 61510 10134 20102 30168 40261 55001 71422 83231
333 10134 20069 79999=
71045 36/// /1001 10135 20011 39390 40249 58007 333 10140 21010
70000=
71050 36/64 /2301 10163 20014 39115 40176 56012 333 10163 20029=
71066 32974 11706 10172 21052 39828 40245 57009 81100 333 10173 21008
70000=
71068 32774 10607 10167 21066 39545 40233 56006 81100 333 10173 20038
70000=
71069 17964 03604 10152 21078 39532 40236 56005 69951 7//4/ 333
10160 21017 70005=
71076 46/// /3410 10131 21019 39847 40240 53004 333 10131 21022=
71077 17/63 /0212 10081 20012 39697 40227 51010 69941 7//4/ 333
10081 20000 70016=
71078 11348 83315 10016 20006 39695 40137 52033 60041 76876
885// 333 10024 21017 41997 70068 90983=
71081 17264 80316 11011 21015 30158 40169 54000 69951 7454/ 333
11007 21019 70005=
71082 36564 81105 11069 21086 30185 40226 51002 333 11047 21130
70000=
71090 37550 81205 11060 21067 30201 40236 56002 745// 333 11020
21080 70005=
71092 46650 30916 11067 39522 40188 58009 333 11059 21068=
71093 460// /1309 11061 39704 40203 56006 333 11059 21078=
71095 36964 01903 11083 21105 30151 40224 50003 333 11058 21137
70000=
71101 36664 83213 10128 20048 30237 40245 56004 333 10137 20067
70000=
71104 11674 83404 10104 20043 39086 40194 52005 69921 72592 83973
333 10151 21004 70008 90931=
71108 11369 82505 10116 20097 30118 40189 52002 60031 78082 8777/
333 10122 20061 70034 90977=
71109 32780 53112 10134 20062 30192 40219 51001 81901 333 10141 20071
70000=
71725 36764 32209 10193 20083 39746 40151 55000 333 10223 20090
70000=
71726 36/64 /2104 10182 20075 39648 40173 55002 333 10209 20056
70000=
71727 32780 61807 10198 20080 39982 40175 55007 81501 333
10241 20067 70000=
71728 32786 81906 10199 20085 39943 40159 55012 85471 333 10232 20098
70000=
71730 32874 72210 10174 20079 39739 40154 57014 87070 333
10204 20091 70000=
71731 33/// /2310 10177 20107 39718 40159 58016 333 10207
20114 70000=
71733 36864 31712 10152 20087 39907 40140 56017 333 10170 20100
70000=
71735 32774 62015 10186 20099 39846 40138 55005 82472 333
10231 20078 70000=
71738 11208 80000 10114 20114 39771 40118 58008 60081 76164
887// 333 10128 20061 70116 90937=
71739 11662 80000 10138 20124 39767 40121 55011 69921 78082 888//
333 10218 20103 70002 90915=
71749 17464 62702 10134 20116 39877 40118 56002 60011 7//4/ 333
10144 20096 70030=
71799 11580 61006 10128 20092 30156 40179 55005 60041 78086
86870 333 10131 20071 70042 90973=
71803 32974 23206 10037 21011 30053 40242 53013 81041 333
10074 21005 70014=
71807 36/// /0000 10081 20038 30222 40238 53022 333 10126 20013
70000=
71808 36964 00000 10040 20011 30184 40231 51003 333 10083 21013
70000=
71809 32974 32606 10106 21009 30211 40238 52017 80001 333 10181 21028
70000=
71810 36/64 /1202 10078 20033 30157 40220 58002 333 10148 21019
70000=
71811 32783 70904 10084 20061 30140 40208 58006 81594 333 10120 21014
70000=
71813 36964 01603 10081 20029 30206 40219 50002 333 10149 21003
70000=
71814 36/// /2310 10083 20023  333 10093 20001 70000=
71815 32974 32207 10059 20040 30221 40253 52018 80004 333
10157 20026 70000=
71114 17764 63006 10125 20101 30129 40177 50011 60031 7434/ 333
10152 20088 70025=
71119 36/// /0604 10152 21090 333 10163 20038 70000=
71120 32774 70112 10113 21027 39574 40233 52010 82571 333
10124 21001 70000=
71122 17/64 /0606 10083 20000 38625 40225 56002 69941 7//4/ 333
10093 20014 70070=
71123 32874 10410 10157 21072 39362 40226 55003 81100 333
10168 21004 70000=
71125 11574 83512 10069 20032 39636 40225 53014 69901 78086
882// 333 10104 21020 79999 90946=
71129 32974 03615 10158 21088 39369 40192 55000 333 10179
21001 70000=
71130 32674 73318 10100 20000 39711 40166 53011 87100 333
10114 20003 70000=
71131 36/64 /0205 10144 21081 38945 40184 55000 333 10153 20035
70000=
71135 17/64 /3507 10168 21056 39113 40182 55001 69921 7//4/ 333
10170 20050 70020=
71138 32774 13217 10129 21005 39558 40157 53012 81100 333
10151 20022 70000=
71140 32974 02918 10187 21058 39644 40135 53004 333 10201 20047 70000
=
71145 31574 72913 10081 20003 39794 40083 53003 71422 87500
333 10120 20060 70024=
71148 36/// /2912 10189 21039 39574 40142 53005 333 10207 20039
70000=
71182 367// 30000 10144 20023 39639 40167 58002 333 10183 21004
70000=
71187 36964 00506 10099 20065 30165 40192 58010 333 10161 21017
70005=
71188 32974 60000 10096 20059 30179 40220 52011 85071 333
10154 21030 70000=
71196 36164 83613 10011 20005 30209 40246 51021 333 10041 20009
70000=
71073 36/// /3612 10122 21036 39824 40244 53002 333 10124 21011
70047=
71075 16/// /3412 10014 21015 39581 40187 52027 69981 333 10017 21040
70052=
71096 460// /0511 11051 39464 40196 58007 333 11016 21051=
71450 36/// /3319 10170 21055 39464 40174 53003 333 10180 20012
70000=
71490 36/// /0000 11072 21079 39953 40271 53002 333 11071 21107
70000=
71893 32780 63511 10184 20088 30133 40164 56011 81271 333
10186 20092 79999=
71894 36/// ///// 10154 30182 40191 56003 333 10166 20073 70000=
71896 31789 73204 10164 20001 39360 40183 56009 72922 85970
333 10185 20007 70000=
71897 32582 23226 10125 20089 30177 40209 57003 81201 333 10130
20077
70000=
71898 36964 02913 10124 20068 30192 40236 56004 333 10130 20045
70000=
71899 11474 72718 10090 20071 30208 40258 58002 69901 70282 86260
333
10110 20055 79999 90960=
71905 11274 32104 10062 20045 30085 40098 50008 69901 72051 83500
333 10105 20043 79999 90912=
71906 11674 82006 10137 20094 30026 40072 51001 69901 78082 8657/
333 10214 21025 79999 90916=
71907 17164 82315 10014 20002 39998 40030 51016 60051 7//4/ 333
10150 20014 70055=
71909 36037 81407 11019 21020 30097 40140 56009 333 10006 21025
70000=
71910 37064 81015 11011 21011 30028 40092 58010 745// 333 11003
21023 70005=
71911 46064 /0216 11071 30179 40236 51002 333 11062 21111=
71912 32574 63016 10076 20002 39861 40040 52005 86500 333
10099 20014 70002=
71913 17050 83312 10006 21026 39971 40007 51009 60081 74344 333
10018 20003 70170=
71915 32674 70424 10019 21009 39996 40078 57014 81502 333
10037 21021 70000=
71917 32786 31912 11048 21092 30225 40239 56001 81502 333
11031 21082 70000=
71922 11674 63317 10076 20003 39723 40189 52020 69901 70188 85570
333 10078 21005 70004 90951=
71924 32874 43607 11099 21130 30202 40293 580014XM>L333
11089 21148 70000=
71925 32674 60215 11088 21114 30259 40296 51004 83570 333
11085 21144 79999=
71926 11259 80123 10002 21015 30131 40154 53008 69901 77172
885// 333 10012 21001 42030 70056 90952=
71928 36/64 /0304 10138 21041 39064 40221 55000 333 10138 20025=
71434 36/// /2306 10170 20026 39990 40054 56009 333 10174 20064
70000=
71851 36/// /2812 10198 21053 39785 40112 53004 333 10211 20071
70000=
71852 36964 03017 10205 21041 39816 40103 53004 333 10228 20011
70000=
71873 36/64 /0110 10155 21092 39277 40220 55000 333 10158 21018
70000=
71875 17764 32403 10103 20012 38830 40206 50004 69951 7//4/ 333
10120 20026 70015=
71846 36/64 /2109 10184 21057 39749 40052 56016 333 10189 20034
70000=
71629 36964 01605 10170 20117 39965 40196 58002 333 10217 20051
70005=
71952 36/// /2906 10167 21052 39344 40191 56014 333 10185 21031
70000=
71967 36/// /1107 10147 20016 39279 40249 58011 333 10148 21028
70000=
71702 36/// /0000 10123 20038 40240 333 10163 20006 70000=
71717 32974 61410 10157 20024 30181 40222 53005 80002 333
10221 21012 70000=
71865 36/64 /3512 10106 21007 39501 40178 53014 333 10123 20025
70000=
71866 36764 33415 10133 21009 39577 40189 53010 333 10162 21021
70000=
71867 11574 73315 10068 21002 39799 40131 53019 69901 71562
86570 333 10092 20008 79999 90935=
71868 36664 63014 10096 21004 39714 40152 53014 333 10100 21007
70000=
71869 32674 53414 10102 20002 39664 40187 53011 85500 333 10109 20009
70000=
71870 36964 03414 10163 21107 39225 40185 53002 333 10182 20011
70000=
71871 32774 30118 10126 21017 39413 40216 53007 82102 333 10139 20010
70000=
71872 32783 20814 10187 21052 39340 40184 55004 81101 333 10191 20028
70000=
71874 17964 30611 10161 21049 39101 40188 50000 69951 7//4/ 333
10171 21011 70005=
71876 32774 23521 10118 20001 39541 40205 53012 82171 333
10147 21020 70000=
71877 31880 70607 10135 21049 38953 40216 55000 71422 82170
333 10158 20024 79999=
71878 32774 23609 10152 21059 39154 40222 53001 82100 333 10160 20000
70000=
71879 36964 00313 10157 21092 39421 40220 55001 333 10170 20017
70000=
71880 31782 70910 10153 21008 39075 40163 53004 71522 87200
333 10160 20046 70000=
71881 36764 31207 10140 21034 39128 40221 55002 333 10161 21010
70000=
71882 37764 30728 10176 20033 39608 40135 55006 743// 333 10212
20047 70000=
71883 36/// /1106 10195 21005 39349 40156 56009 333 10205 21003
70000=
71887 11783 62715 10173 20058 39721 40135 58004 69901 72998 82971
333 10218 20062 79999 90920=
71889 11774 60604 10127 20058 39741 40153 53010 60021 79522 85970
333 10189 20079 70020 90935=
71891 17864 31406 10182 20091 39870 40143 58018 60031 7//4/ 333
10197 20095 70025=
71892 32582 71806 10150 20098 30172 40177 56001 82971 333 10158 20091
70002=
71816 32774 70504 10133 20033 30107 40167 55000 85506 333
10209 20010 70000=
71817 36964 01604 10019 21022 30203 40218 55002 333 10046 21005
70000=
71821 37764 60110 10147 20111 39784 40121 55007 743// 333 10206
20130 70000=
71822 36764 61908 10181 20081 39671 40134 58009 333 10214 20081
70000=
71825 32874 82111 10135 20044 39510 40168 58001 8807/ 333 10174 20006
70000=
71828 36964 31909 10122 20012 39524 40151 56004 333 10163 20022
70000=
71831 11356 81903 10124 20102 39838 40112 58013 60111 78022
887// 333 10173 20120 70122 90927=
71832 17/64 /0000 10110 20110 39794 40112 58017 60081 7//4/ 333
10130 20110 70152=
71834 11474 42404 10124 20100 39685 40104 57011 60021 70161
83570 333 10128 20105 70130 90922=
71836 17261 /2308 10135 20133 30093 40104 53002 60011 7434/ 333
10170 20115 70090=
71842 32874 12612 10208 21020 39619 40083 56007 81100 333 10217 20179
70000=
71845 32874 52208 10203 20000 39598 40057 57016 84101 333
10216 20088 70000=
71850 32874 22912 10201 21019 39611 40096 56004 82100 333 10213 20092
70000=
71854 31474 72612 10172 21011 39614 40074 58007 71611 87300
333 10196 20025 70000=
71855 36964 03019 10157 21003 39760 40128 53013 333 10190 20027
70000=
71856 17964 03214 10178 21001 39825 40103 53013 69951 7//4/ 333
10204 20024 70005=
71858 36/64 /3015 10081 21009 39849 40126 53007 333 10098 21023
70000=
71861 36964 03124 10163 21053 39436 40150 53004 333 10179 20034
70000=
71862 32874 13314 10184 21066 39472 40161 55000 81100 333
10195 20062 70000=
71863 36964 03020 10169 21069 39476 40168 53003 333 10189 21006
70000=
71197 36964 03110 10078 21044 30202 40252 50009 333 10124 20028
70000=
71603 32974 12602 10081 20070 30217 40270 51005 80001 333
10131 20081 70000=
71607 36/// /1602 10123 20024 30220 40252 50006 333 10185 21005
70000=
71609 32974 52307 10091 20029 30123 40258 53005 80001 333 10166 21014
70000=
71610 36964 01704 10177 20079 39908 40199 58016 333 10223 20046
70005=
71623 32974 71607 10179 20094 39849 40180 57011 83071 333 10201 20097
70000=
71625 36864 32006 10216 20102 30011 40168 56004 333 10249 20102
70000=
71627 36964 01607 10205 20096 30143 40186 56012 333 10233 20088
70000=
71628 32982 82007 10194 20087 30055 40193 58004 82012 333
10234 20092 70000=
71630 32974 41808 10193 20092 39843 40180 57005 80009 333
10219 20070 70000=
71631 36/64 /1607 10167 20096  333 10191 20103 70000=
71632 36/64 /2206 10174 20092 39940 40169 58014 333 10206 20091
70000=
71633 32674 71708 10198 20093 39894 40159 58018 81551 333
10240 20192 70000=
71700 32874 52114 10145 20024 30215 40240 51012 82071 333 10210 20000
70000=
71705 32974 71105 10145 21007 30153 40240 53006 80002 333
10193 21014 70000=
71707 32974 21004 10082 21015 30188 40265 52011 80004 333 10146 21002
70000=
71709 32980 41605 10078 21006 30232 40245 58006 80002 333 10128 20044
70000=
71711 32874 61003 10128 20079 30161 40211 50000 82074 333 10206 20015
70000=
71714 36/// /2305 10194 20094 30107 40197 55010 333 10227 20068=
71715 36/64 /2002 10173 20092 30012 40192 58011 333 10199 20059
70000=
71718 32783 81303 10148 20068 30129 40194 58021 82577 333 10186 20026
70000=
71719 36/// /1811 10104 20037 30216 40222 53003 333 10161 21007
70000=
71930 32974 21106 10165 21058 39292 40220 55001 82100 333 10172 20008
70000=
71931 36/64 /0207 10144 21070 39550 40234 53001 333 10144 20006
70000=
71932 17964 00312 10149 21053 39790 40243 51004 69951 7//4/ 333
10151 20012 70005=
71933 17864 31604 10146 21040 39958 40247 56004 69951 7//4/ 333
10162 20006 70005=
71934 32874 63409 10175 21021 39980 40236 57008 86071 333
10178 21014 70000=
71935 32874 33304 10183 21013 30023 40229 58016 82271 333 10190 21020
70000=
71936 11874 73510 10119 20000 39987 40245 51005 69901 78022 86081
333 10160 20010 79999 90910=
71938 32574 80205 11057 21077 30300 40330 51005 88500 333
11051 21076 70000=
71940 32882 20507 10180 21068 39417 40217 57009 82100 333 10186 20017
70000=
71943 32774 60907 10160 21061 39392 40221 57005 82131 333 10176 20054
70000=
71944 36764 32806 10133 20024 39385 40212 50003 333 10169 20010
70005=
71945 32783 51310 10190 21040 39755 40217 57010 81101 333 10201
20076 70000=
71948 46464 60909 11097 30203 40319 58004 333 11095 21128=
71949 36/64 /2910 10113 20001 39387 40253 53001 333 10137 20021
70000=
71950 32882 72503 10185 21112 39569 40192 57017 82101 333 10185 20003
70000=
71951 32880 60000 10177 20007 39935 40200 57012 81101 333 10179 20037
70000=
71957 36964 01707 10106 21022 30163 40251 58012 333 10107 21016
70000=
71958 17764 30505 10146 21041 39284 40249 58006 69951 7//4/ 333
10152 21026 70005=
71964 31686 43510 10142 20019 39396 40247 57010 71511 84200
333 10150 20027 70004=
71968 469// 00202 11033 30188 40253 56007 333 11019 21071=
81202 11470 60000 10262 20236 40113 69901 72522 84933
333 10302 56229 58010 83812 81918 83080=
81209 11465 60000 10/// 20/// 40138 70182 83963
333 10/// 56299 58014 82810 81915 85080=
81225 11570 60000 10250 20241 40115 60041 70198 83532
333 10315 56299 58009 83620 85075=
81251 41460 70000 10238 20229 40134 78082 86933
333 10310 56299 58016 81915 85620=
85201 32984 00705 10051 21064 36294 50016
333 10158 59006=
85223 31584 11810 10160 20046 37488 47094 52018 71300 81500
333 10274 56800 58024 81623=
94120 46/// /1315 10208 20017 30103 40138=
94150 46/// /1514 10240 20168 30068 40129=
94203 46/// /1009 10161 20025 30152 40163=
94207 35/// /0616 1//// 30137 40148 52011=
94212 46/// /0915 10139 20001 39703 40184=
94216 46/// /1416 10184 21007 30131 40182=
94268 46/// /1414 10211 20039 30127 40142=
94287 46/// /1617 10207 20056 30151 40160=
94298 35/// /1517 10216 30135 40141 57002=
94299 46/// /1624 10230 20149 30123 40134=
94300 46/// /0604 10179 20109 30174 40184=
94302 46/// /1103 10119 20115 30182 40188=
94312 46/// /1212 10168 20039 30170 40180=
94317 46/// /0804 10095 20039 39609 40206=
94319 46/// /1413 10124 20044 39877 40216=
94326 46/// /1011 10095 20040 39626 40262=
94332 46/// /1314 10127 21016 39818 40212=
94346 46/// /1216 10119 21021 30002 40228=
94363 46/// /1713 10118 21006 39986 40208=
94367 46/// /1617 10142 20027 30151 40189=
94374 46/// /2013 10140 21041 30181 40198=
94394 35/// /2320 10191 30124 40132 52001=
94403 46/// /0205 10149 20059 30141 40182=
94429 46/// /0309 10110 20004 39733 40206=
94430 46/// /0412 10116 21001 39607 40204=
94461 46/// /0910 10096 20019 39564 40254=
94462 46/// /1112 10098 20034 39696 40269=
94510 46/// /1712 10100 21004 39868 40226=
94515 46/// /2117 10100 20012 39847 40204=
94552 46/// /2413 10077 20003 39695 40169=
94578 46/// /2616 10133 21025 30135 40146=
94584 46/// /2605 10127 20014 30042 40153=
94601 46/// /0221 10127 20112 30121 40138=
94610 46/// /0112 10172 20007 30144 40168=
94637 46/// /0310 10082 20015 39818 40255=
94638 46/// /0311 10085 20049 30233 40266=
94647 46/// /0107 10116 20090 30180 40303=
94651 46/// /3506 10110 20082 30231 40310=
94653 46/// /0403 10087 20065 30289 40308=
94659 46/// /1810 10107 20067 30090 40291=
94672 46/// /0801 10122 20088 30277 40282=
94693 46/// /2007 10087 20068 30195 40258=
94703 46/// /2010 10098 20040 30101 4////=
94729 46/// /2205 10040 20000 39294 40154=
94767 46/// /2515 10124 20010 30127 40133=
94791 46/// /2514 10145 20013 30108 40115=
94802 46/// /3614 10140 20003 30087 40170=
94804 46/// /2111 10126 20103 30255 40294=
94842 46/// /2026 10125 20085 30106 40206=
94850 46/// /2019 10119 20097 30147 40193=
94865 46/// /2515 10098 20089 30176 40201=
94907 46/// /2713 10116 20086 30149 40159=
94910 46/// /2708 10060 20046 39931 40186=
94926 46/// /0701 10046 20000 39478 40157=
94954 46/// /2137 10113 20087 30053 40164=
94956 46/// /1815 10085 20079 30144 40170=
94968 46/// /1907 10106 20026 39909 40123=
94975 46/// /2311 10110 20038 30089 40122=
94983 46/// /2610 10115 20050 30077 40102=
94995 46/// /2619 10171 20096 30032 40040=
94996 41580 83408 10185 20141 39965 40094 58018 71522 8187/
333 20146=
94997 46/// ///// 10030 39827 49842 57013=
95711 46/// /2208 10076 20048 39911 40220=
95719 46/// /2213 10075 20034 39853 40190=
96995 46/// /1313 10256 20227 39809 40102=
96996 41450 81515 10245 20230 30114 40118 53008 78181 8723/
333 20240=
89564 41/00 91054 11089 21092 39819 49840 50015 73933
333 21181=
89571 41460 80505 11108 21115 30033 40063 52014 77072 8262/
333 21122=
89611 41250 80911 11092 21101 30103 40160 58003 71522 885//
333 21119=
94934 35/// /2527 10122 30088 40112 57005=
94974 35/// /2028 10107 30140 40163 52006=
95288 35/// /1722 10229 30122 40137 52013=
95872 46/// /2718=
63726 31901 90000 10118 20118 38138 48496 74744 89000
333 59001 89000
555 10118=
89002 41996 00821 11120 21137 39925 49977 54000 73733
333 00840 11106 21122 92921=
78388 11575 71902 10271 20216 40136 69901 70282 81803 333 02009 10321
20245 58012 81822 87072 90940=
60030 31559 20217 10202 20183 30114 40169 51009 71044 82500
333 924/6=
85406 32960 00000 10160 20123 40164 52018
333 10190=
85418 32560 30000 10156 20096 40163 52027 83500
333 56000 83630=
85432 32984 01808 10144 21087 37758 48451 52015
333 10248=
85442 32565 71502 10150 20095 40165 52031 87500
333 10168 56400 87627=
85469 42570 70206 10213 20183 40214 53001 83231
333 56756 83820 85363=
85470 32970 02708 10114 20090 40140 52021
333 10197=
85488 32460 80102 10130 20108 40150 53010 885//
333 10150 56099 88612=
85574 31940 71406 10137 20081 39594 40151 52013 70522 87030
333 10171 59022 56000 87365=
85585 11598 50000 10127 20114 40177 52004 69911 70282 85800
333 10160 56500 83825=
85586 32960 72401 10114 20095 40154 52008 87030
333 10165 56050 87364=
85629 31957 81602 10085 20075 39882 40161 54000 71022 8802/
333 10120 56069 88362=
85672 32870 83302 10084 20080 40180 52020 88079
333   10102 56079 88359=
85682 31458 82104 10104 20093 40167 53012 71022 81651
333 10135 56779 81312 88358=
85743 31459 80504 10092 20081 40174 53011 70522 8152/
333 10117 56779 81612 88460=
85782 32970 32703 10090 20070 40184 52005 8301/
333 10114 56079 83460=
85799 32960 80403 10076 20067 40195 54000 8803/
333 10107 56079 88360=
85864 32680 82303 10054 20026 40282 54000 882//
333 10058 56699 88835=
85874 32570 81415 10031 20007 39645 40282 58003 885//
333 10035 56699 88620=
85892 32670 70000 10043 20004 40266 52011 87200
333 10080 56600 87835=
85930 32997 00612 10078 20045 40213 57005
333 10086=
85934 32480 30412 10027 20002 40307 57010 83200
333   10043 56100 83816=
85972 32998 00505 10038 20029 40276 57009
333 10065=
64700 32962 42204 10282 20210 39734 40062 82032 92358
333 0//00 59007 82365 83075 =
64750 32962 70000 10265 20214 39666 40066 85032 90002
333 0//00 58003 85365 84075 =
91577 32580 80212 10268 20204 40092 58007 81132
333 20219 59029 81826 84363=
91579 36/// /3504 10262 20248 40099 58008
333 20181=
91582 01560 70210 10260 20233 40104 58005 60014 70282 872//
333 20183 561// 59025 69927 87823=
91583 32570 80602 10257 20224 40104 58007 878//
333 20209 59026 83823 86650=
91587 36/// /0212 10262 20223 30059 40108 58007=
91590 32670 72604 10264 20207 40099 51003 8557/
333 20196 56000 59025 83840 83650 87362=
91592 32670 82006 10246 20223 40101 53003 83872
333 20214 56766 59025 81833 83650 86461=
91753 32582 31410 10288 20208 40095 58020 83200
333 20222 59002 83820=
91754 32581 61206 10275 20196 40104 58016 86800
333 20244 59004 84820=
71473 17/// /2214 30149 56004 60021 7//4/ 333 70026=
71475 36/// /2207 10197 20084 30076 40168 56007 333 10203 20088
70010=
71923 46/// /3534 11023 21027 39732 40175=
91554 32581 30906 10295 20238 40089 58008 82101 333
20195 563/9 58017 82825 81080=
91555 31465 51010 10300 20218 40091 58007 70511 83801 333
20/// 569/9 59017 81826 83650 85080=
91557 32581 41001 10285 20227 40101 58011 84201 333
20190 561/9 59021 84825 83080=
91565 32580 60810 10272 20233 40119 58003 86800 333
20192 561// 59020 82825 86640=
91568 32581 40610 10285 20224 40111 58005 81101 333
20195 562/9 59019 81825 84080
71966 46/// ///// 10173 333 10180 21015=
71200 17/// /2312 10102 20102 60031 7//4/ 333 10117 20092 70036=
47090 31950 00204 10187 20124 30003 40023 52009 71000 333 20164
30034 92011=
47095 12560 70000 10173 20124 39862 40041 50001 69922 83530 333
20144 31021 70002=
47100 32965 32504 10158 20093 39086 40026 52002 80001 333 20116
31023=
47106 31658 60503 10194 20133 39979 40021 52006 71022 83530 333
20180 30024 40///=
47112 32570 70702 10202 20130 39964 40043 50000 87500 333 20161
30021=
47114 11557 82701 10179 20124 39864 40036 52001 69902 71022 8452/
333 20148 31023 70000=
47119 32661 72702 10194 20131 30002 40042 50001 69902 87500 333
20159 30026=
47121 11930 82501 10170 20127 39760 40032 57001 71022 8802/ 333
20143 31023 70000=
47129 12968 30208 10186 20116 30024 40053 50001 69922 83030 333
20136 31028 70002=
47130 32962 60501 10228 20136 39964 40020 50004 86030 333 20191
30028 92021=
47131 32662 73604 10175 20100 39975 40041 52007 87500 333 20147
31023 70005=
47135 32661 82706 10168 20116 39753 40035 50000 69912 8352/ 333
20143 31022 70003=
47136 11962 82701 10183 20122 39869 40032 52002 69912 70262 8801/
333 20156 30021 70016=
47140 32662 80506 10181 20111 30009 40044 52008 8252/ 333 20158
31024 70017 92011=
47143 11558 80501 10174 20136 39969 40036 52004 69952 71062 8352/
333 20156 31021 70006=
47146 11656 82703 10183 20150 39979 40042 55002 69922 71022 8802/
333 20156 31021 70020=
47152 11562 82500 10156 20141 39993 40031 53000 60092 76166 8572/
333 20145 31019 70087=
47155 11560 80202 10160 20145 30027 40032 57002 60162 76166 8572/
333 20148 31018 70157 92011=
47156 32662 70204 10180 20141 39956 40041 52005 60062 87500 333
20137 31023 70069=
47162 11462 83407 10163 20153 39998 40036 57005 60092 76166 8472/
333 20152 31019 70086 92023=
47170 11562 80903 10167 20154 39997 40036 50005 60162 70266 8452/
333 20139 31022 70214 92022=
47185 11303 81607 10180 20175 39943 40025 57006 60112 74544 89///
333 20165 31021 70294 92023=
47189 11565 81101 10180 20176 39974 40034 52014 60192 76166 8672/
333 31019 70504 92022=
47192 32962 80000 10169 20143 30010 40026 50000 61222 72166 8652/
333 20147 31020 70122=
47101 11645 82902 10172 20144 39948 40037 50001 69912 71022 8651/
333 20151 31021 70001=
47105 32660 51802 10234 20129 39986 40016 53003 82530 333 20201
30026=
47108 12565 73202 10189 20118 39939 40040 53001 69902 87500 333
20158 30022 79999=
47115 42530 82312 10160 20105 39767 40027 53001 60000 71022 8252/
333 20138 31018 70000 92044=
47133 11556 70206 10175 20109 39961 40041 50003 69902 87500 333
20148 31021 70005=
47138 11562 82309 10169 20130 30024 40028 55001 69962 72166 8572/
333 20158 31020 70006 92022=
47159 11550 80701 10158 20155 39947 40028 57002 60112 76166 8472/
333 20142 31017 70113 92022=
47165 12668 83602 10165 20148 39997 40040 52008 60112 8552/ 333
20142 31020 70118 92022=
47168 11660 80203 10165 20141 39956 40033 52003 60082 72166 8472/
333 20145 31019 70079 92012=
47184 12668 81106 10172 20160 30008 40035 52008 60182 8552/ 333
20154 31021 70264 92022=
26229 42984 71401 10061 20050 30113 40120 52003 80008=
26313 42997 02502 10067 20043 30107 40113 58002=
26314 42597 61604 10061 20049 30113 40117 54000 86900
333 86920 91112=
26348 42999 72401 10093 20082 39953 40125 58001 87010=
26406 42964 22304 10098 20070 30116 40125 53002 82050=
26422 42997 62402 10077 20055 30102 40134 52008 86070=
26446 42967 82701 10097 20086 39939 40128 54000 8807/=
13272 32970 01502 10122 20103 30044 40166 56005=
13376 32999 00000 10097 20088 39922 40183 58007=
13388 32998 00701 10102 20094 39941 40185 58002=
54587 01460 82701 10142 20129 40026 52006 69901 75000
885// 333// 00053 79999=
33088 42997 00000 10079 20074 39967 40156 52005=
33261 41563 71301 10162 20145 39929 40104 58001 78082 87900=
33275 41597 50000 10155 20137 39886 40099 57006 71798
85900=
33301 42997 22701 10075 20068 39878 40158 52003 82030=
33325 41497 83104 10109 20089 39866 40135 54000 72582
883// 333 85612=
33377 41658 70000 10156 20149 39907 40092 58005 72998 83962 555
11017=
33415 42997 02703 10081 20070 39763 40158 54000=
33429 42997 03103 10098 20081 39744 40161 52007=
33466 41464 83102 10147 20136 39920 40100 52002 78098 889// 333
87713=
33526 42960 02302 10059 20040 39835 40175 58002=
33562 41497 83005 10110 20103 39786 40139 52005 70282 8555/ 333
85613=
33761 41458 83304 10139 20122 39888 40104 52003 71062 886// 333
88715=
33889 41598 63208 10140 20106 30095 40131 52007 70282 86500=
33902 41959 23402 10160 20146 30020 40083 58005 71011 80002=
33983 42997 02502 10154 20143 30038 40097 58002=
34415 41997 02102 10173 20128 30016 40108 52003 70291=
34523 42997 51301 10158 20148 30046 40119 58001 83031=
34712 42998 41207 10214 20192 30011 40091 54000 84030=
11017=
12120 32998 02101 10046 20037 30127 40134 57001 =
12295 31960 00000 10035 20028 39970 40158 52003 71100 =
12135 32498 12002 10078 20074 30133 40136 57002 81200=
12195 32970 00000 10050 20037 39922 40151 58001 =
12235 32997 11802 10060 20054 39932 40143 54000 81030=
37549 41797 82905 10175 20136 39570 40113 56002 70299 8597/=
26324 42998 02101 10048 20041 30117 40125 52006=
12272 32970 02301 10065 20055 39979 40147 55001 =
12280 11570 11901 10070 20060 39986 40148 56001 69911 70281 81500=
12497 32970 02002 10050 20039 39944 40165 54000 =
12650 32084 12109 10000 21017 37970 48472 57011 81500=
60035=
26554 41958 82802 10106 20094 39965 40124 53004 71022 8801/   555
11011=
26666 41756 73002 10109 20102 39906 40115 54000 78082 879//   333
87951   555 11013=
26850 42960 32901 10105 20095 39866 40133 52002 83030   555 11009=
26863 41556 83003 10106 20098 39893 40124 53004 71082
8537/ 333 85931 555 11011=
26941 42960 00000 10116 20094 39912 40143 53005 555 11011=
26951 41956 42502 10083 20081 39943 40139 58001 71081 82041   555
11008=
33008 42970 02801 10071 20058 39982 40161 52009 555 10004=
33019 42960 30000 10090 20064 39969 40141 52009 83030 555 11008=
33036 41360 83102 10121 20104 39903 40127 58004 70282 887//   333
88708   555 11011=
33041 41460 83003 10129 20127 39964 40115 52003 78082 889//   333
88916   555 11014=
60360 32960 00000 10190 20174 40202 58007
333 95990=
60390 32565 20000 10182 20174 40186 58001 81202
333 81826 95490=
60402 32960 02610 10190 20174 40185 58007
333 95990=
60419 32970 00000 10189 20146 40181 56004
333 0//00 95990=
60475 32960 00804 10193 20145 39275 48575 58001
333 95990=
60490 32970 00301 10200 20178 40173 50005 81002
333 83073 95990=
60525 32960 00000 10290 20108 40170 52009
333 0//00 95990=
60531 32970  00000 10207 20172 40176 51000
333 95990=
60566 32960 01003 10266 20116 40170 55004=
60571 32660 63120 10293 20035 39278 48583 51008 83282
333 83840 95990=
60580 32960 01310 10290 20121 40156 58004=
60590 32965 00310 10295 20067 40152 50000=
60611 32960 00405 10234 20101 40151 51004=
60630 32760 40713 10318 20136 40106 51002 82202
333 82856 83075=
60656 32960 23212 10313 20046 40114 50005 82300
333   0//00 82360=
60670 32960 00000 10276 20047 39081 48556 58008
333 0//00 95990=
60680 32759 40814 10261 20075 38666 48535 50008 83230
333 82856 95990=
91353 11474 70504 10283 20253 30085 40090 51010 60254 70282 85270
333   20217 5619/ 58001 70254 85818 555   93100
91425 11474 60405 10294 20257 30087 40088 51005 60084 70282 83220
333   20244 561/9 58000 70079 83818 83462 555   93100
91434 11474 21801 10294 20249 30091 40094 51008 60084 70282 82200
333   20200 564// 59009 70084 82818 555   93100=
41240 31958 00000 10320 20272 39998 40001 70500 333 58008=
41244 36/// /0000 10299 20184 39670 40022
333 0E032 58000  =
41256 31330 20000 10278 20278 30004 40013 74044 82600
333 58012 82708 =
41262 36/// /1112 10303 20224 39805 49995
333 0E033 59000  =
41268 31958 02218 10290 20268 30005 40020 70500 333 58024=
41288 32960 02111 10276 20261 39998 40020 333 59008=
41304 36/// /0402 10264 20204 39700 40017
333 0E027 58000  =
41312 36/// /1910 10288 20263 39993 40034
333 0E/// 58007  =
41316 01560 52110 10293 20265 30007 40032 69994 72161 85500
333 58007 79990 85625 =
26645 41596 62601 10092 20088 39878 40134 52002 71022 82530   555
12010=
26659 42560 82801 10107 20090 39923 40132 52004 8251/   555 11011=
26763 41458 83203 10111 20097 39901 40122 52001 78082 889//   333
88919   555 12011=
26832 41932 53002 10076 20071 39952 40144 52004 71082 85030   555
12008=
26961 42660 73203 10106 20090 39941 40129 58003 83532   555 10///=
33027 41960 22802 10105 20097 39975 40139 53001 70281 82030   555
11010=
38178 429// 02404 10151 20038 39805 40078 57002   555 10015=
38262 32998 00000 10120 20080 30018 90096 52002   555 10012=
38264 35998 03202 10140 20073 30009 40099 57013   333 00012   555
10013=
38396 42996 03601 10144 20056 40103 52004   333 00009   555 10009=
38403 429// 00504 10187 20045 39982 40097 52008   555 10016=
38413 42998 21203 10180 20004 40092 52006 80001   555 10015=
38457 42699 60201 10179 20115 39508 40063 53005 86360   555 10014=
38565 329// 20000 10166 20089 40076 53001   555 10011=
38579 32997 33205 10196 20110 39671 40065 52018 83040   333 00016
555 10016=
38583 42697 20000 10173 20151 39759 40064 53010 82109   333 00012
555 10015=
38611 42697 53403 10172 20119 39568 40101 53003 82301   333 00015
555 10015=
38618 41599 82501 10182 20121 39421 40012 52005 72582 8393/   333
00017   555 10017=
38683 42997 03404 10178 20078 39806 40069 53002   333 00013   555
10015=
38812 42697 60803 10200 20081 40058 53006 86300   555 10019=
38927 32997 80000 10172 20086 39695 40054 53008 83010   333 00014
555 10016=
38462 41597 80000 10079 20059 38715 48458 57004 78088 889//   555
11008=
11414 01256 89901 10066 20061 39407 42746 56013 60031 76162 885//
333 55057 69985 83705 88630
555 397// 50123 60126 70128 80125=
11438 11656 80000 10084 20066 39753 40146 56010 60021 76162 8452/
333 55076 84636 88459
555 389//=
11502 06/// /0603 10082 20059 39676 40127 57013 69921
333 55081 69925
555 385// 50134 60140 70146 80138 90128=
11538 01662 89901 10088 20088 39516 40115 57021 60041 76362 8802/
333 55083 60025 88540
555 300// 50156 60165 70155 80139=
11628 11460 81504 10081 20079 39490 40118 58023 69991 76162 887//
333 55085 88712
555 399//=
11643 06/// /0000 10059 20050 39178 42756 57015 69951
333 55000 69925
555 394// 50120 60124 70124=
11683 11556 80000 10069 20065 39259 42749 58023 69941 76062 8552/
333 55096 85623 88457
555 398//=
11693 11462 80703 10100 20072 39639 40119 56022 69921 76162 8372/
333 55121 83712 88459
555 383//=
11698 06/// /9902 10114 20074 39711 40110 56026 69911
333 55107 69915
555 377// 50168 60170 7//// 8//// 9////=
41883 32456 80902 10240 20230 30020 40040 8682/ 333 56499 59008 70216
86616 88458=
41891 11330 70903 10245 20230 40043 69944 72162 8637/ 333 56299 59023
70054 82708 83614 81930 87458=
41907 31350 80902 10242 20240 30022 40040 70542 8562/ 333 56999 59007
70000 84710 83615 88460=
41923 32340 80000 10250 20240 30040 40050 8577/ 333 56499 58003 70482
83708 84615 86459=
41943 32440 70000 10250 20230 30032 40041 84520 333 56990 59018 70040
84615 86457=
41950 11330 83304 10245 20230 30036 40040 60016 70296 8532/ 333 56999
59001 70380 83708 84615 81930 88459=
41978 31323 61404 10272 20260 40037 70221 8573/ 333 5699/ 59013 70000
83708 84615=
35796 41698 61806 10165 20134 39611 40013 53001 70282 83101   555
11015=
36821 42598 70000 10190 20115 40041 52005 82932   555 91107=
36864 42599 60000 10164 20081 40052 53001 86900   555 91114=
36870 41597 81302 10178 20065 39129 40072 53022 78082 889//   333
88929   555 11015 91111=
38696 42598 51602 10195 20104 39254 40055 53002 82170   333 00015
555 10016=
91324 32474 80404 10330 20261 30088 40090 93201 333
20222 561/9 58000 83818 88075 555 93100
91339 11474 80406 10294 20249 30088 40094 51010 60054 70282
8421/ 333   20233 56199 58000 84818 88463 555   93100=
40373 32960 00000 10274 20000 39622 40010 333 59016=
40416 32960 02908 10280 20120 39980 49999 333 59004=
40420 32960 03206 10296 20060 39818 40011 333 59009=
40439 32960 00000 10256 20190 39996 40008 333 59012=
41030 32960 20000 10300 20170 39752 40016 82030 333 58006 82360=
41036 32960 02404 10250 20120 38514 48462 333 59002 555 04410
59987=
41112 32960 00000 10184 20083 37922 48485 333 59001 555 04410 59991=
41114 32960 00000 10190 20061 37962 48474 333 59001 555 04410
50005=
41128 32960 00000 10260 21030 38752 48472 333 58000 555 04410
59994=
41136 32960 00305 10290 21030 39249 40012 333 58004=
41140 32960 00000 10290 20230 30010 40018 333 59008=
60355 32960 01805 10214 20159 40194 58003
333 95990=
60445 32965 00805 10207 20130 39044 48576 58002
333 95990=
60511 32965 00000 10194 20102 39099 48567 50005
333 0//00 95990
60549 32560 40000 10234 20041 38912 48562 52010 83280
333 0//00 83830 95990=
60555 32970 01406 10270 20139 40165 56005=
60559 32960 00000 10276 20154 40171 58002
333 0//00=
60607 32960 00612 10278 2//// 40136 51005 =
60620 32960 00416 10291 2//// 40110 53003=
60640 32960 60904 10285 20051 40127 58008 83032
333 0//00 83360 83073=
34300 42597 71003 10180 20140 39921 40101 54000 85530=
33587 42562 83203 10129 20102 39856 40111 52001 885// 333
88630=
34601 42997 00903 10160 20150 40095 54000=
33924 41949 01702 10175 20167 30085 40097 57002 71000=
33135 41496 83405 10140 20132 39933 40105 52004 78182 883// 333
88912=
34504 42697 21703 10165 20151 39921 40091 53001 82300=
12435 31558 71302 10088 20072 39972 40143 57010 71011 875//=
62002 32960 00602 10230 20104 39496 48590 53001=
62007 32960 00000 10230 20163 40178 56002=
62008 32970 00305 10200 20109 39415 48578 56007=
62010 32960 00000 10184 20150 40189 56010=
62012 31958 02602 10182 20167 40221 55001 71000=
62016 32960 00106 10204 20188 40179 58008=
62019 32958 40000 10201 20185 40176 54000 84500 333 84625 =
62053 31556 33610 10185 20170 40174 54000 71000 85500 33 385608=
62055 32560 30000 10195 20171 40165 56003 83500 333 83630=
62056 31456 72710 10150 20147 39458 48535 54000 71022 87600 333
87715=
62062 32558 23310 10190 20157 40148 54000 82500 333 82625=
62103 32960 01515 10266 20159 40160 51001=
62131 32970 03009 10205 20153 39868 40175 51003=
62259 32960 00000 10245 20073 40155 56006=
62271 32960 03408 10245 20089 40166 58002=
38149 32998 00607 10196 20090 30080 40102 58002   555 10020=
71805 43/// /2408 10059 20044 30206 40235 51013=
48300 01559 30000 10256 20252 39758 40060 60024 76161 82535
333 20243 58000 60026 70017=
48327 12562 60203 10248 20236 39707 40061 60204 83836
333 20235 58005 70196=
48331 32560 80000 10251 20237 39841 40070 8567/
333 20243 58011=
48356 01562 80000 10255 20244 39868 40063 60044 70262 82556
333 20253 59003 60016 70038=
48407 01558 81302 10255 20246 39928 40069 60054 71096 8447/
333 20250 58002 69977 70049=
48480 11558 60000 10260 20246 30053 40057 60034 71092 83335
333 20246 59005 70034=
48565 01459 82508 10261 20233 30066 40077 60764 76062 83877
333 20238 59005 60217 70761=
48569 01460 80000 10241 20231 30034 40074 60014 70262 84866
333 20235 59004 60017 70013=
48583 31558 60000 10263 20214 30067 40073 71022 82446
333 20235 58002=
12418 11698 81601 10103 20082 30025 40138 57008 69901 78082 873//=
48303 12562 80000 10238 20229 39624 40065 60274 8657/
333 20227 59001 70272=
48328 31556 60000 10252 20238 39782 40059 71021 84836
333 20245 58004=
48330 01440 80000 10260 20249 39877 40062 60044 79522 84976
333 20251 58003 69905 70039=
48354 11458 80000 10272 20255 39851 40052 69904 71021 8557/
333 20262 59009 79999=
48376 12560 50000 10260 20240 39912 40056 69954 83536
333 20250 59006 70005=
48379 31556 80000 10252 20233 39914 40046 71021 83576
333 20245 59001=
48400 01560 80000 10264 20253 30011 40051 69904 70296 83536
333 20258 59004 69907 79999=
48432 11556 80000 10248 20241 39894 40062 60154 71092 81246
333 20237 59005 70151=
48455 11565 53003 10280 20252 30047 40052 69904 70192 83846
333 20270 59003 79999=
48462 32560 20000 10269 20256 30005 40060 83500
333 20263 59007=
48475 32562 70000 10265 20233 30039 40050 83546
333 20260 59008=
48517 12560 60000 10255 20243 30060 40065 69924 83876
333 20252 59001 70002=
48567 01456 83503 10244 20238 30057 40075 60134 76162 8487/
333 20240 59004 60016 70128=
12415 11798 83501 10110 20086 39981 40131 58015 69901 70282 885//=
12500 32560 81501 10088 20064 39720 40133 57019 875//=
47407 32982 70302 10154 20045 39963 40100 58005 80005
333 20071=
47409 32/82 70103 10122 20054 30066 40117 51009 81032
333 20076=
47418 32/80 73103 10188 20063 30067 40110 58003 81602
333 20079=
47421 32/75 71706 10195 20066 30035 40079 50000 85032
333 20092=
47430 32/60 82402 10191 20117 30037 40088 56002 81037
333 20122=
47570 32970 82704 10197 20136 39819 40063 58012 86037
333 20152=
47605 11/60 80606 10191 20158 30021 40059 58005 60012 72162 8807/
333 20184=
47663 11/65 82102 10193 20181 30045 40076 58003 69902 76062 8172/
333 20180=
47675 32565 72109 10227 20187 39997 40088 52002 8587/
333 20193=
47741 11/58 81006 10177 20167 30013 40038 57005 60142 76166 8572/
333 20163=
47746 11160 81603 10183 20161 30028 40046 56009 60062 76166 8177/
333 20159=
47887 11/50 82905 10183 20168 39996 40035 55011 60062 76062 8177/
333 20173=
80403 11465 81404 10262 20227 30100 40119 69951 72059 8122/
333 10323 30/// 5699/ 58008 81816 88456 1012=
80410 32460 80905 10240 20206 39423 40100 83528 333 10310
30/// 56299 58013 83616 1013=
80413 12460 40000 10235 20227 39605 40090 60101 84500 333
10303 31/// 56900 58005 84616 1011=
80415 11458 70701 10257 20250 30063 40117 60061 76096 879//
333 10313 32/// 563// 58011 81613 86616 1011=
80419 11320 83601 10224 20196 30077 40086 60081 75295 889//
333 10285 32/// 566// 58008 88910 1008=
80421 32460 80707 10264 20222 30092 40114 8287/ 333 10307
30/// 5629/ 58002 82816 86458 1011=
80428 11460 73402 10250 20225 39901 40086 60051 70292 81505
333 10313 31/// 56909 58002 81617 86080 1012=
80435 11460 50203 10244 20226 30041 40117 60051 70265 855//
333 10304 31/// 562// 58008 85613 1012=
80438 11320 82303 10190 20185 38502 48499 60021 75126 887//
333 10264 32/// 569// 5907 88707 1018=
80444 11360 50603 10244 20227 30052 40105 60031 70262 859//
333 10332 31/// 569// 58013 81908 84608 1010=
80447 31560 70702 10271 20213 39647 40067 71322 8492/ 333
10320 30/// 5699/ 59005 81920 83620 84460 1011=
80457 12460 81801 10252 20216 30019 40105 60031 8452/ 333
10308 31/// 5699/ 59003 84610 84460 1010=
80420 11460 50506 10256 20245 30090 40096 60051 70295 8152/
333 10310 31/// 5629/ 58011 81613 84460 1010=
80425 11460 80000 10278 20245 30041 40072 69901 71799 8252/
333 10335 30/// 5699/ 59005 82613 86460 81916 1007=
80427 11560 23101 10244 20233 39850 40104 60021 70262 82500
333 10293 30/// 56900 58009 82620 1011=
80431 11560 82002 10232 20224 39590 40066 60031 70292 8352/
333 10306 31/// 5699/ 59005 83620 84457 1009=
80475 32560 20000 10223 20181 39742 40112 82700 333 10284
30/// 56900 59003 82720 1012=
41598 20710 10290 20257 40112 51012 70200 82200
22283 00297 20201 311// 40402 80265=
41697 40709 10290 20257 40103 51013 70121 8424/ 90000
22283 00290 1//// 20401 305// 40602 5//// 6//// 80265=
22235 00300 2//// 3//// 4//// 5//// 6//// 80265 /////=
62120 31004 99564 10021 46898 ///// 10264 40129 54000 22200 80087=
62301 31003 99523 70045 46/// /3106 1//// 2//// 40168 22200 00141
10301=
15601 18002 19006 22235 23026 35061 36101 50045 51148 52004 53581
70001 71999 72282 73132 74012 75463 76900 80123 05422 07248 10094
11127 12449 13445 14910 15596 18000 19000 22235 23026 35062 36099
50045 51148 52004 53581 70001 71999 72282 73132 74012 75461 76900
80077=
70200 824// 22200 00090 20604 334// 40805 5//// 6//// 80094 ICE
/////=
57232 32975 03402 10184 20170 40068 52007 333 05203=
52984 32975 70000 10138 20092 38023 52012 80002 333 05500=
53942 32960 00000 10197 20099 40018 52015 333 05203=
53929 32965 20000 10211 20111 40012 52014 80002 333 05306=
57134 32980 00000 10166 20123 40044 52002 333 05102=
52446 32980 72201 10180 20063 40028 52013 80002 333 00002=
52895 32970 10000 10159 20062 40014 52015 80002 333 05452=
52674 32980 13201 10118 20045 37979 52011 80002 333 00051
30033=
56093 32980 10000 10106 20083 37671 52004 80002 333 05451
30041 79999=
53821 32975 03402 10165 21043 40015 52015 333 05201=
58631 41556 83204 10216 20213 40068 60902 780// 887// 333
10314 20216 70954 555 10242=
52447 32980 70000 10187 20075 40028 52010 81042 333 00005=
52424 32980 21102 10192 20005 40013 52013 80002 333 00103=
56074 32980 10902 10070 21024 36689 52009 80002 333 05203
31012=
53519 32980 63402 10198 20039 40021 52006 81032 333 00001=
53615 32770 40402 10187 20047 40018 52010 81530 333 00000=
53817 32980 01102 10213 21010 38180 52011 333 05304=
53903 32980 02901 10136 20063 38031 52005 333 05252 30041=
51186 32980 60000 10109 20052 40055 52008 80002 333 05201
30034=
51330 32980 72702 10116 20027 40080 52002 80002 333 05301
70002=
51365 32980 72001 10184 20091 40039 52009 82032 333 05301=
51633 32980 10000 10092 20078 40067 52005 80002 333 00061
70011=
52908 11960 80403 11010 21016 35796 52008 60011 70070 8802/
333 05301 31005 70032 92502=
52818 32775 72004 10130 21073 37213 52009 81502 333 05205=
56004 11870 81102 11001 21012 35850 57001 60031 77087 8802/
333 05402 31004 70027 92502=
54764 32968 70902 10178 20136 40058 52009 8703/ 333// 05152=
56312 32680 70000 10092 20072 37103 52008 874// 333 05201=
55591 32780 73402 10118 20044 36530 52007 878// 333 05406
79999=
55585 32780 50000 10099 20045 36403 52009 85400 333 05306=
55493 11680 72503 10029 20019 36052 52018 60051 78080 879//
333 05303 30037 70053=
56227 11778 71102 10070 20055 37338 52013 69901 78000 879//
333// 05202 79999=
56434 11380 70000 10129 20119 37683 52007 60031 70060 87800
333// 05102 70026=
56317 41578 70000 10094 20076 37147 52009 78080 874// 333
05201 79999=
55664 32880 30000 10029 20021 36033 52001 83400 333 05101
31005 79999=
55773 11470 72204 10034 20014 36040 52001 69921 70080 87430
333// 05103 30020 70015=
55578 11780 70000 10088 20046 36388 52012 69901 70080 874//
333// 05205 79999=
55680 32880 70000 10070 20020 36253 52008 874// 333 05205
30024=
55569 32780 60000 10095 20004 36244 52006 86800 333 05304
30044=
55572 41780 60000 10095 20022 36264 52010 70080 86400 333
05306 79999=
55655 11580 70000 10064 20051 36493 57002 60021 70080 874//
333// 05151 70019=
55228 32780 20202 10012 10563 60575 20058 28023 33//0 0051/=
55248 32780 10000 10008 21104 35937 52016 81142 333 05103
31044=
55437 32780 20000 10034 21001 36365 52003 81102 333 00054
31009=
55696 32480 70405 10071 20021 36378 52010 8284/ 333 05102=
55598 11780 60000 10101 20072 36612 52011 69901 70080 86800
333// 05404 70005=
55690 32380 72501 10038 20021 36025 52008 874// 333 00001
31009=
55681 42580 70000 10050 20013 35932 52004 87440 333 05202
30015 70008=
56307 42780 70000 10100 20074 36871 52007 81140 333 05203=
57793 11365 82703 10213 20204 40076 52018 60221 78098 889//
333// 00000 70314=
57806 31530 80901 10185 20166 40076 52008 710// 885// 333//
00004=
20274=
11127 12449 13445 14910 15596 18000 19000 22235 23026 35062 36099
50045 51148 52004 53581 70001 71999 72282 73132 74012 75461 76900
80077=
51241 32780 61802 10150 20058 40046 57001 81432 333 05300=
51477 32680 72702 10152 20070 40053 52009 82462 333 05151=
51720 32565 72002 10134 20113 40051 52001 83902 333 00352
70041=
65352 11960 70000 10240 20226 39938 40103 60071 70996 8705/
333 58000 87363=
65361 31560 70000 10250 20242 39673 40110 71322 81902
333 58006 81920 87076 94942 95832=
65376 32960 72604 10248 20225 39646 40102 80002
333 59001 87076=
65387 32460 72304 10279 20252 30076 40104 83202
333 59010 83810 87073=
71706 32974 61807 10092 20035 30194 40255 53002 80001 333 10148 21018
70000=
71079 11674 82820 10058 20009 39798 40073 52012 69901 78082 884//
333 10080 20012 79999 90915=
71083 11466 80318 10011 21004 30043 40080 57007 69931 76162 885//
333 10019 21002 42002 70003 90946=
67843 42980 00000 10086 20051 38977 48533 333 58006=
45011 32475 31605 10284 20258 40091 52018 82201
333 20266  59011=
10320 30/// 5699/ 59005 81920 83620 84460 1011=
61968 16/// /2502 10216 20208 30135 40140 69921
333 58005=
61970 36/// /1904 10228 20151 30153 40165
333 58010=
61980 32565 31110 10224 20186 40178 83800
333 58010 81820 83650 924/7=
67005 36/// /1908 10257 20216 40147
333 58010=
61996 32580 62723 10152 20132 40138 86800
333 59033 82823 84643 92448=
61998 32470 52914 10056 20028 39914 49949 53029 82532
333 59071 82616 83360=
91944 36/// /0218 10283 20245 30111 40117 56014 333 20265 58021=
91945 36/// /3417 10282 20238 30088 40093 58004 333 20257 58017
555 1//29=
78948 31560 70919 10276 20238 30142 40150 70622 85207 333
02206 10309 20265 58017 70010 85822 87276=
71946 31774 73608 10182 21001 30001 40211 57008 71511 86371
333 10202 20039 70000=
80001 32570 80704 10273 20246 30105 40106 82206
333 10288 20268 57862 58003 82823 88270=
80002 32570 80505 10278 20244 86201
333 10304 20268 86823=
80009 31560 53605 10286 20222 30073 40078 71792 83935
333 10326 5600/ 57921 59005 83920=
80022 31462 73504 10282 20254 30084 40086 71792 82901
333 10312 563/9 57932 58002 82913 85070=
80028 31460 40207 10275 20263 30076 40093 70511 84600
333 10324 561// 58001 84715=
80097 31566 73602 10277 20215 39726 40070 71722 83232
333 10341 56000 57884 59011 83823 83359=
80112 31570 70000 10161 20153 37899 70522 82886
333 10202 56000 58010 82620 86070=
80210 01458 81002 10193 20171 38652 60031 70565 82578
333 10217 56000 58011 69987 82810 85358=
80214 01560 50000 10206 20188 69941 70552 81552
333 10260 56000 69947 81630 83359=
80222 41262 79902 10126 20112 37514 70562 86802
333 10174 563/9 58003 81705 85820=
80259 11459 60000 10214 20197 39042 60041 71552 82270
333 10250 5690/ 57853 58010 82815 86359=
80315 31568 40000 10251 20221 39578 40067 70510 82401
333 10297 56009 58013 82620=
80398 22460 70000 10250 20244 39990 40085 60041 83530
333 10304 5600/ 58006 83613 84338=
65306 11558 81812 10215 20197 39775 40101 60091 71796 8697/
333 58021 83620 84933 87463 94959 95879=
65319 31960 7//// 10265 20198 39588 40092 713// 82912
333 58003 82930 87461 94942 95874=
65330 11456 70416 10262 20209 39685 40119 69951 79562 8697/
333 58022 85610 82930 87461 94941 95831=
65335 31560 5//// 10258 20236 39875 40098 713// 81902
333 59001 81930 85076 94944 95814=
65344 32460 72210 10286 20249 30086 40096 83502
333 59005 83613 85076=
65338 33960 50000 10273 20242 39917 40104 80002
333 59008 85076=
80077=
89022 42999 01906 11207 21220 30007 40048 57005
333 11162 21233=
78988 31468 71011 10284 20249 30109 40118 52012 70622 82202
333 10330 20274 58011 82818 87081=
78982 31462 70818 10281 20246 30102 40107 52005 70622 81208
333 10330 20273 58009 81818 87281=
78990 12470 70815 10280 20237 30112 40119 52007 69921 84208
333 10320 20273 58008 70002 84817 86281=
78866 32460 51013 10269 20230 30170 40174 52014 83202 333 10311 20252 58017 8381
82863 32995 20000 10255 20233 39903 40114 80008 333 10351 58011=
83064 32998 00000 10262 20212 39840 40109 333 10349 58009=
83228 32997 00000 10238 20205 39844 40126 333 10343 58012=
83235 32998 00000 10240 20184 39443 40105 333 10340 58013=
83332 32697 10000 10242 20154 39210 40108 81100 333 10310 58008=
83368 32996 00502 10236 20178 39758 40125 333 10341 58010=
83374 32995 00000 10226 20169 39551 40120 333 10327 58011=
83376 31997 22702 10187 20145 39288 40107 70541 80001 333 10314
58020=
83377 31697 22302 10205 20110 38876 40126 70541 82200 333 10281
58010=
83378
32570 30000 10219 20121 38979 48547 81530 333 10300 58013=
83423 329// 00000 10232 20179 39304 40124 333 10316 58005=
83470 32698 33206 10242 20131 83100 333 10309=
83522 32997 00000 10188 20157 39282 333 10298 58011=
83526 32997 00000 10209 20140 39192 40129 333 10288 58009=
83766 32597 60000 10120 20120 39496 40165 54000 86500 333 10///=
83767 31596 30000 10134 20125 39530 40174 53002 71022 83100
333 10152=
83783 32997 10000 10104 20101 39460 40150 54000 80003 333 10162=
83811 32597 83202 10132 20111 39231 40129 55001 885// 333 10160=
83813 32597 20000 10117 20105 39032 40133 53004 82100 333 10169=
83836 32997 02702 10128 20112 39147 40128 51012 333 10175=
83844 32597 41802 10156 20140 30108 40115 51005 81260 333 10222=
83872 31996 00000 10126 20123 30050 40134 53014 71000 333 10238=
83883 32997 00000 10134 20100 39371 40152 52014 333 10202=
83887 32997 03206 10110 20055 39075 40134 52004 333 10178=
83899 32970 00000 10135 20130 30116 40116 51015 333
10224=
83907 32997 02702 10139 20104 39848 40137 53008 333 10225=
83912 32997 02704 10124 20076 39566 40118 52012 333 10202=
83914 32997 02306 10120 20054 39364 40157 52012 333 10188=
83919 32997 02701 10074 20035 38951 40148 52005 333 10154=
83927 32997 02302 10153 20116 30067 40149 52013 333 10204=
83936 32497 22703 10138 20104 39988 40114 52010 83200 333 10214=
83948 32997 00000 10148 20085 30072 40110 51007 333 10203=
83953 32997 02306 10108 20087 39759 40144 53016 333 10182=
83964 32997 02302 10119 20079 39631 40134 52010 333 10178=
83971 32970 02902 10140 20104 30130 40130 53015 333
10204=
83980 32997 03202 10111 20066 39847 40136 51011 333 10176=
83995 21497 22704 10131 20118 30106 40110 54000 70181 82100
333 10188 60021=
83997 32997 02312 10124 20111 30072 40116 51010 333 10179=
83612 21570 60910 10178 20168 39506 40134 53011 71796
84930=
83716 32870 81906 10132 20118 39620 40141 51002 8807/ 333
10188=
83722 21862 41805 10153 20111 39441 40137 51003
70522 83041 333 10238 69901=
83780 31965 30000 10178 20054 39233 40119 50002 70522
80001 333 10238=
83827 32970 40402 10164 20146 39869 40152 51012 84030
333 10216=
83550 329// 0//// 10218 20211 30103 40133 70012 80000 333 10282
59019=
83695 83695 326// 30000 10216 20188 30003 40142 5//// 83800 333
10286=
83698 32/// 01803 10210 20188 30099 40113 50108 333 10264=
83718 325// 80000 10158 20155 3//// 4//// 5//// 70222 88800 333 10236
=
83738 32/// 00903 10158 20124 39616 40127 52006 333 10248=
83248 32470 31405 10262 20225 40148 83200 333 10286 58008=
83349 32470 52203 10256 20229 40145 83201 333 10282
58002=
82287 21595 10903 10236 20231 30060 40086 71360 82100 333 10306
58011 60031=
82392 32596 20000 10226 20223 30000 40103 82100 333 10296 58009=
82398 32470 50908 10274 20240 40116 83530 333 58003=
82400 32470 10260 20233 40124 82100 333 10284 59005=
82480 31595 82702 10240 20232 39923 40105 71392 885// 333 10320
58015=
82493 32593 205// 10242 20225 30097 40111 82100 333 10323 58007=
82583 32896 82703 10230 20213 39780 40119 885// 333 10316 58007=
82586 32994 03603 10246 20188 39871 40109 333 10311 58004=
82599 21465 10248 20244 40133 71561 83201 333 10290 59004 69941=
82678 329// 00000 10254 20225 39966 40124 333 10334 58022=
82683 32594 62304 10256 20213 39669 40119 86200 333 10318 58009=
82686 32593 52302 10256 20231 39866 40112 83200 333 10328 58006=
82689 326// 60504 10254 20215 39840 40104 86200 333 10328 58007=
82780 32696 30000 10292 20219 39854 40104 83200 333 10346 58003=
82784 32995 01403 10260 20160 39663 40128 333 10336 58008=
82791 325// 31410 10282 20177 39817 40099 83200 333 10356 58006=
82798 32595 71803 10254 20240 30128 40149 87600 333 10288 59002=
82879 32992 01401 10256 20173 39844 40108 333 10338 58006=
82882 32993 01805 10272 20210 39678 40093 333 10342 58004=
82886 325// 00408 10269 20170 39725 40106 333 10325 58012=
82893 32693 81405 10190 20190 39230 40135 885// 333 10255 58008=
82899 32470 72404 10261 20236 40134 85230 333 10310 58000=
82900 32595 62305 10256 20231 30121 40130 86500 333 10292 58007=
82975 32594 50000 10266 20192 39425 40122 82100 333 10334 58004=
82976 32594 02701 10226 20177 39524 40105 333 10334 58004=
82983 32995 00906 10262 20170 39715 40131 333 10312 58020=
82993 32570 32304 10250 20238 40136 83200 333 10290
58003=
82098 21/97 80000 10254 20249 30097 40114 70325 8487/ 333
10290 29091 55031 58014 69921=
82141 32997 00000 10266 20250 30101 40113 333 10300 29085
55051 58012=
82145 21596 30000 10242 20233 30071 40113 70262 82240 333
10303 29090 55048 58014 60091=
82178 32/98 40000 10258 20242 30048 40091 84200 333 10300
29090 55/// 58006=
82181 32597 70910 10265 20183 87050 333 10314 29050 55069=
82184 21698 60902 10252 20247 30092 40110 71466 87200 333
10281 29098 55035 58004 60031=
82191 21797 40000 10250 20243 30100 40106 70195 83031 333
10325 29085 55078 58013 69911=
82198 32795 20903 10253 20227 30043 40094 82200 333 10303
29085 55041 58010=
82246 32597 50000 10262 20248 39925 40124 85600 333 10301
29090 55040 59005=
82263 21498 80504 10248 20246 70365 887// 333 10328 29087
55066 60101=
82280 21598 2//// 10248 20227 30055 40113 70161 81150 333
10310 29078 55060 58015 60071=
82353 32999 0//// 10273 20230 333 10336 29076 55091=
82361 31/96 60000 10280 20262 30076 40113 71321 86700 333
10331 29086 55079 58013=
82376 21/93 90000 10246 20237 30066 40118 70262 333 10327
29087 55050 58015 60011=
82445 21596 20000 10254 20252 30072 40125 70361 82200 333
10349 29092 55038 58008 60121=
82460 21597 72701 10248 20225 30073 40103 70252 87500 333
10/// 29086 55025 58017 60021=
82562 32998 00000 10284 20242 30022 40132 333 10335 29072
55104 58007=
82564 32597 40000 10295 20226 81200 333 10341 29088 55067=
82571 21997 00000 10251 20247 39920 40118 7006/ 333 10316
29090 55062 58010 60011=
82765 32998 00000 10266 20218 39884 40123 333 10339 29067
55106 58006=
82861 32999 02304 10281 20244 39910 40087 333 10352 29075
55090 58010=
82022 21470 61103 10252 20238 40108 70262 83531 333
10296 58012 69931=
82824 32970 00000 10260 20223 40100 333 10342 58016=
89050 32570 52806 11016 21031 40210 57020 82130=
89512 42982 01830 11041 21212 39740 49887 57020=
89592 11410 81024 11076 21076 40117 52009 60212 77573 8802/=
89606 11957 83204 11517 21569 36383 47598 57003 60032
77872 80007 333 21666=
65545 32960 30000 10230 20215 39689 40103 80002
333 59003 83076=
65560 31458 6//// 10225 20218 39800 40110 70292 86500
333 59003 86613=
65563 32960 00000 10230 20221 39867 40105
333 58002=
65585 31460 3//// 10265 20239 3//// 4//// 70191 83200
333 5//// 83813=
65594 31460 60000 10272 20258 3//// 4//// 71311 86900
333 5//// 86913 95338=
89758 46/// /13// 11349 37034 4//// 5////=
89568 46/// /1012 11276 37409 4//// 5////=
89774 46/// /0322 11257 37252 4//// 5////=
30372 11699 62201 10089 20025 39279 40105 52018 69902 70262 83932=
30433 32999 00403 10129 20041 39576 40136 52008   333 20072 55122=
30554 32998 13502 10111 20017 39083 40111 52012 80002   333 21028=
30635 32999 61602 10110 20036 39590 40132 52012 80009   333 2100/=
30673 12999 02702 10115 20004 39346 40068 52008 69962   333 20023
55067=
30758 32999 23605 10127 21027 39329 40102 52020 80001   333 20051
55138=
30802 11999 00301 10105 20090 38646 48450 52003 69902   333 20049
55125=
30823 32999 70503 10138 21019 39510 40106 52014 83031   333 20094
55142=
30879 32699 80000 10118 20062 39339 40051 52015 885//   333 20035
55148=
30935 32999 11201 10092 20056 39226 40116 52019 81040   333 2////
55113=
30949 32999 32801 10119 20036 39050 40076 52010 80001   333 20045
55///=
30965 32999 72804 10152 20030 39285 40051 52011 80002   333 20024
55151=
31300 32999 71402 10139 20050 39820 40090 54000 87030   333
20033=
31329 31999 70902 10100 21005 39473 40109 58004 70242 80002 333 20000
55019=
31369 32698 21805 10084 20030 30055 40138 52024 82400   333 20022=
31416 32999 73602 10129 20027 30040 40126 52006 80001   333 20042
55061=
31484 42984 20000 10016 20011 40144 52026 80001=
31510 329// 01701 10150 20082 39937 40093 52013 333 20054=
31707 32999 20503 10153 20059 30021 40108 52006 80001   333 20085=
31735 32997 40102 10154 20079 30030 40113 52009 82031 333
20076=
40394 32962 00000 10264 20000 38953 48463 333 59027 555 04410
59995=
40405 32960 00902 10283 21040 39304 49990 333 59029=
40437 32960 00000 10280 20030 39360 40012 333 59005=
40100 32960 00505 10244 20199 40071 53002 900//
333 92426=
40706 32960 01002 10188 20073 38609 40042 53009 92345 333=
40718 32960 03604 10222 20207 30121 40090 53009 92350 333=
40732 32960 02402 10196 20152 30087 40067 56007 92345 333=
40745 32960 00000 10194 20073 38982 40040 54000 92350 333=
40754 32960 00000 10244 20142 38752 49995 53008 92355 333=
40766 32960 02904 10182 21032 38646 40027 54000 92350 333 =
40811 32960 00000 10240 20110 39914 40025 53005 92350 333=
40841 32960 02402 10196 21020 38199 49967 54000 92050 333=
40848 32960 00000 10230 20007 38469 49985 53003 92350 333=
40250 32970 00605 10198 20062 39304 40040 52004=
40265 32960 00000 10216 20083 39313 40058 54001=
40296 32965 00000 10315 20142 40080 52008=
48310 31540 80000 10244 20235 39614 40061 71021 85876
333 20240 58004=
48329 12560 70000 10250 20240 39724 40061 69914 85836
333 20242 58001 70001=
48352 31562 80000 10257 20241 39867 40065 70392 85576
333 20254 59004=
48357 32560 70502 10259 20239 39902 40071 82146
333 20250 59005=
48383 01560 60000 10250 20235 39897 40054 60044 70166 83846
333 20240 59015 60027 70036=
48403 32560 80000 10250 20240 39857 40066 85576
333 20240 59001 70418=
48426 11558 80000 10275 20265 30034 40047 60104 71022 84576
333 20267 59003 70097=
48430 32560 60000 10278 20260 30039 40047 83575
333 20264 59004=
48450 12560 80000 10261 20233 30015 40048 60044 83876
333 20261 59009 70040=
48550 11558 83102 10272 20229 30061 40066 69954 71022 81946
333 20263 58003 70005=
48566 01559 80116 10280 20251 30082 40090 60084 72162 84877
333 20250 58008 60027 70076=
48568 01459 62103 10250 20228 30061 40069 60024 71062 83876
333 20243 59010 60027 70024=
48501 01560 80000 10253 20232 30054 40062 60204 70362 82376
333 20251 59007 60027 70198=
48561 01560 80000 10266 20254 30073 40077 60204 72162 85576
333 20250 58000 60157 70197=
48564 01457 83012 10255 20236 30067 40072 60214 76162 84276
333 20252 59004 60107 70208=
48570 11558 70000 10244 20235 30062 40069 60234 71022 83536
333 20228 59017 70232=
48580 31558 80000 10248 20224 30064 40077 71022 86857
333 20243 59006=
61036 32960 6//// 10337 20173 39823 40050 80008 92345
333 59018 86280=
61043 32965 21806 10340 20130 39624 40044 80001 92345
333 59006 82080=
61052 32960 31618 10340 20208 39821 40062 80002
333 0//00 59008 83080=
61090 32960 50000 10317 20147 39567 40053 80002 92345
333 59006 85080=
61096 32965 61802 10290 20194 39691 40057 81038 92345
333 58001 81365 86280=
61099 11665 7//// 10248 20238 39/// 4//// 60021 71796 81970 92345
333 5//// 81940 87464 94946 95876=
40255 32960 00000 10236 20043 39395 40068 54001=
40260 32960 00000 10236 20162 39318 40050 54001=
40270 32960 00000 10235 20089 39203 40040 54002=
40272 32960 03404 10185 20081 39263 40049 54001=
40340 32960 00000 10290 20156 40047 52010=
17098 32970 00000 10070 20059 38195 48489 51001 333
10106=
33246 41460 60103 10162 20148 39950 40098 53008 78098 86300=
33614 82110175=
44277 32999 10000 10092 20041 37798 40103 53005 80004 333
21005 55/// 555 31029=
44292 32898 70901 10107 20043 38650 40101 53009 85075 333
20069 55094 555 30042=
44373 32999 20000 10146 20048 38477 40067 52013 80008 333
20094 55135 555 30073=
40703 32960 00000 10166 20085 38870 40053 51003 92348 333=
40712 32960 00000 10130 20059 38638 40036 52007 92350 333=
40729 32960 00602 10096 20035 38303 40064 53003 92350 333=
40736 32960 00000 10208 20180 30094 40067 57006 92345 333=
40743 32962 00000 10238 20060 38985 40041 5+/+(,$+-?VGVSVIOUPB?Y?FEUP
YE?GVFJA
OUVI?W BVOMRTBS RVHF?XMTUIIFEV
ERCGBP?UIDGFKUWRVBTFGSEDCL
SPQYOCYAU??1?6?18?6+=
40821 32960 00000 10236 21006 38709 49976 53009 92350 333=
40831 32960 03603 10290 20063 30009 40017 57007 92350 333=
33393 42960 00000 10061 20052 39776 40167 58002=
12424 32699 72701 10113 20081 39984 40134 57012 8353/=
12400 11570 80302 10099 20068 39903 40135 56011 60011 70382 875//=
12510 11/90 92009 10008 20008 38315 48437 57025 69941 76174=
12520 11575 82101 10103 20078 39709 40136 57010 69901 76122 885//=
38392 42997 00103 10168 20056 30007 40106 52006 555   10013=
38507 42996 00000 10175 20102 39987 40085 57004 555   10016=
38545 42998 03302 10169 20151 39913 40180 52012 555   10014=
38687 42996 03402 10166 20093 39838 40063 52002 555   10014=
38763 42997 00902 10232 20089 39973 40071 54000 555   10020=
38880 429// 21902 10229 20048 39734 40091 53006 80009 555
10018=
38974 429// 03203 10221 20073 39740 40054 53005 555   10022=
38895 42997 00302 10133 20114 39801 40072 53003 555   10020=
38987 429// 02101 10192 20061 39373 40078 52006 555   10014=
38911 42997 03603 10199 20077 39765 40043 53005 555   10017=
38647 429// 00000 10213 20112 30035 40075 52001 555   10018=
38774 429// 00000 10222 20092 39919 40102 52014 555   10418=
38799 42997 00000 10206 20078 39838 40056 52006 555   10019=
38886 429// 03002 10168 20145 39851 40068 56004 555   10019=
38806 42997 00000 10212 20091 39806 40051 53001 555   10015=
38915 42999 11801 10204 20098 39756 40061 53018 80001 555
10020=
38750 42997 00000 10202 20151 30121 40094 53004 555   10018=
383883 42998 00000 10200 20045 30018 40090 53004 555   18017=
38656 42998 00501 10240 20043 39963 40075 53005 555   10022=
12488 32997 01901 10069 20067 30003 40158 57003 =
12215 16/// /0000 10038 20028 39970 40151 54000 69911=
44218 32998 00000 10146 20022 38499 40019 54000 333 20100
555 30079=
44225 32998 00000 10054 20015 38245 40148 53007 333 20024
555 30002=
44232 32999 00000 10119 20074 39042 40113 52013 333 20074
555 30055=
44239 32999 50000 10112 20048 38729 40079 52015 82044 333
20042 555 30022=
44265 32999 70000 10112 20056 38766 40095 53011 80007 333
20086 555 30047=
44272 32998 02502 10084 20017 38188 40098 52005 333 20030
55098 555 30025=
44275 32998 00000 10055 21009 37718 40113 53008 333 21008
555 31022=
44284 32998 00000 10073 20015 37856 40132 53010 333 20026
555 30005=
44287 32599 20203 10122 20056 38097 40081 52005 82500 333
20076 555 30045=
44298 11999 73605 10124 20050 38655 40081 52012 69902 87006
333 20098 555 30083=
44336 32999 00000 10135 21024 38635 40089 51008 333 20068
555 30040=
44341 32999 30000 10154 20056 38554 40068 53012 80002 333
20096 555 30058=
44347 32999 00000 10144 20050 38642 40062 52017 333 20086
555 30046=
44358 32998 83405 10168 20124 38966 40034 52021 8807/ 333
20136 555 30128=
23914 42999 00000 10106 20019 39924 40173 52008=
23921 42966 23201 10039 20024 30070 40188 52013 80001=
23955 12798 73505 10093 20062 39936 49994 53006 60012 83530   333
20091 55000=
23966 11397 80202 10090 20088 39855 49974 57003 60042 70282 889//
333 20090 55000=
28255 42999 03202 10067 20041 30009 40135 52004=
28440 42998 63602 10093 20027 39811 40148 52006 80006=
28661 42975 83306 10083 20065 30004 40094 53005 82031=
28722 42997 03401 10128 20073 30021 40126 52006=
28748 42960 33601 10079 20065 39887 40120 52009 81031=
29231 11297 80000 10111 20111 39842 49932 57011 60122 78082 883//
333 20107 55051 86706=
29313 11496 83403 10118 20109 39823 49937 53006 60022 71082 885//
333 20110 55065 86610=
29612 31293 82702 10108 20104 39818 49960 52015 74441 886//
333 20088 55020 88703=
29634 12657 82006 10141 20097 39759 49964 52005 69942 86301   333
20132 86933=
29838 32597 21701 10135 20068 39791 40007 53004 81532   333 20120
55052=
36061 12699 61201 10143 20130 39654 40033 58003 69972 82531   333
20127 55063=
23909 42998 70501 10089 20041 39929 40170 52008 80001=
28116 42998 22701 10067 20041 39953 40180 52010 80001=
28419 42998 50000 10038 20028 30033 40160 52010 80001=
28621 42980 20000 10114 20065 39927 40151 53006 80001=
29023 11496 80503 10094 20094 39873 49965 57002 60122 75165 886//
333 20095 55000=
29122 11295 80502 10110 20106 39877 49946 56003 60022 71022 886//
333 20110 88706=
29328 11598 81703 10118 20114 39805 49935 53003 60062 72582 889//
333 20110 55035 88921=
29348 12997 61802 10121 20110 39829 49964 56003 60032 86080   333
20108=
29405 11396 83103 10114 20100 39832 49969 52016 60022 78082 883//
333 20113 55035 88908=
29418 11498 80000 10113 20103 39807 49956 52016 69902 70282 889//
333 20102 55023 88913=
29430 32998 81502 10133 20088 39792 49955 56001 889//   333 20119
55075 88930=
29524 12484 72702 10111 20105 39781 49942 52009 60022 87900   333
20109=
29605 32498 83102 10125 20112 39839 49971 52012 889//
333 20115 55038=
29631 12497 82006 10131 20100 39771 49943 54000 60022 889//
333 20127=
29706 12799 62601 10108 20108 39834 49971 52012 69942 82531   333
20091=
29736 12098 11803 10124 20089 39762 49996 53005 60032 81040
333 20090=
29937 32699 62202 10128 20097 39808 40014 54000 82531   333 20120=
36034 32598 81701 10133 20089 39753 40009 54000 8695/   333 20120
84929=
28216 42999 00000 10088 20009 39896 40130 53014=
28321 42984 00000 10096 20023 39959 40157 53003=
28537 42982 10201 10073 20019 39750 40155 53019 80001=
28541 42984 50000 10033 20026 39664 40149 52007 80002=
28642 42997 23203 10076 20053 40138 52009 82030=
28655 32976 03603 10085 20073 39901 40115 52004=
28925 42999 50000 10086 20082 39919 40137 52009 80009=
29557 11998 01604 10145 20111 39751 49998 54000 60012 70298   333
20112 55043=
29625 11499 62203 10133 20124 39791 49955 53008 60162 70282 83930
333 20121=
29642 12960 11807 10132 20111 39690 49994 55000 60022 81030   333
20104=
29813 32399 82106 10131 20126 39780 49949 53008 886//
333 20130 88708=
29822 32597 52303 10134 20105 39822 49974 53001 85500   333 20126
55077 85629 91118=
29846 12597 61603 10138 20134 39656 40015 53003 60092 82531   333
20128=
29915 32699 82403 10128 20113 39838 49986 52002 8253/   333 20115=
36020   333 20105=
30385 32599 80000 10063 20048 39565 40062 52024 86900   333 20027
55008=
30469 32999 10000 10126 21002 39377 40084 52013   333 21032 55082=
30650 32999 00000 10085 20004 39069 40130 52011   333 21012=
30781 11999 30601 10164 20074 39632 40064 52039 69952 70181 81081
333 20099=
30844 32999 30000 10101 20050 39184 40104 52008 80001   333 20047=
30925 32699 20301 10168 20056 39167 40059 52008 82500   333 20093
55135=
31388 32999 01102 10148 20053 39862 40107 58009   333 20015=
31478 32984 80000 10109 21036 39074 40100 52004 80007   333 21029=
31532 31693 80000 10080 20070 39808 40135 52006 74644 86571   333
20005 55040=
31594 32998 11906 10156 20058 39945 40104 52010 80001   333 20094=
31754 31599 63201 10114 20048 39638 40112 51002 70241 82901   333
20010=
33990 42967 02701 10166 20151 30015 40099 54000=
43466 21497 72304 10280 20255 30065 40873 78086 84127 333 59014
69290 70090 84818 87280=
30664 32699 20000 10111 20034 39163 40090 52009 82200   333 10215
21028 55066=
33177 42968 02901 10112 20084 39932 40166 52005=
26898 41458 71502 10156 20138 39851 40105 58002 71098 85930   333
85915=
26997 41948 00000 10152 20148 39892 40101 53004 71098 889//   333
87914=
27595 42997 50404 10140 20104 30028 40165 51005 80004=
27612 42697 60000 10178 20124 39935 40118 54000 86500=
27703 42883 50000 10144 20106 39879 40116 58001 82031=
27707 42966 20000 10172 20144 39829 40106 53002 80001=
27719 42997 60000 10120 20097 39887 40130 58002 84031=
27786 42997 42701 10094 20073 30012 40169 50000 80001=
27906 42597 42597 31104 10148 20122 39882 40113 53001 83300=
27928 42966 30000 10160 20125 39924 40122 52002 83030=
27947 42997 01302 10165 20125 39993 40145 54000=
27962 42997 30000 10142 20104 40154 54000 83030=
27983 42998 02802 10096 20065 30044 40169 53003=
28711 42998 22903 10112 20043 39799 40161 53006 80001=
34009 41697 40802 10146 20133 39807 40099 57002 71300 84400=
34047 42964 01401 10167 20118 39971 40144 52002=
34123 42980 81403 10197 20100 39959 40133 53010=
34152 42995 01601 10154 20107 39965 40153 52001=
34172 42960 02001 10158 20053 39981 40166 53003=
34186 42978 21001 10128 20088 30034 40168 53005 80001=
34247 42970 20000 10162 20090 30031 40140 52003 80001=
34336 42998 00302 10176 20100 30042 40141 52003=
34391 32997 00202 10121 20089 30123 40153 53003=
35121 42998 23101 10102 20050 39984 40126 54000 80002=
22113 42584 71904 10113 20085 39997 40057 51013 83531   333 91006=
22217 42999 63501 10103 20102 30039 40068 51008 82031   333 91001=
22349 42999 10402 10111 20109 30072 40083 58004 80001   333 91003
91110=
22408 42599 72401 10112 20084 39942 40087 52008 84530=
22721 41/03 93201 10115 20115 39998 40096 52012 74798=
22802 42977 80000 10098 20094 30085 40108 52009 8807/=
22820 41359 82602 10131 20129 39967 40100 52010 71098 886//   333
88707=
26059 42997 82501 10106 20088 30087 40110 51002 8804/=
26063 41597 80000 10121 20099 30105 40112 53003 78082 8632/=
26094 41/01 90000 10134 20134 30021 40094 58009 74742=
26258 41560 82701 10103 20093 30064 40118 53004 78082 8493/=
26298 41596 71102 10155 20144 39878 40099 54000 71082 87900=
26477 41457 83201 10111 20103 39981 40106 58001 78082 883//   333
88916=
26585 41597 60000 10140 20125 39846 40106 54000 70282 86300=
26702 41996 00000 10056 20054 30109 40135 58004 71198=
26781 41297 80000 10145 20139 39821 40100 53001 70298 886//   333
88704=
27402 41996 61002 10149 20142 39942 54014 54000 71098 86030=
25248 32699 70904 10027 21015 39725 40158 58003 86501   333 21010
55000 31102 7000/=
25551 42999 20704 10065 21045 30121 40151 58004 82030=
25563 41599 71509 10014 21005 30088 40166 54000 70282 86830=
25594 41462 82203 10016 20002 30199 40221 53004 70242 886//   333
91104=
31054 32999 22701 10183 20056 39818 40064 58014 80001   333 20049
55120=
31123 32599 60000 10134 20045 39779 40079 57004 82101   333 20010=
22028 42581 42503 10113 20099 30023 40058 52018 83540   333 91003
91111=
22106 42998 52301 10101 20082 39983 40059 51010 83031 333
91002=
22127 42598 62501 10133 20117 39872 40063 52019 82541   333 91002
91112=
22324 42482 72002 10103 20102 30028 40076 52011 87500   333 91002=
22831 41998 60000 10144 20131 30047 40104 53019 70282 83031=
22892 42997 82001 10111 20082 30096 40112 52003 8802/=
26275 41496 82902 10120 20103 30074 40103 54000 75195 886//   333
88719=
26389 41996 60901 10146 20139 39838 40090 52001 71082 86030=
26695 41995 60000 10146 20137 39814 40108 58011 71098 86030=
26882 41962 81402 10150 20143 39844 40107 53002 72186 8807/=
65528 31458 2//// 10235 20220 39630 40096 71391 82900
333 59022 82913 95332=
65548 11560 31402 10221 20215 39735 40115 69951 70396 83500
333 58000 83620=
65557 31258 40000 10227 20223 39879 40116 70391 84600
333 59003 84705=
65562 32958 0//// 10245 20230 3//// 4////
333 5////=
65578 11560 52008 10275 20257 30098 40107 60051 70196 85500
333 59002 85620=
65592 11458 3//// 10270 20243 30091 40114 69961 70396 83200
333 58003 83813=
65599 31460 6//// 10264 20238 30035 40108 70192 86200
333 58004 86813=
40356 32960 00108 10220 20020 39120 48471 333 59020 555 04410
50032=
40360 32960 02404 10242 20020 39484 40033 333 59034=
40375 32960 00000 10248 21010 39206 40027 333 59032=
40430 32960 00000 10330 21030 39327 49991 333 59008=
40180 32960 02202 10220 20158 30022 40068 53012=
40199 32965 00207 10304 20090 30056 40059 52011=
25621 11697 73503 10027 21005 39273 40094 53001 69960 78682 87900
333 21023 55173=
25703 32799 70606 10075 21033 39863 40117 58005 84530   333 20032
55007=
25913 32699 52702 10093 20019 39946 40086 52003 82530   333 20056
55117=
31088 32599 71803 10076 20023 30073 40080 52001 84331   333 20059
55139=
31829 32599 80306 10080 20053 30082 40113 52013 83969   333 20056=
31873 32999 10804 10158 20074 39957 40075 54000 81030   333 20080=
31909 32999 21101 10168 20029 30034 40106 54000 82080   333 20084
55128=
31960 32999 70105 10164 20078 39831 40051 58001 82035   333 20140
55065=
32053 11295 83503 10034 20032 30077 40119 52022 60030 75152 886//
333 20015 88703=
32061 11498 80205 10048 20041 30082 40120 53020 60020 70282 889//
333 20036=
32098 32598 81702 10079 20038 30104 40114 52014 82931   333 20023=
32150 32599 72701 10119 20050 30090 40119 52015 87500   333 20034=
32165 32999 82002 10106 20036 30073 40132 52015 82041   333 20072=
32215 11468 63405 10054 20025 49977 53024 60270 78087 86900   333
20008 42001 91112=
28679 42698 83304 10109 20076 39877 40047 52001 885//   555 12010=
28766 41597 83202 10093 20081 39882 40064 58005 72582 885//   555
11009=
28867 42498 72502 10093 20065 39816 40072 54000 87500   555 11008=
28952 42598 73201 10089 20078 39921 40109 52004 87900   555 1/009=
28966 42598 83606 10093 20062 39787 40057 52004 885//   333 88695
555 12009=
29802 42497 83201 10122 20109 39844 49978 57013 887//   555 11012=
29807 42597 83201 10134 20118 39878 49989 52002 885//   555 12012=
34691 42998 00000 10132 20077 30153 40141 5/005   555 1/012=
35108 42997 22801 10119 20085 40148 53002 80001=
35217 42997 20502 10111 20062 30104 40143 57008 80001   555 10009=
35229 42997 23201 10114 20068 39838 40099 58002 80001   555 10010=
35302 429// 03202 10119 20082 30129 40149 57001   555 10010=
35406 42997 00000 10140 20077 40170 52003   555 10013=
35416 42997 10141 20084 80001   555 10012=
35426 42999 03001 10102 20077 39832 40112 58005   555 10010=
35497 42598 80000 10091 20058 39249 40005 57016 889//   555 11006=
35532 42698 73602 10137 20085 39636 40101 54000 87500   555 10012=
35671 42598 63003 10142 20112 39636 40037 53006 86900   555 10013=
35700 42998 00502 10149 20074 30148 40121 54000   555 10013=
36003 42698 62201 10112 20010 39854 49999 52001 82550   555 11012=
36152 42598 71802 10123 20095 39827 40004 54000 84371   555 10013=
36177 41597 80000 10129 20115 39784 40014 57004 79598 883//   555
11012=
36208 42999 72101 10152 20100 39123 40030 57001 87030   555 12012=
36397 42999 21802 10171 20097 39490 40007 57006 82051   555 10015=
36428 42599 81104 10152 20117 39564 40027 53004 889//   333 95000
555 10015=
36535 42999 50000 10126 20081 39444 40033 58001 85030   555 10010=
36639 42699 50000 10149 20118 39480 40042 53011 84530   555 10013=
36859 42599 50302 10166 20089 39345 40074 53005 82941   555 10014=
38196 42698 20000 10118 20038 40078 51007 82500=
38198 42999 23202 10122 20032 82030   555 10012=
38222 42697 50000 10160 20094 39540 40063 58004 85900   333 84059
555 10013=
38328 42599 51601 10150 20095 40071 53004 84330=
38334 42599 40802 10138 20086 39166 40078 53007 84900   555 11010=
38341 41598 61201 10127 20095 39341 40087 53014 72582 84940   555
11010 91111=
38343 42698 20000 10127 20037 40068 52004 84200=
38439 42698 63403 10170 20070 39551 40071 53012 82001   555 10015=
21908 32599 50901 10040 21012 30041 40107 57002 85500   333 20021
55000=
28978 42498 80205 10093 20074 39576 40045 52006 889//   333 88916
555 11008=
35173 42996 63202 10111 20093 39671 40031 54000 86050   555 11010=
28879 41597 83204 10101 20082 39763 40036 54000 72582 889//   333
88929   555 11008=
35067 42998 6//// 10085 20074 39800 40064 52005 86030   555 12008=
35078 41598 73405 10088 20082 39678 40039 52012 70282 87500   333
87625   555 11008=
35188 41498 80303 10112 20098 39601 40009 53002 70282 885//   333
87916   555 11011=
38001 42997 00210 10210 20163 30143 40115 53001   555 10018=
38232 41998 00000 10177 20023 30014 40107 53003   555 10015=
48820 32598 71402 10283 20262 30057 40065 52016 83208 333
00030 20273 3/026 59009 83895 87299=
48826 32597 61601 10277 20268 39931 40058 53012 81208 333
00028 20259 3/027 59008 81895 86299=
48839 32598 72301 10279 20265 30002 40066 53015 878// 222//
2//00 333 00/// 20271 59004 82895 85696=
48845 32498 81601 10270 20256 30056 40063 52016 888// 333
00029 20266 3/026 59002 82894 88697=
48870 11495 83602 10248 20235 30039 40046 52010 60282 76566
8672/ 333 02025 20246 3/024 59017 86894 88499=
48877 11497 80000 10243 20232 30049 40054 52013 60102 76066
8682/ 333 01025 20239 3/024 59014 84894 88499=
48887 12570 82903 10257 20223 30051 40057 53007 69912 888//
333 01025 20252 3/025 59018 82895 88697=
48900 11497 80000 10243 20233 30060 40070 52014 60012 8382/
333 20235 59006 82894 83696 86499=
48914 41497 83203 10240 20234 30079 40081 52024 60332 76198
8372/ 333 02025 20239 3/024 58001 83894 88499=
48917 11497 80000 10256 20244 30066 40071 52009 60652 78098
889// 222// 00297 2//01 333 01/// 20244 3//// 58001 85894
82995 88696=
48918 11440 82705 10250 20232 30075 40086 53029 60112 76362
8492/ 222// 00282 2//01 333 01025 20237 3/024 58007 81894
83995 88499 91116 91532=
48920 11598 82306 10265 20236 30043 40043 52015 60202 70382
889// 222// 00294 20302 333 20244 58002 81895 82995 88696
91121 91527=
48803 32460 80000 10261 20244 39953 40064 53013 888// 333
00027 20258 3/025 58001 83894 88696=
48806 11460 80000 10218 20209 39321 40078 52004 60182 76098
8682/ 333 01024 20213 3/022 58001 86894 87499=
48808 32470 71801 10260 20238 39789 40065 53009 878// 333
01028 20246 3/024 59005 82894 87696=
48823 32598 71801 10280 20263 30051 40053 52010 83808 333
00030 20272 3/026 59009 81895 83696 85299=
48830 32570 70000 10266 20239 39773 40070 53010 81148 333
01030 20245 3/025 59007 81895 87299=
48840 32798 60000 10269 20255 30054 40060 52013 868// 333
00032 20262 3/027 59014 83895 86697=
48916 11498 82910 10260 20241 30022 40072 53011 60042 71798
889// 333 01/// 20242 3//// 59008 82894 88995=
48802 11460 63201 10180 20156 38391 52009 69962 70398 862//
333 01019 20174 3/019 59003 83894 85895=
48810 11420 20000 10255 20251 39867 40067 53009 60172 71061
82800 333 01027 20243 59008 81894=
48831 11470 71403 10270 20261 30023 40059 53009 69952 70262
878// 333 01028 20264 3/026 59008 82894 86697=
48838 32798 60000 10267 20258 30068 40074 53013 865// 333
00027 20262 3/026 59001 86697=
48846 32498 71802 10270 20249 30060 40063 52012 878// 333
00028 20266 3/026 59003 83894 85697=
48866 11497 82703 10208 20206 39211 40087 52008 60022 76062
888// 333 01022 20202 3/021 59017 86894 88697=
48875 11460 82902 10220 20219 39545 40076 53011 60052 76162
888// 333 01023 20219 3/022 59014 83894 88696=
48907 11497 82702 10250 20242 30065 40067 53008 60442 78098
889// 333 02/// 20238 3//// 59010 84894 88995=
83384 22235 00310 20000 312// 40401 80250=
51087 32980 70000 10140 20045 39149 40048 52009 80002 333
05301=
51156 32780 70000 10154 20055 38639 40034 57004 84462 333
05303=
51656 32780 70904 10196 20073 39022 40048 54000 874// 333
00355 79999=
51777 32970 71402 10171 20028 39059 40028 52023 80002 333
00552=
51068 32980 71101 10147 20114 40039 52001 80002 333 05452=
52101 32980 70000 10140 20028 38315 52006 80002 333 05101=
51232 32980 63203 10212 20095 40048 54000 81032 333 05401=
51346 32780 62002 10215 20067 40039 54000 82462 333 05301=
52313 32780 73603 10185 21066 38367 52009 82102 333 00102=
54563 32670 61403 10149 20118 40053 52002 86500 333 00052
79999=
55299 11675 82002 10021 20011 35881 52010 60041 78080 889//
333// 05301 31005 70036=
56106 32880 70000 10058 21015 36232 52009 874// 333 05405
31003=
55279 11680 62203 10020 21013 35733 52011 60011 70080 84902
333// 05302 30002 70011=
55472 11580 70402 10010 20000 35769 52007 69951 79198 879//
333// 05202 30014 70022 93901=
55294 11680 80000 10006 21006 35739 54000 60051 78380 889//
333// 05401 30001 70048 92500=
56202 32680 62902 10048 21044 35895 52007 82402 333 05305
31015=
82212 333// 00100=
48353 11440 80203 10246 20237 39772 40060 69954 71021 8667/
333 20237 59007 70005=
48375 31558 80000 10254 20240 39822 40047 71022 85576
333 20251 59006=
48378 32560 70000 10257 20235 30001 40053 84846
333 20248 59009=
48381 31558 80901 10252 20242 39840 40062 71021 82576
333 20245 59003=
48431 12460 80000 10255 20249 39850 40062 60074 86676
333 20250 59002 70069=
48456 11560 52801 10276 20239 30037 40054 60034 70162 82846
333 20244 59004 70026=
48500 32562 40000 10265 20234 30048 40054 81546
333 20261 59010=
58737 32761 70000 10265 20242 40060 52016 82542 333 05303=
58731 31250 81601 10235 20232 40067 52019 71040 8367/ 333
05301 70120=
82193 21470 60604 10249 20249 40098 70396 81131 333
10325 58015 60111=
83721 31956 60000 10158 20068 39395 40152
53002 70511 80001 333 10245=
82024 21895 30000 10250 20245 70360 838// 333 10290
60101=
82042 21396 60000 10248 20241 70366 84430 333 10305
69941=
82113 32497 61402 10262 20253 86300 333 10324=
58017=
82240 21896 50000 10254 20240 30087 40121 70180 85060
333 10312 58007 60211=
82317 21396 80000 10236 20234 70296 889// 333 10325
60081=
82326 32097 01802 10258 20233 30072 40126 333 10292
59006=
82331 32696 50000 10262 20239 30043 40125 85030 333
10321 58001=
82336 21695 50000 10250 20240 70166 84590 333 10320
60011=
82410 32495 70502 10251 20243 8442/ 333 10317=
82425 21495 81804 10240 20235 30063 40119 70250 887//
333 10326 58009 69921=
82610 32097 00000 10250 20236 333 10342=
82704 32097 00000 10294 20233 39842 40035 333 10345
59004=
82723 32096 00000 10262 20242 333 10346=
82807 32096 00000 10272 20247 333 10336=
83264 328// 30000 10237 20222 39694 40108 80008 333 10342
58014=
83309 319// 03603 10219 20211 39806 40131 71040 333 10339
58015=
83358 329// 00000 10219 20184 39718 40120 333 10329 58019=
83361 32695 63602 10256 20188 39939 40144 84240 333 10342
58013=
83405 319// 00903 10250 20211 39967 40101 70544 333 10336
58000=
83552 213// 81806 10231 20222 39952 40128 72996 889// 333
10328 58025 60031=
83565 32/94 90000 10188 20123 39678 40155 333 10320 59027=
83618 215// 80000 10188 20143 39771 40145 5//// 70306 885//
333 10260 60061=
83623 32996 80000 10186 20099 39532 40115 53012 885// 333
10288=
83630 32997 00000 10172 20089 39034 40142 54000 333 10252=
83676 32994 02302 10186 20103 39522 40179 52002 333 10288=
83704 21993 03602 10153 20152 39633 40052 54000 71216 333
10196 60021=
83726 32993 03602 10128 20081 39174 40159 51011 333 10250=
83773 319// 80000 10138 20067 39151 40041 54002 7//52 8001/
333 10191=
83821 32993 00000 10122 20116 30128 40133 51013 333 10194=
91650 31599 10805 10290 2023/ 40103 58007 70100 81100
333 20238 569// 81825=
91659 31599 51410 10268 2018/ 40113 58014 70122 85800
333 20220 569// 83825 83650=
91670 36/// /1010 10273 20222 40111=
91680 31699 20000 10274 20175 40115 58016 70200 82800
333 20196 569// 81830=
91683 31599 51405 10264 20168 40126 58016 70222 85800
333 20180 563// 83825 84650=
91691 36/// /1306 10264 20215 40122=
91693 31599 41405 10261 2018/ 40128 58010 70300 84800
333 20185 563// 84825=
91697 36/// /0606 10265 20186 40127=
91699 36/// /0908 10247 20188 40135=
67027 32980 00000 10206 20197 30133 40154 58010
333 0//00=
67083 32470 70000 10148 20125 38779 48551 58010 878//
333 0//00 81817 87620=
67095 32475 40000 10186 20182 30173 40179 56005 84800
333 0//00 82817 83633=
64400 32556 70000 10225 20222 30092 40112 875//
333 0//00 58003 87630=
64450 11460 82002 10240 20210 39740 40089 69901 71396 8397/
333 0//51 59005 81818 83623 81933 88432 94944 95834=
63791 32980 00000 10132 20114 39165 48521
333 55300 58003=
63894 32580 00000 10200 20199 30088 40148 92350
333 55300 58001=
83334 329//29// 00000 10212 20195 39422 40144 333 10295 58002=
83488 329// 00000 10176 20156 39126 40136 333 1020125 39448 40147 333
10315 58005=
83531 325// 20000 10200 20123 39083 40132 82100 32 20198 39972 40145
333 10278 59031=
83570 32595 43603 10210 20151 39348 40123 83210 333 10306=
83577 329// 80000 10188 20134 39290 40149 80007 0106 39359 40135
53013 333 10290=
83592 325// 20000 10182 20165 39444 40132 82200 127 82250 333 10292
59029=
83683 326// 22702 10159 20107 39154 40136 53012  329// 00000 10170
20121 38899 40135 5//// 333 10254=
83692 324// 20000 10190 20116 39103 40153 53004  53008 333 10244=
68174 36/// /0000 1//// 2//// 3//// 4//// 5////
91000      555 9////=
68242 36/// /0704 10052 21052 38774 48556 52048
333 10212 20044 91005 555 91023=
68262 32970 00000 10040 20003 38753 48562 57001
333 10226 20038 91003 555 91024=
68350 36/// /3604 10014 21022 38700 48550 57005
333 10216 20014 91003 555 91023=
68368 32982 02206 10027 21067 38341 48547 57005
555 91024=
68372 36/// /0000 11001 21055 38496 48558 57003
333 10177 21001 91003 555 91025=
68424 36/// /0000 10035 21029 39249 48538 52002
333 10230 20035 91002 555 91021=
68438 36/// /3304 10008 21054 38866 48554 52003
333 10206 21005 91003 555 91023=
68442 32/// /1903 11015 21035 38701 48542 55000
555 91023=
68461 36/// /0000 11010 21027 38354 48545 57005
333 10166 21010 91000 555 91023=
68512 32982 00000 10098 20002 39057 48538 57006
333 10167 20087 91005 555 91021=
68588 31960 03304 10126 20092 30158 40175 55000 70400
555 91017=
68618 36/// /0000 10052 20042 39097 48534 52001
333 10157 20044 91003 555 91022=
68714 16/// /3610 10132 20131 30165 40203 52955 60041
333 10150 20132 91015 555 20038 91020=
68816 11458 80205 10144 20133 30143 40194 50008 60043 76162 885//
555 91019=
68842 11782 82512 10139 20103 30107 40181 51008 69903 72162 8457/
555 91018=
68858 320// /2807 10147 20097 30041 40189 51007 82550
555 91019=
93004 16/// /0115 10167 20123 40096 57007 69924=
93023 36/// /0404 10164 20147 40103 57010=
93196 16/// /0126 10155 20140 40109 57016 60034=
93305 41599 23622 10162 20112 40072 58015 70100 82200=
93334 16/// /0204 10123 20063 39138 57016 60144=
93404 16998 /0206 10165 20113 40077 57018 60034=
93498 16/// /0212 10147 20116 40073 57020 60024=
93527 16/// /1006 10162 20156 40063 57017 60034=
93597 36/// /3516 10141 20105 40050 57021=
93615 16/// /0810 10104 20097 40030 57014 60454=
93678 36998 /0302 10175 20031 40012 57029=
93709 16/// /0205 10112 20102 49991 57020 60064=
93831 16998 /3505 10087 20040 49968 57019 60164=
93896 11698 70306 10119 20078 49973 57010 69904 70502 8127/
333 81830 87358=
93947 16/// /0702 10045 20031 49960 52010 60154=
93994 36/// /0608 10195 20131 40164 57009=
63740 31580 70303 10145 20104 49516 70222 8253/
333 58002 82620 87359=
63723 32982 11903 10228 20193 40135 80001
333 58004 81074=
63705 32570 70000 10199 20199 38851 48505 8397/
333 58000 83820 81922 87362
555 10///=
82979 329// 00908 10265 20180 39656 40114 333 10326 58004=
82986 329// 01408 10253 20184 39831 40116 333 10326 58016=
83076 32593 31801 10226 20192 39600 40104 81120 333 10322 58001=
83090 329// 01403 10237 20195 39562 40077 333 10289 59037=
83096 326// 21801 10256 20211 30122 40129 82500 333 10292 58008=
83097 329// 0//// 10226 20209 30103 40126 333 10302 59008=
83179 329// 93203 10270 20157 39658 40104 333 10347 58009=
83182 32993 80906 10211 20156 39300 40134 80001 333 10306 58014=
83186 329// 03602 10207 20182 39551 40107 333 10279 58008=
83190 329// 00903 10220 20194 39729 40147 333 10291 58009=
83195 329// 009// 10231 20211 39894 40133 333 10292 58010=
83229 325// 31401 10247 20225 30080 40140 83200 333 10277 58002=
83236 32998 00000 10198 20181 39625 40121 333 10330 58014=
83242 329// 00903 10214 20190 39637 40120 333 10286 58014=
83244 329// 01803 10246 20197 39836 40129 333 10321 58014=
83286 329// 0//// 10214 20174 39452 40105 333 10324 58003=
83288 329// 01801 10256 20170 39606 40115 333 10343 58006=
83339 329// 01405 10229 20146 39159 40132 333 10283 58010=
83344 329// 00906 10192 20172 39140 40138 333 10254 58008=
83398 325// 60000 10228 20218 30131 40136 84240 333 10282 58000=
83408 329// 01804 10257 20146 39597 40088 333 10338 58009=
83383 329// 00000 10222 20171 3//// 4//// 333 10325 5////=
83386 32698 10000 10217 20176 39592 40140 81402 333 10324 58008=
83388 324// 20000 10270 20160 39433 40101 82200 333 10318 58008=
83393 329// 00000 10212 20195 39422 40144 333 10295 58002=
83437 32597 32703 10228 20173 39414 40133 83500 333 10298 58017=
83442 329// 03202 10230 20177 39787 40135 333 10322 59003=
83479 329// 00000 10220 20172 39347 40143 333 10301 58011=
83483 32996 01801 10228 20186 39546 40135 333 10310 58010=
83492 329// 00000 10204 20178 39764 40153 333 10280 59007=
83514 32997 01406 10214 20125 39448 40147 333 10315 58005=
83538 329// 03202 10177 20147 38744 40166 333 10228 58003=
83543 32997 00902 10232 20198 39972 40145 333 10278 59031=
83574 326// 81802 10204 20099 39525 40151 58014 88070 333 10306=
83579 325// 21803 10190 20151 39008 40137 82100 333 10289 58004=
83582 32/// 90000 10144 20106 39359 40135 53013 333 10290=
83587 32997 00000 10211 20130 39122 40126 333 10272 59006=
83595 325// 52302 10224 20186 30042 40127 82250 333 10292 59029=
83642 329// 03604 10200 20166 39339 40113 51004 333 10248=
83687 32996 22301 10170 20106 39121 40134 54000 80005 333 10251=
51567 11780 73602 10140 20106 40077 52006 69911 78080 86902
333 00254 70001=
34560 42962 00905 10145 20051 39988 40148 52001=
34824 41996 03101 10199 20176 30091 40096 54000 71000=
34858 42961 01203 10164 20119 30012 40114 53005=
34866 42998 01002 10150 20114 40124 56001=
34880 41996 00901 10134 20121 40129 57004 71005=
37054 42998 50803 10169 20130 39729 40095 52003 85030=
37472 42673 70902 10192 20162 30109 40087 57010 84780=
34240 42973 01401 10153 20095 30013 40143 52010=
34357 42998 01402 10150 20071 39995 40149 54000=
34363 42998 00601 10172 20067 30015 40156 54000=
34545 42998 20501 10140 20062 30027 40134 54000 80001=
34579 42979 00902 10152 20053 30103 40144 54000=
34655 32997 00901 10134 20056 30070 40127 54000=
34759 42598 71702 10172 20123 39996 40121 54000 82951=
34838 42997 00901 10182 20117 30003 40093 54000=
34954 42998 00000 10180 20174 39941 40105 53005=
37031 42997 22801 10154 20111 39909 40097 54000 80001=
37085 42996 10701 10169 20124 30140 40115 57001 80001=
37145 42998 00903 10155 20135 39942 40103 53001=
23226 41/03 90204 11014 21014 39994 40212 53002 74542=
23606 42962 20000 10085 20055 39998 40165 54000 82030=
26167 41458 80000 10109 20097 30008 40117 53004 78086 889//   333
88917=
27857 42997 30000 10161 20136 39993 40149 54000 83030=
28909 42999 43403 10106 20073 30058 40156 53009 80006=
37061 42966 01402 10163 20150 39953 40113 53005=
28049 42998 23405 10055 20018 39998 40159 52005 80001=
28319 42899 20000 10069 20036 30007 40167 52011 82050=
28334 42999 50000 10036 20001 39869 40170 52018 80001=
28434 42999 00000 10039 20029 39912 40166 52014=
28552 42997 03101 10082 20071 30006 40115 52005=
29111 11397 80203 10092 20088 39890 49972 53004 60202 76162 8872/
333 20092 86709=
29209 11497 83401 10101 20101 39850 49969 52009 69942 75152 886//
333 20101=
29602 11597 82803 10121 20117 39833 49964 52012 60012 78081 889//
333 20093=
29636 12599 62002 10135 20088 39771 49973 53004 60012 86300
333 20112=
29654 11499 61806 10122 20109 39437 40007 53002 60022 70298 86900
333 20105 86917=
29712 12998 62202 10115 20113 39828 49962 52008 60182 80001
333 20115=
29724 12499 82105 10135 20109 39779 49971 53006 69952 8633/
333 20130 84710=
29726 11597 82204 10145 20093 39820 49977 52002 69902 78081 87302
333 20143 87930=
29814 32499 82203 10131 20124 39844 49980 52010 883//
333 20125 88916=
29827 32697 81904 10136 20102 39839 49988 53001 84931   333 20134=
29923 32599 21202 10127 20078 39740 49997 53003 81502   333 20100
55048=
29939 12597 61602 10144 20131 39754 40020 53003 69962 82301   333
20137=
36021 32999 22302 10124 20077 39829 49998 57001 80002   333 20120=
36022 32998 72301 10112 20081 39763 40009 53001 81082   333 20087=
36038 32598 50000 10102 20092 39608 40024 58001 82501   333 20095
55036=
36058 32699 70000 10148 20092 39546 40029 52002 85901   333 20146
55079=
29068 11497 81402 10105 20097 49996 56010 60062 78098 889//   333
20100=
29274 11450 80703 10090 20080 40030 57019 69912 78122 889//   333
20071=
29363 11497 81503 10122 20119 40007 57005 60022 76262 8872/ 33320
117 55570   04/=
29456 11999 22302 10137 20100 49998 53001 69932 70281 80001   333
20120=
29467 11698 21602 10134 20111 40015 52003 60032 70281 82200   333
20122=
29477 11597 70000 10117 20104 40022 53004 69942 78082 8697/   333
20102=
29576 11598 83301 10098 20098 40044 53003 69932 72584 84937   333
20074=
29587 31698 70901 10128 20111 40045 57005 70241 81532   333 20066
333 20066=
30157 32497 80601 10060 20053 39884 40158 52010 886//   333 20041
88710=
30320 32998 20000 10054 20008 39753 40149 58005 80001   333 20006
55125=
30537 32999 80901 10077 20011 39589 40142 53014 80001   333 20040
55092=
30713 11598 82603 10105 20040 39498 40114 52007 69902 70282 8297/
333 10090=
21802 32999 20702 10006 21017 30096 40119 57004 81631   333 21014
42005 55018=
24125 32999 60903 10033 21021 39830 40100 53001 85031   333 21002
41000 55028=
24143 31599 80000 10049 20049 39988 40035 52001 60052 70261 882//
333 20047=
24329 32999 60801 10094 21005 39810 40093 57011 82041   333 21038
55120=
24343 32699 52804 10081 20029 39944 40056 54000 83530   333 20042
55135=
24382 32598 83503 10053 21012 39874 40113 57003   333 20037 55000
85627=
24639 32999 62402 10108 20046 39970 40114 52009 80001   333 20043
55159=
24641 32999 83304 10099 21005 39960 40094 52012 80001   333 20065
55082=
24652 32599 62702 10109 20082 39935 40049 52002 82230   333 20086=
24656 12699 62402 10112 20070 39950 40045 52002 69942 82530   333
20064=
24688 11699 80503 10106 20046 39206 40057 57005 69950 72582 85931
333 20043 31004 55074=
24724 32999 52704 10113 21112 39609 40107 52003 80001   333 20071
55181=
24738 32999 23303 10114 20009 39944 40114 52013 80001   333 20062
55142=
24768 32599 62002 10173 20050 39819 40035 54000 82402   333 20051=
24923 32999 22102 10108 20053 39842 40131 52014 80001   333 20014=
24944 11999 63203 10115 20078 39806 40078 52025 60092 70162 82089
333 20084 55020=
24951 11699 80000 10109 20089 39911 40053 52014 60012 76162 8657/
333 20089=
24959 12599 82002 10145 20084 39917 40036 52008 69912 83932   333
20084 55099=
24962 32599 82701 10149 20079 39869 40041 58003 82531   333 20034
55123=
24966 32999 61902 10181 20041 39850 40048 54000 82034   333 20067
55136=
25400 32799 33604 10041 21005 30106 40159 58002 83200   333 21012
55168=
30054 11295 80000 10051 20051 39917 40149 52007 69902 72841 886//
333 20040 55029 88704=
30393 12599 81904 10078 20023 39079 40066 52002 60032 82901   333
20041=
30493 11599 80000 10054 20054 39086 40085 53006 60112 70262 885//
333 20039 55072=
31137 32999 63602 10123 21005 39113 40077 58004 80005   333 21016=
15502 31998 00000 10118 20091 40153 54000 70200=
15549 31598 83201 10140 20098 40168 52014 70311 885//=
15552 11597 63208 10164 20139 40132 52012 69911 72582 86300 555 92014
92417=
15614 31698 32703 10119 20074 39479 40172 54000 70121 82101 555 95000
=
15615 31999 03208 11009 21022 37147 47089 51000 70200 555 95100=
15625 31960 02606 10158 20122 40145 52008 70200 555 95490=
15627 31/92 92704 10030 20019 37630 47081 58005 74144 555 95199=
15640 31998 23409 10165 20102 40141 52009 70200=
15655 31598 63206 10188 20156 40148 52015 70211 86500 222// 20000 555
92014 92418=
15712 31998 00000 10154 20097 40157 52011 70200 555 95000=
15730 31996 00000 10152 20147 40152 52006 71011=
48551 11556 82003 10241 20237 30065 40073 69984 71022 84577
333 20240 59001 70008=
48351 31556 80000 10265 20242 39983 40057 71020 84536
333 20263 58000=
48377 12560 80000 10252 20241 39888 40053 60014 84536
333 20247 59004 70012=
48477 32564 70000 10298 20256 30041 40055 81956
333 20270 59007=
48532 01440 81802 10252 20242 30059 40069 60394 76162 8672/
333 20250 59001 60147 70391=
48380 32560 70000 10260 20248 39963 40058 84546
333 20257 59005=
48421 31557 70000 10255 20240 39945 40059 71022 82536
333 20240 59008=
48425 12960 70000 10272 20248 30040 40050 69974 81046
333 20260 59003 70007=
48459 31562 40000 10288 20248 30049 40051 70191 81234
333 20280 59022=
48465 12561 80000 10267 20248 30041 40045 60034 83577
333 20257 59012 70030=
48552 32460 70000 10255 20235 30058 40065 84946
333 20240 59005=
21432 32998 01304 11005 21070 30215 40225 54000 333 21026
42998 55240=
21647 32474 81008 11055 21069 30198 40226 57003 886// 333
21064 44029 88710=
21824 32370 70604 10007 21004 30100 40109 56001 87900 333
20004 41998 55051 87907=
21921 32999 80406 10066 20005 40056 57003 85031 333 20046
41/// 55146=
21931 42999 00910 10053 21029 40074 40104 58011 333 20006=
21946 11298 80905 11023 21045 30136 40214 56002 69900 77172
886// 333 21048 42001 55085 88707=
47058 32566 83201 10169 20129 30017 40062 54000 885// 333 20150=
47008 32960 60507 10228 20023 39983 40043 52007 85030 333 20137=
47016 32570 80000 10153 20120 39216 40041 52010 885// 333 20128=
47020 12565 80000 10163 20125 39902 40059 54000 60082 885//
333 20155=
47035 31660 73601 10159 20126 30054 40062 52002 71000 885//
333 20133=
47041 32770 81806 10206 20132 30056 40082 54000 8803/ 333 20159=
47055 32965 12704 10211 20095 39984 40026 53002 80001 333 20179=
47069 32960 60000 10188 20126 39953 40047 57003 86030 333 20151=
24988 32999 72101 10142 20019 39831 40065 58005 80001   333 20024=
25325 32599 30305 10076 21050 39981 40136 57002 83200   333 20028
55174=
25378 41597 61606 10022 21035 30153 40185 58003 70272 85901=
31174 32999 81803 10034 20002 30133 40144 52011 80007   333 21017
55074=
31263 32999 21703 10142 20040 39566 40105 51003 82041   333 20/75
31101 7000/=
31489 32999 63503 10120 20032 30017 40127 52011 80004   333 20062=
31866 32999 01803 10141 20029 30113 40118 51020   333 20049=
31959 32999 30906 10166 20070 30048 40088 51003 80002   333 20074
55125=
31989 32999 60908 10133 20051 30004 40055 58001 86040   333 20100=
32076 12598 83402 10027 20022 30108 40118 53026 60070 885//   333
20004=
17090 11665 70702 10130 20113 38680 48465 56008 69961
70382 84270 333 84836 87459 10067=
56793 11558 62501 10189 20178 38451 52005 60041 71060 86800
333 00151 70109=
57606 31/05 90402 10137 20135 40099 52008 74540 333 05151
79999=
57803 31605 80000 10148 20146 40091 52013 74240 885// 333
05100 79999=
57825 31408 50000 10189 20181 40093 52017 74600 85600 333
00101 70036=
57906 11457 80000 10218 20211 40078 52016 60021 76060 887//
333// 00354 70026=
44214 32998 30000 10085 20017 38233 40102 52009 81040 333
20080 555 30020=
44231 32999 00000 10117 20051 38677 40110 51009 333 20074
555 30053=
44288 32999 13204 10142 20029 38139 40064 52008 80004 333
20052 555 30022=
44304 32999 60000 10137 20062 38911 40057 52010 83042 333
20021 555 30035=
44354 32599 83406 10176 20048 39018 40033 52018 85540 333
20150 333 30140=
25123 32698 50303 10069 21050 30123 40158 57008 85500 333
21018 55015=
48315 31558 80000 10250 20235 39802 40071 71022 82976
333 20234 58003=
48413 11557 80000 10260 20246 39972 40051 69924 71022 83576
333 20255 59001 70002=
48416 12961 80000 10256 20237 39918 40065 60164 84076
333 20239 58000 70157=
48418 11956 80000 10266 20257 39991 40047 69934 71022 83037
333 20257 59006 70003=
48460 32560 60000 10290 20259 30021 40053 84876
333 20259 59006=
48461 32560 70000 10286 20246 39976 40045 85846
333 20276 59016=
48478 01559 50000 10281 20258 30046 40051 69944 71062 82506
333 20276 59007 69945 70004=
43555 22480 72708 10284 20253 40100 82208 333 58001 6001/ 82818
87277=
43599 32480 79903 10272 20255 40109 82238 333 58007 82818 87276=
40438 32960 00000 10290 21010 39366 40022 333 59012=
40856 EWOYP 01803 QW26 20031 38571 49968 51006 92350=
29756 11699 22103 10133 20095 40048 58010 69932 70281 82500   333
20130 55029=
29962 32599 80501 10142 20107 40042 53013 8395/   333 20102=
62306 32560 63208 10214 20171 40127 56003 86500=
62318 32960 03610 10239 20181 40100 54000=
62366 32960 00211 10230 20159 40100 51004=
62393 32960 03208 10243 20076 40090 57003=
62405 32960 03408 10304 20110 40062 58001=
62414 32960 03607 10304 20062 40061 58007=
62417 32960 00101 10213 20170 40138 50000=
62440 32960 03505 10220 20187 40101 51005=
62463 32960 03420 10318 20113 40048 55000=
62465 32960 00102 10300 20180 40040 53002=
29894 12998 80000 10079 20051 39045 40097 58002 69932 80001   333
20045 55074=
47003 32980 81401 10198 20121 30048 40052 52019 88030 333 20131=
47005 32980 73601 10118 20090 38519 57001 875// 333 20086=
47031 32770 73603 10151 20115 87030 333 20102=
47037 32970 00000 10204 20110 39936 40051 57004 333 20142=
47039 32560 70000 10173 20156 39881 40062 52001 82501 333 20146=
47046 32969 20902 10191 20082 39997 40018 53001 82030 333 20142=
47050 32965 01801 10164 20137 30013 40045 52006 333 20145=
47060 32560 82304 10164 20130 30009 40064 53001 88400 333 20144=
47061 32980 20000 10209 20148 39976 40017 54000 82500 333 20161=
47065 32965 73203 10170 20138 39997 40059 57012 81052 333 20143=
47067 32565 10000 10181 20109 39937 40050 57002 81500 333 20153=
47068 32970 20000 10170 20136 30023 40056 57004 82030 333 20143=
47070 12970 70000 10180 20126 39966 40048 57003 69902 87030
333 20153=
47075 32975 00000 10165 20113 39640 40046 57001 333 20133=
44203 11994 00000 10030 20027 38380 40164 52009 60022 71000
333 20003=
44207 32999 02303 10057 20020 38294 40131 51008 333 21018
555 31021=
44212 32999 53202 10158 20040 39020 40069 53010 80002 333
20075 55147 555 30060=
44213 32999 00000 10137 20085 38709 40066 53001 333 20088
555 30065=
44215 32998 20000 10094 20015 38337 40075 54000 80008 333
20055 555 30021=
44230 32998 00000 10142 20065 38731 40105 52008 333 20069
555 30046=
44237 32599 60000 10102 20065 38449 40104 52014 83503 333
20080 555 30035=
44241 32999 21404 10144 20086 39163 40075 52005 80001 333
20090 555 30074=
44282 12699 30000 10121 20021 38264 40089 52005 69902 83100
333 20069 555 30039=
44285 32999 00000 10080 20023 38296 40122 52011 333 10010
555 30005=
44294 42998 60000 10111 20073 38516 40090 53017 60012 85043
333 20071 555 30053=
44302 32999 22601 10142 20048 39016 40055 52018 80002 333
20050 555 30022=
26825 42960 30000 10051 20042 39986 40152 52002 80001   555 11004=
42182 21695 50508 10270 20216 40012 72996 84330 333 58014 6992/ 83635
81940 85360=
16641 32960 03303 10210 20171 30126 40131 58001 333 90730 91109 555
40000 47629 44240 50000 50186=
16682 31457 20000 10196 20190 30125 40144 54000 7100/ 82600
333 90730 91105 555 40000 47633 44265 50000 50192 70000 77Y//
7/Y//=
16716 32562 10000 10204 20165 30109 40126 51005 81100 333 90730 91104
555 40000 47618 44250 50000 50180=
16734 32560 23208 10198 20185 30073 40134 56001 82200
333 90730 91112 555 40000 47589 44230 50000 50190=
16749 32960 02409 10218 20186 30087 40101 56003 333 90730 91116 555
40000 47602 44250 50000 50198=
16754 32965 01704 10184 20115 30071 40118 56009 333 90730 91108 555
40000 47590 44240 50000 50146=
56066 36/// ///// 10030 21009 36625 4//// 54000
555 10060 2//// 3//// 40111 51001 60/// 7//// 80000
9//// ///// 1/020 2//00 30000=
35746 42998 23603 10150 20124 30006 40082 53010 81041   555 10013=
35849 42998 00000 10126 20106 30007 40087 52008   555 10011=
35953 42999 03206 10116 20025 39951 40074 52002   555 10011=
35969 42999 00000 10083 21005 39916 40083 52002   555 10006=
38062 42997 00000 10121 20002   555 10010 91115=
41936 31356 70000 10242 20240 40036 70596 86630 333 56990 59002 70030
85706 83615 86362=
57671 31758 71802 10198 20195 40068 52015 71000 87500 333
05101 70176=
23074 41398 73509 10002 21009 30100 40124 57006 70272 875//
333 20001 42008 87608 91113=
23274 32498 73505 10012 21011 30077 40116 56004 877//   333 20004
55002 85710   333 11001 7000/=
23383 32999 33203 10013 21022 39716 40062 58017 82031   333 20009
41988 55100=
23472 32598 73505 10030 21012 30026 40073 57008 82501   333 20016
55154=
23678 32598 60302 10106 20046 39965 40031 57019 82530   333 20081=
23884 11968 81001 10091 20081 39921 49991 57021 60012 76162 8802/
333 20083 55023=
23891 32698 50000 10106 20043 39736 40047 57013 82530   333 20079
55135=
24507 32698 81102 10068 20004 39845 40070 57009 8783/   333 20033=
24908 32582 80000 10069 20006 39792 40107 57003 83937   333 20004
55157=
29263 11497 81502 10114 20104 39906 40000 57008 69942 72582 8795/
333 20100 55001=
29282 32598 80901 10163 20146 39888 40043 57016 889//   333 20118
55072=
29570 11598 82603 10132 20119 39713 40036 53019 60012 78182 86907
333 20108=
29698 11998 81002 10085 20085 39600 40087 54000 60022 70241 83032
333 20071 55061=
29862 11598 80201 10150 20114 39741 40038 53013 69902 70282 82931
333 20130 55066=
30230 31999 60301 10074 20045 39837 40151 52004 70240 80001   333
20003 55137=
30309 42798 71304 10124 20029 39522 40090 58003 82530   333 20092=
30521 32998 80801 10057 20011 39626 40139 52007 80001   333 20012
55112=
30710 41760 81302 10100 20040 39520 40117 52015 70282 82431   333
20079=
44210 32999 20000 10130 20006 38450 53007 80001 333 21127
555 30094=
44216 32999 00000 10140 20021 38892 40061 53008 333 20109
555 30100=
44217 32998 20000 10052 20052 37869 40190 58004 80004 333
20020 555 31043=
44229 32999 02502 10051 20024 37912 40136 51002 333 20019
555 31011=
44242 32998 00000 10126 20077 39228 40085 52019 333 20066
55/// 555 30041=
44243 32999 20000 10192 20118 39316 40082 51001 80004 333
20056 555 30044=
44257 32998 20000 10151 20080 38902 40066 52017 81051 333
20038 555 30074=
44263 32998 30000 10081 21009 38008 40108 53004 80008 333
20061 555 30024=
44286 32998 10000 10137 20056 38592 40080 52020 80002 333
20056 555 30025=
44338 32999 00000 10139 20074 38427 40074 52013 333 20070
555 30052=
23973 11597 80000 10092 20090 39928 49986 57022 60032 78082 889//
333 20089=
23987 11499 81404 10103 29098 39912 49981 57016 60042 72582 889//
333 20102 55000=
29253 11999 00000 10128 20122 39816 49976 56002 60112 70182   333
20117=
29471 11597 81702 10117 20111 39815 40028 53008 69982 78084 889//
333 20103 88930=
29481 31999 81802 10109 20105 39807 40030 57009 70242 80007   333
20096=
29553 32978 01801 10134 20125 39672 40012 52003   333 20128 55065=
29562 11596 72101 10128 20103 39637 40024 5//// 60032 78082 87900
333 20127=
29581 32998 61702 10116 20106 39804 40045 57014 86030   333 20076=
29594 32999 83003 10119 20098 39700 40061 57007 80001   333 20084
55045=
29653 11698 61402 10141 20109 39568 40014 58001 69912 70182 85531
333 20127=
29675 32598 70000 10105 20076 39493 40049 53016 87900   333 20076=
29676 32598 60000 10069 20058 39643 40046 57008 84903   333 20062=
29759 11599 80000 10106 20090 39071 40031 58011 60082 72582 84604
333 20081=
29766 11599 70902 10138 20120 39718 40047 53010 69912 72522 86931
333 20133 55057=
29864 32699 60000 10134 20107 39432 40035 53008 83941   333 20115
95000=
29869 32699 60000 10130 20107 39699 40047 53007 82901   333 20095=
30504 12998 61505 10133 20062 39474 40077 54000 69942 80002   333
20095 55068=
30612 11597 71202 10089 20077 39614 40120 52013 60032 78182 8497/
333 20089 55136=
30622 32998 80000 10053 20039 39513 40132 51001 80003   333 20001=
30499 11584 80000 10077 20068 39454 40077 53003 60032 70282 889//
333 20072=
31348 32999 83401 10130 20013 39974 40137 52003 80007   333 21029=
31418 32999 83601 10127 20027 39893 40132 52005 81047   333 20026=
31439 32599 80203 10063 20029 30091 40134 52025 884//   333 20040
88420=
31442 32999 01604 10155 20038 39753 40081 57002 333 20000=
31445 32999 00801 10136 20093 39857 40092 51003 333 20002=
31474 32599 60000 10123 20021 39605 40115 54000 81300   333 20024=
31534 32699 20000 10144 20065 39839 40110 54000 82100   333 20022=
31587 32999 00000 10143 20081 39960 40096 52003 333 20061=
31632 12998 81001 10110 20080 40121 58006 60010 80007   333 20055=
31702 32999 21703 10156 20056 39796 40096 52004 81031   333 20058=
31725 32499 71801 10167 20055 30048 40110 52009 82502   333 20083=
31801 32998 71401 10131 20050 39892 40106 54000 80002   333 20011=
16643 32560 22709 10214 20192 30145 40149 51005 82200 333
90730 91116 555 40000 47643 44245 50000 50200=
16648 32960 02404 10212 20140 30038 40123 52011 333 90730 91107
555 40000 47565 44255 50000 50170=
16650 32960 00000 10168 20155 30128 40133 52005
333 90702 555 40000 47631 44250 50000 50160=
16684 32960 31004 10206 20180 30086 40111
52003 83030 333 90730 91106 555 40000
47601 44260 50000 50190=
16732 32965 00000 10198 20140 30111 40123 54000 333 90730 91108
555 40000 47617 44230 50000 50164=
30455 32699 13306 10096 21019 38886 48469 52009 81100   333 20041=
30542 32999 00202 10140 20019 39485 40137 52058   333 20005=
30549 32999 00000 10037 21001 38654 48452 52012   333 21001=
30669 32999 03202 10116 21005 39262 40075 51013   333 20070=
30726 32699 80504 10068 20013 39580 40130 52001 83331   333 20057=
30731 32599 62101 10087 20030 39546 40123 52012 82502   333 20009=
30739 32999 60204 10112 21005 39345 40117 52013 80002   333 20035=
30745 32999 20305 10093 21002 39036 40125 52013 80001   333 20032
55140=
30764 32999 00304 10121 21017 39339 40085 52015   333 20001=
30811 11999 10903 10104 20061 39278 40111 52005 69962 70181 81030
333 20082 55143=
30822 11599 70000 10074 20029 39561 40117 54000 69902 72582 82970
333 20031 55145=
30824 32699 30902 10084 20030 39554 40113 53002 82330   333 20044=
30829 32999 60906 10149 20017 39442 40081 52010 83031   333 20126=
30846 32999 20000 10139 21030 39243 40089 51013 80001   333 21058=
30862 32999 13608 10144 21017 39383 40067 52019 80001   333 20109=
30957 32999 60401 10142 20030 39243 40074 52014 80001   333 20030=
30967 32999 13202 10168 20071 39316 40018 52017 80002   333 20062=
31825 32699 80000 10122 20045 39913 40110 58002 81131   333 21005=
31845 32999 00703 10149 20062 39940 40093 52003   333 20001=
31878 32699 71601 10187 20118 39946 40060 52002 87500   333 20120=
31915 32998 00802 10186 20109 39798 40041 58012   333 20105=
31917 32599 62701 10178 20102 39937 40064 52007 81201   333 20083=
31921 32999 50108 10162 20131 39975 40066 53009 85030   333 20154=
31969 32998 70704 10171 20081 30011 40057 53019 87030   333 20135=
31981 32999 60702 10158 20092 39826 40045 51002 80001   333 20072=
31987 32999 70601 10191 20111 39809 40048 58001 80004   333 20110=
32069 11398 82701 10042 20032 30007 40012 52023 69902 70282 886//
333 20034=
16627 32960 00000 10166 20145 30134 40138 53004 333 90730 91100 555
40000 47636 44255 50000 50154=
16667 32970 00000 10206 20160 30120 40126 51009 333 90730 91105 555
40000 47626 44250 50000 50178=
16738 32960 00000 10200 20184 39930 40122 54000=
16746 32960 00000 10188 20154 39944 40122 58007 333 90730 91104
555 40000 47496 44260 50000 50168=
42314 31596 30000 10248 20227 40048 70500 81531 333 59023 81620=
42410 21495 80000 10246 20242 40039 76066 8477/ 333 59024
6025/ 81710 84618 86458=
42415 21594 80000 10240 20234 40041 76362 8532/ 333 59022
6032/ 85620 81930 87458=
42492 22496 20503 10250 20226 40016 82500 333 59006 6990/ 82615=
42724 22596 50000 10242 20239 40046 82530 333 59006 6033/ 82620
85360=
42798 31595 50902 10260 20218 40014 70520 82501 333 59002 82620 85075
=
42809 21495 60000 10272 20258 40028 70522 84530 333 56490 58009
6002/ 84615 84360=
42886 21596 61402 10294 20214 40013 70296 83430 333 59009 6991/
83620 86360=
42895 32596 31802 10282 20259 40023 82530 333 59015 82620 83360=
42971 31496 51803 10282 20279 40025 70522 82631 333 59004 82712=
23701 42899 20000 10070 20055 30024 40151 54000 82040=
35925 429// 00000 10149 20088 30010 40115 53003 555 10013=
26544 41959 70000 10090 20080 39980 40130 53002 71022 87030=
24856 32599 82003 10152 20081 39901 40037 52003 81231   333 20081
55117=
30777 32999 13202 10162 20030 39461 40062 52019 81080   333 20093
55143=
30961 32999 20106 10147 20006 39326 40055 52017 80001   333 20086=
30971 32599 53501 10108 20032 39135 40055 52016 82239   333 21004=
30978 32999 02104 10161 20068 39413 40038 51003   333 20075=
31513 32999 01402 10147 20071 39884 40094 51006   333 20074=
31624 32599 80000 10152 20081 40113 52001 82101   333 20060=
31832 32999 20901 10145 20074 30015 40095 52003 80002   333 20040=
24982 32999 72002 10140 20019 39593 40055 58006 80001   333 21009=
31913 32699 60704 10171 20090 39964 40067 52008 86201   333 20141=
31939 32999 33101 10165 20065 39768 40068 52002 80009   333 20064=
32121 32498 83003 10073 20048 30103 40125 52024 8665/   333 20047=
32128 12699 22602 10107 20078 30064 40118 52017 69900 82100   333
20054=
28240 42999 20000 10050 20038 39846 40165 52008 80001=
42867 21596 62715 10260 20221 40035 79596 84930 333 59009
6998/ 82625 81930 85360=
52634 36/// /0000 10039 21026 36755 4//// 52005
555 10050 2//// 30128 41111 51011 60/// 7//// 80000
9//// ///// 1/118 2//00 30000=
40001 32970 30000 10212 20062 40038 51002 80006 333 83270=
40007 32970 00000 10184 20109 40038 55005=
40045 32970 03601 10246 20118 40054 58001=
40061 32970 02803 10224 20095 40045 56004=
40080 32965 00101 10184 20070 39384 40051 55000=
40095 32970 00000 10228 20071 39445 40037 54000=
40022 32965 00301 10210 20178 40084 56002 222// 20000=
40030 32970 00000 10200 220112 40049 57001=
40039 32970 42204 10233 20103 40040 58002 84050 333 84360=
40066 32970 00302 10222 20126 40066 51006=
40072 32970 02901 10242 20068 40054 53002=
40083 32570 22901 10150 20063 48452 57011 82100 333 82826=
48601 11358 71707 10245 20228 30089 40093 60314 79196 84938 333
20241 50320 59001 82708 81917 83623 87276=
48615 32570 72804 10258 20245 30070 40076 82148 333 20250 50620
59002 82820 85364 87270=
48620 11464 83604 10242 20230 30086 40095 60054 71796 85927 333
20240 50470 59001 82916 83630 88275=
48647 11563 70000 10248 20233 30062 40087 60094 70522 81542 333
20243 50630 59003 81630 83362 87078=
48657 11062 72304 10248 20242 30060 40078 60014 71022 82538 333
20239 50370 59003 81700 81917 83366 86276=
48665 12478 70000 10255 20239 30077 40087 69974 82142 333 20244
50630 58002 82818 83364 86077=
96413 11058 70000 10238 20230 30056 40082 60044 71022 82532 333
20230 50320 59038 81700 83365 86080=
96421 11140 71405 10243 20237 30047 40083 60104 72842 84641 333
20240 50330 55061 59010 83702 85365=
96441 11430 71106 10263 20234 30081 40086 69994 70522 82941 333
20236 50440 55088 59008 81915 87080=
96449 32480 70000 10625 20227 30062 40082 81231 333 20232 50260
59003 96465 12480 71704 1 81814 87080
96465 12480 71704 10283 20236 30050 40084 60064 81842 333 20267 50560
55080 59021 8181687080=
96471 31475 71105 10273 20224 30075 40078 70522 81848 333 20248 50400
59007 81815 83364 87278=
96481 12462 60000 10248 20230 30070 40093 69944 82841 333 20230 50350
59003 81710 85080=
96491 31465 51902 10273 20244 30069 40082 70522 81831 333 20242 50290
55013 59010 81817 85080=
41246 31958 21206 10310 20263 30012 40017 70500 82030
333 58014 82360 =
43003 21595 50000 10280 20252 40067 70565 84801 333 58007 6002/
82620 83825=
43014 22996 42706 10240 20211 39423 40063 80001 333 58001 6006/
84075=
43063 32596 72703 10244 20212 39454 40072 83531 333 58005 83628 83356
85070=
43110 21496 71406 10260 20251 40082 72152 84770 333 59001
6001/ 82710 83618 85456=
43117 22596 72702 10250 20236 40067 81531 333 59001 6997/=
43192 21496 80905 10258 20249 40080 75062 8572/ 333 59009 75065 8572/
=
57528 16/// /2000 10145 29756 37563 61430
555 1/135 2//00 30199 12100
11101 10100 10111 01110 1111/
/////
2//// 3//// 6//// ///// ///// 8//// 9//// ///// ///// //004
11101 11111 1011/
11111 110//=
98135 31470 41605 10260 20256 40094 53013 70544 81200 222//
20401
333 20263 56399 59013 84818=
98223 31565 21401 10290 20257 40095 52012 70544 82200
333 20250 56999 58005 82820=
98232 31575 11805 10287 20238 40100 53017 70544 81101 222//
299//
333 20265 56999 58007 81821=
98325 31462 31802 10285 20245 40088 53013 70544 81271 222//
20000
333 20252 56999 59002 81817 98308=
98328 31461 41403 10198 20177 38521 40068 53018 74044 83231
333 20166 56999 58003 83813=
98329 31475 40701 10280 20251 40074 5/007 70544 82261
333 20245 56999 59004 82818=
98336 12481 10000 10280 20262 40099 51012 60134 81200
333 20238 56399 59006 83815
555 20104=
98429 31559 31003 10302 20256 40100 52016 70544 83201
333 20265 56999 58009 83823 82080=
98431 11470 60000 10271 20255 40099 52021 60014 70598 83230
333 20248 56999 58002 70010 83818 86360
555 20002=
98440 12480 30000 10276 20260 40098 53017 60024 82232
333 20240 56999 59006 70018 82816=
98444 11468 40401 10286 20257 40097 52008 69904 70582 84300
333 20270 56999 59012 79999 81918 83820
555 29999=
98531 11468 71603 10270 20253 40082 53014 69904 71562 82670
333 20262 56999 59002 70000 82618 87359
555 29999=
98536 31470 80903 10280 20248 40083 53004 70542 8227/ 222//
20000
333 20259 56299 59015 82818 88357
555 0////=
98543 32475 70000 10300 20257 40101 53011 83208
333 20258 56999 59005 83818 87272=
98550 11460 30000 10283 20253 40091 53011 69924 70544 81261
222// 20101
333 20248 56999 59011 70002 81818=
37171 42996 70404 10159 20143 40096 52001 87030=
98618 31475 62902 10272 20251 40090 53017 70544 82261
333 20246 56999 59001 82819 85075
555 0////=
98630 12470 80000 10254 20246 40083 53014 69934 8432/ 222//
20000
333 20246 56999 59011 70003 84918 88354=
98637 31470 60202 10290 20257 40097 53013 70522 82279
333 20258 56999 59004 82812 83358=
98646 12560 50401 10299 20246 40112 52010 69904 81232
333 20260 56999 59008 79999 81820 82360 84080=
98653 31470 21202 10290 20261 40093 53010 70544 82200
333 20251 56999 59012 82818=
98741 11468 80000 10256 20240 40090 52003 60024 70282 83207
333 20220 56199 59006 70024 83817 88275
555 20024=
98747 11470 12002 10250 20222 40088 53011 60014 70544 81201
333 20220 56999 59010 70010 81818=
98753 11468 53604 10272 20251 40087 51009 60044 70544 82201
333 20242 56899 59009 70037 82816 84079=
98755 11570 10000 10280 20256 40089 53008 60054 70500 81201
333 20240 56999 59016 70050 81820=
98836 31565 60301 10266 20250 40095 52014 70544 82270
333 20248 56999 58000 82820 85362=
43086 21596 33203 10270 20226 39862 40037 70511 81502 333 59004
6990/=
43128 21596 32008 10260 20217 39459 40057 71792 83931 333 57922
59002 6991/ 83620 81930 85360=
43150 32997 20000 10286 20234 39951 40025 81031 333 59010 81362=
43185 21496 62704 10286 20264 30024 40027 71396 83308 333
57922 59016 6032/ 81620 82825 81925 83270=
43198 22496 50000 10212 20203 39258 40081 82531 333 56699 59004
6023/ 82612 83358 85075=
43201 32496 10228 20210 39363 40080 84532 333 59001 84618 86075=
43213 21996 32701 10256 20226 39749 40064 70196 81032 333 59006
6002/=
43279 32596 33212 10284 20215 30028 40045 82401 333 59010 81620
83075=
43284 22496 60000 10260 20240 39966 40082 83670 333 59009 6001/
82710 83615 86458=
43295 21396 82702 10220 20207 39078 48487 75062 8472/ 333 5669/
58000 6998/ 81709 83616 85458=
43314 32496 82303 10274 20251 40081 8481/ 333 59010=
43321 21496 70000 10236 20221 39634 40080 75065 84720 333 56590
59002 6001/ 82710 83615 85458=
43371 32596 73202 10260 20246 30010 40083 82831 333 59009 82620
85075=
48325 31320 80000 10258 20241 39820 40061 71022 886//
333 20244 59002=
59158 32965 02002 10295 20238 39996 40093 52026=
59562 32580 12003 10300 20257 30067 40078 51010 81100=
59567 32262 72209 10263 20245 39728 40095 51016 874//=
58968 31656 21001 10288 20239 30073 40080 51019 71011 82100=
58974 31558 61705 10274 20252 39969 40085 51020 71011 86400=
59358 32560 41704 10311 20268 30080 40091 51019 84200=
59559 32575 51903 10298 20249 30067 40094 53016 85200=
59792 32563 21604 10296 20272 30083 40088 52006 82200=
20069 55094=
87078 32970 81802 10178 20106 30014 40166 53016 8803/ 333 10238
20152=
87097 32968 00000 10151 20148 39841 40157 52013 333 10203
20135=
87155 32960 01807 10143 20101 30120 40181 52017 333 10223 20134=
87162 32970 02005 10152 20111 30093 40163 52023 333 10230 20152=
87166 32968 02005 10138 20104 30102 40177 52015 333 10226 20135=
87178 31965 01805 10157 20092 30013 40161 52016 70400
333 10236 20149=
87270 32965 52008 10120 20080 30122 40187 53020 80006
333 10214 20110 56006 85270=
87289 32970 02011 10132 20097 30083 40167 52013 333 10202 20114=
87374 32965 62008 10122 20073 30100 40194 52015 80006 333 10175
20114 56006 86270=
87393 32970 02312 10138 20091 30108 40172 52013 333 10198 20112=
87395 32965 42004 10124 20099 30134 40180 53021 80006 333 10188 20115
56006=
87480 32965 02006 10104 20071 30176 40206 51019 333 10170 20086=
87497 32965 02310 10110 20086 30148 40173 52013 333 10164 20110=
87534 32965 01804 10095 20064 30061 40227 52014 333 10160 20069=
87548 32962 02304 10105 20078 30097 40196 53013 333 10146 20092=
87576 32460 82310 10124 20095 30146 40171 52019 885//
333 10144 20094 56400 84615 86627=
87582 32560 52010 10129 20096 30162 40169 52019 83560 333 10147
20108 56550 83630 83360=
87623 32982 81613 10094 20073 30001 40234 51011 80006 333 10136
20055 56005 88270=
87645 11360 71609 10094 20080 39980 40190 52028
69901 72052 87700 333 10134 20093 56400 83709 84610=
87692 11460 71815 10116 20056 30162 40187 52033 60011 70282 87800
333 10149 20112 56500 83819 84625=
87715 32565 81108 10087 20068 39926 40257 52007 8452/ 333 10112 20059
56299 84625 86557=
87750 11465 71410 10093 20074 30138 40240 52016 60031 72586 87800
333 10120 20090 56300 84615 85830=
87765 32980 70905 10032 20002 39260 48527 51001 87070 333 10061
20010 56060 87360=
78962  11460 81008 10241 20238 30132 40140 60061 78082 8782/
333 05299 10270 20232 58019 83808 85630 88558=
87016 32565 82702 10170 20135 39754 40167 53019 885// 333 10204 20170
88630=
87022 32660 81804 10172 20126 39655 40171 52019 8457/
333 84640=
87046 32665 80000 10150 20103 39155 48530 52017 8457/
333 10187 20150 56099 84635 86357=
87047 32565 80000 10121 20099 38826 48536 52017 885// 333 10151 20121
56199 88625=
87121 32665 81806 10154 20133 39760 40196 52017 8457/
333 10184 20152 84640=
87217 32770 82706 10157 20112 39673 40170 52011 885//
333 10185 20135 56400 88650=
87222 32670 80910 10170 20109 39635 40160 52019 8457/
333 10213 20134 56999 84650 88460=
87257 32965 01805 10116 20088 30089 40195 52017 333 10198 20110=
87311 32665 81305 10125 20026 39510 40216 52013 8257/
333 10148 20050 56009 82640 88360=
87320 32965 80000 10174 20099 39644 40182 52015 8807/ 333 10216 20108
56099 88360=
87328 32780 41401 10100 20052 39527 40195 52016 84500 333 10210 20074
84650 95000=
87349 32970 00000 10112 20059 39816 40216 52017 333 10186 20093=
87416 32665 80000 10127 20043 38847 40215 55016 8357/ 333 10155
20059=
87418 32665 82303 10112 20076 39398 40223 52011 885// 333 10125
20054 56599 88640=
87448 32970 00000 10084 20058 39648 40236 57016 333 10170 20014=
87453 32970 30000 10104 20043 39718 40218 52018 83070
333 10156 20084 56060=
87467 32970 31802 10083 20058 30068 40208 52016 80006 333 10178
20069=
87506 32570 80240 10064 20021 38611 48529 52014 885// 333 10093
20011 88620 95090=
87509 32670 80905 10104 20053 39349 40231 52011 885// 333 10133
20050 88650=
71624 32969 41508 10164 20100 39979 40188 50001 81071 333
10219 20098 70000=
89062 41296 82603 11071 21081 30222 40265 57014 74022 333 11054
21072 92602 92611=
89061 32/// /2503 11045 30234 40244 56018 92337 333 11038 21067=
89063 42499 72202 11049 21055 30834 40248 58018 81601 92342 333
11045 21066=
64500 12460 82012 10260 20250 30089 40103 60052 76066 888//
333 0//01 58003 84610 88630 81920 94942 95832=
61223 32960 02406 10346 20126 39777 40061
333 0//00 59004=
61226 32960 53206 10357 20116 39775 40054 85070
333 59004 85365=
61230 32960 30000 10310 20079 39814 40072 80002
333 59011 83075=
61257 32960 62604 10348 20152 30034 40085 80002
333 0//00 58005 86075=
61265 31956 41014 10354 20141 3//// 4//// 70700 84030
333 0//00 5//// 84365=
61291 32960 22204 10297 20209 39673 40071 80002 980//
333 0//00 58002 82080=
61296 32970 51804 10280 20222 30900 40083 80002
333 0//00 59013 85075=
61297 31562 70000 10266 20190 3//// 4//// 7139/ 81972
333 0//00 5//// 81930 85365 94944 95834=
87791 11580 61410 10066 20048 30260 40268 52016 69921 72186 86800
333 10115 20060 56300 83825 83635 90103=
87803 11250 80509 10022 20017 39302 40249 53001 69951 75152 8572/
333 10033 21026 56009 83706 83610 86515=
87828 11470 40508 10052 20040 30256 40309 52011 69981 70262 82420
333 10093 20025 56320 82617=
87852 31470 80907 10023 20015 39769 40298 56002 71522 8552/ 333
10030 20012 56209 83713 84620=
87860 11480 50705 10055 20021 30262 40320 53003 69951 70186 85500
333 10086 20046 56500 85617=
87896 11470 80910 10029 20005 30225 40326 54000 69921 76062 888//
333 10058 20026 56299 86610=
87903 11575 80000 10030 20009 30013 40288 57008 69901 75154 8467/
333 10038 20015 56559 84730 84360 90003=
87909 11480 53604 10028 20015 30252 40331 58003 69901 70381 83570
333 10064 20010 56000 83618=
87925 32580 63610 10022 21018 30289 40313 56007 86500 333 10055
20016 56800 86630=
87938 32980 02003 10012 21059 30208 40280 57008 333 10035 20006=
70133 12664 83007 10028 20011 30207 40212 53002 69901 92353 333
10033 20022 555 93100=
70231 12666 61909 10117 20033 30102 40229 50001 69931 92353 333
10117 20078 91016 555 93100=
70261 12866 82011 10156 20017 30050 40221 53002 69901 92353 333
10167 20056 555 93100=
70273 32866 82511 10100 20050 30212 40260 51007 92353 333 10128
20072 91018 555 93100=
70308 31012 81107 10056 20050 30131 40143 51008 710// 92353 333
10061 20033 555 93100=
70316 11366 81322 10083 20061 30132 40168 51015 69931 761// 92353
333 10100 20061 91026 555 93100=
70326 12566 61618 10111 20050 30213 40235 52004 69981 92352 333
10117 20056 91025 555 93100=
70350 32666 82108 10117 20022 30229 40272 53007 92353 333 10122
20056 555 93100=
70361 32566 63107 10122 20056 30262 40280 51002 92353 333 10133
20078 555 93100=
70398 32566 43009 10139 20028 30195 40239 56007 92353 333 10144
20061 555 93100=
70341 12666 82707 10100 20044 30247 40273 51005 69901 92353 333
10100 20072 555 93100=
70194 32866 61003 10150 20010 30049 90015 555 93100=
78255 32559 60603 10239 20214 30000 40153 52009 86200 333 10310
80000=
78318 31561 50304 10293 20246 30136 40140 53010 71792 83972 333
10306 20220 30/// 56999 57953 58011 81820 85073 819//=
78325 31459 60602 10280 20225 30080 40137 53012 70592 81262 333
10304 20254 30/// 56999 58014 81817 86080=
78333 11/10 73501 10234 20223 30126 40132 5/010 69921 79596 86963
333 10313 20225 30/// 56999 57981 58013 70006 818// 869//=
78338 31559 72401 10262 20201 30124 40137 53001 70592 81273 333
10314 20219 30/// 56999 58011 81821 83357 85071=
78349 31456 80301 10241 20225 30027 40138 53009 71392 8197/ 333
10301 20206 31/// 56999 57934 58015 70120 81819 86462 81922=
78360 31568 81903 10285 20240 30124 40135 53012 71392 83907 333
10318 20240 30/// 56909 57916 58014 81820 882// 819// 92032=
78369 31464 60000 10292 20254 30125 40137 53018 71311 82973 333
10335 20246 30/// 56999 57930 58014 81818 84070 819// 92000=
72201 32966 09903 10289 20222 30128 40134 53008 92353 333 10311
20244 555 93100=
72202 31356 80512 10250 20240 30130 795// 90008 333 96010 555
93100=
72203 12566 60512 10267 20217 30141 40147 53010 69931 92353 333
10306 20228 555 93100=
72205 32666 60614 10250 20183 30120 40157 53011 92353 333 10317
20211 555 93100=
72206 32966 01010 10211 20144 30166 40174 53006 92356 555 93100=
72207 32966 01108 10222 20156 30164 40182 92353 333 10278 20144
555 93100=
72208 32966 00608 10200 20144 30173 40188 53007 92356 333 10239
20133 555 93100=
72212 35/// /0610 10278 20139 30133 40146 53005 92353 333 10311
20183 555 93100=
72214 32966 00607 10294 20133 30131 40150 55001 92353 333 10317
20189 555 93100=
72217 32866 21403 10267 20122 30040 40168 53002 92353 333 10289
20150 555 93100=
72218 32966 00506 10244 20083 30125 40177 53010 92353 333 10289
20139 555 93100=
72219 32766 61106 10244 20122 39808 40177 53002 92353 333 10261
20150 555 93100=
72223 32966 01809 10278 20161 30068 40145 55002 92356 333 10311
20172 555 93100=
72226 32966 01007 10278 20133 30088 40158 53003 92353 333 10300
20144 555 93100=
72231 32966 01509 10300 20172 30124 40137 55004 92353 333 10333
20250 555 93100=
72234 32966 00906 10278 20150 30043 40154 56000 92353 333 10300
20139 555 93100=
72235 32966 03605 10294 20167 30028 40144 56004 92354 333 10311
20172 555 93100=
72240 32966 09906 10306 20272 30113 40133 56008 92353 333 10339
20222 555 93100=
72243 31766 41313 10310 20240 30078 795// 92356 555 93100=
72248 32766 21107 10311 20206 30035 40127 58006 92356 333 10328
20183 555 93100=
72250 32966 01414 10300 20217 30101 40107 56011 92356 333 10344
20228 555 93100=
72251 32966 01314 10289 20228 30089 40108 56013 92351 333 10328
555 93100=
72253 32766 61213 10322 20194 39819 40094 56014 92353 333 10339
20228 555 93100=
72254 35966 01707 10322 20183 39887 40098 56012 92353 333 10356
20233 555 93100=
72255 35966 01510 10300 20211 30080 40117 56009 92351 333 10333
555 93100=
72256 32966 01510 10317 20222 39930 40105 56012 92353 333 10339
20233 555 93100=
72259 32766 21613 10328 20206 39904 40101 56008 92353 333 10350
20239 555 93100=
72261 35966 01614 10356 20106 39712 40061 56011 92353 333 10383
20250 555 93100=
72263 32966 01712 10333 20111 39424 40076 56008 92353 333 10367
20233 91020 555 93100=
72265 32966 01719 10333 20111 39105 40056 56010 92353 333 10356
20217 91024 555 93100=
72266 32966 01715 10350 20122 39467 40074 56012 92353 333 10361
20222 555 93100=
72267 32966 01715 10344 20117 38975 40046 56010 92353 333 10361
20211 555 93100=
72270 32966 61709 10372 20078 38738 40006 56021 92351 333 10378
20200 555 93100=
72274 32966 22713 10389 20022 39158 40026 58018 92355 333 10406
20233 91017 555 93100=
72278 32966 02911 10411 20028 39645 40019 56022 92356 333 10417
20267 91018 555 93100=
72280 32966 /2712 10417 20172 39948 40016 56024 92356 333 10422
20272 555 93100=
72290 32466 61905 10189 20139 30114 40125 58009 92351 333 10194
20167 555 93100=
72295 32462 42611 10194 20161 30076 40114 58008 92350 333 10222
20172 555 93100=
72304 17348 80116 10150 20139 30165 40167 51010 69951 761// 92351
333 10161 91027 96010 555 93100=
72308 12466 80515 10144 20122 30202 40209 53003 69901 92351 333
10172 20139 555 93100=
72310 32766 41011 10233 20128 30103 40184 53008 92356 333 10267
20133 555 93100=
72311 32966 01204 10244 20144 39890 40179 53005 92353 333 10272
20133 555 93100=
72314 32966 40408 10200 20100 39927 40201 53011 92351 333 10228
20106 555 93100=
72317 32966 00610 10156 20094 39893 40218 53013 92354 333 10189
20094 555 93100=
72324 32766 21405 10261 20150 39928 40174 53003 92353 333 10283
20139 555 93100=
72326 32966 00000 10244 20150 39827 40177 51004 92353 333 10261
555 93100=
72327 32966 21703 10261 20150 39961 40173 53004 92353 333 10272
555 93100=
72334 32966 21108 10300 20189 30051 40149 56002 92353 333 10317
20189 555 93100=
72340 32766 21906 10306 20211 30045 40137 55005 92353 333 10322
20200 555 93100=
72344 32966 01706 10322 20200 39953 40118 55006 92353 333 10339
20178 555 93100=
72351 32766 41516 10356 20183 39717 40071 56011 8/100 92353 333
10378 20239 91023 555 93100=
72353 32966 01513 10328 20189 39633 40083 57008 92353 333 10350
20211 555 93100=
72356 32766 21913 10322 20200 39863 40099 56005 92353 333 10339
20228 91021 555 93100=
72363 32966 01818 10350 20072 38852 40039 56010 92353 333 10367
20189 555 93100=
72365 32966 42209 10350 20033 38321 40014 56021 92356 333 10361
20183 555 93100=
72374 35966 02321 10339 21044 38465 40047 56009 92356 333 10361
20150 91026 555 93100=
72384 32966 03110 10300 20044 39919 40093 58018 92356 333 10300
20139 555 93100=
72386 32966 62125 10378 20044 39267 40001 58011 92356 333 10394
20278 91030 555 93100=
72389 32966 23311 10300 20017 39985 40101 56014 92356 333 10306
20150 555 93100=
72394 32966 02919 10167 20078 30037 40128 58009 92351 333 10178
20078 91026 555 93100=
72401 32666 40605 10144 20100 30169 40234 53005 92354 333 10167
20094 555 93100=
72403 32666 61503 10144 20100 30118 40235 53009 92351 333 10189
20056 555 93100=
72407 35466 80609 10117 20083 30219 40243 53001 92354 333 10150
20106 555 93100=
72408 32566 40910 10144 20083 30222 40244 53008 92354 333 10189
20117 555 93100=
72411 32666 21311 10167 20100 39794 40218 53013 92354 333 10206
20072 555 93100=
72412 35966 01206 10172 20100 39320 40201 53005 92351 333 10206
20083 555 93100=
72414 32966 40000 10211 20144 39837 40188 53005 92354 333 10244
20106 555 93100=
72421 32966 61708 10206 20161 39854 40172 56010 92351 333 10222
555 93100=
72422 32966 02304 10228 20161 39828 40183 58000 92354 333 10244
20139 555 93100=
72428 32962 41608 10217 20139 39869 40163 58018 92351 333 10228
20139 555 93100=
72429 32966 62012 10217 20144 39813 40171 55016 92352 333 10233
20100 555 93100=
72432 32966 01806 10267 20161 30017 40157 58005 92354 333 10278
20128 555 93100=
72434 32966 61912 10306 20222 39927 40121 56004 92353 333 10311
20172 555 93100=
72438 32966 42011 10244 20172 39863 40152 55004 92355 333 10261
20128 555 93100=
72440 32966 01709 10289 20183 39675 40119 55001 92354 333 10311
20172 555 93100=
72445 32966 21807 10306 20211 39790 40107 56007 92354 333 10317
20189 555 93100=
72446 32966 21916 10311 20228 39716 40073 53001 92353 333 10328
20189 555 93100=
72450 32966 61918 10333 20189 39602 40063 56002 92356 333 10350
20211 91024 555 93100=
72451 32966 01720 10339 20133 39168 40042 55003 92356 333 10367
20211 91028 555 93100=
72456 32966 01811 10328 20233 39759 40066 53002 92356 333 10344
20206 555 93100=
72458 35966 01911 10328 20189 39529 40038 53007 92355 333 10367
20217 555 93100=
72464 32966 00920 10322 20106 38480 40027 50001 92354 333 10389
20083 555 93100=
72465 32966 00613 10233 20133 38831 40066 58015 92356 333 10256
20172 555 93100=
72476 32966 01809 10361 20033 38443 49976 58016 92356 333 10372
20194 91022 555 93100=
72486 35966 02015 10272 21050 38015 40014 56017 92353 333 10289
20039 91020 555 93100=
72492 32966 02914 10278 20039 30105 40116 58014 92356 333 10278
20106 555 93100=
72503 32666 61311 10144 20078 30236 40248 53005 92351 555 93100=
72508 32966 41510 10172 20089 30161 40233 58004 92351 333 10206
20078 555 93100=
72509 32966 01214 10117 20100 30250 40256 50002 92354 333 10144
20078 555 93100=
72515 32966 01506 10161 20056 39642 40223 55000 92356 333 10200
20083 555 93100=
72518 32966 01910 10189 20089 30116 40223 55006 92351 333 10211
20078 555 93100=
72519 32966 61707 10206 20078 30054 40199 55003 92354 333 10233
20078 555 93100=
72520 32966 61806 10200 20061 39757 40204 53001 8/001 92351 333
10217 20078 555 93100=
72524 32966 41608 10200 20128 39896 40178 55016 92351 333 10222
20094 555 93100=
72528 32966 60506 10189 20128 39926 40186 53001 8/058 92354 333
10233 20111 555 93100=
72530 32964 41605 10250 20211 39874 40113 55002 92356 333 10267
20094 555 93100=
72532 32966 21912 10272 20206 39868 40107 58006 92354 333 10283
20161 555 93100=
72533 32966 01906 10217 20161 39859 40155 53001 92354 555 93100=
72537 32966 61506 10211 20133 39925 40162 53000 92354 333 10217
20117 555 93100=
72546 12762 41514 10300 20211 39718 40057 58005 69901 92354 333
10311 20183 555 93100=
72547 32964 01511 10261 20211 39716 40101 53005 92355 333 10267
20156 555 93100=
72552 32966 03419 10228 20178 39432 40076 52013 92356 333 91024
555 93100=
72556 35666 63616 10244 20189 39536 40076 53006 92354 555 93100=
72557 32966 00210 10272 20194 39689 40075 55001 92355 333 10283
20189 555 93100=
72562 32466 83612 10144 20122 39153 40119 55002 92356 333 10167
91016 555 93100=
72564 12466 81009 10128 20094 38112 40115 53003 69901 92356 555
93100=
72565 32766 60911 10228 20117 38301 40071 55003 92353 333 10250
20122 555 93100=
72569 32566 60918 10144 20089 38338 40107 56010 92355 333 10178
20083 555 93100=
72572 32966 43611 10272 20078 38618 40016 57018 92356 333 10278
20139 555 93100=
72576 35966 00615 10200 20072 38246 40062 56021 92356 333 10217
20089 91019 555 93100=
72578 32966 02711 10261 21022 38555 40045 56013 92356 333 10261
20039 555 93100=
72583 35966 03013 10233 21006 38622 40079 55006 92356 333 10250
20006 91019 555 93100=
72591 32966 03009 10261 21044 30001 40121 56013 92355 333 10267
20128 91015 555 93100=
72597 12966 03109 10156 20006 39723 40203 58002 69901 92356 555
93100=
72606 35366 22008 10110 20090 30234 90014 555 93100=
72617 32966 01908 10194 20089 30074 40201 56008 92354 333 10233
20083 555 93100=
72635 11659 81812 10217 20161 39847 40136 56005 60041 705// 92356
333 10233 20117 555 93100=
72636 11559 61907 10189 20167 39895 40125 58010 69931 710// 92355
333 10228 20100 555 93100=
72637 12666 61708 10206 20144 39877 40154 55007 69901 92353 333
10222 20089 555 93100=
72638 17658 21608 10172 20144 39717 40133 56019 60021 704// 92355
333 10194 20078 555 93100=
72640 11859 61609 10194 20172 39857 40108 58012 69901 710// 8/070
92352 333 10200 20094 555 93100=
72641 11648 21610 10222 20200 39789 40097 56018 69931 705// 92353
333 10222 555 93100=
72644 11958 60308 10189 20167 39642 40113 51022 69931 710// 92354
555 93100=
72645 31440 41604 10190 20170 39854 710// 90008 555 93100=
72651 32462 80315 10172 20150 39604 40114 53006 92356 333 91022
555 93100=
72654 32766 80310 10178 20117 39678 40139 53007 92355 555 93100=
72659 32966 60309 10194 20083 39675 40141 53002 92356 333 10211
20111 555 93100=
72662 32766 60606 10150 20067 39055 40162 55002 92355 333 10161
20089 555 93100=
72666 32766 80000 10139 20083 38770 40133 58013 92356 333 10144
555 93100=
72677 32466 80311 10128 20078 38907 40146 57012 92356 333 10128
20067 555 93100=
72681 32966 63616 10167 20044 39116 40110 53023 92356 333 10217
20061 91024 555 93100=
72683 35666 82721 10080 21020 38722 90013 333 91027 555 93100=
72688 11666 82609 10094 20067 39618 40160 51005 60041 761// 92356
333 10122 20044 555 93100=
72693 12866 62714 10139 20050 30086 40224 53003 60031 92356 333
10156 20078 91019 555 93100=
72694 12666 62411 10133 20056 30136 40212 51001 69931 92356 333
10156 20089 555 93100=
72698 12866 62405 10144 20089 30194 40203 58001 60051 92355 333
10144 20094 555 93100=
72712 32966 09904 10172 20067 39979 40210 58003 92354 333 10200
20039 555 93100=
72745 12462 81303 10133 20122 39617 40134 51013 60021 92355 555
93100=
72747 35966 22710 10211 20050 39679 40106 52001 92355 333 10222
20106 555 93100=
72753 32866 22707 10217 20072 39800 40130 53001 92353 333 10222
20117 555 93100=
72764 32966 09904 10200 20083 39551 40147 53002 92352 333 10222
20094 555 93100=
72767 32966 03606 10206 21033 39478 40156 53001 92352 333 10217
20056 555 93100=
72768 32966 40706 10200 21022 39338 40153 56004 92356 333 10211
20078 555 93100=
72772 12966 23513 10156 20033 38766 40118 56019 69931 92356 333
10172 555 93100=
72773 12866 40609 10172 20017 38990 40101 56015 69901 92356 333
10183 20033 555 93100=
72776 12666 80513 10111 20072 38874 40154 58008 69981 92356 555
93100=
72777 35966 01414 10183 21011 39241 40161 56004 92356 333 10194
20039 91020 555 93100=
72779 35866 60415 10150 20022 39094 40137 58001 92356 333 10178
20056 91023 555 93100=
72781 11766 62305 10111 20089 39761 40153 56005 60081 761// 92356
333 10161 20100 555 93100=
72785 12766 81904 10128 20061 39279 40118 53007 69901 92356 333
10194 20067 555 93100=
72793 12466 81508 10106 20078 30032 40199 53002 69931 92356 333
10111 20089 555 93100=
72306 32566 60207 10161 20100 30056 40218 52010 92351 333 10189
20100 555 93100=
72315 32966 01305 10206 20128 39433 40193 53013 92354 333 10239
20117 555 93100=
72402 15566 80210 10128 20100 30219 40221 53003 69901 92354 333
10167 20122 555 93100=
72405 32666 61006 10161 20094 30212 40237 53006 92351 333 10178
20111 555 93100=
72406 32666 61105 10150 20094 30180 40234 53006 92354 333 10178
20117 555 93100=
72423 32966 41507 10256 20156 39994 40168 56002 92356 333 10267
20128 555 93100=
72425 32966 01203 10217 20150 39885 40183 53003 92351 333 10239
555 93100=
72504 32966 01109 10139 20094 30244 40251 53004 92354 333 10161
20100 555 93100=
72507 32966 61507 10139 20083 30234 40256 50009 92351 333 10183
20072 555 93100=
72513 32966 09905 10167 20078 39885 40224 53008 92354 333 10211
20067 555 93100=
72521 32966 61908 10194 20117 39729 40174 58012 8/078 92351 333
10217 20100 555 93100=
72529 32966 81407 10206 20100 39984 40186 57004 8/026 92354 333
10233 20094 555 93100=
72535 12964 01809 10222 20161 39865 40141 55005 69981 92354 333
10228 20139 555 93100=
72536 32962 02008 10233 20156 39907 40158 55005 92352 333 10244
20100 555 93100=
72544 32966 00000 10278 20211 39879 40091 55008 92355 333 10283
20156 555 93100=
72592 32966 00108 10261 21067 39942 40119 56010 92356 333 10267
20133 555 93100=
72605 35966 01206 10161 20106 30113 40241 58000 92351 333 10217
20050 555 93100=
10156 20072 555 93100=
72783 11664 82906 10106 20083 39616 40136 53019 69981 761// 92356
333 10189 20072 555 93100=
72784 11774 83018 10161 20056 39865 40131 53002 69901 70308 83171
333 10178 20068 90904 555 93100=
72791 15566 42208 10133 20089 30201 40208 53001 69901 92356 333
10150 20072 555 93100=
78894 36/// /1008 10270 20226 30112 40171 53013
333 10304 20257 58017=
67765 42784 10601 10137 20108 38701 48543 81500 333 58001 81656=
67775 41970 00608 10144 20078 38535 48539 70500 333 58002=
67853 42980 00000 10064 20039 38980 48549 333 58014=
67861 42980 02705 10160 20059 38760 48539 333 59003=
67881 41970 00101 10011 20098 38613 48538 70500 333 59001=
67975 42975 00000 10084 20071 38963 48550 333 58000=
67977 42980 00000 10127 20109 39699 48563 333 59002=
67983 42980 00000 10150 20136 38931 48552 333 59005=
94103 35/// /0817 10248 3//// 5////=
94147 35/// /1426 10265 30093 40112 52014=
94151 35/// /2218 10242 30126 40146 52014=
94290 35/// /1524 10213 30142 40149 52001=
91503 12481 50905 10296 20243 40090 51001 60014 82248
333 20240 56800 59001 82818 83280=
91507 11480 43204 10296 20239 40085 57002 60054 70510 83828
333 20240 56200 59012 82816 83629=
91517 11475 10309 20248 40083 54000 60124 70500 81238
333 20230 56200 59004 81818=
91520 11480 50904 10301 20250 40083 51001 60054 70522 83232
333 20225 56299 59009 83818 83080=
91527 11470 40507 10295 20260 4//// 5//// 69974 71521 84208
333 20229 56109 5//// 84817=
91541 32480 40000 10290 20247 40082 57005 84200
333 20250 56200 59014 84820=
94129 35/// /1111 10243 30103 40126 52009=
94210 35/// /0813 10247 30150 40155 52018=
94289 35/// /1323 10225 30137 40146 52012=
94307 35/// /1021 10208 30148 40188 52022=
94371 35/// /1721 10178 30159 40165 52003=
94379 35/// /1918 10169 30148 40157 52004=
97028 12565 60000 10264 20234 30076 40083 53024 69904 83521
333 20235 50002 55029 56000 57603 58008 83620 85460 80660=
97048 31450 80000 10246 20231 30059 40083 53018 72842 8657/
333 20236 50460 55050 56009 59001 86613=
97072 12560 32003 10257 20224 30010 40112 51012 60034 82521
333 20230 50410 56000 58001 82620=
97086 12562 30000 10274 20229 30069 40092 51013 60054 82271
333 20236 50280 55020 56000 57000 59005 82820=
97120 11462 50506 10266 20233 30059 40092 60094 82931
333 20236 50310 55031 56000 57904 57804 59005 81917 84360 80980=
97146 01450 80000 10234 20231 40094 5//// 60134 76166 8657/
333 20220 56000 57600 59007 60057 86618 80660=
97192 32467 81004 10252 20237 30055 40119 52026 8122/
333 20240 55000 56000 57804 58000 81817 88460 80850=
97230 32460 61206 10270 20219 30099 40106 52009 84231
333 20264 50520 55063 56000 57801 58009 84818=
97260 32570 51609 10254 20228 30093 40099 53022 82131
333 20222 50550 55094 56000 58002 82820=
97270 31458 51511 10246 20210 30099 40103 51007 78511 82471
333 20214 50650 55092 56000 58001 82617=
97430 01460 70000 10256 20247 30067 40097 60174 70262 84272
333 20242 50620 55110 56000 57800 59004 69977 84818 87460 80860=
97600 21459 70000 10258 20246 30105 40110 60034 82271
333 20210 5//// 55032 56600 57861 58014 82817 87459 80957=
97748 11459 82903 10263 20260 30087 40094 5//// 60094 70562 84972
333 20212 50000 55077 56600 57960 82915 82817 85458 80950 80840=
97900 01460 81507 10266 20227 30084 40115 51006 60024 72122 8582/
333 20245 50320 55000 56209 57821 59001 69957 84615 80873=
96015 31450 70000 10226 20220 30077 40084 5//// 60494 70562 84574
333 20226 50000 55000 55508 50530 56000 59018 60147 84617=
96535 12461 80000 10252 20239 30067 40087 5//// 60304 82904
333 20236 50650 55017 56000 57903 57802 59005 81915 81814 85081
80966 80864=
96559 11205 80000 10246 20246 30040 40077 57014 69924 74464 8762/
333 20230 50410 55022 56409 57749 59007 87707 88460 80734=
96595 11250 70000 10251 20241 30044 40091 60024 70522 83531
333 20/// 50210 55002 56100 59009 83605=
96607 12458 62505 10242 20231 30089 40103 54000 60284 85511
333 20220 50050 55000 56600 58006 85615=
96615 32462 50000 12048 20239 30065 40078 81131
333 20236 50500 55094 56000 57800 59006 82812 80857=
96695 01557 70000 10244 20241 30085 40090 60374 70262 85270
333 20238 50380 55000 56000 57803 58000 60304 83820 80858=
96737 11457 70000 10236 20228 30057 40106 52006 60114 70522 84571
333 20225 50480 55028 56000 57601 59006 84619 80867=
96739 11520 60000 10232 20229 30030 40079 52007 60534 71021 83531
333 20232 50460 55050 56000 59008 83620=
96747 13940 50000 10244 20232 40082 70511 83071 20232 56000 59005
82362=
96751 32540 61606 10194 20170 39045 48920 84520
333 56500 79999 84620=
96755 11456 60000 10232 20226 40092 60044 71062 83521
333 20224 56000 58005 82618 85462=
96791 31559 50000 10240 20230 30026 40086 52003 70521 82511
333 20230 50424 55045 56000 59011 82620 806//=
96837 11958 50000 10246 20229 30079 40082 52006 60164 70511 80001
333 20244 50410 55080 56000 57000 59004 85080=
94776 46/// /2715 10120 20021 30125 40135=
96009 32460 80000 10240 20231 30045 40079 8692/
333 20238 50310 55000 56009 57904 59018 81915 85615 80950=
96011 12560 82804 10275 20190 30044 40066 5//// 60024 85532
333 20229 50270 55/// 56000 59017 85620=
96091 01440 80000 10238 20235 30071 40094 58008 60624 79592 8592/
333 20236 55063 56009 57990 58004 60367 81920 84613 88460 809//=
96145 12466 71403 10290 20247 30063 40068 5//// 60064 85820
333 20278 50500 55065 56400 57/// 59001 83616 87460=
96163 01568 80000 10235 20228 30096 40104 53002 61354 70262 8752/
333 20226 56009 58006 60287 87627=
96179 01458 80000 10234 20231 30058 40095 52007 60164 79596 8697/
333 20184 50000 55/// 56009 57901 58003 60127 82920 84817 80970=
96195 11456 50000 10232 20226 30055 40090 52001 60024 70522 82501
333 20228 55003 56000 59018 82615=
96221 11956 42005 10245 20234 30081 40096 52001 69904 70511 80001
333 20235 50060 55087 56009 59002 84080=
96237 31458 60000 10248 20239 30043 40075 56008 70522 83231
333 20242 50370 55030 56000 57804 59005 83820 80858=
96249 11556 60000 10243 20240 30012 40071 52003 60174 70522 82132
333 20232 50620 55030 56000 57802 59012 82820 84358 80863=
96253 12460 73504 10244 20228 30055 40076 57001 60054 83972
333 20230 50154 55036 55508 50681 56000 57900 59005 81915 84460=
96295 11430 40000 10234 20228 30003 40107 51010 60014 70511 82931
333 20232 50270 55045 55508 57975 56000 57901 59008 81912 80940
81612=
96581 11440 50000 10246 20242 30079 40086 52004 60114 70522 83131
333 20237 50210 55043 56600 57862 59006 83813 80862=
96645 11440 50000 10244 20238 30052 40083 52008 60104 71021 83531
333 20234 50680 55035 56000 59017 83614=
96655 32457 50000 10256 20244 30071 40099 52010 83572
333 20242 50400 55065 56000 59010 83609=
96685 11560 70000 10249 20238 30060 40086 52010 60181 70522 83571
333 20234 5///0 55025 56000 59011 83620 85360=
96749 11556 60000 10241 20235 30078 40092 53007 70522 82511
333 20236 56000 58001 79999 82625 85462=
96805 32559 30903 10260 20223 30075 40086 51008 81211
333 20258 50431 55087 56000 57801 59006 81820=
96839 11557 50000 10242 20227 30083 40088 56002 60034 70521 82501
333 20240 50621 55075 56000 59010 82623=
96933 32961 10000 10244 20227 30085 40092 52006 81011
333 20246 50521 55095 56000 59008 81460=
82693 32794 30907 10270 20206 39864 40117 80210 333 10336 58006=
82789 32994 01401 10212 20162 39016 40122 333 10280 58009=
82795 32597 20506 10230 20198 39511 40126 82100 333 10284 58003=
64860 32970 32806 10275 20247 39812 40075 80002
333 0//00 59001 83080=
64870 31460 70000 10187 20179 38893 48488 86903
333 59009 86616 81930 87080=
64910 31460 70000 10265 20255 30084 40094 71792 87900
333 0//00 59006 87616 81920 94949 95875=
62309 31958 03001 10208 20190 40110 51001 71000=
62325 32960 00000 10224 20185 40097 58005=
62332 32960 03516 10235 20189 40089 56002=
62387 32960 00000 10262 20143 40076 54000=
62459 32960 03214 10256 20172 40032 58008=
71472 36/// /3221 10085 30254 40272 58003 333 10085 20071 70000=
64600 33960 70000 10240 20223 39440 40074 8707/
333 0//00 59010 87365
64601 33960 30404 10205 20182 38287 48503 80002
333 0//00 59006 83080=
64610 33960 20000 10226 20218 39569 40074 82030
333 0//00 59005 82365=
64650 11460 10000 10226 20220 39682 40086 69901 70296 81500
333 0//65 59008 81610=
64655 33960 7//// 10200 20200 39444 40090 80002
333 0//00 59005 87080=
64656 33960 8//// 10215 20212 39540 40086 8807/
333 0//00 58001 88365=
64659 11960 81804 10190 20185 39385 40089 60121 70096 8807/
333 0//12 58019 88365
64660 31901 00000 10199 20199 39562 40086 7464/
333 0//00 59004=
64661 33960 6//// 10204 20198 39432 40089 86030
333 0//00 58002 86365=
22271 42676 60904 10034 20034 40097 30087 53014 84530=
22522 41984 73502 10138 20129 30062 40071 51011 70281 87070=
22550 41597 51202 10162 20148 30084 40094 58006 70292 85500=
22583 42984 61402 10148 20111 30051 40158 52002 81032=
22768 42897 51802 10192 20118 30065 40118 52003 83031=
22845 42998 22201 10169 20145 39954 40102 53002 82030=
22887 42970 01602 10130 20086 30078 40145 52003=
23205 41970 81402 10087 20073 30142 40156 53002 76162 8807/=
23219 42998 61203 10031 20002 30082 40187 52001 83031=
23418 42970 70000 10075 20058 30108 40180 53005 87030=
23711 42998 60000 10052 20040 30013 40181 52007 80001=
23804 42999 12001 10104 20084 30019 40163 52006 80001=
27037 42898 31502 10168 20136 39971 40123 52001 82031=
27199 42998 00000 10116 20077 40167 52006=
27271 42998 10000 10094 20071 30012 40164 52009 80001=
27459 42998 11502 10170 20100 39966 40151 52003 81080=
27730 42966 71501 10168 20123 39948 40133 53001 82031=
22837 41499 71101 10164 20135 30042 40108 52005 70298 86903   333
86916=
22954 42963 11501 10160 20140 39879 40115 52001 80001=
23405 42978 71105 10138 20065 30052 40147 58001 86031=
23412 42998 71003 10081 20013 30088 40183 53002 87030=
23803 42999 20000 10086 20055 30000 40175 52005 80001=
27066 42998 32001 10118 20098 39988 40160 52008 80002=
27083 42899 20000 10095 20071 39947 40164 52006 80001=
27113 42997 70702 10150 20123 39975 40114 52007 85031=
27242 42884 51401 10176 20124 30012 40133 54000 82051=
27329 42974 63001 10148 20112 30008 40128 52006 86030=
27355 42984 01802 10188 20103 39993 40148 53001 80002=
27373 42999 31702 10116 20070 39945 40156 54000 80002=
27665 42597 61102 10168 20121 39902 40159 58007 82950=
28411 42997 03204 10080 20048 39975 40169 53011=
31285 32999 60000 10120 20088 40130 54000 80007   333 20042=
31561 32699 60803 10132 20048 40118 52013 82101   333 20064=
32010 32497 10302 10068 20030 40131 52027 81500   333 20005=
22282 41577 70902 10061 20054 30094 40102 54000 70282 85501   333
85622=
22365 41575 61806 10143 20130 30066 40092 58010 70298 83239=
22438 42972 62103 10106 20084 30048 40069 52005 83034=
22641 42684 81201 10184 20134 30070 40085 52006 84932=
22695 42984 71902 10096 20065 39960 40152 52002 82032=
22854 42984 01301 10148 20126 39838 40112 53003=
22867 42978 80000 10175 20140 30012 40119 53001 82038=
22996 41970 30000 10106 20081 39982 40166 52008 71111 80001=
27051 42965 01302 10142 20122 39986 40146 52012=
27225 43996 83602 10181 20122 39998 40121 52007 80003=
27252 42984 00000 10137 20117 39969 40146 52005=
27369 42999 21301 10120 20109 30031 40164 52008 80001=
27393 42998 20000 10118 20094 30021 40184 52014 71211 80001=
27479 42984 20000 10161 20058 30032 40159 54000 80001=
27532 42997 00000 10184 20144 39930 40131 52002=
27679 42975 01602 10128 20050 39956 40171 52006=
28214 42999 10901 10083 20073 39970 40177 52009 80001=
24817 32999 22501 10115 20030 39769 40114 54000 80001   333 21015
55160 10012=
43157 32596 82702 10236 20291 39448 40078 8577/ 333 58004=
25954 11498 80503 10044 20016 30086 40090 57003 69950 78082 889//
333 20015=
32389 11698 71501 10053 20015 39973 40009 58008 60070 70282 86930
333 20003 55000=
32583 11397 83603 10029 20021 39943 49972 57003 60020 78082 889//
333 20020=
32618 11/93 92301 10043 20036 39930 49952 57004 69970 74554   333
20017 41998 55000=
43311 32596 50000 10288 20260 40085 83802 333 58007 82620 83075=
43360 32997 73206 10280 20204 39911 40058 87030 333 59004 =
35376 41597 80205 10126 20117 39593 49999 54000 72998 889//   555
10013=
91165 32566 20511 10272 20183 30121 40174 58012 92353 333 10283
20233 555 93100=
91182 32666 20717 10289 20183 30156 40161 58010 92353 333 10300
20239 91021 555 93100=
91190 32966 00417 10289 20189 30128 40156 92354 333 91023 555
93100=
91212 12466 60611 10289 20244 30025 40122 51009 69951 92354 333
10294 20256 555 93100=
91285 12566 40610 10272 20200 30152 40165 58018 60031 92353 555
93100=
91356 11574 70910 10293 20243 30074 40081 50000 60024 70282 84375
333 20250 56399 59006 70018 84921 555 93100=
91366 11366 80617 10283 20259 30076 40085 58008 60104 72582 83871
333 20243 56127 59005 70102 555 93100=
91765 11569 31911 10290 20210 30095 40098 56014 69904 70282 83100
20243 564// 58008 555 93100=
91245 32566 80718 10300 20240 30144 92350 555 93100=
43053 32596 42006 10296 20288 40016 82530 333 59002=
32594 83208 10043 20023 39931 49966 52025 60020 78082 889//   333
20035 55115 91010 91112=
14105 32899 71203 10135 20101 30143 40147 58007 87070=
62600 31960 00212 10315 20025 39856 40061 70700 333 58019=
62640 32970 03203 10300 20030 39650 40038 333 58007=
62641 32970 02705 10275 20190 39991 40039 333 58004=
62650 31960 03615 10285 20035 39783 40048 70700 333 59007=
62660 31956 03616 10350 21010 39/// 40/// 70700 333 5////=
62680 32970 03603 10340 20080 39641 40019 333 59007=
62721 32970 71805 10340 20110 39599 40031 80007 333 56009
59004 87275=
62730 32970 02008 10310 20117 39/// 40/// 333 5////=
62733 32970 71407 10320 20110 39560 40052 80007 333 56009
58003 87275=
62752 32970 71106 10280 20170 39389 40049 87070 333 56090
58010 87365=
62760 32970 000000 10285 20105 39243 40038 333 59012=
62762 32970 72205 10300 20200 39562 40022 83047 333 56029
58008 83365 87275=
62771 32970 72008 10280  20190 39409 40039 80007 333 56009
59014 87275=
62772 32970 72608 10300  20196 39612 40033 87070 333 56090
59005 87365=
62781 32970 700000 10290 20180 39453 40062 80007 333 56009
59009 87275=
62790 32970 72211 10280  20180 39356 40064 80007 333 56009
58000 87275=
62795 31770 71415 10290 20160 39543 40032 71322 81970 333 56209
57922 58002 81950 87275=
62805 31770 71803 10280 20170 39502 40017 71322 83970 333 56990
57922 58004 81956 82650 87365=
62840 32970 72705 10225 20210 39642 40083 80007 333 56009
58006 87275=
41660 31996 0000 10178 21011 38340 48426 333 59005=
41780 326// 22508  10290 20248 30000 40027 82500
333 56900 59000 82630=
41624 31/90 91303 10292 20162 39796 49967 70600 333 58032=
41640 11696 83109 10278 20172 39786 40024 69982 79596 8592/
333 58048=
41675 119// 21303 10320 20200 39841 49977 69902 70519 82030
333 56090 58008 83362=
20046 41472 71409 11055 21072 30190 40218 57007 73632 875//
333 87613 91112=
20087 31477 60208 11074 21087 30228 40239 52008 73631 84130
333 21086 44037 55000 84814=
20292 11478 70510 11043 21049 30173 40192 52002 69902 73773
875// 333 21046 42/// 55001 87614 91114=
20667 42497 80404 11048 21068 30251 40260 52003 885// 333   91107=
20674 32477 70309 11028 21048 30140 40199 51001 875// 333
21034 42031 55000 87610=
20744 42998 81018 11012 21055 30154 40172 57008 8805/ 333   91124=
20891 32597 63404 11020 21035 30051 40093 53003 82531 333
21031 41/// 55053=
23022 41296 81006 11026 21039 30168 40229 57003 71082 886//
333   86706 91109=
23032 41564 83605 11018 21036 30202 40235 53004 70282 885//
333   88622 91106=
23256 41498 80206 11006 21027 30131 40165 54000 78582 883//   333
85911=
23330 42397 80403 11003 21012 30197 40216 52002 886//   333 88707=
23552 41497 70405 10023 21020 30097 40131 57001 70732 87500=
23631 42599 70305 10040 20000 30148 40188 52005 87500   333 87619=
23734 42598 80101 10020 21005 30080 40171 52007 81131=
23849 42496 70107 10057 20025 40074 52010 87500   333 87616=
23933 42497 73603 10060 20031 30066 40123 53006 87300=
28275 42599 23506 10088 20058 30026 40085 52010 82300=
28493 41498 83504 10106 20097 39908 49995 52012 78082 889//   333
86713=
28698 41598 63503 10112 20104 39846 49991 52009 70286 86500=
23426 42984 10703 10040 20009 30187 40211 57003 81100=
28076 42997 13605 10078 20041 30027 40096 52009 80001=
28367 42996 03503 10074 20055 39987 40111 52008=
28382 42998 73607 10102 20070 39972 40040 52014 87030=
28481 32998 73505 10112 20080 39947 40042 52015 87070   333 91112=
28491 42698 73303 10113 20092 39914 40018 52022 87500   333 87633=
28573 42989 83405 10109 20071 39948 40047 52006 8805/=
28593 41584 83604 10111 20102 39894 49986 52013 70282 8802/=
28786 42498 83504 10110 20104 39858 40006 52005 886//   333 88712=
28797 41396 83504 10111 20111 39846 49994 52008 75152 886//   333
88708=
28799 42598 83202 10122 20106 39852 49987 52012 889//   333 88924=
23929 42981 23406 10053 20048 40161 52008 80001=
28383 41698 83302 10114 20081 40026 52015 70282 8295/=
28465 42980 03404 10083 20064 40091 52001   333 91112=
28586 42599 73405 10111 20095 40004 52009 87500   333 87631=
28588 42584 73604 10138 20134 49917 57005 87900=
28688 41496 83605 10111 20097 40007 52003 76165 8872/   333 87710=
28696 41499 83203 10117 20111 49989 52019 70282 889//   333 88940=
28791 42499 83004 10116 20100 40002 52006 887//   333 88711=
29367 32484 60303 10137 20106 39791 40003 53010 83941   333 20137=
30117 32960 81704 10120 21005 39632 40104 58001 84077   333 20107
55145=
23662 42499 70304 10026 20002 30034 40075 52004 87500=
23788 11898 70000 10094 20081 39923 49997 57019 60012 70262 87050
333 20082=
23986 32699 81503 10106 20036 40005 57021 8351/   333 20094=
29149 11498 81701 10108 20106 39847 49972 57008 60032 70282 889//
333 20103 55048=
29203 60112   333 20094=
29745 69972   333 20125=
36087 32999 20401 10136 20063 40157 52006 80002   333 20081 55136=
36096 32699 70302 10132 20050 40069 52004 82502   333 20092 55119
95000=
36103 32/92 90000 10039 20039 40135 54000 74541   333 20009 95090=
36231 32599 60000 10099 20067 39113 40061 53001 82551   333 20094=
36259 32699 70000 10065 20032 38181 48444 53007 82901   333 20042
55146=
36307 32999 00902 10126 20017 38858 48445 52005   333 20100=
29956 32699 71901 10135 20114 39526 40050 53013 86900   333 20105
55098 87644 95000=
43333 21495 83214 10244 20232 40065 76262 8542/ 333 59005 6025/
83618 83820 88457=
41571 31696 72316 10256 20133 40007 70522 84330 333 56990 58023=
41594 XXXXXX
41506 32796 40000 10154 20122 48439 82540 333 58002=
41536 129// 01803 10205 20111 48455 60092 333 58004=
26887 41335 83003 10150 20147 39907 40104 58002 76162 8872/   333
88707   555 11016=
16098 32960 00000 10130 20103 30100 40151 56010 92345=
62420 32960 03508 10222 20167 40109 51002=
62435 32960 03110 10286 20060 40076 58012=
62455 32960 03412 10244 20172 40079 52010=
43353 21496 70000 10262 20254 40088 71396 8397/ 333 56199 57970
59006 6997/ 82616 81925 87458=
30692 11599 60501 10109 20062 39590 40056 69942 70282 8503/ 2/08/=
30859 32999 20403 10155 21005 39291 40054 52019 80001   333 20040=
96465 12480 71704 10283 20236 30050 40084 60064 81842 333 20267 50560
55080 59021 8181687080=
44259 32998 50000 10172 20038 39224 40061 52032 83044 333
20109 58125=
58009 6002/ 84615 84360=
44317 32698 80000 10142 20106 38827 40024 51022 885// 333
20120 555 30118=
44305 32599 20209 10180 20068 38945 40025 52017 82540 333
20126=
44314 32998 80701 10166 20070 39035 40049 52020 84017 333
20106=
44352 12999 13610 10154 20021 38825 40029 52017 69902 81040
333 20104=
44256 32999 00207 10173 20088 39245 40037 53015 333 20027=
44313 32999 60000 10137 20050 39265 40044 53006 86070 333
20094=
48848 32970 70000 10266 20250 30054 40062 53014 80008 333
00030 20252 3/026 59004 87299=
48855 31570 72901 10269 20242 30047 40055 52008 71792 86908
333 00029 20264 3/029 59015 83995 86697 87299=
48852 32970 70000 10264 20247 30045 40055 52006 86058 333
01029 20240 3/025 59013 86299 87299=
48863 11497 80000 10258 20250 30040 40049 53010 60102 76098
8682/ 333 01028 20258 3/027 59017 83894 86696 88499=
51711 32680 72503 10120 20002 37979 52003 85802 333 00152
30046 79999=
42647 31596 42301 10282 20243 40053 70521 82530 333 56590
58007 82620 83358=
42737 22996 12303 10270 20256 40045 80001 333 58002 6001/
81070=
42909 22596 42305 10292 20255 40052 84600 333 56500 59005
6002/ 81620 83825=
43189 32596 70000 10287 20237 30018 40027 83831 333 59015=
43245 21596 62301 10280 20249 30018 40040 70162 83570 333
58005 6001/=
58011=
10215 21028 55066=
63820 32480 22103 10212 20200 40135 82200
333 59001 82818=
71900 46/// /0106 30145  56013=
71800 46/// /0103 30197  53032=
71827 32574 72907 10119 20045 39866 40104 57002 82471 333 10151 20102
70032=
71403 36/// /2206 10071 20063 30259 40271 51008 333 10080 20037
70000=
47402 32980 70904 10120 20077 30110 40120 51013 80002
333 20085=
47404 35/80 /3406 10162 20092 30085 40100 50002
333 20072=
47405 31/65 70504 10121 20094 30100 40119 51012 702// 81032
333 20049=
47406 32/82 83605 10151 20099 30064 40097 55001 81537
333 20085=
47411 35/70 /0302 10144 20075 30056 40087 50002
333 20102=
47413 32/80 73604 10168 20102 30041 40101 53003 82037
333 20084=
47417 32/82 71102 10173 20062 30061 40112 50003 83032
333 20096=
47423 32/70 70609 10159 20063 30034 40092 50003 81261
333 20114=
47424 32/65 71304 10142 20108 30089 40102 53005 82102
333 20110=
47428 32/65 80205 10165 20127 30071 40085 55001 82037
333 20117=
47433 32/80 71302 10171 20088 39867 40086 58001 81132
333 20066=
47435 32/70 70803 10129 20069 30095 40115 51010 81032
333 20076=
47440 35/67 /0311 10112 20049 30075 40115 50003
333 20072=
47512 32/75 81302 10178 20094 30038 40086 50001 8807/
333 20152=
47520 35/73 /3501 10177 20115 39954 40073 56016
333 20126=
47574 32/70 80201 10189 20142 39990 40068 58011 8807/
333 20153=
47576 35/74 /1501 10210 20102 30083 40089 58002
333 20128=
47581 31/58 70605 10163 20102 30053 40086 50000 70522 8167/
333 20148=
47584 32982 73405 10189 20107 39901 40080 58012 87072
333 20126=
47587 32983 80805 10225 20063 30051 40055 56020 8807/
333 20158=
47588 32/80 80402 10205 20094 39894 40070 57016 83537
333 20160=
47592 32/62 81708 10189 20142 30026 40084 55002 8212/
333 20158=
47595 32/60 71002 10220 20139 39994 40073 58012 87012
333 20179=
47597 37/59 /2307 10202 20139 39670 40076 58009 70400
333 20149=
47604 32/70 82904 10219 20127 30050 40057 56007 8657/
333 20183=
47606 17/64 /1704 10191 20119 30049 40064 50000 69902 76160
333 20178=
47607 11/62 81802 10192 20151 30046 40066 50002 69902 76122 8257/
333 20175=
47612 11960 83204 10221 20132 30043 40064 53006 69902 76122 8802/
333 20168=
47616 11/65 81606 10186 20143 30037 40057 58016 60032 76022 8177/
333 20177=
47631 11/58 81614 10188 20168 30044 40058 58013 60052 76122 8572/
333 20181=
47610 11/58 82912 10189 20124 39596 40073 53004 69902 76122 8552/
333 20170=
47615 31/58 81703 10214 20162 39922 40083 58002 70522 8272/
333 20183=
47620 17/58 /3304 10164 20129 39227 40082 53003 69902 76165
333 20158=
47622 11/60 80302 10142 20121 38965 48452 50003 69902 76162 8172/
333 20121=
47626 11/58 80503 10211 20175 30046 40082 58002 69902 72122 8272/
333 20185=
47629 31957 81905 10231 20159 30048 40083 58008 70522 8801/
333 20174=
47637 11/65 82602 10182 20133 39534 40084 56001 69902 76062 8172/
333 20156=
47638 11/58 82903 10201 20145 39761 40082 55001 69902 76062 8157/
333 20183=
47641 17/47 /3602 10193 20167 39811 40080 58004 69902 76165
333 20164=
47670 11965 82209 10227 20151 30035 40083 58001 69902 72122 8807/
333 20202=
47672 32/60 72009 10243 20168 30080 40088 55001 81132
333 20184=
47674 31/58 72005 10222 20194 30074 40089 50000 71022 8127/
333 20179
555 41003=
47677 32/70 72206 10238 20182 30044 40087 58001 82172
333 20198=
47682 32/60 82509 10235 20186 30063 40085 56003 8227/
333 20199=
47690 35/82 /0203 10149 20021 38668 48458 57006
333 20092=
47617 11/59 81202 10158 20147 39437 40077 58007 60022 76122 8272/
333 20146=
47632 11/50 80507 10175 20167 30059 40079 50000 60032 76162 8172/
333 20172=
47649 17/28 /0203 10177 20166 39882 40069 58009 60012 76186
333 20168=
47651 11/50 81003 10200 20172 30054 40075 56005 60012 76062 8252/
333 20195=
47653 17/50 /1304 10207 20177 30071 40080 57001 69902 72386
333 20198=
47654 11/50 80604 10210 20189 30046 40084 58002 69902 76162 8272/
333 20188=
47656 11/60 82402 10220 20169 30068 40086 58003 69902 76062 8272/
333 20180=
47657 31/58 72503 10227 20172 30061 40086 56003 710// 8427/
333 20175=
47666 31/65 82403 10230 20196 30025 40089 53002 7028/ 8127/
333 20197=
47668 31/80 82401 10236 20170 30004 40082 58001 703// 8117/
333 20200
555 4//01=
47684 17/21 /1301 10193 20180 30009 40074 56004 60032 76186
333 20187=
47747 11250 81703 10179 20162 30046 40051 56013 60032 76162 8272/
333 20164=
47759 11356 80303 10187 20163 30010 40064 58011 60022 76162 8177/
333 20181=
47761 11/40 82402 10179 20161 39966 40069 58008 60022 76122 8802/
333 20177=
47769 11/40 80804 10176 20166 30011 40057 58008 60022 763// 8572/
333 20174=
47770 11560 80804 10189 20161 30025 40060 58012 69952 76162 8172/
333 20180=
47776 11460 81509 10181 20166 39922 40053 56015 60012 7808/ 8722/
333 20167=
47777 11/65 80603 10198 20166 30036 40056 58014 69952 76162 8572/
333 20187=
47780 11/65 81101 10179 20169 39937 40060 58012 60012 76162 8272/
333 20166=
47742 11/15 80904 10180 20175 30039 40042 56006 60132 763// 8772/
333 20166=
47744 11/50 81203 10182 20169 30029 40038 57007 60102 76162 8272/
333 20170=
47756 11/20 70802 10172 20163 39879 40050 58011 60072 7636/ 877//
333 20168=
47765 11/30 80302 10180 20174 39981 40043 56009 60072 76122 8172/
333 20172=
47766 11327 82903 10177 20168 30028 40042 55007 60072 7616/ 8372/
333 20171=
47767 11/45 83301 10180 20163 30039 40042 58011 60032 7106/ 8672/
333 20175=
47768 11/40 80708 10186 20162 30024 40045 57014 60032 72162 8672/
333 20182=
47890 11/50 71106 10201 20157 30032 40038 58017 60012 7216/ 8277/
333 20181=
47892 11/65 80406 10190 20173 30025 40042 56013 60202 72162 8177/
333 20165=
47893 11/60 82803 10184 20172 30053 40058 58014 60062 72162 8177/
333 20168=
47895 11/70 81513 10195 20165 30041 40048 58011 60012 76162 8217/
333 20182=
47897 11/80 80606 10176 20162 30040 40053 56010 60222 7616/ 8272/
333 20156=
47754 11/56 80403 10182 20182 30026 40034 53006 60062 780// 882//
333 20175=
47762 11357 80607 10183 20168 30007 40029 55000 60072 78082 882//
333 20170=
47784 11/50 80204 10185 20172 30013 40034 56009 60132 7806/ 8727/
333 20166=
47805 17/26 /2203 10209 20206 39958 40025 53006 60182 78186
333 20149=
47809 11275 81905 10198 20188 39980 40024 57001 60252 7258/ 8627/
333 20161=
47812 11120 80603 10204 20200 30009 40027 55001 60162 7634/ 887//
333 20160=
47813 11350 83404 10185 20172 39995 40033 58001 60182 76162 8752/
333 20159=
47814 11/40 80000 10180 20174 39933 40031 55002 60242 7816/ 8727/
333 20165=
47819 11/20 82003 10200 20192 39989 40034 58001 60212 78062 882//
333 20168=
47821 16/01 /2121 10176 20171 38786 48425 56001 60442
333 20113=
47824 17/17 /0000 10176 20170 39881 40052 58002 60082 72386
333 20166=
47838 11/15 82207 10225 20216 30024 40041 50003 60022 7606/ 8572/
333 20187=
47842 41/05 /2215 1//// 2//// 39901 40027 5//// 751//
555 3043/=
47822 17/61 /2702 10194 20177 30023 40047 58008 60052 70086
333 20160=
47823 17/30 /2110 10229 20221 39992 40044 53005 69952 72386
333 20171=
47829 17/27 /2301 10185 20178 39875 40054 58002 60272 78186
333 20170=
47831 11/65 82213 10243 20227 30019 40054 51005 60062 725// 882//
333 20187=
47835 11350 72103 10206 20196 30034 40051 58003 60242 7216/ 8567/
333 20180=
47836 11/65 71503 10257 20245 30015 40058 50002 60362 72582 86230
333 20201=
47942 11/60 72009 10267 20245 30060 40093 52008 69902 70284 86230
333 20237=
47912 11/81 62114 10293 20259 30044 40084 53015 69902 72582 86230
333 20277=
47929 31/75 72109 10278 20247 30087 40093 53011 702// 85202
333 20262=
38069 42998 00000 10099 20061=
43221 21596 72303 10294 20220 30017 40030 70296 82471 333 59013
6993/=
42071 21596 82715 10264 20156 40019 79596 8692/ 333 57951 58021
6002/ 84630 88460 90173=
28009 42998 20000 10073 20062 39974 40181 52012 80001=
42634 22596 22508 10286 20243 40037 82800 333 59003 6990/ 82620=
43329 22596 52504 10256 20233 30037 40050 81431 333 59008 6012/=
40362 32962 01004 10265 20030 39539 40022 333 59007=
85141 22213 00300 20602 307// 41002 80260=
40605=
59004 6023/ 82612 83358 85075=
87619=
96001 32458 72613 10268 20210 39938 40082 5//// 83522
333 20198 50080 55010 56600 59017 83619=
96525 12465 50000 10253 20239 30075 40082 60134 83531
333 20234 50100 55152 56000 59006 83613=
96529 01420 70000 10246 20240 30082 40106 51003 69984 74062 84121
84121
333 20230 50120 55050 56000 58005 69947 84817 87459=
82917 32970 00602 10224 20221 40094 333 10318 58009=
71421 46/// ///// 10108 21023 39511 40200 53005=
71433 17/// /1105 10072 20072 39880 40109 58004 60021 7//4/ 333
10092 20056 70030=
71841 36/// /1508 10146 20097 39696 40082 56006 333 10196 20067
70000=
96087 11458 81708 10250 20238 30053 40085 60184 70522 8692/
333 20238 50770 55045 56409 57941 57843 58004 81917 85815 80958
80840 88460=
16622 32665 40000 10224 20139 30127 40133 54000 83550 333 83635
83359 90730 91114 555 40000 47634 44280 50000 50174=
41150 32966 03106 10271 20227 40008 333 59001=
41184 32960 00000 10274 20231 40009 333 58008=
41194 32960 09901 10286 20211 39993 40005 333 58006=
41196 32900 00000 10260 20222 39966 40006 333 58006=
41216 32960 02703 10277 20244 30000 40004 333 58003=
41217 31920 02203 10247 20235 39977 40006 71000 333 58005=
31253 32999 30905 10178 20092 39669 40088 54000 80001   333 20062
55103=
36982 42699 61601 11032 21049 36490 47039 57010 82101=
38353 42597 61801 10187 20107 39194 40037 58016 84940=
38345 42998 32101 10101 20053 38731 48439 57004 80002
555 10014=
36974 41798 80000 10078 20056 37954 48486 58003 70382
889// 555 12006=
36911 42699 60901 10153 20093 39151 40066 54000 85930
555 10014=
38613 41699 60102 10149 20112 39261 40126 51002 80298
86990 555 10012=
41024 32960 00000 10256 20210 30000 40019 333 59002=
96035 11450 80603 10242 20231 30044 40076 53006 69924 70522 86576
333 20238 50400 55010 56000 59010 86617=
38954 42899 60302 10124 20077 37939 48510 52003 7032/ /////=
58021 6002/ 84630 88460 90173=
44416 41265 70902 10214 20203 39274 40006 702// 84810 333
58008=
44438 41515 82703 10258 20258 39908 40032 796// 8492/ 333
59009=
44477 42040 70000 10200 20184 38764 48477 87800 333 59002=
91425 11474 60403 10294 20257 30087 40088 51005 60084 70282
83220 333 20244 561/9 58000 70079 83818 83462=
42101 21695 33608 10250 20198 40025 70193 83500 333 58024
6014/=
42189 21492 83215 10274 20217 40017 79822 8692/ 333 5679/
5797/ 58024 6990/ 84710 86620 81935 88460=
42328 31595 22308 10266 20234 40002 70700 82500 333 59009
82630=
42339 31995 02302 10310 20194 40014 70600 333 59007=
42379 31596 80901 10254 20218 40020 70310 8652/ 333 59006
86620 88458=
42348 31696 31803 10296 20209 40015 82530 333 59004 82635=
42452 22996 22702 10300 20230 40021 81031 333 59017 6003/=
98526 12575 80000 10262 20254 40096 52020 60564 8327/ 333
20233 56499 59007 70560 83820 88359 98315=
98748 11470 60000 10262 20/// 40090 53017 69964 70544 81201
333 20226 56999 58010 70008 81818 83075=
43369 22596 33203 10288 20251 40091 82430 333 58004 6994/
82620=
96881 11960 33605 10256 20214 40103 69904 70211 80001
333 20180 56000 83080=
58007 82620 83358=
58008=
21982 41459 81602 11026 21042 30184 40190 52009 77072 885//
333 88614 91108=
25173 42399 51203 11014 21044 30166 40170 52004 82631 333
91105=
25399 41507 82109 11002 21005 30206 40210 53008 74642 85501
333 91112=
96073 01458 70000 10222 20219 30087 40094 56007 61184 70566 8392/
333 20210 5///0 55/// 56000 57901 59006 69907 82915 80960=
96075 01457 80000 10224 20222 30089 40100 53001 60384 70562 8557/
333 20124 55000 56009 59009 60027 85616 87460=
96171 31420 70000 10232 20229 30056 40080 56002 71092 85572
333 20227 50790 55068 56000 58004 85615=
97014 11560 70000 10258 20244 39998 40091 51014 60014 71422 82921
333 20235 50430 55052 56000 57900 57803 59002 81920 81822 86462=
96633 12560 33206 10270 20238 30078 40086 52016 69941
333 20240 50120 55000 55508 50667 56000 57806 59004 81827 80880=
61701 32460 32806 10227 20201 40119 83500
333 59004 83612=
96801 11456 50000 10226 20202 40112 60094 70521 83531
333 20220 56000 59002 83618=
42123 31995 00907 10280 20160 40012 70600 333 58019 =
37228 42997 02001 10120 20111 39297 40101 57005=
28451 42998 03003 10070 20050 39969 40123 52007=
38933 42998 00202 10176 20107 39568 40057 52006    qppqv