ZCZC 000
SMCI10 BENJ 020600
AAXX 02061
70200 22200 2//02=
50775 31950 01804 10086 21049 40127 57022 70400 333 21023=
59673 32968 03609 10213 20082 40162 57025 333 20160 91117
91536=
57584 32980 02902 10164 20069 40224 57028 333// 20083=
54195 32975 01604 10128 21005 40179 57018 333// 21069=
54142 32970 02905 10157 21103 40167 57005 333// 20007=
54285 32970 03204 10131 21053 40208 57011 333// 21068=
50948 32970 02704 10123 21003 40158 52001 333// 20018=
54374 32968 00000 10106 20020 39798 40207 57022 333// 21026=
54276 32960 02504 10129 21010 40199 57005 333// 21084=
54181 32970 01806 10125 21031 40182 57010 333// 21066=
54273 32970 02505 10137 21042 40185 57008 333// 21065=
54063 32970 02506 10129 21080 40120 57002 333// 20001=
54266 32975 02003 10139 21033 40195 57004 333// 21038=
54186 32970 02505 10131 21054 40178 57008 333// 21061=
57127 31963 01102 10153 20081 39593 40196 57041 70040 333
20052=
57996 32970 00704 10197 20016 40196 57036 333 20076=
59948 32980 02504 10259 20102 30140 40148 57029 333// 20167=
59845 32975 10202 10234 20101 40159 57030 80002 333// 20126=
50877 32965 02509 10115 21032 40135 57015 333 21066=
50658 32980 02506 10082 21051 40085 52011 333 21025=
50853 32970 02210 10105 21072 40121 57002 333 21005=
50758 32970 02508 10098 21116 40133 52009 333 21009=
50246 32970 80904 11004 21059 40096 54000 8801/ 333 21119=
50888 32980 01805 10113 21053 40145 57024 333 21038=
50136 11958 83602 11034 21052 39550 40094 52003 69961 77170
8802/ 333 21101=
50788 32970 01407 10100 21070 30053 40138 57031 333 21051=
50756 32960 02208 10093 21092 39814 40109 54000 333 21017=
50963 32970 02209 10116 21015 30000 40137 57016 333 21056=
50349 32670 32202 10027 21071 40082 52003 81102 333 21102=
54094 32965 01804 10132 21048 39862 40160 57014 333 21056=
50983 32970 02003 10100 21047 40176 57017 333 21023=
50844 32960 02507 10120 21060 40122 52010 333 20017=
50442 32968 42901 10041 21051 40072 52006 81032 333 21050=
59134 32565 11102 10233 20106 30005 40167 57021 81100 333
20170=
57458 32980 03202 10217 20042 40191 57036 333 05304 20036=
54471 32960 02204 10156 20058 30188 40193 57008 333 20056=
57297 32970 01804 10190 20033 30076 40215 57020 333// 20059=
57494 32972 01402 10183 20039 30194 40223 57024 333 20075=
57602 32965 00000 10210 20094 40176 57033 333 20116=
59065 32978 02901 10211 20031 40188 57035 333// 20070=
57006 32970 01602 10170 20034 40155 57037 333// 05703 20016=
59293 32970 00902 10217 20037 30122 40171 57035 333 20127=
59087 32968 00403 10213 20010 40176 57038 333 20113=
59501 32970 10403 10236 20082 30145 40161 57027 80002 333
20163=
59493 32975 03403 10234 20085 40163 57023 333 20156=
59278 32976 00403 10213 20043 40172 57036 333 20138=
59254 32970 00402 10220 20036 40179 57043 333// 20108=
58921 32961 03603 10200 20072 39950 40195 57026 333 20086=
58754 32970 70402 10208 20094 40193 57021 8703/ 333 20147=
58846 32965 71402 10202 20088 40193 57013 8703/ 333 20156=
58730 32680 21101 10197 20065 40201 57022 82100 333 20085=
58926 32770 12703 10225 20090 40180 57027 81100 333 20088=
58820 32968 10701 10195 20086 40199 57028 81040 333 20055=
58834 32669 10402 10200 20069 40201 57023 81100 333 20096=
54337 31958 01403 10172 21022 30105 40191 57005 70400 333
20040=
59626 32975 02502 10250 20083 40169 57039 333// 20128=
57232 31980 10402 10186 20075 40193 57040 70040 81030 333
20054=
54662 32970 03204 10173 20066 30086 40206 57009 333 20093=
57669 32980 01402 10210 20073 40206 57038 333// 20049=
59228 32980 02202 10245 20078 40179 57037 333// 20091=
59046 32980 00702 10226 20050 40193 57035 333// 20115=
58336 32965 01801 10174 20054 40225 57025 333// 20078=
57866 32970 03402 10184 20027 30010 40218 57033 333// 20065=
57245 31980 03202 10160 20060 39851 40200 57041 70040 333
05500 20057=
59453 32974 03401 10215 20056 40176 57038 333// 20109=
53915 32975 11104 10148 20026 38626 40143 57031 80002 333//
05851 21025=
57461 32960 01103 10188 20080 30052 40214 57026 333 20071=
57067 32975 00701 10207 20049 39510 40180 57041 333// 20008=
59211 32968 02202 10253 20091 39977 40184 57039 333// 20109=
54157 32970 02505 10146 21062 40181 57003 333// 20021=
54218 32980 02505 10173 21102 39500 40172 57015 333// 21010=
51828 32975 12202 10206 21055 38669 40179 57002 80002 333//
00404 20095=
59417 31976 02902 10245 20099 30030 40183 57033 70040 333//
20106=
59855 32975 03604 10248 20103 40151 57026 333// 20155=
59838 32575 13609 10234 20133 30144 40158 57033 81100 333//
20154=
57972 32966 03202 10186 20036 39986 40211 57032 333// 20059=
59218 32980 02001 10224 20018 40185 57021 333// 20087=
59242 32975 00402 10220 20043 40187 57033 333// 20091=
53588 32980 02207 10077 21054 37819 57008 333// 21010=
59058 32980 02902 10218 20037 40186 57036 333// 20065=
59644 32970 03605 10229 20042 30155 40171 57033 333// 20122=
57574 32972 01801 10192 20047 40220 57021 333// 20062=
57766 31964 01403 10190 20052 40222 57033 70040 333// 20042=
57682 31980 00000 10194 21009 40221 57033 70040 333// 20021=
57562 32980 00901 10200 20066 40202 57031 333// 20068=
56492 31958 00401 10208 20094 39769 40169 57044 71000 333
05551 20114=
55598 32780 10901 10142 21069 36634 57032 81100 333 00100
20009=
57583 32970 00901 10185 20027 40222 57026 333 20069=
59446 32973 00405 10214 20036 40175 57040 333// 20084=
59647 32970 00206 10217 20064 40170 57032 333// 20158=
57649 31975 01802 10210 20086 40208 57036 70040 333// 20071=
53782 32973 03601 10189 21022 40174 57029 333// 20026=
54497 32970 01803 10144 20033 30197 40212 57005 333 20011=
59023 32980 00000 10233 20019 39938 40187 57036 333// 20115=
59849 32580 13203 10234 20117 40157 57031 81100 333// 20109=
54602 32970 01802 10171 20032 40195 57019 333// 20032=
58122 32980 02202 10171 20038 40225 57019 333// 20043=
58040 32960 02701 10166 20010 30212 40216 57024 333 20066=
58259 32570 23602 10169 20057 40228 57017 82100 333 20102=
58343 32965 03603 10166 20027 40225 57020 333 20071=
58358 32964 03204 10163 20032 40227 57019 333 20109=
58144 32966 02701 10163 20054 30203 40226 57022 333 20062=
58345 32961 00000 10176 20072 40230 57021 333 20093=
57378 32966 01804 10177 20058 40222 57026 333 20089=
56666 32980 00401 10218 20095 40157 57044 333 05100 20112=
57405 32980 01601 10220 20089 40178 57034 333 20104=
57608 32970 03602 10211 20082 40171 57037 333 20102=
57662 32970 01402 10198 20054 30171 40213 57030 333// 20085=
59298 32968 00404 10213 20046 40165 57029 333 20132=
59317 32970 20404 10236 20102 40155 57017 80002 333 20169=
59096 32978 00703 10212 20037 40182 57036 333 20091=
59271 32980 02502 10226 20064 40170 52057 333 20065=
59754 32975 10403 10237 20082 40158 57031 80002 333 20136=
59316 32962 30403 10241 20104 30151 40160 57022 80002 333
20158=
59082 32980 03605 10199 20025 30112 40190 57036 333 20075=
50527 32570 62709 10041 21038 39381 40116 52015 86100 333//
21053=
50774 32960 02206 10106 21068 39797 40099 57009 333 21054=
50953 32965 02506 10124 21048 39956 40136 54000 333 20006=
50468 32675 71401 10059 21053 39865 40072 57017 83502 333
21048=
50656 32975 22706 10086 21069 40073 57010 82030 333 21022=
54096 32970 02504 10115 21055 40175 57010 333 21075=
50745 32966 22706 10116 21064 39920 40099 52018 80002 333
20015=
50557 32968 62706 10052 21051 39783 40081 52014 80002 333
21015=
50978 32975 02205 10126 21061 39861 40154 57019 333 21056=
50854 32970 02510 10111 21091 40119 52010 333 20014 91117
91527=
59126 32965 01402 10236 20089 40171 57024 333 20154=
53564 32978 01602 10177 21040 39168 40171 57037 333// 05406
21039=
53772 31958 01102 10156 21017 39286 40201 57029 70500 333//
21009=
53664 32975 02204 10189 21111 40167 57021 333// 20023=
53787 32980 01802 10166 21052 40203 57020 333// 21024=
53868 31956 00000 10189 20017 40175 57034 70400 333// 20019=
57071 32975 01103 10190 20003 40189 57027 333// 20045=
58311 32980 00902 10175 20006 40228 57023 333// 20058=
53543 32980 01805 10129 21061 38523 40155 57025 333// 21002=
56287 32580 10702 10208 20107 40178 57037 81100 333 05500
20104=
54824 32962 02004 10182 20005 40217 57014 333// 20028=
54909 32972 01403 10179 20048 30146 40209 57020 333// 20048=
54843 32970 00000 10161 21001 30187 40215 57015 333// 20013=
54725 32965 02503 10175 20041 40209 57015 333// 20039=
54916 32962 01603 10166 20024 40227 57017 333// 20011=
57476 32965 01803 10191 20073 40214 57028 333 20086=
53480 32980 02704 10140 21017 40185 57023 333// 21049=
54736 32963 02502 10167 20012 40216 57019 333// 20053=
53923 32980 01807 10140 21021 40151 57025 333// 20022=
52652 32780 13203 10139 21040 38478 40133 57005 81102 333//
05552 21024=
58457 32562 10202 10177 20064 30176 40227 57019 81100 333
20104=
58472 32480 63408 10169 20078 30112 40210 57013 86800 333
20135=
58543 32668 32201 10171 20081 40221 57019 83100 333 20113=
58633 31557 10903 10182 20061 30114 40214 57022 70500 81100
333 20100=
58660 32665 12904 10188 20058 40203 57013 81100 333 20140=
58667 32975 70205 10181 20082 40204 57016 8704/ 333 20123=
59265 32964 01102 10222 20050 30040 40178 57040 333// 20084=
59954 32580 11401 10261 20130 40149 57027 81100 333// 20168=
56964 32980 02502 10213 20065 38741 40180 57023 333// 00001
20082=
57853 32965 00000 10192 20045 40220 57028 333// 20046=
59133 32963 03607 10215 20117 40171 57013 333 20175=
58931 32362 10203 10078 20054 38382 57006 81100 333 20016=
58918 32980 03203 10209 20067 40179 57032 333 20092=
58911 32961 00901 10196 20087 40195 57027 333 20050=
58725 32670 12701 10193 20070 39945 40207 57025 81100 333
20063=
58731 32974 70701 10179 20078 40211 57018 8704/ 333 20083=
58737 31964 53403 10206 20078 40199 57024 70040 82042 333
20084=
58944 32662 70206 10195 20118 40183 57016 875// 333 20165=
58847 32668 81102 10200 20102 30086 40187 57019 885// 333
20154=
59072 32980 03402 10222 20061 40190 57040 333 20074=
59663 32980 00904 10223 20038 30133 40161 57031 333 20136=
59981 32580 70207 10251 20209 30115 40121 57017 872// 333//
20232=
58215 32970 02004 10171 20005 40233 57021 333// 20033=
57872 32980 02701 10193 20055 40222 57023 333// 20080=
58027 32968 01401 10176 20028 30168 40219 57024 333 20037=
53898 32966 01604 10182 20071 40206 57018 333// 20041=
57091 32968 01804 10184 20066 40203 57022 333// 20036=
57290 32962 01404 10188 20056 40208 57017 333// 20052=
58005 32964 02003 10182 20037 40212 57020 333// 20031=
53463 32980 00000 10118 21032 38958 40198 57021 333// 05305
21033=
56173 32680 12205 10091 21095 36686 57024 81100 333 05205
21086=
56172 32980 02502 10173 21057 37363 57052 333 05305 21032=
56182 32680 20000 10136 21018 37210 57040 82100 333 05302
21048=
56079 32780 12204 10082 21121 36718 57022 81100 333 05304
21099=
56178 32780 12701 10183 21035 37672 57057 81100 333 05203
20020=
54213 32980 02702 10150 21159 40173 57012 333// 20013=
54027 32980 03207 10142 21174 39588 40163 57006 333// 21024=
54134 32974 02706 10148 21113 40171 57006 333// 20008=
54026 32980 02905 10132 21088 39840 40162 57006 333// 20002=
50727 11580 72705 10007 21063 38959 40172 52007 69901 72277
87500 333// 21043=
54226 32980 03205 10162 21160 40184 57008 333// 21017=
50834 32580 12710 10075 21088 40133 52022 81100 333// 20018
91120 91527=
57279 32975 01802 10197 20047 40217 57025 333 20073=
54171 32972 02004 10138 21006 40178 57004 333// 21050=
54292 31958 00000 10136 20001 39957 40177 57020 70400 333//
21055=
54041 32970 02708 10129 21052 40155 57001 333// 21017=
50949 32965 02706 10124 21067 39984 40152 52004 333// 20015=
54263 32975 02707 10140 21077 40191 57003 333// 21057=
54377 32980 02004 10144 21048 40211 57019 333// 21009=
54284 32975 02205 10108 21074 40195 57001 333// 21034=
54161 32965 02709 10131 21060 39875 40165 57001 333// 20013
91117 91522=
54386 32980 02506 10125 21076 40187 57014 333// 21046=
57516 31950 00403 10216 20097 39865 40171 57040 71040 333
05551 20105=
59021 32972 02901 10238 20066 40185 57040 333// 20075=
54135 32980 02705 10154 21097 39952 40171 57008 333// 20020=
59758 32980 00203 10228 20103 30141 40162 57024 333// 20191=
59209 32980 00203 10221 20036 40187 57032 333// 20070=
58813 32965 00204 10181 20046 40203 57026 333// 20057=
58606 32964 00401 10181 20033 30164 40219 57023 333// 20095=
57993 32965 03403 10189 20046 30052 40202 57036 333// 20078=
59102 32970 00203 10190 20056 40188 57028 333// 20060=
56386 32961 01601 10215 20078 40177 57033 333 05401 20121=
54308 32980 01103 10145 21053 40197 57025 333// 21043=
54423 32980 00000 10168 21012 39736 40202 57025 333// 21038=
59456 32980 03203 10230 20032 40166 57030 333 20136=
59658 32973 00201 10228 20067 40161 57035 333 20148=
59117 32978 03402 10216 20066 30064 40170 57035 333 20100=
59303 32970 03402 10214 20116 40168 57034 333 20101=
59287 32974 00204 10215 20020 30123 40175 57030 333// 20128=
51431 32780 73202 10072 20003 39521 40317 52004 875// 333//
01052 20042=
57774 32968 00902 10192 20020 40217 57033 333// 20031=
50548 32580 72705 10063 21075 40082 52015 84932 333// 21060=
50632 32580 42708 10039 21050 39211 40102 52010 84200 333//
21090=
50425 11580 72704 10012 21046 40110 52023 69901 70087 82232
333// 21047=
50514 32580 22908 10033 21069 40140 52008 82130 333// 21070=
50434 11578 72705 11002 21036 39208 40089 52022 69901 78580
86902 333// 21078=
50603 32680 22907 10056 21117 39475 40150 52003 81130 333//
21040=
57037 32961 01803 10155 20046 40169 57033 333 05603 20026=
57144 32980 02702 10191 20053 40174 57047 333 20030=
53738 32980 02005 10161 21109 40158 57029 333 21025=
57143 32970 11406 10170 20033 40179 57045 81032 333 20012=
57036 32964 00000 10141 20027 39695 40172 57039 333 20033=
53929 32965 01606 10148 20016 40168 57030 333 21028=
53646 32980 01104 10168 21047 38951 40166 57029 333 05504
21028=
57034 32960 01102 10148 20056 40176 57039 333 20034=
53942 32960 01805 10152 21007 40175 57026 333 21004=
53740 32974 01806 10190 21131 40144 57030 333 21015=
58549 32665 42201 10178 20083 40217 57021 84500 333 20113=
57504 31958 01402 10215 20094 40169 57038 71000 333 05500
20115=
54623 32962 01804 10151 20040 40198 57019 333 20070=
57156 32980 02204 10196 20050 40200 57029 333// 20049=
58208 32980 00000 10182 20018 40223 57020 333// 20046=
58238 31958 02202 10179 20064 30213 40222 57022 70500 333
20066=
54102 32980 02705 10098 21216 39023 40176 57015 333// 21029=
54012 32980 02704 10064 21108 39023 40192 57006 333// 21010=
54259 32980 02205 10147 21080 40202 57007 333 21050=
54236 32970 01603 10168 21079 30073 40176 57008 333 21002=
54324 32970 02203 10186 21097 40180 57017 333 20030=
54493 32974 02201 10137 20000 40213 57009 333 21042=
54237 32962 02202 10175 21058 40187 57011 333 20002=
54342 32962 02004 10166 21006 30131 40194 57001 333 20024=
54365 32975 01804 10135 21018 40222 57017 333 21039=
54326 32980 00402 10169 21046 40179 57013 333 20053=
54563 32970 02705 10171 20042 40199 57010 333 20024=
51133 32680 72502 11038 21086 39695 40369 52013 81532 333//
01561 21073=
57259 32968 03201 10171 20051 40167 57061 333 20027=
54826 32965 02202 10094 21042 38496 57010 333// 20007=
54836 32968 02703 10159 21023 40221 57022 333 20002=
54808 32970 01804 10176 20054 40210 57012 333 20030=
54936 32962 02703 10158 20005 40221 57024 333// 20008=
54401 32962 02002 10158 21017 39342 40193 57027 333// 20015=
50862 32965 02208 10099 21064 40124 54000 333 21020=
50742 32765 62708 10096 21092 40092 52019 81501 333 20001=
57957 32980 03402 10212 21018 39999 40197 57037 333// 20091=
59431 32975 03403 10229 20043 30034 40183 57034 333// 20073=
57251 31972 01101 10201 20066 40182 57038 70040 333 20041=
59632 32980 03605 10228 20037 40175 57036 333// 20145=
53845 32970 00703 10166 20029 39058 40164 57039 333 05602
21007=
54454 32970 01603 10169 20029 40195 57007 333 20022=
51628 32960 61403 10135 21035 40186 57002 80002 333 05101
21016=
54774 32975 03205 10145 20038 40213 57012 333// 20087=
58556 32970 00704 10168 20065 40225 57016 333 20104=
58646 32665 60403 10178 20065 40216 57021 86500 333 20128=
58647 32770 70000 10174 20053 40210 57022 875// 333 20097=
58665 32567 73204 10191 20075 40194 57019 8114/ 333 20133=
58666 32565 23611 10165 20087 30101 40202 57011 81140 333
20132=
58562 32570 23203 10172 20051 40221 57016 82100 333 20124=
58659 32578 73401 10204 20114 30163 40198 57017 8484/ 333
20150=
58760 32966 70405 10179 20084 40197 57012 8703/ 333 20135=
58464 32580 13603 10172 20067 40232 57016 81500 333 20096=
57965 32975 01101 10196 20034 40207 57034 333// 20064=
53399 32980 01805 10123 21066 40190 57018 333// 21035=
51709 32980 11402 10210 21047 38747 40179 57003 80002 333//
00206 20056=
51711 32680 62203 10115 21071 38040 57002 81102 333// 00200
21004=
59462 32976 01103 10222 20033 40172 57035 333 20095=
57799 32975 03202 10181 20045 30128 40213 57029 333// 20075=
58634 32560 50000 10179 20056 40212 57025 85800 333// 20086=
58527 31957 03601 10192 20061 30138 40214 57024 70400 333//
20085=
58608 32970 00902 10182 20025 40223 57030 333// 20076=
58519 32965 03402 10179 20053 40222 57023 333// 20092=
57894 32980 03404 10161 20022 40226 57022 333// 20018=
57385 32960 01802 10182 20066 40218 57025 333 20047=
54646 32962 02504 10137 20046 40215 57012 333 20106=
57707 32975 01403 10202 20040 38509 57032 333// 05403 20034=
57606 32980 01403 10191 20018 40195 57033 333// 20045=
56691 32980 01805 10156 20032 37802 57024 333// 05203 20039=
57713 31965 01801 10187 20051 40195 57042 70040 333// 05300
20051=
57731 32980 01403 10204 20074 40200 57046 333// 20092=
57806 32980 02004 10178 20017 40199 57027 333// 20052=
57816 32980 02203 10196 21006 38822 40191 57034 333// 05304
20044=
57825 32977 03603 10201 20019 40208 57038 333// 20040=
57832 31980 00000 10196 20040 40211 57035 70040 333// 20029=
57932 32975 00902 10215 20071 40202 57049 333// 20072=
57089 32965 01805 10188 20053 40204 57018 333// 20030=
57178 31958 02005 10175 20077 30052 40211 57023 70500 333//
20040=
57181 32965 01603 10191 20061 40200 57022 333// 20029=
56571 32780 11401 10197 20074 38427 57033 81100 333 05202
20090=
57411 32961 03401 10208 20094 39815 40181 57037 333 20089=
56294 32963 01402 10208 20060 39590 40181 57038 333 05500
20084=
56459 32880 11601 10178 20039 37674 57035 81100 333 00002
20055=
56565 32580 12701 10150 20033 37522 57028 81100 333 05102
20059=
56485 32980 02502 10179 20073 40167 57039 333 05500 20064=
56475 32580 10000 10184 20103 38344 57042 81100 333 05302
20066=
56671 32780 11402 10183 20068 38245 57030 81100 333 05101
20060=
52378 32980 23202 10116 21076 40143 57008 80002 333// 05700
21036=
52495 32980 41803 10153 21056 38637 40126 57014 80002 333//
05702 21035=
52576 32980 02903 10129 21093 38446 57007 333// 05651 21007=
53502 32980 70701 10133 21056 40138 57020 80002 333// 05752
21025=
53602 32980 02004 10148 21048 38404 57010 333// 20058=
52267 32980 72703 10126 21064 39048 40139 57008 80002 333//
05701 21047=
56152 32780 12902 10064 21053 36352 57024 81100 333 05103
21109=
54208 32980 02506 10122 21097 38759 40183 57017 333// 21035=
53195 32980 01603 10099 21135 40186 57017 333// 21059=
53192 32980 02504 10087 21212 38885 40199 57017 333// 21069=
50915 32980 22705 10066 21086 39189 40185 54000 80002 333//
21017=
54351 32962 02505 10163 21027 40200 57008 333// 21036=
54346 32968 00000 10164 21012 40196 57011 333 21006=
54115 32980 02505 10124 21207 40170 57008 333// 20039=
54857 31958 03404 10151 20035 30123 40215 57018 70400 333//
20074=
53519 32980 21604 10135 21009 40139 57029 80002 333 21027=
53614 32970 12502 10157 21016 38862 40128 57030 80002 333
05851 21005=
53615 32970 12502 10159 21035 40130 57030 80002 333 21011=
53705 32980 11605 10192 21013 40090 57029 80002 333 05902
20042=
53723 32962 01607 10161 21060 38622 40124 57023 333 05801
20022=
53810 32970 01804 10175 20016 40115 57027 333 20022=
53817 32980 20905 10122 21004 38215 57020 80002 333 21019=
53903 32980 01605 10093 20016 38066 57026 333 21037=
52984 32975 00901 10148 21020 38054 57027 333 05602 21030=
56074 32580 10902 10075 21056 36688 57021 81100 333 05203
21084=
52661 32780 12705 10139 21046 38188 57008 81102 333 05651
21003=
52889 31956 22501 10136 20006 38456 40142 57036 70400 80002
333 05702 20007=
56080 32980 02205 10125 21096 37148 57032 333 05404 21068=
56096 32980 01802 10174 20063 38929 40145 57042 333 05601
20059=
52418 32970 72504 10121 21082 38893 40201 52002 83042 333
00151 21002=
52681 32980 00202 10148 21052 38592 40117 57014 333 05751
21041=
53821 32980 01404 10141 20002 40155 57033 333 05701 21016=
52447 32980 73208 10149 21057 40153 57002 80002 333 05402
21022=
52895 32975 01604 10140 20008 40144 57030 333 05703 21008=
57776 32980 01101 10123 20033 40231 57016 333// 20026=
59985 32580 70406 10255 20202 30117 40122 57016 82142 333//
20234=
53513 32970 70402 10125 21027 38956 40152 57023 80002 333//
05451 21004=
56357 32680 10402 10107 21109 36494 57029 81100 333 00101
21057=
56038 11680 10702 10040 21091 36129 57028 69901 70080 81100
333 05205 21134=
56251 32680 51102 10182 21051 36976 57049 85400 333 05107
21042=
56374 32680 10910 10111 20002 37446 57026 81100 333 05303
21007=
54335 32965 01603 10178 21076 40183 57003 333 21018=
53593 32980 00401 10158 21018 40195 57027 333// 21023=
54518 32962 01802 10177 20023 40202 57020 333// 20034=
54405 32965 00000 10162 21021 40187 57030 333// 20009=
59664 32978 00402 10240 20033 40158 57034 333 20120=
59478 32970 03604 10207 20036 40169 57030 333 20131=
54511 32960 01402 10170 21011 30150 40190 57019 333 20017=
56146 32780 12001 10112 21049 36766 57038 81100 333 05205
21058=
56247 32880 11601 10164 21008 37452 57057 81100 333 00151
20006=
56462 32680 11602 10153 20013 37163 57040 81100 333 00101
20010=
56167 32780 10000 10166 21046 37117 57048 81100 333 05206
21044=
56144 32980 01802 10131 21071 36898 57049 333 05101 21032=
56257 32680 11802 10087 21103 36325 57024 81100 333 00102
21073=
57265 32964 00903 10186 20089 30088 40198 57030 333 20048=
57545 31962 02701 10197 20085 40211 57034 70040 333 20073=
57083 32960 01604 10195 20056 30065 40200 57023 333// 20036=
57193 32975 02002 10187 20067 40207 57022 333// 20046=
56033 32980 72203 10000 21133 36056 57020 80002 333 05201
21130=
56151 32580 10000 10098 21093 36655 57036 81100 333 05307
21095=
57046 32980 02214 10107 21158 37954 57023 333 05402 20045
91123 91520=
57134 32980 12204 10193 20027 40156 57031 81030 333 05402
20033=
57016 31956 01103 10126 20048 40163 57041 70400 333// 20033=
54527 32965 01802 10174 20034 40200 57018 333 20037=
57947 32978 00202 10225 20055 40199 57036 333// 20072=
52707 32780 73208 10058 21136 37294 54000 875// 333 05154
21090=
56029 32980 00000 10094 21059 36517 57040 333 05203 21074=
56046 32980 01102 10011 21066 36296 57027 333 05201 21094=
52754 32580 22003 10068 21161 36799 57017 81102 333 05302
21101=
52908 32580 72501 10001 21150 35778 57014 85102 333 05304
21129=
56043 32980 02504 10069 21097 36477 57023 333 05203 21106=
52866 32980 00000 10122 21058 37688 57030 333 05501 21065=
52856 32580 13601 10108 21064 37209 57027 81102 333 05503
21061=
54823 32960 01604 10192 20051 30012 40216 57013 333 20055=
54852 32965 02703 10156 20008 40212 57021 333// 20016=
54929 32970 03401 10170 20025 40216 57025 333// 20032=
53231 32980 72507 10148 21103 38444 57011 80002 333// 05707
20010=
53068 32980 02002 10114 21049 39038 40169 57024 333// 00200
21056=
53276 32980 02205 10153 21070 38841 40156 57019 333// 21017=
53352 32980 42205 10149 21078 40159 57022 80002 333// 21032=
53149 32980 62205 10151 21125 38751 40148 57020 80001 333//
05105 21039=
53391 32980 02204 10120 21049 38504 40180 57017 333// 00102
21038=
53529 32980 21805 10164 21066 38592 40142 57024 80001 333//
05605 21023=
53362 32980 11806 10133 21069 40159 57021 80002 333// 21019=
53083 32980 01804 10073 21105 40197 57012 333// 00651 21076=
53336 32970 71804 10114 21055 38685 40159 57022 80002 333//
05300 21028=
58241 32978 02902 10161 20059 40235 57016 333 20065=
58265 32580 13404 10164 20093 30215 40227 57007 81500 333
20104=
58569 32975 13205 10162 20034 40207 57013 81030 333 20117=
55578 32880 10702 10106 21091 36414 57023 81100 333// 00051
21062=
55664 32980 00000 10088 21090 36054 57017 333// 00001 21078=
55773 32970 01103 10060 21085 36065 57012 333// 00151 21126=
55680 32880 10000 10112 21046 36269 57025 81100 333// 05100
21046=
55572 32980 00000 10106 21054 36285 57026 333// 00000 21020=
55655 32980 01606 10075 21090 36531 57013 333// 00053 21044=
55569 32980 00000 10107 21097 36267 57027 333// 00051 21038=
53487 32961 02002 10153 21063 40191 57026 333// 21030=
53863 31956 00202 10143 21005 40197 57034 70400 333// 21017=
53975 31958 01102 10162 20025 40199 57033 70500 333// 20001=
53663 32980 02505 10168 21092 40169 57022 333// 21016=
53853 32975 01105 10184 21134 40170 57028 333// 21036=
53673 32960 02201 10142 21016 40204 57030 333// 21023=
53478 32975 02704 10153 21075 40192 57020 333// 21049=
53764 32975 02203 10179 20029 40171 57032 333// 21020=
53959 32975 02202 10204 20074 39715 40160 57042 333// 20032=
58251 32980 02901 10174 20051 30219 40225 57018 333 20073=
50564 32970 72206 10063 21067 40077 57001 83032 333 21077=
53698 32961 01403 10175 20050 40191 57023 333// 20033=
54449 32968 02004 10178 20004 40201 57007 333// 20058=
57355 32980 03201 10192 20089 40190 57039 333 20074=
91348 11474 81107 10292 20248 30037 40089 53005 69931 70282 85201
333 562/9 70005 555 90206=
91334 32474 60708 10302 20250 30080 40083 55000 83301 333 561/9
70000 555 90206=
42042 02061 99299 70883 46/// /1506 10246 40183 54000 90550 22200
00243 10401 70007 333 91208 555 11068 22073 30530 41508 60549
152064 148061 148063 145064 148060 152063=
60549 104076 107069 105068 107067 109072 101072=
313115 314124 314121 313128 315131 315134=
123103 121110 123103 124093 122089 126092=
54534 32970 02202 10176 20011 40200 57015 333// 20033=
54776 32970 03205 10143 20057 30156 40214 57013 333// 20105=
58236 32968 00702 10169 20073 40231 57023 333 20066=
58203 32975 02001 10182 20018 30175 40221 57021 333 20030=
58321 32960 11603 10171 20052 40227 57019 80002 333 20067=
58437 32980 02003 10062 20010 38202 57008 333 21011=
58531 31970 02502 10184 20066 40220 57021 70040 333 20060=
58326 32970 01801 10181 20069 40225 57023 333 20079=
58436 32668 10902 10183 20059 40229 57022 81100 333 20087=
58102 32973 01802 10182 20018 30160 40211 57026 333 20041=
58314 32975 01102 10194 20023 30129 40218 57029 333 20023=
58338 32966 03401 10176 20054 40233 57022 333 20089=
58319 32965 01603 10177 20039 40221 57028 333 20051=
58015 32980 01602 10179 20029 40217 57024 333 20046=
58221 32962 02002 10174 20037 30195 40231 57020 333 20061=
58626 32962 50202 10184 20090 40217 57024 85040 333// 20093=
58715 31557 23603 10175 20074 40214 57027 70500 82100 333//
20080=
57793 32974 00701 10186 20029 40219 57031 333// 20046=
57598 31980 00000 10190 20010 40222 57037 70040 333// 20025=
58506 32975 03601 10105 20054 40241 57013 333// 20021=
57399 32968 02702 10184 20001 40225 57026 333 20038=
54363 32970 01803 10119 21018 40215 57012 333// 21036=
50936 32970 02508 10127 21065 40134 54000 333// 20012=
56196 32969 01101 10201 20076 40180 57035 333 05551 20081=
56193 32670 12501 10187 20064 40174 57046 81100 333 05401
20053=
57313 32980 00901 10207 20076 40188 57037 333 05401 20074=
57306 32970 00000 10209 20071 40191 57034 333 20084=
56188 32961 00000 10191 20069 40172 57035 333 05400 20092=
54339 32962 02203 10167 20029 40191 57006 333 20053=
54618 32961 02002 10171 20050 30181 40199 57017 333// 20046=
53798 32960 02501 10181 20054 30102 40196 57014 333// 20052=
56793 32980 02003 10207 21007 38512 57037 333// 05203 20037=
57803 32980 01102 10198 20039 40191 57030 333// 20025=
57922 32980 02702 10203 21019 40206 57028 333// 20043=
50353 32970 81403 10040 21042 39862 40086 57009 8802/ 333
21068=
58402 32970 02701 10182 20026 40230 57025 333 20026=
57426 32970 30000 10205 20100 40185 57032 83040 333 05451
20081=
57348 32975 01602 10195 20083 40198 57028 333 20079=
57522 31958 10401 10198 20096 40188 57036 71000 81040 333
20102=
57432 32965 20000 10228 20092 40189 57032 82040 333 20113=
57633 32967 01103 10200 20081 39434 40207 57029 333 05301
20060=
54871 32980 00402 10157 20022 40213 57017 333// 20088=
58362 32568 63604 10171 20071 30219 40229 57015 86100 333//
20126=
59321 32980 00411 10228 20129 40167 57018 333 20182=
54751 32965 02707 10143 20069 40216 57014 333// 20104=
54715 32968 01805 10165 20065 40208 57015 333 20035=
54311 32980 01403 10139 21067 40187 57023 333// 21039=
57845 31980 03402 10194 20046 40206 57031 70040 333// 20039=
57655 31968 03202 10200 20079 40210 57037 70040 333// 20074=
57671 32974 00903 10180 20043 40212 57029 333// 20080=
52533 32980 73409 10143 21091 38498 40142 52003 81042 333//
05403 21003=
58150 32968 03403 10166 20036 30219 40227 57015 333 20076=
54945 32968 03203 10168 20039 40220 57025 333// 20051=
51730 32970 72201 10159 21033 40181 57001 80002 333 00003
21028=
51633 32665 61102 10112 21026 40201 57006 82462 333 05102
21025=
56664 32580 11602 10216 20093 40164 57040 81100 333// 05100
20106=
52446 32980 72504 10159 21018 40140 57008 80002 333 05504
21030=
52674 32580 13405 10187 21148 37973 57013 81100 333 05706
21051=
56093 32980 02201 10134 21039 37687 57034 333 05604 21038=
52424 32980 82506 10098 21059 40198 52005 80007 333 00053
20006=
52323 32980 73207 10030 21071 38222 52012 80002 333 05258
21018=
52787 32580 12708 10089 21201 37026 57009 81102 333 05405
21044=
52996 31975 11803 10073 21034 37562 57016 70040 81040 333
05652 21019=
52797 32980 01606 10153 21049 38330 57014 333 05700 20053=
52986 32970 00000 10134 21024 38089 57030 333 05502 21032=
57447 31970 00901 10180 20092 39668 40209 57042 70040 333
20059=
57902 32980 02202 10196 20014 38659 40190 57032 333// 05203
20043=
57906 31975 01401 10223 20070 40195 57033 70040 333// 20074=
51705 32980 12507 10143 21149 37874 57004 81030 333// 00302
20042=
51716 32965 22203 10209 21086 38914 40161 54000 80002 333//
00107 20007=
51811 32965 13202 10209 21066 38809 40189 57005 80002 333//
00207 20044=
51818 32970 13402 10215 21060 40180 57001 80002 333// 00405
20075=
51931 32770 52904 10187 21078 40194 52001 81102 333// 00402
20039=
57106 32563 12208 10183 20030 40178 57031 81100 333 05503
20039 91117 91522=
56004 32680 70702 10000 21116 35842 57025 82902 333 05351
21168=
56067 32580 13205 10089 21160 36558 57024 81100 333 05304
21089=
52713 32980 82201 10044 21154 36925 57008 80007 333 05352
21096=
52645 32580 32903 10072 21132 36789 57021 82102 333 05303
21153=
52633 32680 13403 10050 21163 36743 57024 81102 333 05402
21137=
52765 32580 11101 10080 21081 37176 57022 81100 333 05402
21090=
52818 32762 73205 10049 21196 37258 52014 85502 333 05256
21067=
56034 32980 12503 10039 21143 35940 57021 80002 333 05306
21162=
52657 32680 10000 10099 21122 37244 57029 81102 333 05403
21085=
54436 32980 02002 10182 21011 40192 57017 333// 21011=
58138 32962 03201 10168 20064 40223 57022 333 20067=
57077 32980 02503 10224 21055 40175 57029 333// 20022=
56444 32780 10903 10109 21017 36853 57018 81100 333// 00101
21010=
56533 32780 11602 10219 20100 38438 57047 81100 333// 00151
20068=
56543 32680 12901 10135 21015 36889 57026 81100 333// 00002
21035=
56586 31965 00000 10185 20048 38069 57029 70040 333// 05305
20021=
56651 32680 11603 10173 20035 37661 57029 81100 333// 05103
20025=
56684 32980 02705 10165 20020 37926 57024 333// 05102 20015=
56739 32580 11802 10209 20084 38384 57021 81100 333// 00100
20082=
56741 32680 12002 10181 20102 38234 57023 81100 333// 00000
20098=
56748 32580 10000 10198 20106 38383 57030 81100 333// 00000
20080=
56751 32672 12901 10175 20061 38055 57025 81100 333// 05101
20062=
56763 32978 03401 10216 20095 40157 57038 333// 05201 20084=
56768 32980 01801 10181 20058 38263 57032 333// 05202 20050=
56778 32970 01803 10170 20038 38149 57024 333// 05102 20050=
56786 32980 02203 10184 20024 38147 57028 333// 05102 20017=
56838 31675 12001 10242 20150 40170 57026 70040 81100 333//
00151 20128=
56856 31978 01102 10200 20087 40194 57038 70040 333// 00001
20076=
56875 32980 02001 10179 20019 38401 57030 333// 05101 20045=
56886 31980 01101 10185 20002 38307 57027 70040 333// 05102
21004=
56951 32980 03602 10206 21013 38534 57031 333// 00000 20065=
56954 31980 02002 10241 20087 40171 57041 70040 333// 00002
20086=
56959 32770 11401 10242 20132 40168 57034 81100 333// 00151
20122=
56966 32970 00000 10245 20111 40169 57051 333// 05151 20107=
56969 32980 01601 10238 20118 40180 57032 333// 00100 20116=
56977 32580 12901 10226 20103 40178 57026 81100 333// 00001
20076=
56985 32960 00202 10201 20030 38738 40181 57032 333// 05102
20055=
56986 32980 01104 10183 20023 40184 57024 333// 00001 20078=
56994 32970 01803 10209 21012 40184 57034 333// 05101 20056=
59007 31970 03201 10195 20043 40194 57034 70040 333// 20051=
56946 11680 10000 10209 20111 40178 57039 69911 70054 81100
333// 00000 20091=
56548 32680 10000 10170 20018 37732 57032 81100 333// 00000
20029=
58407 32968 00402 10186 20028 40219 57027 333 20059=
56137 32980 00000 10138 21098 36842 57038 333// 00102 21045=
56116 32980 00000 10076 21044 36382 57030 333// 00101 21058=
56223 32980 00000 10116 21062 36558 57041 333// 00000 21050=
56331 32980 01402 10113 21062 36450 57030 333// 00102 21063=
56307 32780 11403 10149 21038 36877 57047 81100 333 00151
21011=
55681 32780 13602 10061 21046 35941 57022 81100 333 00052
21064=
55690 32980 02509 10050 21080 36042 57011 333 00100 21093=
55696 32680 11401 10104 21053 36389 57030 81100 333 00151
21064=
58477 32580 23605 10167 20058 30168 40212 57012 82100 333
20134=
56385 32480 12503 10112 20007 37046 57019 81100 333 05307
21006=
57206 32560 10000 10191 20069 40178 57046 81100 333 20067=
54863 32975 03203 10152 20001 40216 57021 333// 20051=
54606 32962 01402 10168 20027 40198 57013 333// 20025=
54049 32970 02506 10141 21031 40169 57003 333// 20011=
57237 32975 72006 10193 20050 40198 57032 87040 333 20047=
57328 32975 73601 10208 20105 39780 40186 57035 8704/ 333
20088=
55591 32980 02903 10117 21064 36555 57031 333 00051 21005=
55493 32780 10903 10067 21047 36064 57030 81100 333 00053
21111=
55585 32980 00000 10109 20006 36424 57028 333 00051 21027=
57554 31980 03202 10186 20085 40216 57039 70040 333 20062=
57687 32980 00902 10188 20047 30133 40212 57033 333 20045=
57745 31973 01102 10204 20073 39889 40215 57034 70040 333
20053=
51076 32780 22708 11051 21113 39400 40310 52027 82502 333
00656 21063=
51243 32880 62708 10056 21117 39752 40305 52020 82502 333
00951 20006 91128 91527=
51656 32980 71102 10133 21059 39109 40196 57004 80002 333
00051 20000=
51765 32980 13202 10181 21086 39197 40183 57008 80002 333
05104 21002=
51777 32878 62505 10195 21104 39169 40197 57011 82532 333
00106 20012=
52203 32980 70904 10105 21019 39306 40180 52003 82032 333
05252 20003=
51379 11780 72206 10012 21039 40318 52003 60021 70070 875//
333 01058 21006=
51467 32980 80902 10060 21123 38291 52012 80007 333 00451
20020=
51186 11680 33202 11061 21141 40313 52024 69901 70070 81102
333 00352 21078=
51330 32364 81102 11034 21058 40316 52011 886// 333 00756
21046=
51642 32780 70000 10110 21061 40188 52009 85502 333 00051
20017=
51720 32980 72204 10203 21141 40171 57005 80002 333 00006
21006=
52101 11980 83205 11034 21058 38391 52020 60011 77070 8802/
333 00558 21037=
51855 32975 62902 10187 21068 40203 57009 80002 333 00303
20019=
51346 32780 62903 10045 21057 40317 52019 82402 333 00952
20014=
51356 11770 70904 10025 21017 40331 52010 60021 70076 85532
333 01155 20015=
51567 32980 72004 10149 21063 40190 57001 80002 333 00004
21005=
45007 32962 03005 10224 20068 30150 40159 57025  333
58032 =
54429 32970 02202 10170 21006 40190 57014 333// 20004=
54624 32965 02203 10179 20029 40209 57016 333// 20043=
51701 32980 13408 11012 21135 36691 52005 80002 333// 00352
21052=
51839 32975 63202 10191 21063 40187 54000 80002 333// 00402
20071=
54753 32970 02504 10150 20021 30210 40216 57012 333// 20055=
56065 32680 12704 10083 21116 36641 57022 81100 333 05304
21100=
52955 32580 13402 10121 21139 36975 57023 81102 333 05404
21064=
53754 32975 01406 10160 21014 40170 57031 333 20005=
56021 32980 61602 10050 21147 36103 57027 80002 333 05206
21148=
52825 32680 70904 10083 21142 37249 57018 83502 333 05451
21048=
52836 32980 72703 10111 21222 36894 57018 80002 333 05403
21035=
52974 32680 10403 10131 21074 37518 57033 81100 333 05503
21031=
52943 32580 21603 10086 21075 36807 57028 81102 333 05303
21097=
58424 32963 00403 10179 20079 30199 40223 57024 333 20079=
78897 32570 61104 10247 20237 40105 58012 82202
333 022/6 10321 20236 59009 70000 82820 85076=
89054 11212 80226 11019 21021 40088 54000 69901 77172 8572/
333 71119 85704 88456=
89056 11356 80127 11019 21023 40093 58004 60011 77177 885//
333 00134 78899 88608=
89057 11458 80614 11013 21015 40098 54001 69901 75655 887//
333 71199 88612=
89058 11440 83612 11018 21026 40105 52002 69911 77170 8572/=
89059 32460 80509 11026 21027 40118 54002 886//
333 71099 88713=
81405 32562 20000 10227 20225 40094 81201
333 58002 81820=
48698 01460 82006 10285 20248 30067 40085 60204 71798 82977 333
60207 70200 81918 88277=
60101 12960 00802 10077 20058 40181 56002 69924
333 20077=
60115 32970 00000 10079 20075 40179 56004
333 20071=
60135 32960 00000 10090 20080 40183 51001
333 20085=
60150 32960 01604 10068 20045 39523 40188 55000
333 20066=
60155 32450 20000 10118 20095 40182 57002 82500
333 20117 30007 82620=
60156 32460 31404 10089 20070 40187 54000 83500
333 20070 83616=
60230 32960 02004 10104 20076 40185 53008
333 20100=
60060 32958 02008 10158 20137 40162 5/000
333 20146 30009 95300=
60105 32960 01003 10080 20074 40133 53001
333 20075=
60107 32960 00000 10117 20096 40170 56005
333 20115 95300=
60141 32960 02206 10067 20054 39505 40192 53007
333 20064 95400 95800=
60185 32960 00607 10105 20089 40176 53001
333 20105=
60195 32965 0//// 10070 20011 38503 48518 58004
333 20069 95500=
60265 32970 03202 10085 21032 38914 48533 53001
333 20084 30003=
60318 32965 02610 10129 20061 40178 56004
333 20108 30006=
60340 32970 02204 10104 20094 40167 57004
333 20094=
61901 36/// /1313 10156 20135 40156 5//// 333 20153 3/015=
61902 11370 71016 10222 20186 40126 60024 72582 878// 333 20208
59009 81706 83812 86630=
88889 11375 81907 10051 20041 40058 52004 69902 72052 885// 333
83707 88617 96250=
78583 32472 40000 10240 20226 40140 84800
333 01200 59011 79999 82818 83645=
63705 31465 73105 10210 20192 38857 48512 71792 8497/
333 20190 59011 84617 83820 87362
555 10200=
89664 32561 23104 11155 21226 39741 49781 81141
333 56909 81630=
89532 41/75 13405 11209 21233 39871 49899 50001
70141 815// 333 55050 22030=
78948 11580 21110 10277 20244 30093 40101 69901 70381 82200
333 02200 10312 20268 59010 70012 82820 90950=
88963 11456 83606 11031 21048 30104 40134 52004 69901 77072 886//
333 56899 88715 90015 90921 924/5 92800 95095=
88968 32565 81406 11096 21131 30156 40171 52015 885//
333 56599 88625 92417 92851 94060
555 10170 DIEBEL/S=
89053 31550 83625 11014 21028 30074 40088 57007 71022 8802/
333 56059 88530 90015 90411 91135 92426 92840 95090
555 53635=
89055 32365 63628 11074 21090 39838 40106 57008 83606
333 56800 83707 83270 92853
555 10075 50231=
89066 32570 80000 11002 21043 30006 40015 53012 8657/
333 56009 86620 92407 92851 95000=
78862 42580 30000 10251 20/// 30082 40105 81202 333 10/// 20/// 59008
81826 83078=
81408 06/// /0000 10214 20214 40094 69921
333 58000 69927=
81415 36/// /2602 10230 20223 40097
333 59004=
91570 36/// /2204 10272 20205 30091 40094 53001
555 10293 20242=
91574 06/// /2606 10263 20204 30088 40094 55003 60011
333 69967
555 10288 20227 60034=
91598 36/// /3612 10160 30049 40081 53001
555 10165 20129=
89009 41/01 92827 11384 36786 52015 73932
333 89/03=
60127 32960 00000 10099 20076 39587 40189 56003
333 20097=
60190 32965 02004 10100 20080 39569 40181 53002
333 20089 30006=
60191 32965 02203 10094 20085 40185 53013
333 20088 30006=
91925 36/// /0702 10247 20208 30085 40144 51014
333 55081
555 1//25 58004=
91938 01460 80610 10250 20213 30159 40162 53018 60101 71798 8697/
333 55036 56199 69947 83913 83816 86459
555 10221 58028=
91943 36/// /0810 10269 20225 30154 40157 51016
333 55083
555 1//17 58011=
91944 36/// /0110 10261 20226 30166 40172 53006
333 55042
555 1//14 58015=
91948 36/// /2902 10245 20233 30082 40184 51011
333 55043
555 1//19 59002=
91954 16/// /1310 10221 20195 30174 40177 53017 60041
333 55057
555 1//25 58024=
91958 36/// /0510 10192 20142 30204 40206 51015
333 55049
555 1//23 58013=
17601 32580 13102 10166 20107 40180 52008 81200 333 20130 31008
81825=
11036 31/04 91403 10045 20043 39904 40137 53007 74540 333 20003
89/01=
11010 31002 62202 10008 20008 39751 40137 51004 74444 85601 333
20007 85701=
11120 32158 69901 10012 20010 39439 40155 53001 85531 333 20010
82603 84606=
11150 32986 51704 10031 20011 39588 40132 50004 80001 333 20010
85080=
11240 31002 69901 10030 20028 39728 40152 53002 74144 81631 333
20030 81701 84078=
11816 11/02 90304 10049 20045 39983 40148 51004 69902 74754
333 20020 31101 89/01 =
11826 31206 80202 10047 20047 39950 40152 52008 74444 886//
333 20012 32101 88704 =
11903 31/02 90000 10020 20016 39777 40164 52012 74344
333 20019 32001 89/02 =
11934 12365 42605 10033 20015 39329 42765 52015 69902 84600
333 20030 31002 81706 84710 =
11968 11119 82001 10086 20083 39867 40146 52015 60022 71022 886//
333 20086 31008 84802 88705 =
12772 11/00 93102 10050 20049 39866 40153 52015 69902 74741
333 20049 55006 70020 89/01=
12822 31918 10201 10023 20016 39998 40145 53007 71000 80002
333 20022 55000 70046=
12843 31/00 91301 10021 20015 39983 40156 53007 74740
333 20021 55000 70048 89/01=
12882 11409 82103 10055 20055 30024 40159 53014 69962 74611 886//
333 20055 55024 70021 88710=
12925 31903 02001 10035 20033 39975 40150 53004 74640
333 20005 55001 70073=
12942 36/// /0702 10050 20049 39910 40159 52006 333 20027=
12982 11303 82002 10072 20070 30060 40162 52005 69902 74642 886//
333 20041 55003 70021 88707=
11841 31330 51102 10053 20044 39767 40144 53008 71022 85600
333 20053 32003 85708 =
11858 32960 10802 10017 20016 39997 40151 52004 81041
333 20016 31102 81358 =
11916 12989 13206 11021 21052 37925 48433 52009 69922 80001
333 21025 34/// 81070
444 77104 =
11927 31/01 90000 10025 20025 39891 40157 52012 74511
333 20024 31000 89/02 =
11930 11989 12604 11065 21094 37328 47002 50009 69922 70240 80002
333 21081 3//// 48003 81060
444 67123 =
11993 11367 62502 10086 20069 39930 40145 52017 60022 70162 85501
333 20082 31006 81708 85636 =
11855 11105 80603 10049 20049 39986 40153 52007 69912 74642 886//
333 20019 31001 88702 =
11867 31904 11301 10021 20021 39839 40161 52008 74440 80001
333 20017 32100 81070 =
11880 31610 80402 10037 20037 39980 40154 52006 71022 885//
333 20037 31100 88633 =
11918 12284 12504 10020 20011 39321 42760 53007 69952 81601
333 20010 31101 81703 =
11933 12289 13501 11016 21016 38595 48445 52011 69922 81542
333 21016 31103 81603 9514/
444 56114 =
11938 11212 82702 10022 20020 39088 42762 52012 69922 72822 886//
333 20020 31001 88703 =
11976 11/01 93101 10060 20054 39887 40151 52019 60042 74722
333 20060 31004 89/01 =
11978 12665 52401 10094 20086 30018 40146 52017 60022 83574
333 20093 31007 83646 =
91408 32474 80310 10272 20240 30052 40090 56007 8697/ 333 56399
70000 555 90206=
10004 46/57 /2014 10105 20082 39959 49959 52008
222// 00131
333 10122 20094 55001 55300 91123 91217=
10015 11468 52111 10086 20066 39970 49980 51019 69902 70181 85802
222// 02118
333 10103 20085 31008 55014 55300 79999 91118 91214 96413=
10020 11470 72305 10079 20054 39933 49968 51020 60052 71798 879//
333 10102 20068 31006 55008 55300 70049 85916 84630 91121 91216=
10035 11356 82006 10062 20049 39941 49999 51017 69932 71022 876//
333 10085 20055 31005 55021 55300 70007 87708=
10055 12570 32007 10074 20055 39993 40003 53012 69902 83500
333 10106 20068 31006 55035 55300 79999 83625=
10147 12470 12207 10056 20035 39999 40017 51015 60032 81100
333 10110 20056 31004 55028 55300 70031 81812=
10162 12970 01903 10044 20037 39942 40025 51012 69902
333 10104 20044 31003 55036 55300 79999=
10184 11570 12104 10075 20046 30022 40029 51017 69912 70186 81200
333 10098 20075 31006 55066 55300 70001 81823=
10224 32980 31904 10047 20034 30014 40020 51012 80001
333 10073 20046 31003 55039 55300 70041 83072=
10270 12968 02104 10045 20045 39995 40051 51015 69912
222// 06107
333 10096 20044 31003 55065 55300 70001=
10338 12982 22004 10059 20027 39955 40028 50006 60022 80001
333 10111 20058 31003 55009 55300 70018 82075=
10361 12981 21903 10053 20025 39953 40057 51011 60022 80001
333 10101 20049 31002 55049 55300 70020 82076=
10384 32984 12104 10061 20040 30001 40061 51016 80001
333 10103 20060 30004 55064 55300 70000 81076=
10393 11984 22304 10062 20038 39941 40068 51015 69902 70361 82040
333 10092 20062 31003 55053 55300 20000 30000 79999 82360=
10400 32982 41605 10049 20032 39975 40025 58010 81031
333 10078 20045 31003 55002 55300 70062 81363 83075=
10438 12373 71803 10049 20045 39778 40060 50000 60102 8587/
333 10097 20042 31003 55004 55300 70100 83807 85624 87362=
10469 12980 41903 10043 20026 39901 40067 51007 69902 84030
333 10096 20041 30001 55053 55300 79999 84360=
10488 11786 32005 10064 20038 39800 40080 53011 69902 70361 81542
333 10095 20059 31002 55049 55300 79999 81650=
10548 11365 81905 10045 20041 39529 40071 58001 60032 76161 885//
333 10082 20042 32003 55001 55300 20012 70043 88606=
10637 11170 70701 10072 20066 39925 40062 58008 60052 72162 875//
333 10115 20064 31005 55017 55300 70046 82703 87623=
10685 11684 71803 10057 20057 39417 40088 53005 69932 70362
333 10080 20052 31003 55034 553// 70011 86640 84076=
10738 11688 70601 10057 20035 39611 40079 58008 69902 70381 8153/
333 10105 20056 31001 55068 55300 79999 81640 87361=
10763 11582 71102 10072 20059 39712 40092 50003 69922 72165 875//
333 10094 20068 31005 55028 55300 20000 70002 81623 83628 85635=
10788 11965 41203 10031 20030 39674 40110 53004 69902 70261 82032
333 10045 20018 31100 55044 55300 79999 82360 83076=
10852 32982 61603 10048 20030 39532 40102 58001 83031
333 10067 20038 31001 55082 55300 70000 83359 84073=
10946 32986 61202 10020 21012 39275 40114 58005 84072
333 10045 20012 31101 55061 55300 70001 82359 83466=
44438 42570 10906 10306 20191 30047 40173 81100 333 58030=
44454 42562 20000 10236 20130 38705 48542 82100 333 580//=
44477 42568 12302 10253 20185 38857 48567 81100 333 58017=
10091 11480 62209 10060 20040 39969 40020 51017 69902 70162 86500
333 10102 20060 31005 55080 55300 20000 30000 79999 86618 91114 91211=
10113 11462 11907 10069 20050 39970 49989 51013 69902 72500 81100
222// 06100
333 10085 20067 31006 55015 55300 79999 81818 91116=
10129 32780 11906 10051 20034 39995 40008 51014 81500
222// 02112 2//01
333 10079 20051 31004 55023 55300 70037 81650=
10131 32770 21905 10062 20041 39985 40000 53016 82500
222// 02105
333 10080 20060 31004 55021 55300 70007 82650 91113=
10170 12470 42106 10072 20042 39998 40013 51012 69902 84500
333 10107 20072 31006 55048 55300 79999 84615=
10253 12980 11903 10046 20035 30018 40040 51012 69972 80001
333 10111 20042 31002 55056 55300 70007 81073=
10280 11481 12206 10050 20038 39943 40041 51015 69902 7036/ 81800
333 10099 20050 31004 55066 55300 79999 81816 91113=
10291 32680 12102 10048 20037 39988 40056 51021 81500
333 10099 20048 31002 55065 55300 70000 81633=
10305 32970 21803 10050 20038 39984 40016 51007 80001
333 10067 20050 31004 55010 55300 70046=
10315 32980 21503 10042 20032 39965 40029 51005 80001
333 10067 20042 32002 55018 55300 70078 82075=
10348 12981 12204 10052 20031 39939 40046 51010 60022 80001
333 10109 20047 31002 55047 55300 70019 81075=
10385 32984 22104 10054 20035 39999 40061 51017 81031
333 10098 20044 31000 55067 55300 79999 81362=
10427 11/02 91907 10013 20013 39042 48354 50000 60052 74142
333 10040 20008 31001 55000 55300 70105=
10453 11/90 92318 11009 21022 38707 48344 51003 60022 74944
333 10023 21009 3/101 44002 55000 55300 70025 91123 90228 91218 91219=
10474 12984 12201 10055 20042 39935 40065 51014 69902 81054
333 10106 20046 31100 55046 55300 20001 79999 81360=
10490 11970 12104 10060 20045 39953 40075 51016 69902 7036/ 80001
333 10101 20060 31003 55053 55300 20000 79999 81080=
10499 32681 21906 10061 20029 39794 40082 51015 81541
333 10093 20061 30005 55066 55300 70000 81640 91116 91211=
10501 12586 11905 10070 20051 39771 40017 58014 69902 81531
333 10071 20055 31003 55006 55300 70064 81624=
10513 12984 61304 10058 20047 39910 40031 58010 69942 83048
333 10068 20034 31002 55007 55300 70044 83360 86275=
10532 11357 71202 10056 20053 39821 40057 58005 60042 72161 875//
333 10096 20039 31002 55018 55300 70041 83708 86620=
10544 11/01 92109 10028 20028 38993 48380 50001 60062 74584
333 10046 20009 32000 55002 55300 70061 89/01 91114 96280=
10554 11984 62004 10043 20026 39680 40069 51008 69972 70361 81038
333 10098 20030 31001 55023 55300 20007 70007 81360 86273=
10577 11681 62106 10062 20041 39579 40080 51009 69902 70361 84244
333 10096 20054 31003 55045 55300 20001 30005 79999 84836 84070 91113 96461 96
10578 11/01 92210 10014 20014 38694 48396 51009 69902 74564
333 10023 20011 31000 55001 55300 20006 30006 79999 91120 91216=
10609 41755 72003 10084 20082 39714 40040 57010 60102 70186 872//
333 10092 20055 31005 55003 553// 70129 87811=
10655 11682 81603 10078 20070 39745 40070 58003 69952 70262 878//
333 10102 20072 31006 55032 55300 70005 83833 87650=
10688 11575 71402 10057 20036 39569 40093 51003 69902 72161 875//
333 10082 20054 31004 55024 55300 70001 87628=
10708 11575 72003 10083 20067 39675 40056 58009 60022 70352 875//
333 10092 20074 31006 55001 55300 70021 87621=
10729 11482 71704 10091 20078 39941 40061 58007 69902 70162 8483/
333 10120 20087 31007 55017 55300 79999 81815 83630 85360=
10776 11780 51404 10054 20039 39668 40114 50000 69902 70161 81570
333 10076 20053 31003 55064 55300 79999 81650 85360=
10803 12582 31803 10110 20038 39715 40069 58016 69902 81840
333 10135 20108 31008 55027 55300 79999 81831=
10836 32586 72005 10052 20034 39220 40084 58003 81832
333 10072 20044 31001 55063 55300 70000 81825 84360 87074=
10929 32982 50901 10081 20046 39556 40084 58009 83071
333 10104 20072 31003 55079 55300 79999 83360 83080 98489=
10961 32/89 51810 11075 21151 37006 47969 57003 81142
333 11064 21085 44055 55079 55300 70000 818// 82340  91121 91214
444 17129 16210=
10962 32989 51803 10052 20000 38970 48423 56005 84051
333 10069 20043 31101 55087 55300 70000 84361 91113=
44404 42575 32701 10154 20093 4//// 83200 333 5////=
44424 42983 02708 10162 20075 4//// 333 5////=
44434 42565 20000 10225 20187 39252 48565 82200 333 58009=
44449 42565 11205 10304 20254 30005 40159 81100 333 58019=
44462 42465 30000 10234 20146 38308 48524 83400 333 58014=
44474 42570 12302 10253 20185 38857 48567 81100 333 58012=
44478 42970 00902 10308 20187 30063 40146 333 58009=
16597 32965 53406 10174 20135 30085 40173 56007 83072
333 20165 30013 83362 84075=
41170 42968 03409 10293 20211 30122 40135 333 20248 58004 555 00207=
48001 32565 23401 10260 20179 40133 82200 333 56900 59009=
48008 32556 10401 10280 20203 40139 81100 333 56900 59007=
48019 32962 00402 10275 20191 40152 333 58007=
48025 31560 33602 10271 20226 40149 83200 333 56300 58003=
48035 32560 10000 10248 20105 40127 81200 333 56900 58003=
48037 32560 03601 10295 20207 40131 333 58000=
48042 32957 03201 10305 20169 40136 333 58011=
48045 32563 40000 10191 20139 84800 333 56200=
48053 32558 23602 10290 20196 40137 82800 333 569// 58008=
48060 31440 13201 10190 20139 40158 70544 81100 333 56300 58024=
48062 /2562 31302 10306 20240 40126 82301 333 56909 58020=
48071 32966 20503 10300 20207 40134 80006 333 56009 58024=
48077 32560 10401 10305 20185 40134 81200 333 56900 58013=
48078 31556 23601 10304 20184 40125 74244 81501 333 56909 58011=
48097 32458 31404 10300 20185 40133 70211 82830 333 56690 58022=
48108 32596 70502 10300 20239 40112 82405 333 56109 58003=
11101 32981 21501 10043 20020 39568 40095 58010 81041 333 20042
81360=
11022 31/01 90701 10019 20019 39734 40130 51007 74544 333 20017 3/000
89/00=
11028 31984 50000 10003 20000 39781 40132 53003 74011 80004 333 21003
3/000 85080=
11130 31125 81802 10020 20015 39538 40134 50003 71011 886// 333
20011 88703=
11146 12689 62014 11097 21110 36871 47967 52001 69902 84042
333 21098 49085 84345 84075 93197 96212 444 26242=
11157 32462 81702 10034 20017 39375 40149 54000 875// 333 20028 31001
81710 87614=
11172 31/01 90000 11012 21021 53006 74741 333 21012 89/01=
11204 36/// /0000 10014 20012 39361 40161 333 20012 3/102=
11231 31150 89901 10063 20054 39591 40160 52003 70242 886// 333
20061 82703 83705 88718=
11423 32786 72403 10048 20032 39224 42725 52004 875//
333 20035 31000 70002 87650=
11464 32283 22411 10031 20025 39117 42719 52014 81581
333 20031 31001 70001 81603 91121 9512/=
11487 32788 50701 10019 20011 39492 40122 52006 81542
333 20002 34102 70000 81650 84070=
11518 32989 42104 10064 20027 39667 40105 52010 82041
333 20044 30002 70000 82359 84073=
11603 32970 31403 10058 20032 39623 40102 52009 83031
333 20054 31003 70001 83360=
11782 32970 22502 10052 20040 39817 40133 50006 81041
333 20024 32102 70107 81361=
52740 16/// /1504 10085 29021 36849 60000
555 1/131 2//00 /////=
13586 11293 80000 10114 20114 39882 40169 53003 60022 74442 887// 333
20112 32/// 84703 86720 88633=
33317 11450 81802 10092 20088 40122 53011 69932 76166
8802/ 333 20088 88511=
33393 11495 83003 10080 20071 40133 52015 60032 71082
885// 333 20081 88613=
33506 31212 81302 10054 20052 40200 57002 71042 886// 333 20026=
33631 11295 81703 10087 20074 40147 52023 60042 71022
886// 333 20085 88705=
33658 11/05 90202 10074 20074 40127 53010 60012 74781 333 20074
555 31005 52005=
33663 32997 81101 10114 20090 40135 53001 8802/ 333 20112=
33791 31/92 91004 10078 20078 40191 54000 74542 333 20076=
33910 11/93 91402 10086 20086 40194 53004 69942 75054 333
20084 96045=
33946 32997 01003 10082 20048 40191 53003 333 20043=
34300 31496 81304 10080 20058 40209 56004 71011 885// 333 20051=
34519 31/04 91204 10061 20059 40216 54000 74741 333 20061=
34601 11/02 91202 10068 20068 40203 52005 69902 75154 333
20052 89/02 555 30002 52003=
15004 11556 53202 10090 20078 39818 40151 52020 69982 71081 82460
333 20082 31006 555   60008=
15020 31535 80000 10092 20092 39930 40125 54000 71011 8557/
333 20088 30007=
15090 31956 81100 10103 20090 30010 40133 52006 71011 8807/
333 20081 30006=
15108 31/01 92720 10028 20028 38050 48468 55001 74542
333 20027 41998 91128=
15120 11556 42103 10071 20063 39662 40156 52016 69932 71011 81169
333   20070 31003 555   60003=
15150 01206 81603 10090 20090 39910 40140 58002 69902 76142 8677/
333 20082 31007 69907 96044 555 60000=
15200 12560 71301 10080 20065 30015 40158 52006 60012 87300
333 20069 31005 555 60028=
15260 11562 72102 10101 20089 39620 40148 52008 69922 7028/ 83370
333 20086 30009 95090 555 60002=
15280 11/05 72504 10014 20009 37493 47035 54000 69982 74164 84570
333 20009 3//// 41998 555 60008=
15292 11560 80000 10120 20109 39886 40175 58002 60012 70262 8802/
333 20114 31011 95090 555 60010=
15310 31905 80901 10106 20106 30059 40144 53001 74411 8807/
333 20095 30006=
15346 11962 70000 10115 20099 39866 40150 53005 69922 70162 87070
333 20097
30010 95090 555// 60002=
15350 31401 80101 10085 20082 30025 40142 52005 74442 886//
333 20061 30005=
15360 31956 51607 10133 20131 30144 40155 54000 71011 80006
222 00130 20501  333 20130 92426=
15410 11556 80000 10116 20116 30060 40155 54000 60012 71082 889//
333 20115
31012 555// 60012=
15420 31958 53201 10066 20066 30024 40135 52005 71021 85050
333 20062 30007 91002 91201=
15450 31940 70201 10106 20106 39922 40156 58003 71011 87070   333
20102 30009=
15460 31940 60700 10071 20060 30110 40132 52005 71020 86070
333 20052 30020=
15470 32960 50000 10092 20092 30015 40141 58002 85070
333 20085 30006=
15480 31405 81802 10130 20124 30136 40152 57003 74622 886//
222 00123 2////  333 20128 30010 92423=
71805 43/// /0512 10085 20079 30086 40114 56024=
17022 32970 01103 10128 20060 40182 53001 333 20110
30007 50174 55073 20967 92428=
17038 32970 01001 10152 20120 40199 52007 333 20106 30009 50151
55015 21060 92428=
17050 31/02 92701 10112 20105 40162 53001 74544 333
20099 30007 50021 55025 20414 89/01=
17060 32960 00000 10140 20117 40169 57003 333 20128 30012=
17096 32570 31206 10012 21011 38264 48527 53002 83100
333 21008 31104 55079 21231 83830 10219=
17124 31930 00000 10000 21012 39298 40231 52004 71000 333 21002 31101=
17128 32965 00000 11030 21071 39116 40243 52005 333 21039 34107 55081=
17170 32670 30000 10078 21002 38360 48527 50000 83100
333 20018 30001 83835 10194=
17195 31920 00102 10004 21006 39008 48530 52008 71000
333 21030 34105 10241=
17200 32970 02502 10060 20046 39221 40212 53006 333 20026 30100=
17219 31550 21404 10102 20101 40200 53007 71000 82100
333 20087 30/// 82830=
17240 32975 00000 10022 20013 39067 40224 52006 333
20008 30102 55081 21526=
17244 31940 00000 10020 20004 39027 48526 53005 71000
333 21020 34104 55089 21395 10230=
17280 31/01 90000 10082 20071 39409 40200 53009 74744
333 20052 31005 50201 55090 21323 89/01=
17350 32960 03506 10136 20072 40182 51003 333 20096 30///=
17026 32970 00000 10112 20105 40190 54000 333 20096
31007 55072 20776 92418=
17034 32970 01302 10120 20083 40195 53010 333 20110
30010 50164 92428=
17070 32965 02201 10009 20002 39343 40228 52004 333
21007 31102 55069=
17084 31956 00000 11004 21014 39312 40238 52012 71000
333 21022 30105 55074 21252=
17090 32965 01302 10022 20004 38760 48531 52010 333
21001 31102 50201 55082 21304 10234=
17098 32570 70000 10020 21016 38250 48552 54000 84550
333 21010 30102 70002 84630 87360 10246=
17150 31401 50000 10059 20041 40195 53003 74411 85600 333 20044 31004
50044 55065 21073 85710=
17160 32970 03403 10022 21003 39053 48525 53003 333
20010 30101 50201 55095 21176 10226=
17184 32960 00000 10075 20061 40189 53002 333 20068
30003 50201 55074 21151=
17190 31956 00000 10026 20008 39023 48523 53003 71000 333
20015 34102 55081 21205 10220=
17210 32975 00000 10098 20050 39160 40193 53002
333 20068 30005 50204 55043 28290=
17234 32970 20906 10109 20068 40187 53004 82030 333
20099 30008 55074 21203 82360=
17260 32970 03602 10100 20036 39371 40187 53009 333 20060 30004=
17290 32970 00000 10156 20116 40180 58002 333 20154
30012 50384 55082 21100 92408=
17370 32965 02202 10166 20095 40179 53005 333 20152
30010 50424 55086 21184 92417=
17024 32970 02011 10103 20044 40185 51002 333 20084
31007 55084 92428=
17056 31656 72604 10144 20130 40174 53001 71022 83530
333 20120 30010 50101 55058 20857 83635 87360 92416=
17067 31960 01202 10102 20078 56002 71000
333 20090 30007 92407=
17092 31920 00000 10006 21006 38905 48530 52008 71000
333 21008 31101 55072 21183 10242=
17112 31958 00102 10119 20114 40167 54000 71000 333 20109 30008
50191 55024 20851 92407=
17115 31950 00000 10116 20086 40171 55000 71000 333 20076 31007=
17116 31956 00602 10081 20068 40193 55001 71000
333 20061 31003 50194 55087 21063=
17188 32970 03402 10062 20050 39144 40208 53004 333
20042 30003 50251=
17202 32970 02703 10074 20046 39176  40189 52006
333 20030 31002=
17248 32975 01401 10034 20012 39018 48531 52011 333
21006 34103 55090 21423 10227=
17292 32970 00000 10062 20052 39440 40196 53003 333
20050 30003 55079 21227=
17300 32970 03304 10136 20064 40181 53003 333 20115 30007 50464 55097
21375=
17330 32970 03405 10170 20078 40185 52008 333 20140
30010 50351 55093 21386=
17074 32970 01502 10002 21010 39280 40236 53009 333
21011 34104 50094 55084 20981=
17085 32970 03402 10025 20009 40225 52012 333 20005
30000 55069 21066=
17100 32670 52902 10084 20011 39230 40222 51002 83130
333 20052 30003 50204 55027 20911 83840 85360=
17140 32965 00901 10030 20010 38745 48531 52007 333
20002 30101 55092 21292 10232=
17203 32970 00000 10090 20052 38892 48553 53004 333
20040 31001 55063 20900 10223=
17205 32680 60000 10070 20012 38360 48528 54000 84250 333 20050
30004 50201 55011 20304 84840 86360 92418 10178=
17237 32970 00000 10089 20064 40193 53003 333 20079
30004 50141 55078 20935=
17250 32975 00402 10024 21013 38843 48531 52010 333
21002 34101 55093 21477 10239=
17255 32970 00000 10108 20062 39520 40184 52007 333
20073 31005 50324 55073 21096=
17270 32970 03002 10140 20050 39540 40174 52013 333
20098 31006 50134 55087 21387=
17275 32980 00207 10138 20065 39010 48545 51005 333
20104 30009 10193=
17375 32975 03302 10138 20074 40174 53002 333 20126
30009 50124 55089 21149 92408=
60715 32558 62206 10154 20120 30171 40176 54000 84880
333 20151 84823=
60725 32558 60000 10142 20142 30015 40185 54000 86800
333 20140 83823 84630=
60735 12660 73602 10165 20148 30105 40189 54000 69904 8458/
333 20165 79999 84633 85360=
60760 32660 21204 10163 20132 30074 40177 52007 81502
333 20156 81633=
60765 32556 11102 10158 20149 30169 40175 53002 81800
333 20158 81820=
60769 32550 21904 10165 20162 30169 40173 52007 82200
333 20177 82820=
60775 31502 70000 10170 20162 39830 40184 53009 746// 877//
333 20160 55098 21455 87710=
91376 11474 80000 10277 20238 30086 40090 53002 60061 70286 8487/
333 56299 70064 555 90206=
57001 70032 87/// 90550
333 10072 20056=
34106 81702 87656 96010=
82640 83358 85075=
91356 11466 81104 10293 20257 30076 40085 53014 60021 71682 84978
333 56499 70066 84916 555 90206=
20069=
43555 32480 23405 10298 20234 40107 82200 333 59004 82818=
43577 32480 29903 10324 20260 40111 82101 333 59004 82819=
43599 31480 42713 10302 20266 40112 70182 83901 333 58002 82817
81918=
17600 32982 00307 10168 20107 30171 40187 52010
333 20135 50211 55094 92428=
17609 32584 12906 10173 20127 30180 40182 51006 81200
333 20144 50511 55074 81830=
37484 32597 51305 10144 20098 40193 52001 82130 333   20120=
12205 32470 22204 10060 20045 30049 40057 52024 82500
333 10096 20057 31004 55072=
12465 31950 51602 10039 20038 39874 40108 52007 71011 85030
333 10066 20036 32002 55/// 20141 70086=
12560 31698 22301 10033 20028 39786 40135 53006 71100 81501
333 10067 20024 31102 70134=
12695 06/// /0000 10068 20057 39804 40144 52012 60022
333 10192 20068 70023=
12120 11598 61905 10071 20043 30030 40037 53012 69902 70181 8333/
333 10075 20049 31003 55042 2//// 79999=
12250 32597 41803 10058 20036 39990 40079 52009 84500
333 10084 20046 30002 55006=
12330 32762 62003 10071 20037 39971 40079 52016 85532
333 10083 20053 31004 55008=
12375 31940 11603 10015 20015 39978 40111 52010 71141 81030
333 10084 20007 32000 71114=
12424 32999 71903 10070 20038 39944 40096 52008 84071
333 10082 20016 30101 55007=
12100 32470 72402 10072 20042 30040 40047 52024 8775/
333 10092 20069 31001 55069 20613=
12105 32498 72403 10069 20041 30007 40048 52023 875//
333 10085 20062 30004 55064=
12135 32497 72006 10066 20047 30046 40049 53004 872//
333 10084 20062 31004 55003 91112=
12235 32497 61905 10054 20041 39853 40063 52014 8453/
333 10055 20029 31001 55011=
12270 11920 41301 10029 20027 39914 40098 53009 69902 72841 83051
333 10081 20022 31000 70026=
12300 31558 12401 10060 20038 39980 40070 52019 71011 81500
333 10082 20057 31002 55062=
12360 31796 41603 10040 20033 39963 40097 52009 71000 83501
333 10084 20037 31001 70033=
12385 11450 62403 10060 20056 39927 40117 52013 60032 71022 86600
333 10082 20054 32005 70136 86710=
12400 32675 21801 10057 20028 39847 40082 52015 81501
333 10086 20053 31003 55045=
12435 31558 51603 10050 20037 39925 40097 53009 71011 82531
333 10073 20037 31002 70001=
12495 11/03 92102 10050 20050 39838 40131 52013 60072 74711
333 10099 20043 31002 70091=
12510 11/90 92317 11009 21010 38273 48397 52010 69912 74944
333 11001 21015 43997 55000 70002 =
12520 32599 51902 10055 20033 39678 40111 52005 84501
333 10074 20041 30000 70001=
12570 11/01 90000 10015 20015 39811 40134 52007 69962 74544
333 10081 20015 31001 70066=
12575 12960 10000 10014 20002 39883 40143 52010 69952 81040
333 10086 20014 31102 70035=
11406 11570 71703 10061 20038 39531 40092 52002 69912 76061 875//
333 20056 31004 70002 87623=
11457 01486 32404 10011 20002 38822 48424 52005 69902 72160
81541
333 20011 31101 69905 79999 81610=
11520 32875 41802 10062 20028 39739 40106 53007 83540
333 20050 31004 70000 83656=
11541 32975 71602 10054 20026 39598 40121 5//// 84038
333 20052 3/000 4//// 7//// 84360 87271=
11636 31970 69901 10007 20006 39444 42741 52004 70241 81042
333 21011 31102 50032 70013 81361 86070 9513/=
11679 32262 71402 10038 20031 39634 40125 52005 875//
333 20011 31102 70004 81703 87650=
11723 11103 40000 10027 20027 39833 40134 53005 69942 74254 82601
333 20015 31000 70022 82702 84070=
11766 31284 12205 10034 20033 39240 42744 53004 70241 81641
333 20028 31001 70061 81704=
11774 32980 11503 10042 20038 39857 40131 53003 81041
333 20038 31003 70064 81360=
11787 31789 22106 10013 21006 38619 48440 52008 70341 81041
333 20000 31101 70125 81356 9513/
444 47072=
57002 70010 87/// 90549
333 10080 20060
555 796// 80183 0/406=
26038 11397 81403 10069 20065 40052 57007 69912 72162 8361/   333
20061   555 31006=
26045 11396 80602 10079 20075 40055 57016 60052 78082 889//   333
20069 86707   555 31005=
26058 11396 80805 10077 20071 40035 57031 60072 78182 889//   333
20063 87709   555 32003=
26115 12498 71503 10090 20082 40037 56000 69942 87600   333 20075
555 32006=
26141 11396 80202 10067 20060 40054 57018 60042 78082 889//   333
20052 88706   555 32004=
26231 11697 70000 10072 20068 40053 57006 60012 70282 86540   333
20072 85640   555 32006=
26247 11397 82902 10075 20069 40053 54000 60082 78082 883//   333
20072   555 32006=
17042 32970 40000 10142 20127 40215 53003 84030 333
20108 32010 50054 55075 84360 92428=
26242 11395 83102 10074 20072 40042 57011 60092 76162 8802/   333
20071 88508   555 32006=
12160 32497 61503 10059 20048 30016 40069 53009 86501
333 10091 20055 31003=
12210 32598 52302 10062 20036 39987 40055 52026 85500
333 10089 20051 31004 55067=
12230 32565 52302 10068 20040 39975 40065 52013 85500
333 10070 20045 31000 55038=
12399 11596 72503 10072 20058 39953 40121 52016 60082 71022 875//
333 10116 20065 32006 55015 70099=
12418 32997 41902 10060 20036 39972 40086 52014 81038
333 10072 20040 31001 55010=
12469 11302 41501 10030 20030 39884 40118 52007 69922 74400 82606
333 10075 20023 31001 50073 70108=
12488 11930 00000 10033 20031 39965 40121 53010 60022 71000
333 10084 20031 31001 70108=
12540 31996 21501 10040 20033 39874 40127 53004 71000 80002
333 10078 20038 32001 70114=
12566 31920 00502 10002 21001 39845 40141 52007 72840
333 10080 20002 31101 70068=
12625 12982 01701 11002 21007 39144 42765 52008 69972
333 10062 21012 31104 55/// 20190 70121=
12690 11506 41602 10048 20048 39641 40153 53013 60072 74681 81531
333 10131 20048 31002 55003 70074=
12115 11497 42005 10071 20037 30025 40038 53017
69902 70181 81230
333 10085 20071 31004 79999=
12125 32598 52104 10067 20048 39994 40044 52012 84502
333 10079 20052 31002 55016=
12200 32468 52102 10068 20051 30037 40044 51020 85500
333 10094 20068 31004=
12285 06/// /9903 10062 20053 39989 40104 52013 69932
333 10099 20065 70003=
12345 32560 41803 10050 20044 39948 40092 52009 82502
333 10070 20039 31002 70006=
12415 32998 71903 10061 20030 39938 40090 52011 82046
333 10078 20053 30001 55013 20429=
12455 32660 21805 10057 20042 39861 40106 53003 81531
333 10069 20039 31003 70062=
12497 11458 72204 10069 20063 39911 40130 53016 60052 71022 875//
333 10145 20065 32003  55037 70051=
12500 32698 61801 10059 20021 39682 40097 52010 84544
333 10096 20036 30100 55008 91113=
12530 31996 31402 10058 20041 39911 40111 53004 71000 82039
333 10069 20046 31001 70053=
12550 31940 11902 10041 20032 39758 40119 53005 710// 80001
333 10064 20036 32001 70098=
12580 11901 02101 10016 20011 39896 40146 52013 69982 74611
333 10096 20011 31102 70022=
12585 11402 82103 10051 20051 39866 40134 52011 60032 74611 886//
333 10085 20048 31004 70101=
12600 32984 11202 10051 20024 39646 40129 52004 81031
333 10074 20046 31001 70149=
12650 12984 13103 11019 21070 37947 48452 53010 69952 81041
333 10013 21028 34/// 70165=
12660 11504 80000 10041 20041 39787 40148 52009 69902 74644 885//
333 10090 20036 31002 70040=
82100 22265 00287 20000 334// 41002 80228=
82400 22224 00206 20303 303// 41505 80183=
82480 22273 00240 2//// 3//// 4//// 5////=
156055 150057 150063 150065 151066 153061=
310042 322031 343019 333023=
83597 22264 00258 20506 39999 4//// 5//// 6//// 80225 ICE /////=
85460 22274 02260 20504 332// 40605 80170=
57030 70210 82200 22255 20301 80200=
57021 77372 89/// 22283 04023 20404 82010=
53882 32968 00000 10163 20012 40199 57023 333 21019=
54764 32966 02501 10168 20021 40215 57019 333// 20035=
56312 32680 12003 10147 21020 37117 57038 81100 333 00100
21009=
56227 32880 12502 10146 21032 37358 57039 81100 333 00101
21020=
56434 32680 12203 10186 20010 37714 57038 81100 333 00101
20057=
56317 32680 30403 10148 20016 37169 57037 83400 333 00101
21010=
55299 32780 12205 10075 21108 35882 57027 80001 333 05304
21120=
55472 32980 03208 10058 21098 35776 57023 333 05302 21101=
56106 32780 10000 10069 21087 36241 57035 81100 333 05100
21090=
55279 32780 12513 10058 21141 35739 57012 81100 333 05305
21094 91119 91525=
55294 32780 22207 10047 21093 35745 57014 82100 333 05303
21126=
56202 32980 01402 10026 21076 35915 57025 333 00152 21131=
51087 11460 72905 11059 21086 39328 40321 52025 69921 77070
865/2 333 00657 21064=
51156 32780 20905 11034 21166 38759 40290 52044 82502 333
00654 21082 91120 91527=
51463 11975 80904 11026 21046 39206 40339 52006 60051 77077
8801/ 333 01158 21034 91119 91502=
51644 32780 72501 10173 21040 38946 40182 52003 81432 333
05106 20020=
51053 32680 72911 11042 21082 40329 52015 84162 333 01156
21062=
51334 32980 73402 10036 21061 40322 52002 80002 333 01054
21008=
51495 32680 73623 10056 21088 40294 52020 81142 333 00057
20056 91132 91536=
51068 32680 63210 11009 21114 40325 52021 81532 333 00954
21040 91120 91529=
51365 11970 72705 10031 21112 40328 52015 69911 70060 85032
333 01256 20024=
51437 31780 70000 10013 21015 38208 52001 70040 82502 333
00601 21015=
51477 32670 72916 11007 21084 40302 52029 82502 333 00660
21015 91126 91527=
51232 11775 73218 10006 21062 40327 52007 69901 70070 81502
333 00957 21017 91128 91534=
51059 11980 72712 11087 21126 40337 52015 69921 70073 80002
333 01061 21105 91124 91527=
54705 32961 01602 10182 20065 40203 57017 333// 20028=
52868 32980 00000 10130 21040 37753 57034 333 05502 21058=
52436 32962 72912 10105 21083 38465 40184 52011 81032 333
05151 21004 91119 91527=
52737 32980 80000 10082 21139 37084 57021 80007 333 05501
21034=
52602 32680 73212 10060 21131 37287 54000 81102 333 05251
21086=
51886 32980 72905 10071 21140 37136 57011 80002 333 05101
21062=
56018 32980 21601 10067 21116 36210 57038 80002 333 05205
21107=
54539 32970 02504 10164 20045 30188 40203 57011 333// 20033=
51288 11680 72904 11103 21115 38371 52011 69971 77070 875//
333 00461 21108=
51542 11920 80000 11055 21072 37609 52008 60021 77170 8802/
333 00456 21063=
52118 11962 82703 11015 21026 38264 52004 69961 77070 8802/
333 00157 21043=
51241 11680 73606 11058 21081 40354 52013 69921 77070 87502
333 01161 21066=
51526 32975 71104 10100 21060 40198 52003 82032 333 00051
21021=
52313 32980 72709 10073 21125 38421 52007 81032 333 05154
21036=
52842 32680 71602 10058 21194 36988 57022 81102 333 05400
21127=
52876 32970 00902 10146 21021 38155 57032 333 05703 20003=
56125 32980 02001 10084 21066 36549 57040 333 05100 21073=
37985 42598 83401 10140 20122 40233 54000 889//=
37575 41596 81603 10098 20092 40240 52004 76166 882// 333   20094=
71119 85704 88456=
89564 419// /1321 11097 21184 39836 49856 52007 7////=
89571 41582 40719 11059 21149 39793 49822 57003 70300 81131=
89573 32980 00408 11093 21124 39809 49832 52002=
89611 41570 71022 11042 21087 39799 49852 57004 73622 8552/=
58032 =
60710 12558 30000 10122 20122 30092 40176 58002 69904 83800
333 20121 70000 81820 83630=
60714 32565 40000 10126 20107 30174 40181 55001 84800
333 20124 81820 83633=
60720 11556 30000 10145 20133 30140 40176 56006 60064 70181 83800
333 20142 70058 81820 83633=
60723 13550 40000 10124 20124 30006 40195 55001 60014 82880
333 20123 70010 82826=
60728 11565 53202 10159 20143 30177 40181 57002 60044 7006/ 85800
333 20157 70042 82820 84626 92407=
60734 13558 71802 10139 20138 39668 40183 56001 60064 8558/
333 20138 70059 85626 83360=
60738 11460 30000 10084 20077 38948 48514 54000 69904 70100 81600
333 20076 70000 81610 82823=
60740 32558 63504 10185 20160 30184 40187 58002 84282
333 84820=
60745 32560 20112 10132 20109 39811 40184 53006 82600
333 20131 82720=
60748 33562 60000 10161 20149 39763 40178 54000 82202
333 20154 82826 84070=
60750 32558 53404 10164 20160 30180 40182 51004 84202
333 20160 84820=
60764 33957 21302 10134 20125 30129 40184 53004 80002
333 20116 82070=
60770 33958 20000 10160 20137 30041 40181 53004 82580
333 20155 82626=
60780 33960 00000 10158 20144 39892 40198 53015
333 20155=
33815 31498 81803 10112 20013 40145 53004 71022 886// 333
20100=
78866 32480 19901 10249 20210 30109 40113 57017 81100 333 59004
81819=
78988 32481 70907 10286 20258 30085 40094 57019 84232
333 59006 84817 83360 85081=
78982 32484 30808 10283 20246 30092 40097 57016 81201
333 59004 81818 83081=
13585 12698 70000 10115 20190 39393 40171 52005 60032 81570 333 20114
31009=
13598 42698 80000 10095 20081 48488 58001 885// 333 20087 31006=
78958 01478 60911 10253 20244 30088 40098 60011 72581 84802 333 0/209
10319
20252 59004 70038 83818 84078=
78894 36/// /0806 10258 20233 30049 40108 58016
333 10292 20256 59004=
81401 36/// /0000 10237 20230 40094
333 59002=
91551 32580 50000 10285 20250 40094 53003 85800
333 563// 83820 85640=
91554 32575 72405 10275 20234 40083 53004 878//
333 563// 83825 87640=
91555 32580 41604 10273 20220 40084 52002 84100
333 563// 84825=
91557 32580 32105 10270 20218 40099 53005 83200
333 563// 83820=
91565 32580 20000 10272 20213 40109 53003 82200
333 567// 82825=
91568 32581 12610 10267 20220 40092 53003 81100
333 567// 81825
60020 12570 73401 10181 20109 30141 40186 58005 69994 878//
333 20166 55066 924/7=
60030 12560 60111 10200 20130 30121 40176 56005 69904 86800
333 20192 55040 924/6=
60040 11570 50307 10183 20147 30161 40186 55001 69994 702// 85500
333 20173 55056 924/8=
60338 32480 12205 10134 20095 30099 40165 56003 81400
333 20130 55101 92418=
71114 36964 00907 10072 20033 30182 40230 53004 333 10116 20043
70000=
71120 32974 02702 11032 21039 39538 40203 58005 333 10050
21047 70000=
71122 36/64 /0000 11051 21100 38611 40236 51004 333 10041 21059
70000 555 10002=
71123 32974 01904 11061 21105 39338 40216 58004 333 10080
21070 70000=
71125 33974 02604 11043 21048 39602 40195 58009 333 10030
21076 70000=
71129 32974 03405 11047 21051 39352 40193 56008 333 10056
21079 70000=
71131 36/64 /0218 10000 21040 38912 40172 58004 333 10034 21036
70000=
71138 11474 80120 10000 21016 39479 40083 58019 60031 70276
885// 333 10043 20000 42001 70032 90922 93103 555 10030 20030 33628
40031=
71141 11359 80511 11002 21013 39857 40136 57032 69921 76852
886// 333 10022 21009 70004 90957 555 19999 29999 30519 40050=
71145 11266 80612 10009 20000 39842 40136 58037 69901 70255
886// 333 10048 20004 79999 90933 555 30624 40060=
71148 16/// /0115 10046 20045 39388 49953 5//// 60181 333 10073 20043
70260 555 33635 40032=
71182 36964 30000 11037 21057 39674 40220 56006 333 10026 21144
70000=
71185 36964 01506 10079 20044 30151 40175 56008 333 10096 20018
70005 555 31419 40050=
71187 36964 00000 10011 21020 30187 40214 56007 333 10064 21045
70000=
71188 32574 73204 10037 20008 30150 40191 57013 87500 333
10039 20011 70008=
71196 37040 80822 10056 20051 30141 40178 58019 743// 333 10062
20047 70005 555 30828 40151=
71200 36/// /0209 10089 20071 333 10111 20055 70002=
71931 36/64 /2003 11041 21092 39514 40205 333 10067 21041 70000=
71932 36964 00000 11031 21056 39725 40183 50001 333 10076 21047
70000=
71933 36964 62202 11003 21013 39866 40157 54000 333 10042 21055
70000=
71934 32774 11703 11029 21038 39883 40142 52003 81500 333
10011 21033 79999=
71935 32974 22103 11040 21060 39919 40128 52005 80001 333
10031 21040 79999 555 19999 29999=
71936 11116 92805 11062 21066 39859 40119 52005 69901 77141
333 10013 21066 47014 70004 90921 555 10004 20004=
71938 11348 82808 11045 21048 30079 40108 52010 69901 75677
887// 333 11033 21085 44028 79999 90956 555 19999 29999=
71940 32982 22002 11008 21050 39380 40191 58007 82070 333 10068 21038
70000=
71943 32974 31604 10018 21027 39336 40175 57001 80001 333 10045 21020
70000=
71944 36464 61403 10020 20008 39363 40198 58009 333 10034 21019
70000=
71945 32974 20000 11090 21096 39685 40166 50000 82070 333 10012 21112
70000=
71946 32974 03413 11093 21111 39927 40144 53011 333 11043 21101 70000
=
71948 463// 83016 11101  333 11074 21115=
71949 46/64 /2904 11042 21068 39292 40174 51013 333 11004 21081=
71951 11156 80000 10035 20033 39886 40153 58002 60021 76166 885//
333 10047 20031 70044 90983=
71957 37456 80000 11134 21156 30067 40158 51005 745// 333 11132
21214 70005=
71958 17/64 /0000 11021 21027 39196 40173 55001 60011 7//4/ 333
11002 21113 70010=
71964 32986 01505 11081 21115 39300 40166 51011 333 10026 21091 70000
=
71966 46/// ///// 11136 21156 333 11055 21167=
71968 465// 82120 11096 30072 40137 51003=
71865 36/64 /3505 11025 21035 39459 40144 58019 333 10031 21025
70000=
71866 36004 93407 11022 21027 39565 40184 55008 333 10039 21075
70005=
71867 11374 80409 10002 21015 39815 40151 58026 69901 77175
885// 333 10018 21012 79999 90916 555 19999 29999=
71868 36150 83612 11005 21005 39695 40137 58030 333 10018 21009
70000 555 30117 40050=
71869 31/16 93104 11037 21038 39650 40182 56013 71040 333 11018 21084
70000=
71870 36161 83312 11006 21012 39195 40173 55000 333 10015 21023
70000 555 30117 40230=
71871 32974 03004 11039 21050 39391 40206 58005 333 10053 21059 70000
=
71872 32983 02503 11028 21071 39345 40206 50000 333 10079 21057 70000
555 33218 40171=
71874 36764 32509 11051 21062 39114 40226 58006 333 10067 21053
70010=
71876 32274 83406 10008 21004 39516 40186 58015 885// 333
10014 21062 70000=
71877 32974 00000 11051 21094 38938 40227 58003 333 10068
21070 70002 555 19999 29999=
71879 36964 02302 11013 21066 39398 40208 58002 333 10079 21030
70000 555 33219 40210=
71880 32982 00000 11039 21067 39123 40245 51004 333 10073 21048 70000
=
71881 36964 02803 11068 21106 39101 40214 58005 333 10076 21075
70005=
71882 36028 80000 11002 21007 39715 40259 51002 333 10075 21004
70000=
71883 46/// /0000 10010 20009 39428 40256 58005 333 10059 21023=
71887 32483 40803 10026 20009 39815 40241 56001 81671 333 10080 20009
70000=
71889 32674 60403 10009 21008 39824 40247 50002 83501 333 10094 21010
79999=
71891 36064 /0000 10046 20002 39956 40237 50002 333 10109 20002
70000 555 31420 40220=
71892 32983 80706 10088 20042 30213 40218 50001 8807/ 333 10117 20033
70000=
71893 11780 80000 10078 20064 30189 40221 53005 69901 78022
885// 333 10095 20034 79999 90910 555 31418 40200=
71894 36/// ///// 10119 30185 40194 51008 333 10123 20076 70026=
71896 32974 41804 10010 21005 39371 40208 57007 80001 333 10047 21006
79999 555 19999 29999=
71898 37564 81618 10097 20055 30055 40098 50000 743// 333 10099
20066 70030 555 31431 40041=
71899 11232 81610 10092 20088 80014 40063 52014 60031 76162 886// 333
10103 20045 70062 90931 555 30918 40200=
71905 11/08 90000 10024 20024 30203 40216 50006 60011 75844
333 10076 20024 70050 90921 555 19999 29999=
71906 32574 60000 10012 21010 30140 40190 52018 86500 333 10059 20012
79999 555 32420 40190=
71907 36464 83605 11008 21028 30192 40225 51014 333 10033 21017
70000 555 32217 40070=
71909 17564 83020 11032 21060 30049 40092 53015 60031 7454/ 333
10021 21037 70045 555 33029 40061=
71910 37464 63024 11047 21070 30079 40144 53018 745// 333 11006
21057 70000 555 32835 40032=
71911 46064 81808 11146 30152 40210 58003 333 11073 21174 555 33127
40071=
71912 11266 80604 11034 21040 30035 40221 58016 69941 77777
886// 333 11003 21058 47997 70006 90973 555 10006 20006 3////=
71913 36164 81308 11051 21058 30206 40244 58007 333 11047 21061
70000=
71915 32974 23215 11124 21154 30129 40214 52012 80001 333
11056 21145 70000 555 33225 40001=
71917 33974 00000 11328 21374 30240 40255 57007 333 11274
21332 70000=
71922 32466 83104 11016 21020 39713 40181 58006 885// 333 10079 21040
70000=
71924 11474 51305 11174 21217 30110 40202 56001 69901 70172
85500 333 11158 21228 44016 79999 90931 555 19999 29999 30723 40121=
71925 11559 61512 11126 21153 30103 40140 58007 69901 77177
86500 333 11120 21230 44020 70004 90973 555 10004 20004 31325 40011=
71926 32974 01603 11195 21210 30201 40225 58012 333 11176
21225 79999 555 19999 29999 33221 40081=
71928 36/64 /0000 11065 21097 39043 40222 50000 333 10065 21065
70000=
71816 32974 02306 11040 21056 30151 40213 58008 333 10012
21047 79999 555 19999 29999=
71817 36064 81603 10016 20016 30201 40216 56015 333 10023 21011
70000=
71818 32974 02107 10008 21010 30184 40202 56012 333 10022
21023 79999 555 32017 40151=
71821 36964 01403 10020 21018 39875 40221 58003 333 10113 21048
70005=
71822 36864 30000 11012 21031 39758 40235 50001 333 10111 21066
74105=
71825 32974 62106 11010 21055 39548 40221 56005 86070 333 10072 21117
70000=
71827 11262 81002 10046 20030 39973 40217 52006 69901 75154 887//
333 10090 20030 70004 90927=
71828 37464 83408 10023 20004 39563 40203 55000 743// 333 10051
21060 70000 555 32818 40060=
71831 32974 31807 10084 20038 39908 40185 58004 83030 333
10156 20056 70000=
71832 36/64 /18// 10107 20057 39846 40165 56012 333 10170 20064
70002=
71834 11574 81505 10095 20044 39702 40122 58015 60031 70262
82525 333 10130 20031 70054 90941 555 31717 40210=
71836 46964 01003 10062 20042 30179 40190 56006 333 10145 20032=
71842 11248 81207 10116 20116 39564 40029 57031 60011 75165 887//
333 10120 20089 70165 90916 555 31317 40051=
71850 11312 81510 10135 20132 39496 49978 56027 60021 78165 887//
333 10135 20084 70174 90917=
71852 17664 60513 10097 20093 39652 49936 58036 60141 7//4/ 333
10104 20075 70160 555 30531 40011=
71855 17337 80217 10010 39677 40048 56029 60421 74444 333 10061
20009 70470 555 30333 40021=
71856 17061 80209 10077 20076 39696 49973 58034 60141 7//4/ 333
10079 20061 70185 555 30433 40031=
71858 46/64 /0219 10023 20002 39837 40117 56040 333 10029 20001=
71861 17004 80125 11002 21007 39328 40050 58035 60101 7//4/ 333
10051 21003 70150 555 30132 40061=
71862 11428 83620 10001 20001 39343 40036 51005 60101 77186
885// 333 10065 21005 43007 70370 90983 93108 555 10110 20112 30130
40051=
71863 37464 83421 11003 21025 39412 40108 58013 745// 333 10054
21003 70005 555 33428 40061=
71725 36964 01805 11002 21028 39814 40231 58002 333 10130 21042
70000=
71726 36/64 /0000 11046 21055 39703 40244 50001 333 10112 21071
70002=
71727 32974 00000 11030 21048 30036 40236 58003 333 10040
21061 70000=
71728 32982 02605 11023 21078 30012 40236 53001 333 10068 21061 70000
=
71730 32974 01904 10044 20042 39804 40227 55000 333 10138
20027 70000=
71731 33/// /1304 10056 21015 39780 40230 55002 333 10128
21003 70000=
71733 36950 01305 10082 20079 39973 40209 58005 333 10145 20069
70000=
71739 32974 01905 10057 20023 39843 40202 56002 333 10178 20051 70000
=
71749 17256 80811 10101 20100 39843 40084 58022 60121 7434/ 333
10114 20030 70190 555 30920 40230=
71799 32580 82705 10075 20061 30192 40216 58001 8652/ 333
10102 20023 70000=
71800 17/// /0529 10072 21115 30070 40103 56024 60021 7//4/ 333
10075 20062 70025 555 30537 40022=
71801 11/04 90510 10052 20049 39979 40152 57021 69901 75154
333 10071 20048 70013 90983=
71803 11140 80608 10048 20044 39997 40184 56012 69921 72054
886// 333 10063 20033 70006 90937 555 30919 40160=
71807 36/// /0618 10082 20070 30115 40131 58026 333 10117 20072
70000=
71808 36564 80615 10036 20014 30156 40203 56016 333 10038 20001
70000 555 30921 40131=
71809 11374 80510 10046 20037 30158 40185 57017 69941 70266 886//
333 10055 20020 70022 90943=
71810 36/64 /0000 10000 21007 30136 40200 58013 333 10032 20000
70002=
71811 32980 00101 11017 21048 30145 40214 56009 333 10061 21030 79999
=
71813 36864 30507 10037 21001 30179 40192 58011 333 10073 20009=
71814 36/64 /0313 10028 20022 30183 40193 56013 333 10035 20009
70000=
71815 11774 60812 10084 20056 30120 40152 56013 69921 70166
86500 333 10086 20047 70062 90943 555 30722 40150=
71103 36864 60000 10014 20008 39549 40215 56005 333 10057 20006
70005=
71115 36/// /1006 10007 20005 333 10078 21003 70002=
71121 36964 02406 11050 21082 39376 40209 58003 333 10075 21073
70000 555 33220 40210=
71127 46064 ///// 11040 21046 39458 40200 58005 333 10045 21052=
71143 16/// /0133 10030 20026 39736 40049 58043 60021 333 10058 20028
70016=
71201 36/// ///// 10094 333 10115 20058 70000=
71434 46/// /1006 10016 20016 30148 40215 56009 333 10045 20016=
71702 17/// /0113 10067 20061 40121 60041 7//4/ 333 10072 20063
70398 555 30130 4000/=
71732 36/// /1604 10022 21001 333 10159 21012 70000=
71629 36964 00000 11009 21013 39998 40233 58005 333 10153 21057=
71918 460// /3109 11172 39789 40218 51008 333 11098 21178 555 33430
40191=
71923 36/// /1612 11041 21042 39731 40177 57008 333 11041 21207=
71802 36/// ///// 10083 20082 40107 333 70012 555 30735 4002/=
40041=
71846 17/61 /0509 10058 20056 39817 40126 58024 60111 7//4/ 333
10100 20057 70124=
71952 46/// /0803 10019 20019 39316 40170 58010 333 10037 21043=
71967 36/// /2902 11126 39195 40194 53006 333 11072 21129 70000=
71194 17/// /0724 10093 20083 30109 40122 56025 69961 7//4/ 333
10095 20069 70089 555 30734 4013/=
71197 36464 80813 10099 20071 30081 40130 56014 333 10113 20079
70080 555 30936 40181=
40061=
71073 36/// /1701 11016 21016 39742 40164 51003 333 10021 21018
70000=
71075 36/// /1906 11003 21003 39564 40168 58004 333 10001 21031
70018=
71096 460// /0223 11049 39269 49987 53002 333 11037 21071 555 32032
40091=
71603 11266 80113 10069 20064 30035 40087 58004 69901 75152
887// 333 10108 20067 70102 90921 555 30325 40091=
71607 36/// /0109 10064 20044 30109 40141 58012 333 10064 20037
70012=
71609 11232 80120 10040 20021 39985 40119 58008 69901 76065 887//
333 10065 20039 79999 90973 555 30136 40202=
71610 36664 80000 11013 21030 39918 40215 58004 333 10099 21039
70005=
71621 32974 00103 11008 21020 30123 40230 56003 333 10146
21018 70000=
71623 31912 00902 10025 20023 39893 40231 54000 71011 333 10161 21019
70000=
71624 32969 10000 10051 20032 30021 40233 56003 80001 333
10145 20013 70000=
71625 36964 02502 11028 21040 30074 40236 50002 333 10153 21061
70010=
71627 36959 30000 10003 21003 30178 40223 56001 333 10098 21037
70000=
71628 32974 33404 10029 20007 30089 40230 50002 80001 333
10128 21012 70000=
71631 36/// /1503 10055 20017 39739 40237 58002 333 10153 21020
70000=
71632 36/64 /0000 21022 39989  56002 333 70000=
71633 32974 01406 10036 20005 39953 40224 57001 333 10157
21013 70000=
71700 11474 80212 10054 20038 30125 40150 57012 69901 70285 885//
333 10054 20035 70022 90922 555 30322 40100=
71705 11340 83619 10054 20054 30037 40124 56013 60021 76165
887// 333 10063 20046 70152 90983 555 32231 40171=
71706 11248 80317 10088 20080 30047 40107 56011 69901 75166 887//
333 10089 20076 70269 90983 555 30428 40101=
71714 36/// /3603 11004 21019 30133 40226 58004 333 10082 21025
70000=
71715 36/64 /0701 10016 20002 30039 40223 58005 333 10040 21008
70000=
71718 32583 12202 11009 21014 30151 40217 56009 81500 333 10044 21029
70000=
71719 36/// /0119 10046 20027 30156 40162 56015 333 10047 20030
70007 555 30334 40201=
71397 11474 80412 10077 20057 30070 40104 55010 69901 70288
886// 333 10094 20069 70068 90960 555 30322 40201=
71398 17/64 /0104 10094 20084 30046 40095 56009 69981 7//4/ 333
10103 20077 70148=
71400 36/64 /0305 10059 20040 40177 333 10069 20039 70007=
71410 17/64 /0415 10069 30093 40121 56011 60021 7//4/ 333 10077
20064 70244=
71411 17/56 /3612 10081 20070 30066 40076 69921 7//4/ 333 10107
20080=
71412 17/// /0819 10089 20070 30089 40102 56009 69921 7//4/ 333
10089 20080 70198=
71430 46/64 /0702 10020 20020 30128 40225 58005 333 10124 20017=
71431 36/// /0501 10030 21012 30136 40231 58004 333 10113 20030
70000=
71432 36/64 /2102 10067 20059 30137 40234 56002 333 10126 20061
70000=
71435 17/// /1705 10104 20104 39480 40059 60021 7//4/ 333 10105
20070 70140=
71436 36/64 /1603 10041 20009 39873 40231 56002 333 10153 21009
70000=
71441 16/// /0709 10097 20097 39632 49930 5//// 60211 333 10119 20080
70250 555 30629 40001=
71443 36/08 /0319 10004 21010 39699 40111 56032 333 10030 20000
70000=
71474 36011 81605 11003 21011 38975 40226 58006 333 10013 21028
70005=
71475 36/// /0803 10065 20060 30128 40222 50004 333 10082 20033
70000 555 31825 4000/=
71538 32874 11504 10092 20082 39984 40213 58004 81030 333
10160 20037 70000=
71600 17256 80719 10123 20113 30018 40024 58017 60081 7//4/ 333
10170 20123 70085 555 30629 40061=
71851 16/// /0213 10070 20068 39621 49947 5//// 60261 333 10079 20062
70304 555 30254 40031=
71873 36/64 /3008 11049 21074 39261 40221 58005 333 10060 21049
70000=
71875 369// 02808 11042 21058 38828 40233 58003 333 10050 21052
70000 555 32519 40070=
71043 11566 80000 11087 21103 30076 40172 52007 69921 77177 885//
333 11086 21165 47016 70002 90926=
71045 36/// /0000 11056 21067 39294 40164 51008 333 10023 21074
70000=
71050 36/64 /0000 11008 21019 39123 40209 55000 333 10036 21040
70000=
71066 31906 00000 11081 21086 39741 40167 50001 74441 333 11006 21081
70000=
71068 32574 12904 11019 21060 39487 40186 56003 81500 333 10051 21043
79999=
71069 36764 30000 11039 21093 39483 40193 56004 333 10057 21047
70000 555 33121 40200=
71076 46/// /2303 10016 21008 39767 40161 58001 333 10016 21020=
71077 36/64 /2202 11021 21023 39654 40187 58005 333 10023 21021
70004=
71078 11/04 91505 11010 21013 39752 40197 56011 69901 74952
333 10001 21013 79999 90927 555 19999 29999=
71079 11259 70610 11031 21041 39918 40199 57016 69901 77775 87700
333 10016 21044 42997 70002 90973 555 19999 29999=
71081 37448 83022 11160 21176 30119 40130 51017 745// 333 11034
21160 70020 555 33431 40161=
71082 36964 00000 11302 21350 30225 40268 56008 333 11273 21328
70000=
71083 32974 00000 11190 21221 30208 40247 57005 333 11135 21197 79999
555 19999 29999 33318 40161=
71090 17320 83413 11017 21020 39982 40016 53010 60021 7454/ 333
11016 21047 70045 555 31227 40091=
71091 460// /3115 11074 39838 40044 51018 333 11033 21076 555 31036
40072=
71092 46902 03409 11060 39368 40021 53012 333 11044 21089 555 31241
40093=
71093 460// /3216 11053 39512 40000 53004 333 11033 21081 555 33420
40061=
71094 460// /3214 11141 39074 49968 55000 333 11056 21145 555 31846
40143=
71095 36964 01202 11097 21146 30050 40122 51009 333 11037 21124
70025 555 30725 40191=
71101 17564 82002 10101 20094 30077 40085 51022 69951 7434/ 333
10106 20062 70020 555 31446 40003=
71104 32774 81404 10004 21019 39100 40222 58002 85501 333 10028 21040
70000=
71108 32874 80503 10079 20045 30153 40224 53005 8807/ 333 10118 20020
70000=
71109 11674 81216 10087 20057 30149 40176 50008 69901 76122 885//
333 10088 20072 70076 90921 555 31129 40231=
71261 46/// /1406 10061 20043 39962 40222 56001 333 10139 20008=
10143 21018 70000=
71265 36964 00000 10059 20051 30138 40232 56004 333 10120 20034
70000=
71450 36/// /3518 10009 20002 39436 40156 56009 333 10040 21029 70000
555 33525 40051=
71473 36/// /0506 10100 20078 30183 40213 50003 333 10114 20079
70000=
60285 32450 50000 10152 20142 40170 5//// 85500
333 20132 85616=
94120 46/// /3016 10317 20241 30038 40073=
94122 46/// /2708 10319 20289 30069 40077=
94150 46/// /3315 10330 20242 39995 40054=
94203 46/// /2712 10294 20198 30073 40083=
94207 35/// /2610 10266 30079 40090 57014=
94212 46/// /2804 10369 20103 39584 40046=
94216 46/// /0205 10398 20126 39996 40045=
94238 46/// /1404 10379 20040 39631 40045=
94268 46/// /2911 10317 20205 30044 40059=
94283 46/// /0312 10330 20232 30026 40036=
94287 46/// /3611 10287 20243 30045 40054=
94294 46/// /3616 10293 20236 30035 40045=
94296 35/// /3311 10267 30060 40070 57008=
89002 43/// /1030 11088 21111 39872 49925 57008=
94299 46/// /3208 10288 20238 30061 40071=
94300 46/// /2012 10232 20108 30109 40119=
94302 46/// /2316 10288 20084 30092 40098=
94312 46/// /3117 10276 20149 30067 40076=
94317 46/// /2710 10330 20056 39464 40036=
94319 46/// /3113 10351 20095 39722 40045=
94326 46/// /1004 10355 20057 39440 40043=
94332 46/// /2306 10354 21021 39671 40048=
94367 46/// /3524 10280 20237 39974 40011=
94374 46/// /1515 10203 20186 30019 40035=
94393 35/// /3618 10311 30048 40058 57016=
94394 35/// /0606 10205 30075 40083 57002=
94403 46/// /2111 10229 20092 30083 40124=
94429 46/// /2210 10267 20045 39612 40069=
94430 46/// /2509 10291 20024 39480 40054=
94462 46/// /3214 10365 20037 39484 40026=
94482 46/// /2413 10325 21041 30005 40059=
94510 46/// /2509 10308 20034 39681 40021=
94515 46/// /0907 10233 20135 39696 40038=
94552 46/// /0713 10180 20154 39606 40065=
94578 46/// /0906 10201 20160 30072 40083=
94584 46/// /1015 10207 20170 39966 40075=
94601 46/// /2208 10185 20103 30105 40122=
94610 46/// /2512 10220 20082 30091 40114=
94637 46/// /3006 10326 21015 39615 40033=
94638 46/// /1913 10192 20119 30067 40098=
94647 46/// /1212 10209 20123 39966 40085=
94651 46/// /1514 10234 20101 30015 40091=
94653 46/// /1916 10198 20084 30082 40100=
94659 46/// /2410 10246 20023 39883 40074=
94672 46/// /2409 10182 20108 30083 40088=
94693 46/// /2409 10220 20074 30007 40068=
94703 46/// /3408 10297 20117 39909 4////=
94729 46/// /0207 10190 20120 39224 40062=
94750 46/// /0610 10188 20142 39964 40093=
94767 46/// /0415 10200 20138 30082 40088=
94776 46/// /0914 10215 20145 30074 40084=
94791 46/// /0609 10214 20143 30079 40086=
94802 46/// /2210 10188 20070 30022 40103=
94804 46/// /2716 10155 20130 30045 40083=
94821 46/// /2710 10147 20102 39984 40066=
94842 46/// /3012 10158 20134 39951 40049=
94850 46/// /3515 10169 20117 39995 40040=
94865 46/// /3013 10209 20118 30026 40050=
94910 46/// /0911 10212 20144 39807 40054=
94926 46/// /0805 10173 20131 39415 40075=
94954 46/// /0110 10164 20122 39934 40044=
94956 46/// /0107 10188 20139 30004 40030=
94968 46/// /3607 10147 20127 39860 40071=
94983 46/// /0523 10150 20129 30046 40071=
94995 46/// /1406 10181 20124 30080 40088=
94996 46/// /3611 10205 20186 39870 49998=
95711 46/// /2809 10295 20048 39737 40031=
95719 46/// /3407 10268 20105 39715 40039=
96995 46/// /1009 10262 20226 39807 40101=
96996 41580 41212 10280 20226 30103 40107 58012 70200 82801=
94974 37/// /0212 10163 30005 40028 52001 7//44=
95288 35/// /3411 10269 30049 40064 57016=
95872 46/// /3014=
78397 32570 30203 10264 20226 30100 40116 81802 333 00000 10320
20250 59001 81822 83072=
85418 32560 40805 10157 20104 40159 58015 84500
333 56000 84630 =
85488 32962 01206 10118 20101 39985 40149 58024=
85574 32960 03503 10111 20087 39620 40183 57018=
85682 32660 32402 10108 20096 40185 58010 83500
333 56500 83633=
85743 32970 00000 10073 20065 40184 58015=
85930 31496 83640 10088 20073 40066 57008 71522 887//
333 56899 88715=
85934 32880 29903 10068 20049 40123 51002 82030
333 56060 82358=
85972 31596 82914 10076 20060 40087 52009 71555 887//
333 56799 88722=
91754 01370 70606 10250 20225 40101 53005 60011 70186 81804
333 81808 86080
555 10269 20229 60754=
78388 32570 41206 10270 20223 40123 83800 333 02000 10305 20233 59002
83820=
71490 36/// /1610 11072 21076 39842 40159 56011 333 11072 21239
70000=
86330 32997 81905 10181 20178 40064 58005 8807/=
86360 11597 82309 10188 20182 40078 56001 69901 70262 8457/=
86460 32997 82405 10186 20180 40062 58001 8807/=
86560 32397 81819 10171 20152 40090 52009 886//=
86580 11296 82111 10167 20161 40070 52009 6951 71022 8177/=
71107 36/// /2516 10101 20101 30000 40112 53019 333 10109 20083=
96315 35470 73208 10315 20244 40074 83848
333 83818 85080=
91631 31499 29901 10298 20247 4//// 71400 82200 333 565//=
91636 31499 71104 10285 20256 4//// 70122 82246 333 56299=
91648 31499 60803 10281 20238 40097 58008 70222 82200 333 562/9=
91643 31599 70605 10288 20256 40085 55005 70222 83208 333 561/9 83820
8
7
2
8
0
=
71140 11474 80427 10038 20014 39476 49967 55043 60221 70398 885//
333 10066 20026 70252 90923 555 30447 40003=
47101 32980 00902 10195 20032 30084 40173 58015=
47105 32665 53204 10153 20089 30162 40193 58004 85530=
47108 32968 02708 10182 20042 30079 40181=
47115 41562 70507 10125 20119 39910 40172 58002 72164 83510 333
92053=
47133 32965 03604 10195 20046 30095 40175 58009=
47138 41562 83608 10154 20112 30178 40182 50003 76066 8372/ 333
92043=
47159 42575 70711 10165 20128 30081 40162 50004 87500 333 92022=
47165 32963 00218 10169 20083 30133 40177 58003 333 92022=
47168 32575 60210 10173 20102 30086 40164 50003 8253/ 333 92022=
47184 42560 53605 10166 20099 30152 40179 58003 85500 333 92054=
47090 32662 50204 10141 20089 30174 40195 58006 82530=
47095 32975 03404 10188 20015 39998 40178 58011=
47100 32462 71107 10086 20061 39211 40191 57003 87500=
47106 32568 20211 10154 20088 30147 40191 50004 82501=
47112 32963 03210 10192 20061 30104 40184 58009 333 92011=
47114 32675 10201 10200 20031 39995 40168 58012 81500=
47119 32975 03205 10193 20009 30140 40180 58010=
47121 42670 01403 10190 20041 39891 40165 58012=
47129 32970 03210 10174 20069 30165 40195 58007=
47130 32570 63612 10151 20085 30128 40187 50002 85500 333 92033=
47131 32973 00206 10197 20023 30107 40174 58011=
47135 32668 41802 10178 20097 39888 40173 58007 84500=
47136 42665 31604 10160 20070 30010 40177 58006 82530=
47140 32962 03218 10173 20082 30142 40177 58009 333 92011=
47143 42562 71102 10172 20120 30110 40177 58002 87500=
47146 32968 03207 10205 20060 30110 40174 58009=
47152 41560 83603 10145 20112 30135 40175 50004 76066 8672/=
47155 32568 83408 10164 20107 30162 40167 50000 8352/ 333 92011=
47156 32665 60206 10191 20083 30087 40172 58004 86500=
47162 32670 73606 10154 20116 30128 40166 50003 87500 333 92011=
47170 32561 40209 10176 20087 30129 40169 50003 84500 333 92023=
47185 32565 60228 10158 20115 30078 40162 58005 86500 333 92057=
47189 42670 42305 10211 20147 30096 40156 58000 83530 333 92011=
47192 32680 63402 10187 20117 30143 40169 50004 83530=
36974 32998 02701 10077 21033 38040 48579 58008 333 21008=
36982 42999 20602 11038 21148 36540 47114 52010 80003 333
21113=
38345 31596 60000 10030 21008 38889 48579 54000 71042 86500
333 21011=
38353 42998 03502 10088 20027 40314 54000 333 20016=
26229 11997 81401 10054 20049 40051 56001 60022 70362 8805/ 333
20053=
26313 31396 82003 10069 20064 40046 54000 71011 886// 333 20060
88707=
26314 31414 81404 10075 20070 40045 53004 71011 886// 333 20059
88711=
26324 11/06 92104 10061 20061 40054 53002 69902 74784   333 20061=
26348 11398 82303 10083 20081 40049 53006 60182 76162 8802/   333
20073 88507=
26406 31332 81703 10076 20073 40047 53003 71011 886// 333 20061
88707=
26422 11/93 91802 10054 20053 40065 52007 60052 74784 333 20052=
26446 11395 82203 10085 20078 40060 53001 60192 76362 8802/   333
20083 88507=
26544 11459 82103 10083 20078 40066 53014 60162 76062 8872/   333
20083 86711=
11659 32681 31403 10031 20010 39485 40130 53003 82504
333 20022 31000 50092 70012 82633=
43013 55081 82614 83617 85333 90768 91135 91228 444   28///=
16622 31456 70000 10142 20128 30165 40170 53002 71022 87700 333
20138 30/// 50180 55000 83715 87625 90730 91105 555 10000
30210 20000 89075 99093 30000 10156 20158 30164 40172 50///
40000 47653 44210 50000 50134 70000 77Y// 7/Y//=
16682 31558 21504 10154 20150 30162 40181 53004 7100/
81101 333 20150 30/// 50120 55087 90730 91106 555
10000 30192 20000 89064 99094 30000 10156 20162 30178
40184 50198 60212 40000 47655 44220 50000 50152
70000 77Y// 7/Y//=
16716 31358 40000 10168 20158 30151 40168 52006 71011 84600 333 30164
30/// 55073 90730 91105 555 10000 30200 20000 89068 99094 400000
47645 44210 50000 50162 70000 77YI/ 7/YI/=
16734 32560 10505 10164 20154 30110 40173 53001 81200 20154
31/// 55083 90730 91108 555 10000 30190 20000 89068 99096
40000 47614 44200 50000 50158 70000 77/I/ 7/I//=
16754 32965 01705 10178 20124 30130 40177 53007 333 20170 30/// 50330
55081 90730 91108 555 10000 30220 20000 89049 99083 40000 47630 44210
50000 50148=
51468 16/// /2402 11111 29053 36540 60001
555 1/130 2//01 /////=
13160 31694 81601 10076 20064 30065 40174 51002 71022 885// 333
20069 31007 55010=
13272 11/03 92601 10096 20095 30037 40156 52004 69902 74764 333
20096 31008 55032 89/02=
13285 11697 82501 10118 20112 30071 40172 52008 69982 70262
885// 333 20115 31010 55048=
13289 11/91 90000 10085 20081 48/// 54000 60092 74764 333 20080
31008 55052=
13363 11/06 90000 10090 20081 48481 53004 69922 74544 333 20088
31006 55011=
13376 11596 81001 10131 20118 39903 40161 53009 60022 72162
885// 333 20130 31010 55039=
13388 11596 80000 10123 20120 39918 40160 53006 71062 885// 333
20120 31009 55044=
13462 11560 72702 10146 20139 30124 40167 52006 60012 87700 333
10135 31/// 55/// 82830 85633=
13489 11694 80000 10112 20094 39652 40163 57001 69952 71062
885// 333 20110 30009 55049=
47003 55053 83345 90768 91126 444   16//0=
43014 55058 87642 90768=
91339 32474 80403 10300 20255 30064 40070 56014 83202 333 561/9
83818 88075 555 90206=
15502 11596 80000 10124 20109 40146 54000 69902 76162 887// 333 20116
55063 555 30009 96010=
15525 31997 71401 10120 20077 40162 53013 70311 85038 333 20092 555
30009=
15535 31595 82302 10104 20077 40143 52010 71011 8457/ 333 20094 55082
555 30/// 88458=
15549 31598 60000 10115 20081 40158 53008 70311 86500 333 20115 555
30010=
15552 11996 53601 10112 20104 40143 57001 69922 74040 83049 222//
00148 316// 4//01 333 20100 55071 555 30006 92021 92425 96010=
15640 31998 70000 10103 20076 40161 58002 70311 82034 333 20094 55085
555 30003 95000=
15655 31993 00000 10094 20088 40160 53004 74600 222// 00183 309//
40701 333 20088 555 30/// 92022 92423=
15712 11696 80000 10132 20121 40167 53006 69902 72522 889// 333 20130
50102 55047 555 30010 95090=
15730 31698 60000 10100 20097 40165 53003 70311 83551 333 20085 55050
555 30003 95000=
26135 11296 81401 10066 20062 40054 57008 60032 76162 8872/   333
20058 88705   555 32004=
26554 11331 81905 10084 20078 40067 53005 60032 76362 8872/
333 20084 87709   555 90012=
26666 11220 81605 10072 20064 40105 53001 69902 75152 886//
333 20071 88706 91111   555 90013=
26850 11357 81803 10081 20077 40098 53012 60042 72162 885//   333
20073 88708   555 90014=
26863 11326 81606 10068 20064 40117 56004 69902 75152
886// 333 20067 88708 91110=
26941 11358 82903 10083 20074 40101 52016 60052 71062
887// 333 20082 88710 555 90011=
33008 12470 82503 10072 20059 40118 52017 60102 886//
333 20072 88710 555 90010=
33019 11456 83102 10089 20078 40111 53028 60022 71082
886// 333 20090 86712 555 90012=
33036 31456 72104 10088 20068 40116 57002 71022 875//   333 20065
87612   555 90011=
33041 31558 71603 10081 20065 40148 54000 71022 875//   333 20071
87620 91110   555 90012=
38613 41996 01801 10123 20071 40263 54000 333 20069-
33088 11595 82501 10098 20094 40120 52015 60022 78082 889// 333
20074=
33177 12566 82901 10082 20058 40130 52015 60032 889// 333 20081=
33246 31457 81503 10071 20064 40170 53002 71022 886// 333
20053 88714 555 31004 52004=
33261 11459 81602 10085 20068 40181 57002 69902 71052 886// 333 20065=
33275 31/93 91504 10052 20052 40199 57003 74542 333 20030 89/02=
33301 11395 82404 10100 20095 40125 52012 60042 76086 8672/
333 20089 86707=
33325 11496 81603 10096 20084 40133 53006 69902 71081
885// 333 20082 88614=
33377 11430 71402 10081 20070 40185 53002 69912 71042 87600 333
20066=
33415 11395 82303 10093 20085 40120 52012 60012 76186
8872/ 333 20090 87707=
33466 31459 81603 10076 20065 40164 53003 71022 885// 333
20070 86712 555 30004 52005=
33526 31556 63003 10073 20062 40142 52024 71022 84501 333 20058=
33562 31496 81706 10100 20081 40135 53001 71022 885// 333 20087 88613=
33614 31396 81202 10082 20074 40187 53001 71022 886// 333 20079=
33761 31/09 91606 10094 20094 40159 53002 74342 333 20090=
33889 31521 81404 10133 20124 40145 57002 71022 885// 333 20105=
33902 11/02 90902 10075 20075 40181 55003 69912 74544 333
20068=
33983 31/92 90000 10055 20055 40197 53004 74544 333 20039 555
30004 52003=
34523 32498 81004 10064 20057 40238 52001 886// 333 20044 88715=
26951 11332 81703 10085 20082 40103 53007 60022 76162 8802/   333
20077 88508   555 90014=
12295 11558 81902 10066 20060 39925 40110 52016 60062 71022 885//
333 10082 20064 31006 70162=
12185 11456 71704 10059 20056 39950 40085 52006 69922 71022 875//
333 10082 20054 31003 70010=
12195 11415 82104 10058 20052 39869 40096 52014 60042 71082 885//
333 10080 20058 31006 70133=
12595 06/// /9901 10065 20059 39869 40141 52016 60042
333 10203 20045 70043=
11032 21040 69925 70097 85/05 88/09=
41998 87623=
37549 42697 81003 10111 20095 40256 51003 8632/=
12272 31356 31602 10050 20041 39917 40085 52006 71011 82630
333 10086 20050 31002 79999=
12280 11440 82104 10065 20061 39931 40092 52011 60012 71011 885//
333 10083 20065 31005 70052=
50968 32970 02707 10119 21036 40149 57007 333 21065=
26645 11260 82702 10076 20071 40077 52018 60082 70262 886//   333
20074 88705   555 90011=
26659 11334 81804 10080 20074 40094 53004 69932 76162 8802/   333
20062 88508 91111   555 90011=
26763 31350 81907 10071 20062 40115 57003 71022 886//   333 20070
88709 91113   555 90013=
26832 11556 62602 10078 20065 40097 52018 60052 71086 83330   333
20077   555 52005 90013=
26887 32460 82308 10068 20050 40152 54000 886//   333 20065 88713
90011=
26961 32460 71504 10089 20070 40110 57002 875//   333 20073 87614
555 90012=
33027 11460 81902 10092 20084 40108 53006 69982 72582 889//   333
20070 87715   555 90013=
91527=
41240 32960 01405 10310 20197 30120 40123 333 20255 58006=
41244 36/// /0602 10305 20118 39790 40145
333 0E023 20204 58000=
41246 32560 21208 10300 20235 30129 40134 82500
333 20224 58013 82625=
41254 32965 01011 10198 21069 38065 48320 333 20094 58005=
41256 32965 00104 10319 20150 30119 40128
333 20251 58008=
41304 36/// /9902 10303 20077 39814 40134
333 0E019 20188 59000=
41312 36/// /1704 10286 20192 30088 40128
333 0E/// 20219 59013=
41314 32962 01006 10295 20095 39636 40153 333
20180 59008=
41316 32979 02203 10304 20137 30099 40125
333 20225 59014=
38149 42998 00104 10094 20021 40312 57004   333 20009=
38178 42998 03502 10065 20012 40298 52004   333 20008=
38262 32998 00703 10100 20034 40305 52001   333 21006=
38264 35998 00406 10079 20015 40308 52006   333 20012=
38396 42997 00805 10106 20032 40303 58001   333 20033=
38403 42997 00906 10096 21038 40299 58003   333 20013=
38413 42998 01004 10087 21014 40305 54000   333 20020=
38457 31996 00000 10137 20046 40269 52001 71000   333 20048=
38462 42999 00000 10117 21050 38846 48589 52009   333 20027=
38583 42997 00000 10094 20050 40283 54000   333 10020=
38611 41996 01201 10120 20060 40283 51001 71000   333 20053=
38618 32997 00701 10139 20041 40253 57005   333 20041=
38683 42997 03605 10134 20000 40259 52004   333 20045=
38696 32999 01405 10127 21009 40239 52004   333 20051=
38812 42997 02702 10153 20065 40243 52006   333 20051=
38927 32997 01903 10152 20058 40242 50009 33390   043=
11414 11570 69901 10050 20031 39377 42719 52004 69902 70361
84830
333 20045 31003 79999 81823 84650
555 387// 50084 60088 70093 80101=
11438 32675 33001 10025 20013 39703 40104 53002 82571
333 20015 31102 5///2 70000 82640
555 392//=
11502 31585 42402 10047 20022 39644 40100 52011 703// 81442
333 20043 31101 50042 79999 81630 83070 9513/
555 384// 50055 60068 70087 80102 90116=
11538 32882 52402 10045 20024 39512 40119 52004 85040
333 20036 31000 70000 85358
555 12103 386// 50070 60085 70103 80114=
11628 32965 61803 10056 20015 39482 40116 53007 86030
333 20042 31001 50072 70000 86360
555 375//=
11643 31460 69901 10036 20016 39146 42728 52008 702// 86500
333 20028 31000 50052 70000 86615
555 12207 386// 50066 60070 70074=
11683 32982 61805 10037 20004 39250 42740 53005 83072
333 20026 31000 50102 70008 83360 85070
555 379//=
11693 31203 83201 10019 20017 39648 40138 52006 74642 886//
333 20008 31102 50112 70012 88704
555 11604 398// 50060 60069 70092 80110 90121=
11698 31/02 99901 10010 20006 39723 40139 52006 747//
333 20004 31102 50062 70017 89/02
555 397// 50060 60081 70091 80113 90126=
11710 31900 09901 10002 20002 39511 40140 53007 746//
333 20000 31101 70010
555 300// 50057 60060 70088 80106=
91353 32574 60303 10300 20256 30074 40079 56003 83231 333
56119 70023 83819 555   90206=
91425 32474 82206 10283 20261 30077 40078 56007 882// 333
56599 70000 88818 555   90206=
91434 32474 81401 10300 20255 30084 40087 5//// 86230 333
5633/ 70000 86818 555   90206=
26825 11442 82203 10065 20061 40092 52010 60082 71062 886//   333
20060 88713=
60390 32970 10000 10074 20065 40167 56003 80002
333 00400 20068 81070 95900=
60490 32965 00000 10080 20071 40166 53002
333 00400 20074 95990=
60566 32965 00000 10125 20075 40201 53007
333 00900 20120=
60571 32962 00000 10100 20013 39256 48725 53002
333 0//00 95990=
60580 32960 00000 10140 20127 40176 52001
333 0//00 20139 =
60590 32965 00710 10170 20090 40173 53006
333 00900 20165=
60611 32965 00607 10150 20024 40155 53007
333 0//00 20140=
60670 32975 60000 10126 21047 39089 48539 52013 80004
333 01000 20115 86073 95900=
60680 32965 40610 10173 21121 38674 48538 53002 80002
333 00600 20110 84073 95900=
38392 32998 00905 10102 20017 40304 52004 333   20027=
38507 32998 10805 10122 20019 40234 53007 81031 333   20084=
38545 32998 00302 10112 20070 40272 52006 333   20024=
38687 32997 00202 10137 20017 40250 52005 333   20022=
38750 32597 52302 10201 20147 40218 53008 83501 333   20101=
38763 32998 00904 10110 21014 40241 52004 333   20065=
38880 32997 00302 10129 20027 40255 50002 333   20035=
38974 32998 00201 10142 20009 40247 53011 333   20059=
38895 32997 02101 10145 20006 40259 58003 333   20036=
38987 32996 00000 10127 21012 40240 58002 333   20029=
38886 32993 03501 10184 20071 40251 53010 333   20041=
38647 32998 01104 10111 21009 40243 51014 333   20082=
38799 32997 02001 10126 21017 40256 52009 333   21005=
38806 32997 00000 10144 20046 40242 52004 333   20013=
38915 32998 02702 10155 20034 40250 51006 333   20051=
40356 42960 01206 10130  20030 39196 48508 333 20080 59016
555 04410 50158=
40357 42962 00000 10140 20030 39539 40171 333 20093 59008=
40360 42960 03009 10124 20060 39591 40177 333 20088 59014=
40361 42960 00000 10170 20040 39405 40166 333 20126 59011=
40362 42962 01307 10166 20040 39653 40168 333 20115 59005=
40373 42960 00312 10202 20040 39741 40151 333 20136 58010=
40375 41959 00000 10122 20060 39286 40155 70500 333 20104 59024=
40394 42962 20000 10184 20010 39041 48526 80002 333 20100 59010
82070 555 04410 50150=
40400 42960 00000 10230 20190 30090 40118 333 20180 59013=
40405 42960 10713 10200 20010 39408 40132 81030 333 20150 59007
81360=
40416 42960 03620 10280 20180 30103 40122 333 20210 58009=
40420 42960 03612 10268 20180 39936 40138 333 20190 58004=
40430 42960 00410 10244 20070 39407 40109 333 20195 59024=
40438 42960 00510 10220 20040 39466 40156 333 20190 58012=
40439 42960 00000 10240 20200 30098 40110 333 20162 59014=
41024 42960 03406 10260 20220 30094 40113 333 20210 59013=
41030 42960 00000 10262 20200 39827 40097 333 20230 59012=
41036 42960 00000 10234 20110 38564 48532 333 20138 59016 555 04410
50098=
41055 42960 01803 10220 20030 38370 48515 333 20150 59014 555
04410 50080=
41084 42960 02110 10250 20000 38863 48522 333 20140 59160 555
50104=
41112 42960 00000 10180 21022 37956 48520 333 20074 59008 555
04410 50101=
41114 42960 00000 10178 20033 37992 48520 333 20102 59007 555
04410 50098=
41128 42960 00000 10250 20030 38816 48521 333
20130 59006 555 04410 50111=
41136 42960 00000 10240 20020 39326 40122 333 20150 59005=
41140 42660 10000 10311 20240 30102 40110 81100 333 20261 59013
81830=
16650 32356 71707 10174 20167 30162 40166 53007 87600 333 20170
30/// 55028 90708 555 10000 30174 20000 89073 99095 30000 20170
30170 40170 50174 60186 40000 47651 44210 50000 50170=
16732 31562 41404 10170 20115 30162 40174 54000 702// 82230 222//
00187 333 20150 30/// 55085 90730 91108 555 10000 30180 20000 89072
99090 40000 47650 44185 50000 50140=
16614 11460 80000 10096 20092 39408 40190 53005 69922  76162 8682/
333 20090 32/// 55012 82820 86630 88458 90730 91105=
16627 31450 70000 10166 20156 30158 40162 53002 71002 87500 333 20142
30/// 55002 90730 91107 555 10000 30170 20000 89070 99094 30000 10148
20154 30152 40116 50166 60190 40000 47654 44255 50000 50160 70000
77Y// 7/Y//=
16667 32960 00000 10158 20126 30177 40182 53004 333 20136 30/// 55063
90730 91104 555 10000 30158 20000 89061 99091 30000 1//// 20132 30144
4//// 5//// 6//// 40000 47664 44215 50000 50140=
16710 31958 00000 10042 21010 39410 40198 53002 71100 333 20040 31///
50070 55077 90730 91107 555 10000 30138 20000 89042 99068 30000 10120
20122 30132 40146 50154 60179 40000 47086 44200 50000 50022 70000
77Y// 7Y///=
16723 32965 00000 10114 20098 30167 40177 56010 333 20106 30/// 55081
90730 91104=
16746 32960 02904 10174 20124 39998 40178 53008 333 20156
30/// 55084 90730 91106 555 10000 30182 20000 89034 99089
40000 47530 44205 50000 50146=
48300 32965 00000 10285 20155 39829 40130
333 58018=
48327 32662 10111 10273 20119 39784 40138 81100
333 58019=
48331 32965 00000 10273 20133 39921 40151
333 58024=
48353 32960 00608 10265 20105 39857 40146
333 58024=
48356 31959 03302 10272 20106 39944 40140 70500
333 58018=
48381 32960 00406 10270 20143 39919 40142
333 58025=
48407 32560 30307 10278 20103 39986 40126 80001
333 58024=
48456 32560 33507 10273 20141 30112 40129 82836
333 58021=
48480 31556 70306 10280 20174 30101 40105 70522 86056
333 58019=
48551 01556 80308 10260 20229 30086 40094 60011 71066 84577
333 59001 69927 70266=
48565 32460 70000 10283 20230 30077 40081 82246
333 58006 70157=
48569 32460 83004 10305 20239 30040 40081 83876
333 58012 70192=
48583 31559 80000 10300 20251 30079 40085 71022 8482/
333 58017 70018=
48303 32560 00407 10270 20135 39710 40152
333 58015=
48328 32960 00603 10283 20156 39861 40136
333 58013=
48330 32960 00305 10279 20167 39956 40140
333 58019=
48354 32960 00104 10273 20107 39935 40137
333 58024=
48376 32562 10403 10284 20154 39999 40141 81100
333 58018=
48377 31956 00000 10280 20170 39971 40148 70500
333 58030=
48379 31958 03406 10276 20123 39989 40121 70500
333 58020=
48432 31957 10307 10266 20132 39964 40132 70500 80001
333 58022=
48462 32960 30602 10285 20158 30070 40125 80002
333 58020=
48477 31559 60308 10294 20176 30096 40110 70521 81855
333 58021=
48517 31556 80315 10280 20221 30093 40099 71022 83877
333 58012=
48567 32460 72504 10302 20298 30057 40075 83947
333 58006=
48352 32963 00303 10266 20096 39947 40146
333 58023=
48357 31958 00403 10278 20117 39989 40136 70500
333 58005=
48383 32964 00905 10287 20138 39974 40131
333 58018=
48403 32960 00406 10270 20105 39929 40139
333 58033=
48405 32960 00000 10270 20135 39971 40134
333 58020=
48425 31558 00107 10270 20141 30121 40132 70500
333 58010=
48430 31958 20410 10291 20131 30111 40119 70500 80001
333 58017=
48550 01430 80408 10247 20237 30079 40085 60281 76166 8482/
333 58022 60177 70805=
48568 32462 82605 10293 20233 30077 40084 82277
333 58011 70116 =
48315 31958 00705 10268 20215 39884 40153 70500
333 58024=
48561 32562 80000 10291 20239 30079 40083 8487/
333 58004 70105=
48564 31559 60305 10290 20224 30080 40085 71022 83246
333 58008 70363=
48570 32560 60000 10317 20235 30074 40081 83546
333 58006 70124=
48580 31556 80000 10315 20231 30069 40077 70522 83247
333 58007=
54587 32975 02705 10179
20101 40163 57011 333// 20099=
91367 11474 81404 10267 20236 30098 40101 60021 70282
84277 333 56399 84815 84360 86280 70002 555// 90206=
91371 11474 60803 10256 20238 60061 70181 84278 333
56299 84815 84360 70022 555// 90206=
48615 31464 81108 10294 20249 30087 40093 71522 8687/ 333 85818
88468=
48620 31466 72403 10292 20244 30079 40088 72992 83948 333 81916
84364 87276=
48647 31465 73011 10325 20232 30065 40089 70522 82242 333 82818
87078=
48657 31468 80104 10280 20249 30075 40093 70522 84247 333 84818
88276=
48665 31472 72503 10328 20220 30076 40086 70522 82942 333 81917
86078=
96413 11458 70106 10280 20251 30057 40083 69901 72582 84933 333
81915 84820 85365=
96421 11365 72714 10281 20224 30048 40083 69901 72582 8527/ 333
81706 85818 87365=
96441 32480 73208 10312 20249 30074 40079 83941 333 81915 83816
85080=
96449 32480 72907 10311 20246 30054 40074 83241 333 83814 86080=
96465 32480 73303 10305 20249 30039 40073 81842 333 81814 87080=
96471 11470 80000 10272 20246 30079 40082 60031 76062 84948 333
82812 82916 83635 87468=
96481 31460 61211 10310 20251 30042 40062 71522 83942 333 81916
86078=
96491 31467 70209 10291 20259 30051 40064 71522 84942 333 83816
81917 87078=
91366 11348 81914 10253 20253 30080 40089 53008 60191 76386 8802/
333 56/29 70244 555 90206=
16059 31858 53003 10093 20060 39786 40133 51000 71011 85070
333 20072 85357=
16080 32560 60000 10094 20075 39996 40121 50002 86500
333 20072 30/// 86630=
16153 32898 42622 10126 20043 39853 40115 54000 83058 90545 333
20122 30/// 55092 21948 83357 555 0314/=
16045 32562 20106 10082 20061 30069 40134 53007 81230 90545 333
20080 55/// 21031 81830=
16105 31450 43603 10091 20083 30130 40136 52004 71011 83200
333 20076 83820=
16191 32980 02202 10083 20069 30129 40147 51001
333 20071=
16158 32570 61004 10136 20094 30131 40138 58007 83170 90545 333
20136 30/// 55059 21103 55300 83830 83357=
16242 32566 30702 10100 20090 30156 40159 52005 83100
333 20098 83820 555 0////=
16261 32570 20000 10120 20097 30077 40149 54001 81101 90545 333
20098 30/// 55012 20577 55300 81830 95000=
16320 32560 41703 10136 20078 30145 40158 53008 81530 90545 333
20134 30012 55053 2//// 55300 81630 84358 555 0////=
16420 32597 63303 10180 20125 30101 40165 58009 82274 90545 333
20180 30/// 55071 21194 55300 82820 83360 555 0100/=
16429 32265 30000 10132 20126 30169 40181 55000 81630 90545 333
20126 30/// 55025 2//// 55300 81705 83357=
16470 13580 30000 10156 20134 39941 40175 50000 60082 83500 90545
333 20148 31/// 55070 21259 55300 22001 83625 95000=
16410 33965 00000 10152 20118 30033 40173 56004 90545 333 20150
30///=
16560 32565 13405 10100 20079 30162 40169 56003 81200 90545 333
20096 30009 55085 21221 81820=
16066 11560 80001 10085 20066 39872 40122
52002 69922 ///// 84170 333 84830 85357 /////=
16084 32780 30000 10058 20057 39958 40127 53005 83030 90545 333
20058 30/// 55092 21030 83356=
16120 32580 22214 10170 20108 30118 40121 52005 82100
333 20161 82830 97084 555 0414/=
16090 32770 53602 10086 20084 30041 40124 53001 85500 90545 333
20064 30/// 55092 21043 85650=
16170 32560 61004 10128 20108 30091 40136 58001 86400
333 20112 30/// 82828 86630=
16206 32570 30510 10084 20062 30138 40147 57002 81240 90545 333
20084 30/// 81820=
16289 11562 62702 10152 20140 30082 40167 53004 69902 72160 86800
333 20119 32/// 83825 86650=
16405 32560 21506 10156 20127 30132 40172 58003 82100
333 20154 82825 95400=
16460 32560 53603 10158 20143 30146 40166 55007 82150
333 20152 82820 84359 95000=
16362 12560 40802 10149 20116 30151 40169 51003 69922 84200
333 20137 84820=
28679 11498 82702 11021 21039 40230 52015 60020 70272 886//   333
21073=
28766 12997 82701 10016 21003 40221 52009 60040 8807/   333 21058=
28966 11597 82502 10012 21017 40250 52014 69900 76076 885//   333
21078=
35108 31/92 91903 10028 20025 40308 52006 74544   333 20004=
35302 31/92 91802 10034 20032 40321 57005 75054   333 20026=
35406 31/92 90000 10035 20014 40346 58002 74742   333 20041=
35796 32999 22501 10012 21063 40365 54000 80002 333 21063=
36428 12698 73204 11048 21088 40348 52021 69970 83954   333 21051
95000=
36535 11999 32706 11075 21110 40362 52013 69930 70188 83030   333
21075=
36639 12999 00000 11032 21083 40360 52012 60010   333 21061=
36821 32898 30501 10041 21050 40348 58003 81082 333 21020=
36859 32599 82803 10078 21005 40312 52006 8251/   333 20031=
36864 32698 41101 10074 20006 40320 52003 82101   333 20004=
36870 32997 60101 10762 20015 40311 58001 83032 333 20020=
38222 32997 00000 10092 20023 40319 54000   333 20011=
38341 32998 23501 10072 20029 40314 54000 80002   333 20003=
38343 32998 00000 10068 20013 40307 58001   333 20011=
20107 30007 55093 70000 85633 86359=
60355 12660 21806 10130 20115 40165 57003 60034 82200
333 0//19 20125  82833 95990=
60445 32960 00000 10070 20042 39000 48511 50000
333 00100 20052 95900=
60511 32970 00000 10063 20048 39057 48498 56003 333 00200
20050 95900=
60535 31970 02404 10040 20030 38844 48509 56001 700//
333 00300 20038 95900=
60555 32965 00000 10116 20097 40188 53002
333 00800 20116 =
60559 32960 00000 10138 20110 40178 55001
333 0//00 20138=
60607 32960 00308 10150 20032 40160 53002
333 20144 =
60620 32965 00704 10126 20031 40139 53005
333 0//00 20119=
16008 32560 60000 11020 21038 38469 48432 56001 86500 90545 333
21042 30/// 86630=
16020 32680 70000 10048 20039 39863 40158 52007 82550
333 20030 82645 85358=
16040 31356 80000 10048 20046 39230 42760 53007 710// 885// 90545
333 20036 31/// 88608=
16110 32598 31004 10124 20081 30104 40129 53006 83100 90545 333
20124 30/// 55059 20950 83830 555 0100/=
16149 32482 21905 10110 20089 30123 40139 52005 82200 90545 333
20086 30/// 82815=
16219 31/00 92113 10014 20004 38102 48488 58001 74544 90545 333
20006 31/// 55000 20167 89/00 95090 95190=
16280 33497 62315 10170 20131 39935 40153 51001 86900 90545 333
20168 30/// 55077 20780 84815 82920 555 0425/=
16230 32980 02303 10082 20071 30141 40154 53006
333 20073=
16252 32970 02310 10098 20069 39230 42789 53001 90545 333 20098
30/// 55060 20708=
16270 32960 22306 10112 20071 30108 40160 52007 82040
333 20094 82360=
16300 33565 22308 10104 20046 39200 42795 5//// 82500 90545 333
20096 30/// 82620=
16325 32697 43008 10128 20111 30131 40145 53001 82531 90545 333
20128 30/// 82640 98068 555 0217/=
16360 32497 53508 10170 20131 30025 40158 52007 81530 90545 333
20168 30/// 55054 2//// 81615 85357 555 0////=
16400 33597 33004 10158 20111 39891 40177 56001 81140 90545 333
20156 30/// 55044 2//// 55300 22/// 81820 83360 555 0100/=
16453 32998 50303 10182 20098 30098 40175 55008 83051 90545 333
20178 30/// 55074 2//// 55300 83359 98088 555 0100/=
16480 32997 60503 10184 20159 30105 40165 58005 84072 90545 333
20180 30/// 55090 21023 55300 84359 555 0200/=
16520 11560 79910 10148 20133 30125 40153 56006 60062 76061 87700
333 20091 87820=
16539 32898 21606 10134 20118 30050 40164 56002 82030 90545 333
20134 30/// 82357 555 0////=
16550 32998 02307 10152 20108 39980 40159 56006 90545 333 20136
30/// 55/// 21322 555 0200/=
47401 42/65 31011 10076 20025 30211 40225 55001 83200=
47412 42/65 71202 10110 20053 30169 40200 55003 8707/=
47420 42/65 81104 10077 20000 30179 40227 52004 8327/=
47426 42/70 80809 10099 20032 30159 40204 55001 8127/=
47582 41/50 81204 10123 20110 30128 40153 58008 76166 8177/=
47590 41/50 83410 10119 20106 30113 40165 53009 75866 886//=
47600 41357 80313 10162 20146 30122 40139 53013 76166 8672/=
47648 41/50 80219 10174 20164 30082 40115 55001 76166 887//=
47662 41340 80109 10154 20134 30079 40122 55003 76166 877//=
47678 42365 72316 10249 20237 30027 40119 55005 872//=
47740 41465 70715 10169 20147 30109 40146 53015 78082 872//=
47778 41/58 82217 10258 20237 39989 40074 56013 71082 882//=
47807 41/56 83615 10188 20171 30111 40128 53012 78082 882//=
47827 41482 73111 10251 20199 30044 40079 55000 70282 8327/=
47843 41458 83615 10180 20158 30102 40133 53003 78081 882//=
47898 41/75 72705 10243 20208 30038 40075 55003 70282 872//=
47909 41/65 73607 10248 20194 30109 40117 53002 72582 8623/=
47918 41/70 80212 10237 20190 30133 40141 55010 78082 8787/=
47936 41/80 73616 10249 20200 30069 40130 56005 72582 8623/=
47945 41/65 41909 10294 20260 30099 40122 55007 70281 84201=
47971 41/82 31307 10280 20236 30157 40166 55006 70281 83200=
47991 42/82 70806 10280 20222 30163 40173 56006 81202=
47407 42/60 71204 10091 20017 30067 40209 55005 8557/=
47409 42/70 70905 10073 21004 30178 40231 53002 85032=
47418 42/60 80707 10088 21005 30180 40228 56002 8807/=
47421 42/65 41507 10121 20074 30140 40186 58003 82230=
47430 41/60 81012 10108 20094 30133 40186 54000 78022 882//=
47570 41/30 83403 10126 20113 39889 40142 53006 76362 8772/=
47575 41/60 80505 10109 20095 30168 40172 58004 76166 8152/=
47585 41359 80608 10112 20100 30131 40187 55000 76166 887//=
47598 41/30 80108 10146 20131 30127 40133 53007 76166 8772/=
47602 41/60 80808 10152 20137 30101 40121 56009 76166 8672/=
47605 41/50 80812 10160 20147 30085 40124 51015 76166 8672/=
47618 41/30 83104 10135 20126 39411 40114 53005 78122 882//=
47624 41220 83204 10149 20141 39991 40125 55002 76362 887//=
47636 41/58 81802 10210 20198 30021 40085 53008 78022 8787/=
47655 41/40 82213 10242 20221 30041 40094 55007 71082 882//=
47663 41/58 70103 10252 20238 30031 40062 55007 78082 872//=
47675 41465 80405 10177 20166 30014 40107 55009 78062 882//=
47741 41480 80611 10188 20149 30110 40136 53020 72582 882//=
47746 41575 70207 10184 20141 30112 40130 53008 70282 872//=
47750 41365 70405 10178 20154 30101 40127 53011 72562 872//=
47755 41475 70519 10195 20158 30095 40119 53008 70282 872//=
47772 41/60 83402 10186 20164 30010 40106 51044 78098 882//=
47800 41465 83409 10175 20134 30130 40152 53010 78086 8527/=
47815 41/75 73409 10219 20164 30090 40105 52003 70282 8117/=
47817 42/82 63613 10225 20163 30069 40110 53003 86200=
47830 41/60 80412 10228 20194 30058 40075 53006 78022 8727/=
47837 42/80 72712 10245 20214 30060 40081 53002 87230=
47887 41560 72803 10205 20171 30061 40100 55000 78082 872//=
47891 41/60 83202 10195 20162 30093 40105 53005 72582 8627/=
47899 41/58 82518 10228 20225 39862 40074 53011 78082 8427/=
47927 41/70 70112 10241 20194 30091 40138 56008 78082 8523/=
91413 32469 61208 10307 20251 30064 40083 56010 81132 333 56222
70051 555 90206=
33711 31/03 91203 10062 20062 40184 57004 74742 333 20060=
33345 31396 81402 10083 20070 40156 56001 71022 886// 333 20066 88708=
33135 31496 81405 10071 20058 40157 54000 71011 885// 333 20058 88613=
34504 31/92 91103 10056 20056 40200 530002 74544 333 20048 555 30001 52101=
33587 31496 81403 10091 20077 40159 57003 71022 886// 333 20079 88712=
33924 31496 72102 10101 20093 40188 57001 71011 81608 333 20038 555
52000=
30372 41999 70000 11004 21063 40100 53005 70271 82031=
30433 42699 41602 10008 21082 40158 52007 82730=
30554 42698 63203 11020 21095 40107 52002 86500=
30635 42599 32701 10020 21048 40151 54000 82932=
30673 41920 83303 11023 21029 40086 54000 77377 8802/=
30692 42999 80504 11004 21088 40079 57024 8802/=
30758 42999 13204 10024 21100 40121 54000 81070=
30802 42999 72101 11032 21125 38605 48406 57015 8807/=
30823 42698 50801 10018 21076 40151 57012 81931=
30879 41597 82704 11002 21014 40082 52017 78582 889//=
30935 42999 60000 10026 21068 40153 58014 82032=
30965 42699 22908 10029 21075 40119 52008 81102=
31300 42999 80302 10029 21068 40103 57017 85042=
31369 42698 50000 11006 21074 40242 57006 81502=
31416 42999 80301 11026 21067 40226 56008 8803/=
31484 42699 80000 10011 21085 40197 57005 86531=
31510 429// 81203 10060 21053 40066 57016 8807/=
31735 42997 70803 10082 21043 40175 57021 80001=
34415 32663 71901 10074 20065 40224 57003 87500 333 20023=
33429 11295 81605 10091 20086 40134 52011 69952 72165 886// 333 20089 88705=
34712 31/03 90907 10076 20076 40207 53004 74740 333 20075=
33990 32570 73401 10114 20088 40197 53005 87500 333 20101=
40100 32560 10903 10209 20065 40179 53009 81200 906//
333 20170 30/// 50474 55080 21171 81826 92427=
40103 32560 10000 10173 20138 40184 52005 81100
333 20128 30/// 50304 21386 81824 555 10241=
40155 32960 00000 10180 20127 30154 40164 53004 333 20136=
40180 31559 61204 10176 20125 30124 40172 52009 71021 81130 333 20148=
40199 32970 00309 10196 20113 30163 40166 52007 222// 00241 333 20162 50571
55098=
59995 32480 43611 10278 20219 30080 40088 57017 84200 333// 10256 66660 28304 13
62002 02064 99416 70200 46/// /3120 10159 20101 40149 52008
22200 00179 10906 70030=
81100
22223 00200 20201 80126=
41598 42705 10290 20240 40077 57018 70200 841//
22273 06298 10902 20501 327// 41002=
41697 31825 10190 20173 40213 56020 70111 83464
22263 00/// 20604 318// 4//// 80180=
22212 00276 2//// 309// 40602 80221=
15444 18002 19006 22055 23107 36061 50057 51000 52000 70073 72358
73127 74499 76906 07190 11063 12317 13409 14629 15443 18000 19004
22055 23108 35053 36062 50057 52000 53000 70076 71966 72353 73126
74500 75103 76960 77001=
62103 02064 99499 70029 46/95 /1838 10119 20104 49871 57062 22200
00137 10703 70018 555 1//47 05111 07176 10188 11232 12419 13437
14885 15431 17017 18007 19062 35067 36068 70001 72844 73147 74019
75426 76401 80100 05112 07174 10173 11236 12420 13437 14916 15431
17017 18007 19061 35065 36068 70001 72844 73147 74019 75425 76401
80148=
62301 02063 99523 70045 46/// /1517 10101 20080 49831 22200 00125
10402=
53578 70001 71999 72827 73126 74012 75463 76900 80109 05392 07287
10135 11208 12443 13457 14816 15484 18003 19011 22055 23030 35064
36146 50045 51145 52004 53578 70001 71999 72827 73127 74012 75462
76900 80072=
80407 32460 80202 10253 20236 30014 40089 889// 333 30///
569// 59001 87816 81916 1008=
80413 11458 40702 10217 20216 39594 40075 60181 70299 8255/
333 32/// 5699/ 59003 82616 1010=
80419 32460 11801 10250 20228 30054 40063 81500 333 30///
56900 59006 81610 1006=
80421 32460 21006 10262 20258 30078 40100 82800 333 30///
56200 59012 82813 1010=
80428 32960 00000 10244 20219 39881 40062 333 30/// 59012
1010=
80435 32460 20202 10255 20237 30018 40093 82500 333 30///
56900 59008 82813 1009=
80438 11320 80702 10175 20172 38515 48512 60071 70298 889//
333 31/// 569// 58001 84707 84610 1019=
80444 32360 60901 10252 20244 30046 40097 865// 333 30///
562// 58002 86610 1008=
80447 32560 80905 10262 20179 39671 40088 8352/ 333 30///
5699/ 58004 83620 85459 1014=
80457 32460 31601 10240 2//// 30009 4//// 83500 333 30///
56900 59009 83610 1009=
80420 32960 01601 10250 20236 30073 40079 333 30/// 59005
1009=
80425 11458 83502 10236 20236 30066 40097 60071 79599 8292/
333 32/// 5699/ 59005 82613 87460 81916 1009=
80427 32960 03401 10243 20242 39848 40096 333 30/// 59006
1011=
80475 32560 30000 10204 20204 39737 40102 83500 333 30///
56900 59029 83620 1011=
83611 22264 00260 2//// 3//// 4//// 5//// 6//// 80180 ICE /////=
80001 22234 00189 20101 32700 41003 50000 80129= BBXX=
48820 32998 03601 10250 20090 30167 40175 57035 333 58005=
48826 32997 03202 10261 20129 30033 40163 56036 333 58009=
48839 32998 00509 10211 20084 30105 40171 57025 222// 2//03
333 58014=
48845 32798 70504 10254 20122 30162 40169 57033 81508 333
58005 81697 87299=
48848 32570 53606 10242 20132 30161 40169 58024 85200 333
58011 85895=
48855 32570 73405 10260 20136 30142 40150 57023 83208 333
58009 83895 87299=
48870 32498 69903 10278 20162 30126 40133 58028 83108 333
58021 83894 83299=
48877 32598 59905 10278 20175 30115 40120 58008 82801 333
58013 81895=
48887 32770 61403 10299 20202 30091 40097 57028 8254/ 333
58008 82697 84399=
48900 32497 42702 10288 20233 30085 40095 57030 83201 333
58007 83894 84099=
48914 32598 70904 10296 20225 30097 40099 57023 83208 333
58008 83895 87299=
48917 32598 80503 10281 20184 30086 40091 57028 83107 222//
00297 2//00 333 58007 83895 88299=
48918 32470 70503 10278 20220 30085 40096 58023 83248 222//
00289 2//01 333 58007 81894 86299=
48920 32598 60211 10281 20244 30081 40081 57020 83208 222//
00296 20403 333 59002 83895 85299=
48803 31960 00000 10255 20107 30062 40174 57038 70241 333
59002=
48806 32970 02701 10236 20086 39401 40161 57028 333 58002=
48808 31970 01401 10247 20080 39886 40167 57010 70240 333
58000=
48823 32998 03404 10246 20078 30162 40165 57035 333 58004=
48830 32970 00502 10228 20058 39869 40174 57031 333 58010=
48840 32998 01802 10246 20115 30167 40173 57027 333 58008=
48852 32570 73603 10250 20147 30147 40157 57025 86208 333
58004 86895 87299=
48916 11598 60507 10271 20239 30046 40092 57028 60011 70382
869// 333 58002 85895 82995=
48802 32960 01803 10178 20094 38460 57021 333 58000=
48810 31970 00501 10259 20115 39963 40165 57032 70241 333
58000=
48831 32970 03202 10253 20099 30128 40165 57035 333 58004=
48838 32998 01802 10244 20078 30162 40168 57032 333 58010=
48846 32598 70503 10246 20145 30162 40165 57034 878// 333
58007 82895 86697=
48863 32598 73605 10263 20164 30133 40142 57024 83808 333
58012 82895=
48866 32598 20202 10247 20160 39256 40124 57023 82200 333
58013 82895=
48875 32570 50504 10244 20157 39588 40121 57025 85200 333
58019 85895=
48907 32598 50503 10284 20222 30097 40099 57024 83802 333
58008 82895=
55228 32980 02502 10067 21170 36087 57001 333 05101 21084=
55248 32780 12910 10064 21398 35902 57014 81100 333 05203
21137=
55437 32980 02003 10082 21103 36405 57023 333 00051 21041=
10402=
63980 31480 31215 10292 20224 40111 72581 83800
333 20255 50520 55105 59016 83818 94313 91127=
60351 12565 10000 10117 20105 40165 56008 60084 81100
333 00759 20099 81823 95900=
60430 11965 12803 10110 20067 40175 56004 69914 700// 80001
333 00619 20100 81073 95900=
60467 31965 00000 10072 20047 40172 52011 700//
333 00400 20071 95900=
60468 32960 02006 10010 21004 39235 48501 58000
333 00200 20000 95900=
60518 31960 00000 10141 20121 40153 56003 700// 222// 20000
333 20141 91806 95990=
60581 32960 00000 10170 20135 40178 53003
333 0//00 20164=
71601 11256 80112 10094 20090 30006 40068 56012 69901 75122
887// 333 10113 20085 70068 90962 555 30322 40070=
91583 32675 12406 10264 20163 40080 53007 81200
333 81840
555 10302 20212=
91587 36/// /3004 10275 20196 30031 40080 53006
333 10296 20218 55/// 70002=
64504 11360 8//// 10248 20244 30095 40110 69924 72052 889//
333 02211 20245 50144 55/// 59012 86608 82910 88625 94959 95834
95838=
64507 32358 8//// 10223 20223 3//// 40/// 885//
333 0//00 20195 50114 55/// 5//// 88703=
45011 42960 03614 10207 20080 40171 57019 333 58034=
91577 32581 42410 10255 20172 40092 53004 84200
333 56600 84830
555 10274 20228=
91582 23570 13108 10262 20203 40078 53005 81200
333 56700 81826
555 10291 20210 69924=
61990 11470 60710 10251 20199 40165 60044 71522 86802
333 20202 59029 50170 94308=
61995 32575 50906 10228 20181 39769 85802
333 20176 59020 50500 94309=
61988 11475 40914 10253 20174 40155 60014 70282 84800
333 20210 59026=
61986 11475 50917 10271 20220 40137 60014 70182 85800
333 20227 59021 94310=
61974 32580 41204 10290 20214 40110 84800
333 20207 59021 94314=
91843 31598 31306 10223 20180 40179 52015 70122 83100
333 563// 83825=
68906 32498 52410 10111 20090 30173 40239 52005 85500
333 20106 91013 555 10168 91023=
71878 32974 00000 11079 21097 39137 40226 58002 333 10069 21074 79999
=
78970 11580 50707 10256 20245 30072 40097 60021 70282 83802
333 01209 10329 20241 59004 82820 90934=
78962 11465 71007 10257 20229 30092 40100 69911 78082 86832
333 02299 10310 20237 59005 82815 85630 86078 90914=
61970 36/// /2104 10286 20223 30127 40138
333 20241 55117 59021=
61972 32570 50104 10256 20208 40150 83232
333 01900 20201 55049 59023 83823 92418=
61980 11565 41114 10254 20168 40165 69944 71581 83802
333 01916 20196 50624 55083 59022 83820 92437=
67005 11470 83410 10245 20229 40140 60434 76086 8387/
333 02255 20225 55075 59018 81816 83650 87359=
61998 11458 72419 10030 21019 39885 49920 58017 69904 71587 873//
333 10042 21008 30101 55010 59085 79999 83915 85816 91139 93101=
89022 42/99 31810 11210 21243 30009 40050 51010
333 55213=
71707 11132 80310 10085 20067 30025 40101 57015 60271 78085 887//
333 10091 20079 70966 90983 555 30520 40110=
83208 31960 30207 10210 20210 39396 40070 7101/ 83030 333
59018=
91592 21580 62716 10234 20178 40078 53008 69961 71586 86800
333 56600 69947 83821 85656
555 10262 20212 60054=
83768 32970 01104 10210 20157 39463 40097 58005=
83840 31460 50611 10154 20135 39120 40117 50012 71022
85500=
83971 32670 81507 10203 20191 30059 40059 57011 81537=
83612 32970 40204 10242 20211 39446 40055 56019 80001=
83722 31964 00910 10198 20178 39408 40101 53004 71000=
83780 31465 31203 10180 20151 39240 40121 57009
71011 83500=
83649 21570 50000 10212 20198 40146 56016 70251 82530 333
69911=
83349 21456 62004 10240 20228 40117 76062 84230 333
59020 60021=
82579 32970 03005 10262 20209 40070 333 58000=
82599 21470 61203 10241 20239 40109 70261 84231 333 59002 69981=
82899 32570 41208 10264 20227 40110 84100 333 59005=
82993 32570 70000 10236 20233 40108 85230 333 59005=
82193 32970 00602 10246 20244 40082 333 58001=
82022 32970 51204 10276 20234 40074 80001 333 59007=
82332 32970 50000 10272 20243 40082 80001 333 59003=
82917 32970 43202 10232 20230 40069 84030 333 58050=
71051 46/// /3507 11170 30025 40137 51006 333 11120 21171 555 31219
40130=
68994 11294 80000 10058 20049  40271 52003 69904 75024 885// 222//
00078 20000 300// 40000 333 20038 91006 555 10075 20000 91026=
89050 41360 80312 11017 21032 40100 52004 71022 886// 333
88707=
89512 32998 71624 11084 21196 49966 58006 87030 333 21122=
89592 41896 71042 11102 21112 49802 52003 73831 8701/=
89606 41994 02216 11481 21540 36137 47867 52006 73630 333
96110 96510=
58011 85895=
58009 83895 87299=
58021 83894 83299=
58013 81895=
58008 82697 84399=
58007 83894 84099=
58004 86895 87299=
58012 82895=
91945 36/// /0708 10248 20225 30158 40163 51013 333 55041 555
1//14 59004=
91650 31599 20000 10279 2025/ 40103 53001 70121 81831
333 56999 81822=
91659 11599 61303 10262 2024/ 40110 53010 60111 70182 868//
333 563// 83824 84650=
91660 36/// /0514 10264 20263 40105=
91670 36/// /0706 10268 20250 40104=
91680 31699 23209 10285 20219 40103 53007 70210 82831
333 56999 82830=
91683 31599 70205 10267 20231 40118 53010 70222 878//
333 568// 84823 85650=
91691 36/// /0603 10262 20237 40129=
91693 31599 20000 10276 2023/ 40118 53008 70100 82100
333 569// 81827=
91697 36/// /0506 10253 20233 40120=
91699 36/// /0010 10247 20223 40134=
16061 32260 70604 10070 20070 39283 42739 56002 87500 90545 333
20070 30/// 55082 2//// 87605=
16076 32770 60204 10085 20047 39846 40129 50002 83160
333 20072 83850 85357=
16114 32862 52505 10094 20070 39460 42745 54003 85051 90545 333
20090 30/// 83357=
16124 11/00 92426 10062 20062 38917 48431 58006 69962 747// 90545
333 20060 32/// 89/00=
16138 31856 30602 10080 20075 30119 40130 54000 710// 83030 90545
333 20077 31/// 83357=
16021 31263 70000 11028 21053 37918 48442 54000 7284/ 86805 90545
333 21032 31/// 83806=
16022 31/08 72313 11024 21024 37805 48448 56002 74240 82248 90545
333 21030 47011 55087 21066 82356 92832 444 28238=
16033 31556 80000 10030 20024 38749 48459 58002 71022 885// 90545
333 20030 30/// 55/// 20597 88620=
16088 32660 70608 10101 20062 30012 40129 53004 83570 90545 333
20080 30/// 83637 84357=
16094 31556 80000 10078 20074 30064 40129 51008 710// 8557/ 90545
333 20060 32/// 85625 84357=
16098 31850 60000 10077 20066 30082 40134 51005 71011 86050 90545
333 20063 86358=
16108 32563 50503 10099 20088 30110 40131 52005 84830
333 20091 84832 83357=
16140 32970 41502 10100 20074 30079 40129 53001 84070
333 20083 31/// 84360=
16146 32998 62004 10094 20087 30123 40130 51002 86081 90545 333
20088 30/// 83359 555 0100/=
16179 33470 51603 10110 20088 39470 42769 54000 83270 90545 333
20100 30/// 83818=
28978 11497 82805 11005 21017 40251 53006 60020 70273 885//   333
88617=
35173 31996 82708 11005 21046 40275 53002 70272 8802/   333 21096=
38565 32998 00000 10121 20000 40251 53007   333 20008=
38656 32998 00702 10123 20006 40268 55000 333   20042=
38911 32998 02001 10154 20019 40238 58003 333   20045=
43413 32998 2//04 10308 20233 3//// 4//// 80001 333 5//// 82080=
43418 32498 50902 10302 20229 30018 40103 84230 333 58005 84818
83360=
43421 32498 40501 10319 20219 39997 40099 84100 333 58000 84818=
43424 32478 72302 10303 20247 30099 40103 86101 333 58006 70020
86818 83080=
43436 32498 30502 10306 20237 30094 40097 82101 333 58004 82817=
43450 31459 72004 10294 20245 30088 40096 71028 8227/ 333 58005
82816 87460=
43467 21480 6//// 10290 20245 30104 40109 70282 8317/ 333 58009
69917 70265 83818 86360=
43473 32498 60000 10200 20160 38129 48489 86200 333 58002 86810=
43497 32476 52308 10310 20241 30081 40098 83101 333 58004 84818=
33837 31556 61405 10128 20109 40168 56001 71022
83430 333 20118 83626=
23921 31931 80000 11102 21115 40185 58004 77371 8802/   333 21155=
23955 41998 32804 11101 21174 40170 51011 70281 82041=
23966 41597 52402 11108 21128 40164 52006 70282 82942=
28255 12999 61101 11074 21080 40203 58004 69940 86070   333 21124=
28440 11498 82601 10017 20012 40176 58009 60030 72372 8802/   333
21033=
28661 11330 80000 10001 21004 40215 52002 60050 75175 886//   333
21055 88709=
28722 31997 02003 10048 20031 40244 52001   333 20029=
29231 41497 82402 11088 21109 40195 52009 78582 83331=
29313 41998 22303 11078 21112 40215 51006 70281 82040=
29612 42998 21904 11071 21109 40255 52003 80004=
29634 42457 82205 11096 21117 40272 52018 885//   333 88611=
29838 41697 22704 11073 21112 40302 52032 70283 82500=
36061 41595 82304 11048 21076 40298 52048 78583 889//=
23909 11295 80603 11065 21070 40132 56003 60030 75676 887//   333
21088=
28116 11294 80000 10008 20008 40135 57003 60030 75652 886//   333
21070 88703=
28419 31396 82405 10046 20036 40203 52007 71022 8872/   333 20036
87708=
28621 12469 82101 10042 20027 40232 52006 69900 889//   333 20019
86710=
29023 41598 70000 11069 21098 40164 52009 70272 87900=
29122 41596 82404 11075 21092 40189 52013 78582 85332   333 85920=
29328 41598 82204 11078 21105 40224 52009 70281 885//=
29348 41597 72503 11080 21116 40225 52010 78582 82941=
29405 42997 72203 11070 21108 40245 52013 87030=
29418 42998 62102 11078 21114 40237 52005 80001=
29430 41497 72301 11075 21101 40235 51009 77171 85520=
29524 42584 62103 11076 21111 40255 52015 82531=
29605 42998 72103 11061 21088 40250 58001 87030=
29736 41998 12802 11063 21113 40285 52028 70281 80001=
29937 4599/ 32504 11062 21097 40319 52031 70282 81401=
36034 41698 82205 11052 21089 40329 52011 70282 82502=
28216 11/05 92302 10048 20048 40155 53001 60030 75154   333 21001=
28321 11/93 92001 10036 20036 40161 57002 60020 74542   333 20009=
28451 11997 81402 11029 21029 40191 58007 60020 77172 8802/   333
21057=
28537 11340 82507 10037 20024 40206 54000 69940 71065 886//   333
21008=
28642 11425 81802 10046 20036 40207 54000 69900 76162 8655/   333
21020 86618=
28925 31540 82105 10051 20037 40291 52002 71022 885//   333 20030
88621=
29625 42599 52405 11080 21112 40275 52015 85500=
29642 41960 22606 11080 21131 40264 52032 70181 80001=
29813 42999 82106 11079 21106 40286 51005 80002=
29846 41597 83007 11053 21078 40257 52063 78588 889//=
40706 32660 61204 10096 20020 38689 40220 51006 83370 90545 333
30006 50241 79999 81935 82640 84360=
40718 11460 82502 10144 20130 30264 40233 51005 60051 72165
8532X 90550 333 32013 50001 70824 82920 84715 88457=
40732 32560 82202 10158 20142 30244 40224 51013 8452X 90550 333
31014 50181 70123 84630 88458=
40745 32660 11102 10118 20018 39099 40234 50004 81400 90550
333 30103 50341 70000=
40754 31658 70000 10154 20098 38851 40173 52015 70521 83570 90550
333 30009 50401 70002 83640 86360=
40766 32960 20000 10108 20034 38701 40170 51011 80001 90550
333 30002 50401 70000 82070=
40800 32960 00000 10138 20017 38470 40139 52011 90552 333 30001
50141 70000=
40811 32960 03004 10194 20040 30132 40158 52014 90550 333 30014
50821 70000=
40841 32960 00000 10190 20002 38284 40142 52010 90550 333 30006
50261 70000=
40856 32960 00000 10192 21019 38675 40168 50011 90550 333 3.R11
30385 41999 80000 11025 21040 40100 58003 70272 80007=
30469 41698 80000 11002 21011 40085 53003 77177 83871=
30650 42699 22705 11007 21088 40124 52005 82400=
30781 41994 11022 83201 21028 40096 52011 77372 8802/=
30844 42699 13201 10016 21092 40140 58008 81100=
30925 42899 81801 10006 21040 40142 58007 85036=
31478 42984 70901 11011 21102 40169 57011 877//=
31594 42998 71405 10081 21050 40093 57037 87050   333 91011=
31754 42999 51571 10062 21086 40184 57020 80001=
62306 32960 12205 10177 20129 40195 53008 81030 333 20152=
62318 31556 41302 10190 20159 40193 53007 71000 84800
333 20164=
62337 12560 52505 10195 20159 40175 52008 60024 85800
333 20162=
62366 31920 00302 10173 20147 40190 52003 71000 333 20164=
62393 31540 13410 10166 20108 40169 53008 71000 81100
333 20124=
62405 32960 01302 10202 20103 40147 52006 333 20140=
62414 32960 00112 10196 20083 40149 51011 333 20170=
62417 32960 23201 10170 20100 40198 53008 80030 333 20118=
62440 31910 02805 10168 20144 40181 53003 71040 333 20142=
62463 32960 03124 10202 20136 40144 52004 333 20180=
62465 32960 03216 10226 20136 40144 53010 333 20214=
37553 31595 80903 10108 20102 40247 56000 76166 8802/   333 20103=
21824 42970 01801 11316 21332 40288 53002=
21946 42999 02102 11263 21280 40351 54000=
21982 31447 10110 11245 21301 40158 53018 73831 82531   333 11157
91116=
25123 42497 82802 11192 21211 40317 52004 77172 885// 333
88611=
25173 31928 63211 11194 21227 40195 52009 73831 80001   333 11148
91116=
25399 31579 33607 11126 21139 40130 53013 73631 83500   333 11093
91118=
25551 32998 72701 11223 21241 40223 53001 82031   333 11151=
25563 11584 53305 11190 21216 40178 53004 69902 70272 81531   333
11110=
25594 32684 70509 11083 21155 40085 57014 85504   333 11062 91113=
31054 42999 00000 11194 21234 40275 57019=
31123 42699 62101 11140 21183 40234 56017 86500=
21432 41997 42103 11216 21223 40291 56006 84630=
16738 32560 21906 10186 20159 39976 40168 54000 82100 333 20166 30///
90730 91110 555 10000 30190 20000 89068 99092 40000 47516 44220 50000
50170=
28541 11461 82706 10028 20023 40188 52001 69950 76162 885//   333
21028 88616=
16643 32460 60304 10170 20159 30174 40180 51004 85804 333
20158 30/// 82818 84625 85068 90730 91105 555 10000 30204
20000 89064 99098 40000 47661 44210 50000 50164 70000 77///
7/P//=
16648 31201 80000 10110 20110 30074 40163 53004 74442 886// 333
20096 30/// 50260 55043 90730 91103 555 10000 30162 20000
89053 99100 30000 10142 20148 30156 40170 50180 60192 40000
47588 44230 50000 50110 70000 77F// 7FY//=
16684 31458 30000 10178 20164 30122 40147
53002 71000 81130 333 20170 30/// 55080
81810 83358 90730 91106 555 10000 30194
20000 89075 99095 40000 47624 44230 50000
50170 70000 77/Y/ 7/Y//=
16641 11460 63304 10164 20154 30155 40160 52011 69902 72992 85954 333
20156 32/// 55005 83815 81916 84625 90730 91129 555 10000 30170 2000
89080 99100 40000 47646 44200 50000 50158 60000 65555 60120 70000
77V// 7VP//=
16743 32470 20000 10198 20176 30086 40182 56001 82600 333 20190 30///
55084 90730 91109 555 10000 30190 20000 89073 99091 40000 47520 44200
50000 50184=
16749 32960 00000 10176 20163 30158 40171 54000 81030 333 20170 30///
55089 90730 91104 555 10000 30184 20000 89074 99094 40000 47651 44220
50000 50168=
26898 11228 81802 10067 20056 40172 57002 69902 75152 886//   333
20064 88704=
26997 11422 81702 10068 20065 40172 57005 69902 75152 886//   333
20062 88710=
27595 31497 82706 10064 20048 40224 52009 70262 885//   333 20026
88710=
27612 31496 71701 10061 20050 40180 54000 71022 87500   333 20061=
27703 31396 81803 10071 20058 40179 57007 71022 885//   333 20050
86709=
27707 31441 81802 10065 20056 40187 53002 71022 886//   333 20052
88717=
27719 31395 72003 10070 20056 40196 56002 71022 87700   333 20058
87706=
27786 31997 22006 10062 20046 40250 52008 71000 80004   333 20036=
27906 31220 81604 10049 20040 40200 57002 71022 886//   333 20048
86703=
27928 31996 01802 10055 20046 40220 57004 71000   333 20036=
27947 31996 01603 10055 20050 40246 53004 71000   333 20041=
27962 32997 02402 10068 20040 40261 53003   333 20026=
27983 32998 02502 10062 20038 40270 53008   333 20021=
28711 31295 62407 10042 20032 40239 53006 71011 866// 333 20018 86704=
28807 31995 22003 10043 20036 40276 51006 71040 80001 333 21022=
34009 31435 81704 10062 20053 40193 53007 71011 886//   333 10050=
34123 31/02 91204 10038 20038 40242 53006 74741   333 20016=
34152 31/93 01303 10012 20012 40273 53002 74542   333 20008=
34172 31101 91905 10038 20038 40289 52007 74542   333 20054 89/02=
34186 31/92 92101 10008 20005 40294 58001 74542   333 20014=
34247 31/09 91203 10036 20036 40263 58004 74341   333 21018=
34336 31957 81204 10062 20058 40262 53003 72841 8801/   333 20029=
34391 31/93 91803 10039 20039 40303 53007 74544   333 20013=
35121 31295 82305 10046 20036 40308 52004 71054 886//   333 20025
88704=
22113 32584 31301 11050 21060 40192 52016 81531   333 21063 47003
91003=
22217 12599 70903 11028 21069 40170 52013 69942 87500   333 21042
47002 87623 91005=
22235 32983 00000 11112 21118 40198 53021   333 21125 47002 93508=
22349 32599 10810 11014 21058 40179 52026 81500   333 21031 41001
91011 91113=
22408 12499 70902 11012 21022 40148 52008 60012 875//   333 21016
47008 87613=
22602 11475 70902 10007 21004 40110 52010 69902 70262 875//   333
20003 44010=
22721 11221 81001 11002 21002 40139 52008 69912 71022 889//   333
21004 43004 86705=
22802 31332 81303 10077 20076 40102 54000 71022 886//   333 20055
88707=
22820 31275 81003 10053 20053 40124 52004 70242 886//   333 20051
88704=
26059 11797 89002 10082 20071 40048 56020 60072 76362 887//   333
20056 88712 91108=
26063 11396 80901 10077 20076 40069 57023 60082 76362 8872/
333 20063=
26094 11250 80903 10080 20078 40099 57017 60012 75165 886//   333
20051 88705=
26258 11330 81805 10088 20082 40043 57006 60162 76362 8802/   333
20068 88509=
26298 11496 81802 10082 20070 40109 57006 69952 71022 8667/   333
20081=
26477 32565 81806 10090 20067 40084 53001 885//   333 20094 88620
91113=
26585 32497 81802 10068 20050 40130 57007 883//   333 20068=
26702 31996 41401 10049 20047 40062 53002 71011 84030 333 20030=
26781 32397 81704 10063 20049 40134 57004 886//   333 20062 88707=
27402 31496 81904 10080 20056 40148 53001 71022 886//   333 20080=
38774 32998 00000 10110 20015 40256 58009 333   20059=
22028 32980 31603 11067 21075 40202 52015 83040   333 21088 48014
91004 93521=
22106 32998 20000 11088 21099 40174 52010 82030   333 21088 47003
91001 93503=
22127 32998 10000 11132 21145 40207 52018 81030   333 21135 47015
93508=
22324 12599 10903 11051 21061 40179 52015 69982 81500   333 21049
46001 91005=
22621 11498 80501 11018 21023 40148 52008 69922 72682 889//   333
21019 43004 88912=
22831 32598 70901 10029 20027 40137 52006 87500   333 20028 87621=
22892 11497 80803 10074 20067 40078 57012 60012 76162 8772/   333
20073=
26275 11497 81503 10096 20077 40080 57012 60032 70262 886//   333
20095 88717=
26389 11356 71805 10077 20059 40107 57006 69902 71082 87600   333
20076=
26695 32497 71804 10051 20024 40165 57001 875//   333 20050 87612=
26882 32463 71606 10063 20042 40162 57001 87500   333 20051 87610=
25621 41698 81101 11175 21194 40304 52014 77172 8652/=
25703 41699 80203 11164 21206 40338 53010 70272 8251/=
25913 42699 20803 11099 21210 40246 52012 81501=
25954 42999 83607 11105 21149 40160 52018 80001=
31088 42999 03603 11107 21191 40255 52007=
31829 42998 00301 10063 20001 40216 57010=
31873 42997 02005 10113 21044 40163 56010=
31909 42599 61302 10086 20019 40211 57011 86500=
31960 42598 11710 10092 20038 40189 56007 81200   333 91013 91114=
32053 42598 20302 11005 21099 40243 53005 82100=
32061 42599 10103 10005 21023 40242 57003 81200=
32098 42998 71702 10018 21055 40251 56002 86033=
32150 42697 81104 10059 21031 40235 53001 8453/=
32165 42599 83402 10073 20019 40229 55000 8497/=
32215 41579 43209 10015 21065 40135 53024 70281 84900   333 91015
91117=
32389 41495 82803 11030 21043 40116 52021 78582 889//=
32583 42999 13309 10012 21083 40069 53018 80001   333 91013 91115=
32618 41497 60709 10024 20011 40007 53023 70282 86900   333 91015
91116=
13168 31594 80902 10081 20079 30057 40164 53004 71022 886// 333
20079 31008 55024=
13174 32697 81102 10082 20068 30062 40163 52001 885// 333 20073
31003 55028=
13269 11596 80000 10116 20105 39943 40154 52004 60022 71062
886// 333 20110 32010 55031=
13274 11495 80000 10114 20105 30002 40161 52009 69922 71062
886// 333 20110 31011 55046=
13378 11498 82301 10046 20045 48498 53002 60082 70246 8357/ 333
20046 31004 55///=
13397 32698 71202 10103 20085 39632 40163 53002 84531 333 20099
30009 55039=
13457 11670 40601 10144 20138 30149 40156 53007 60072 70166
84800 333 20142 32/// 55/// 83840 81647=
40736 11540 82403 10158 20152 30251 40224 51010 60041 75565
8632X 90545 333 31013 50071 70042 85720 81925 88457=
40739 32965 21003 10150 20025 38704 40183 51008 80005 90550 333
30008 50421 70000 82270=
40743 32965 20905 10150 21060 39090 40222 51005 80001 90550
333 30009 50461 70000 82070=
40762 32565 30000 10130 21003 38599 40204 51007 81501 90550
333 30005 50501 70000 81630 =
40768 31320 70000 10050 20037 38280 40209 52012 71044 87600 90550 333
30000 50051 70000 87710 =
40769 32960 00000 10094 20042 38323 40180 51013 70500 90850 333
30002 50321 70000=
40785 32965 00000 10156 20052 39070 40170 52012 90550 333 30007
50361 70000=
40809 32670 20000 10208 20022 38548 40147 51002 81101 90550
333 30007 50701 79999 81840=
40821 32660 20000 10170 20033 38808 40155 52014 81430 90550 333 30009
50501 70000 81635=
40831 32960 03105 10208 20044 30161 40169 52018 90550 333 30011
51111 70000=
15614 31697 70000 10104 20076 39467 40162 53007 70222 87800 333 20096
55076 555 30001 95010=
15615 31/91 92506 10010 21010 37132 47072 54000 74744 333 21018 55030
555 34/// 92712 95110=
15627 31498 72304 10026 20002 37634 47085 56001 70322 87500 333 20025
55075 555 31/// 95120=
16310 32597 22209 10146 20046 39922 40141 58005 82200 90545 333
20136 30/// 55020 2//// 82830 555 0216/=
28867 11998 82702 10004 21023 40237 58003 69960 70272 8802/   333
21069=
28879 11397 82605 10008 21019 40238 52007 69920 70273 886//   333
21070 88707=
28952 12598 82304 10039 20008 40251 52001 69970 889//   333 21016=
29802 32997 22304 11058 21092 40276 58003 80001   333 21119=
29807 31596 81903 11051 21080 40269 57008 77172 8802/   333 21114=
34691 31993 80901 10041 20031 40296 5/008 74442 8802/   333 20040=
35067 32998 82302 10017 21017 40269 52005 8802/=
35078 11599 82207 11001 21028 40273 52005 69900 70282 885//   333
21062 88622=
35085 11498 82506 11022 21037 40262 53002 60020 72273 8662/   333
21097 86712=
35188 11496 82306 11022 21044 40293 57001 69900 77187 8872/   333
21095=
35217 31/92 91803 10032 20014 40322 52002 74742   333 20005=
35229 31295 82001 10033 20026 40324 52006 71042 886//   333 21025
88706=
35376 32998 72504 10010 21023 40314 58004 87070   333 21050=
35394 12997 82504 11037 21066 40329 54000 69920 8802/   333 21081=
35416 11/91 91802 10033 20033 69930 74554   333 20040=
35426 31/93 92001 10033 20030 40334 53005 74540   333 21018=
35497 12598 82502 11039 21080 40345 54000 69900 889//   333 21067=
35532 32598 82703 10007 21016 40342 52008 889//   333 21017=
35700 31998 01104 10075 20064 40306 53007 70241   333 20023=
35746 32998 60502 10036 21011 40346 52008 80001   333 21015=
35849 32998 20701 10049 21007 40342 52005   333 21032=
35925 31993 00000 10037 20032 40331 52004 74444   333 21004=
35953 32999 00000 10036 21041 40347 52007   333 21039=
35969 32999 007// 10066 21036 40341 54000   333 21055=
36003 31496 82303 11052 21085 40308 58005 77172 8802/   333 21112=
36152 12598 72204 11040 21090 40327 58005 69900 83202   333 21077=
36177 11597 82703 11048 21106 40341 52004 69940 78582 883//   333
21079=
36208 11599 72501 11087 21104 40346 52015 60060 70272 85531   333
21118=
38001 32998 21608 10125 20074 40276 53004 80002   333 20096=
38062 32999 00403 10078 21007   333 21034=
38069 32998 00904 10115 20000   333 21011=
38196 32998 00504 10061 21011 40304 51001   333 20024=
38198 32999 03501 10094 20021   333 20003=
38232 32998 01103 10088 20034 40297 54000   333 20045=
38328 32998 00000 10135 20064 40266 51006   333 20015=
38334 32999 01004 10105 20021 40280 54000   333 20034=
38439 32998 01601 10075 20002 40290 52004   333 20017=
28049 31958 81402 11092 21103 40197 58011 77172 8802/   333 21108=
28319 31831 82504 10044 20032 40181 53004 71022 8807/   333 20036=
28552 11360 80000 11004 21013 40209 58003 60030 77072 8872/   333
21053 86710=
29111 41599 62701 11073 21098 40194 52014 70282 83970=
29209 42598 32303 11080 21116 40216 51005 83900=
29602 42999 71803 11067 21091 40251 52003 87050=
29636 41599 72503 11068 21110 40264 52022 72681 87300=
29654 41698 82802 11080 21098 40244 52035 78682 85977=
29712 42998 52004 11083 21125 40273 54000 83012=
29724 42999 22105 11081 21113 40291 52011 80002=
29726 41598 82403 11081 21099 40294 52011 70281 883//
333 84923=
29814 42999 31804 11075 21125 40291 54000 80002=
29827 41596 82204 11059 21081 40306 51008 78688 883//=
29923 42999 62103 11095 21134 40311 52012 80005=
29939 41597 82304 11050 21071 40300 52042 78583 883//   333 88921=
36021 41999 32604 11068 21101 40310 52005 70281 80002=
36022 41498 82506 11071 21109 40328 53009 70283 83907=
36038 41496 81803 11057 21083 40334 51012 78583 889//   333 88919=
36058 41699 82201 11010 21076 40290 52036 70372 889//=
29456 42599 32702 11077 21099 40220 52024 82501=
29467 41997 82102 11087 21094 40225 52026 77171 8802/=
29477 42999 02601 11052 21077 40191 52017=
29576 42698 82703 11031 21099 40184 52015 82237=
29587 41598 72701 11022 21062 40164 52015 70272 82232=
30157 41696 83102 11017 21036 40154 52009 78582 84901=
30439 42599 12403 10003 21111 40161 54000 81100=
30537 42699 20703 10019 21179 40149 57004 82900=
21802 42999 71406 11247 21286 40214 52005 87030=
24125 42799 81304 11146 21173 40207 52002 84531=
24329 42999 60702 11192 21221 40249 58001 8607/=
24343 41998 80000 11228 21253 40290 52001 77172 885//   333 88639=
24382 42999 80000 11232 21257 40352 52002 82032=
24639 42999 20402 11218 21243 40215 57009 80002=
24641 42999 00903 11180 21214 40234 57009=
24652 41699 51103 11166 21208 40279 70272 85500   333 85634=
24656 41999 83402 11181 21222 40297 58005 70272 85031=
24671 41699 33403 11232 21264 40324 51008 70271 83500=
24688 41999 70000 11293 21324 40395 52005 77202 87030=
24724 41999 70504 11220 21232 40187 58001 70232 87050=
24738 42999 50201 11205 21238 40190 57004 80001=
24768 42999 00901 11222 21269 40299 57004=
24923 41999 80000 11131 21166 40161 52009 70272 8807/=
24944 42999 82501 11203 21209 40178 56001 80002=
24951 42999 00902 11188 21229 40207 57016=
24959 42998 00602 11193 21226 40273 57009=
24962 42999 00503 11204 21229 40278 57015=
24966 42999 00402 11217 21249 40282 57009=
25400 41998 83601 11199 21205 40360 52006 70272 8803/=
30054 41597 82403 11041 21071 40159 52017 78582 83947=
30393 41548 81503 11064 21083 40150 57005 78682 87901   333 87920=
30493 41961 80000 11060 21075 40143 57016 77177 8802/=
31137 42999 80000 11105 21133 40199 57014 80005=
48351 31557 10502 10288 20138 30067 40140 70500 81100
333 58022=
48400 31958 00403 10282 20163 30099 40139 70500
333 58019=
48475 31558 30607 10272 20156 30109 40120 70511 81235
333 58019=
48532 31558 80903 10280 20214 30048 40087 71022 83576
333 58012=
48310 32960 03402 10262 20107 39695 40143
333 58018=
48325 31562 11507 10297 20128 39881 40120 70240 81100
333 58014=
48329 31958 00000 10271 20123 39807 40144 70500
333 58018=
48380 32560 33402 10286 20192 30051 40145 81205
333 58023=
48421 32962 01408 10296 20147 30011 40121
333 58006=
48450 31958 20605 10275 20114 30100 40133 71500 80005
333 58023=
48459 31958 10805 10290 20151 30111 40114 70500 80001
333 58016=
48465 31558 2//// 10283 20135 30118 40123 70521 81201
333 58020=
48552 01430 83012 10238 20235 30070 40077 60331 76266 8882/
333 59008 60177 70820=
48413 32962 00904 10285 20155 30051 40130
333 58018=
48416 32960 00705 10272 20133 39987 40135
333 58026=
48418 32965 00915 10280 20133 30075 40131
333 58019=
48460 31958 20612 10272 20137 30088 40119 70500 81031
333 58019=
48461 31559 50607 10281 20151 30042 40112 70511 81146
333 58021=
48478 32563 70000 10295 20158 30107 40112 82546
333 58017=
36911 42999 30000 10108 20025 39342 40293 58007 80001 333
20008=
34560 11/03 91105 10039 20033 40280 50005 69900 75154 333 20037 89/01
96043=
34824 31996 01103 10090 20071 40202 53001 71000   333 20068=
34858 31/07 90904 10072 20072 40239 57004 74742   333 20065=
34866 31/93 91202 10065 20065 40267 54000 74544   333 20058=
34880 31996 51003 10090 20071 40278 57001 71042 80001 333
20058=
37018 32998 00202 10118 20088 40196 53004   333 20100=
37054 11/03 90802 10101 20099 40209 53002 69930 75154   333 20091
96045=
37472 32998 61107 10130 20103 40220 53001 82049   333 20119=
34357 31296 81402 10061 20056 40274 53002 71042 886// 333 20040 88703=
34363 31/00 91703 10045 20045 40286 53004 75154 333 20040 96045=
34545 31/93 91105 10046 20046 40259 54000 74542   333 20039 30002=
34579 31/93 90904 10045 20045 40292 53007 74542 333 20038=
34655 31395 81405 10049 20047 40271 53006 71022 886// 333 20048=
34759 31/93 91205 10066 20066 40260 57001 74742   333 20052=
34929 31/01 90702 10059 20057 40204 52011 74544   333 20030=
34954 31296 80901 10092 20084 40227 57004 71022 886//   333 20090
88704=
37031 32297 21501 10083 20081 10205 53002 80001   333 20020=
37085 60505 10147 20110 40233 57009 83308   333 20116=
37171 32998 40703 10134 20089 40197 53009 80001 333 20100=
37228 32999 21901 10074 20045 40209 53003 80001 333 20040=
29756 41496 73304 11054 21068 40231 52020 77172 84770=
29962 41867 82407 11020 21082 40206 52037 73687 8807/   333 91114=
23226 11560 62303 11122 21142 40178 58014 69960 77172
86530 333 21172 84620=
23606 11245 80603 11082 21088 40172 53004 69900 77172 8872/ 333
21137 85704=
23701 11462 80703 11080 21098 40146 52015 60060 77172 8672/ 333 21076
86717=
26167 11416 81604 10087 20082 40058 56011 60052 76164 886//   333
20043 88710=
27857 32998 03301 10030 20027 40246 58004   333 20019=
28909 31997 31802 10053 20034 40276 52001 71011 80001   333 20036=
37061 31456 80003 10109 20102 40221 56002 75152 886//   333 20094
88718=
44214 41697 73209 11044 21114 38715 40167 52011 70272 85570
333 91012 555 96108=
24988 42999 03001 11126 21209 40269 52002=
25325 41598 80502 11185 21204 40332 52006 77872 885//=
25378 32998 03202 11159 21219 40179 58006   333 11142=
31174 42599 70000 11023 21095 40237 57001 82531=
31263 42999 80000 11022 21099 39602 40178 57032 8802/=
31866 42598 20401 10064 20022 40209 56019 82100=
31959 42598 22304 10091 20041 40202 57012 82500=
31989 42999 01106 10088 20029 40200 56006=
32076 42498 60502 10008 21028 40253 52004 85950=
32408 41397 80207 11002 21005 40056 52012 78682 889//=
32509 42699 83212 10002 21124 40060 53027 885//   333 91014 91116=
32594 41599 83610 10003 21042 40117 52015 70282 86302   333 91014
91116=
84455 22253 00305 20603 30000 80242=
84131 22264 00275 20402 80205=
82141 22284 02270 20201 313// 40302=
58034 70222 89/// 22273 00104 20503=
64501 12358 72206 10264 20250 30097 40107 60044 885//
333 92459 20260 50224 55058 59008 84608 88623=
64503 32475 8//// 10248 20239 30063 40104 86500
333 02400 20246 50094 59010 83610 87523=
64510 31155 4//// 10214 20210 3//// 40/// 71022 885//
333 0//00 20195 50114 55/// 5//// 88703=
64550
64551 32258 6//// 10238 20235 30075 40104 84930 903//
333 0//00 20234 50024 55/// 59010 83703 84608 81916 86363 94935
95835=
64552 32980 3//// 10215 20210 39445 40087 80002 980//
333 0//00 20200 55/// 59013 83080=
64565 31258 6//// 10218 20215 39454 49987 72844 86801 905//
333 0//00 20215 50084 55/// 59020 83605 86813 94939 95839=
84628 34940 01703 10149 20133 30126 40142 71044
333   59004=
84515 31960 00000 10248 20238 39912 40088 70200
333   58004=
84691 31962 02007 10157 20132 30122 40129 70200
333   59001=
84686 31760 70000 10120 20065 36864 70322 875//
333   569// 59001 87650=
84752 32962 00303 10088 21042 37532
333   59011=
84452 31960 01907 10174 20153 30110 40142 70200
333   59011=
84401 31460 80000 10200 20170 30131 40201 70222 885//
333   560// 58016 88620=
84377 31460 80000 10235 20228 39970 40075 70221 8457/
333   5600/ 59012 84617 84460=
86134 32670 50304 10244 20207 40041 56002 85800=
86218 21256 83620 10208 20208 40087 55009 79599 8892/
333 60281 83704 88510 82940=
63708 12575 70000 10213 20182 48495 60304 8113/
333 20178 59022 81820 87359=
63740 32570 50610 10205 20140 48509 85900
333 20160 58012 81920 85822=
63723 12582 71610 10273 20215 40121 69904 872//
333 20236 59016 87826=
91590 21575 63212 10257 20181 40084 53006 71522 86270
333 56000 86826 84362
555 10279 20215 69924=
68162 32570 80510 10210 20145 39059 48491 53010 8251/
333 20170 555 10243 91014=
68268 32374 60000 10186 20160 38863 48485 52013 81204
333 20137 555 10235 91015=
68272 32678 60000 10205 20157 39060 48500 53008 86400
333 20140 555 10226 91015=
68296 12680 80000 10211 20182 39809 48509 53009 69914 885//
333 20194 555 10283 20001 91013=
68322 32987 20000 10200 20111 39105 48468 54000 82200
333 20078 555 10300 91011=
68338 32480 60000 10169 20104 39124 48828 52008 82632
333 20088 555 10264 91057=
68400 12574 80000 10225 20205 30046 40121 52007 60054 885//
333 20193 555 10265 20050 91012=
68416 32984 51310 10166 20004 38991 48472 54000 85080
333 20139 555 10272 91012=
68478 32470 70000 10144 20104 38857 48491 52006 875//
333 20106 555 10210 91015=
68488 11130 80000 10162 20157 39248 48482 53006 60064 74054 886//
333 20127 555 10164 20063 91014=
68496 12370 82305 10180 20172 39996 40123 51007 60144 885//
222// 2//// 313// 41002
333 20165 555 10200 20135 91012=
68524 32986 10906 10146 20041 39029 48469 53004 80001
333 20093 555 10253 91012=
68530 32980 00000 10126 20037 39042 48517 53008
333 20048 555 10242 91018=
68546 32989 10000 10126 20050 38629 48479 51002 81070
333 20060 555 10164 91015=
68570 32670 10306 10110 20078 38493 48483 54000 81100
333 20045 555 10165 91016=
68580 11459 80000 10122 20100 38927 48479 53005 69994 70522 8467/
333 20095 555 10124 20009 91015=
68614 32980 01306 10220 20054 30057 40099 53007
333 20136 555 10315 91010=
68624 32582 10704 10110 20036 38719 48477 53005 81500
333 20045 555 10190 91015=
68674 12473 73212 10166 20108 30076 40132 54000 60064 878//
222// 2//// 313// 41303
333 20140 555 10220 20060 91013=
68712 32970 01808 10160 20076 30023 40103 53015
222// 323// 41203
333 20125 555 10236 91010=
68718 32689 11404 10147 20099 39895 40138 58007 81100
333 20087 555 10245 91013=
68722 32980 10510 10083 20048 38517 48466 54000 80008
333 21002 555 10200 91014=
68832 32585 32310 10118 20077 39172 48476 57006 83200
333 20091 555 10184 91014=
68916 32370 11438 10148 20079 39823 40112 57010 81500
222// 20201 323// 41004
333 20126 555 10178 91011=
68920 32370 50000 10176 20150 30129 40139 55003 85200
222// 2//// 323// 41205
333 20140 555 10229 91013=
68928 32472 62306 10172 20141 30069 40142 56001 86500
222// 318// 41206
333 20140 555 10224 91014=
68938 11466 72712 10155 20146 30096 40104 54000 60174 70286 879//
222// 2//// 323// 41105
333 20141 555 10186 20167 91010=
68174 11457 70408 10184 20155 38764 48491 52008 60024 70522 81688
333 20143 91012 555 10212 20015 91016=
68242 32580 60313 10186 20133 38700 48475 52011 84570
333 20142 91020 555 10252 91014=
68262 12465 80504 10180 20158 38688 48494 52010 69924 885//
333 20163 91009 555 10191 20002 91017=
68263 11568 83610 10151 20145 38467 48491 52012 69914 75022 885//
333 20130 91012 555 10170 20001 91017=
68350 16/// /3612 10202 2//// 38624 48471 52003 60194
333 20149 91025 555 10240 20192 91014=
68368 11156 83513 10136 20135 38282 48481 51010 69904 70542 87670
333 20102 555 10154 20000 91017=
68372 36/// /3410 10160 20154 38441 48505 52009
333 20115 91020 555 10181 91019=
68424 32982 30506 10215 21038 39151 48471 52005 82074
333 20113 91007 555 10265 91011=
68438 31774 30000 10170 20010 38781 48471 52001 70500 81172
333 20063 91007 555 10210 91013=
68442 32982 10000 10150 20006 38625 48477 5//// 81080
333 20024 555 10196 91015=
68461 31470 81104 10124 20113 38292 48487 52005 70522 885//
333 20043 91005 555 10192 91016=
68512 32982 21104 10170 20006 38973 48467 52008 81082
333 20139 91007 555 10273 91012=
68588 11470 82003 10188 20149 30121 40137 50004 69914 70262 885//
333 20166 555 10188 20001 91013=
68618 32980 00710 10148 20024 39018 48476 52005
333 20096 91018 555 10260 91013=
68668 12580 40306 10129 20082 39293 48490 54000 69946 82550
333 20076 91007 555 10171 20006 91015=
68714 32970 00810 10214 20057 30064 40101 52013
333 20132 91013 555 10312 91010=
68752 16/// /0912 10138 2//// 39452 48477 52001 60024
333 20082 91012 555 10158 20016 91014=
68816 32982 01415 10198 20068 30045 40094 56007
333 20109 555 10252 91009=
68828 12570 62606 10159 20117 39906 40133 57007 69924 86500
333 20106 555 10201 20002 91013=
68842 11556 80108 10150 20128 30027 40109 53009 60134 71566 885//
333 20131 555 10181 20126 91010=
68858 12682 10204 10174 20128 39994 40140 57001 60014 81550
333 20098 555 10190 20012 91014=
67765 32484 70811 10205 20156 38663 48506 81138 333 20166 59014
81815 85360 87280=
67775 31970 70613 10196 20138 38509 48513 70522 81038 333 20146
59010 81358 87080=
67779 32580 70303 10234 20170 39055 48514 81132 333 20181 59018
81828 87080=
67853 32980 40605 10232 20158 38925 48498 84031 333 20195 59013
84360=
67861 32980 70602 10210 20146 38728 48509 86032 333 20169 59022
86359=
67867 31965 60309 10208 20142 38577 48505 70522 82032 333 20135
59015 82360 86099=
67881 32980 70205 10210 20147 38583 48511 81032 333 20147 59011
81360 87080=
67965 32980 70604 10193 20138 38679 48503 8707/ 333 20150 59020
87458=
67975 11970 70501 10220 20158 38910 48501 69904 70511 83032 333
20146 59020 83361 86080=
67977 31960 51505 10247 20170 39644 48523 70511 84032 333 20182
59040 84360=
67983 31420 61001 10185 20171 38877 48502 70542 81506 333 20151
59019 81615 86280=
67991 12980 70000 10235 20180 39587 48494 69904 81038 333 20176
59046 81360 87299=
67767 32680 40305 10288 20178 3//// 48/// 82130 333 20238 5////
82840 84360=
67843 32980 60406 10238 20164 38930 48491 86080 333 20172 59008
86359=
67969 12982 70000 10217 20174 39143 48487 60034 8707/ 333 20182
59032 87360=
63630 12730 73200 10202 20184 38905 48/// 60024 81636
333 20170 59009 81708 86361
555 10190=
63674 12370 70000 10218 20199 39056 48504 60024 8167/
333 20190 55028 59010 81708 87462
555 10205=
63658 12475 71803 10216 20185 38872 48504 60024 8113/
333 20184 59012 81819 87361
555 10196=
63702 12570 73605 10195 20179 69924 8157/
333 20170 81620 87362
555 10185=
63602 32480 70000 10211 20179 38625 48/// 81530
333 20177 59007 81618 87360
555 10190=
63654 12470 70000 10200 20171 38848 48487 60094 81971
333 20171 55033 59015 81618 81921 87461
555 10180=
63680 12568 70903 10204 20/// 38809 48/// 60054 8296/
333 20178 55042 59011 82822 81923 86361
555 10192=
85799 32760 50000 10066 20050 40184 57018 85500
333 56500 85650=
60210 32970 00000 10111 20023 38993 48515 58004
333 20110=
40377 42960 00506 10203 20050 39695 40165 333 20150 58010=
44218 32998 52510 11014 21096 38497 40115 52014 84050 333
91214=
44241 32999 60903 10008 21049 39170 40131 57024 84017=
38836 32999 00000 10154 20019 40226 54000 333   20057=
38954 32899 10000 10114 20015 48570 58002 81500 333   20042=
38713 32999 03601 10112 21005 48580 51002 333   20011=
38933 32998 02701 10171 20050 40240 52002 333   20063=
40250 32960 30000 10134 20076 39387 40169 54001 83030 333 20098
30008 83360=
40265 32960 00000 10118 20097 39403 40192 53005 333 20080 30004=
40296 31960 00000 10210 20164 40201 52005 70500 333 20183 30015=
40310 32960 00000 10126 20109 38962 48512 54002 333 20072 30004
83360=
40255 32960 00000 10150 20082 39458 40165 54003 333 20012 30007=
40260 32960 30000 10168 20113 39409 40177 52004 83030 333
20110 30010 83360=
40270 31950 00000 10140 20104 39284 40172 52004 70500 333 20108
30006=
40272 31956 00000 10108 20101 39346 40177 54001 71000 333 20070
30005=
40340 31958 03510 10188 20178 40155 52005 70500 333 20145 30013=
44203 32999 50000 11113 21166 38316 40193 58007 80006=
44207 32999 51809 11051 21110 38224 40128 58012 83082=
44212 41596 80000 11034 21044 39032 40159 52003 77172 8802/=
44213 32999 70000 11030 21057 38686 40133 52006 85540=
44215 32697 62712 11039 21098 38344 40130 52012 86400 333
91214 555 96109=
44225 32998 80000 11086 21126 38169 40172 58024 8802/=
44230 32998 83201 11039 21147 38710 40163 57015 8801/=
44232 32999 80000 11022 21076 39029 40158 57021 8802/=
44237 32999 70000 11026 21083 38394 40119 58017 87010=
44239 32999 72503 11022 21069 38710 40125 58015 87010=
44256 32999 13208 10049 21066 39281 40116 53001 80002=
44275 31897 72710 11021 21081 37648 40110 57006 71522 87070=
44282 32999 70000 11018 21153 38204 40118 58018 87010=
44284 32899 70000 11012 21101 37800 40127 57001 87010=
44285 32699 60000 10004 21084 38237 40105 57016 83540=
44287 32598 70000 11030 21084 38061 40152 58003 82570=
44298 32999 61803 10034 21007 38661 40130 58016 80008=
44302 32999 62504 10028 21067 39074 40158 54001 83063=
44305 32599 22702 11041 21047 39014 40156 58012 81502=
44313 32699 52508 10049 1054/ 39341 40158 51009 85800=
44314 32998 52906 10055 21061 39104 40158 57006 80008=
44317 32998 33407 10051 21046 38914 40152 58006 80001=
44336 32999 62303 10077 21078 38614 40056 57015 83083=
44341 32999 52005 10053 21072 38538 40116 58023 81042=
44347 32999 72705 10109 21057 38641 40078 58018 86018=
44352 32999 52003 10068 21052 38899 40150 58012 80003=
44358 32998 00000 10111 20006 39035 40137 57026=
44231 32999 80000 11036 21132 38630 40142 57015 8801/=
44259 32998 63207 10044 21080 39282 40167 51001 80008=
44288 32699 51403 10039 21070 38088 40077 58009 82440=
44292 32899 70703 11008 21061 38636 40158 57019 87030=
44304 32999 62302 10013 21058 38958 40171 57013 84058=
44354 31997 61802 10081 21057 39058 40121 57023 70422 80008=
44373 32999 71802 10056 21043 38466 40111 57014 85074=
44217 31698 42305 11108 21170 37801 40256 52023 70132 82840=
44242 32998 70000 11012 21029 39247 40152 57009 87010=
44243 32999 60000 10015 21040 39338 40164 58020 84078=
47058 41965 03203 10151 20017 30164 40209 58017 70240=
47008 42570 41402 10118 20065 30143 40196 57015 84500=
47014 42950 00000 10097 20056 39783 40175 57023=
47016 42970 00000 10134 21057 39338 40194 57016=
47020 42965 00000 10141 20021 39842 40207 57013=
47025 42968 32007 10135 20085 30158 40186 57014 83500=
47035 42970 01803 10153 20055 30205 40214 57006=
47041 42970 01602 10160 20120 30162 40189 57005=
47055 42965 00902 10144 20092 30145 40189 57019=
47069 42965 03204 10164 20067 30104 40200 58002=
23074 42698 89901 11225 21250 40180 52008 8652/ 333 86637=
23274 41597 70903 11176 21210 40164 52008 77172 8653/   333 86630=
23383 42699 30000 11278 21296 40189 52005 82501=
23472 42498 70503 11160 21194 40156 52001 86930=
23678 41960 81503 11202 21221 40150 57008 77172 85017=
23884 42584 53001 11158 21177 40170 54000 85500=
23891 41998 80000 11189 21208 40194 52003 77171 83017=
24507 42998 73301 11221 21247 40184 52006 80001=
29282 41597 80000 11069 21089 40180 52002 78581 889//=
29570 42599 73001 11024 21088 40189 52019 81942=
29698 42698 52901 11025 21062 40153 52006 82942=
29862 41528 83102 11028 21051 40199 52032 78687 8597/=
30230 42699 82003 11040 21108 40187 52005 85231=
23973 42599 50000 11154 21181 40178 52002 82901=
29562 42998 70000 11056 21133 40198 5//// 80002=
29581 42998 23001 11030 21084 40177 52016 82030=
29594 41599 83202 11034 21059 40165 52011 70282 86901=
29653 41597 83203 11053 21074 40216 52027 78522 8632/=
29675 42998 80000 11029 21078 40180 52017 80007=
29676 41696 83102 11030 21050 40168 52016 77072 8452/=
29759 41597 80000 11067 20087 40216 52030 77187 8472/=
29766 41599 72802 11031 21055 40189 52023 72682 85901=
29864 41856 83205 11040 21055 40196 52028 72272 8807/=
29869 41657 80000 11036 21047 40197 52030 77377 8872/   333 95050=
29956 41697 72308 11024 21198 40215 52047 73683 879//   333 91112
95050=
30504 42998 10000 11016 21089 40145 51001 80002=
30603 42998 31801 11001 21082 40139 57002 80002=
30612 42999 50802 11005 21097 40146 57005 80005=
30622 42998 50000 11065 21116 40177 57014 85030=
47005 42980 01801 10089 21027 38613 58004=
47022 42975 10000 10139 21117 38838 57009 80002=
47028 42968 02901 10147 20023 30120 40212 57006=
47037 42970 00000 10167 20013 30080 40198 57013=
47039 42960 02003 10159 20073 30023 40207 57014=
47046 42969 22302 10140 20084 30165 40188 57009 82030=
47050 42965 00000 10156 20002 30167 40201 57010=
47052 42965 02704 10150 20034 39880 40206 57006=
47060 42962 03403 10146 20021 30151 40208 58012=
47061 42680 50000 10144 20098 30153 40196 57013 85500=
47065 42965 03404 10150 20053 30152 40215 58008=
47068 42970 03604 10151 20017 30170 40204 57011=
47070 42970 02903 10178 20019 30109 40193 57012=
47075 42980 03202 10170 20040 39777 40189 57010=
30499 41557 80701 11044 21067 40134 57015 78582 889//=
30683 41699 80000 11017 21028 40089 57006 70272 883//=
30695 42998 80901 11003 21069 40082 56006 8807/=
31253 41999 80905 11032 21087 40155 57014 77072 8802/=
31348 42999 80000 11064 21087 40240 57011 875//=
31418 42999 80602 11024 21068 40225 57011 8807/=
31439 42999 51701 10002 21082 40239 57002 82031=
31445 42699 81202 10050 21037 40084 57022 81337=
31474 42999 70000 10022 21098 40161 57025 85011=
31587 42998 81802 10059 21046 40077 57025 85907 =
31632 42998 80000 10040 21092 40188 57023 83039=
31713 41595 70906 10056 21035 40160 58033 71011 86530=
31801 42998 00000 10084 21038 40184 57038=
30455 42699 83105 11026 21106 38826 48464 52003 86902=
30549 42699 12906 11049 21113 38607 48406 52007 81200=
30726 42999 20505 10015 21067 40143 57011 80001=
30731 42999 62702 10013 21084 40147 58004 82051=
30739 42999 22402 10006 21100 40156 58006 80001=
30741 42998 13501 11028 21103 38636 48416 51005 80001=
30745 42999 02604 11023 21087 40155 53004=
30764 42699 72604 10021 21055 40084 52002 84201=
30811 41699 80000 11049 21052 40153 58015 70241 8801/=
30822 42998 70102 10030 21058 40132 58009 80002=
30824 42999 60602 10024 21050 40125 58013 80003=
30829 42999 62702 10021 21055 40145 58013 83041=
30846 42999 02804 10032 21139 40128 58003=
30859 42999 03208 10028 21088 40118 52004=
30862 42599 42805 10029 21059 40090 52004 84100=
30957 42699 23304 10049 21119 40127 58002 81202=
31825 42999 01601 10081 21071 40203 56021=
31845 42999 00000 10117 21071 40164 57018=
31878 42998 01503 10125 21098 40167 56018=
31915 42998 01704 10131 20002 40151 57021=
31917 42999 03201 10141 21047 40161 57028=
31921 42998 01806 10125 21007 40159 56022=
31969 42697 71203 10100 20019 40194 57012 87500=
31981 42999 02803 10144 21082 40155 56016=
31987 42999 02007 10121 20002 40189 57009=
32069 42999 70000 10016 21035 40240 56002 87030=
24856 42999 00305 11210 21235 40266 57002=
30686 41975 80901 11025 21054 40095 54000 77172 8802/=
30777 41546 82204 11024 21033 40107 53009 77177 8672/=
30961 42899 13005 10029 21107 40113 52010 81040 91115=
30971 41599 62707 10002 21061 40090 51009 70272 86200   333 86828=
31624 42999 60801 10050 21039 40171 57020 80003=
24982 42999 00102 11150 21220 40273 52005=
31913 42999 02302 10070 20027 40152 57025=
32121 42999 11004 10050 21019 40240 55000=
32128 42999 13202 10072 21041 40225 56007 80003=
42027 31995 02302 10174 20055 38462 48547 70600 333 58014=
42071 31995 00000 10266 20181 40163 70444 333 58029 90554=
42111  31695  30502  10240  20172  39399  40157  70500  83800
333  58020  82635  =
42131 32996 01801 10298 20179 40152 333 58031=
42165 32996 00000 10332 20088 40143 333 58024=
42182 31994 00902 10282 20193 40157 70440 333 58029=
42189 31995 00502 10286 20183 40155 70500 333 58022=
42260 31996 00707 10292 20208 40153 70240 333 58027=
42328 32996 00502 10310 20110 40152 333 58026 =
42475 31995 00000 10294 20189 40147 70500 333 58022=
42314 32596 10203 10295 20193 40102 81100 333 58009 81825=
42410 32996 03606 10290 20244 40133 333 58005=
42415 31596 10000 10288 20203 40131 70500 81500 333 58006 81620=
42492 31596 31402 10300 20186 40146 70500 83400 333 58016 82620=
42591 32596 50902 10292 20187 40144 85400 333 58015 83620 83825=
42701 31496 61106 10260 20174 39414 40131 70520 85430 333 58018
83618 84825=
42724 32596 22702 10300 20224 40130 82500 333 58013 82620=
42798 31596 60903 10284 20219 40128 70522 86400 333 58011 83620
84825=
43333 21496 70702 10294 20239 40097 70262 84471 333 58015 6996/
84618 83820 86360=
40848 12660 60903 10184 20066 38546 40138 53008 69901 82232 90550 333
30009 50761 79999 82840 85070=
40875 31950 01302 10290 20234 30114 40126 52018 70500 90550 333
30019 50671 70000=
98135 11465 80405 10252 20233 40109 58011 60021 76066 8587/
333 56999 85819 88357=
98223 31565 70405 10311 20252 40072 57023 70544 82878
333 56999 82620 83360 86278=
98325 31460 83208 10268 20238 40050 58017 70544 83208
333 56999 83816 88277=
98328 11460 80000 10194 20176 38479 40048 57024 69921 74184
8322/
333 56999 83818 88358=
98329 11470 80000 10245 20236 40063 5/028 60051 76464 8457/
333 56999 84618 88357=
98336 11470 83604 10254 20241 40032 58029 60121 76166 8252/
333 56899 82815 88456=
98431 11466 82704 10256 20242 40050 58017 60031 76086 8352/
333 56999 83616 88458=
98440 11420 83222 10258 20253 49945 57072 60621 76066 8652/
333 56899 86618 88457=
98444 11450 82205 10242 20237 49998 53012 60451 76166 8522/
333 56999 85818 88458=
98531 31470 83204 10286 20257 40064 57020 70544 82477
333 56999 82618 85359 88280=
98536 11465 82706 10250 20237 40059 58020 60051 76166 8552/
333 56999 85620 88458=
98543 11450 82205 10244 20236 40037 58007 60581 76166 8452/
333 56999 84615 88457=
98550 11460 81601 10292 20262 40051 58017 69901 70584 8221/
222// 20101
333 56999 82818 88457=
98618 31460 83405 10320 20248 40066 58021 70544 82267
333 56999 82802 88274=
98630 32475 83403 10302 20263 40069 58010 8322/ 222// 2//01
333 56999 83818 88459=
98637 31468 82404 10285 20255 40057 57013 70544 82277
333 56999 82812 88272=
98646 31558 82202 10294 20258 40072 57017 70544 83207
333 56999 83820 88265=
98653 31470 82202 10314 20257 40070 57015 70544 8227/
333 56599 82818 88358=
98747 31465 50301 10308 20239 40051 57024 70544 82332
333 56999 81917 84072=
98753 31468 71803 10310 20247 40056 57026 70544 84938
333 56999 84915 83359 86279=
98755 32575 80904 10326 20275 40064 58018 81937
333 56999 81920 88279=
98836 11560 82702 10266 20250 40075 57013 60041 76098 8222/
333 56999 82820 88460=
42634 32996 09904 10300 20146 40139 333
58014=
42647 31996 00908 10332 20076 40136 70400 333
58010=
42737 32997 00708 10332 20134 40127 333
58005=
42840 32996 00902 10342 20121 40129 333
58006=
42909 32997 00513 10342 20071 40120 222// 20000 333
59001=
43003 31995 00903 10334 20180 40111 70400 333 58004=
43192 31596 50504 10320 20206 40107 70522 83430 333 58009=
40703 11558 80000 10082 20056 38959 40217 50001 69911 70282
84370 90550 333 31003 50201 70001 82935 82640 85460=
40712 32560 70000 10080 20064 38722 40200 53003 85370 90550
333 32004 500071 70042 81725 82930 83635 87458=
40729 31558 70000 10052 20039 38374 40223 51011 71020 87400 90545
333 31002 50021 70156 83725 84635=
24266 41997 70901 11241 21266 40331 58002 77177 87070=
31285 42699 60202 11043 21074 40224 57010 86500=
31561 41998 80503 10021 21040 40209 57017 70341 81031=
32010 42697 23202 11031 21090 40248 53004 82100=
92022=
43086 32597 20503 10304 20241 39945 40120 81530 333 58007=
43128 31596 60905 10282 20206 39519 40115 70522 84830 333
58013 83620 83360=
43150 32597 10506 10304 20198 30052 40125 81800 333 58009 81820=
43201 32497 41406 10286 20162 39394 40100 83801 333 58007 81618
83822=
43213 32597 59902 10300 20200 39800 40112 83832 333 56299
58009=
43233 32498 40906 10270 20175 39299 40095 81632 333 56299 58008=
43279 21496 73606 10272 20246 30089 40106 70265 85330 333 57912
58005 6995/ 81618 83825 81930 86360=
43295 32497 51104 10248 20174 39099 48513 84801 333 56209 58001
82616 83822=
43314 32597 12705 10308 20233 40103 333 58006=
43353 31496 22506 10312 20237 40100 70500 82800 333 56700 59001
81618=
43369 32597 10000 10314 20233 40100 81500 333 59001 81620=
43371 32597 52302 10312 20224 30032 40103 83370 333 57982 58011
82620 81925 83460=
22271 32581 60904 11045 21061 40196 52028 84530   333 21094=
22550 12997 20302 11087 21098 40169 53036 60090 81031 333 21056=
22583 11984 23602 11066 21082 40172 52030 60020 72277 81071   333
21098=
22768 12397 83304 10013 20008 40133 53038 60060 886//   333 21023
85707=
22845 12498 80402 10035 20025 40146 52016 60020 889//   333 20046
88914=
22887 11557 72203 10050 20048 40118 52021 60050 72586 8655/   333
21016 86630=
23205 11298 80802 11058 21062 40187 52023 69930 70282 886//   333
21067 88706=
23219 32998 60000 11126 21139 40179 52016 85031 333 21119=
23418 12365 81802 11067 21083 40184 52004 69900 886// 333
21069 88708=
23711 31457 80403 11085 21096 40179 57007 78582 889// 333 21095 88915=
23804 11297 80602 11068 21073 40119 52006 60060 70272 886// 333
21069 88705=
27037 11404 80702 10077 20073 40154 52005 69900 75154
886// 333 20069 88710=
27199 11212 82504 10061 20056 40165 52016 69950 71065 886//   333
20029 88705=
27271 31295 82203 10076 20070 40173 52015 75152 886//   333 20059
88704=
27459 32397 82103 10057 20045 40205 52004 886//   333 20054 88708=
27730 31957 82005 10057 20048 40208 54000 71022 8802/   333 20055=
22165 11475 70804 11017 21058 40206 52023 60010 70282 87500   333
21043 87621=
22954 12962 72402 10045 20040 40146 53007 60010 82042   333 20046=
23405 32980 29902 11109 21122 40192 52014 82030 333 21123=
23412 11498 82602 11066 21074 40178 52008 60010 78582 889// 333 21076=
23803 11597 80802 11081 21099 40148 56005 60030 72622 899// 333 21098
88921=
27066 11597 82302 10077 20068 40152 52013 69940 71052 888//   333
20042 88627=
27083 11359 82602 10066 20057 40136 52016 69980 71052 886//   333
20017 88708=
27242 32460 82301 10076 20061 40156 52005 8802/   333 20070=
27329 31457 81801 10060 20053 40169 54000 71052 886//   333 20074
88714=
27355 31528 82002 10062 20055 40181 53006 71022 885//   333 20060=
27373 11296 82303 10064 20057 40179 53012 69900 71052 886//   333
20061 88706=
27665 31432 82203 10070 20061 40221 53003 71022 886//   333 20049
88710=
27823 31325 61603 10041 20034 40224 52005 71042 80001   333 20028=
28009 11318 82303 10050 20050 40138 53011 60100 76164 8872/   333
20000=
28411 31225 82304 10050 20043 40190 53009 71022 886//   333 20036
88704=
22282 11578 33604 11026 21078 40188 53021 69970 70282 83600   333
21062=
22365 32980 20905 11023 21087 40189 52025 81072   333 21062=
22438 11572 80905 11006 21030 40137 52022 69990 70232 885//   333
21042=
22446 12280 40704 11082 21092 40173 52024 60020 82609 333 21071=
22563 11874 30202 11079 21089 40162 52028 60090 70271 83030   333
21065=
22641 12684 80000 11046 21052 40154 52025 60070 8254/   333 21047=
22695 11450 80903 11079 21093 40152 53021 60090 77172 8772/ 333 87612=
22854 11264 82702 10011 20000 40142 52020 60020 75152 886//   333
20035 88706=
22867 12489 72801 10055 20036 40135 52019 69960 85530   333 20038
85620=
22939 11496 81201 10054 20049 40134 52001 69930 71041 886//   333
20033 88710=
22996 11309 82604 10056 20054 40123 52016 60030 75154 886// 333 21002
88793=
27008 11/08 90901 10082 20082 40129 58003 69930 74542   333 20065=
27051 32860 82702 10064 20046 40152 52012 8803/   333 20052=
27225 11424 81602 10086 20071 40152 54000 75152 8807/   333 20087
88716=
27252 31440 82304 10074 20070 40170 52010 71022 886//   333 20069
88714=
27369 31356 82102 10061 20050 40193 52011 75022 886//   333 20065
88709=
27393 11396 82302 10056 20051 40188 52011 69930 71022 886//   333
20044 88708=
27479 32475 82304 10064 20050 40206 52010 883//   333 20059 88913=
27532 31295 82105 10050 20036 40192 55002 71022 8657/   333 20048
86708=
27648 31958 72103 10071 20059 40215 53001 71022 8730/   333 20057=
27679 11459 82005 10068 20064 40230 52003 71022 886//   333 20047
88715=
28214 11244 80806 10056 20054 40159 53002 71062 886//   333 20022
88706=
87078=
28434 11457 82203 10038 20031 40187 52001 60030 72162 886//   333
20012=
42435 32996 00000 10322 20070 40160 333 58019 =
91165 32366 40610 10250 20230 30105 90607 555 90206=
91182 32966 00104 10261 20228 30149 40154 51009 90553 555 90206=
91190 11766 80503 10244 20233 30131 40162 53015 69981 761// 90554
333 10294 20228 555 90206=
91212 12466 21113 10294 20244 30015 40095 55009 69951 90554 555
90206=
91285 31216 82707 10220 20220 30149 710// 90611 333 96010 555
90206=
91765 11466 81013 10284 20257 30122 40125 52015 69951 70282 8642/
333 5629/ 70025 555 90206=
91245 32566 40511 10280 20220 30137 90550 555 90206=
83818 88075 555 90206=
20046 32981 00000}11170 21183 40208 54000 333 21190=
83708 85628=
20087 41498 70606 11135 21148 40142 53007 73673 8553/ 333
85611=
20292 41497 80901 11119 21119 40157 52009 77172 875// 333
87624=
20667 11597 83203 11112 21132 40163 53011 69930 78588 889//
333 21154 91105=
20674 41462 72403 11135 21162 40147 52013 77172 875// 333
87610=
20744 32698 81102 11084 21112 40211 52015 885// 333 21120
88650 91106=
20891 41495 73202 11198 21185 40165 52010 78682 8635/ 333
86917=
23022 11497 83504 11071 21109 40171 52010 60020 78583 889//
333 21095 86619 91110=
23032 32966 70603 11174 21208 40194 52024 87050 333 21208
91105 80008=
23256 11999 70402 11236 21261 40143 52016 69980 70272 83031   333
21243 93503=
23330 11998 20000 11172 21191 40175 52011 69970 70271 82031   333
21193=
23552 11997 83004 11195 21236 40128 52013 69900 77173 83017   333
21211=
23631 12999 12702 11104 21117 40191 52010 69900 80001   333 21151=
23734 11997 80501 11082 21119 40193 52005 69900 77172 8807/   333
21088=
23849 42996 43304 11139 21169 40195 52014 82030=
23933 32697 81002 11025 21073 40195 58003 885//   333 21071=
28275 12499 81502 11063 21082 40219 52008 69900 889//   333 21084=
28493 11998 72001 11051 21076 40226 58001 69900 77172 87070   333
21118=
28698 11498 71801 11051 21076 40236 57001 69980 78587 87900   333
21086 85713=
23426 32989 81701 11119 21139 40185 52005 86031   333 21214=
23527 32999 80000 11145 21158 40190 52006 80007   333 21179=
23625 32599 60801 11101 21121 40184 52002 82571   333 21120=
28367 11996 61402 11048 21059 40213 52004 60010 70274 86300   333
21119=
28382 12498 72401 11057 21087 40220 52003 69940 87500   333 21097
87613=
28481 11598 62201 11040 21070 40222 57003 69920 77872 86201   333
21078=
28491 11598 72201 11052 21077 40219 52006 69900 70272 87500   333
21098 87627=
28593 31584 62104 11055 21081 40238 52003 70272 86100   333 21104
86827=
28786 11498 81702 11038 21053 40231 57007 60010 70273 886//   333
21106 88713=
28797 11597 71804 11046 21059 40229 57010 69960 72272 87500   333
21114 87624=
28799 11598 72003 11051 21068 40249 57014 69920 72272 83470   333
21114=
23929 32977 72001 11089 21089 40202 54000 87050   333 21139=
28465 11950 50000 11052 21052 40219 52006 60030 71042 80001   333
21104=
28586 11699 71902 11045 21080 40227 57002 69940 70272 87500   333
21092 87633=
28588 11582 52301 11043 21077 40228 53007 69980 70272 85200   333
21093=
28688 11396 82501 11042 21065 40229 52008 60020 77172 8872/   333
21101 87708=
28696 31483 71802 11052 21085 40247 58002 78582 87900   333 21122
87917=
28791 11999 81803 11042 21061 40228 57003 69990 72272 8807/   333
21095=
29367 42584 63102 11068 21104 40210 52024 85409=
29789 42799 80000 11054 21109 40151 52005 889//=
30253 41698 82303 11008 21024 40147 52006 70282 8492/=
43311 32597 41402 10310 20254 40094 83801 333 59002 82620=
43360 31596 23403 10294 20220 39953 40100 70521 82500 333
58002=
23788 42998 50000 11184 21225 40183 52001 80002=
23867 /2999 62504 11132 21167 40161 52017 69960 80009   333 21150=
36087 42699 80401 11018 21051 40238 57004 8655/   333 95000=
36096 42699 82703 11030 21080 40147 52004 889//   333 95000=
36103 42699 72702 11029 21096 40167 52004 86902   333 95000=
36259 42599 82410 11087 21136 38182 48463 52039 85902   333 91118=
36307 42899 80801 11023 21080 38880 48406 58001 8802/   333 95000=
41288 32460 11509 10301 20237 30115 40137 81500 333 20219 58006
81610=
40001 32970 00000 10154 20089 40174 53007 333 20095 30///=
40007 32970 00000 10123 20061 40161 51008 333 20075 30/// 50244=
40045 32970 20000 10134 20050 40188 51005 80002 333 20088 30///
82070=
40080 32965 03001 10114 20060 39475 40182 52012 333 20065 30///=
40095 32970 00000 10150 20086 39546 40171 51007 333 20097 30///=
40009 32970 00000 10102 20077 40170 52006 333 20046 30///=
40016 32970 02601 10100 20057 40183 52010 333 20050 30///=
40022 32565 30501 10182 20108 40187 53004 83200 222// 20000 333
20138 30/// 83830=
40030 32970 01001 10124 20065 40177 53007 333 20087 30///=
40039 32970 00000 10121 20063 40173 51014 333 20080 30///=
40066 32570 11001 10181 20085 40173 53008 81100 333 20140
30/// 81826=
40072 32970 00000 10134 20045 40198 51010 333 20120 30///=
40083 32570 13401 10076 20022 48500 53008 81100 333 20048 30///
81830=
42101 31995 00000 10260 20199 40163 70500
333 58027=
42348 31996 00000 10304 20100 40150 70500
333 58025=
42452 31995 00000 10304 20089 40150 70400
333 58023=
91203 32469 80705 10319 20260 30082 40087 57012 85977 333
56299 70000 85918 88279 555// 90206=
91317 32469 61403 10305 20279 30077 40081 56009 82101 333
563/9 70000 82816 84080 555// 90206=
42809 31595 60904 10298 20237  70522 83530
333 58017 83620 83360=
42886 32596 40000 10294 20196 40135 84400
333 58015 82620 83360=
42895 32596 60902 10298 20211 40132 84530
333 58018 84620 83360=
42971 31596 60903 10314 20233 40128 70522 85430
333 58012 83620 83825=
60360 11558 20000 10114 20112 40168 56013 60034 71110 82800
333 00119 20119 81826 95970=
60402 32960 02412 10112 20092 40166 56002
333 01000 20112 95900=
60419 11908 00000 10070 20070 40188 56003 69924 74240
333 00519 20070 95990=
60475 31320 61204 10095 20085 39249 48524 51002 71021 86802
333 00600 20086 83710 83820 85630 95990=
60525 32970 00000 10126 20049 40182 53002
333 00900 20126 95900=
60630 32965 00712 10187 20070 40138 53002
333 01200 20147 =
42571 32997 01402 10302 20140 70240
333 58018=
42667 32996 014/8 10312 20084 39555 40125
333 5011/=
42675 31998 01802 10296 20188 40131 70240
333 58012=
42754 32996 06106 10310 20038 39503 40120
333 58008=
42779 32597 11401 10280 20134 39447 40131 81100
333 58014 81825=
42867 32997 10705 10310  40124
333 58010=
42874 32596 10902 10290 20169 40127 81100
333 58012 81830=
42934 32996 00000 10310 20105 40125
333 58007=
43041 32996 00502 10270=
43110 32998 01404 10322 20187 40108
333 58006=
43117 32597 51402 10286 20201 40113 85400
333 58007=
43185 31596 20502 10304 20231 30109 40112 70500 82400 333 58005
81825=
43189 32597 20705 10308 20223 3//// 4//// 81130 333 58///=
43237 32597 60904 10292 20179 39721 40107 84830 333 56290
58007 82620 83825 85360=
43245 21597 73202 10264 20219 30089 40111 76062 84570 333 58006
6992/=
43329 32597 52902 10316 20239 30091 40104 85900 333 57951
58000=
60560 31965 00000 10112 20057 38952 48496 53002 700//
333 01000 20110 95900=