ZCZC 000
SMCI10 BENJ 301800
AAXX 30181
83840 22254 00217 20603 311// 41006 5//// 6//// 80206 ICE /////=
59293 32565 11803 10271 20242 30025 40071 57011 81100 333
10346=
54346 32965 00000 10158 20122 40047 57006 333 10240=
59087 32560 72702 10272 20245 40073 57011 87200 333 10330=
59673 32580 21601 10272 20255 40067 57021 82200 333 10329=
59096 32670 72202 10268 20235 40063 57013 874// 333 10336=
59072 32670 70000 10265 20241 40054 57011 8644/ 333 10354=
50442 32970 02702 10072 20035 40083 52006 333 10230=
59845 32970 00000 10253 20240 40060 57011 333// 10341=
59855 32575 13202 10268 20257 40062 57012 81100 333// 10329=
54337 32960 22005 10161 20123 39950 40031 57006 80002 333
10283=
53564 32980 00000 10163 20062 39062 40001 57002 333// 00054
10314=
53975 32966 00000 10215 20095 49994 57006 333// 10343=
53478 32970 00000 10105 20068 40019 57003 333// 10247=
54094 32960 03602 10156 20098 39758 40037 52001 333 10254=
59849 32965 02202 10239 20224 40068 57012 333// 10335=
54218 32970 02703 10169 20104 39364 49997 57007 333// 10297=
57516 31920 02901 10198 20185 39775 40073 57014 71000 333
05202 10261=
59316 32463 12202 10265 20249 30070 40079 57016 81400 333
10316=
59948 32568 60000 10279 20254 30054 40062 57011 82102 333//
10334=
54662 31330 81803 10129 20127 39939 40056 57004 71000 886//
333 10218=
57584 31660 21802 10188 20180 40061 57015 71300 82900 333//
10194=
57602 31956 00902 10206 20184 40072 57006 71000 333 10256=
53782 31958 70000 10192 20148 40003 57002 71000 80002 333//
10330=
57006 32970 70000 10179 20104 40013 57004 80002 333// 05401
10319=
59134 32475 12501 10249 20235 39927 40084 57012 81100 333
10308=
57245 32975 00901 10193 20184 39719 40051 54000 333 05403
10283=
50527 32970 01601 10099 20027 39348 40043 52010 333// 10251=
54186 32970 00000 10124 20095 40033 57001 333// 10259=
54386 11570 80000 10127 20079 40016 57009 69901 76000 885//
333// 10244=
57127 32960 02201 10201 20184 39483 40056 57001 333 10278=
53898 32962 21603 10226 20172 40000 57012 80002 333// 10313=
56964 32970 00000 10217 20198 38659 40039 57008 333// 05100
10300=
54857 32470 81103 10150 20143 39957 40046 57010 8362/ 333
10184=
50774 32960 00000 10064 20046 39789 40079 52006 333 10232=
58027 31/02 90702 10174 20172 39992 40041 57002 74740 333
10215=
58834 32965 00000 10244 20234 40056 57009 333 10325=
56096 32980 00403 10228 20121 38855 40007 57006 333// 05303
10329=
58562 11430 80000 10239 20232 40021 57018 60061 78080 884//
333 10290=
58457 11315 80000 10220 20215 39985 40034 57008 60141 78080
887// 333 10293=
58660 11660 80000 10241 20228 40036 57013 69901 70060 885//
333 10288=
54602 32960 80000 10218 20176 40023 57002 80007 333// 10286=
59046 31770 41803 10280 20247 40053 57009 70090 84500 333//
10331=
59209 32565 62501 10245 20217 40051 57012 86200 333// 10288=
78384 31460 40108 10301 20232 40132 70200 83930 333
10301 20237 58000 82918=
78663 32565 40000 10270 20240 39438 40116 52001 84202 333 011// 10278
20214 30///
59002 84830=
67341 31957 00000 10198 20147 40147 52019 70400
333 10298=
89664 32961 00000 11320 30088 40128 57018=
76118 32980 51803 10324 20079 38865 40035 5//// 80006 91746
333   10324 20240 30/// 56009 59002 85070=
76160 32962 40902 10370 20132 39819 40055 52003 80002 91740
333   10370 20265 30/// 56009 58002 84070=
76373 32388 31201 10250 20120 38202 40121 57008 83300 91737
333   10312 20138 31/// 56500 59004 83910=
76382 11580 40000 10274 20191 38880 40070 57002 69901 72055
85260 91745 333   10280 20205 31/// 56550 59002 81820 83356
=
76685 31560 70000 10210 20152 37869 40065 57003 70540 87200
91758 333   10214 20138 30/// 56900 58002 87824=
76843 32565 30501 10296 20213 39516 40154 57015 82801 91746
333   10309 20225 30/// 563// 59006 81827 81640=
76243 32376 00902 10352 20242 39838 40113 57002 91730 333
10356 20254 30/// 59024=
76585 32680 43002 10290 20243 39998 40148 58005 83230 91735
333   10291 20209 31/// 561// 58003 83833=
76840 32650 80000 10314 20244 30087 40137 54000 83406 91740
333   10350 20240 30/// 563// 59013 83634 85070=
63658 31570 71809 10230 20188 38866 48500 71392 82946
333 10297 58010 82820 81922 87278
555 10202=
78583 31458 40711 10307 20247 40120 71511 83233 333
02317 59006 70004 81816 83824=
40582 32960 03212 10377 20058 40032 52011 333// 10445=
91376 11474 80813 10267 20235 30076 40080 55000 69951 70281 84378
333 56229 70013 555 93018=
57178 31957 02204 10188 20178 39884 40034 57011 71000
333// 10269=
91408 32474 40000 10261 20247 30044 40082 57010 82101 333 561/9
70030 555 93018=
57494 11962 80000 10193 20179 30023 40051 57011 69901 70060
8807/ 333 10207=
52740 16/// /3003 10031 29053 36852 60000
555 1/132 2//00 /////=
59082 32962 62204 10280 20232 39985 40058 57011 80002 333
10330=
59117 32973 02001 10269 20239 39972 40073 57011 333 10351=
59211 32970 70000 10271 20241 39845 40042 57008 8704/ 333
10348=
59265 11764 71401 10278 20235 39931 40062 57007 69901 70080
875// 333 10342=
59287 32563 20000 10271 20251 30027 40076 57014 82400 333XX
10331 =
59431 32770 81801 10263 20242 39921 40063 57005 885// 333
10322=
59644 32970 21404 10274 20251 30052 40067 57012 82040 333//
10317=
59758 32470 10902 10271 20257 30047 40067 57012 81100 333//
10340=
59023 11565 33401 10259 20230 39809 40046 57007 69901 71398
83900 333 10333=
59417 32573 40201 10255 20242 39917 40064
57005 81142 333 10332=
59501 32565 11401 10274 20253 30070 40086 57016 81100 333
10314=
59663 32464 10000 10276 20252 30038 40065 57020 81100 333
10319=
59838 32980 40000 10282 20248 30051 40065 57011 81062 333//
10329=
59981 11580 71403 10281 20259 30044 40050 57019 69901 70080
82202 333// 10322=
59985 32580 10903 10279 20259 30036 40041 57019 81102 333//
10325=
10215=
58040 11659 83403 10162 20146 30037 40041 57007 69901 71060
885// 333 10195=
58144 31940 70202 10182 20172 30022 40044 57001 71000 8704/
333 10226=
58633 11565 82903 10230 20226 39939 40033 57014 60391 79598
889// 333 10317=
58659 31720 80000 10233 20229 30008 40041 57018 71000 885//
333 10269=
58847 32965 00201 10260 20237 39960 40057 57015 333 10325=
57259 32980 00000 10171 20164 40057 57001 333 10295=
57265 31958 00000 10187 20182 39931 40036 57009 71000 333
10262=
57378 32960 81603 10193 20180 40054 57011 8807/ 333 10209=
57399 31958 82003 10191 20180 40060 57007 71000 8807/ 333
10215=
57461 31915 23601 10189 20189 39896 40052 57009 71000 82040
333 10228=
57476 31958 82002 10188 20185 40050 57015 71000 8807/
333 10207=
57598 11659 62501 10203 20197 40054 57009 60041 71080 86500
333 10222=
57655 32920 00000 10188 20185 40072 57011 71000 333 10237=
57662 31956 02002 10193 20185 30009 40050 57019 71000 333
10207=
57745 32962 00000 10192 20187 39762 40077 57010 333 10226=
57766 11660 60000 10215 20207 40064 57015 60021 71380 86900
333// 10252=
57776 11/00 92505 10171 20171 40064 57012 60041 78096 333
10215 91121 91520=
57799 32770 72701 10270 20243 39949 40028 57013 875// 333
10326=
57845 11760 80000 10196 20191 40075 57011 69921 72160 885//
333 10264=
57866 11458 83402 10233 20230 39862 40059 57007 60031 79598
889// 333// 10300=
57972 32964 70000 10277 20235 39837 40046 57011 8704/ 333
10333=
58606 11460 80401 10215 20212 39983 40035 57014 60211 79598
889// 333// 10298=
59102 32661 70000 10252 20230 40069 57013 875// 333 10328=
57957 11458 81101 10238 20231 39871 40060 57003 60151 79598
889// 333 10306=
59058 11565 50000 10258 20251 40061 57009 69901 70098 85400
333 10321=
59278 32575 10000 10261 20245 40069 57016 81100 333 10339=
59456 32975 02501 10262 20236 40072 57010 333 10348=
59493 32575 11402 10280 20247 40069 57023 81100 333 10330=
59632 32563 61401 10272 20258 40064 57011 86200 333 10318=
59647 32980 00703 10277 20246 40065 57008 333// 10315=
59658 32468 51402 10279 20259 40066 57019 85100 333 10317=
58345 11920 82701 10203 20197 40042 57004 60021 72166 8807/
333 10213=
58543 11457 82203 10225 20222 40045 57005 60211 79564 889//
333 10261=
58556 11660 80000 10240 20237 40036 57010 60121 78098 884//
333 10307=
58569 11350 82505 10226 20223 40033 57014 69921 76060 8677/
333 10252=
58646 11660 81402 10249 20239 40036 57014 69961 70060 885//
333 10334=
58926 32960 00000 10240 20227 40071 57010 333 10348=
58944 32462 52205 10258 20242 40067 57015 85500 333 10309=
58362 11458 82903 10208 20206 30028 40038 57013 60191 76166
8772/ 333 10230=
50468 32975 03201 10051 20034 39888 40088 54000 333 10191=
50745 32965 00703 10162 20027 39877 40048 52009 333 10254=
50953 11760 81402 10161 20129 39871 40041 52001 60021 78098
884// 333 10236=
54342 32662 72201 10169 20134 39984 40043 57005 875// 333
10272=
54471 32960 02005 10162 20122 30039 40044 57002 333 10234=
54497 32965 02002 10143 20119 30049 40063 57008 333 10202=
51468 16/// /1800 11012 29065 36561 69931
555 1/124 2//00 /////=
53772 32960 00000 10195 20119 39152 40000 52011 333// 10318=
54511 32960 00801 10184 20151 39985 40022 57004 333 10272=
54823 32960 01104 10193 20149 39831 40025 57014 333 10272=
58150 31211 83203 10183 20172 30031 40039 52001 71000 886//
333 10211=
58251 11940 82702 10196 20190 30032 40038 57003 69901 71060
8807/ 333 10224=
58265 11430 82901 10200 20197 30025 40036 57007 60031 76066
8772/ 333 10220=
58472 11256 82002 10217 20214 39939 40032 57011 60081 76060
8757/ 333 10247=
58477 11435 81802 10221 20215 39983 40025 57018 69991 79586
889// 333 10253=
58666 31/00 92011 10223 20223 39945 40043 57018 74540 333
10227=
58725 32965 00000 10236 20230 39800 40047 57012 333 10335=
58760 31556 71806 10231 20228 40041 57017 71000 87800 333
10248=
58921 32975 02203 10254 20216 39825 40056 57011 333 10337=
303093 308093 305083 308083 305078 313079=
317139 318137 319135 320127 321128 324130=
52765 32980 02703 10070 20009 37178 52007 333 05203 10211=
56046 32980 00000 10021 21009 36306 57007 333 05100 10126=
53463 32980 63202 10170 20026 38850 40004 57004 80002 333//
00102 10271=
53543 32980 00000 10148 20030 38455 40006 57009 333 10250=
56386 31930 01602 10208 20181 40072 57007 71000 333 05201
10277=
57993 32972 02201 10276 20230 39907 40047 57008 333// 10344=
54843 32962 01102 10150 20139 30013 40040 57006 333 10200=
54725 32965 01403 10160 20146 40032 57006 333 10265=
53614 32980 20203 10196 20075 38807 49995 54000 80002 333
05103 10310=
57405 32962 10000 10202 20186 40078 57007 80002 333 10268=
56287 32965 00000 10198 20176 40077 57009 333 05100 10288=
58549 11659 82703 10246 20239 40031 57021 60181 78096 889//
333 10306=
56080 32980 00000 10053 20033 37148 57009 333// 05300 10188=
57297 31959 01802 10182 20169 39902 40036 57011 71000 333//
10219=
50788 32970 01103 10114 20041 30003 40084 54000 333 10216=
50854 32970 00902 10152 20044 40034 54000 333 10252=
50353 32970 00000 10057 20031 39877 40091 52003 333 10192=
50844 32762 80705 10182 20028 40033 52005 885// 333 10235=
50136 32970 72501 10094 20044 39530 40031 52003 85032 333
10214=
50658 32980 00403 10130 20036 40055 57001 333 10242=
50983 32970 00703 10115 20062 40073 54000 333 10241=
50756 32970 00403 10124 20044 39779 40059 54000 333 10236=
54096 32970 00000 10134 20075 40051 57003 333 10230=
50246 32968 40000 10006 21005 40082 57001 80002 333 10222=
50888 32980 00000 10095 20056 40078 52003 333 10238=
50557 32970 00703 10100 20037 39794 40079 52006 333 10229=
50564 32970 00000 10028 20018 40087 52003 333 10191=
51828 32960 72202 10232 20050 38555 40004 54000 82032 333//
00054 10277=
51709 32980 12703 10213 20022 38650 40019 52001 81060 333//
00002 10286=
51811 32962 22901 10210 20037 38713 40024 52006 80002 333//
00100 10295=
51839 32965 72201 10227 20066 49985 52003 80002 333// 00401
10312=
10348=
54115 11980 00000 10133 20100 40001 54000 69901 70080 333//
10263=
50834 32580 72902 10127 20031 40046 52002 86502 333// 10218=
54027 11680 72201 10167 20109 39459 40006 57006 69911 70080
87902 333// 10257=
54226 32975 21802 10170 20106 40008 57004 80002 333// 10304=
50727 11580 71101 10108 20017 38904 40052 52001 69901 70060
875// 333// 10178=
54026 11980 63401 10194 20034 39701 40004 57006 69901 70060
80002 333// 10252=
56586 32670 70000 10127 20101 38045 57004 875// 333// 00101
10206=
56684 32570 80000 10167 20112 37887 57007 885// 333// 00201
10225=
56966 31775 41105 10288 20222 40014 52004 71300 84900 333//
05103 10367=
56533 32780 40000 10170 20149 38382 52008 84100 333// 05100
10278=
56778 11559 83403 10163 20146 38095 52009 60011 79198 889//
333// 00254 10270=
56875 32680 72901 10204 20161 38329 54000 874// 333// 00051
10294=
56954 31550 40000 10214 20187 40050 54000 71000 84400 333//
05100 10325=
56985 32580 11605 10222 20188 38658 40039 57006 81100 333//
00051 10296=
56751 32680 23202 10180 20150 38006 52005 82400 333// 00200
10263=
56786 11560 82003 10178 20167 38094 57006 60011 79580 889//
333// 00251 10275=
56969 11660 10000 10227 20220 40059 57003 69901 70080 81400
333// 05151 10327=
51628 32960 10000 10159 20092 40047 52004 80002 333 00355
10266=
53513 32980 70000 10189 20049 38890 40015 52008 82032 333//
00201 10284=
54259 32965 00000 10148 20121 40046 57010 333 10272=
54527 32960 00902 10195 20164 40025 57005 333 10274=
52267 32980 72003 10194 21005 38975 49992 57004 80002 333//
05101 10312=
52378 32980 50904 10207 21061 40002 52001 80002 333// 00003
10320=
52576 32980 70402 10222 21079 38406 57006 80002 333// 05204
10298=
53502 32980 03602 10178 21036 40002 52003 333// 05101 10312=
52495 32980 00000 10180 21056 38593 49999 52001 333// 00001
10286=
53602 32980 70903 10191 21075 38366 57002 80002 333// 10270=
57067 32970 00000 10180 20157 39394 40029 57001 333// 10326=
51133 32680 70203 10205 20080 39443 40041 57008 82462 333//
05205 10306=
58647 11658 80000 10241 20238 40041 57013 60061 71098 885//
333 10317=
54135 31680 41607 10170 20110 39803 40009 52006 71790 81902
333// 10287=
59254 32765 72004 10282 20227 40060 57005 875// 333// 10338=
53480 32980 02702 10143 20017 40007 57007 333// 10233=
53664 32970 01403 10169 20078 49998 57001 333// 10306=
53863 32965 00202 10218 20113 49987 57002 333// 10329=
53663 32980 02201 10110 20045 40019 57002 333// 10274=
53959 32980 03202 10230 20120 39568 49985 57007 333// 10355=
53787 32980 00702 10177 20031 49987 57003 333// 10320=
53764 32970 00203 10190 20044 40008 52005 333// 10325=
54909 32966 01403 10193 20179 39955 40015 57009 333 10275=
54808 31959 41403 10180 20177 40016 57006 71000 80002 333
10274=
54826 32970 02211 10160 20055 38387 57004 333// 10186=
51431 32980 00000 10161 20101 39333 40077 57003 333// 00052
10261=
54401 32965 21601 10175 20125 39206 40013 57006 80002 333//
10274=
58715 31670 70000 10252 20243 40031 57017 71300 8294/ 333//
10325=
58527 11340 83202 10219 20218 39966 40038 57012 60301 79598
889// 333// 10276=
58813 32975 02001 10256 20228 40032 57010 333// 10336=
57522 31906 00000 10181 20175 40090 57006 74600 333// 10248=
58238 11920 70000 10198 20195 30028 40037 57012 69901 71060
8704/ 333 10203=
54945 11557 80702 10153 20148 40049 57007 69931 71060 885//
333// 10182=
54423 32662 70000 10157 20142 39594 40032 57005 875// 333//
10276=
53593 32961 01402 10181 20109 49997 57003 333// 10296=
54493 32974 82501 10143 20119 40058 57007 8802/ 333 10225=
54236 31570 31806 10163 20112 39929 40026 57005 71300 83900
333 10293=
54324 32770 81804 10182 20103 40022 52001 885// 333 10308=
57046 32971 02206 10188 21042 37902 57007 333 00009 10217=
57144 32980 02901 10172 20161 40046 57001 333 10302=
53646 32970 00000 10163 20048 38860 40000 57007 333 05100
10308=
53845 32961 02202 10206 20017 38968 49996 57003 333 05302
10338=
57037 32965 03608 10206 20110 49991 57007 333 05505 10314=
57106 32967 00203 10180 20150 40047 57005 333 05304 10325=
57036 32970 00000 10214 20144 39547 49990 57003 333 10349=
57016 32970 00000 10206 20132 49995 57003 333 10367=
54284 11570 82703 10138 20103 40035 57005 69911 79598 889//
333// 10230=
54292 32970 00000 10131 20098 39827 40032 57002 333// 10295=
54374 11656 83601 10152 20127 39665 40047 52010 60011 79580
889// 333// 10261=
54377 11662 80000 10175 20139 40050 57002 69911 70060 885//
333// 10268=
54161 32970 72007 10186 20100 39745 40016 57014 80002 333//
10293=
10317=
56067 32980 00000 10026 21014 36568 57006 333 05151 10158=
56029 32980 00000 10046 20014 36517 57003 333 05300 10152=
56065 32680 20903 10039 21018 36645 57008 82502 333 05303
10149=
54624 32964 01803 10175 20149 40031 57012 333// 10281=
56125 32980 02901 10061 20017 36542 57002 333 05301 10190=
52836 32980 70902 10105 21012 36884 57010 80002 333 05505
10196=
56034 11980 20000 11011 21029 35960 57015 69901 70080 80002
333 05303 10115=
52866 32975 00000 10102 20022 37669 52004 333 05451 10262=
52707 32770 82906 10143 21089 37244 52003 885// 333 05306
10252=
52856 32980 03401 10103 21041 37193 57001 333 05403 10205=
52889 32980 00000 10178 20053 38394 49975 57007 333 05552
10321=
53915 32980 03401 10148 20057 38567 49994 57009 333 05302
10320=
52652 32980 02002 10156 20059 38434 49997 57006 333 05200
10299=
52533 32980 73402 10178 20028 38460 40020 52003 80002 333
00003 10286=
57134 32980 00000 10148 20120 40038 57005 333 05102 10265=
50548 32980 20000 10073 20039 40069 52009 80002 333// 10244=
50434 32980 01802 10005 21011 39223 40068 52005 333// 10229=
50603 32980 30000 10144 20036 39394 40023 52002 80002 333//
10243=
50425 32980 00201 10130 20010 40047 52004 333// 10251=
50632 32970 00000 10051 20015 39221 40070 52005 333// 10217=
58931 31/00 92215 10171 20171 38337 57017 74440 333 10211
91120 91522=
56385 32880 21606 10100 20001 37046 57009 82040 333 00204
10146=
56571 32680 10000 10182 20144 38380 54000 81100 333 00454
10250=
56492 32960 00000 10200 20184 39684 40074 57009 333 05202
10269=
57237 32960 80000 10191 20174 40084 57001 8807/ 333 10260=
57313 32974 80000 10199 20185 40081 57007 8807/ 333 00002
10265=
56193 32966 00000 10185 20138 40064 57001 333 05101 10331=
56196 31956 21101 10220 20184 40069 57008 71000 80002 333
05202 10287=
56666 11780 81102 10234 20176 40023 52006 69901 78000 884//
333 00454 10316=
57411 31930 00000 10189 20178 39742 40078 57009 71000 333
10270=
56459 32880 30000 10132 20112 37656 52003 83400 333 00555
10244=
56475 32980 00000 10137 20129 38322 54000 333 00000 10239=
56294 32961 01801 10224 20177 39506 40073 57006 333 05102
10284=
56671 11780 70000 10199 20152 38191 54000 69901 70080 874//
333 00352 10265=
59321 32580 30502 10259 20250 40078 57021 83100 333 10287=
57432 31950 00000 10179 20176 40090 57003 71000 333 10240=
57426 31958 00000 10164 20159 40090 57008 71000 333 00000
10231=
57633 32960 00000 10154 20149 39329 40082 57010 333 00051
10233=
57348 32760 70000 10183 20165 40093 57010 875// 333 10195=
57083 32960 01502 10205 20165 39877 40003 57008 333// 10336=
57290 32962 02202 10186 20166 40025 57005 333// 10257=
58208 32965 00000 10184 20171 40036 57007 333// 10232=
54157 32964 72004 10170 20118 40034 57003 80002 333// 10280=
54102 11680 43402 10127 20092 38890 49979 57006 69901 70080
82402 333// 10242=
50915 11580 80903 10142 20100 39068 49997 52003 69901 70080
889// 333// 10248=
54836 31956 00000 10139 20132 40045 57011 71000 333 10205=
54753 32760 22002 10157 20134 30041 40047 57005 82500 333
10218=
59954 32575 60000 10266 20250 40065 57013 86900 333// 10322=
10325=
51931 32965 81401 10205 20091 40005 52002 8802/ 333// 00252
10285=
51705 32780 73203 10149 21035 37806 54000 85962 333// 05103
10235=
51716 11965 20402 10193 20082 38827 40030 52011 69901 70098
80002 333// 00354 10301=
51818 31858 83402 10234 20036 40007 52010 70600 885// 333//
05103 10293=
57504 31950 00000 10210 20182 40071 57003 71000 333 05201
10284=
56152 11980 03402 10015 21009 36359 57005 69901 70080 333
05151 10157=
56144 32980 20000 10073 20028 36884 54000 80002 333 05300
10211=
56146 32980 00000 10064 20029 36764 52001 333 05152 10198=
54534 32660 70902 10169 20147 40039 57001 875// 333// 10264=
57793 11320 82703 10219 20210 40055 57009 60101 79598 889//
333// 10292=
53705 32970 01803 10153 20087 49989 57007 333 05300 10322=
53723 32975 00000 10150 20037 38568 49998 57005 333 05251
10300=
54705 32962 71103 10195 20172 40021 52002 80002 333// 10298=
54518 32962 81602 10208 20165 40030 54000 8807/ 333// 10290=
56247 32880 11601 10135 20026 37421 52012 81400 333 05251
10286=
56462 32580 73202 10096 20076 37173 52001 86402 333 00351
10201=
56257 32980 00000 10066 20009 36324 52001 333 00001 10169=
56357 32680 40000 10080 20039 36494 52003 82402 333 00100
10185=
54208 11980 00902 10096 20090 38644 40015 57007 60011 70098
333// 10226=
54012 32980 71102 10113 20086 38902 40004 57004 80002 333//
10236=
53192 32580 70402 10124 20059 38760 49991 57004 82902 333//
10228=
54618 32961 31402 10186 20163 30008 40025 57006 80002 333//
10274=
54429 11665 70000 10176 20149 40039 57001 69901 70080 874//
333// 10264=
54449 32765 72702 10162 20139 40047 57003 875// 333// 10230=
56374 32680 60000 10105 20084 37447 57004 86400 333 00101
10190=
58506 11/00 92503 10172 20172 40054 57012 60041 74584 333//
10198=
58665 31650 81601 10234 20227 40028 57019 71000 8757/ 333
10277=
58464 11556 83601 10217 20214 40032 57012 60301 79586 8797/
333 10264=
58667 32465 72507 10229 20226 40044 57017 871// 333 10250=
53738 32975 20000 10156 20055 40003 57005 80002 333 10311=
54776 11/01 91802 10131 20131 39997 40054 57012 69911 74564
333 10209=
54751 32965 82202 10153 20137 40049 57004 8807/ 333 10236=
54863 11562 81103 10144 20140 40047 57016 69921 76066 885//
333 10197=
54929 31950 71401 10168 20160 40043 57008 71000 87030 333
10196=
54916 32960 40902 10161 20154 40043 57007 80002 333 10224=
59007 11465 83201 10206 20194 40044 57009 69901 78098 884//
333// 10285=
56994 31575 11602 10218 20199 40043 57006 71300 81900 333//
00000 10305=
56748 32980 00000 10183 20158 38317 57005 333// 05100 10266=
56946 11580 30000 10231 20195 40037 57003 69901 70080 83400
333// 05101 10321=
56951 11770 20000 10215 20179 38467 57004 69931 70080 82400
333// 05102 10284=
56651 11580 83602 10144 20121 37629 52007 69911 79590 889//
333// 00253 10242=
56768 11680 80000 10183 20153 38206 57004 69941 70080 889//
333// 00252 10283=
56886 32770 81602 10197 20176 38238 57005 884// 333// 00051
10286=
56838 32670 10000 10224 20203 40059 57002 81100 333// 05100
10274=
56739 32577 70000 10176 20162 38322 57002 879// 333// 05151
10236=
56986 32260 10901 10203 20193 40052 57006 81400 333// 05100
10250=
57853 32775 80000 10217 20186 40062 57016 889// 333// 10244=
54308 11656 81602 10161 20134 40017 57012 69901 71080 885//
333// 10247=
54436 32980 02501 10158 20128 40040 52001 333// 10263=
54311 11580 41401 10131 20119 40019 57003 60041 78080 84900
333// 10228=
56137 32980 00000 10080 20018 36826 52002 333// 05301 10222=
56116 32980 20000 10055 20007 36367 57004 80002 333// 05302
10155=
56223 32980 01405 10061 21024 36553 57002 333// 05301 10182=
56331 32980 00000 10049 20013 36437 52003 333// 05200 10187=
54273 31570 70000 10174 20130 40032 52001 71300 879// 333//
10273=
54049 11770 72005 10175 20116 40018 57014 60041 70098 875//
333// 10292=
54715 32970 01102 10175 20162 40029 57003 333 10259=
53882 32965 01404 10206 20078 49991 57011 333// 10318=
53487 32965 03403 10168 20048 49995 57018 333// 10282=
53853 32965 00701 10202 20078 49989 57006 333// 10328=
57816 32962 00702 10165 20150 38742 40076 57011 333 00151
10225=
52447 32980 80000 10177 20049 40017 52006 80007 333 00001
10307=
53821 32970 33401 10185 21033 49986 57006 80002 333 05304
10328=
56093 11980 02502 10105 20093 37668 57011 69901 70098 333
05351 10232=
52895 32980 00000 10154 20056 49988 54000 333 05553 10300=
53929 32965 02004 10184 20066 49996 57014 333 10310=
52446 32980 70000 10178 20050 40011 52003 80002 333 05105
10294=
52842 32980 00201 10086 21074 36974 57007 333 05506 10207=
52825 32980 31401 10130 20007 37215 57009 80002 333 05603
10243=
52323 32980 72503 10176 21009 38191 57001 80002 333 00107
10235=
52754 32980 13605 10058 21030 36799 57004 80002 333 05304
10155=
56033 32680 61602 10028 21031 36065 57007 81902 333 05307
10112=
52787 32980 03402 10081 21041 37034 57001 333 05203 10170=
52996 32980 01808 10142 20034 37535 57015 333 05402 10231=
52436 32980 71102 10175 20012 38406 40008 52006 82032 333
00106 10285=
56018 32980 00000 10031 21002 36216 57008 333 05301 10148=
56021 32680 32201 10004 21016 36116 57013 82902 333 05303
10128=
53923 32980 01102 10201 20052 49989 57005 333 10312=
57687 11930 70000 10192 20189 39979 40057 57014 60011 71060
8704/ 333 10210=
59133 31958 02240 10252 20243 40068 57017 71000 333 10277=
54405 11660 22701 10181 20135 40015 57003 69901 70080 82400
333// 10258=
89054 32260 82705 11024 21030 40248 57026 8567/
333 76659 85705 88457=
89056 32462 72410 11019 21022 40250 57020 84501
333 75505 84616 85070=
89057 32960 60605 11038 21044 40243 57028 80006
333 71000 86265=
89058 32361 73206 11023 21025 30234 40250 57026 875//=
89059 32860 61909 11056 21075 40224 57025 87030
333 74060 87358=
89251 32362 83207 11019 21027 40230 57020 8652/=
89009 41940 00216 11528 36900 57015 77670=
37985 42996 02001 10198 20154 40081 57006 333   10274=
88963 32965 80000 11078 21104 30185 40215 57025 80006
333 56000 88278 92407 95000=
88968 11465 71418 11091 21111 30128 40144 57023 60021 70172 87500
333 56300 87615 90308 90912 92427 92811 94079 D/SE=
89053 31260 62515 11012 21044 30236 40249 57021 71022 81706
333 56507 81706 86270 92417 92840 93503 94079 95079=
89055 32865 72516 11012 21158 39952 40208 57024 81046
333 56066 81358 90324 92843
555 10191=
89066 32970 70000 11059 21085 30278 40287 57012 80006
333 56009 87270 92417 92840 95000=
60096 32956 53610 10225 20186 40112 56013 80002
333 10278 85070=
60101 32958 00514 10264 20149 40156 57014
333 10308=
60115 32570 13414 10296 20178 40151 56003 81202
333 10332 81826=
60135 32560 23406 10262 20181 40149 56011 82500
333 10265 82620=
60156 32460 20212 10280 20170 40152 50001 82200
333 10320 82816=
60230 32656 22814 10366 20030 40113 56009 82900
333 10396 82940=
60060 32445 43609 10216 20183 40159 55004 71011 84600
333 10220 84710 95300=
60105 32960 13608 10280 20221 40136 57025 80002
333 10281 81070=
60106 32965 03611 10280 20140 40169 55008
333 10304=
60107 32960 03606 10233 20175 40177 56008
333 10248 95300=
60185 32970 03609 10265 20178 40154 53005
333 10329=
60210 11670 73618 10297 20076 39005 48555 53004 69902 71722 873//
333 10349 86830 82933=
60220 32456 63612 10194 20181 40169 58002 86600
222// 21002 332// 40903
333 10200 86710=
60265 32670 43014 10339 21007 38914 48569 55000 84300
333 10350 83840 82950=
60318 32960 11010 10235 20200 40186 56005 80002
333 10265 81070=
60285 32956 03214 10233 20173 40155 56008
333 10256=
60340 32970 00208 10245 20199 40177 58007
333 10267=
78897 32558 71117 10308 20219 40157 58009 83806
333 02305 10317 20262 58023 70000 83825 86276=
48698 31464 72803 10269 20243 30069 40087 70522 81832 333 81612
87080=
81405 02460 70510 10284 20238 40102 69921 84932
333 58011 69927 82913 83821 85361
555 10312 20231=
37575 42972 30502 10224 20120 40069 54000 83040 333   10294=
78388 32578 50416  10307 20242 40129 82802 333 02200 10321 20245
58005 82822 83072=
61901 16/// /1012 10169 20148 40176 5//// 69902 333 10195=
61902 32688 31014 10272 20189 40139 82830 333 10303 58007 82830=
88889 11480 71910 10022 21018 40300 58011 69921 70282 878// 333
81712 87620 96485=
33815 11498 73103 10172 20121 40117 52025 69962 70298 85344
333   10281 91113=
78858 11476 70811 10281 20236 30104 40160 69901 70582 84832 333
10290 20258 58019 70006 83816 86076=
78397 31472 61321 10311 20250 30112 40128 71511 82902 333 06209
10323 20245 58013 81818 81920 85070=
78866 32560 31114 10309 20247 30161 40165 57014 82102 333 58018 82824=
63980 32482 51312 10266 20228 40128 82802 918//
333 10293 59005 82818 85075 943// 91124=
76050 31370 72607 10200 20170 30100 40110 52003 6//// 705//
86600 91750 333   10210 20160 30///=
76061 32981 01005 10294 20218 30030 40110 50001 91730 333
10296 20250 30/// 59012 90802=
76122 32980 30303 10314 20023 38521 40038 52001 82082 91735
333   10320 20162 30/// 56055 59015 82358=
76225 32460 71601 10316 20111 38567 40040 56002 87230 91750
333   10316 20206 30/// 56550 59022 85358 82820=
76256 32980 21805 10330 20183 30086 40104 51005 81075 91750
333   10340 20223 30/// 56033 58003 81360 81070=
76323 32770 40000 10278 20124 38259 40043 55000 84400 91740
333   10278 20180 30/// 56300 59010 84650=
76342 31562 30201 10316 20163 39430 40099 52003 70300 81204
91735 333   10320 20240 30/// 56306 59016 81820 82063=
76390 31565 70604 10270 20125 38226 40069 57001 70544 85404
91737 333   10278 20166 30/// 56208 59009 82830 83630=
76402 31958 00000 10214 20165 30072 40132 52005 74244 91740
333   10220 20160 30/// 58009=
76405 32980 11902 10302 20129 30095 40115 50005 81080 91750
333   10302 20158 30/// 56040 58008 81360=
76412 31766 31401 10328 20184 30103 40243 57003 70544 83030
91739 333   10355 20210 30/// 56030 58001 83356=
76423 32480 21701 10269 20132 38160 40077 58010 82200 91745
333   10287 20150 30/// 56900 59013 82817=
76458 32565 12705 10298 20225 30094 40104 57003 81200 91750
333   10315 20254 30/// 56100 58003 81830=
76471 32580 41705 10222 20124 37705 40070 52003 84200 91745
333   10232 20109 31/// 56100 59007 84841=
76491 32556 20902 10340 20215 39737 40126 57003 82200 91740
333   10350 20215 30/// 56500 59017 82825=
76539 31568 11201 10249 20125 38119 40043 57005 70544 81100
91754 333   10260 20132 30/// 56500 59012 81832=
76571 31560 71801 10244 20141 38161 40087 55005 70544 84730
91740 333   10250 20160 31/// 56110 59005 84850 82360=
76632 31580 70406 10190 20110 37602 40035 58003 71421 872//
91755 333   10200 20125 30/// 565// 85830 91304 90083=
76640 12456 61102 10318 20261 30120 40150 56010 60041 8386/
91755 333   10336 20248 31/// 5622/ 59002 82817 82617=
76654 31562 22703 10301 20235 30105 40109 56004 70544 81101
91750 333   10311 20243 30/// 56209 58001 81820=
76656 32575 50000 10250 20146 38513 40096 54000 85200 91750
333   10260 20150 30/// 56100 58004 85820=
76665 31566 70000 10239 20119 38107 40102 57007 70322 83238
91750 333   10245 20146 31/// 56110 57812 59002 83827=
76680 31550 71401 10211 20113 37750 40081 58002 70544 8587/
91757 333   10215 20126 31/// 5688/ 59002 82624 83827=
76683 32668 51801 10223 20150 37815 40089 57010 85200 91740
333   10237 20137 31/// 56800 59001 85850=
76687 11564 70902 10209 20172 38645 40132 50001 69901 72122
819// 91745 333   10235 20170 31/// 567// 59007 81925 86824
=
76698 32660 61101 10325 20241 30077 40092 57012 862// 91754
333   10334 20225 32/// 562// 59004 86820=
76723 32965 61804 10270 20215 30084 40114 52010 80007 91740
333   10303 20235 30/// 58008 86280 92302=
76726 31358 80000 10248 20174 38398 40078 57002 70544 882//
91750 333   10250 20163 31/// 567// 58000 88812=
76737 31580 61502 10226 20176 38769 40120 56003 70322 86200
91740 333   10240 20168 30/// 56200 57895 59005 84827 82720
91105 91515=
76743 31558 61801 10301 20232 30102 40122 58006 70222 85206
91745 333   10320 20244 31/// 562/0 59013 85829 81058=
76773 32570 42101 10262 20144 38394 40140 57012 84200 91750
333   10265 20152 31/// 56900 59004 84820=
60141 32560 43204 10335 20090 39459 40120 56007 84900
333 10354=
91570 36/// /0212 10253 20235 30078 40081 56012=
91574 36/// /2018 10221 20204 30097 40103 55008=
91598 06/// /1324 10174 30079 40111 53002 69961
333 69947=
76220 32580 12703 10284 20115 38139 40035 57011 81101 91740
333   10284 20100 30/// 56606 59012 81827=
76305 32970 41602 10315 20166 30075 40085 54000 85030 91750
333   10325 20260 30/// 56030 59002 85358 90801=
76393 31556 63001 10299 20210 39540 40103 55001 70544 83573
91750 333   10301 20230 30/// 56355 59010 83629 82360=
76499 31557 31403 10348 20196 30098 40128 55012 70541 83200
91740 333   10350 20210 30/// 563// 59003 83817=
76525 01360 71108 10146 20121 37484 40103 52002 60071 72042
875// 91750 333   10148 20114 31/// 563// 59003 60071 87607
=
76548 32475 41304 10282 20224 30113 40143 57001 84200 91759
333   10304 20256 30/// 56300 58003 84815=
76556 31562 43302 10282 20210 39090 40081 52004 70440 84200
91730 333   10300 20200 30/// 56700 58000 84820=
76658 31560 21405 10310 20203 39618 40166 57007 70544 82200
91735 333   10318 20220 30/// 56700 59001 82820 94082=
76741 31450 50401 10286 20234 30098 40118 54000 70544 83201
91740 333   10295 20242 30/// 569/9 59005 83814=
76805 32770 51802 10320 20220 30111 40111 57005 85/3/ 91745
333   10334 20252 30/// 56/4/ 59006 85356=
76848 32570 62302 10250 20185 38371 49978 56008 83230 91740
333   10255 20168 31/// 56590 59001 83822 83358=
76903 32680 33602 10324 20234 39981 40111 56009 81230 91745
333   10339 20244 30/// 56880 59012 81833 81933 81360=
16045 32970 53003 10202 20079 30100 40162 57012 83031 91745 333
10220 55310 83359=
16059 32560 83403 10166 20127 39822 40161 56007 8533/
333 10193 82923 84640 85359=
16080 32565 71305 10198 20135 30034 40155 58010 87800
333 10218 82825 85635=
16153 32997 01302 10210 20179 39898 40154 56008 91745 333 10227
55310 555 0213/=
16191 32775 60102 10195 20141 30147 40164 55005 86500
333 10230 86650=
16105 32962 01102 10191 20078 30156 40162 57013
333 10215=
16066 31565 60101 10170 20113 39910 40161
57009 70122 86400 333 86632=
16084 32460 81206 10174 20139 39986 40149 57006 888// 91745 333
10182 55300 85815 85650=
16120 32980 42305 10206 20166 30150 40153 57014 84040
333 10241 84358 97080 555 0313/=
16090 32775 61804 10201 20123 30075 40155 56012 81550 91745 333
10217 55300 81650 86358=
16110 32975 42407 10208 20097 30132 40156 55006 80001 91745 333
10228
55310 555 0315/=
16134 32970 22017 10084 20060 37842 48504 56009 80002 91740 333
10104
55302 95180 444 58195=
16149 12581 10506 10180 20141 30147 40163 57009 69942 81500 91745
333 10204 81630=
16008 41450 81711 10088 20073 38520 48480 56002 71062 888// 91745
333 10124 84810 86630=
16040 32665 70000 10118 20079 39257 42784 56008 87200 91745 333
10178
87835 =
16020 32670 73601 10168 20085 39862 40145 55006 85650
333 10207 85650 85359=
16061 32560 83202 10116 20116 39329 42781 56010 882// 91745 333
10148
55300 85821 83831=
16076 32560 71504 10196 20106 39876 40149 55010 83260
333 10225 83830 84357=
16114 31440 60000 10170 20135 39509 42794 55009 71022 83260 91745
333 10182 83815 83357=
16021 31/03 91708 10018 20014 37990 48505 58007 74542 91745 333
10056 89/02=
16022 31/06 92005 10038 20031 37860 48489 55003 74344 91745 333
10060 55300 89/02=
16033 32562 80804 10080 20043 38783 48494 57007 8613/ 91745 333
10109 86830=
16088 32665 71206 10203 20087 30048 40162 56008 84550 91745 333
10223 84640 84357=
16094 32965 20000 10198 20084 30097 40160 56011 80001 91745 333
10214=
16108 32970 42906 10199 20088 30138 40157 56012 80001
333 10227=
16140 12662 60706 10190 20136 30106 40155 56011 69982 82530
333 10196 82640 84358=
11036 32886 51403 10167 20027 39919 40142 57012 81872 333 10199
81857 84360=
11010 11686 83502 10162 20046 39768 40133 55013 69902 78011 8587/
333 10185 81845 84656 87461=
11120 11365 82604 10113 20108 39460 40149 53001 69902 76182 8682/
333 10160 81708 83850 86657=
11150 11468 83504 10122 20099 39620 40147 53001 69902 76162 8757/
333 10185 81710 84640 86656=
11240 32782 31504 10172 20058 39740 40143 57014 81841 333 10199
81856 83080=
11816 32984 21602 10175 20030 39993 40151 57007 82051
333 10208 82360 =
11826 32983 31201 10169 20058 39959 40152 57007 81031
333 10201 81360 83070 =
11903 32982 12502 10152 20043 39781 40150 55002 80001
333 10190 81070 =
11934 32786 61102 10107 20046 39354 42789 53004 85401
333 10158 85650 =
11968 12684 63403 10139 20085 39885 40159 54000 69902 81231
333 10177 81840 85357 =
11841 32780 52801 10139 20050 39782 40148 56004 81201
333 10180 81856 84070 =
11858 32689 10401 10168 20042 30010 40156 57009 81101
333 10211 81846 =
11916 32389 20000 10021 21022 37968 48470 54000 82201
333 10032 82806 =
11927 32783 22202 10164 20028 39895 40148 53003 81101
333 10210 81856 =
11930 31/00 91703 11032 21035 37367 47049 51001 74544
333 10016 89/00 =
11993 32682 60000 10153 20081 39948 40158 53002 85530
333 10192 85646 =
11855 32884 10801 10180 20039 39996 40156 56005 81441
333 10200 81656 =
11867 32784 31802 10143 20069 39851 40159 56003 81401
333 10194 81650 83070 =
11880 32970 12801 10165 20061 39988 40154 57004 80001
333 10204 81068 =
11918 32686 50702 10102 20044 39348 42787 55003 82408
333 10146 82646 84270 =
11933 32485 61402 10069 20039 38635 48487 53004 85464
333 10112 81610 85626 =
11938 32686 30104 10098 20054 39113 42780 53003 82801
333 10166 82840 =
11976 32782 50101 10146 20081 39904 40160 52001 85400
333 10185 85650 =
11978 32682 63101 10166 20107 30033 40158 57001 86500
333 10192 86646 =
12772 32684 43003 10180 20028 39874 40148 53002 82262
333 10209 82840=
12822 32682 29901 10193 20048 30013 40151 56011 81242
333 10202 81840=
12843 32982 13302 10188 20012 39993 40157 56005 81042 333 10206=
12882 32680 30903 10185 20099 30021 40150 54000 83100
333 10207 83840=
12925 32989 21801 10175 20076 39993 40160 56009 80002 333 10200=
12942 32680 32202 10167 20082 39928 40168 56005 82101
333 10200 82843=
12982 32982 13502 10181 20043 30064 40163 56003 80002 333 10212=
16400 32998 03407 10218 20201 39889 40169 51000 91745 333 10244
55310 22/// 555 0217/=
16420 32998 00208 10250 20097 30096 40159 53002 91745 333 10274
55300 555 0100/=
16470 32960 02913 10210 20189 39958 40189 56003 91745 333 10230
55310 22114 95000=
16410 32980 00208 10246 20153 30033 40168 53005 91745 333 10302=
16429 32966 03307 10224 20216 30162 40173 56005 91745 333 10254
55310=
16362 32560 32905 10222 20185 30139 40156 50001 83200
333 10253 83820=
16460 32960 01305 10237 20149 30135 40155 53000
333 10284=
17601 11980 32607 10242 20162 40070 53006 69922 70381 83080 333
10293 83359=
10004 46/60 ///03 10118 20077 30137 40137 57006
222// 00130
333 10126 20103 55310=
10015 32484 13304 10123 20063 30123 40133 56006 81802
222// 02117
333 10131 20103 553// 81817=
10020 12582 32906 10115 20055 30095 40131 55002 69922 83200
333 10126 20082 55309 2//// 83820=
10035 12580 22804 10128 20044 30076 40134 55003 69902 82800
333 10147 20088 55308 82830=
10055 11583 22804 10127 20064 30117 40127 56004 69902 70181 81231
333 10133 20095 55310 81823=
10147 11682 13204 10143 20031 30111 40129 56009 69942 70281 81131
333 10151 20087 55310 81840=
10162 16/60 /2202 10096 20057 30046 40129 56006 60052
333 10140 20070 55302 91113=
10184 11482 22802 10132 20059 30122 40129 57004 60022 72581 82900
333 10142 20090 55309 82919=
10224 32680 70603 10143 20058 30116 40122 56008 8323/
333 10162 20082 55301 83842 85358=
10270 11682 70302 10147 20056 30077 40131 55006 60012 70181 84242
222// 06160
333 10168 20086 55301 84843 83363=
10361 12781 52201 10140 20039 30029 40130 56012 69902 83531
333 10156 20084 55303 83656 83358=
10384 11782 62704 10152 20023 30071 40129 56011 69992 70282 81232
333 10160 20082 55309 81850 84360=
10393 11883 63201 10141 20047 30012 40136 57007 60012 70382 83540
333 10155 20082 55301 20388 30322 83656 86362=
10400 11680 82003 10132 20061 30072 40121 55007 69902 72052 8383/
333 10161 20095 55300 81830 83656 87363=
10438 11583 70502 10124 20062 39854 40130 58013 69902 70262 82871
333 10152 20066 55301 81825 83361 86363 96460=
10469 11481 70902 10112 20065 39977 40140 58006 69912 72586 8582/
333 10162 20073 55300 83815 83650 87460=
10488 11680 80701 10111 20077 39869 40146 57001 60012 70182 82107
333 10160 20083 55300 82848 88271=
10548 11485 81802 10089 20060 39599 40137 56010 69902 75152 887//
333 10117 20042 55300 88716=
10637 11462 80501 10109 20093 39992 40128 56016 60012 76362 8582/
333 10134 20078 55300 81815 85630 88550 90962=
10685 11568 83602 10079 20063 39476 40146 58008 69922 76062 888//
333 10136 20054 553// 84820 87650=
10738 11256 80802 10106 20106 39654 40116 56020 60062 76366 875//
333 10154 20066 55300 82704 83712 87622 96010=
10763 11559 80602 10108 20083 39756 40134 58012 69962 76162 878//
333 10156 20068 55300 20112 81825 87640=
10788 11660 81902 10115 20101 39707 40131 56009 69932 76165 8352/
333 10166 20084 55300 83640 88463=
10852 11458 81503 10103 20093 39573 40134 56018 60042 76362 8372/
333 10147 20081 55300 83710 88550=
10946 11357 82004 10099 20091 39314 40129 56013 60082 76566
333 10129 20079 55300 83706 87620 96010 96263 96461=
10091 12589 12607 10119 20062 30075 40126 57004 60052 81901
333 10129 20076 55310 20865 30256 81824 81933 91115 91212=
10113 32584 13503 10126 20070 30112 40131 56004 81230
333 10134 20102 55310 81822=
10129 11682 60104 10136 20043 30118 40131 55006 60022 70281 84830
222// 02169 2//01
333 10146 20090 55301 82835 83645=
10131 32582 13403 10128 20050 30119 40133 56006 81230
333 10140 20105 55310 81830=
10170 11585 42804 10128 20057 30111 40126 56006 69932 70381 82982
333 10142 20090 55308 82930 91113 91211=
10253 16/60 /0102 10134 20054 30106 40127 55007 69902
333 10170 20084 55303=
10280 16/60 /2903 10139 20043 30034 40130 56006 60012
333 10148 20078 55310 91113=
10291 11680 32401 10128 20068 30070 40136 55006 69942 71585 81963
333 10145 20086 55303 81833 81950 83076=
10305 11565 73502 10110 20090 30100 40132 50002 69932 76162 878//
333 10179 20076 55300 83820 87635=
10315 11565 81802 10108 20085 30061 40124 58005 69932 76186 8487/
333 10153 20078 55300 81820 84650 87361=
10385 11681 62303 10145 20036 30072 40132 57009 69972 70382 82842
333 10154 20079 55303 81833 84363=
10427 32484 81603 10064 20032 39126 48438 58010 8687/
333 10105 20032 55300 82810 86620=
10453 11/84 62104 10042 20018 38813 48446 58010 69962 74094 84841
333 10055 20009 55302 818// 81810 84616 91113 96417 96441=
10474 11672 71702 10138 20069 30008 40134 56008 69982 70282 8125/
333 10167 20083 55301 20495 81846 83359 87362=
10490 16/59 /1802 10120 20061 30023 40143 55004 69912
333 10160 20078 55300 20085=
10499 11582 80902 10116 20066 39854 40138 58011 60022 70182 8237/
333 10148 20087 55300 82921 88358=
10501 11462 80601 10106 20091 39870 40115 58012 60022 76166 888//
333 10146 20089 55300 81810 87646=
10513 11567 81503 10112 20087 30003 40123 56011 69902 75886 885//
333 10156 20080 55300 82623 87635=
10532 11572 81101 10114 20077 39895 40127 58014 69972 76086 8587/
333 10137 20059 55300 81820 83636 88460=
10544 11458 81401 10055 20038 39064 48448 56014 60012 76165 875//
333 55300 87611 96258 96451=
10554 11886 70502 10101 20054 39751 40134 58010 69902 70362 8557/
333 10143 20069 55300 20474 85657 87361=
10577 11680 82501 10100 20051 39644 40142 58010 69902 70186 875//
333 10154 20073 55300 20254 30253 87646 91113=
10578 11281 81903 10043 20022 38758 48458 56011 69912 75186 8322/
333 10083 20016 55300 20223 30211 83803 88450 96480 96460=
10609 11465 81201 10103 20097 39783 40109 57020 60042 76166 8587/
333 10140 20070 82810 85640 =
10655 11465 80402 10105 20098 39803 40126 58013 60012 76162 878//
333 10150 20068 55300 82816 87640=
10688 11575 81201 10100 20072 39619 40137 58007 69912 76162 8682/
333 10152 20070 55300 82830 86640  88463=
10708 11248 81003 10094 20088 39729 40110 56021 60062 76366 888//
333 10139 20081 55300 85706 87626=
10729 11356 80301 10114 20095 39999 40119 58021 60042 75962 8522/
333 10166 20092 55300 82809 83811 88525=
10776 11665 82401 10118 20101 39701 40138 56009 60012 76362 875//
333 10186 20077 55300 87640=
10803 11350 82206 10142 20131 39763 40115 58014 60132 76366 8272/
333 10149 20105 55300 83859 88530 96465=
10836 11256 81903 10081 20077 39260 40118 56019 60072 76366 8752/
333 10122 20078 55300 84706 87613=
10929 11556 80801 10101 20098 39604 40131 58016 60112 76366 885//
333 10129 20087 55300 88620=
10961 11/00 92717 11024 21024 37059 47029 55006 60022 77174
333 11017 21082 55300 96049 91132 91222=
10962 11/15 81907 10077 20070 39011 48465 56016 60072 76364 887//
333 10109 20068 55300 857// 88705=
41170 42968 03409 10311 20120 30000 40013 333 10384 59013=
16242 32965 02704 10219 20170 30152 40155 58001
333 10248 555 0////=
16158 32462 52508 10200 20163 30151 40158 57003 85800 91745 333
10240 55303 83815 83620=
16310 32697 23309 10248 20164 39948 40160 53001 82400 91745 333
10260 55310 82640 555 0100/=
16560 32980 03117 10256 20173 30179 40185 53004 91745 333 10288
55310=
57007 80002 333// 10224=
16170 32660 22610 10232 20160 30100 40144 55002 82100
333 10262 82845=
16206 32580 13110 10252 20150 30140 40148 56004 81100 91745 333
10284 81830=
16453 32997 02612 10228 20189 30078 40154 55001 91745 333 10264
55305 98077 555 0425/=
16480 32998 00305 10220 20208 30093 40153 53003 91745 333 10298
55300 555 0200/=
11101 11450 82003 10121 20120 39620 40134 55005 60102 76366
887// 333 20143 88719=
11022 32683 71001 10164 20017 39753 40130 56015 87070 333 10181
86359=
11028 32984 70502 10173 20039 39796 40127 56015 84032 333 10193 84361
86080=
11130 11758 80301 10117 20104 39565 40141 53003 60022 76366
887// 333 10174 88756=
11157 32684 79902 10152 20071 39371 40112 55009 878// 333 10179 81849
87656=
11172 32775 50000 10137 20009 57016 85100 333 10163 81650 85856=
11204 36/// /1302 10136 20070 39379 40144 333 10164=
11231 32684 42602 10166 20062 39597 40146 57008 83842 333 10192
81845 83658=
11464 11480 82505 10082 20035 39175 42771 56006 60012 70282 8147/
333 10169 81616 88457=
11487 31782 82903 10136 21014 39526 40133 56012 71511 8347/
333 10163 83656 88459=
11518 32789 83103 10138 20021 39709 40137 57008 8352/
333 10174 83650 88457=
11603 11780 73402 10114 20055 39672 40143 57005 69922 70362 83508
333 10156 83656 86270=
11659 32681 81302 10128 20052 39516 40140 56013 81407
333 10160 81633 88266=
11782 32882 42002 10131 20055 39847 40155 57004 81401
333 10180 81657 84070=
40029 57001 333// 10326=
91348 11459 81407 10240 20227 30029 40081 55000 60221 78022 8637/
333 56299 70384 555 93018=
86360 555 53045=
10156 82930 84835 555 53033=
84630 87645 555 53017=
57193 32962 01802 10179
20174 40023 57007 333// 10286=
16597 32962 02718 10228 20159 30080 40166 55002
333 10281=
16181 32562 22903 10247 20117 39900 40135 56003 81501 91745 333
10264 55308 81630=
16219 31/00 92710 10128 20112 38161 48530 54000 74541 91745 333
10162 55300 89/00 95090 95190=
16280 32997 03202 10228 20184 39929 40143 58001 91745 333 10250
55306 555 0217/=
16564 32598 12732 10240 20168 30028 40165 53001 81100 91745 333
10262 81825 555 0436/=
16520 32980 09909 10225 20167 30167 40194 51001
333 10249=
16539 32998 03206 10208 20196 30082 40194 56006 91745 333 10226
555 0317/=
16550 32998 01812 10238 20186 39989 40162 53004 91745 333 10304
55310 555 0300/=
16522 32598 13012 10204 20174 39961 40199 56008 81100 91745 333
10210 55310 81820 555 0300/=
26038 32498 60202 10115 20069 40104 52003 85305   333 10173   555
50118=
26045 12598 82105 10140 20089 40105 52003 69902 82979   333 10169
555 50124=
26058 12598 71903 10128 20086 40116 53003 69962 82839   333 10152
555 50113=
26115 32998 12005 10094 20071 40100 54000 80001   333 10115   555
50101=
26231 32998 12303 10120 20025 40117 52003 80001   333 10155   555
50128=
26242 11498 82001 10107 20101 40118 57003 60012 70282 82303   333
10154 82916   555 50108=
17022 32670 40000 10196 20175 40116 53007 82204 333
10215 82834 84070 92428=
17038 31620 69902 10193 20175 40105 51006 71011 83250 333 10217 83835
86360 92425=
17050 11558 72501 10193 20174 40123 52015 60032 79191
85970 333 10276 81930 84833 87359=
17060 32660 50105 10217 20143 40113 53007 82130
333 10234 82840 84360=
17096 11570 30616 10120 20060 38205 48457 53005 60012 70291 83200
333 10208 83830 10068=
17124 12665 33106 10192 20142 39228 40109 52013 69902 83200
333 10252 83835=
17128 11670 50104 20092 39034 40088 53010 69962 70292 83260
333 10220 83840 84360=
17170 32670 20000 10148 20038 38305 48471 53002 82100
333 10220 82835 10054=
17195 11558 70203 10130 20106 38944 48482 50019 60032 79522 87900
333 10248 83925 84830 10112=
17200 32565 72816 10238 20114 39120 40039 53005 85350
333 10298 81928 84835 86360=
17219 32965 03610 10240 20106 40113 52015 333 10304=
17240 11575 30000 10155 20128 38993 40097 55003 60072
70291 81101 333 10232 81830 83070=
17244 11670 51503 10152 20109 38954 48468 54000 60042 70292 85200
333 10227 85835 10093=
17280 32670 23009 10248 20021 39290 40026 53010 82100 333 82840=
17350 32660 51605 10236 20166 40075 55000 82150
333 10288 82835 85360=
17034 32670 71803 10184 20152 40098 53004 84270 333
10212 84835 87459 92428=
17070 12565 20401 10178 20147 39269 40104 53005 69912
82200 333 10204 82833=
17084 11670 50703 10171 20131 39222 40091 52012 60072
70192 83250 333 10243 83835 85360=
17090 11560 71304 10160 20135 38692 48477 52026 69962
78011 87900 333 10236 82930 85833 10081=
17098 11670 61105 10134 20105 38192 48484 52009 60052
70192 84250 333 10206 84835 86360 10094=
17160 32670 70000 10182 20128 38977 48477 53008 84250
333 10230 84840 87360 10087=
17184 32670 40206 10264 20167 40096 53009 82230 333
10318 82840 84360=
17190 11557 62507 10180 20122 38982 48472 53002 60042 79582 86900 333
10237 81927 85835 10088=
17210 32975 02702 10260 20051 39056 40014 56001
333 10312=
17234 32970 02705 10246 20114 40087 52009 333 10324=
17260 32670 62806 10240 20106 39280 40044 53002 85150
333 10328 85835 86360=
17290 32970 02504 10254 20138 40102 53001 333 10306
92428=
17370 32665 40402 10246 20196 40075 58008 82230 333
10280 82835 84360 92417=
17056 11560 73608 10204 20195 40123 53011 60012 79592
85970 333 10228 82925 84830 87360 92417=
17092 32670 42206 10230 20078 38790 48447 53004 82130
333 10275 82840 84360 10025=
17112 32970 00000 10212 20198 40116 53007 333 10266 92408=
17115 32660 40108 10211 20118 40109 53003 82130
333 10265 82835 84360=
17116 32662 63003 10221 20140 40116 52010 82150
333 10274 82835 85360=
17188 11565 70203 10150 20142 39080 40104 51012 60112
72991 87900 333 10250 82930 86835=
17202 32670 43209 10246 20038 39071 40042 53002 84200
333 10312 84835=
17248 11675 81408 10144 20118 38939 48475 58001 60052 72198
8452/ 333 10244 84636 88459 10091=
17292 32970 03103 10225 20105 39368 40088 52008 333
10290=
17330 31970 33203 10232 20150 40067 54000 70192 83030
333 10288 83360=
17042 32970 30401 10210 20183 40117 52017 83030 333
10275 83360 92428=
17074 12670 50000 10156 20120 39208 40110 51008 69952 83130
333 10190 83834 85360=
17085 31970 33506 10193 20124 40090 52010 70191 83030
333 10285 83360=
17100 11560 73103 10184 20108 39132 40080 52032 60102
76096 85970 333 10284 82925 83836 87358=
17140 32665 50404 10158 20105 38668 48465 52009 83150
333 10216 83840 85360 10074=
17203 32970 00000 10210 20073 38821 48500 53010 333
10300 10080=
17205 32980 02702 10190 20006 38310 48470 54000 333 10250  92418
10053=
17237 32970 02603 10242 20103 40090 53010 333 10304=
17250 11675 62903 10140 20124 38777 48482 52007 60032
72582 84260 333 10238 84840 86360 10099=
17255 11570 73005 10230 20186 39430 40066 54000 69902 70282 84250
333 10312 84830 87360=
17375 32975 00901 10244 20184 40081 56002 333 10283
92408=
33317 11580 63202 10121 20105 40143 53006 60032 70282
86500 333 10135=
33345 11497 82702 10168 20154 40104 53010 69972 72582 889// 333
10274 88713=
33506 11563 70701 10169 20160 40100 57006 60032 70298 83330 333
10292=
33587 11597 83202 10155 20141 40102 53008 60092
72598 883// 333 10275 88921=
33631 12998 63201 10161 20076 40155 57001 69902 86030
333 10198=
33663 32598 72703 10148 20094 40139 52012 8237/ 333 10238=
33711 32660 70804 10206 20132
40085 57007 85330 333 10248=
33837 32599 82702 10218 20169 40084 53001 85331 333 10239=
33910 32598 61804 10215 20188 40083 53002 82365 333 10251=
33946 31397 22003 10177 20162 40094 53007 70290 81601 333
10243=
34300 11997 69902 10198 20151 40100 57011 69902 70292 85031
333 10273=
34519 11660 71405 10229 20118 40097 53002 69952 70382 84300
333 10273=
34601 11997 60802 10190 20154 40092 55001 60052 70198 83061
333 10266=
10130 81919=
83362 85078=
91413 32469 30000 10244 20239 30061 40080 56010 82101 333 569/9
70051 555 93018=
12465 11675 61901 10110 20080 39929 40159 57001 69942 70181 83532
333 10156 20093=
12560 32799 20000 10146 20044 39822 40158 56005 81202
333 10174 20097 91108=
12695 32970 02703 10137 20066 39828 40161 55002
333 10164 20093=
12120 12498 22606 10122 20047 30122 40129 58002 69902 81202
333 10164 20100=
12250 11698 42303 10132 20055 30058 40145 55000 60042 72511 83901
333 10162 20094=
12295 11970 22801 10128 20068 39962 40143 53002 60012 70181 80002
333 10170 20124=
12330 11665 62102 10122 20063 30040 40146 50003 60012 72598 84932
333 10165 20101=
12375 11670 33104 10126 20064 30026 40154 53004 60052 70198 82360
333 10165 20108=
12424 32999 70000 10154 20052 39998 40146 57004 82061
333 10175 20101=
12100 12470 42702 10126 20052 30128 40135 57001 69982 84901
333 10149 20098=
12105 11598 32301 10132 20077 30092 40133 57001 60022 70181 81463
333 10140 20091 91110=
12135 11498 51202 10098 20083 30134 40137 53004 60032 72981 85200
333 10151 20098=
12185 11458 71502 10106 20090 30009 40142 55000 60032 79598 879//
333 10154 20100=
12195 12570 33501 10122 20059 39918 40141 52005 60032 83500
333 10146 20100=
12235 11497 42301 10118 20061 39932 40139 51002 69932 70181 83230
333 10149 20092=
12270 11598 42504 10124 20045 39965 40144 55003 60022 70198 81306
333 10148 20099=
12300 11570 63301 10123 20058 30052 40140 55003 60022 72582 83931
333 10153 20075=
12360 11699 22303 10124 20061 30017 40148 57003 69912 70381 81302
333 10161 20110 91111=
12385 11598 31001 10122 20074 39965 40151 55000 60012 70281 83900
333 10157 20103 91112=
12400 11984 63501 10130 20048 39913 40143 57003 69982 70198 84058
333 10153 20099=
12495 32797 20000 10136 20071 39868 40153 53003 81501
333 10172 20098=
12510 11199 72703 10027 21007 38345 48465 56004 69922 70182 81568
333 10033 21019=
12520 32699 70000 10141 20073 39723 40145 57007 8555/
333 10153 20086=
12575 32960 00000 10139 20057 39910 40159 56004
333 10169 20103=
12595 32597 12701 10137 20077 39902 40156 53002 81200
333 10166 20119=
11146 11/00 92312 11030 21038 36930 47031 57006 69972 77074
333 11025 89/00 92610=
57071 32970 02203 10231
20149 40001 57002 333// 10341=
26247 11598 81701 10119 20101 40120 58002 60032 70282 84539   333
10147   555 50111=
86500 333 10135=
40085 57007 85330 333 10248=
12210 11598 50202 10120 20056 30070 40138 53003 60012 70182 84480
333 10152 20090=
12230 11570 32402 10122 20074 30051 40140 56002 60022 70281 82960
333 10147 20093=
12310 11965 50000 10129 20076 30110 40139 57006 69952 70382 83082
333 10164 20094=
12399 32598 12803 10143 20071 39986 40150 52007 81400
333 10166 20123=
12418 11798 82101 10134 20071 30033 40145 56012 60042 70198 81457
333 10170 20095=
12469 11698 70401 10122 20061 39929 40156 55002 69962 70181 82456
333 10157 20106 91112=
12488 32597 30000 10141 20092 30002 40153 53001 82430
333 10175 20116 91108=
12540 32698 40000 10158 20107 39907 40151 56007 82406
333 10167 20093=
12566 32884 22201 10154 20067 39876 40157 55005 81431
333 10169 20101=
12625 32682 40701 10109 20035 39174 42789 55000 83202
333 10134 20076=
12690 32598 12901 10136 20053 39666 40163 54000 81400
333 10156 20080=
12115 12598 22303 10126 20070 30117 40130 58003 60062 81502
333 10131 20091=
12125 12598 12704 10128 20048 30082 40131 52002 69912 81900
333 10155 20094=
12200 12580 42701 10129 20058 30125 40132 55001 69952 84300
333 10159 20097=
12272 11570 53601 10123 20069 39973 40137 53002 69952 70182 85900
333 10152 20102=
12280 11570 52001 10111 20077 39982 40141 55003 60042 70198 84903
333 10151 20091 91111=
12285 16/// /2502 10125 20068 30032 40145 54000 60022
333 10163=
12345 12570 52202 10131 20059 30008 40149 56005 69982 82402
333 10154 20099=
12415 11699 80602 10134 20075 39997 40146 56005 69902 72522 84907
333 10169 20108=
12455 12670 60702 10138 20078 39913 40153 56005 69912 81208
333 10170 20098=
12497 11570 13203 10131 20074 39940 40155 53005 69902 70181 81900
333 10165 20121=
12500 11698 70302 10120 20052 39738 40147 55004 69922 72582 8536/
333 10154 20091=
12530 32598 71601 10152 20050 39953 40147 56005 82404
333 10179 20106=
12550 32570 43601 10131 20051 39803 40154 56003 81206
333 10162 20104=
12580 32670 22701 10146 20066 39920 40159 56003 82800
333 10172 20099=
12600 32584 32101 10144 20041 39684 40153 55006 82202
333 10164 20102=
12660 32570 23401 10155 20066 39810 40158 56001 82500
333 10179 20099=
11406 11566 80000 10106 20072 39585 40139 56007 69912 76022 8557/
333 10165 85623 88360=
11457 01981 82201 10076 20029 38863 48470 57010 69902 76022 8807/
333 10118 69905 88358=
11520 32784 83102 10152 20006 39777 40134 56012 8442/
333 10177 84650 88457=
11636 32786 81403 10129 20040 39472 42773 56013 8147/
333 10160 81656 88462=
11679 32981 81202 10141 20054 39673 40148 56007 82047
333 10182 82359 88270=
11723 32782 71202 10162 20049 39851 40139 57012 81446
333 10189 81656 87270=
11766 32786 52201 10105 20018 39281 42781 57006 81265
333 10145 81850 84070=
11774 32986 51701 10143 20086 39881 40146 57009 81042
333 10179 81360 85071=
11787 32589 32602 10064 21005 38662 48484 57004 82402
333 10116 82620=
17600 12880 33103 10227 20136 30068 40084 52011 69912 83080
333 10286 83358=
17609 11882 30306 10253 20178 30079 40081 53019 69902 70181 83080
333 10323 83358=
17270 32970 02708 10279 20121 39440 40036 52017
333 10353=
26215 32698 62305 10113 20054 40107 50002 81201   333 10145 91112
555 50116=
58102 31957 01802 10182 20176 39976 40025 57009 71000 333
10248=
58203 31958 21602 10177 20174 39992 40036 57003 71000 80002
333 10245=
58314 11962 00000 10190 20182 39954 40039 57013 69901 70060
333 10233=
58321 31940 00000 10199 20196 40043 57004 71000 333 10225=
58437 11/00 92904 10144 20144 38120 57011 60171 76064 333
10167=
58221 32960 32702 10195 20176 30013 40047 57001 80002 333
10247=
58338 11640 83201 10206 20203 40040 57008 60021 71060 885//
333 10218=
58424 11662 80000 10201 20193 30018 40041 57009 69911 76080
885// 333 10218=
57447 32770 70000 10191 20175 39557 40079 57006 875// 333
10264=
57554 31/07 90000 10182 20177 40070 57014 74740 333 10236=
10321=
10320=
57328 31940 00000 10184 20173 39689 40084 57005 71000 333
10236=
58730 11665 70000 10240 20233 40043 57013 69901 70080 8546/
333 10318=
58731 11965 50000 10231 20228 40044 57017 60111 70098 85040
333 10309=
58754 32962 21801 10228 20222 40045 57019 82030 333 10282=
58911 32970 00000 10224 20214 40071 57006 333 10315=
50949 11565 81102 10168 20153 39878 40037 52018 60131 79598
889// 333 10261=
50963 32770 80706 10160 20057 39915 40043 54000 885// 333
10247=
50978 32580 30904 10152 20077 39784 40059 57001 83200 333
10243=
45007 32475 11603 10284 20243 30058 40067 58021 81200
333  59024 81815 =
10146=
56977 11470 40000 10201 20190 40055 57004 60061 70098 80400
333 05151 10294=
57206 31959 81402 10221 20174 40064 57009 71000 8807/ 333
10293=
57713 32957 03601 10167 20156 40081 57008 71000 333 00100
10244=
57279 32965 01102 10177 20165 40052 57005 333 10230=
10235=
10338=
56763 11678 70000 10215 20200 40047 57004 60081 70098 874//
333 00454 10347=
56959 11770 20000 10227 20214 40046 52005 69901 70098 82400
333 05151 10336=
57306 32962 00000 10198 20184 40076 57014 333 10267=
47401 42980 71501 10082 20060 30080 40093 51012 80002=
47412 42/70 71201 10136 20062 30057 40088 58003 82032=
47420 42/82 71603 10082 20037 30058 40105 53013 8703/=
47426 42965 70505 10144 20029 30045 40088 58004 80002=
47582 42/80 81303 10159 20074 30060 40085 56012 8801/=
47590 42970 73103 10199 20086 30035 40085 58003 80002=
47600 41980 82102 10184 20084 30046 40062 58025 702// 8807/=
47648 41958 71804 10198 20185 30058 40090 58009 71022 85072=
47662 42960 71904 10219 20168 30041 40082 57008 8707/=
47678 42/70 72802 10210 20197 30004 40097 56009 82172=
47740 41/56 83202 10159 20139 30024 40061 56014 76162 8272/=
47778 42/70 82702 10210 20158 39989 40075 57016 8802/=
47807 41/58 81304 10178 20160 30016 40033 56028 76162 8477/=
47827 41/60 80401 10189 20174 30026 40062 56022 7616/ 8227/=
47843 41940 82701 10203 20191 39996 40026 57026 76166 8802/=
47898 41/60 80303 10172 20162 30037 40075 56016 7616/ 8472/=
47909 42/65 71702 10250 20223 30069 40077 56015 8227/=
47918 42/70 51906 10276 20254 30079 40087 56012 85200=
47936 42/65 72007 10255 20243 30031 40091 56013 872//=
47945 42/65 21904 10245 20242 30081 40104 56013 82100=
47971 41/60 83001 10239 20227 30115 40124 56010 70282 882//=
47991 41/70 72306 10253 20225 30134 40144 52004 72581 8433/=
82100 22244 00284 2//// 3//// 80262=
84200 22223 00270 20402 315// 40906 80230=
81001 22264 00291 20405 323// 40810 5//// 6//// 80249 ICE /////=
84101 22200 00140 20505 329// 40506 5//// 6//// 80130 ICE /////=
82400 22265 00170 20201 331// 40604 80180=
81251 22200 02100 10702 70009 333 91113=
10264=
56167 32980 00000 10076 20041 37116 52007 333 00054 10239=
56188 31958 70000 10205 20170 40070 57028 71000 87040 333//
05103 10259=
56182 32980 00000 10059 20010 37223 52003 333 00154 10216=
56079 32980 00000 10022 21016 36715 57009 333 05252 10156=
56173 32980 00000 10017 20000 36682 57008 333 05154 10154=
56172 32980 00000 10072 20038 37364 52006 333 00052 10262=
54539 32970 01402 10157 20138 30029 40043 57006 333// 10235=
53798 32960 50402 10209 20172 39919 40007 52003 80002 333//
10305=
50948 32570 70402 10188 20106 40037 52001 879// 333// 10282=
52984 32980 00000 10121 20083 38013 57013 333 05702 10270=
52986 32980 00000 10111 20072 38046 57008 333 05651 10272=
52674 32980 22902 10132 21001 37974 57001 80002 333 05106
10259=
52424 32980 00903 10208 21003 49990 52004 333 00004 10327=
52633 32980 01102 10040 21018 36766 57002 333 05103 10161=
52418 32980 50902 10229 21004 38775 49979 52006 81042 333
00005 10329=
52713 32680 80901 10126 21077 36897 57005 885// 333 05404
10207=
52602 32980 70203 10108 21091 37253 57004 80002 333 05205
10226=
51886 32978 20701 10122 21074 37107 57001 80002 333 05100
10231=
51053 32980 00203 10190 20051 40039 57005 333 05303 10281=
51379 32780 62003 10143 20103 40055 57005 82402 333 05252
10286=
51346 32980 02004 10220 20069 40043 57002 333 05252 10302=
51356 32970 01802 10177 20091 40043 57008 333 05253 10296=
52737 32980 00703 10130 21023 37063 57005 333 05507 10198=
52908 11956 80000 11004 21008 35806 57005 60021 77087 8802/
333 05201 10083=
52681 32980 70000 10198 20028 38556 49998 52001 82042 333
05202 10306=
56004 11670 72704 10013 20007 35866 57001 69911 78380 86902
333 05302 10124=
52818 32980 22004 10164 21017 37203 52001 80002 333 05508
10248=
52955 32980 30000 10077 21037 36965 57005 80002 333 05505
10200=
53698 32961 71801 10214 20177 40017 57004 80002 333// 10283=
53673 32980 00401 10200 20033 49996 57001 333// 10326=
91925 32480 51802 10271 20225 30074 40132 51021 82201
333 56209 82816 85076
555 10406 58010=
91938 01465 70212 10274 20250 30094 40097 53023 69981 72998 86903
333 56809 69987 81911 86816
555 13625 58001=
91943 32575 10414 10287 20229 30124 40127 53018 81201
333 56109 81823
555 10519 58010=
91948 32480 40108 10256 20225 30060 40162 53022 84200
333 56800 84816
555 10123 58026=
91954 01575 53119 10249 20220 30030 40033 53015 60011 70381 81201
333 56609 60017 81820 85080
555 13031 59012=
91958 11470 73319 10239 20202 30026 40028 51016 69941 7018/ 83808
333 56709 83818 87271
555 13237 59007=
89642 43/// /1808 11104 21168 30134 40191 56005
333 01872 91172=
78970 11450 80705 10259 20248 30106 40131 60021 71586
333 02299 10298 20240 58010 83810 88460 90926
78962 11460 80810 10260 20241 30128 40136 60284 72198 8782/
333 05299 10270 20250 58013 84808 86630 88558 90916=
81401 01462 70506 10302 20241 40099 69941 71792 879//
333 58009 69947 83910 85826=
60020 32667 12104 10225 20151 30122 40167 56005 81500
333 10246 92427=
60030 32560 20218 10222 20187 30099 40154 57003 82500
333 10238 92436=
60040 32560 10317 10260 20195 30129 40154 58008 81500
333 10295 92436=
60338 32982 00805 10250 20173 30110 40173 57010
333 10268 92408=
71918 460// /0419 11072 39792 40212 51004 333 11057 21082=
60150 32560 53008 10325 20124 39514 40121 57007 85900
333 10340 84823 82926=
71261 36/// /2012 10197 20099 39931 40187 56018 333 10201 20109
70000=
71265 36964 00706 10173 20108 30114 40207 58014 333 10193 20107
70000=
76577 32570 80000 10214 20161 38049 40110 50004 86266 91751
333   10217 20152 30/// 56126 58001 86826 87358 87274=
76644 32460 61603 10345 20209 30115 40125 57013 84803 91755
333   10345 20235 30/// 562/9 59004 84820 82050 91006 91516
=
76695 32660 30402 10343 20236 30104 40114 57015 83200 91754
333   10343 20230 31/// 56300 59003 83836=
76750 32560 61103 10327 20230 30115 40125 57004 82231 91750
333   10335 20237 30/// 56235 58007 82820 83070=
71397 32974 13307 10161 20022 30216 40250 58013 80001 333
10172 20019 70000=
71398 36/64 /2001 10169 20013 30205 40254 56011 333 10169 20030
70000=
71400 36/64 /0207 10149 20031 40212 333 10149 21026 70007=
71410 36/64 /0000 10163 21036 30228 40257 58015 333 10163 21006
70000=
71411 36/60 /1810 10111 20065 30266 40276 55000 333 10112 20075
70000=
71412 46/// /0306 10080 20061 30246 40259 58004 333 10081 20034=
71430 36/64 /1506 10157 20123 30121 40217 58006 333 10157 20078
70000=
71431 36/// /1006 10123 20101 30123 40217 58010 333 10123 20095
70000=
71432 36/64 /3203 10172 20149 30112 40208 58008 333 10186 20090
70000=
71436 36/64 /1708 10226 20112 39839 40191 58018 333 10227 20104
70000=
71441 36/// /3011 10209 20014 39824 40125 58005 333 10211 20049
70000=
71474 36564 63405 10117 20029 38959 40182 58006 333 10121 20024
70030=
71475 36/// /1203 10147 20080 30094 40186 58006 333 10147 20088
70010=
71538 32974 61713 10207 20099 39961 40187 58016 80001 333
10209 20119 70000=
71600 46964 03207 10092 20044 30258 40264 51006 333 10101 20056=
71601 32974 11711 10095 20051 30196 40259 56002 80001 333
10113 20035 70000=
76593 32470 20502 10286 20245 30125 40141 57008 82200 91750
333   10302 20228 30/// 561// 59002 82830 92011=
71816 32974 61707 10182 21003 30125 40186 56019 80001 333
10189 20010 50560 70000=
71817 36964 00910 10039 21019 30205 40220 56003 333 10046 21005
70000=
71818 32974 23609 10085 20015 30191 40209 57014 80001 333
10090 21029 79999=
71821 37964 02210 10190 20075 39803 40139 50001 743// 333 10202
20130 70000=
71822 36564 62019 10198 20082 39690 40154 55013 333 10214 20081
70000=
71825 32274 72212 10160 20022 39524 40186 56010 87140 333 10167 20006
70000=
71827 11474 72108 10120 20092 39858 40095 55002 60031 72582 84170
333 10156 20102 70032 90957=
71828 36864 82012 10130 20038 39536 40167 56008 333 10163 20022
70000=
71831 11769 82603 10135 20097 39856 40130 53002 60011 78022
885// 333 10173 20133 70012 90931=
71832 17/64 /0000 10124 20124 39817 40135 50005 60071 7//4/ 333
10151 20113 70076=
71834 11456 82006 10116 20108 39706 40126 52002 60021 76166
885// 333 10126 20105 70108 90983=
71836 17464 /2109 10163 20133 30100 40111 50006 60071 7//4/ 333
10175 20115=
71842 32774 52005 10185 20039 39644 40110 58011 83101 333 10188 20066
70000=
71845 32774 22609 10176 21035 39634 40095 57014 81101 333
10183 20088 50920 79999=
71850 32874 32610 10192 21019 39624 40109 57006 82101 333 10192 20092
70000=
71852 36964 02712 10201 20009 39830 40117 58008 333 10207 20011
70005=
71854 32774 22608 10173 20022 39640 40101 57018 82100 333
10175 20025 70000=
71855 36964 02826 10181 21047 39744 40111 58010 333 10184 20027
70000=
71856 36964 02616 10184 21002 39831 40109 56014 333 10184 20024
70000=
71858 36/64 /2611 10094 21028 39837 40115 51005 333 10094 21023
70000=
71861 36964 03020 10163 21040 39437 40150 56004 333 10163 20034
70005=
71862 32774 12912 10170 21012 39480 40170 53002 81100 333
10175 20062 50480 70000=
71863 36964 03022 10162 21035 39480 40170 50000 333 10167 21006
70005=
71607 36/// /1304 10185 20064 30221 40253 56011 333 10185 21005
70000=
71609 32674 12109 10152 20049 30122 40257 58006 81100 333 10164 21014
70000=
71610 17764 32107 10218 20089 39929 40221 58017 69951 7//4/ 333
10221 20046 70005=
71621 32774 82009 10190 20130 30110 40215 58004 81101 333
10196 20066 70000=
71623 32974 81812 10195 20086 39870 40202 58018 80002 333 10201 20097
70000=
71624 32674 81711 10210 20115 39995 40204 56015 82102 333
10216 20098 70000=
71625 36664 62010 10236 20098 30029 40186 58018 333 10241 20093
70000=
71627 36764 32309 10225 20099 30170 40213 56015 333 10225 20088
70000=
71628 32782 62013 10217 20087 30075 40213 57009 85101 333
10227 20092 70000=
71630 32674 82205 10205 20103 39860 40199 57014 83578 333
10214 20070 70000=
71631 36/64 /1908 10189 20103  333 10190 20103 70000=
71632 36/64 /2205 10196 20119 39961 40191 58009 333 10196 20091
70000=
71633 32574 82107 10207 20135 39918 40184 58014 82101 333
10212 20077 70000=
71700 32774 21607 10194 20057 30217 40242 56017 82100 333 10195 20000
70000=
71706 32574 22504 10136 20064 30194 40255 58010 81101 333 10144 21018
70000=
71707 32574 10209 10143 21013 30172 40249 57003 81501 333 10146 21002
70000=
71709 32980 12810 10109 20008 30241 40254 56005 80001 333 10113 20032
70000=
71711 32874 60705 10178 20073 30173 40223 57015 83074 333 10194 20015
70000=
71714 46/// /2007 10212 20095 30128 40219 58020 333 10214 20068=
71715 36/64 /2509 10182 20056 30039 40220 56017 333 10182 20059
70000=
71718 32783 82906 10159 20061 30155 40220 58019 82503 333 10171 20024
70000=
71719 36/// /1714 10148 20060 30223 40229 56014 333 10156 21010
70000=
71725 36664 32015 10210 20081 39760 40166 55007 333 10221 20090
70000=
71726 36/64 /2310 10201 20068 39665 40193 58011 333 10201 20051
70000=
71727 32780 51706 10217 20052 39995 40188 57028 84101 333
10224 20067 70000=
71728 32786 71811 10214 20067 39965 40181 58025 83101 333 10222 20073
70000=
71730 32674 82015 10192 20108 39757 40172 58007 8311/ 333
10204 20091 70000=
71731 33/// /2314 10200 20096 39745 40186 57013 333 10207
20114 70000=
71733 36664 31812 10153 20114 39934 40168 56018 333 10170 20100
70000=
71738 11566 80603 10110 20104 39778 40125 58027 60031 76162
8652/ 333 10118 20081 70034 90921=
71739 32774 82210 10205 20097 39774 40126 58011 82174 333 10218 20103
70000=
71749 17132 60000 10103 20103 39885 40127 53001 60021 7434/ 333
10110 20096 70020=
71799 11574 81305 10115 20086 30162 40185 52005 69961 78082
8587/ 333 10125 20071 70006 90915=
71801 11374 83324 10047 20020 30016 40191 52016 69901 70252 885//
333 10055 20001 79999 90941=
71803 11474 73513 10047 20000 30036 40225 52009 69901 70288
87500 333 10051 21008 70016 90953=
71807 36/// /3513 10120 20037 30188 40204 51007 333 10120 20013
70000=
71808 36964 02405 10060 21007 30179 40226 56004 333 10063 21013
70000=
71809 32974 23310 10174 20019 30184 40211 55002 80001 333 10175 21028
70000=
71810 36/64 /2404 10135 21036 30164 40228 56011 333 10135 21019
70000=
71811 32683 71506 10104 20054 30154 40223 57011 81102 333 10120 21014
70000=
71813 36964 32509 10142 21005 30206 40219 58011 333 10149 21003
70000=
71814 36/// /2109 10093 20038  333 10098 20000 70000=
71815 32974 22515 10154 20013 30194 40226 54000 80004 333
10157 20026 70000=
71894 36/// ///// 10145 30183 40192 53003 333 10157 20073 70000=
71896 32589 73608 10127 20055 39384 40208 58004 81271 333 10129 20007
70000=
71897 32974 33220 10118 20087 30182 40214 54000 80001 333 10120
20077 70000=
71898 36964 03210 10111 20054 30197 40241 55002 333 10112 20045
70000=
71899 11474 82816 10084 20056 30206 40253 51005 60011 71661 887//
10092 20055 70000 90910=
71902 32974 20906 10035 20005 30173 40182 57021 80002 333
10046 21040 70000=
71905 32574 82515 10102 20062 30055 40068 53017 8857/ 333 10170 20080
79999=
71906 32774 61406 10185 20044 30042 40088 57021 83571 333 10185 21025
70000=
71909 36964 01511 10004 21012 30117 40160 56010 333 10006 21025
70000=
71910 17262 80916 11009 21015 30054 40118 56009 69951 7454/ 333
11008 21023 70010=
71911 46064 /0218 11075 30174 40231 53002 333 11074 21111=
71912 32574 82716 10073 21004 39853 40033 56002 885// 333
10080 20014 70008=
71913 17159 83010 10014 21017 39953 49989 51009 60071 7434/ 333
10018 20003 70105=
71915 32674 60713 10030 21004 30014 40096 56009 81501 333
10030 21004 70000=
71917 32586 52203 11045 21090 30228 40242 56004 82571 333
11041 21082 70000=
71922 11574 83124 10040 21028 39687 40152 52013 69921 78182 885//
333 10047 21005 70008 90916=
71924 32974 53204 11106 21133 30199 40290 56002 82031 333
11105 21148 70000=
71925 31774 70214 11101 21122 30250 40287 53002 73622 84570
333 11098 21144 79999=
71928 36/64 /0000 10123 21056 39062 40219 51001 333 10130 20025=
71114 36764 62809 10146 20096 30120 40167 56008 333 10146 20088
70000=
71119 36/// /0304 10134 21030 333 10138 20038 70000=
71120 32774 73516 10109 21026 39558 40211 53002 81104 333
10109 21001 70000=
71122 17/64 /0606 10035 20026 38626 40234 53010 69981 7//4/ 333
10046 20014 70068=
71123 32774 13508 10135 21043 39366 40228 51006 81101 333
10139 21004 70000=
71125 32574 83415 10084 21010 39606 40191 52004 87502 333
10104 21020 70000=
71129 32974 13510 10160 21070 39373 40196 50002 80001 333
10160 21001 50720 70000=
71130 32774 83020 10077 21015 39688 40141 53001 885// 333
10090 20003 50800 70000=
71138 32874 13120 10134 21047 39546 40144 56005 81130 333
10141 20022 70000=
71140 32974 12612 10195 20019 39646 40136 58007 81100 333 10195 20047
70000=
71141 32574 72912 10073 21029 39814 40088 55002 87500 333
1079 20029 70002=
71145 11474 62812 10085 20060 39782 40070 55009 60021 70198
85860 333 10120 20060 70034 90921=
71148 36/// /2810 10185 20040 39576 40144 58008 333 10185 20039
70000=
71182 36764 62405 10176 20021 39648 40180 56009 333 10183 21004
70000=
71185 36964 02904 10069 20029 30202 40226 50003 333 10071 21028
70000=
71187 17664 31805 10129 20036 30194 40221 56017 69951 7//4/ 333
10161 21017 70005=
71188 32574 60714 10134 20018 30182 40223 57014 81504 333
10154 21030 70000=
71196 36464 83524 10038 20016 30176 40213 53014 333 10041 20002
70000=
71200 17/// /1702 10113 20101 69921 7//4/ 333 10116 20092 70002=
71043 11683 81505 10103 20013 30168 40261 51003 69901 71582 84870
333 10114 20069 50480 79999 90960=
71045 36/// /1705 10068 21007 39407 40268 51003 333 10068 21010
70000=
71050 36/64 /2002 10114 20052 39138 40203 333 10114=
71068 32774 20707 10134 21045 39555 40243 50001 81101 333 10144 20038
70000=
71069 36964 03009 10112 21056 39540 40244 51003 333 10115 21017
70005=
71076 46/// /0213 10081 21048 39831 40226 51012 333 10081 21024=
71077 17/64 /3216 10029 20024 39670 40200 53014 60011 7//4/ 333
10029 20000 70012=
71078 11/08 93117 11001 21005 39638 40077 53008 60031 76876
333 10014 21017 41997 70030 90973=
71079 11474 72715 10053 20016 39778 40052 56003 60011 72687 82273
333 10061 20012 70014 90937=
71081 371// 80316 11013 21016 30160 40171 53001 745// 333 11007
21020 70000=
71082 36664 33002 11089 21106 30183 40224 55000 333 11078 21132
70000=
71083 32274 80615 10018 21001 30023 40060 55001 8757/ 333 10019 21002
70000=
71090 17359 81105 11048 21059 30206 40241 56007 69951 7//4/ 333
11020 21080 70010=
71092 46316 80918 11061 39536 40200 55003 333 11032 21067=
71093 460// /1410 11066 39716 40216 56009 333 11064 21078=
71094 460// /2502 11032 39287 5/006=
71095 36964 02304 11072 21105 30155 40228 55002 333 11072 21137
70000=
71101 36964 03516 10117 20030 30245 40253 58004 333 10120 20067
70000=
71104 32674 33305 10128 20035 39093 40192 57005 82201 333 10128 21004
70006=
71108 11361 82004 10113 20094 30112 40183 52003 69981 78022 888//
333 10118 20061 70008 90942=
71109 32580 53108 10125 20072 30188 40215 50000 86500 333 10125 20071
70000=
71103 46964 03407 10154 20061 39540 5/014=
71115 36/// /2604 10156 20058 333 10162 20049 70000=
71121 36964 00310 10134 21062 39407 40227 51004 333 10143 21006
70005=
71127 46764 33318 10095 21032 39479 40212 51007 333 10100 21038=
71143 36/// /3020 10137 20020 39794 40103 56013 333 10137 20073
70000=
71073 16/// /3614 10050 20007 39811 40234 51017 60021 333 10051 21012
70098=
71075 16/// /3312 11015 21029 39523 40126 53022 60011 333 11015 21040
70044=
71096 460// /0504 11039 39478 40209 56008 333 11011 21048=
71194 36/64 /3306 10210 21028 30187 40200 58003 333 10210 20026
70000=
71197 36964 02824 10096 20029 30186 40236 51006 333 10111 20028
70000=
60195 31670 7//// 10235 20093 38553 48570 71792 879//
333 10290 85833 83940 95500=
71201 46/// ///// 10146 333 10148 20095=
71851 36/// /2710 10196 20006 39790 40116 58014 333 10196 20071
70000=
71873 36/64 /3513 10142 21063 39279 40225 51004 333 10142 21018
70000=
71875 17564 83304 10091 20053 38832 40210 58001 60011 7//4/ 333
10091 20026 70010=
71802 36/// ///// 10156 20058 40198 333 70000=
71819 32574 20905 10076 21011 30180 40215 58007 81101 333 10094 21004
70000=
71846 36/64 /2307 10166 20011 39784 40089 58012 333 10166 20034
70006=
71952 36/// /2903 10129 20007 39369 40216 58008 333 10132 21031
70000=
71967 36/// /1104 10096 20046 39300 40269 58006 333 10100 21028
70000=
71865 36/64 /3106 10116 20001 39487 40163 56006 333 10116 20024
70000=
71866 36964 03119 10121 21027 39567 40176 56006 333 10133 21021
70000=
71867 32674 72919 10058 21034 39775 40107 53005 87500 333
10072 20008 70000=
71868 36664 82716 10077 21018 39697 40135 55000 333 10079 21007
70000=
71869 32674 83021 10074 21018 39645 40166 53004 86501 333 10075 20009
70000=
71870 36964 03415 10153 21070 39230 40190 51001 333 10164 20011
70000=
71871 32574 23312 10103 21020 39407 40208 55000 81101 333 10105 20010
70000=
71872 32883 13305 10149 21042 39352 40197 57002 81200 333 10169 20028
70006=
71874 36864 30508 10139 20017 39112 40195 58003 333 10141 21011
70000=
71876 32774 13120 10113 21022 39527 40186 55002 81101 333
10124 21020 70000=
71877 32680 80504 10107 21015 38958 40226 51005 83871 333
10109 20024 70006=
71878 32774 30305 10146 21029 39156 40222 53005 82170 333 10151 20000
70000=
71879 36964 03608 10137 21053 39425 40223 51004 333 10139 20017
70005=
71880 32582 60000 10120 20041 39088 40179 58004 85170 333 10124 20046
70000=
71881 36964 00906 10126 21004 39134 40224 53002 333 10130 21010
70000=
71882 36864 30000 10155 20053 39635 40162 58016 333 10156 20047
70000=
71883 36/// /0408 10169 20022 39369 40173 56019 333 10174 21003
70000=
71887 32683 52802 10159 20056 39748 40162 58018 82201 333 10164 20062
70000=
71891 36764 63506 10149 20078 39902 40176 56010 333 10151 20095
70000=
71892 11574 72916 10133 20099 30173 40178 50002 69921 72582 82270
333 10138 20091 70002 90931=
71702 36/// /0000 10136 20017 40254 333 10136 20006 70000=
71717 32774 22008 10200 20015 30192 40233 57016 82100 333
10204 21012 70000=
71434 36/// /2913 10146 20055 39999 40063 51003 333 10147 20064
70000=
71450 36/// /3021 10155 21087 39465 40176 58001 333 10157 20012
70000=
71473 17/// /3105 30151 51006 69921 7//4/ 333 70002=
71490 36/// /0000 11089 21093 39935 40252 50000 333 11077 21107
70000=
71629 32569 81908 10211 20128 39976 40208 58010 83101 333
10215 20055 70000=
71930 32774 01006 10122 21056 39304 40233 50000 81100 333 10135 20008
70000=
71931 36/64 /3311 10105 21071 39547 40230 54000 333 10105 20006
70000=
71932 36964 03214 10095 21078 39782 40237 51009 333 10099 20012
70005=
71933 36964 03408 10094 21090 39959 40248 51010 333 10105 20006
70000=
71934 32974 20207 10105 21082 39996 40253 53001 80001 333
10105 21014 70000=
71935 32974 43206 10161 21032 30045 40252 57004 84030 333 10168 21020
70000=
71938 11274 70103 11054 21095 30288 40318 51003 69901 72287
87500 333 11051 21076 42008 70022 90973=
71940 32882 20910 10157 21045 39428 40226 58001 81071 333 10160 20018
70000=
71943 32774 61207 10137 21040 39404 40233 53004 81131 333 10144 20054
70000=
71944 17964 63608 10135 20048 39392 40215 58005 69951 7//4/ 333
10135 20010 70010=
71945 32983 71205 10166 21015 39771 40234 56003 81071 333 10170 20076
70000=
71946 32674 20000 10154 20020 30027 40237 58006 81180 333 10161 20039
70000=
71948 46964 00812 11100 30206 40322 50000 333 11098 21128=
71949 36/64 /2604 10109 20011 39392 40254 56006 333 10109 20021
70000=
71950 32882 83105 10113 20002 39598 40223 58012 81101 333 10113 20003
70000=
71951 32680 63204 10114 20029 39962 40228 58010 81101 333 10114 20037
70000=
71957 36964 00907 10048 21025 30179 40267 56005 333 10050 21027
70000=
71958 36864 60506 10097 21028 39299 40264 56009 333 10105 21026
70000=
71964 31686 60304 10077 20030 39414 40269 58001 71522 86200
333 10081 20027 70004=
71966 46/// ///// 10136 333 10136 21015=
71968 462// 30000 11048 30200 40265 56004 333 11043 21087=
91784 31598 11808 10230 20165 40109 70200 81100   333 564// 81820=
91792 31598 51605 10216 20160 40131 51001 70301 85101   333 564/9
85820=
91554 32581 13401 10220 20212 40078 57002 81100
333 567// 81825=
91557 32581 10000 10195 20193 40095 56005 81100
333 569// 81825=
91568 32580 10000 10200 20194 40106 5//// 81100
333 569// 81825
60127 32970 20902 10343 20119 39578 40131 57008 80002
333 10370 82073=
94120 46/// /1310 10187 20036 30082 40117=
94150 46/// /1613 10233 20150 30039 40100=
94203 46/// /1104 10107 20050 30141 40152=
94207 35/// /0816 1//// 30129 40140 57011=
94212 46/// /1006 10115 21005 39688 40168=
94216 46/// /1508 10172 20004 30109 40160=
94238 46/// /1312 10096 20008 39760 40191=
94268 46/// /1607 10158 20031 30108 40123=
94287 46/// /1517 10191 20055 30130 40139=
94294 46/// /2014 10160 20027 30156 40166=
94298 35/// /1717 10212 30120 40126 57005=
94299 46/// /1726 10218 20186 30100 40111=
94300 46/// /0205 10166 20114 30159 40169=
94302 46/// /2205 10111 20082 30171 40177=
94312 46/// /1408 10117 20064 30160 40170=
94317 46/// /0000 10032 20001 39601 40198=
94319 46/// /1505 10092 20052 39857 40195=
94326 46/// /2203 10020 20016 39607 40242=
94332 46/// /1611 10102 20020 39792 40185=
94346 46/// /1707 10049 20017 39981 40207=
94363 46/// /1610 10078 20019 39957 40178=
94367 46/// /2009 10121 20067 30122 40160=
94374 46/// /1605 10098 20022 30157 40174=
94394 35/// /2013 10191 30111 40119 57012=
94403 46/// /0307 10154 20121 30126 40167=
94429 46/// /0205 10107 21001 39739 40212=
94430 46/// /0406 10101 21003 39610 40208=
94461 46/// /1109 10036 20000 39553 40242=
94462 46/// /1406 10045 20017 39684 40256=
94510 46/// /0000 11009 21027 39850 40206=
94515 46/// /2505 10006 21011 39834 40191=
94552 46/// /2709 11003 2//// 39680 40152=
94578 46/// /2712 10068 21022 30117 40128=
94584 46/// /2615 10084 20011 30025 40136=
94601 46/// /0221 10159 20073 30120 40137=
94610 46/// /3612 10179 21029 30160 40184=
94637 46/// /0406 10079 20011 39817 40254=
94638 46/// /0310 10088 20066 30230 40263=
94647 46/// /3405 10098 20096 30172 40295=
94651 46/// /0806 10097 20085 30223 40302=
94653 46/// /0907 10055 20040 30281 40300=
94659 46/// /1908 10078 20044 30079 40279=
94672 46/// /0000 10074 20062 30266 40271=
94693 46/// /2405 10044 20039 30178 40241=
94703 46/// /2507 10045 20024 30081 4////=
94729 46/// /2309 10033 20013 39280 40139=
94767 46/// /2514 10094 20012 30107 40113=
94776 46/// /2816 10078 20020 30108 40118=
94791 46/// /2509 10086 21039 30103 40110=
94802 46/// /0219 10147 21004 30101 40184=
94804 46/// /2112 10130 20089 30242 40281=
94821 46/// /2406 10088 20082 30163 40247=
94850 46/// /2120 10112 20086 30141 40187=
94865 46/// /2512 10088 20081 30170 40195=
94907 46/// /2809 10067 20052 30150 40160=
94910 46/// /3303 10016 20013 39914 40169=
94954 46/// /2132 10113 20069 30056 40167=
94956 46/// /2009 10096 20086 30135 40161=
94968 46/// /3502 10027 20006 39920 40134=
94975 46/// /2207 10105 20046 30089 40122=
94983 46/// /2713 10071 20012 30083 40108=
94995 46/// /2621 10153 20093 30041 40049=
94996 45/// /0106 10165 20128 39975 40104 57014=
95711 46/// /2406 10032 20025 39891 40200=
95719 46/// /2207 10058 20041 39836 40173=
96995 46/// /1211 10250 20227 39814 40108=
96996 45/// /1515 10264 20217 30121 40125 57005=
89564 45/// /1336 11157 21202 39818 49839 52021=
89571 45/// /0218 11119 21130 39988 40018 52078=
89611 45/// /0903 11105 21127 30111 40168 52002=
94934 35/// /2527 10099 30094 40118 57003=
94974 37/// /2128 10106 30134 40157 57007 7//44=
95288 35/// /1621 10231 30096 40111 57011=
95872 46/// /2720=
89002 41/91 90835 11111 21126 39921 49973 55005 73873
333 00850 92981=
86330 32598 32508 10200 20098 40136 57012 83200=
86460 32498 42316 10166 20103 40120 56004 84100=
86560 32497 82621 10141 20105 40131 57008 8547/=
86565 11598 52311 10164 20107 40088 57016 69991 70261 83475=
86580 12497 72518 10144 20106 40106 58006 60041 87400=
86011 32570 62112 10268 20193 40131 56007 83570 333 83633 86457=
86033 32670 62705 10318 20181 40091 57022 86200=
86065 32870 61805 10244 20088 40172 57014 86070=
86068 32670 82113 10216 20144 40129 57014 8157/=
86086 32470 71402 10240 20191 40149 56008 83510=
86097 22270 80706 10154 20147 40157 57013 8172/ 333 60411 81705
88550=
86134 22670 42004 10234 20177 40136 57013 83101 333 69941 83835=
86192 32970 70000 10220 20155 40085 57023 86070=
86210 22570 40512 10182 20121 40134 57013 81210 333 69941 81833
83458=
86218 32670 40000 10234 20144 40141 57013 81150=
86233 32670 10000 10240 20155 40123 53004 81100=
86234 32670 52205 10230 20144 4//// 5//// 81430=
86248 32670 41405 10226 20151 40125 57012 84100=
86255 32970 21805 10224 20107 40158 55003 80005=
86260 32970 00000 10244 20170 40120 50002=
86268 32670 32302 10240 20117 4//// 5//// 83100=
86285 32570 12904 10238 20112 40121 58010 81100 333 81833=
86288 32970 02108 10218 20107 4//// 5////=
85406 32960 02113 10188 20111 40139 58017=
85418 31558 12510 10162 20099 40138 58012 70522 81500
333 56000 81630=
85432 32984 02807 10230 21082 37746 48404 57014=
85442 32560 31904 10161 20087 40135 57017 82501
333 56407 82625=
85469 41570 70509 10225 20179 40229 51006 70282 87800
333 56100 82820 85640=
85470 32970 03007 10181 20092 40116 57022=
85488 32465 72708 10132 20096 40142 57017 87500
333 56000 82612 85615=
85574 31957 73501 10153 20066 39582 40134 57023 70522 83039
333 59037 56000 83365 87175=
85585 32598 80000 10158 20116 40170 58013 82531
333 56455 82630 83360=
85586 31958 72306 10164 20119 40140 58016 70522 82031
333 56066 82364 85075=
85629 31458 81707 10115 20084 39879 40154 58021 70522 8352/
333 56469 83613 88462=
85672 32870 72104 10098 20079 40161 56017 87070
333   56700 87359=
85682 32858 72702 10132 20099 40166 58010 87050
333 56070 87358=
85743 31440 83601 10094 20078 40173 57023 70542 8361/
333 56669 83710 88462=
85766 31460 81804 10108 20092 40182 57016 70242 8552/
333 56359 85613 88458=
85782 31970 82004 10112 20080 40190 57011 70242 8801/
333 56069 88463=
85799 31560 80000 10105 20086 40196 57016 70242 84530
333 56779 84630 88358=
85836 32670 80906 10082 20034 40285 58012 884//
333 56699 88640=
85864 32570 82105 10055 20033 40287 57017 70222 882//
333 56699 88830=
85874 32470 81615 10031 20016 39656 40293 58011 8652/
333 56339 82710 86617 88460=
85892 32570 70606 10078 20005 40256 57007 83206
333 56606 83830 87070=
85930 32897 60610 10084 20047 40231 54000 86070
333 56010 86357=
85934 32480 70212 10040 21001 40321 57014 87200
333   56100 87816=
85972 32998 00510 10060 20043 40287 57014=
60190 32570 31612 10345 20058 39553 40114 56008 83900
333 10385 82826 81933=
60191 32570 52207 10350 20112 40112 58005 85900
333 10365 84830 82933=
60710 32970 00000 10236 20174 30127 40204 57006
333 10265=
60714 32970 03113 10237 20147 30186 40193 56003
333 10275=
60720 32960 03010 10233 20153 30149 40184 54000
333 10287=
60728 32965 03612 10288 20121 30179 40183 54000
333 10307 92427=
60738 32570 10908 10239 20091 38988 48576 56005 81200
333 10253 81823=
60740 32965 00310 10266 20172 30179 40182 57004
333 10305=
60745 32660 22504 10325 20100 39811 40162 57007 82200
333 10343 82833=
60748 32562 20404 10317 20112 38772 40165 56002 82200
333 10337 82826=
60750 32960 01308 10268 20186 30155 40186 56004
333 10305=
60764 32960 00404 10342 20176 30135 40184 57007
333 10360=
60770 32960 00608 10290 20147 30046 40180 53002
333 10343=
71893 11680 63517 10144 20081 30152 40183 57006 69901 70282
81171 333 10144 20092 50540 79999 90950=
78894 36/// /0810 10296 20226 30102 40161 58014
333 10304 20257 58019=
71131 36/64 /0405 10133 21053 38951 40197 51001 333 10133 20031
70010=
71135 36/64 /3506 10150 21057 39120 40192 53001 333 10150 20050
70038=
80002 333 10252=
47101 42550 80000 10158 20137 39953 40042 57015 8452/=
47105 32668 82305 10208 20115 39987 40017 57015 8251/=
47108 41560 82904 10167 20115 39945 40046 57017 70262 8352/=
47115 32960 82314 10160 20085 39775 40035 57009 84502 333 92044=
47133 31657 83402 10151 20121 39967 40047 57013 71022 8252/=
47138 32965 82309 10184 20108 30029 40032 57022 8572/ 333 92022=
47159 41450 83204 10146 20143 39960 40041 57023 76166 8572/ 333
92022=
47165 41557 80504 10144 20140 39994 40037 57017 76066 8572/ 333
92021=
47168 41458 80510 10146 20134 39960 40038 57026 76166 8572/ 333
92022=
47184 41550 81101 13156 20146 30001 40028 57012 76062 8672/ 333
92022=
47090 32665 82001 10188 20115 39998 40017 57012 8352/ 333 92021=
47095 3//// /3603 10148 20138 39867 40047 57017=
47100 31930 82907 10120 20106 39087 40040 57013 71022 8251/=
47106 32665 62901 10196 20115 39976 40018 57016 83574=
47112 3//// /3203 10166 20135 39969 40049 57018=
47114 31557 82701 10156 20125 39871 40045 57017 71022 8252/=
47119 32962 82902 10167 20118 30009 40049 57016 8652/=
47121 31930 82901 10147 20134 39769 40044 57012 71022 8802/=
47129 41665 80502 10139 20117 30031 40061 57017 72162 862//=
47130 32665 82707 10198 20134 39962 40019 57016 8352/ 333 92023=
47131 32663 82902 10151 20105 39980 40047 57014 8352/=
47135 32661 82704 10145 20127 39758 40043 57015 8452/=
47136 41558 82301 10169 20117 39876 40039 57013 71062 8252/=
47140 31650 80507 10162 20135 30009 40044 57017 71022 8252/ 333
92011=
47143 41562 82704 10166 20121 39975 40042 57017 76062 8372/=
47146 41558 81603 10158 20143 39981 40045 55014 71022 8652/=
47152 41560 83202 10146 20129 30002 40041 57020 76166 8652/=
47155 41560 80503 10152 20141 30038 40043 57023 76166 8572/ 333
92011=
47156 41558 80206 10140 20127 39960 40046 57017 76066 8572/=
47162 41458 80203 10154 20144 30003 40041 57024 76166 8372/ 333
92022=
47170 41558 81604 10142 20139 39995 40035 57022 76166 8672/ 333
92022=
47185 41560 81605 10183 20175 39939 40021 57012 76366 8672/ 333
92032=
47189 41562 83602 10183 20173 39963 40023 57024 76166 8672/ 333
92022=
47192 41456 80201 10148 20136 30018 40043 57026 76166 8672/=
11423 01870 82701 10079 20066 39271 42766 57009 69912 76186 8802/
333 10137 69915 88458=
26141 11598 62103 10123 20093 40108 53002 69952 70282 84430   333
10154   555 50111=
26135 32997 32501 10127 20083 40111 52004 80002   333 10165   555
50122=
10022 91116=
26229 32599 63303 10115 20051 40113 52001 83930
333 10154=
26313 32997 32604 10117 20020 40111 53007 80001
333 10157=
26314 32998 22207 10107 20059 40117 54000 82030
333 10126 91011 91112=
26348 11999 71701 10112 20088 40123 54000 60032 70282 85079   333
10142=
26406 32966 31903 10110 20069 40123 54000 82052
333 10141=
26422 11597 63101 10137 20100 40121 53004 60062 70182 83289
333 10149=
26544 11560 70000 10106 20098 40128 54000 60042 70182 84332   333
10144 82923=
16098 32965 00704 10210 20083 30114 40164 58011 91745 333 10228=
12435 11570 61402 10107 20086 39984 40154 58002 60042 70398 83961
333 10153 20093=
12205 11570 12103 10130 20064 30125 40133 56004 69912 70181 81400
333 10148 20092 91114=
36982 426// 52204 11018 21034 36510 47055 52010 83530 333
10055=
38353 419// 30000 10172 20098 40051 58005 70291 83030 333
10293=
38613 426// 80402 10218 20095 40087 52020 889// 333 10298=
84695 88397=
37549 41797 73009 10192 20134 40116 51029 70299 85370=
12585 32698 23001 10144 20059 39900 40160 54000 81201
333 10163 20102=
12650 32284 52403 10014 21017 37986 48486 56001 85200
333 10027 21023=
26446 12998 80000 10115 20086 40127 58004 60032 8807/   333 10148=
33088 11597 82601 10127 20115 40143 53006 60062 70282 884// 333
10164=
33246 11461 61504 10199 20166 40094 53003 69902 79599 86980 333
10277=
33261 11567 50000 10182 20157 40101 54000 60082 72998
83900 333 10290=
33275 11597 83602 10182 20144 40111 54000 69902 70298
8237/ 333 10294=
33377 11697 80902 10178 20147 40094 56001 60042 71798
85962 333 10270=
33415 11697 33203 10127 20082 40148 53002 60022 70281
81131 333 10134=
33429 11697 63304 10116 20090 40150 53007 60022 70281 86500
333 10150 86633=
33466 11598 83402 10190 20152 40092 53002 69912 79598 8692/ 333
10254 85926=
33526 11960 22902 10132 20068 40158 57005 60022 70282 82030 333
10150=
33562 32597 83206 10140 20095 40122 53001 8655/ 333 10239 86623=
33614 11497 81703 10221 20138 40087 57007 69902 79598 889//
333 10280=
33761 11460 83101 10163 20150 40096 53011 60092 76198 8872/ 333
10262=
33889 11598 83607 10184 20146 40106 53019 69902 72598
888 //333 10285=
33902 32598 70000 10203 20147 40082 53004 82434 333 10259=
33983 32697 32303 10181 20152 40098 53003 81901 333 10267=
34415 11997 50000 10191 20168 40104 54000 69932 70280 84072 333
10300=
10143 20106 69905=
26554 12970 83102 10126 20088 40122 52005 69982 8801/   333 10145=
26666 11458 72702 10126 20113 40111 52009 60082 71098 875//   333
10240 87615=
26850 11970 80000 10124 20097 40126 53002 60042 70262 8801/   333
10142=
26863 11560 72803 10136 20111 40115 52012 60042 72598
87300 333 10233 87928=
26951 11465 83002 10132 20117 40134 53006 60032 70262 8292/   333
10145=
33036 32660 73003 10143 20107 40114 53001 84550   333 10215=
33041 11560 73003 10170 20159 40104 52004 69932 78082 8697/   333
10286 86933=
60360 32965 00611 10231 20164 40201 57007
333 10265 95900=
60390 32570 20608 10248 20171 40185 57008 81202
333 10287 81826 95900=
60402 32970 00606 10236 20196 40192 56008
333 10255 95900=
60419 32570 10310 10261 20153 40180 55003 81100
333 10294 81830 95900=
60475 32670 20406 10270 20121 39266 48562 56004 82200
333 10291 82846 95900=
60525 32670  10000 10368 20094 40146 56013 81200
333 10379 81840 95900=
60531 32980 13610 10292 20136 40161 56007 80001
333 10334 81073 95900=
60566 32960 21011 10336 20081 40159 56007 80002
333 10350 82073=
60571 32670 41612 10343 2//// 39249 48553 56008 81902
333 10356 81933 83840 95900=
60580 32960 21114 10355 20085 40145 56006 81031
333 10368 81360=
60590 32665 60914 10338 20041 40143 56004 82202
333 10355 82840 85073=
60611 32960 00718 10330 20090 40138 53005
333 10350=
60630 32760 72708 10407 20072 40068 56007 82232
333 10420 82856 84362=
60656 32960 21206 10400 20040 40098 56012 82030
333 10410 82360=
60670 32665 50412 10340 20047 39062 48534 53003 85200
333 10367 85846 95900=
60680 32660 73626 10285 20075 38657 48525 55002 81930
333 10340 81940 84856=
60715 32965 03214 10262 20140 30181 40186 55000
333 10306=
60725 32970 03308 10272 20142 30029 40192 56007
333 10300=
60735 32970 00208 10316 20110 ///// 40178 56004
333 10343=
60760 32960 02002 10356 20122 30043 40146 57009
333 10366=
60765 32960 00606 10277 20179 30175 40181 57008
333 10293=
60769 32960 01010 10285 20105 30172 40177 56005
333 10319=
60775 32575 20812 10318 20079 39827 40164 57007 82200
333 10337 82826=
41240 31958 00000 10325 20292 0000 40003 70500 333 10360 58000=
41244 36/// /2006 10349 20187 39676 40028
333 0E037 10430 58000  =
41246 31958 21207 10315 20272 30010 40015 70500 82030
333 10345 58013 82360 =
41256 31957 00000 10290 20270 30003 40012 70500
333 10341 58014 =
41262 36/// /2406 10387 20041 39801 49987
333 0E036 10444 59000  =
41268 31958 21506 10315 20273 30004 40019 70500 80001 333 10400 58005
82070=
41288 32960 01912 10286 20258 39998 40020 333 10340 59003=
41304 36/// /1312 10309 20207 39704 40021
333 0E031 10425 58000  =
41312 36/// /2008 10289 20258 30003 40043
333 0E/// 10307 58003  =
41314 32960 01620 10278 20214 39542 40056 333 10387 58010 =
41316 01561 52110 10297 20259 30016 40041 699991 76122 85500
333 10324 58001 70210 85625 =
26645 11965 82801 10120 20103 40126 54000 69962 70282 8807/   333
10149=
26659 12560 83003 10121 20099 40125 53003 60022 8251/   333 10136=
26763 11460 83204 10131 20095 40107 52005 60102 72598 8697/   333
10247 86914=
26825 11560 63303 10120 20086 40140 53012 60012 70282 83501   333
10171=
26832 11558 60000 10120 20106 40130 54000 69982 71082 82330   333
10169=
26887 11558 70704 10164 20151 40105 52008 60042 72998 86890   333
10287 91110=
26961 11561 83104 10138 20093 40119 52006 69902 70282 83332   333
10210=
33027 11460 82301 10135 20120 40137 53003 60102 78082 8792/   333
10169 87914=
11414 01680 89902 10089 20055 39431 42768 57007 69902 76086 8657/
333 10146 69905 86636 88459
555 379// 50135 60133 70129 80125=
11438 11680 80000 10116 20046 39768 40158 50001 69902 72162 8252/
333 10182 82647 88460
555 362//=
11502 11586 80602 10113 20044 39695 40143 55010 69932 76082 8247/
333 10158 81830 88460
555 363// 50157 60154 70148 80139 90128=
11538 32788 82202 10136 20023 39542 40131 55013 85507
333 10157 85650 88270
555 346// 50188 60176 70153 80139=
11628 32567 81301 10139 20017 39513 40130 56013 8372/
333 10164 83825 88457
555 343//=
11643 11970 70000 10089 20028 39196 42772 57007 69902 70282 8707/
333 10116 87359
555 365// 50138 60136 70127=
11648 32965 80802 10152 20052 39854 40142 57015 8801/
333 10178 88465
555 357//=
11683 32682 81003 10106 20040 39286 42773 57010 8241/
333 10138 82643 88461
555 364//=
11693 32970 81303 10143 20028 39668 40143 57009 83047
333 10168 83361 88273
555 346//=
11698 32986 71102 10154 20043 39742 40138 56014 86058
333 10182 86361
555 348// 50199 60197 7//// 8//// 9////=
11710 32580 71103 10117 20049 39542 40150 57010 83506
333 10163 83630 87270
555 363// 50182 60179 70159 80137=
38149 42998 00404 10226 20088 40099 52008   333 10320=
38178 429// 00102 10199 20055 40069 52006   333 10319=
38262 429// 03203 10184 20098 40088 52005   333 10320=
38264 35998 10603 10208 20067 40092 52015 80001   333 10327=
38396 42996 03605 10233 20036 40090 52016   333 10345=
38403 429// 40506 10318 20134 40088 53020 84080   333 10356=
38413 429// 30403 10235 20004 40085 53028 83021   333 10338=
38457 32997 01401 10197 20095 40068 57001 69902   333 10320=
38579 129// 00000 10204 20130 40054 57011 69902   333 10332=
38583 42997 01402 10210 20153 40060 58005   333 10345=
38618 115// 82505 10210 20089 40091 52021 69900 70292 8293/   333
10308=
38683 42997 03203 10247 20085 40061 53006   333 10342=
38696 /29// 51801 10250 20085 40060 53004 69902 85070   333 10324=
38812 42697 20603 10250 20005 40047 53003 82300   333 10357=
38927 32997 41301 10236 20126 40037 53001 84010   333 10385=
33008 32970 22901 10144 20048 40145 53002 80001 333 10177=
26941 11560 52701 10138 20095 40136 53005 69932 70281 85300 333 10158=
33019 12960 72802 10152 20085 40126 53003 69912 87030 333 10169=
28679 125// 83205 10112 20092 40039 52011 69940 889//   333 10163=
28766 32598 73202 10109 20067 40062 52011 87500   333 10183=
28966 125// 63406 10120 20080 40048 52012 60060 86500   333 10166
86695=
36864 32684 32905 10206 20046 40042 58006 83500   333 10304=
38611 42697 72002 10202 20104 40101 52026 85340=
40356 42960 03006 10290 21040 39116 48462 333 10355 59018 55129
555 04410 50027=
40357 42962 00808 10320 20010 39433 40026 333 10400 59012 55///=
40360 42960 02904 10306 21010 39489 40041 333 10370 59028 55127=
40361 42960 02908 10316 21010 39302 40022 333 10384 59025 55///=
40362 42962 00507 10350 20060 39526 40008 333 10416 59030 55116=
40373 42960 03608 10338 20000 39633 40021 333 10420 59014 55///=
40375 42960 00000 10310 21010 39204 40028 333 10370 59023 55123=
40377 42960 00604 10325 21020 39578 40026 333 10415 59013 55///=
40394 42962 21104 10334 20000 38946 48452 82030 333 10406 59035
55117 82360 555 04410 59990=
40400 42960 03208 10288 20210 39998 40025 333 10324 59023 55120=
40405 42960 00905 10350 21010 39306 49992 333 10440 59036 55///=
40416 42960 03509 10330 20130 39980 49999 333 10393 59011 55///=
40430 42660 52818 10400 20000 39319 49984 85800 333 10440 59015
55112 84640=
40437 42960 00305 10340 20040 39365 40019 333 10425 59008 55117=
40438 42960 00510 10362 21030 39371 40029 333 10420 59008 55116=
40439 42960 02708 10294 20190 30002 40014 333 10370 59019 55///=
41024 42960 00000 10294 20230 30013 40032 333 10367 59010 55106=
41030 42960 43504 10356 20170 39764 40023 80002 333 10437
59002 55/// 84070=
41036 42960 02708 10291 20120 38522 48472 333 10390 59013 55111 555
04410 50002=
41055 42560 22205 10290 20110 38332 48471 82400 333 10370 59003
55093 82640 555 04410 59992=
41084 42960 00806 10334 21050 38801 48472 333 10406 58004 55113
555 04410 59995=
41112 42960 21905 10214 20167 37932 48479 82030 333 10312 59002
55107 82357 555 04410 50016=
41114 42960 02004 10230 20156 37971 48484 333 10340 58000 55110
555 04410 50018=
41128 42960 00000 10300 21030 38760 48480 333
10395 58006 55110 555 04410 50008=
41136 42960 00508 10340 21020 39249 40012 333 10427 59002 55105=
41140 42960 00000 10320 20250 30026 40034 333 10368 59001=
13272 32980 42402 10176 20100 30056 40172 56007 84030 333 10198
84358=
13376 12699 42601 10168 20098 39923 40177 55001 69922 82501 333
10192=
13388 12698 43401 10156 20098 39937 40176 55001 69902 83801 333
10187=
13462 32670 21503 10236 20172  30104 40147 52006 82200 333
10276  82840=
48300 32560 20000 10257 20240 39753 40054 82500
333 59012=
48327 32660 40000 10240 20233 39702 40057 81546
333 59007 70196=
48353 11560 70000 10247 20230 39769 40056 69953 70292 84576
333 59018 70005=
48356 31562 80000 10284 20256 39861 40055 71321 81976
333 59003 70048=
48375 32560 20000 10260 20240 39830 40054 82500
333 59006=
48378 32560 30000 10269 20239 39999 40051 81545
333 59007=
48381 32960 42301 10261 20238 39838 40060 80005
333 58008=
48407 01559 80102 10263 20245 39918 40059 69963 79592 82967
333 58002 69965 70023=
48456 32560 72807 10281 20270 30040 40057 82877
333 59011=
48480 31558 60000 10280 20259 30058 40062 71022 84535
333 59009=
48500 32962 22402 10274 20238 30059 40065 80005
333 59001=
48551 31557 80000 10248 20236 30070 40078 71022 85877
333 59012 70008=
48565 32560 52508 10282 20242 30071 40082 81146
333 59006 70340=
48328 32560 40000 10260 20238 39778 40053 82545
333 59006=
48330 31540 30000 10252 20242 39868 40053 71022 82505
333 59012 70039=
48351 31957 10000 10275 20242 39978 40051 71020 80005
333 59007 70013=
48354 31558 20000 10277 20256 39849 40050 71010 81542
333 59002 70150=
48379 31557 60000 10258 20230 39912 40044 71022 82206
333 59008=
48400 31560 70000 10271 20241 30014 40054 71722 86946
333 59006=
48432 01540 80000 10240 20233 39903 40071 60153 79592 83976
333 58010 60156 70148=
48475 32962 20000 10270 20241 30043 40054 80005
333 59006=
48477 31562 42204 10298 20273 30041 40059 71321 81142
333 59015=
48532 01557 61502 10261 20248 30063 40072 60253 76062 85846
333 59004 60026 70304=
38974 329// 02902 10282 20090 40044 58002 333   10358=
38799 32997 00000 10295 20109 40041 53002 333   10386=
38392 32997 00306 10236 20065 40094 52016 333   10347=
38507 32996 00000 10221 20152 40093 53002 333   10292=
38687 32996 03602 10232 20117 40050 53007 333   10351=
38763 32997 02502 10285 20109 40068 52001 333   10353=
38880 329// 01902 10278 20070 40079 54000 333   10357=
38895 32997 02902 10259 20148 40066 52004 333   10360=
38987 329// 00101 10257 20088 40055 52016 333   10359=
38911 32997 03401 10277 20080 40037 53003 333   10367=
38915 32997 42701 10277 20056 40038 54000 80001 333   10385=
38750 32997 03402 10216 20159 40090 57001 333   10280=
38806 32997 00202 10287 20050 40038 53009 333   10368=
38886 329// 02802 10266 20249 40065 53015 333   10358=
38647 329// 00000 10290 20138 40071 56003 333   10350=
38774 329// 00000 10310 20099 40075 52002 333   10349=
38545 32998 03504 10221 20162 40059 53005 333   10339=
38388 32998 00000 10223 21005 40085 52003 333   10353=
38656 32998 03602 10300 20034 40068 53005 333   10369=
15004 12570 33201 10159 20073 39835 40159 52005 60022 82440
333   10177 31019=
15020 11562 73207 10128 20094 39956 40150 52004 60052 70282 84370
333 10179 31030=
15090 11460 83208 10140 20098 30022 40146 52017 60042 70262 8677/
333 10245 31046=
15108 01/01 92706 10030 20030 38078 48490 58007 60092 74584
333 10072 32/// 60037=
15120 11570 23202 10152 20053 39681 40163 57003 69922 70161 82400
333   10158 31027=
15150 01560 83406 10128 20122 39916 40142 53008 60032 72582 8537/
333 10219 31031 60017=
15200 12675 13401 10198 20017 30016 40153 56006 69902 81400
333 10225 30043=
15260 01562 80000 10108 20108 39654 40179 52003 60032 72588 8437/
333 10160 31021 69947 95090=
15280 01/00 93406 11004 21004 37494 47035 57002 60022 74584
333 10027 3//// 41998 69967=
15292 32570 10000 10164 20090 39901 40186 58017 81400
333 10172 31020 95000=
15310 01570 83406 10180 20159 30029 40111 52009 60212 70298 8397/
333 10280 31053 60017=
15346 11562 53608 10171 20097 39855 40133 55000 69922 70162 85400
333 10217
30039=
15350 11560 73606 10185 20124 30012 40126 52009 60082 70298 87800
333 10266 31043=
15360 32962 73409 10210 20165 30083 40093 54000 83036
222   00214 20402 333   10265 92437=
15410 12960 22906 10178 20114 30056 40150 57004 69922 82060   333
10210 30034=
15420 01560 63302 10166 20122 30014 40121 52018 60172 70298 83370
333 10248 31056 60177 91002 91203=
15450 11560 32708 10188 20138 39909 40136 56010 69902 70181 83300
333 10226
30042=
15460 32560 70504 10210 20145 30091 40114 53006 82370
333 10256 30051=
15470 32560 42706 10204 20105 39995 40115 53001 82340
333 10261 30048=
15480 01560 63204 10202 20160 30099 40114 53012 60042 70298 83960
222   00170 2//// 333   10251 31045 60047 92427=
38565 129// 22202 10228 20070 40061 54000 69902 82040   333 10318=
60355 32965 00000 10240 20176 40188 56011
333 10245 95900=
60445 32675 20407 10260 20132 39033 48564 55002 82200
333 10290 82840 95900=
60511 32570 10303 20009 39085 48550 56007 81202
333 10326 81826 95900=
60535 32670 32408 10288 20027 38867 48548 55005 83201
333 10305 83840 95900=
60549 32560 43404 10311 20019 38893 48544 56008 82280
333   10318  83830 95900=
60550 32675 20000 10289 21016 38707 48554 50005 82100
333 10309 82840 95900=
60555 32970 10805 10350 20105 40161 56005 80002
333 10367 81073=
60559 32965 00000 10347 20159 40162 57007
333 10365=
60560 32670 61910 10309 20083 38978 48538 53002 85902
333 10344 81933 85840 95900=
60602 32675 2//04 10360 2//56 40121 56010 82200
333 10374 82843 95900=
60607 32960 00512 10373 2//// 40124 56011
333 10381=
60620 32760 10217 10386 2//// 40087 53008 81856
333 10403 81200 81856 =
60640 32960 50810 10359 20071 40107 53004 82032
333 10378 82360 84073=
38933 329// 03602 10247 20130 40037 57003 333   10347=
12570 12598 22802 10143 20057 39847 40156 55003 69902 81401
333 10163 20104=
40706 32960 00000 10232 20066 38598 40032 53007 91745 333 55128
27889=
40718 32960 00000 10228 20204 30115 40084 56001 91750 333 55125=
40732 32960 00000 10210 20168 30094 40074 56003 91745 333 55123=
40745 32960 00000 10240 20078 38991 40048 52022 91750 333
55118 21082=
40754 32960 00000 10296 20160 38744 49985 53006 91755 333
55125=
40766 32960 03005 10247 21030 38644 40040 52015 91750 333 55126
22979 =
40800 32960 02803 10310 21017 38184 49980 52011 91750 333 55130
22997=
40811 32960 02905 10356 20079 39983 40009 52009 91750 333 55123
22885=
40841 32660 13603 10280 21010 38193 49938 51005 81400 91750 333
55126 22330 81640=
40848 42960 03102 10288 20022 38460 49977 53010 91750 333
55128 22581=
40875 31950 01502 10314 20276 39994 40006 53006 71000 91750 333
55106 22271=
62002 32960 03610 10285 20124 39482 48578 56007 333 10300=
62007 32960 00807 10245 20184 40181 56003 333 10280=
62008 32970 00307 10245 20108 39422 48569 54000 333 10252=
62010 32960 03608 10254 20162 40188 56005 333 10295=
62012 32960 03610 10243 20205 40219 54000 333 10272=
62016 32960 00112 10218 20193 40176 56005 333 10242=
62019 32958 33608 10220 20189 40167 54000 83500 333 10244 83625=
62053 32560 53312 10210 20178 40169 55005 85500 333 10235 85620=
62055 32560 33608 10230 20165 40160 57003 83500 333 10255 83630==
62056 31558 23012 10165 20148 39455 48530 51005 7100# 82500 333 10220
82620=
62059 32960 03320 10215 20192 40145 54000 333 10230=
62062 32560 40410 10210 20194 40137 57004 84500 333 10255 84625=
62103 32970 00912 10345 20166 40135 57004 333 10359=
62120 32970 00514 10300 20145 39601 48557 57029 333 10330=
62124 32960 00311 10328 20025 39652 40137 55003 333 10342=
62131 32970 03416 10301 20155 39843 40148 56003 333 10320=
62161 32960 03512 10292 20103 40155 53004 333 10318=
62212 32970 30407 10350 20089 39363 48553 58004 83040 333 10372
83360=
62259 32960 00000 10290 20131 40150 53003 333 10330=
62271 32960 03613 10270 20087 40161 51006 333 10320=
48310 31557 20000 10249 20231 39599 40045 71020 81505
333 59011=
48325 31510 30000 10255 20245 39816 40057 71091 82201
333 59005=
48329 11560 50000 10253 20238 39724 40060 69913 70162 83846
333 59002 70001=
48380 32560 60000 10260 20246 39965 40059 82145
333 59023=
48383 01457 80000 10266 20250 39895 40051 60013 76162 8577/
333 59004 60016 70088=
48405 01557 82305 10269 20243 39904 40066 60013 79592 83976
333 58010 60015 70033=
48421 31557 80000 10265 20233 39948 40061 71022 83246
333 59012=
48426 31560 70000 10281 20261 30039 40053 71322 82976
333 59009 70097=
48430 31557 80000 10284 20259 30054 40062 71022 84576
333 59001=
48450 01560 60000 10266 20249 30023 40056 60043 70196 82546
333 59003 69927 70040=
48459 32562 30000 10295 20252 30051 40054 82435
333 59011=
48465 12560 80000 10270 20244 30049 40053 60033 8457/
333 59014 70030=
48550 31560 62606 10270 20238 30066 40071 71320 81906
333 59007 70005=
48568 11459 32102 10265 20240 30073 40080 69903 71062 82801
333 59001 79999=
41859 32330 80000 10254 20240 30004 40044 8562/ 333 56399 59011 70178
83710 85616 88458=
41883 113// 80000 10236 20236 30023 40043 60026 70296 8662/ 333 56499
59005 70355 83710 85616 88458=
41891 31340 80903 10250 20224 20240 40050 70292 8632/ 333 56299 59009
70064 83709 84615 81930 88459=
41907 323// 81306 10250 20230 30018 40036 8562/ 333 56999 59005 70000
84710 83615 88460=
41923 11440 60901 10254 20220 30029 40039 69924 70196 82670 333 56499
59009 70482 82618 85459=
41936 11350 70305 10246 20240 40027 60038 79596 86970 333 56990 56998
70030 85706 83615 81930 87260=
41978 31440 32004 10282 20270 40052 70510 82430 333 56990 59012 70000
81615=
40155 32960 13005 10274 20136 30040 40050 57008 81030 333 10292=
40180 32960 03610 10285 20184 39993 40038 57005 333 10336=
40199 32965 03508 10303 20104 30017 40020 55002 333 10410=
10328=
47407 42970 73101 10079 20060 39960 40101 51006 80002=
47409 42/80 52204 10093 20024 30050 40102 53009 81032=
47418 42/82 72801 10094 20056 30059 40104 51011 81032=
47421 41/80 71202 10111 20081 30029 40074 50002 702// 83032=
47430 42965 73503 10128 20089 30029 40081 58008 80002=
47570 42970 71802 10165 20127 39842 40090 56006 80002=
47575 42970 73403 10147 20122 30081 40085 55005 80002=
47585 42/70 32204 10140 20078 30041 40096 55004 82072=
47598 41958 71201 10142 20128 30084 40090 55011 71022 80002=
47602 42970 80905 10187 20037 30053 40073 58013 8801/=
47605 42/70 81204 10208 20130 30022 40060 56026 8807/=
47618 42962 81802 10186 20112 39388 40075 56007 81037=
47624 42960 73002 10188 20143 39955 40087 56010 80002=
47636 42965 71206 10205 20135 30018 40083 56018 87032=
47655 42960 33602 10190 20171 30035 40089 56015 81032=
47663 41/60 72301 10186 20157 30050 40081 56013 702// 83132=
47675 42470 71806 10196 20174 39996 40088 58009 82802=
47741 41/57 81103 10168 20157 30031 40057 56021 76162 8802/=
47746 41/60 80203 10179 20144 30047 40065 57013 76162 8807/=
47750 41/70 82102 10201 20145 30037 40063 56016 72122 8802/=
47755 41/60 80802 10170 20160 30027 40051 56020 7616/ 8177/=
47772 41/65 81807 10230 20135 39975 40069 57014 76182 8117/=
47800 41450 81603 10165 20154 30016 40038 56025 76166 8272/=
47815 41/60 81403 10168 20153 30045 40060 56020 76062 8572/=
47817 41/70 81304 10195 20178 39996 40037 57024 72582 882//=
47830 41/50 83101 10172 20164 30051 40068 56024 76066 8577/=
47837 41/70 80104 10220 20206 30040 40061 56017 78062 882//=
47887 41/56 80702 10181 20161 30021 40060 56017 76262 8272/=
47891 41/65 82301 10197 20164 30050 40062 58014 76062 8177/=
47899 42/70 82909 10191 20146 39859 40074 56018 8127/=
47927 42/75 41909 10266 20252 30043 40089 56012 84200=
50968 11562 83403 10155 20139 40054 52006 60031 78098 889//
333 10213=
44217 32998 00000 10084 20062 37873 40163 51004=
44229 32999 22704 10079 20029 37908 40145 54000 82040=
44242 329// 00000 10090 20032 39205 40064 52007=
44243 329// 60000 10095 20043 39305 40096 51009 80008=
44263 32998 00000 10104 21033 38004 40078 54000=
44266 329// 40000 10080 21033 37764 40102 52007 84080=
44291 32598 10000 10085 20051 38674 40125 51009 81400=
44317 326// 80000 10134 20089 38805 49992 51004 885//=
44325 329// 21402 10175 20081 38451 40029 52003 80008=
44329 325// 10000 10053 20000 37726 40094 52004 81500=
44338 32699 50000 10134 20062 38413 40056 51002 85500=
44348 329// 20502 10100 20040 38822 40070 58008 87040=
44374 32999 10000 10135 20017 38204 40025 51008 80002=
44385 32999 00000 10145 21014 38809 40042 53002 44347 32999
00000 10133 20015 38625 40044 51000=
44386 329// 30000 10146 20030 38925 40018 53005 83040=
56444 32680 72702 10090 20069 36829 52003 871// 333 05102
10199=
56691 32975 00000 10135 20099 37768 57007 333 00203 10212=
57902 11463 80000 10184 20170 38591 40065 57009 60031 70080
886// 333 00254 10269=
57707 32970 00000 10136 20097 38462 57009 333 00001 10254=
57731 32962 00000 10188 20182 40080 57007 333 10249=
57832 32968 00000 10191 20185 40072 57011 333 10233=
57916 11668 82703 10219 20207 40061 57006 69971 79598 889//
333 10291=
57922 32663 80000 10195 20176 40080 57009 885// 333 10235=
57932 11256 80000 10216 20213 40072 57010 60111 71398 889//
333 10265=
81100 22251 00141 20602 328// 40803 5//// 6//// 80109 ICE=
10401 70005
333 91203=
44210 32999 00000 10146 21005 38443 54000=
44219 32998 00504 10134 21005 38547 40075 52003=
44221 32999 00000 10064 20012 38532 40125 52010=
44224 32998 00000 10034 21032 38026 40114 51010=
44254 329// 22703 10106 20056 38932 40038 54002 82040=
44257 329// 10000 10092 20055 38880 40069 54001 80001=
44286 329// 02301 10089 21002 38572 40085 51001=
84710 22234 00260 299// 80251=
86220
22263 00260 20604 80248=
62402 30184 99548 10046 41999 32406 10107 20060 40132 54000 7////
8///5 22200 00100 20202 334// 40202 5//// 80083=
41998 21514 10200 20185 40220 56005 70100 82005
22264 00200 20202 312// 40404 80190=
41598 52114 10230 20223 40101 57015 70322 846//
22284 00228 2//// 3//// 4//// 5//// 80225=
22235 00290 2//// 3//// 4//// 5//// 6//// 80265 /////=
80403 11475 81106 10294 20252 30106 40125 69901 75052 8332/
333 30/// 5699/ 58011 82811 85456 81916 1012=
80407 32470 71102 10309 20239 30014 40089 874// 333 30///
569// 58003 87616 1008=
80410 32470 81107 10258 20193 39424 40104 8623/ 333 30///
5699/ 58006 86816 1013=
80413 32470 62909 10295 20186 39602 40111 8342/ 333 30///
5699/ 59007 83616 83456 1011=
80415 11470 60502 10305 20249 30063 40117 69911 70252 865//
333 30/// 569// 58006 86616 1011=
80419 32370 63103 10289 20197 30079 40088 8382/ 333 30///
5699/ 58002 83810 83458 1008=
80421 32462 80802 10296 20233 30096 40118 8287/ 333 30///
5629/ 58005 82816 86458 1012=
80428 32570 80502 10290 20217 39914 40097 8323/ 333 30///
56999 59009 83620 84080 1013=
80435 32470 50705 10297 20178 30037 40113 852// 333 30///
562// 58010 85817 1011=
80438 32575 82504 10258 20123 38502 48499 81535 333 30///
56999 58005 81627 85080 1018=
80444 32370 50203 10326 20222 30041 40094 855// 333 30///
569// 58012 85610 1008=
80447 32560 81806 10312 20176 39652 40070 83820 333 30///
5699/ 58002 83820 85460 1012=
80457 32465 81802 10299 20185 30021 40106 889// 333 30///
569// 58002 87610 81910 1010=
22212 00260 21010 30700 41112=
80074=
15562 18007 19004 22175 23025 35056 36050 50055 51250 52001 53101
70001 71000 72826 73139 74012 75430 76900 90732 05372 07239 10025
11037 12404 13406 14789 15562 18007 19004 22175 23024 35056 36050
50055 51250 52001 53101 70001 71000 72826 73132 74011 75431 76900
90060=
62301 30183 99523 70045 46/// /3307 1//// 2//// 40134 22200 00140
10301=
53585 70001 71000 72276 73136 74012 75464 76900 90274 05422 07253
10102 11143 12452 13447 14885 15595 18002 19001 22175 23026 35054
36103 50045 51158 52004 53585 70001 71000 72276 73136 74012 75463
76900 90012=
10818 70090 555 05311 07010 11909 12999 15583 18006 19010 22174
23029 35073 36356 50053 53296 70001 71000 72061 73135 74012 76900
90014=
80420 32470 30206 10317 20216 30087 40093 82930 333 30///
56290 58001 81813 81913 1010=
80425 31570 71602 10325 20240 30064 40095 70252 851// 333
30/// 569// 58004 85820 1009=
80427 32570 60703 10282 20224 39866 40119 8352/ 333 30///
5699/ 59005 83620 83459 1013=
80431 32570 73602 10303 20201 39595 40061 8322/ 333 30///
5699/ 59007 83820 84460 1009=
80475 32570 80000 10281 20151 39757 40116 8392/ 333 30///
5699/ 58013 83820 85456 81917 1013=
56312 32680 10000 10097 20066 37095 52010 81100 333 05201
10236=
56227 32980 00000 10075 20056 37324 52012 333 05201 10251=
56434 32680 80000 10131 20109 37679 52007 888// 333 05302
10258=
55773 11570 71407 10040 20000 36046 57001 69931 70080 879//
333// 00000 10109=
55664 32980 00000 10057 20006 36034 52002 333 05152 10154=
55578 32880 51802 10096 20055 36378 57001 85402 333 05303
10179=
55228 32780 22902 10071 21063 36056 52013 82100 333 00000
10172=
55299 32980 00000 10037 21024 35878 57001 333 05302 10133=
55591 11680 72902 10127 20043 36532 57002 69901 70080 86802
333 05307 10202=
56106 32980 02903 10062 21039 36227 57003 333 05503 10158=
55472 11775 51403 10032 20005 35767 57004 60021 71498 85200
333// 05251 10141=
55696 32680 70405 10098 20004 36377 52001 878// 333 05203
10190=
55437 32780 21805 10084 20021 36365 52003 81102 333 05151
10192=
55248 32780 30000 10071 21031 35922 52001 83100 333 05300
10168=
48569 32460 70000 10253 20237 30047 40083 82846
333 59006=
51087 32980 20000 10172 20032 39149 40046 57005 80002 333
05202 10275=
51156 32780 63602 10163 20037 38650 40046 57005 82402 333
05103 10260=
51644 32980 23602 10158 20082 38861 40047 54000 80002 333
00458 10256=
51334 32980 61801 10222 20090 40054 57008 81062 333 05105
10309=
51711 31980 32501 10130 20047 37985 57001 70090 80002 333
00253 10204=
51730 32970 00401 10177 20076 40028 52003 333 00356 10258=
53868 31958 00000 10227 20139 49983 57002 70400 333// 10344=
53083 11680 40202 10126 20068 49982 57003 69921 70080 84900
333// 00252 10235=
53276 32980 02905 10129 20053 38738 49993 52002 333// 10230=
53529 32980 00000 10154 21031 38540 40009 57004 333// 00052
10276=
53352 32980 00000 10145 20022 40009 57001 333// 10230=
53231 32780 20702 10152 20002 38413 54000 82500 333// 00203
10239=
53149 32980 03404 10147 20018 38682 40008 54000 333// 00453
10236=
53391 32980 02503 10122 20012 38405 49994 57010 333// 00052
10215=
53068 32980 03602 10149 20084 38939 49999 52001 333// 00353
10244=
53336 32980 63403 10171 21001 38620 40002 57002 80002 333//
00200 10248=
10261=
36103 50045 51158 52004 53585 70001 71000 72276 73136 74012 75463
76900 90012=
51467 11980 20000 10100 20073 38229 57008 60011 70060 80002
333 05155 10190=
51495 32980 73409 10256 21001 40084 54000 82032 333 00001
10317=
51542 11670 80000 10050 20033 37558 57004 69971 78080 889//
333 05201 10084=
51232 32980 23207 10231 20073 40061 57004 80002 333 05100
10315 91119 91529=
51567 11780 60000 10141 20105 40066 57006 69901 70080 82902
333 00457 10237=
48601 11459 80602 10245 20233 30100 40104 60051 79596 84937 333
81710 81917 83623 88276=
48615 31568 80000 10262 20240 30082 40088 70192 83547 333 83620
88270=
48620 31462 71601 10247 20240 30094 40103 71722 82948 333 81916
87276=
48647 11562 70000 10250 20233 30076 40101 60091 70562 82548 333
82630 84362 86277=
48657 11057 82901 10241 20240 30069 40087 60011 71396 84937 333
82700 81917 88276=
96413 32165 70000 10237 20229 30055 40081 83531 333 81702 86365=
96421 32465 70000 10243 20231 30060 40096 8357/ 333 83617 87365=
96441 11468 70702 10242 20230 30084 40089 69901 70262 81541 333
81616 83365 87080=
96449 32460 70000 10234 20227 30062 40082 8357/ 333 83616 86365=
96471 32468 71002 10259 20232 30075 40078 83848 333 81815 83640
87276=
96491 32465 70000 10258 20246 30072 40085 83802 333 82816 87078=
64504 31465 6//// 10275 20256 30079 40094 72992 86300
333 10/// 59005 84615 81923 86633 94941 95871=
64507 32458 7//// 10255 20233 3//// 40/// 875//
333 10300 5//// 84611 87623=
64560 31460 3//// 10264 20234 39537 40067 71790 83903 913//
333 10312 59016 83613 81923 94946 95836=
71889 31774 73104 10142 20047 39744 40154 57009 79192 86930
333 10150 20079 70000=
71936 32874 32001 10121 20001 39984 40241 58002 82072 333 10123 20010
70000=
78906 11474 71210 10300 20214 30144 40149 69901 70582
86202 333   10312 20273 58020 86818 87075 90910=
78905 11472 81008 10284 20242 30145 40161 69901 70582
86202 333   10295 20268 58025 86817 88076 90920=
64500 32465 82408 10272 20241 30066 40080 889//
333 10300 59008 83610 88630 81923 94947 95837=
64501 32465 62212 10262 20239 30088 40098 86800
333 10280 59001 82813 86623 94902 95832=
64510 31570 3//// 10282 20214 3//// 40/// 71311 82301
333 10/// 5//// 82820 81926 94947 95837=
64551 32565 2//// 10270 20241 30045 40074 82900 920//
333 10305 59015 82620 81920 94943 95833=
64552 32560 2//// 10272 20253 39431 40072 82200 920//
333 10322 59008 82820 94928 95878=
64556 32465 4//// 10266 20224 39497 40061 82202
333 10/// 59013 82815 84075 94936 95836=
64565 31460 5//// 10278 20220 39433 40068 71321 83903 911//
333 10310 59016 83811 81915 85073 94945 95835=
45011 42475 51608 10271 20250 40074 57020 852//
333 59025=
60155 32456 63606 10228 20200 40159 55000 86200
333 10254 86816=
67027 32980 02602 10253 20220 30134 40155 52018
333 10338=
67083 32470 21402 10145 20130 38788 48557 52017 82800
333 10219 81817
555 82620=
67095 32475 30000 10220 20205 30180 40187 56013 83800
333 10288 82817
555 82633=
67197 32580 10816 10230 20184 30179 40189 51012 81200
333 10271 81820=
61990 41465 50000 10220 20206 40193 71522 85840
333 10274 58016=
61995 42470 30000 10201 20190 39710 83800
333 10252 58012=
61988 42570 20803 10235 20206 40195 82800
333 10268 58008=
61986 42575 11313 10255 20222 40172 81100
333 10299 58010=
61974 42470 31306 10261 20226 40138 83202
333 10297 59002=
67765 42984 10000 10146 20072 38708 48550 81400 333 10252 58001
81658=
67775 42775 10602 10178 20087 38543 48547 81400 333 10240 58002
81650=
67779 42975 10000 10140 20110 39093 48544 81060 333 10275 59002
81360=
67853 42980 12205 10128 20073 38979 48549 81060 333 10278 58010
81360=
67861 42880 10000 10163 20106 38767 48546 81460 333 10253 59001
81657=
67867 42980 01502 10130 20061 38625 48551 333 10241 58007=
67881 41970 00103 10136 20081 38620 48546 70500 333 10232 59001=
67965 42980 01205 10166 20054 38728 48552 333 10257 58006=
67975 42980 01402 10146 20078 38965 48552 333 10263 58003=
67977 42975 00000 10163 20131 39701 48564 333 10293 59007=
67983 42980 01101 10150 20146 38940 48560 333 10244 59002=
67991 42980 00000 10160 20110 39643 48537 333 10282 59010=
91577 32570 60306 10227 20199 40087 56008 83202
333 83826 84076=
91579 36/// /1802 10184 20182 40095 55007=
91582 13560 30000 10204 20199 40097 56006 69921 83800
333 82823=
91583 32565 70000 10223 20208 40097 55006 878//
333 84823 86650=
91587 36/// /2102 10175 20170 30057 40108 55003
333 10236 20175=
91590 32570 61802 10201 20198 40091 55010 86870
333 56000 81820 86461=
91592 32558 63004 10220 20205 40092 55008 8387/
333 5676/ 81820 83650 86461=
91753 32475 31804 10223 20191 40098 53007 83202
333 83815=
91754 32475 61606 10251 20190 40104 53009 86800
333 85819=
67843 42980 00000 10151 20089 38980 48535 333 10282 58009=
89061 32034 43203 1//// 2//// 30266 40277 57072 84600 91737
222// 01017 ICE 20690
333 43020 84710=
89062 32257 72505 11064 21076 30245 40288 57/// 856//
222// 01017 ICE 70993=
89063 31499 72202 11047 21053 30268 40282 58012 742// 82604 91745
222// 03017
333 46013=
78958 01440 81112 10248 20246 30116 40126 60111 78098 8797/
333 10282 20237 58008 70134 82912 85814 88456=
91643 31499 31213 10281 20245 40079 53007 70300 82108 333 563/9
82819=
91631 31599 70908 10284 20243 40081 70222 83208 333 562/9=
91636 11498 51005 10280 20244 4//// 69921 78001 82375 333 56299=
84628 34435 88335 10173 20149 30132 40148 71044 886//
333   567// 58012 88712=
84501 31962 01612 10210 20164 30116 40156 70200
333   58018=
84691 31350 83207 10182 20150 30120 40127 71044 886//
333   560// 58003 83709 88714=
84455 31566 20000 10336 20247 39788 40130 70101 821//
333   560// 58001 82830=
84686 31762 13605 10200 20037 36867 70200 81100
333   56900 58002 81850=
84673 31668 20000 10225 20092 37320 70300 82800
333   56000 59002 82850=
84782 31967 02107 10190 20113 39621 40149 70112
333   59016=
84752 31965 02610 10190 21010 37523 70200
333   58001=
84658 31462 52903 10292 20240 39856 40077 70120 855//
333   560// 58009 82814 83650=
84452 31960 02011 10253 20159 30094 40124 70200
333   59006=
84390 31970 02009 10275 20187 30021 40120 70200
333   59002=
84370 31460 30000 10280 20224 30080 40108 70144 835//
333   560// 58016 83615=
84401 31960 01905 10290 20190 30085 40152 70122
333   58006=
84472 31665 41804 10217 20091 37386 70300 84500
333   56000 59017 84643=
84531 31961 01712 10216 20152 30113 40125 70140
333   58010=
84444 31570 30807 10200 20047 37521 70202 83400
333   56000 59001 83625=
84542 31670 53409 10210 20082 37354 70300 8353/
333   5699/ 58012 83645 82362=
84564 31560 70615 10220 20151 38158 70320 875//
333   561// 58025 87633=
84515 31560 40000 10321 20223 39935 40107 70102 84100
333   56900 58013 84823=
84377 31460 40804 10320 20246 39991 40093 70202 84200
333   560// 58001 84815=
84425 31562 50604 10330 20235 39926 40135 70220 855//
333   569// 58001 85620=
84474 31560 20000 10320 20244 39776 70200 82100
333   56000 58003 82825=
84534 21460 80000 10230 20216 39400 40120 70266 8472/
333   5699/ 58030 60121 84815 87457=
84735 31966 00000 10157 21014 36440 70200
333   58006=
71443 36/// /3117 10111 21009 39722 40129 55005 333 10130 20025
70000=
71603 32574 12813 10113 20080 30210 40263 58004 81800 333
10131 20083 70000=
61968 36/// /0202 10214 20195 30154 40159
333 10297 58007=
61970 36/// /1906 10236 20151 30167 40179
333 10282 58003=
61976 12460 81017 10251 20214 40167 69942 878//
333 10270 58009 85813 87640 92447=
61980 32565 61404 10225 20191 40192 86800
333 10269 58007 81820 86656 924/7=
67005 36/// /1806 10261 20211 40161
333 10296 58002=
61996 16/// /2819 10157 20151 40134 60082
333 10161 59039=
61998 16/// /2916 10066 20038 39855 49890 52017 60052
333 10068 59167 91135=
85041 32484 33304 10311 20221 39848 40162 57017 83100
333 56700 58011 83817=
85043 32484 33606 10325 20226 39955 40111 57012 83100
333 56800 58014 83817=
85104 32484 13608 10333 20216 39962 40119 57026 81100
333 56800 58018 81816=
85114 32584 23405 10328 20236 39964 40124 56012 82500
333 56400 58024 82620=
85123 32484 33210 10320 20214 39945 40109 57020 83200
333 56700 58025 83817=
85154 32584 53408 10313 20226 39930 40107 57024 82201
333 56700 58021 82823 83073=
85140 31458 72506 10250 20229 39867 40125 57013 71522 86950
333 56770 58027 85616 81923 86357=
85141 11484 80000 10246 20232 39930 40163 57010 69951 72512 885//
333 56799 58027 88617=
85152 32584 73505 10292 20238 39872 40101 57023 87300
333 56700 59019 87820=
85201 31970 09902 10142 21060 36286 57019 70500
333 59001
85230 32984 01404 10146 21008 36263 57024
333 58001=
85242 32984 00000 10156 21061 36533 57021
333 58003=
71926 11580 70118 10011 21004 30111 40134 52007 69941 70276
87500 333 10012 21001 44032 70056 90943=
78988 31565 70916 10316 20264 30109 40118 57020 70622 82201
333 58013 82821 87081=
78982 32580 70919 10316 20253 30110 40115 57014 83231
333 58015 83823 85081=
78990 32470 71017 10304 20238 30117 40124 57016 84231
333 58016 84819 86081=
78873 32570 80915 10300 20240 30121 40167 57012 85220
333 58021 85820 88460=
83377 31697 33202 10277 20048 38859 40105 70541 83202 333 58017=
83378
32570 42504 10300 20070 38960 48516 84100 333 58016=
83208 32570 21206 10302 20130 39425 40098 82100 333
58019=
83766 21597 80000 10150 20132 39502 40172 58027 70262 885//
333 60021=
83767 21596 80000 10148 20123 39534 40172 51017 71062 8472/
333 60101=
83768 21565 72004 10150 20140 39500 40163 58020 71062
82521 333 60031=
83783 21597 63604 10162 20114 39459 40146 58015 70362 83712
333 60041=
83836 21997 83606 10175 20087 39132 40109 56019 70162 82077
333 69911=
83844 32597 73201 10206 20131 30096 40103 57020 83460=
83872 31596 22308 10220 20111 30031 40113 58020 70510 81202=
83881 32997 02703 10224 20109 39824 40126 56023=
83883 32997 03202 10198 20058 39351 40125 57020=
83887 32597 22710 10174 20044 39066 40116 57025 81140=
83899 32670 31307 10218 20120 30098 40098 56018 81501=
83907 32997 02306 10220 20105 39826 40111 58004=
83912 32997 02706 10200 20080 39570 40109 57010=
83914 31596 12711 10188 20056 39348 40133 57016 70510 81100=
83919 32597 12706 10152 20043 38943 40133 57017 81100=
83927 32997 01406 10200 20107 30058 40139 57013=
83936 32997 02306 10210 20080 39980 40104 57012=
83948 32997 00000 10186 20114 30058 40096 56015=
83953 32497 32306 10176 20114 39747 4//// 57020 83200=
83964 32997 02702 10176 20068 39616 40117 57014=
83971 32970 02604 10204 20099 30113 40113 56020=
83980 31596 33206 10176 20031 39831 40116 57019 70521 83200=
83995 32497 22704 10174 20117 30090 40094 57020 82100=
83997 32497 62312 10165 20124 30055 40099 58016 86400=
83612 31550 70912 10165 20141 39514 40140 51013 71522
84230=
83716 21665 80118 10141 20105 39609 40129 58045 8651/
333 60021=
83721 31960 43018 10245 20002 39388 40136 55021 70500
82031=
83722 31462 82204 10214 20080 39443 40139 58010 70511
81554=
83780 31962 73108 10238 20014 39226 40125 56017 70511
81034=
83818 31965 71806 10226 20139 30120 40123 58014 70511
83031=
83827 32570 10306 10214 20143 39859 40143 56011 81500=
83649 32570 23409 10288 20213 40129 56024 82200=
82979 32498 31804 10312 20199 39663 40126 83200 333 58008=
82986 32699 21409 10319 20149 39801 40084 82100 333 58026=
83076 32599 31402 10314 20189 39591 40085 81120 333 58003=
83090 32698 71404 10282 20180 39587 40104 84104 333 58030=
83096 32698 11804 10281 20222 30109 40116 81100 333 58017=
83097 32598 2//// 10290 20227 30078 40101 82100 333 59026=
83179 32598 60502 10328 20174 39634 40078 83201 333 58016=
83182
83184 32597 50906 10241 20159 39020 40111 83102 333 58024=
83186 32598 61407 10273 20195 39536 40091 82108 333 58028=
83190 32598 81805 10290 20175 39715 40130 85206 333 58025=
83195 32499 209// 10284 20204 39874 40119 81101 333 58026=
83229 32998 21402 10272 20239 30074 40133 80002 333 58029=
83236 32598 3//// 10319 20153 39606 40096 82202 333 58018=
83242 32497 61801 10272 20195 39625 40104 82310 333 58034=
83244 32597 60902 10314 20132 39806 40096 84305 333 58026=
83248 32470 51208 10280 20230 40130 82101 333 58026=
83286 32598 2//// 10316 20155 39437 40086 82100 333 58016=
83288 32598 23202 10340 20172 39588 40095 83220 333 58015=
83339 32498 31403 10280 20135 39142 40110 83200 333 58017=
83344 32598 61405 10246 20173 39125 40118 86200 333 58024=
83349 32570 41310 10274 20247 40129 82230 333 58027=
83398 32597 50904 10269 20228 30118 40123 83540 333 58017=
83408 32598 20503 10336 20136 39577 40063 82200 333 58024=
82398 32570 61209 10298 20233 40103 82130 333 58012=
82579 32570 61805 10325 20223 40079 84204 333 58009=
82599 21565 71315 10272 20241 40107 71562 83231 333 58012 60054 =
82899 32570 72110 10286 20231 40114 85231 333 58013=
82993 32570 32109 10288 20232 40118 83200 333 58022=
89022 42698 4//// 11190 21202 30019 40060 57008 84070
333 84330=
82026 32470 60406 10290 20230 40082 84201 333 58008=
82193 21570 73510 10292 20273 40066 70362 85204 333
58010 60021=
82022 21458 61505 10292 20236 40093 72162 84131 333
58002 60031=
82332 42570 41004 10308 20247 40096 83204 333 58016=
82824 32570 33308 10342 20216 40100 83200 333 58017=
82917 32670 43106 10314 20199 40106 84200 333 58015=
56290 58001 81813 81913 1010=
78948 11560 70818 10279 20249 30132 40140 60011 70682 82848 333 02226
10309
20265 58014 70010 82825 87276 90910=
78947 11566 70914 10285 20245 30135 40138 60031 70682 85878 333 05226
10295
20265 58014 70031 85820 87277 90914=
83550 32597 6//// 10266 20211 30102 40132 70211 83460 333
58003=
83660 32596 4//// 10224 20173 30184 40195 5//// 84200=
83695
83698 32799 20506 10248 20183 30099 40113 50721 82499=
83718 31595 40000 10234 20169 3/// 4/// 5//// 70544 84200=
83738 32999 00000 10230 20104 39620 40125 57010=
89050 42498 72604 11020 21030 40248 58022 87500=
89512 32982 20806 11072 21235 49967 57031 80001 333 11059=
89592 41490 80938 11074 21074 40091 52029 73973 8802/=
89606 41961 83203 11505 21563 36397 47588 56021 77872
80007=
63705 32570 70000 10215 20200 38861 48515 83965
333 10250 58004 83820 81922 87365
555 10///=
40100 32560 53303 10273 20127 40059 58012 82270 918//
333 10307 81826 85358 92426=
40103 32570 43408 10278 20165 40071 57013 84200
333 10305 84824=
40703 31560 40000 10210 20105 38846 40032 53006 71721 84900 91748 333
55104 82930 82640=
40712 32960 00000 10188 20066 38625 40018 53003 91750 333 55129
22854=
40729 32660 11803 10200 20041 38287 40029 56003 81100 91745 333
55125 22856=
40736 32960 00000 10230 20185 30107 40080 56004 91745 333 55123=
40743 32962 00806 10280 20056 38984 40041 52026 91750 333
55106=
40762 32965 00703 10252 20059 38508 40008 52019 91750 333
55123=
40768 32960 02704 10176 20036 38217 40032 54000 91736 333 55130
32815=
40769 32962 02604 10264 21093 38253 49996 52009 91750 333 55128=
40785 32965 00000 10294 20062 38954 49987 53010 91750 333 55121
40787 32960 03303 10200 21138 37693 49915 53008 91750 55131=
40809 32965 00000 10264 20044 38458 49973 51021 91750 333
55119 2////=
40821 32960 02202 10300 21049 38693 49963 51004 91750 333 55121=
40831 32960 03102 10326 20073 30016 40024 52016 91750 333 55121=
22854=
40250 32970 00000 10295 20034 39292 40033 54002 333 10354=
40265 32960 00000 10268 20094 39319 40072 54003 333 10350=
40296 32960 00000 10342 20140 40059 57007 333 10381=
40310 32960 00000 10271 20056 38884 48454 57011 333 10346=
40255 32960 00000 10266 20030 39395 40072 54000 333 10330=
40260 32960 03010 10310 20138 39317 40054 52004 333 10350=
40270 32960 00000 10276 20069 39204 40047 52003 333 10345=
40272 32960 00000 10260 20073 39258 40049 54003 333 10354=
40340 32960 03505 10360 20130 40017 52006 333 10424=
30372 42784 72902 10031 20013 40082 52013 85570=
30433 42999 00000 10083 20023 40128 52008=
30554 429// 00301 10010 21022 40122 53002=
30635 42999 01402 10036 20010 40123 52009=
30673 41699 43602 10074 20046 40055 52007 70181 82830=
30802 42799 81901 10102 20095 38648 48450 52019 72582 85330=
30823 42984 03202 10124 20011 40090 52025=
30879 42999 00000 10061 20022 40047 52006=
30935 42999 20000 10075 20045 40086 52020 80001=
30949 42999 00000 10063 20032 40062 54000=
30965 42984 00803 10044 20013 40064 52002=
31329 42999 80701 10012 20012 40126 52005 83033=
31369 42498 82306 10031 20013 40098 52010 8596/   333 85913=
31416 42999 83602 10046 20024 40115 52012 80001=
31510 429// 00000 10068 20038 40082 59003=
31735 42997 80701 10088 20069 40101 52005 8807/=
36911 /16// 70000 10175 20078 39151 40059 58016 69900 70282
333 10289=
36974 117// 20903 10090 20048 37957 48494 58007 69940 70282
82900 333 10180=
38345 32998 60000 10128 20098 38731 48462 52003 60002 333
10251=
26324 12598 62802 10129 20041 40116 53008 69982 82201   333 10170=
33791 11697 89902 10194 20171 40080 55005 60022 71798 8595/ 333
10230 85933=
33924 31996 12302 10194 20181 40098 54000 71011 80001 333 10242=
33135 11698 63404 10177 20151 40089 58006 69902 70182 82301 333
10281=
33658 11597 82904 10122 20088 40161 53003 60042 70282 8537/ 333
10142 85926=
34504 12697 51202 10214 20164 40091 57006 60022=
44214 32998 00000 10126 20017 38224 40053 54000=
44259 32998 20000 10134 21019 39181 40029 58000 82040=
44277 329// 10000 10047 20017 37793 40128 58002 80004=
44288 32999 03206 10107 21002 38127 40073 54000=
44354 325// 83606 10160 20036 38991 40008 51003 8805/=
44373 32999 10000 10133 20030 38460 40055 54000 81040=
48462 31960 40000 10273 20253 30011 40066 70191 80006
333 59002=
31300 42984 00000 10047 20030 40094 54000=
41620 329// 00905 10315 20068 48405 333 58000=
41660 316// 20000 10239 20017 48427 7060 0 81400
333 56900 58003=
41712 329// 01805 10375 20090 48437 333 59004=
41756 329// 01805 10)90 20248 40027 333 59005=
41764 329// 02216 10290 20240 40019 333 59010=
41768 329// 02302 10310 20223 40019 333 59007=
41780 326// 42310 10300 201EEE 20243 40036 84500
333 56900 59012 84630=
30758 42984 20209 10116 21017 40058 52020 80001=
38462 42697 30000 10086 20067 38723 48467 57012 6003/ 82950   333
10204=
12215 16/// /0000 10106 20054 39969 40145 54000 69942
333 10139 20055=
40420 42960 03403 10322 20030 39822 40017 333 10435 59014 55///=
44218 32998 00000 10152 20009 38500 40019 54000=
44232 329// 20903 10119 20046 39016 40089 52009 82040=
44237 32599 62303 10148 20061 38430 40050 52003 83540=
44239 329// 30000 10053 20015 38713 40088 54003 80004=
44241 329// 00000 10094 20051 39150 40080 52011=
44256 32999 00000 10061 20019 39221 40045 54000=
44265 329// 60000 10135 20041 38755 40070 51002 80002=
44275 32898 00000 10033 21033 37710 40129 51003=
44282 41999 00000 10095 20004 38252 40090 51005 70260=
44284 325// 40505 10094 20004 37837 40088 57002 84500=
44285 32999 00000 10044 21023 38276 40126 51001=
44287 325// 50000 10108 20021 38089 40078 52007 85500=
44298 328// 70205 10106 20059 38640 40062 54001 8202/=
44305 32999 03607 10134 20023 38922 40022 50000=
44314 32698 20502 10131 20056 39002 40019 52003 82200=
44336 32999 00000 10110 21064 38624 40081 52009=
44341 32999 40000 10114 20011 38530 40067 54002 82042=
44352 42699 23605 10132 20019 38808 40026 58001 82500=
44358 32998 22705 10147 20095 38933 49998 54000 82040=
28867 12598 53604 10111 20068 40071 52015 60020 83530   333 10194=
28879 119// 82206 10130 20088 40033 52008 60100 70282 8807/   333
10157=
28952 325// 73205 10127 20067 40092 52006 87900   333 10170=
29802 125// 72302 10130 20119 49960 52007 60060 84731   333 10162=
29807 12597 62804 10138 20112 49983 52007 60010 83302   333 10171=
34691 32998 20502 10213 20058 40142 5/002 80002   333 10279=
35067 115// 6//// 10118 20103 40054 52014 60140 70182 83460   333
10170=
35078 11470 83406 10120 20106 40022 52009 60020 72582 889//   333
10195 87816=
35108 32997 13101 10171 20118 40151 53001 80001   333 10240=
35188 326// 63502 10139 20114 40005 58001 86500   333 10187=
35217 32997 23602 10155 20077 40151 58013 80001   333 10244=
35229 32997 03402 10183 20074 40098 52007   333 10250=
35302 329// 03201 10190 20094 40154 54000   333 10236=
35394=
35406 32997 00000 10187 20102 40165 57005   333 10253=
35416 32997 03204 10177 20098   333 10245=
35426 32999 22903 10156 20088 40108 53007 80001   333 10233=
35497 32998 00000 10123 20050 40025 58008   333 10215=
35532 32698 50000 10159 20089 40103 52004 84500   333 10210=
35671 32598 62004 10133 20098 40041 53008 86900   333 10250=
35700 32998 00402 10196 20067 40122 57005   333 10270=
35796 11684 80304 10193 20121 40011 57001 69950 72998 885//   333
10275=
36003 32970 22103 10141 20100 49994 52001 82050   333 10211=
36152 329// 22405 10150 20078 40014 54000 80001   333 10243=
36177 329// 20000 10159 20124 40017 52004 80001   333 10248=
36535 129// 31402 10160 20078 40024 51002 69960 83030   333 10290=
36639 326// 50000 10178 20124 40047 54000 83530   333 10295=
36821 32598 70000 10236 20118 40028 53003 85930   333 10331 85924=
36870 32665 61501 10222 20048 40037 54000 82970   333 10285=
38222 32597 62304 10204 20078 40060 54000 86900   333 10323 83369=
38341 11597 81802 10163 20132 40074 58003 60030 72582 889//   333
10307=
38343 32698 81802 10198 20072 40055 52001 889//   333 10299=
41710 326// 41302 10383 20017 49979 84500
333 56900 59008 84640=
41744 329// 03104 10290 20081 48431 333 59007=
41749 319// 01312 10310 20246 49990 70601 333 59012=
41506 IL=
41700 319// 02305 10350 20173 49961 70600 333 59012=
41759 329// 00000 10300 20273 40032 333 58014=
23914 32999 00000 10152 20040 40157 57003   333 10200=
23921 32974 23001 10087 20058 40163 51003 80001   333 10185=
23955 41684 70303 10119 20089 49992 57005 70282 83530=
23966 41396 80402 10092 20092 49990 57019 78082 889//=
28255 32973 03302 10116 20065 40121 52008   333 10149=
28440 32997 20000 10132 20025 40132 52008 80005   333 10196=
28661 32660 83306 10109 20069 40092 52005 8633/   333 10140=
28722 32968 33402 10172 20072 40136 53004 80001   333 10222=
28748 12968 10203 10136 20065 40104 52016 69900 80001   333 10208=
29231 42598 61102 10109 20107 49953 57012 84530=
29313 41497 80302 10115 20103 49936 52001 78082 889//   333 88917=
29612 42598 22203 10115 20105 49934 52007 82300=
29634 41757 81805 10138 20127 49964 57011 72582 883//   333 88950=
29838 42997 01901 10155 20065 40002 54000=
36061 41997 30701 10143 20134 40026 58011 70298 80001=
23909 32998 20602 10144 20056 40157 54000 80001   333 10220=
28116 32997 20502 10157 20055 40160 54000 80001   333 10221=
28419 32996 53301 10150 20064 40142 57002 80001   333 10220=
28621 32998 63501 10163 20085 40140 56001 82033   333 10219=
29023 41496 80503 10095 20090 49973 57016 76162 8872/=
29122 41399 80302 10119 20113 49956 58008 70282 883//   333 85709=
29328 41598 81205 10110 20104 49944 57012 78098 889//   333 86920=
29348 41997 21801 10117 20113 49974 58017 70281 82030=
29405 41997 83201 10126 20109 49945 52012 70282 8803/=
29430 41498 81801 10138 20105 49969 58009 70292 889//   333 88916=
29524 41484 82302 10120 20106 49931 54000 70282 889//=
29605 42998 23102 10119 20098 49953 52015 80001=
29631 41497 81805 10130 20113 49952 58006 70282 889//=
29736 41598 20000 10102 20096 49998 58001 70298 82400=
29937 42999 02202 10162 20107 40010 53001=
36034 42998 22103 10160 20103 40007 54000 82030=
28216 32999 03203 10163 20046 40150 57001   333 10222=
28321 32999 23201 10161 20043 40149 54000 80002=
28451 32997 03603 10113 20068 40110 52004   333 10165=
28537 32997 73603 10192 20093 40118 52005 80001   333 10206=
28541 32984 00201 10103 20002 40126 52012   333 10199=
28642 32997 33504 10114 20046 40122 52011 83030   333 10201=
28655 32598 53603 10108 20074 40106 52002 85900   333 10145=
28925 32997 33602 10165 20127 40126 52007 80002   333 10230=
29557 41597 81807 10141 20109 40008 53012 79598 87307   333 84923=
29625 41496 82305 10129 20114 49947 57004 78182 889//=
29642 41960 21706 10120 20100 40001 57005 70298 82030=
29813 42999 82007 10140 20129 49943 53003 8805/=
29846 41597 61603 10147 20129 40011 51001 70298 82930=
29915 42999 12204 10139 20084 49980 58002 81030=
30385 41580 80000 10127 20064 49987 57025 78081 889//=
30469 429// 00000 11027 21027 40111 52042=
30650 42984 00000 10049 21038 40112 52018=
30781 41599 83501 10138 20084 40028 53022 72522 8695/=
30844 42999 00000 10052 20040 40091 52011=
30925 429// 20202 10126 20011 40055 52006 80001=
31371 42984 00000 10046 20026 40094 52002=
31388 42999 00000 10027 20019 40127 53022=
31532 42900 30000 10016 20016 40124 52007 74641 80001=
31594 42977 11202 10107 20058 40084 52003 80001=
31754 41/92 90000 10016 20016 40109 51002 74541=
26898 11459 80000 10176 20149 40105 54000 60112 71098 8697/   333
10288 86917=
26997 11458 81407 10169 20151 40109 54000 60022 71798 889//   333
10257 87915=
27595 32997 23302 10193 20093 40157 56005 80001   333 10238=
27612 32597 71501 10256 20125 40108 56002 86830   333 10309=
27703 32697 81603 10216 20152 40108 56002 83531   333 10286=
27707 12578 70000 10199 20153 40106 53005 69932 85970   333 10285
83929=
27719 31697 60000 10196 20139 40123 58001 70292 82301   333 10293=
27786 32997 30000 10171 20090 40163 57006 80001   333 10244=
27906 11497 81506 10192 20132 40132 53016 69932 72522 8637/   333
10280 86916 91116=
27928 32997 21501 10229 20124 40114 57006 82030   333 10293=
27947 32997 30000 10231 20137 40140 54000 80002   333 10284=
27962 32997 01604 10200 20104 40151 55005   333 10280=
27983 32998 00000 10170 20082 40163 56004   333 10250=
28711 32997 60000 10147 20051 40151 53001 80001 333 10228=
28807 32997 23302 10170 20089 40154 54000 80001 333 10246=
34009 11660 83602 10172 20142 40104 58006 60112 70298 884//   333
10275=
34047 32970 01401 10233 20135 40133 57003   333 10292=
34116 32698 29902 10205 20127 40117 54000 81540   333 10294=
34123 32984 20000 10233 20127 40125 57002 80001   333 10295=
34152 32998 11201 10225 20139 40140 57003 80001   333 10291=
34172 32960 01303 10206 20065 40159 55004   333 10242=
34186 32980 20102 10193 20076 40161 53001 80001   333 10242=
34247 32975 21603 10243 20097 40129 53002 80005   333 10309=
34336 32998 01001 10234 20124 40129 53002   333 10309=
34391 32997 00901 10203 20085 40151 53002   333 10260=
35121 32979 20102 10178 20050 40121 53005 80002   333 10244=
22408 11599 52102 10149 20086 40065 52007 60032 70298 82530   333
10218=
22721 11999 80000 10167 20105 40076 52003 60042 70298 86075   333
10244=
22802 12982 71801 10131 20102 40095 54000 69992 86031   333 10165=
22820 11465 72404 10175 20162 40070 57007 60022 79598 85930   333
10295=
26059 12597 82201 10143 20099 40098 57006 69902 82931   333 10152=
26063 11997 82901 10128 20093 40113 53013 69952 70282 8805/
333 10153=
26094 11580 70000 10157 20151 40100 52007 60102 70298 84401   333
10291 91118=
26258 12570 50000 10129 20085 40117 53009 60012 82935   333 10148=
26298 11597 80000 10174 20148 40102 52006 69902 70298 889//   333
10283=
26477 11463 83303 10125 20118 40095 58006 60162 72598 883//   333
10232 88915=
26585 11596 80000 10164 20147 40105 52002 60022 78098 883//   333
10275=
26702 12597 60000 10124 20065 40133 53005 69962 85501 333 10156=
26781 11497 70901 10174 20148 40095 54000 60072 79598 86930   333
10266 86919=
27402 11595 82306 10225 20121 40099 52008 69902 79598 889//   333
10307 88921 91111=
22621 11498 72003 10214 20140 40066 52003 60012 70298 82535   333
10286 91111=
22831 32598 62205 10215 20155 40083 54000 83930   333 10317 91111=
22892 32998 62005 10121 20068 40100 54000 85031   333 10133=
26275 11496 83103 10135 20127 40103 52008 60362 79598 883//   333
10235 88913=
26389 11959 62301 10157 20141 40098 52008 60112 71098 86030   333
10284 91112=
26695 11497 81502 10197 20118 40102 57006 69932 70398 8567/   333
10281 85709=
26882 11570 73102 10152 20139 40117 53016 60032 72998 83260   333
10279=
21432 42998 00000 11012 21066 40228 57001=
21647 42374 81005 11061 21069 40231 57005 886// 333 88709=
21824 42470 50406 10006 21005 40114 57006 82501=
21946 41298 81005 11043 21055 40223 56003 70272 886// 333
88706=
21982 11458 81106 11012 21025 40167 57007 69902 77172 885//   333
21014 48997 55012 88614 91109=
25123 42998 20104 11002 21035 40173 57001 82030=
25173 11499 41601 11041 21057 40163 53003 69932 70284 81501   333
21056 44075 91104=
25399 31506 81910 11005 21005 40202 58001 74442 87500   333 21009
47072 87621 91114=
25551 32999 20502 10012 21011 40146 58003 82030   333 21010 55189=
25563 32599 71204 11006 21030 40162 52001 87500   333 21034 41998
55135=
25594 11/06 92004 10002 21001 40211 52005 60022 74774   333 21003
42002 91105=
31054 42999 20000 10067 20021 40076 52005 82010=
31123 42699 80000 10019 20014 40087 52005 82501=
96465 32465 70902 10270 20250 30050 40084 81838 333 81812 85364
87278=
28240 32999 03603 10093 20041 40146 52008   333 10186=
25621 42699 72101 11008 21024 40107 52002 85331=
25703 42698 70305 10035 21050 40124 53009 87500   333 87646=
25913 42699 10403 10059 21001 40083 52004 81500=
25954 41498 80403 10018 20005 40104 57010 78082 889//=
31088 42599 71704 10061 20032 40076 52005 82541=
31829 42998 02902 10090 20015 40087 53007=
31873 42998 20303 10107 20070 40070 58002 82030=
31909 42998 70000 10114 20043 40105 52023 83031=
31960 42998 00104 10141 20046 40040 57009=
32053 41195 83605 10024 20022 40070 52027 75152 886//   333 88702=
32061 41346 80203 10036 20036 40076 52016 78085 886//=
32098 42984 70102 10046 20024 40072 52025 87040=
32150 42996 22901 10047 20035 40085 52016 82030=
32165 42999 33001 10077 21002 40100 52011 80001=
32215 41418 82602 10011 20006 49945 56004 77376 8872/=
32389 41496 82602 10006 20006 40013 57010 78388 889//=
32583 41597 80101 10035 20012 49977 57005 78082 889//=
34712 11498 60000 10209 20178 40089 57002 69902 72581
86900 333 10242 86918=
34523 11997 60000 10178 20166 40115 53008 60152 70198 83063 333
10308=
33177 32599 22902 10144 20070 40153 53001 82500 333 10166=
33990 32966 02901 10184 20164 40096 53003 333 10235=
61017 32965 70000 10384 20108 39663 40048 82048
333 10441 58016 82364 86280=
61024 32960 41416 10405 20044 39501 40037 80002
333 10440 58001 84080=
61036 32660 5//// 10417 20140 39806 40034 81102 91745
333 10442 59003 81840 85080=
61043 32770 21006 10410 20090 39797 40017 82101 91745
333 10426 59016 82850=
61049 32960 7//// 10367 20165 39727 40040 81208 91745
333 10436 59007 81840 87280=
61052 32965 53604 10404 20168 39791 40033 81062
333 10424 59011 81365 84080=
61075 32670 71006 10404 20160 39728 40023 82902 91745
333 10430 59015 82940 87280 94943=
61080 32660 71204 10385 20132 39612 40014 81908 91745
333 10415 59013 81940 87280 94945 95835=
61090 32965 51408 10385 20103 39542 40030 81062 91749
333 10415 59001 81363 85080=
61096 11665 71806 10350 20186 39674 40041 69902 7009/ 81908
333 10415 58002 81950 87280 94964 95834=
61099 11965 5//// 10354 20226 39/// 4//// 60012 70296 82042
333 10390 5//// 82364 85080=
57003 333// 10259=
56066 36/// ///// 10037 21051 36630 4//// 57007
555 10050 2//// 3//// 40111 51001 60/// 7//// 80000
9//// ///// 1/019 2//00 30000=
52634 36/// /0000 10034 21037 36753 4//// 57005
555 10040 2//// 30123 41111 51011 60/// 7//// 80000
9//// ///// 1/112 2//00 30000=
57528 16/// /2000 10125 29756 37563 61430
555 1/144 2//07 30197 12100
11101 10101 00010 10110 1011/
/////
2//// 3//// 6//// ///// ///// 8//// 9//// ///// ///// //004
11101 11111 1011/
11111 110//=
20046 42574 71604 11058 21076 40230 57003 875// 333 11030
87623=
20069 42574 70801 11044 21071 40251 55000 875// 333 87624=
20087 41373 80206 11066 21074 40231 51002 70232 886// 333
88708=
20292 41377 80609 11038 21043 40184 57003 73632 886// 333
88709 91112=
20667 32497 80304 11047 21067 40252 58002 885// 333 11027
91107=
20674 42477 70209 11035 21056 40183 52002 875// 333 87610=
20744 32998 71111 11005 21050 40195 57013 87030 333 10020
91115=
20891 42997 63605 11023 21029 40090 57003 85031=
23022 11397 80805 11032 21042 40235 57006 69900 78582 889//
333 11015 86907 91107=
23205 32684 81502 10139 20056 40156 57007 8253/ 333 10179=
23219 32998 00303 10085 20029 40181 57005 333 10139=
23405 32980 21004 10171 20071 40147 57008 80001 333 10221=
24982 42999 53201 11009 21018 40086 51004 80001=
25325 42699 10904 10030 21058 40142 53004 81500=
29822 42997 02001 10150 20100 49976 53007=
30777 42698 80000 10131 20059 40026 52013 8552/=
31174 42999 60302 11008 21020 40128 52003 80004=
31263 42699 23301 10013 20010 39562 40127 51005 80001=
36096 42998 30601 10124 20045 40065 52006 80002=
36307 42999 00902 10102 20009 38850 48435 52006=
82900 333 10180=
51656 11780 70904 10188 20071 39013 40036 57008 69901 70087
85402 333 00457 10260=
52118 32680 62704 10137 21021 38224 57003 82902 333 00002
10232=
51855 31950 70000 10237 20054 49977 57003 70600 80002 333
00405 10300=
42071 31595 83608 10270 20152 40006 70733 8432/ 333 57981
58036 83630 81940 88460 90491 90542=
42101 31995 00000 10340 20227 49981 70600 333 59017=
42131 32996 02301 10368 20202 49982 333 59004=
42182 31695 10000 10350 20219 49983 70600 81500 333 59006
81640=
42189 31995 00901 10310 20254 49991 70500 333 59001=
42328 31995 02309 10320 20224 49997 70700 333 59006=
42339 31995 02302 10340 20188 40000 70600 333 59014=
42379 32996 00901 10264 20219 40015 333 58003=
42571 32997 62302 10330 20174 40000 71322 84931 333 58004=
42701 21496 62503 10270 20168 39311 40018 70522 83330 333
58004 6004/ 83618 81930 85360=
42798 31595 40902 10274 20211 40019 70521 84400 333 58005
83620=
43041 32996 00000 10290 20215 39432 40032 333 59010=
43086 21596 63202 10290 20238 39864 40038 70522 83532 333
59024 6990/=
43110 22596 30000 10280 20246 40095 83500 333 58004 6994/
83620=
43314 32596 30000 10286 20261 40096 81130 333 59011=
43333 22596 62703 10264 20241 40075 84401 333 59007 6994/
83620 83825=
91165 32566 20607 10244 20183 30128 40180 51016 91753 333
10250 20233=
91245 32566 20706 10270 20240 30134 91750=
91285 31540 80703 10210 20190 30169 763// 91815 333 96010=
91334 11469 80605 10258 20256 30071 40074 56002 60091 78082
8732/ 333 5619/ 70163=
91366 11456 81207 10244 20243 30064 40073 55000 60021 78182
85871 333 56227 70038=
83383 32598 40502 10324 20145 3//// 4//// 84230 333 5////=
83384 32598 40000 10320 20174 39546 40122 81245 333 58019=
83386 32498 12703 10315 20177 39572 40118 81260 333 58017=
83388 32497 30000 10314 20177 39412 40077 83200 333 58017=
83488 32596 23602 10243 20160 39116 40112 82200 333 58024=
83492 32598 30903 10272 20179 39748 40132 83200 333 58006=
83531 32597 62712 10268 20132 39078 40122 88100 333 58022=
83538 32598 63605 10213 20133 38723 40148 86200 333 59004=
83570 32596 30504 10286 20148 39336 40107 82024 333 58006=
83579 32597 22705 10274 20110 38988 40112 82100 333 58008=
83582 32598 20504 10276 20124 39350 40121 57016 82100=
83592 32598 50506 10230 20168 39443 4//// 83340 333 58011=
83642 32496 43606 10240 20170 39332 40103 55014 84200=
83683 32697 22301 10252 20124 39146 40121 57022 82020=
83692 32596 53206 10234 20164 39107 40156 58024 85200=
71051 46/// ///// 11086 21087 30234 40347 53003 333 11084 21115=
17300 32565 42404 10238 20189 40078 56003 82201
333 10282 82830 84070=
48838 32798 20000 10273 20262 30065 40071 57006 82500 333
58001 82697=
98325 31458 41801 10260 20247 40078 58009 70544 82370
333 56999 82916=
98444 32465 50000 10273 20257 40092 58009 83202
333 56999 83818 83070=
98646 32560 50000 10276 20252 40100 57016 82202
333 56999 82820 84080=
98653 31470 81801 10260 20243 40085 55011 70544 8297/
333 56999 82918 88358=
98747 31470 22001 10235 20224 40073 58022 70544 81401
333 56999 81618=
98753 11465 63601 10247 20232 40088 58004 69911 70564 82208
333 56999 82816 86279=
96163 01540 80000 10240 20234 30112 40119 50000 60251 76166 8772/
333 56009 60117 87522=
96179 31460 70000 10254 20242 30071 40107 56002 70292 83208
333 56000 57803 83817 80850=
97014 01559 50000 10242 20233 39983 40076 57016 60011 70262 81521
333 56000 69907 81627 84460=
97048 31457 40000 10240 20232 30048 40072 56015 72011 83201
333 56000 57803 83818 80860=
97072 31457 70902 10238 20230 39998 40100 58017 83921
333 56000 57900 81918 80911 85460=
64860 12970 62804 10310 20239 39798 40062 69922 80002
333 10344 58001 86080=
64910 31465 70000 10280 20255 30070 40080 71799 87900
333 10328 58002 87616 81920 94959 95839=
71826 36/// /3004 10067 20004 30128 40157 58010 333 10077 21015
70000=
48501 11560 70703 10258 20251 30056 40064 60183 70196 82306
333 59014 70182=
98222 31575 10901 10262 20249 40086 56005 70544 81500
333 56999 81617=
98324 31470 30402 10276 20255 40074 58013 71394 82901
333 56999 82915=
98425 31460 60601 10286 20252 40083 56006 71322 84908
333 56999 81815 83618 84280=
98428 32560 40902 10276 20255 40073 58010 82408
333 56999 82620 84280=
98430 31560 60000 10270 20250 40099 58010 70544 82270
333 56999 82820 84358=
98642 31465 80000 10275 20244 40076 58017 71322 85902
333 56199 81915 84815=
98751 32465 20000 10206 20197 39410 40079 57020 81101
333 56399 81815=
48665 11564 73403 10258 20243 30083 40093 69961 70162 81542 333
81630 86078=
98432 31570 60000 10254 20235 40084 58010 70544 83208
333 56999 83820=
98434 11470 30000 10268 20258 40093 58013 69931 70181 82201
333 56999 82816=
98435 32470 60000 10250 20230 40089 58009 83202
333 56999 83818 84072=
98538 31462 80701 10267 20247 40083 58015 71792 83967
333 56339 83911 84357 88272=
98546 31472 70000 10259 20247 40098 58017 71322 82968
333 56999 82918 87275=
98548 32468 20000 10251 20238 40083 58024 82200
333 56999 82816=
98558 11466 70901 10256 20248 40092 5/013 60031 70382 84908
333 56999 82915 85274=
98644 31465 40000 10250 20245 40077 58022 71322 81908
333 56999 81915 84272=
98851 32470 80000 10257 20237 40069 5/011 82207
333 56999 82818 88275=