ZCZC 000
SMCI10 BENJ 021200
AAXX 02121
58238 11930 80000 10235 20231 30057 40066 52006 60011 71080
8807/=
58562 11660 81602 10275 20249 40073 52007 69901 70080 884//=
58457 31940 70401 10264 20243 30024 40073 52009 71000 8704/=
52740 16/// /2000 10142 29050 36856 60000
555 1/132 2//00 /////=
45007 32580 21404 10296 20239 30089 40098 53010 82200
333  10343 58007 70000 82820 =
58040 11558 80404 10170 20165 30095 40099 52006 69901 71050
885//=
58144 11957 80703 10219 20211 30057 40079 52004 60021 72160
8807/=
58251 11550 80402 10227 20221 30072 40078 52006 60021 71060
885//=
58633 32680 50000 10294 20235 39974 40068 52010 81442=
58659 11540 81103 10261 20248 30061 40094 52007 69981 71098
888//=
58847 32575 21404 10298 20232 39990 40087 52015 81440=
59134 32980 02004 10273 20225 39954 40112 52012=
57957 11570 62202 10298 20235 39876 40064 52004 69901 70080
86200=
59082 32570 22202 10295 20244 30005 40078 52008 81902=
59211 11480 71102 10274 20256 39854 40053 52006 60031 71798
879//=
59265 32670 71802 10305 20225 39944 40076 52006 86802=
59287 32662 21603 10296 20223 30047 40096 52009 82400 =
59316 32472 12202 10285 20251 30095 40104 52006 81100=
59431 32580 31402 10283 20237 39925 40068 52006 81262=
59644 32580 71106 10290 20256 30057 40072 52007 84142=
59758 11472 11802 10286 20245 30058 40079 52009 69901 70080
81100=
59023 11575 30000 10275 20239 39818 40057 52010 60031 70080
81242=
59293 32570 12203 10312 20212 30044 40091 52014 81100=
59417 11580 70000 10260 20247 39918 40066 52002 60231 70098
8794/=
59501 32580 11403 10289 20245 30098 40114 52010 81100=
59663 32475 21404 10290 20249 30062 40089 52005 82100=
59838 32580 70203 10299 20250 30053 40067 52011 81162=
59948 11573 60702 10289 20249 30063 40071 52007 69921 70080
82202=
59981 11580 21402 10285 20254 30075 40081 52008 60021 70080
82200=
59985 32580 11102 10278 20258 30065 40070 52007 81100=
59995 32475 70000 10286 20244 30066 40074 52013 84250=
59117 32680 11803 10314 20224 39989 40090 52013 81400=
58027 11457 80903 10204 20183 30029 40078 52005 69901 76060
8677/=
58150 11450 80404 10194 20189 30079 40087 52007 60021 71060
885//=
57265 11220 80705 10223 20212 39926 40031 52007 69971 71060
8772/=
57378 11672 72003 10303 20245 40022 52007 69901 70098 81431=
57399 32665 81602 10305 20250 40033 57002 8347/=
57447 32765 70000 10269 20232 39501 40013 52006 875//=
57461 32980 61603 10317 20223 39852 40003 57002 86040=
57476 32965 61804 10304 20258 40014 52001 80002=
57494 32970 60000 10312 20244 39995 40022 54000 86040=
57584 32970 21803 10316 20228 40038 52006 80002=
57598 32680 20000 10311 20213 40055 52006 82500=
57655 32980 11802 10315 20214 40029 52008 81040=
57662 11970 21403 10327 20230 39981 40020 52004 69901 70060
82040=
57745 32580 11804 10301 20221 39728 40033 52005 81100=
57766 32980 11602 10297 20220 40050 52006 81040=
57776 32980 01815 10215 20190 40072 57007 333 91125 91518=
58102 11658 80704 10218 20207 30010 40059 52002 60021 76060
885//=
58221 11457 80703 10236 20230 30034 40068 52002 60021 76066
8772/=
58314 32565 80901 10256 20234 39964 40047 52007 885//=
58338 11966 70702 10251 20237 40065 52008 69911 70080 8704/=
58424 32970 61603 10303 20245 30026 40048 52001 84042=
58606 32968 62201 10300 20249 30006 40058 52001 84042=
58813 32980 61801 10304 20228 40067 52003 80002=
58345 11930 80901 10245 20239 40073 52006 60041 71098 8807/=
58543 32980 71601 10297 20223 40075 52005 8704/=
58556 31665 71801 10292 20256 40074 52005 71300 8196/=
58569 31460 82208 10249 20235 40084 52005 71300 81937=
58646 32670 61102 10303 20231 40078 52014 81140=
58660 11560 80701 10243 20215 40086 52015 60021 79598 889//=
58834 32970 20000 10290 20240 40087 52012 80002=
58926 32980 71101 10305 20219 40092 52011 8704/=
59046 11580 61803 10298 20241 40070 52011 69911 70098 83932=
59058 11575 70000 10263 20255 40081 52006 60091 70098 82403=
59072 32580 41402 10318 20229 40073 52012 83442=
59087 32564 20000 10290 20245 40089 52008 82142=
59096 32675 11602 10297 20223 40088 52010 81100=
59209 11362 80000 10238 20216 40063 52001 69991 78098 889//=
59254 11670 63201 10270 20247 40075 52006 69901 70098 81402=
59278 32680 21804 10301 20229 40086 52012 82402=
59456 11580 21602 10291 20233 40080 52006 69901 70080 81402=
59493 32580 11103 10296 20243 40101 52014 81100=
59632 32573 61401 10295 20247 40072 52006 81962=
59647 32580 50905 10289 20263 40067 52005 81902=
59658 11468 21103 10286 20255 40084 52005 69901 70080 82100=
59673 32580 21104 10284 20253 40096 52006 82200=
59845 11580 71406 10287 20217 40066 52008 69901 70080 81162=
59855 32575 50903 10282 20257 40076 52007 85100=
50468 32970 20000 10217 20058 39906 40100 52010 80002=
50745 32965 21102 10257 20072 39942 40112 52009 80002=
50953 32975 22702 10238 20109 39941 40112 52008 80002=
54337 32960 52003 10250 20137 30041 40123 52008 80002=
54342 11670 71105 10191 20121 30066 40126 52019 60021 72598
83502 333 91121 91507=
54471 32660 73402 10241 20138 30127 40132 52018 879//=
54497 32562 21801 10218 20169 30111 40125 52022 82400=
54662 32970 70403 10186 20126 30010 40128 52001 80002=
51468 16/// /2000 10000 29086 36574 60021
555 1/130 2//00 /////=
53513 11968 80000 10182 20139 38953 40103 52008 69921 76060
8802/ 333// 00457=
54218 32980 20000 10258 20099 39467 40109 54000 80002=
54511 32965 61502 10238 20137 30085 40123 52010 80002=
54823 32960 80906 10248 20181 39901 40096 52012 8802/=
58265 11562 81603 10229 20225 30068 40079 52006 60251 78196
8592/=
58472 31130 80000 10227 20223 39987 40081 52005 71000 81647=
58477 11340 81102 10237 20227 30039 40081 52008 69901 71080
886//=
58725 32980 50000 10274 20237 39836 40085 52004 80002=
58760 11456 81805 10246 20242 40095 52007 69901 78080 887//=
58921 11675 12002 10301 20245 39852 40085 52007 69901 70080
81400=
57687 32975 21803 10310 20231 39963 40039 57001 80002=
57793 32676 71603 10308 20231 40062 57001 82402=
57799 32780 31602 10318 20216 39981 40060 54000 82502=
57845 32675 22003 10273 20224 40050 54000 82400=
57853 11980 10000 10289 20218 40054 52009 69911 70080 81040=
57866 32580 12003 10305 20224 39863 40058 52006 81100=
57972 32968 11402 10312 20222 39858 40068 52010 81040=
58321 11962 80905 10253 20236 40056 52004 69911 70060 8807/=
58437 31/05 92509 10167 20165 38162 52002 74740 333 91118
91522=
58506 32380 71607 10218 20197 40079 52005 82102=
58527 32980 70000 10307 20232 39988 40059 52001 80002=
59102 32563 10000 10283 20227 40092 52005 81100=
58311 32965 70702 10254 20237 40047 52004 8707/=
58215 11550 81105 10229 20228 40054 57002 60611 79596 889//=
58236 11757 80903 10235 20229 40064 52006 69981 71060 885//=
58326 11965 70702 10248 20236 40065 52007 69911 70098 8707/=
58015 11958 80705 10219 20199 40072 54000 69931 76060 8807/=
58122 11970 80704 10221 20210 40069 52005 69911 76066 8807/=
58531 32980 73401 10289 20241 40067 52007 83042=
58436 32975 70000 10267 20249 40067 52007 8707/=
52418 32980 00704 10285 20034 38771 49993 52005 333 00102=
52889 32980 70403 10245 20105 38413 40010 52026 83042 333
00201=
56080 32580 73202 10163 20067 37133 52018 87902 333 00205=
53915 11540 80000 10172 20163 38596 40062 52011 69961 76060
8272/ 333 00256=
56096 11780 70000 10239 20177 38844 40015 52026 69961 76060
875// 333 05102=
52652 32680 72701 10166 20120 38483 40092 52005 879// 333
00658=
52681 32980 70402 10180 20117 38597 40080 52013 8703/ 333
00559=
57006 32775 20902 10205 20156 40044 52011 82500 333 00152=
50632 32980 02702 10173 21026 39288 40128 52009=
53463 11570 72204 10230 20102 38930 40091 52022 69951 70098
86902 333// 00352=
57083 11450 80504 10201 20184 39951 40081 52011 60061 76060
8672/=
58666 31/04 92011 10238 20238 30001 40099 52009 74540=
50548 32980 40000 10231 20070 40104 52005 81032=
50834 32980 00000 10226 20050 40116 52006=
53673 32960 71601 10212 20109 40116 52010 8703/=
53898 11461 80205 10245 20162 40103 52013 69901 76060 8572/=
54602 32660 80402 10244 20159 40123 52007 82107=
54751 31312 70409 10134 20130 40124 52007 71000 876//=
54916 11960 80903 10234 20192 40089 52007 69901 72100 8807/=
58208 11365 80903 10241 20232 40044 52003 69941 79160 885//=
56294 32965 63603 10271 20183 39440 40004 52017 82042 333
00001=
56492 31758 82502 10271 20206 39607 49989 52020 71000 885//
333 00151=
56571 32780 12005 10299 20134 38297 52008 81100 333 00100=
56651 32680 60000 10220 20118 37590 52002 86400 333 00102=
56778 11575 70000 10210 20168 38078 52007 69901 70098 86202
333 00352=
56951 11675 70000 10208 20187 38459 52005 60051 72598 86902
333 00355=
57328 32575 50404 10259 20215 39592 49979 57001 81140=
57411 32760 73202 10243 20216 39642 49993 52007 8244/=
57516 31956 02904 10284 20226 39674 49966 52013 71000 333
00000=
57816 32580 22004 10243 20188 38720 40027 52006 82100 333
00100=
58730 32980 50201 10281 20244 40084 52007 82042=
58731 32980 20000 10286 20233 40087 52007 82030=
58754 11562 82201 10272 20246 40096 52006 69901 70080 885//=
58911 32980 23401 10269 20227 40093 52002 80002=
58931 32280 11805 10195 20178 38378 52004 81402=
50527 32970 21802 10235 20061 39424 40116 52004 80002=
50727 32980 11802 10133 20032 38992 40153 52011 80001=
53564 11970 81805 10218 20086 39138 40090 52017 69901 76096
8802/ 333// 00556=
54102 32980 21802 10247 20112 39023 40113 52006 80002=
54843 32962 81103 10207 20178 30077 40104 54000 8807/=
54909 11662 80702 10223 20205 30019 40079 52010 69961 76060
8557/=
50136 32970 22702 10207 20082 39581 40082 57002 82030=
50353 32970 20000 10212 20106 39887 40096 52007 80002=
50557 32970 21603 10195 20015 39825 40108 52004 80002=
50756 32970 13401 10221 20062 39833 40110 52010 80002=
50788 11570 62702 10152 20111 30016 40097 52008 69971 70098
86800=
50949 32665 12203 10250 20127 39955 40114 52004 81500=
50963 32970 00000 10204 20115 39976 40106 54000=
50978 32670 52001 10177 20118 39827 40105 57001 85400=
54161 32970 01803 10228 20064 39848 40123 52005=
54236 11580 11103 10196 20125 30036 40135 52009 69911 71398
81902 333 91126 91507=
54292 32580 20000 10211 20109 39914 40122 52017 81102=
54374 32962 20000 10205 20102 39740 40127 52018 80002=
57259 32480 80901 10239 20211 40024 52012 8277/=
57279 32767 83202 10253 20237 40027 52002 8757/=
57554 32874 71401 10292 20227 40025 52003 875//=
58715 32980 41803 10310 20218 40069 52003 80002=
58362 11450 81401 10243 20240 30070 40080 52008 60041 76066
8277/=
56079 11480 72907 10140 20098 36700 52014 69901 78000 86942
333 00303=
56144 11780 71801 10124 20094 36874 52045 60011 72598 879//
333 00854=
56152 11780 71102 10098 20044 36336 52025 69981 70098 87900
333 00556 91118 91532=
56167 11780 71103 10191 20093 37051 52001 69941 79598 879//
333 00453=
56173 11880 72509 10134 20086 36666 52020 60021 78098 879//
333 00502=
56182 11580 82202 10142 20108 37188 52027 60031 70098 889//
333 00300=
56193 11762 83201 10220 20202 40035 52041 60021 78098 8547/
333 00100=
56196 32980 71101 10288 20192 49991 52010 87042 333 05205=
56257 11680 23201 10168 20005 36278 52006 69901 70080 82400
333 00101=
56287 32665 80000 10259 20191 40009 52014 8147/ 333 05104=
56357 32680 12203 10178 21004 36447 52003 81400 333 00102=
56374 32680 71102 10202 20137 37370 52016 87800 333// 00004=
56385 31/00 90203 10106 20104 36999 52009 74700 333 00101=
56586 32980 12004 10262 20119 37980 54000 81042 333 00151=
56666 32680 21402 10308 20155 49955 52009 82400 333 00353=
56671 32780 42003 10256 20141 38149 52004 81142 333 00251=
56684 32580 52702 10226 20120 37852 52005 82102 333 00252=
56748 32580 61101 10242 20170 38294 52015 85402 333 00100=
56751 32680 31405 10228 20153 37975 52011 82402 333 00200=
56763 32680 22005 10292 49991 52002 81402 333 00453=
56768 11680 61803 10214 20160 38190 52003 60071 70080 86400
333 00354=
56786 32580 52203 10224 20159 38077 52006 82242 333 00201=
56838 11675 70000 10250 20220 40039 57003 60021 70098 874//
333 00254=
56886 11580 62203 10210 20179 38232 52009 60031 72998 86902
333 00252=
56946 11575 70401 10214 20198 40053 52024 60051 79198 879//
333 00457=
56954 11580 70000 10237 20200 40039 52009 69901 70098 82962
333 00000=
56959 31780 70000 10290 20216 40018 52012 70090 879// 333
00004=
56966 11775 71602 10305 20236 40012 52013 69901 79500 85902
333 00300=
56969 11575 70201 10236 20224 40046 52017 60131 71798 879//
333 00001=
56977 11580 62001 10228 20211 40051 52011 60031 70098 82942
333 00151=
56986 11/80 81102 10204 20191 40067 52007 69921 78080 889//
333 00151=
57237 11765 70000 10211 20196 40026 52010 69921 79580 879//=
57306 32870 80000 10248 20217 49997 52002 885//=
57348 32770 63602 10280 20213 49997 52006 86500=
57426 32670 60703 10288 20237 49970 52004 82140 333 05102=
57504 32962 80403 10291 20210 49979 52016 8807/ 333 05103=
57602 32862 82202 10284 20222 49974 52008 885//=
57707 32680 11402 10266 20161 38408 52010 81132 333 00102=
57713 32680 51803 10303 20186 49991 52015 83402 333 00101=
57731 32980 01805 10315 20205 40001 52003=
57832 32580 22003 10282 20202 40034 52007 82100=
57916 11580 41401 10284 20220 40042 52006 60051 70080 83840=
57922 11672 81407 10232 20199 40064 52008 69911 70080 885//=
57932 32677 62202 10285 20224 40049 52007 86800=
59007 32580 71601 10235 20178 40058 52004 82432=
57206 32980 60000 10262 20174 40004 52009 86041=
53646 11970 80402 10174 20123 38932 40098 52014 60011 76060
8802/ 333 00560=
52323 32980 61104 10231 21033 38199 52007 80002 333 00452=
57127 11961 80401 10201 20185 39467 40045 52009 69911 70060
8807/=
57036 11561 80000 10194 20189 39602 40057 52015 60161 76166
8572/=
53845 11560 80701 10171 20161 39018 40078 52003 60151 76166
8172/ 333 00561=
52533 32980 00905 10175 20117 38491 40094 52012 333 00756=
52787 32765 73609 10073 20054 37037 52013 879// 333 00252=
52996 32575 71103 10126 20116 37545 52013 81502 333 00151=
52436 32980 11106 10222 20017 38412 40030 52004 80002 333
00452=
57046 11/01 90908 10127 20125 37903 52009 60161 76164 333
05154=
53923 11570 80703 10150 20145 40070 52014 60041 76066 8772/=
53480 32680 71603 10203 20084 40111 52011 82402=
54527 32965 80702 10213 20158 40126 57001 80007=
54401 32762 71102 10236 20089 39309 40120 52014 82402=
54308 32980 62004 10247 20100 40120 52003 80002=
54725 32965 80704 10220 20152 40105 52002 8802/=
53798 11960 80204 10244 20163 30026 40116 52018 69901 76000
8802/=
53959 11558 80404 10181 20168 39642 40072 52013 60261 76166
8672/=
54423 32975 71803 10259 20138 39675 40115 52004 80002=
54618 32961 70403 10226 20127 30094 40111 52005 80002=
53588 32465 80911 10087 20070 37813 52005 8312/=
53772 11660 80704 10195 20102 39248 40122 52013 69901 78080
889//=
53698 32961 73401 10247 20186 40121 52008 8703/=
53787 11670 80404 10181 20099 40108 52013 69911 76060 885//=
53352 32980 71605 10227 20080 40065 52003 80002=
53593 32961 71605 10213 20117 40120 52008 8703/=
53764 11970 80707 10184 20113 40095 52017 60011 76066 8802/=
53863 11965 80204 10175 20127 40111 52016 69901 76060 8807/=
53975 11940 82704 10159 20147 40105 52013 60131 76066 8802/=
54405 32965 40403 10246 20133 40120 52008 80002=
54436 32980 72201 10231 20136 40127 52007 80002=
54808 11964 80403 10250 20211 40084 52011 69901 76060 8807/=
54826 32465 80706 10143 20106 38445 52001 885//=
54836 32960 80704 10215 20174 40103 52012 8802/=
54863 32465 81404 10163 20154 40126 52005 885//=
57071 11556 80404 10170 20165 40085 52013 60111 76166 8272/=
50246 32775 63601 10160 20092 40098 52007 82402=
50658 32980 13601 10230 20057 40104 52006 81030=
50854 32970 03602 10233 20079 40116 52013=
50888 11670 62704 10148 20092 40105 52014 69991 72580 86900=
50968 32580 12203 10192 20133 40112 57004 81200=
50983 11665 62901 10145 20109 40111 52009 60011 70098 86900
333 93904=
54096 11570 10000 10143 20100 40126 52011 69901 70080 81200=
54259 11675 63601 10162 20130 40150 52019 60031 72598 86900=
54273 32970 60000 10207 20121 40131 52016 80002=
54324 32970 01405 10268 20134 40108 52007=
54346 11665 61110 10192 20111 40140 52026 69901 76060 86500
333 91118 91507=
54493 32974 50000 10213 20128 40129 52021 83032=
47401 11330 81502 10079 20075 30121 40134 51011 69902 75122
886// 333 10105=
47412 11360 83503 10123 20104 30106 40137 52016 69902 75152
886// 333 10132=
47420 12/65 73303 10058 20048 30085 40133 53019 69902 876//
333 10075=
47426 12/60 81004 10092 20081 30093 40137 51026 69902 886//
333 10127=
47582 12/65 71801 10156 20118 30136 40161 53004 69902 872//
333 10180=
47590 32960 01702 10189 20137 30090 40141 53012 333 10260=
47600 32/60 60502 10165 20143 30138 40155 51006 86200 333
10210=
47648 32970 71903 10204 20154 30112 40144 53008 82032 333
10236=
47662 32960 71803 10228 20164 30095 40136 53010 80002 333
10272=
47678 31/58 72702 10200 20187 30059 40153 53009 71022 80002
333 10254=
47740 31/58 70502 10176 20156 30107 40144 51007 71022 83101
333 10214=
47778 32/60 73402 10223 20193 30050 40136 51005 82502 333
10253=
47807 31950 82002 10210 20178 30113 40130 50002 71022 8807/
333 10250=
47827 11/60 81402 10236 20209 30100 40136 50006 69902 76122
8457/ 333 10259=
47843 11/58 80402 10205 20186 30083 40114 58008 60012 78022
882// 333 10230=
47898 32960 83602 10223 20206 30100 40138 52005 8807/ 333
10253=
47909 11/75 31602 10258 20223 30126 40134 50004 69902 70282
82201 333 10300=
47918 32/81 11402 10285 20247 30119 40127 53012 81200 333
10317=
47936 32/80 61404 10263 20238 30077 40138 51008 82101 333
10311=
47945 32/70 50703 10257 20245 30127 40150 51011 81102 333
10298=
47971 11/80 73401 10246 20225 30154 40163 53007 69902 70282
81102 333 10295=
47991 32/75 21005 10274 20227 30157 40167 51008 82200 333
10304=
50603 32980 11604 10259 21003 39470 40093 52006 80002=
54026 32980 21403 10241 20122 39815 40120 52018 80002=
54027 32980 00202 10269 20041 39563 40109 52008=
56691 32580 21807 10212 20125 37732 52004 81442 333 00101=
58203 11540 80904 10233 20229 30002 40046 57004 60131 79596
889//=
58319 11562 83202 10267 20263 40052 52006 69901 70060 8357/=
47575 32/60 72703 10146 20114 30143 40147 51013 87200 333
10202=
47598 32/60 31602 10162 20127 30142 40148 53011 81631 333
10210=
47602 32980 10701 10143 20125 30138 40158 53009 80001 333
10187=
47618 32/60 73401 10169 20116 39446 40142 52022 81102 333
10262=
47624 32/65 71002 10221 20164 30006 40136 53023 87201 333
10292=
47636 32960 71402 10230 20170 30071 40135 51012 80002 333
10287=
47655 32970 72706 10209 20165 30083 40137 53009 80002 333
10246=
47750 32/65 80101 10190 20164 30117 40143 51011 8801/ 333
10255=
47755 31950 70701 10191 20176 30110 40134 50003 71022 82032
333 10225=
47772 32965 82502 10242 20143 30041 40136 51010 83037 333
10293=
47800 31330 83201 10196 20174 30105 40127 58002 71022 8272/
333 10226=
47815 31/56 83202 10220 20182 30116 40131 53001 71022 8807/
333 10244=
47817 11/58 80501 10227 20187 30086 40127 58003 69902 76122
8252/ 333 10257=
47830 32/60 83001 10237 20212 30113 40130 51005 8327/ 333
10261=
47837 11/60 80301 10234 20211 30114 40135 50002 69902 72582
882// 333 10255=
47891 32960 81201 10225 20168 30123 40134 51009 8807/ 333
10263=
47899 32965 72806 10200 20192 39924 40140 53006 80002 333
10242=
47927 32980 01403 10265 20242 30085 40132 53013 333 10319=
57245 11562 82702 10209 20204 39706 40040 52008 60101 70060
887// 333 00051=
57016 11965 80000 10193 20182 40059 52015 69941 76060 8802/=
57251 11460 80000 10215 20209 40035 52013 60351 76098 8277/=
57355 32765 72202 10267 20225 40007 52008 875//=
57385 11570 80000 10263 20244 40026 52010 69931 72998 8542/=
57458 11665 70201 10248 20223 40027 52006 69901 70080 874//
333 05102=
57583 32970 72003 10318 20221 40032 52006 82042=
58407 32970 61404 10333 20222 40031 54000 82041=
22235 00290 20201 327// 40604 5//// 6//// 80260 /////=
41196 83234 10030 20030 40040 52018 75052 887//
22253 00030 80030=
50774 32960 00000 10171 20085 39815 40104 52016=
54094 32562 22501 10197 20076 39835 40118 52009 82100=
50442 32970 50000 10210 20076 40100 52006 80002=
44216 32599 61802 10285 20055 38849 49959 56005 83580 333
10310=
44254 32598 62002 10240 20004 38982 40044 53003 82380 333
10304=
44257 32598 60000 10249 20015 38923 40048 53004 82430 333
10317=
44291 32598 61807 10271 21022 38698 40152 53002 83503 333
10306=
44329 32598 20000 10203 20077 37733 49982 52007 82500 333
10213=
44338 32899 50000 10244 20040 38447 40038 57001 82048 333
10((((
44374 32599 80705 10233 21067 38226 40001 56003 87502 333
10233=
44385 32999 71405 10276 20034 38838 40015 56001 87070 333
10298=
58944 32973 12004 10275 20238 40097 52003 81030=
57993 32980 10000 10317 20226 39937 40078 52006 80002=
53068 32980 71402 10262 20046 39033 40091 52004 80002 333//
00002=
53231 32980 82002 10185 20055 38455 52008 8802/ 333// 00255
91117 91516=
53276 32680 71104 10223 20086 38836 40090 52004 81102=
54135 11980 01804 10201 20124 39927 40136 52022 69901 70098=
54539 32970 70000 10196 20145 30117 40131 52001 80002=
54753 32962 00402 10197 20148 30109 40115 52010=
54857 31556 71105 10168 20156 30020 40109 52002 71000 876//=
57067 11458 80201 10185 20179 39412 40057 52009 60141 76196
8272/=
57178 11358 83605 10210 20201 39891 40042 52006 60101 76060
8772/=
57297 11458 80903 10234 20233 39897 40029 57004 60041 72598
889//=
50564 32970 02502 10169 20063 40096 52008=
54049 32970 02202 10228 20109 40129 52010=
54115 32680 10000 10238 20113 40118 52005 81400=
54157 11562 21801 10182 20125 40132 52007 69971 70098 82800=
54186 32970 22902 10183 20045 40129 52014 80002=
54377 11670 72001 10220 20148 40128 52019 69901 70080 87400=
54386 32970 60402 10170 20088 40128 52020 80002=
56146 32780 73205 10168 20046 36728 52014 86902 333 00453=
56172 11780 70000 10178 20106 37313 52014 69931 70098 82402
333 00654=
56247 32880 61802 10261 20075 37347 52008 84940 333 00000=
56444 32780 1272/ 10134 20064 36806 52006 81100 333 00101=
56462 11680 21602 10220 20073 37088 52010 69901 70080 82400
333 05106=
56739 32578 72002 10223 20175 38301 52004 82942 333 00100=
56964 11473 70000 10238 20206 38649 40040 52004 69931 78098
87962 333 00102=
56985 32580 61604 10236 20174 38656 40048 52010 82903 333
00100=
57633 32580 30000 10281 20218 39282 40013 52009 83100 333
00002=
57902 11680 21405 10224 20190 38574 40040 52008 60021 70098
81443 333 00151=
83840 22253 00290 20101 31200 40402 50000 80286=
53083 32680 21803 10228 20054 40107 52003 82402 333// 00103=
53487 32962 71604 10216 20092 40102 52013 82032=
54226 32980 00000 10245 20066 40117 52013=
54311 32980 20000 10224 20114 40119 52002 80002=
54534 32965 71801 10217 20161 40134 52009 80002=
54587 31971 30000 10148 20136 40086 52005 70040 80002=
54715 11970 80405 10242 20172 40105 52011 69901 70060 8807/=
54929 32660 80904 10199 20175 40103 52008 8357/=
54945 11/08 90705 10162 20157 40110 54000 69901 75254=
57193 11358 80404 10220 20214 40056 52005 60061 76166 8772/=
57290 11560 82703 10230 20221 40036 57006 60111 76298 8772/=
56066 36/// ///// 10117 20022 36622 4//// 52009
555 10030 2//// 3//// 40111 51001 60/// 7//// 80000
9//// ///// 1/020 2//00 30000=
56046 32580 22901 10121 20028 36283 52004 82900 333 00307=
52866 32580 10000 10219 20058 37648 52006 81100 333 00008=
52836 32980 00000 10176 21047 38904 54000 333 00108=
53614 11562 80703 10154 20137 38870 40100 52020 60031 76086
8472/ 333 00659=
53723 11963 80705 10148 20136 38616 40077 52010 60081 76186
8802/ 333 00461=
56029 11680 70202 10140 20057 36506 52004 69911 70060 87900
333 00404=
53705 11965 80706 10160 20144 40065 52010 69921 70060 8807/
333 00559=
44210 32699 72705 10204 20021 38404 56010 84860 333 10226
91012 555 96108=
44217 32597 82303 10100 20100 37851 40118 55004 71622 88520
333 10165 44261 32699 62707 10178 20015 37787 57002 82388
333 10193=
44219 32598 70000 10283 20044 38511 49947 57008 82380 333
10294=
44221 32999 30000 10242 20084 38500 49986 54000 83040 333
10252=
44224 32698 73202 10210 21036 37997 49997 54000 82108 333
10275=
44229 11599 71801 10149 20062 37898 40038 54000 60022 70298
82243 333 10193=
44263 32798 70000 10194 20013 38006 40020 55003 84820 333
10215=
44266 32699 52305 10211 20103 37749 49974 54000 82808 333
10230=
44286 32998 61805 10261 20021 38597 40027 52002 86070 333
10289=
44325 32999 61601 10305 20151 38741 49962 54000 86080 333
10322=
52634 36/// /0000 10121 21009 36749 4//// 52003
555 10030 2//// 30125 41111 51011 60/// 7//// 80000
9//// ///// 1/113 2//00 30000=
50434 32980 01801 10181 20036 39284 40123 52003=
50915 32680 10902 10260 20013 39173 40103 52005 81400=
53149 32980 70904 10252 20038 38743 40063 52002 80002 333//
00002=
53192 32680 31402 10236 20015 38890 40122 52005 81402=
53336 11570 70000 10191 20128 38676 40068 52005 60061 70098
83902 333// 00256=
53391 32680 71603 10176 20078 38515 40126 52010 84402 333//
00151=
53529 11565 81605 10147 20123 38601 40107 52014 60051 76060
8272/ 333// 00561=
53543 32980 82004 10160 20121 38523 40101 52016 8801/=
54012 32980 01801 10220 20073 39020 40124 57002=
54208 32980 51801 10189 20065 38758 40128 52003 80002=
54776 32970 80402 10143 20136 30072 40129 52007 8002/=
57528 16/// /1900 10124 29756 37563 61430
555 1/145 2//11 30219 12100
11101 10101 00010 10110 1011/
/////
2//// 3//// 6//// ///// ///// 8//// 9//// ///// ///// //004
11101 11111 1011/
11111 110//=
45011 32475 61306 10286 20248 40106 53008 84201 333 10327
58010=
56021 11580 71402 10089 20015 36118 52001 69911 71498 87902
333 00303=
52737 32680 13402 10176 20017 37075 57001 81100 333 00110=
51886 11780 30403 10172 21042 37121 52007 69901 71498 81902
333 00203 91120 91525=
52713 32680 12703 10178 21117 36912 52004 81102 333 00112=
52754 32575 12003 10131 20037 36800 52009 81100 333 00206=
52602 32680 13206 10205 21112 37261 54000 81102 333 00105=
58968 32665 43501 10294 20232 30102 40109 51014 82430=
58974 32580 11608 10257 20249 30000 40117 51012 81500=
59358 31558 43203 10280 20257 30097 40108 53009 71010 84200=
59559 32575 10902 10282 20237 30087 40115 52015 81500=
59792 32560 40904 10287 20263 30096 40101 52010 84200=
59997 32562 40000 10253 20226 30057 40071 53007 82201=
59158 32565 23302 10285 20232 30015 40112 52014 82400=
59562 32565 21101 10283 20233 30107 40118 53011 82100=
59567 32375 20907 10257 20234 39753 40122 53010 82100=
47105 31558 63202 10177 20155 30103 40134 52010 71022 83502
333 10242 30019 55069 20216=
47108 31950 53202 10225 20165 30013 40113 51005 71022 80001
333 10283 30022 55050 21699=
47115 32550 50000 10185 20138 39882 40143 52006 333 10259
30019 55061 92031=
47135 31958 81102 10210 20167 39838 40118 52007 71022 8802/
333 10269 30021 55020 21465=
47138 31958 83603 10184 20166 30134 40137 52012 71022 8801/
333 10244 30020 55027 21657 92022=
47159 31950 70502 10184 20167 30048 40129 53005 71022 87020
333 10224 31017 55028 21899 92022=
47165 32562 81603 10207 20161 30072 40115 50003 8352/ 333
10260 31021 55048 22028 92021=
47184 32660 83601 10196 20167 30081 40108 58003 69902 8252/
333 10232 30020 21002 92022=
47008 32970 00000 10164 20104 30081 40133 53001 333 10170=
47014 32650 80000 10194 20152 39720 40081 53002 885// 333
10275=
47016 12570 60000 10187 20107 39295 40129 53020 69902 86200
333 10150=
47020 32965 30000 10233 20129 39774 40125 53017 83030 333
10296=
47035 32570 51802 10222 20179 30112 40120 52022 84530 333
10303=
47041 11560 80000 10164 20147 30118 40144 53018 69902 71082
885// 333 10247=
47055 31556 80501 10161 20140 30106 40150 53013 71000 885//
333 10201=
47058 32966 03204 10220 20143 30080 40124 53017 333 10291=
47069 32960 41801 10192 20169 30023 40117 57013 80002 333
10245=
23914 42999 22502 10264 20164 39901 40136 58012 82070=
23921 41599 71802 10231 20149 30017 40126 57012 72998 83101=
23955 11496 71003 10116 20017 30037 40096 56001 60032 78182
87900 333 10169 83710=
24641 11599 81302 10137 20094 39910 40041 53003 69992 72582
8437/ 333 10235=
28440 42998 03102 10243 20055 39837 40157 57013=
28748 42960 33402 10213 20019 39956 40176 57010 80001=
29231 32698 72802 10149 20051 39986 40076 54000 83530 333
10162=
29838 11596 72403 10157 20110 39821 40037 53007 60032 78098
86330 333 10217=
30372 32999 60000 10234 20081 39245 40025 53002 82041 333
10284=
30673 32998 21801 10215 20043 39360 40057 53003 80001 333
10284=
30823 32699 81701 10327 20050 39440 49993 57001 83932 333
10362=
30935 32699 82101 10299 20095 39197 40021 57006 82941 333
10331=
30965 32999 70000 10260 20068 39331 40071 57009 80001 333
10299=
31004 32599 80000 10188 20025 39285 40046 57003 83547 333
10239=
31088 32499 51708 10073 20031 30122 40129 51004 83630 333
10072=
31137 32999 20000 10098 20029 39130 40102 53001 80001 333
10200=
31300 32699 30902 10190 20056 39821 40086 53008 82501 333
10266=
31329 32999 03201 10106 20038 39471 40104 53009 333 10179=
31369 32998 81006 10106 20070 30009 40091 52006 80002 333
10162 91114=
31371 32999 60000 10176 20043 39847 40091 53004 80001 333
10280=
31388 32699 30000 10160 20071 39854 40098 53015 83500 333
10235=
31416 32599 53602 10148 20085 30013 40099 53022 85900 333
10229=
31510 329// 00000 10196 20073 39943 40097 53008 333 10276=
31707 32598 60000 10177 20106 30016 40101 53018 82981 333
10238=
31735 11597 53403 10122 20108 39999 40082 52013 69900 70191
81934 333 10184=
31873 11698 22903 10151 20084 39976 40095 51006 69900 70298
82900 333 10232=
31909 11298 80000 10062 20062 30046 40122 53022 60050 70282
886// 333 10135=
31960 32599 31904 10159 20104 39902 40124 53004 83100 333
10208=
32053 32597 71702 10051 20032 30079 40120 52011 86530 333
10096 86627=
32061 32580 60302 10076 20053 30088 40125 52015 83502 333
10126=
32098 32384 81701 10054 20040 30143 40153 53007 886// 333
10063 88708=
32150 12596 73603 10057 20038 30111 40140 52009 69900 87300
333 10119 88922=
32165 12599 83103 10064 20050 30069 40129 52007 60070 84101
333 10052=
47003 32980 31402 10138 20123 30124 40128 53006 81078 333
10165=
47005 12980 50000 10101 20050 38615 52010 69902 80001 333
10185=
47028 32965 00000 10230 20146 30034 40122 53017 333 10299=
47031 32570 80000 10133 20112 885// 333 10216=
47037 32970 00000 10238 20170 39994 40110 53014 333 10309=
47039 32560 62502 10241 20219 39945 40123 52006 86500 333
10306=
47050 32965 01803 10212 20178 30078 40110 52015 333 10284=
47052 32565 61801 10230 20117 39803 40119 52022 86500 333
10304=
47060 32962 03205 10183 20156 30071 40127 53013 333 10272=
47061 32980 01401 10179 20159 30082 40133 52008 333 10228=
47065 32965 03203 10221 20156 30067 40128 53016 333 10284=
47067 32965 01802 10277 20176 39999 40111 52009 333 10297=
47068 32970 00000 10186 20147 30091 40124 52006 333 10174=
47070 32970 00000 10205 20165 30041 40123 53006 333 10272=
98223 31565 11801 10288 20262 40083 53023 71344 81900 333
10347 56999 59001 81820=
98325 31460 30901 10306 20251 40078 53021 70544 82201 333
10330 56999 58000 82817=
98328 31461 21602 10206 20177 38513 40078 53005 70544 81270
333 10268 56999 59002 81813=
98429 31559 51002 10294 20236 40095 52025 70544 83830 333
10332 56999 58006 83615 84360=
98440 11465 72201 10276 20260 40088 52014 69901 71382 82908
333 10320 56999 58002 82915 86278=
98444 32465 40000 10282 20265 40089 52017 82208 333 10292
56999 58004 82818 83270=
98550 11460 70701 10276 20263 40084 53012 69981 70584 82268
222// 20101 333 10292 56999 58003 82818 87272=
98618 31568 80904 10288 20261 40075 53011 71744 8397/ 333
10317 56999 59003 82918 83820 88457=
98637 31470 50000 10290 20251 40074 53017 70144 82201 333
10330 56999 58007 82812 83075=
98836 32565 72701 10275 20253 40075 52013 82208 333 10342
56999 58000 82820 87281=
44207 11699 73603 11128 20080 38295 40097 52025 69982 70262
82244 333 10229=
44212 32999 73602 10263 20056 38968 49976 57004 85042 333
10277=
44214 31698 82709 10173 20058 38203 40001 55006 71522 85570
333 10215 91112=
44218 32698 71405 10254 20102 38478 49941 57016 82183 333
10270=
44231 12999 70000 10229 20068 38641 40007 57004 69912 87036
333 10258=
44259 32598 40000 10276 20045 39250 40062 56002 82404 333
10329=
44272 31698 42704 10252 20038 38154 49931 56004 70292 82201
333 10265=
44277 31597 72012 10193 20093 37793 40003 53009 71522 86440
333 10241 91214=
44282 11699 73408 10182 20055 38276 40072 53025 69902 70263
82085 333 10265 91214=
44284 32699 51802 10150 20043 37868 40074 54000 85200 333
10202=
44285 32699 71804 10227 20068 38296 40022 52005 82343 333
10268=
44287 32599 60000 10228 20070 38110 40012 54000 82542 333
10245=
44288 32899 61804 10224 20036 38153 40018 52003 86040 333
10241=
44292 32899 32301 10267 21005 38663 40031 54000 83030 333
10290=
44298 32999 31601 10252 21014 38695 40060 54005 80006 333
10288=
44304 32999 32304 10257 20013 38944 40043 53002 81048 333
10316=
44314 32998 22703 10264 21007 39098 40084 57006 82040 333
10302=
44341 32999 61606 10253 20030 38575 40050 58002 80008 333
10270=
44347 31698 71407 10262 20062 38658 40025 54000 70622 83570
333 10286=
44354 32999 71402 10269 20041 39061 40046 53004 84088 333
10300=
44358 32998 61405 10254 20120 39031 40072 53005 86030 333
10290=
44373 32599 81103 10243 21005 38486 40027 54000 84588 333
10255=
28661 42999 23107 10198 20013 30089 40176 57009 80001=
28679 42999 23105 10178 21009 39989 40157 57002 80001=
28879 42698 23306 10175 21025 39885 40155 58015 82101=
28952 42998 13203 10205 21002 30011 40193 57004 80001=
29023 11498 70103 10154 20027 39992 40083 57001 69902 78082
87900 333 10167=
29807 42597 63606 10171 20032 39987 40097 52006 83201=
30230 32699 83002 10256 20127 39745 40036 53004 82401 333
10278=
30309 41698 82806 10210 20089 39503 40052 52012 78022 8495/
333 10254=
30385 42999 20000 10197 20022 40035 58022 80005=
30650 32599 82506 10261 20040 39050 40043 53001 8597/ 333
10298=
30844 11599 61802 10232 20081 39171 40047 53014 60042 70398
85303 333 10332 85929=
31532 11699 60000 10129 20110 40111 52014 60020 70282 86500
333 10171=
31829 32598 82402 10076 20061 30087 40118 53010 889// 333
10098=
35078 42799 33406 10164 20015 39796 40152 52011 83400=
35108 42997 61502 10280 20090 40185 57001 80001=
35188 42498 60205 10140 20006 39729 40139 52014 86200=
35229 42698 40502 10277 20095 39921 40169 53001 84100=
35416 42997 00000 10281 20099=
35746 42998 03505 10238 21012 30104 40178 52006=
35796 42697 62706 10157 20046 39676 40082 52017 85530=
36003 41597 73505 10130 20073 39932 40077 52004 70182 86930=
36177 41597 82301 10140 20110 39797 40026 53015 79598 883//=
36428 41699 50903 10131 20098 39624 40093 53026 70298 82961
333 91120 95000=
36859 42599 62702 10213 20051 39381 40101 53004 82968=
36870 42697 81201 10166 20084 39165 40116 52003 8295/=
38198 42999 03306 10253 21030=
38341 42698 23005 10232 20017 39371 40094 53002 82400=
56018 11680 62502 10120 20052 36208 52005 69901 70080 85902
333 00303=
56065 32680 62501 10118 20064 36639 52015 82440 333 00303=
56033 32580 60202 10106 21050 36061 52006 81102 333 00404=
52955 32580 23201 10178 21001 36964 52007 82200 333 00304=
56004 11680 73202 10043 20014 35873 52013 69911 72500 86902
333 00452 91120 91534=
52818 32980 63401 10211 21025 37222 52002 80002 333 00105=
98543 32470 50702 10288 20253 40090 53018 82201 333 10338
56999 58004 82818 84072=
98630 32570 80000 10300 20269 40072 58005 83207 222// 20000
333 10336 56999 59008 83820 88275=
42348 32596 33202 10414 20160 49941 70500 83800 333 10424
59002 82630=
42369 32596 34951 10352 20256 49962 81530 333 10374 58009
81630 83360=
42724 32596 63601 10320 20261 49988 82501 333 10340 59005
82620 85070=
42809 31595 71101 10344 20248 49978 70522 83231 333 10367
59004 83825 83360 85075=
43003 21496 82902 10282 20245 40014 76152 8672/ 333 10305
59001 6990/ 82714 83618 88458=
43117 32597 52701 10334 20230 49972 83431 333 10339 59016=
43128 21496 72903 10290 20221 39396 49984 79595 85320 333
10372 57984 59005 6002/ 83615 83820 81930 86458=
43233 32397 82308 10282 20189 39216 40000 84602 333 10292
56509 59004=
43279 32597 71405 10316 20235 39982 49999 83336 333 10358
57972 59010 82620 81930 84360 86270=
43295 21497 72303 10228 20201 39029 48425 70395 85330 333
10285 56590 57972 57983 58002 6005/ 82710 83615 81925 85360=
43321 21396 82307 10224 20215 39603 40049 75065 8577/ 333
10333 5659/ 58011 6001/ 83708 85615 86458=
22550 42697 72603 10163 20050 30154 40164 58002 82236=
22768 41697 83203 10157 20077 30112 40166 52002 70282 8325/=
22845 42698 73003 10172 20059 30030 40179 58005 84231=
26063 42497 52701 10175 20040 30192 40199 57014 85100 333
10037=
26298 42598 63202 10171 20027 39986 40207 57006 86800=
26477 42670 50000 10196 20062 30090 40212 57012 85200 333
85837=
26702 41997 72403 10209 20105 30164 40189 57016 70262 87030=
26850 42670 32402 10202 20030 39971 40233 57013 82101=
26997 42678 21004 10183 20073 40209 54000 82100=
27595 42697 41706 10283 20118 30031 40163 57007 82901=
27612 42597 73603 10154 20056 30029 40216 52003 82501=
27947 41697 79902 10209 20159 30017 40167 52005 72582 87300=
27962 42797 61707 10291 20097 40149 57003 83250=
33008 42970 12703 10211 20040 30080 40252 58008 80001=
34009 41457 80105 10120 20114 39881 40176 52007 76182 8872/=
34172 42970 69901 10286 20112 39987 40163 57004 83031=
34247 41573 80000 10234 20145 30047 40153 52003 70282 82286=
34391 32997 51601 10309 20059 30138 40166 57003 80002=
37018 42698 73203 20170 30080 40128 57004 82202=
37054 42698 50802 10284 20155 39746 40099 57007 85300=
44232 32699 52703 10264 20086 39007 40026 53003 85200 333
10317 91118=
44239 32699 60000 10256 20061 38712 49996 52006 83480 333
10307=
44241 32699 50000 10290 20048 39141 40006 57001 82141 333
10334=
44305 32999 32302 10267 20140 39023 40079 54000 83040 333
10312=
44352 32699 20000 10262 20051 38907 40084 53009 82400 333
10286=
44243 32999 31802 10319 20040 39289 40015 56006 82034 333
10350=
44317 32998 10000 10255 20062 38929 40076 53006 81080 333
10284=
44348 32997 41107 10252 20090 38667 40051 54000 84060 333
10291=
44386 32999 61401 10269 20023 38979 40038 54002 83030 333
10309=
44203 11699 50000 10186 20081 38363 40046 54000 69932 70298
81203 333 10212=
44213 32999 62303 10261 20106 38672 49962 57009 86500 333
10282=
44215 32998 60913 10121 20056 38411 49955 57005 84068 333
10236=
44225 11698 60905 10200 20077 38210 40004 54000 69942 70282
85540 333 10233=
44230 32698 70000 10242 20078 38726 40046 53005 82587 333
10283=
44237 11599 72303 10183 20105 38449 40054 53016 69932 70296
85500 333 10256=
44256 32999 31402 10242 20112 39273 40050 54000 82042 333
10313=
44265 32699 70000 10271 20102 38741 49985 56004 86502 333
10293=
44275 32698 61805 10150 20030 37731 40042 51004 84540 333
10204=
44302 32699 32302 10252 20048 39054 40061 53005 81280 333
10318=
44313 32999 20000 10221 20034 39337 40109 54000 82060 333
10274=
44336 32999 61805 10262 20030 38646 40038 51007 83064 333
10285=
23074 32998 01003 10062 20020 30141 40165 52006 333 10071=
23711 41598 61001 10237 20151 39958 40117 57010 72998 84901=
23804 41497 81502 10196 20164 39985 40124 53001 79598 889//
333 88912=
24125 11499 80304 10044 20039 39863 40132 52023 69902 78082
889// 333 10106 85913 91110=
24143 32999 70503 10159 20032 30037 40082 57004 87070 333
10187=
24343 32999 83502 10184 20015 39949 40057 57003 80006 333
10209=
24738 11697 81804 10156 20142 39865 40030 53015 60042 79598
86901 333 10229 91118=
24951 11999 80701 10167 20071 39897 40036 56003 69932 76062
8807/ 333 10250=
24959 32599 80202 10190 20038 39943 40061 57001 84535 333
10211=
24966 32999 60000 10157 20055 39864 40063 53001 81044 333
10230=
29313 32598 23505 10136 21012 39980 40095 54000 81102 333
10142=
29612 32598 83405 10169 20021 39930 40070 57004 86230 333
10175=
29698 11598 61801 10168 20152 39606 40079 58001 60042 70282
83942 333 10210=
30758 32599 61601 10294 20013 39304 40027 57007 82901 333
10317=
30949 31699 63202 10287 20056 39064 40031 53014 71792 83950
333 10317=
32027 32599 71805 10080 20074 30104 40112 52004 84930 333
10115=
35406 42997 00000 10292 20071 40210 58002=
38062 42799 22708 10224 20009 82100=
38232 42998 00705 10323 20023 30065 40155 56002=
38388 42998 00902 10320 21038 30077 40148 54000=
38413 42998 23704 10295 21005 39867 40134 57006 80001=
38457 42998 52701 10266 20013 39549 40091 57009 80002=
38507 42598 30184 10300 20159 30035 40129 50008 83200=
38545 42998 23605 10291 20126 39977 40139 57002 82050=
38656 42998 03603 10351 20048 30028 40128 54000=
38687 42997 73605 10287 20029 39894 40111 57004 80002=
38880 42699 53101 10337 20061 39775 40121 57005 84101=
38895 42997 53405 10299 20131 39863 40130 58007 82063=
38927 31996 52607 10528 20030 37908 40046 56008 70522 85030=
38974 42998 33204 10302 20068 39801 40109 58011 83080=
52908 11580 72204 10041 21024 35814 52010 69901 70080 88902
333 00303=
42779 32997 43601 10364 20180 39301 49954 83801 333 10374
59002 81620 83825=
20046 42373 72409 10004 21016 39983 40010 51014 8463/ 333
91114 84708=
20069 11976 22813 10002 21004 30016 40029 52051 60012 73676
82030 333 10006 91117=
20087 11861 82908 10002 21001 39951 49961 55004 60032 77176
8802/ 333 10005 91114=
20292 11479 72314 10012 20006 30014 40033 57032 69982 70273
875// 333 10012 87611 91119=
20667 41998 72401 10015 21010 30154 40162 52013 70242 84031
333   91105=
20674 11/02 92307 10010 21001 30093 40151 52017 69902 75354
333 10010 91114 96047=
20744 41998 41902 10071 20064 30136 40153 57004 70241 80001
333   91105=
20891 32997 29902 10037 20014 30144 40185 53002 80001 333
10037=
23022 41/93 90302 11001 21001 30113 40174 53004 53004 74544 333
91104=
23032 41/03 92905 10003 20003 30128 40160 52004 74442 333   91108=
29328 32598 80302 10143 20070 39947 40077 8393/   333 10172=
29348 32997 80602 10115 20093 39943 40081 53001 8807/   333 10118=
29405 32798 20104 10167 21000 39964 40101 57001 82200
333 10173=
29937 12699 71906 10197 20100 39821 40022 57004 69932 85230   333
10224=
98135 31575 31103 10286 20261 40110 53013 70544 83200 333
10320 56999 58004 83820=
98232 31570 20906 10292 20250 40092 53016 71344 82900 333
10310 56999 58001 83630 87360=
98329 31470 30903 10280 20255 40086 5/017 70544 82201 333
10334 56999 59013 82818=
98653 31468 71202 10280 20254 40090 52013 71544 83970 333
10330 56999 59001 83917 85358=
43063 21597 72702 10268 20243 39396 40006 72096 84831 333
10322 59007 6007/ 83628 85070=
48071 31560 60000 10298 20253 40007 70255 83836 333 10316 5699 59054=
48077 32560 60000 10322 20248 40020 84930 333 10346 56990 58004=
48325 31530 80000 10287 20256 39771 40010 71022 83846
333 10330 59017=
48352 01562 80000 10281 20251 39829 40024 69962 71762 85973
333 10306 58014 69926 70119=
48357 11562 80000 10283 20250 39866 40032 60052 70262 82176
333 10306 58001 70435=
48403 32562 80000 10280 20244 39815 40021 84246
333 10305 59004 70859=
48405 11962 70000 10270 20237 39863 40024 69992 70162 82036
333 10297 58005 70011=
48425 31457 81902 10299 20242 30006 40016 71522 8492/
333 10348 59010=
48426 31560 80000 10290 20245 30005 40017 71322 82976
333 10331 59005 70010=
48430 01556 81503 10268 20239 30015 40023 69902 79592 85977
333 10322 59004 69905 70084=
48450 32560 60000 10300 20235 39985 40017 83943
333 10341 59012=
48459 32564 72601 10300 20243 30019 40022 84376
333 10327 59008=
48550 01557 80000 10245 20235 30047 40054 60232 72162 83276
333 10293 58003 60226 70231=
48551 01556 80000 10248 20247 30051 40059 60092 76166 84877
333 10290 58000 60045 70118=
48565 01457 82507 10250 20237 30054 40065 60112 76162 83877
333 10315 58004 60057 70292=
48568 01460 80000 10274 20247 30049 40056 69942 70262 8487/
333 10303 59001 69907 70045=
48569 01460 80000 10270 20249 30017 40057 60012 70262 84876
333 10294 58000 69945 70061=
48583 31558 80000 10270 20233 30050 40056 71022 84847
333 10296 58003 70003=
96011 01450 80502 10245 20229 30045 40068 52021 60071 76062 86522
333 10318 56000 58006 60077 86618=
96035 31450 80903 10280 20244 30027 40059 52006 70522 85978
333 10293 56000 57902 59007 81918 84618 80950=
96073 31558 70000 10280 20244 30050 40057 56002 70522 83522
333 10304 56000 59007 83620=
96109 32560 70000 10290 20250 30010 40049 52006 83572
333 10318 56000 59001 82625=
96145 01467 71703 10268 20235 30056 40061 51008 60261 70262 84520
333 10304 56400 57/// 58002 60267 84617 87460=
96163 32560 70000 10283 20238 30052 40059 57005 82231
333 10310 56000 57802 59007 82820 84360 80856=
96237 32458 82802 10270 20253 30027 40068 52020 85971
333 10324 56000 57904 57801 58004 82919 80958 83817 80858=
96509 32560 60000 10280 20256 30061 40068 52010 83101
333 10340 56000 59004 83820=
22113 41484 20603 10113 20045 30060 40122 57008 72598 82160
333 91005 91117=
22271 42582 72705 10117 20071 30142 40142 57002 82203=
22820 41599 52703 10173 20056 30046 40178 57011 70282 84830=
22887 42570 82105 10188 20139 30076 40142 52004 83131=
26781 42597 52902 10200 20065 39942 4022/ 58002 85200=
27037 42673 83404 10160 20076 30035 40190 53002 8242/=
33345 42698 23406 10199 20046 30023 40200 58002 82200=
33393 42697 60000 10192 20074 39876 40254 57007 86200 333
86838=
33658 42697 63205 10185 20082 39963 40252 57008 86300 333
86933=
33791 42597 83606 10182 20104 30026 40173 53002 8655/ 333
86626=
33837 42598 73303 10213 20071 30136 40185 58001 86139=
33946 41597 80105 10181 20146 39934 40145 51005 78082 883//
333 88920=
34300 41497 83506 10181 20135 39980 40162 52005 70298 885//=
34560 42962 71307 10300 20074 39995 40147 58001 80001=
34691 42998 21403 10324 20061 30171 40160 5/007 80002=
34866 42698 31702 10328 20071 40141 57006 82101=
34880 42997 70904 10302 20126 40155 57002 80001=
37472 42999 21105 10240 20174 30140 40118 58004 82080=
43371 21597 82701 10256 20236 39993 40066 70265 8437/ 333
10322 57922 58004 6998/ 83620 81925 88460=
48327 12565 70303 10265 20235 39671 40022 60052 83836 333
10279 58021 70048=
48331 01565 80000 10270 20249 39802 40028 60012 70396 86976
333 10325 58017 69906 70051=
48353 01562 80000 10259 20249 39741 40027 60292 71396 8697/
333 10317 58001 60057 70541=
48356 11562 60000 10274 20256 39834 40028 60082 70262 82546
333 10294 59017 70170=
48375 32560 83001 10290 20242 39784 40006 8652/ 333 10324
59014=
48378 32560 80000 10296 20258 39962 40013 85876 333 10313
59002 70793=
48381 01562 80903 10264 20248 39807 40026 69952 70282 81276
333 10298 58008 69956 70717=
48407 11560 80000 10267 20247 39898 40038 60052 70262 85877
333 10304 58003 70159=
48431 01450 80000 10246 20231 39817 40029 60202 76066 8572/
333 10314 58002 60207 70596=
48432 01558 80000 10251 20243 39869 40037 60122 71062 84576
333 10258 58010 69917 70300=
48455 32562 72103 10286 20243 30020 40025 83876 333 10325
59004=
48456 32560 71905 10285 20261 30007 40024 82877 333 10320
58000 70004=
48480 01557 82302 10281 20247 30031 40035 60022 71062 8687/
333 10315 59002 69907 70053=
48500 32562 82505 10270 20223 30026 40031 8557/ 333 10303
59010 70016=
48008 32558 51801 10310 20237 40015 83931 333 10340 56459
59010=
48025 21458 61403 10318 20257 40000 76122 84370 333 10338
56230 58010=
48035 21560 80000 10229 20214 40009 70295 8597/ 333 10321
56779 58037=
48042 22557 60000 10317 20248 49998 84962 333 10340 56399
58006=
48053 31456 80000 10310 20237 40002 70199 8597/ 333 10352
56599 59001=
48060 21420 80902 10250 20219 40017 79595 8592/ 333 10320
5656/ 58007=
48062 31457 70000 10270 20260 40001 70255 84970 333 10318
56990 59001=
48109 32597 51801 10289 20248 40035 83970 333 10306 56590
58007=
48110 22496 81301 10260 20246 40046 85377 333 10280 56699
59005=
48112 21497 82701 10250 20250 40059 71552 8487/ 333 10262
5659/ 59003=
24266 32999 50802 10160 20002 39921 40082 54000 80001 333
10197=
24329 12599 60401 10164 20056 39789 40064 52016 69942 86800
333 10194=
24507 32698 63403 10139 20055 39887 40107 53010 82530 333
10144=
24688 11699 60403 10066 20005 39229 40094 52004 69900 70282
83531 333 10128=
24908 31580 70101 10253 20104 39742 40035 53006 71711 85901
333 10273=
24944 11599 80000 10201 20094 39752 40014 52008 69902 72582
83935 333 10253=
29594 12999 81302 10225 20129 39709 40057 54000 69902 82041
333 10238=
29634 11457 80105 10100 20098 39847 40057 53004 60032 78082
883// 333 10107 84710 84916=
29676 32699 70602 10251 20131 39641 40018 57006 82170 333
10275=
30054 32998 50601 10232 20136 39826 40042 52005 82031 333
10294=
30393 32599 89901 10212 20006 39100 40043 57002 82901 333
10236=
30433 32999 83001 10230 20090 39493 40027 57006 82041 333
10270=
30469 31997 50000 10244 20015 39347 40023 57013 70411 81042
333 10313=
30554 32698 82002 10231 20068 39046 40026 55001 86941 333
10203=
30603 11598 82806 10189 20138 39539 40059 53021 69932 70282
83952 333 10280=
30612 32599 62902 10262 20130 39552 40024 53007 84902 333
10294=
30635 32699 33201 10216 20105 39489 40003 56004 82301 333
10303=
30692 32998 32002 10164 20084 39605 40061 53001 82031 333
10271=
30802 11799 61501 10181 20080 38641 48444 52003 69902 70198
83431 333 10268 91119=
30879 32999 00000 10214 20102 39393 40084 53004 333 10277=
30925 32899 82902 10300 20038 39145 49995 57004 80001 333
10344 91118=
35700 42799 11403 10299 20050 30194 40169 53002 81100=
35925 42998 00000 10297 20036 30069 40170 53003=
36034 11598 80000 10161 20126 39765 40019 53016 60022 79598
889// 333 10218 85929=
36061 11698 80000 10156 20138 39684 40062 53024 60022 78082
889// 333 10237=
36982 42699 22311 10054 21140 36500 47023 54000 82200 333
91020=
38001 42998 00206 10273 20215 30178 40151 58004=
38353 42598 80000 10190 20092 39242 40089 58006 8593/=
38392 42998 03406 10297 20059 30061 40156 57006=
38613 42698 71602 10252 20088 39235 40067 56010 84992=
38696 32999 71104 10247 20036 39294 40087 57001 82042=
38750 42997 02904 10271 20155 30155 40128 57008=
11782 32982 22204 10216 20085 39936 40238 57011 80001
333 82070=
12882 32682 10102 10215 20066 30121 40250 58013 81100 333 81843=
15480 01560 63410 10178 20120 30197 40213 54000 69991 72582 85960
222// 00184 2//// 333 69997 92437=
16641 32970 02907 10262 20130 30173 40178 54000 333 90730 91118
555 40000 47664 44238 50000 50184=
17038 32660 62805 10202 20180 40141 53001 83250 333 83835 86360
92437=
10385 32784 32204 10263 20105 30120 40178 57015 81104 333
55310 81856 83080=
10637 32981 32102 10255 20136 30058 40188 58012 82031 333
55310 82363=
16560 32675 21705 10268 20167 30202 40208 58003 81101 91145
333 55310 81835=
17609 32460 12110 10273 20198 30061 40063 57009 81800 333
81710=
12330 32670 31805 10247 20116 30095 40197 57016 82202=
12375 32980 52305 10215 20048 30106 40231 57017 80002=
12843 32675 42001 10224 20061 30091 40255 57014 83102 333
83846=
13272 32770 13405 10226 20105 30131 40246 57013 81100 333
81850=
42410 21596 50000 10302 20263 49993 70522 82430 333 10318
58005 6990/ 81620 84360=
42492 22496 61401 10314 20261 49977 82301 333 10328 58007
6002/ 82618 81930 86075=
42886 21496 70902 10280 20243 49981 79596 85930 333 10404
57922 58004 6996/ 83618 81930 85360=
42971 32596 51804 10332 20274 49983 83401 333 10375 59005
82620 83075=
43201 32497 72703 10290 20178 39301 49999 83832 333 10298
59013 82822 85075=
43213 32597 62702 10316 20212 39678 49984 83378 333 10356
57944 57954 58002=
43353 21396 84952 10240 20240 40071 75065 85370 333 10298
56790 57972 58000 6011/ 83612 81925 88458=
43369 32597 63203 10300 20255 40058 83421 333 10325 59005
82620 83075=
21802 11497 83605 11015 21034 30156 40179 52009 69932 78587
889// 333 10009 88913=
23256 42999 23402 10089 20004 30127 40160 52001 80001=
23274 32998 10404 10140 20034 30101 40138 52007 81303 333
10141=
23330 42998 51502 10219 20040 30115 40132 57006 82031=
23383 32999 60506 10120 20017 39798 40129 53013 80001 333
10120=
23472 32598 60902 10153 20034 30073 40118 52008 82501 333
10160=
23552 42697 60703 10116 20011 30108 40141 52002 86200=
23631 42999 10804 10247 20082 30077 40114 57015 81030=
23678 32598 62601 10149 20051 30041 40096 52003 83570 333
10150=
23849 42996 23606 10139 21022 40121 57007 82030=
23884 11570 80000 10113 20099 30022 40091 52013 69942 72162
8352/ 333 10116=
23891 11698 63101 10183 20098 39762 40065 52008 69902 70282
82906 333 10187=
23933 42597 71002 10190 20032 30075 40131 57017 87500=
23966 32597 70302 10152 20021 39969 40087 52002 87900 333
10156=
25400 32999 20402 10143 20041 30070 40122 57001 82033 333
10186 10186=
28275 42999 63204 10185 21005 30097 40154 57011 82039=
28382 42998 70105 10171 20017 30068 40134 57004 86031=
28493 42599 63505 10174 20002 30028 40113 57004 85202=
28573 42989 13205 10178 21014 30053 40150 57008 80001=
28698 42598 20104 10171 20006 39970 40114 57001 81101=
28722 42698 53602 10277 20133 30059 40178 57002 82131=
28786 42998 20203 10175 21019 39982 40129 54000 80002=
29253 32599 80000 10128 20045 39923 40086 52008 885// 333
10128=
29263 11699 52401 10168 20100 39983 40077 54000 69902 70282
81132 333 10174=
29282 32598 50000 10229 20077 39901 40053 53005 82931 333
10252=
29430 11498 80102 10099 20089 39902 40069 58002 69992 78082
883// 333 10121 88914=
35067 42598 3//// 10180 21002 39906 40165 57001 82106=
35121 42698 31901 10277 20109 30045 40179 54000 83100=
38763 42598 13602 10339 20121 30018 40114 57009 81200=
38911 42698 73006 10289 21041 39810 40081 54000 82932=
38954 42899 63506 10198 20125 47908 48460 57021 82901=
38987 42996 00306 10303 20027 39402 40084 52002=
40356 32660 20000 10370 20000 39098 48446 82100 333 59032 82840
555 04410 50001=
40361 32960 01005 10398 20020 39294 40005 333 59013=
40375 32960 02706 10378 20020 39190 40004 333 59023=
40400 32960 02906 10295 20250 30016 40043 333 59005=
40405 32960 00000 10444 21080 39285 49965 333 59005=
40416 32960 03610 10410 20140 39975 49994 333 58024=
40439 42960 02611 10410 20180 30012 40024 333 59006=
40703 32660 30000 10286 20102 38868 40056 57020 83200 91150 333
81840 82640=
41036 32960 10102 10369 21040 38513 48462 81031 333
59017 81358 555 04410 59981=
41136 32960 01306 10420 21070 39231 49998 333 58000=
41170 32966 00109 10425 20087 39982 49995 333 59002=
41216 31958 03505 10379 20205 39976 49980 70600 333 59013=
41256 32560 40605 10376 20254 39967 49976 82830
333 59007 82825 83359 =
41268 32560 20305 10400 20251 39972 49987 82500 333 59006
82625=
23205 41464 80704 10083 20065 30097 40112 58022 78082 8695/   333
86912=
23219 42998 61304 10248 20124 39998 40094 57023 83032=
23418 42780 51103 10294 20126 30019 40085 57021 82201=
27271 42698 72603 10257 20126 39996 40139 57006 83202=
27707 42682 50204 10170 20055 39927 40208 58002 84205=
28711 42698 52105 10280 20103 39830 40172 57004 85100 333 85846=
42634 32596 42508 10362 20223 49989 81501 333 10392 59008
81630 84075=
42840 32596 52303 10314 20276 40014 82801 333 10363 58003
81620 84070=
42647 32596 42502 10400 20229 49976 83501 333 10408 56609
59007 83620=
42737 32597 52909 10364 20229 49983 82801 333 10396 59002
81625 85075=
42909 32996 62705 10308 20266 40013 84012 222// 21301 333
10328 59004 84460=
43185 32597 62302 10334 20279 39973 49976 82508 333 10350
58006 82620 85460=
10338 32675 42603 10237 20121 30096 40165 58009 82101 333
55310 82845 83075=
16242 32970 01705 10250 20153 30207 40210 56000=
16320 32960 00304 10252 20125 30194 40206 54000 91145 333
55310=
16420 32598 23203 10270 20148 30128 40190 58005 82200 91145
333 55310 82830=
16597 32970 00808 10263 20146 30121 40205 53001=
16716 32570 30209 10258 20143 30163 40181 58004 83200 333
90730 91132=
16754 32465 53109 10224 20131 30113 40159 51003 85800 333
82818 83625 90730 91124=
17060 11660 60110 10197 20143 40188 51006 60061 70282 83230
333 83835 85360=
17128 11660 73604 10152 20098 39052 40116 53002 69961 78082
85250 333 85835 86358=
17170 32670 12204 10202 20142 38323 48482 52003 81100 333
81835 10090=
17200 32670 43302 10296 20158 39125 40051 57013 82101 333
82840 84070=
11518 32786 51704 10235 20091 39790 40207 57015 81102 333
81850 85073=
15420 32570 60502 10223 20069 30118 40224 57003 84270 333
91004 91203=
21908 11699 73604 10046 21014 30070 40147 52013 60032 70262
87500 333 10095=
24982 11599 71801 10071 20058 39642 40118 53002 69940 72522
86901 333 10097=
25325 32999 60602 10087 21041 30011 40167 58003 80002 333
10134=
28255 42999 02702 10217 20064 30036 40156 57018=
28642 42997 33104 10212 20061 40177 57010 80001=
29557 11498 73602 10179 20142 39805 40049 53004 60022 70298
87350 333 10181 84917=
29822 11597 83605 10116 20103 39883 40037 52001 60082 70262
885// 333 10124 88624=
29846 32597 82004 10192 20114 39677 40029 53007 8395/ 333
10227=
30777 32998 11402 10241 20059 39482 40067 54000 80002 333
10297=
31174 32999 11601 10047 20014 30111 40122 52010 81030 333
10168=
31263 32599 50000 10164 20078 39571 40106 52002 84404 333
10226=
31624 11599 60000 10120 20120 40092 53017 69970 70282 87900
333 10197=
36087 32599 61303 10289 20106 40101 57004 86900 333 10297
95000=
36096 32699 50803 10290 20032 49976 57002 82530 333 10295
95000=
36103 12999 60000 10205 20090 40052 57008 60042 80002 333
10212=
36231 11599 83004 10148 20100 40072 52012 60022 71582 8432/
333 10170=
36259 32599 83151 10135 20067 38156 48415 53019 85902 333
10192=
36307 32999 50901 10274 20045 38817 48429 56004 80001 333
10280=
36974 42798 53402 10173 20013 37939 48455 57010 82130=
42101 31696 13201 10400 20218 49941 70500 81100 333 10408
58000=
42131 32996 00201 10438 20143 49931 333 10450 59002=
42165 32996 02002 10440 20114 49928 333 10445 5900/=
42182 31995 00901 10386 20242 49941 70500 333 10387 59005=
42189 31996 00502 10360 20247 49953 70500 333 10380 59001=
42260 32596 10305 10394 20202 49942 81500 333 10410 59019=
42309 32596 50901 10324 20225 40004 82430 333 10341 59007=
42314 31596 13402 10308 20251 40007 70500 81530 333 10341
59009 81620=
42328 31996 02305 10422 20206 499// 333 10431 58000=
42339 31996 02303 10414 20169 49950 70500 333 10424 59003=
42701 21496 73204 10274 20203 39280 49982 70296 83330 333
10353 58012 6023/ 83618 81930 86360=
42798 21495 72701 10274 20239 49976 79596 85330 333 10384
57950 58003 6997/ 84618 84825 81930 87360=
43041 21596 70903 10294 20203 39382 49976 76096 84910 333
10360 59024 6990/ 83625 84830 81935 86458=
43086 32597 43202 10380 20235 39792 49959 83301 333 10400
57942 59010=
43110 21496 82702 10268 20242 40024 79592 8797/ 333 10292
56699 59013 6001/ 86710 84620 81930 86456=
43314 21496 80701 10244 20232 40061 75062 8372/ 222// 20803
333 10279 59002 6014/=
43333 21495 82501 10250 20241 40019 76162 8442/ 333 10294
56699 59012 6006/ 82618 83820 88458=
44416 32380 32901 10308 20244 39237 49968 83200 333 10322
58012=
44438 32565 20901 10316 20271 39867 49989 81131 333 10323
58017 69938=
44454 21459 50000 10226 20104 38583 48403 70206 83814 333
10296 58013 60088=
44477 32470 12401 10270 20189 38731 48445 81100 333 10274
58016=
91165 32566 62904 10211 20172 30105 40157 58012 91153 333
20211=
91245 32566 40906 10270 20250 30150 91150=
91285 32666 82303 10228 20189 30139 40153 58014 91153 333
20222 70005=
91334 11469 80904 10264 20262 30095 40098 51015 69931 72562
8327/ 333 10293 56239 58004 70401=
91348 11466 81203 10259 20252 30058 40110 52012 60031 78082
8727/ 333 10300 5623/ 58000 70033=
91366 11574 50908 10273 20246 30093 40102 51003 69981 70281
84871 333 10299 56224 58001 70015=
91376 11472 80806 10247 20235 30104 40112 50007 69931 8/87/
91152 333 70003=
91408 11474 51203 10273 20230 30058 40096 51017 69981 70282
81271 333 10328 56222 58004 70008=
91413 11469 81004 10277 20249 30073 40092 52014 69981 70282
83372 333 10317 56299 58004 70084=
98755 32575 80000 10286 20259 40088 53027 81201 333 10328
56999 58002 81820=
98526 31575 81404 10305 20261 40069 53006 71322 81907 333
10335 56999 59004 81925 88275=
98748 31470 52201 10296 20/// 40077 52024 71344 83930 333
10337 56999 58010 82917 84358=
48820 11597 70902 10279 20261 30052 40060 53008 60112 70382
85908 333 01027 10316 58023 70110 83895 82995 87299=
48826 11597 71404 10269 20262 39925 40053 53007 60112 70282
872// 333 00028 30301 58018 70160 87895=
48838 32598 21402 10285 20261 30064 40070 52009 82200 333
00028 10314 58017 70000 82895=
48839 32498 20902 10238 20259 39996 40060 53005 82900 222//
2//00 333 00/// 10327 58022 70000 82894 81995=
48845 32498 81105 10278 20258 30036 40043 53010 888// 333
01028 10305 58004 70088 82894 84895 88697=
48848 31598 51406 10279 20259 30042 40050 53012 70392 85900
333 00027 10303 58023 70052 84895 81995=
48855 32598 71601 10283 20252 30046 40054 52014 83808 333
01028 10308 58020 70000 81895 83697 87299=
48870 11498 29903 10286 20261 30050 40057 53010 69902 70381
82200 333 00029 10326 58018 70036 81894=
48877 32598 79904 10281 20247 30056 40061 53013 878// 333
00028 10305 58003 70276 83895 87697=
48887 11497 82901 10263 20247 30059 40065 53009 60012 76196
888// 333 0127/ 10292 58011 70057 82894 88697=
48900 11496 82203 10253 20249 30061 40071 52025 60202 79598
8692/ 333 10314 59015 84894 83994 86499 91118 91527=
48914 11497 80000 10245 20238 30069 40071 53006 60202 76062
888// 333 02026 10294 58002 70278 82894 88696=
48917 11498 82508 10262 20246 30063 40068 54004 60402 72582
8492/ 222// 00281 2//03 333 02/// 10274 58016 70775 82894
83995 88499=
48918 11497 83405 10256 20242 30064 40075 53014 60062 76162
8272/ 222// 00284 2//01 333 01026 10297 58015 70175 82894
88499=
43329 32597 82001 10342 20236 39989 40001 82356 222// 20501
333 10359 57954 59010=
43189 32597 41802 10340 20262 39967 49976 82902 333 10384
57972 59008=
43245 32597 82302 10350 20245 39969 49991 83532 333 10368
59005=
43344 32497 62912 10304 20201 39926 40023 84938 333 10347
57972 58007 83615 83825 81930 86270=
51076 11680 70702 10166 20121 39255 40088 52011 60021 70080
83962 333 00556=
51133 11680 72702 10167 20052 39507 40128 52016 60061 72598
86902 333// 00958 93905=
51243 32880 62709 10223 20026 39566 40079 52023 81402 333
00757 91119 91532=
51288 31680 72917 10153 20051 38304 52027 70900 81462 333
00202 91126 91529=
51431 32780 62702 10205 20088 39357 40114 52003 85402 333
00854=
51463 11775 71604 10154 20105 39068 40119 52004 60041 78080
86902 333 00757=
51573 32780 72702 10352 20097 39924 49966 52006 82962 333//
00001=
51644 32680 41102 10238 20074 38853 40036 57003 82902 333
00452=
51656 11770 83403 10250 20060 39006 40017 52012 69901 72598
889// 333 00352 91123 91532=
51709 32880 72704 10261 20025 38633 40013 54000 879// 333//
00551=
51716 32975 12202 10302 20007 38798 49994 57007 81062 333//
00400=
51765 31/02 92907 10279 20055 39076 40001 52023 73430 333
00354=
51777 32970 23401 10337 20089 39022 49984 52012 80002 333//
00202=
51811 32962 22002 10273 20075 38698 40018 57005 80002 333//
00651=
51495 32980 73415 10315 20083 40066 52003 80002 333 00101
91120 91534=
51828 31956 02202 10265 20096 38553 40007 57009 70600 333//
00552=
51855 31/07 93404 10279 20044 49995 52013 70930 333// 00451=
51931 31/40 93202 10261 20115 40018 57005 70600 333// 00451=
52203 32780 63602 10315 20078 39176 49983 57001 81102 333
00004=
52267 32975 82007 10230 20083 39015 40045 52015 80007 333//
00457=
52495 11870 80905 10150 20130 38638 40074 52004 60061 76060
8172/ 333// 00461=
53502 11658 80405 10167 20154 40090 52008 60011 76060 8772/
333// 00562=
55228 32980 00000 10163 21082 36041 57007 333 00401=
55279 11680 23603 10104 21022 35746 54000 69901 70080 82900
333// 00401=
55299 11780 53602 10052 20026 35892 52005 69951 70098 85400
333// 00451=
55472 32780 30202 10138 21003 35762 57004 83200 333 00401=
55578 32780 10000 10208 20036 36351 57009 81100 333// 00401=
55591 32780 12903 10235 21003 36493 57010 81100 333 00209=
55664 32880 12004 10184 20026 36004 57004 81100 333// 00201=
55696 11680 30408 10171 20041 36342 52004 69901 70080 83140
333 00200=
55773 11670 21110 10077 20025 36032 57007 69901 70080 82100
333// 00251=
56106 32680 62904 10127 20020 36227 57007 86900 333 00205=
56137 11680 70403 10166 20067 36810 52022 69901 70080 85430
333// 00656=
56312 11680 71404 10169 20063 37071 54000 69971 70080 87400
333// 00200=
40180 31957 03007 10282 20202 30019 40065 57011 70500=
40362 32962 01106 10400 20070 39532 40012 333 58002=
40373 32960 00000 10423 21010 39621 40006 333 58006=
40430 32960 02407 10420 21040 39321 49989 333 59014=
40438 32960 01805 10420 20000 39354 40010 333 59004=
41024 32960 03209 10400 20100 30017 40036 333 59007=
41114 32560 10708 10312 21022 37949 48459 81100 333 59006
81825=
41128 32960 00705 10380 21070 38737 48455 333 59009=
41140 32960 02705 10360 20270 30000 40008 333 59017=
41150 32975 03308 10365 20210 40003 333 58003=
41194 32960 03505 10364 20120 39978 49990 333 59003=
41288 31958 01707 10346 20253 39972 49994 70600 333 59002=
41316 32560 72108 10313 20264 39972 49997 87500 333 59022
82620 86625=
40743 32565 20000 10298 20060 39015 40089 56010 82100 91150
333 82840=
40745 32665 50702 10254 20104 39029 40103 57014 83230 9110/
333 83835=
40754 32660 12102 10302 20110 38785 40059 57018 81400 91155
333 81400=
40766 32960 02003 10348 20006 38635 40022 57011 91150=
40769 32662 10302 10302 21002 38264 40027 57016 81100 91050
333 81840=
40809 32970 02707 10320 20002 38466 40002 57010 91150=
40821 31957 03204 10348 21023 38729 40009 57017 70500 91150=
40841 32660 33204 10350 20014 38199 49975 57019 83400 91150
333 83640=
40848 32960 00604 10356 20040 38454 49971 58012 91150=
40856 32660 10607 10348 21061 38570 49971 58009 81100 91150
333 81845=
40875 31956 01904 10358 20259 39969 49981 57023 70500 91150=
98222 31475 62701 10302 20265 40090 53006 70544 82270
333 10330 56999 59003 82818 86358=
42361 32496 10000 10416 20208 49939 70600 81500 333 10423
59001 81630=
40100 31558 22703 10259 20205 40076 57010 70141 82200 333
82826 92436=
82825 83359=
40007 32570 12105 10344 20064 40025 57012 81500 333 81630=
40045 32970 02104 10380 20018 40047 58008=
40706 32660 32704 10292 20046 38620 40062 57013 83200 91145
333 82835=
40712 32960 00304 10268 20097 38654 40053 57011 91150=
40718 32960 00501 10258 20160 30162 40131 58003 91150=
40732 32665 10304 10246 20160 30139 40119 57019 81100 91145
333 81840=
40736 32560 13203 10270 20175 30154 40127 57005 81200 91145
333 81830=
40739 32665 30804 10260 20076 38651 40090 56007 83400 91150
333 83635=
42675 32596 23403 10390 20140 49953 81100 333 10396 59005
82830=
42754 21596 72308 10300 20190 39356 49966 71795 83930 333
10396 59008 6990/ 83825 81930 85360=
42667 32596 71804 10380 20179 39406 49955 84301 333 10394
59004 84625 81930 85075=
70200 12766 80405 10072 20033 30198 40208 58005 69901 91153 333
10094 20067 70003 555 90212=
70273 32866 61702 10061 20044 30198 40249 50001 91153 333 10144
20056 555 90212=
70326 12666 81605 10056 20033 30206 40227 58007 69951 91152 333
10133 20056 70005 555 90212=
72223 31424 20202 10217 20211 30146 40222 51015 710// 91156 333
10311 20189 555 90212=
72235 32962 00000 10200 20194 30101 40217 53010 91154 333 10333
20189 555 90212=
72240 31956 00000 10222 20217 30191 40210 53010 710// 91153 333
10317 20217 555 90212=
72251 31959 01303 10239 20233 30160 40179 53009 710// 91151 333
10317 20233 555 90212=
72253 32462 81404 10233 20222 39901 40176 53006 91153 333 10344
20233 555 90212=
72261 35566 81305 10250 20211 39797 40152 53008 91153 333 10344
20244 70020 91018 555 90212=
72389 32966 03202 10167 20067 30015 40131 51010 91156 333 10333
20167 555 90212=
72414 31958 00000 10194 20194 39857 40203 50008 710// 91154 333
10300 20172 555 90212=
72428 31948 22204 10228 20183 39879 40169 50000 705// 91151 333
10306 20206 555 90212=
72438 31748 42203 10217 20194 39883 40170 53002 710// 91155 333
10300 20206 555 90212=
71043 32883 20000 10085 20044 30109 40201 58008 82031 333
10184 20077 55141 01082 22385 79999=
71078 32974 10701 10002 21044 39829 40274 53006 80002 333
10127 21024 55067 79999=
71600 46964 31204 10132 20058 30157 40163 51011 333 10170
20073=
71624 11866 72103 10141 20116 39905 40111 55007 60011 70298
86071 333 10227 20118 55016 70030 90940=
71749 17564 82803 10086 20076 39955 40199 53025 69951 7//4/
333 10131 20066 70185=
71863 36964 02502 10032 20026 39577 40278 51004 333 10121
20014 70035=
71877 32986 71901 10037 21034 38967 40231 57004 80001 333
10162 20015 55156 70000=
71913 36964 03205 11052 21102 30211 40248 53001 333 11001
21056 70000=
71917 32586 23406 11057 21083 30124 40138 57015 82570 333
11024 21075 42006 55211 00125 22997 70000=
71940 32982 60703 10069 20030 39418 40212 52002 82071 333
10218 20064 70000=
71957 360// /3305 10004 20004 30139 40226 51019 333 10142
20004 70005=
72206 31048 80000 10200 20200 30207 40218 53018 710// 91156
333 10311 20183=
72208 32966 02703 10217 20200 30197 40212 52018 91156 333
10322 20200=
72211 32666 40000 10239 20217 30195 40210 53011 91153 333
10333 20222=
72231 31548 21003 10250 20228 30199 40212 53010 710// 91153
333 10317 20228=
72248 31959 40000 10233 20211 30109 40202 53012 710// 91156
333 10322 20228=
72250 32964 01402 10250 20239 30165 40172 53008 91156 333
10339 20250=
72259 32966 41704 10244 20211 39984 40183 53009 91153 333
10344 20239=
72265 31366 80108 10180 20180 39186 761// 91200 333 10294=
72270 32966 61303 10211 20128 38847 40135 53006 91151 333
10339 20211=
72274 32966 01204 10228 20128 39252 40132 53008 91155 333
10378 20228=
72290 32461 80000 10172 20139 30148 40158 53001 91151 333
10217=
72304 37956 04952 10222 20211 30186 40189 52010 710// 91151
333 10239 20200=
72326 31756 42402 10211 20189 39866 40215 53006 710// 91153
333 10300 20189=
72353 32766 80000 10233 20200 39731 40186 53014 91153 333
10344 20222=
72363 11224 80409 10167 20161 38965 40191 53007 60041 763//
91153 333 10306 20167 70292=
72365 32966 20504 10183 20100 38436 40155 53009 91156 333
10339 20183=
72386 32966 02302 10250 21033 39362 40107 53010 91156 333
10367 20233=
72405 31956 01803 10228 20211 30152 40176 50006 710// 91151
333 10311 20200=
72440 32964 03403 10206 20183 39760 40208 53015 91154 333
10306 20189=
72451 32566 80507 10156 20083 39331 40232 53011 91156 333
10322 20156 91018=
72532 32966 03304 10172 20139 39948 40188 53020 91154 333
10311 20172 91015=
72537 31959 62607 10239 20194 39888 40125 51012 705// 91154
333 10283 20211 91019=
72597 32966 00000 10111 20072 39671 40139 53004 91156=
72654 32966 03103 10078 20061 39796 40268 51008 91155 333
10206 20067 70003=
43014 21596 70000 10300 20232 39355 49978 70296 86330 333
10343 59010 6994/ 84620 84825 82930 85360=
43192 21495 72704 10296 20245 40025 75122 84732 333 10301
59010 6992/=
71082 36364 80000 11054 21075 30104 40144 58013 333 11017
21063 70000=
71120 32974 20605 10065 21002 39590 40241 51011 82081 333
10208 20064 55149 70000=
71627 36564 80403 10142 20087 30073 40116 56018 333 10244
20129 70000=
71803 11580 23007 10121 20053 39898 40080 51035 69921 70188
81131 333 10167 20059 55015 70040 90960=
71811 32580 62705 10107 20030 30069 40136 50009 81502 333
10174 20046 55127 22604 79999=
71816 32674 72708 10076 21009 30000 40060 52013 86570 333
10157 20064 55113 01065 70000=
71821 17459 80303 10033 20024 39820 40163 50001 69951 743//
333 10138 20030 70005=
71836 36464 30504 10054 20019 30167 40178 55000 333 10121
20035 70000=
71867 32974 70504 10069 20045 39892 40223 53014 85078 333
10186 20062 55107 22321 70000=
71896 32989 10000 10016 20001 39378 40204 56002 81070 333
10200 20014 55129 70000=
71909 37362 81604 11004 21006 39997 40040 51006 741// 333
10046 21011 70000=
71915 11474 80310 11041 21070 30030 40113 51002 69901 70177
82578 333 10008 21044 42007 55052 79999 90951=
71918 460// /3508 11085 39764 40184 55000 333 11069 21092=
71925 32374 82002 11084 21099 30209 40246 58010 885// 333
11056 21090 42028 55042 23331 70000=
71926 11480 83608 11073 21095 30212 40236 52004 69901 77172
885// 333 11051 21080 42029 55065 00566 22461 79999 90917=
71934 32874 72203 10058 21042 39988 40243 56003 86071 333
10146 20032 70000=
71938 32574 70000 11030 21045 30196 40226 57013 85530 333
11032 21047 42005 55142 70000=
71945 31816 20000 10040 20040 39762 40228 56001 71000 82070
333 10180 20034 55061 70024=
72226 32966 00000 10211 20178 30152 40222 51018 91153 333
10333 20178=
72308 31958 00000 10256 20211 30172 40178 53009 705// 91151
333 10306 20211=
72334 32962 40000 10228 20189 30111 40213 51014 91153 333
10333 20217=
72374 35966 00702 10156 20000 38553 40153 53014 91156 333
10350 20156=
72476 32966 01107 10178 21033 38561 40124 51012 91156 333
10328 20150=
72486 35966 02303 10044 21050 38116 40148 53008 91153 333
10267 20044=
72488 32966 03002 10100 21061 38675 40151 53009 91156 333
10294 20100=
72520 31959 42104 10228 20189 39731 40171 50000 705// 8/078
91151 333 10289 20217=
72547 32964 03005 10139 20117 39812 40201 53010 91155 333
10300 20133 70005=
72562 32966 00000 10056 20044 39287 40273 53005 91156 333
10228 20044=
72645 12566 83206 10117 20078 39924 40182 52037 69951 91156
333 70185 91021=
72662 32966 00000 10039 20022 39160 40285 56002 91155 333
10183 20011=
72681 32966 01302 10111 20006 39150 40137 51001 91156 333
10256 20111=
72764 32166 24952 10050 20044 39674 40284 53014 91152 333
10128 20022=
72773 32966 01403 10033 20028 39082 40205 50001 91156 333
10183 20033 70003=
72793 32566 64952 10106 20078 39995 40159 50001 91156 333
10200 20100=
43198 32497 72706 10264 20200 39204 40008 85801 333 10296
56609 59009 83612 83820 86075=
43284 21496 81802 10254 20245 39934 40049 70265 8372/ 333
10270 58002 6014/ 82710 88459=
70026 12166 82806 11017 21022 30235 40241 51005 69901 91153
333 10011 21017 70033=
70231 11766 81902 10089 20056 30099 40227 51005 69901 761//
91153 333 10172 20072=
70261 32766 42402 10100 20067 30047 40217 51003 91153 333
10189 20094=
70308 32561 81307 10044 20033 30040 40052 91154 333 10067
20044 70048=
70316 11356 81415 10056 20050 30098 40137 58001 60191 761//
91153 333 10100 20056 70427 91039 96010=
70350 32966 02802 10033 20000 30219 40259 58005 91153 333
10128 20033=
70361 31804 40000 10039 20039 30222 40241 58003 741// 91153
333 10128 20033=
71051 46/// /1508 11082 21083 30054 40164 58032 333 11055
21101=
71081 36964 03305 11119 21134 30124 40135 53002 333 11054
21146 70005=
71090 37432 83008 11050 21056 30055 40089 56012 745// 333
11031 21092 70005=
71145 32274 70704 10022 20010 39943 40237 51017 87670 333
10134 20022 70000=
71603 32974 21102 10161 20122 30085 40137 53006 80001 333
10148 20078 55099 70000=
71709 33980 32804 10138 20038 30126 40139 51008 80001 333
10182 20074 55110 70002=
71825 11574 73105 10037 21022 39467 40131 53011 69901 70282
86506 333 10102 20012 55048 70020 90930=
72394 17012 90000 10106 20106 30071 40160 55000 69931 710//
91151 333 20106 70003=
78663 32980 73505 10214 20204 39444 40133 5//// 80003 333
00//2 10235 20204 30/// 59003 87077=
78897 11565 21104 10274 20234 40176 51007 60031 72586 82200
333 02200 10314 20231 59004 70034 82820=
76342 21440 80000 10246 20212 39465 40137 52009 69901 75022
8407/ 91140 333 10340 20246 31024 56050 58040 69906 70016
84356=
76548 01268 50000 10264 20250 30139 40169 51009 60161 76062
81904 91157 333 10268 20244 32/// 56205 58027 69905 70161
82802=
76556 32460 60000 10212 20203 39109 40111 52003 866// 91130
333 0/6// 10300 20202 30019 58024 70030 86720=
76644 32860 11201 10243 20231 30148 40158 57011 80001 91150
333 0///9 10384 20239 30023 58006 70053=
76680 31558 73101 10143 20121 37773 40100 55000 70544 8357/
91158 333 10240 20142 31013 5681/ 58023 70024 83624 83358=
76805 01862 80201 10252 20236 30125 40125 52009 60021 75159
88/2/ 91150 333 08/9/ 10342 20243 32024 58018 60021 70020
88428=
78325 31560 20701 10246 20194 30131 40188 52012 70500 81942
333 06999 10316 20231 30/// 55087 57945 58016 81920=
78397 31568 73103 10266 20261 30149 40165 70522 87802 333
00000 10288 20230 59003 81824 87634=
78526 12566 41104 10261 20206 30166 40186 53015 69901 91154
333 10306 20239 70003=
78970 11457 70702 10254 20239 30123 40148 69951 8786/ 333
02299 10325 20242 59006 70013 84812 87645 90916=
78988 31465 50907 10293 20248 30150 40159 52011 70622 83201
333 10332 20274 58005 83818 83081=
81405 01265 61801 10269 20245 40140 60104 70186 83802 333
20223 58010 60017 82806 85082=
80022 01458 89902 10278 20250 30119 40121 60174 70596 8267/
333 20248 31/// 50380 55049 5690/ 58013 69957 60167 82613
86458=
72278 32966 00502 10267 20072 39740 40118 53013 91156 333 10394
20267 555 90212=
72327 31558 21802 10200 20172 30004 40213 53009 705// 91153 333
10311 20189 555 90212=
72344 31958 40703 10222 20206 30037 40199 53012 710// 91153 333
10328 20211 555 90212=
72445 32966 60104 10183 20144 39886 40207 53019 91154 333 10317
20183 555 90212=
72465 32766 41303 10089 20044 38980 40252 53009 91156 333 10239
20078 555 90212=
72503 32964 00803 10239 20106 30141 40150 58002 91151 333 10306
20189 555 90212=
72518 32666 41604 10172 20117 30035 40139 58011 91151 333 10283
20139 555 90212=
72528 11956 62408 10200 20167 39863 40119 53008 60021 705// 8/079
91154 333 10228 20172 70020 91019 555 90212=
72572 32966 01503 10106 20050 38725 40149 51005 91156 333 10233
20106 555 90212=
72576 35966 03304 10039 21006 38358 40208 51003 91156 333 10200
20033 555 90212=
72578 32966 00204 10028 20000 38659 40173 53005 91156 333 10233
20022 555 90212=
72583 35966 00000 10033 21033 38693 40155 53009 91156 333 10272
20028 555 90212=
72606 32966 00000 10200 20128 30123 40140 55000 91151 333 10272
20133 555 90212=
72693 31956 00000 10089 20083 30019 40155 51007 710// 91156 333
10239 20078 555 90212=
70133 31012 82602 10017 21006 30230 40235 50000 710// 91153
333 10061 20011 70020=
70398 31104 60000 10072 20072 30165 40208 58002 741// 91153
333 10161 20072=
72203 32566 43402 10250 20217 30195 40201 53009 91153 333
10306 20228=
48001 22458 52701 10310 20237 40008 70165 83950 333 10315 56660
58014=
48010 32550 50000 10315 20265 40012 83930 333 10328 56560 58012=
48019 32556 80000 10303 20239 40020 8597/ 333 10323 56679 58006=
58010=
48037 32457 63601 10322 20236 49997 84930 333 10360 56490 58012=
48045 21557 70000 10199 20185 71795 87900 333 10257 56200=
48601 11562 70702 10257 20229 30061 40065 69901 72162 82538 333
10293 82625 83364 87277=
48615 11468 82701 10284 20246 30060 40066 69902 71362 8497/ 333
10317 81917 83620 88469=
48620 11565 80801 10245 20232 30061 40070 69941 70196 83537 333
10302 83634 83365 88276=
48647 31566 70000 10275 20228 30036 40061 70592 81442 333 10315
81625 87078=
48657 11456 80304 10235 20235 30059 40077 60121 79596 83937 333
10325 81710 81917 83622 88276=
48665 32568 70000 10287 20246 30053 40063 81552 333 10313 81628
86364=
96001 11430 82403 10236 20221 39930 40073 52004 60111 76166 8652/
333 10298 56609 58002 86616=
96033 31458 83602 10280 20248 30045 40052 52007 70522 84937
333 10292 56000 57902 59012 81920 84617 80980=
96075 31458 80000 10265 20243 30053 40063 55002 70522 8452/
333 10286 56009 59012 84618 86460=
96179 32460 70000 10270 20250 30034 40070 52006 84218
333 10316 56000 57802 58012 84817 80850=
96295 32460 80000 10266 20233 39985 40089 51006 8692/
333 10292 56009 57901 58001 83912 80900 83612=
96413 11565 73202 10256 20241 30045 40071 60011 72162 85531 333
10313 85624 84365 85080=
96421 32465 53602 10281 20239 30038 40073 81242 333 10329 81815
85080=
96441 32468 73603 10286 20234 30070 40075 81541 333 10315 81614
87080=
96449 32465 70000 10274 20237 30049 40069 82531 333 10320 82616
83365 87080=
96471 11468 81103 10265 20243 30073 40076 69931 76062 85848 333
10331 82814 83635 87276=
96491 11462 70802 10272 20247 30063 40076 69911 76086 85808 333
10324 82710 83815 87275=
96633 32460 60805 10278 20243 30062 40070 52023 84872
333 10324 56200 59010 81817 8X618=
96645 31459 60000 10280 20268 30034 40065 52017 71322 84332
333 10320 56000 57901 59015 81913 84614 80982=
96655 32459 60000 10288 20248 30049 40077 52019 83572
333 10332 56700 59010 83613=
96685 32560 41802 10261 20247 30043 40070 52019 82841
333 10334 56000 59018 82620=
96737 31456 70000 10267 20234 30040 40089 52010 70522 85571
333 10300 56000 58004 85618=
96791 31460 70000 10279 20241 30017 40079 52015 70522 84571
333 10318 56000 58005 84618 809//=
96805 32560 50905 10280 20242 30060 40070 51011 83231
333 56000 57801 59008 83820 80860=
96935 11458 51008 10286 20235 30070 40077 52018 69901 70262 82531
333 10312 56200 59002 82618=
91503 32481 10000 10245 20238 40098 52009 81200
333 10318 55/// 56000 59002 81815=
91507 31470 10000 10249 20223 40095 52006 70500 81170
333 10311 56990 59013 81813=
91520 01470 70000 10254 20249 40094 51009 69901 75011 84806
333 10318 55/// 56999 58001 69907 81815 84625 87080=
91555 32570 53104 10266 20237 40092 5//// 85800
333 10303 568// 59007 83820 85640=
91565 01460 80000 10235 20228 40117 5//// 60161 721/6 8497/
333 10265 5689/ 58004 60161 83818 82920 88460=
91570 36/// /1912 10211 20201 30117 40120 50007
333 10233=
91574 16/// /2214 10209 20145 30133 40139 51008 69921
333 10238=
91577 06/// /2004 10167 20161 40135 50005 60111
333 10243 55006 20849 58013 60077=
91582 16/// /1904 10206 20198 40112 53003 69981
333 10234 55000 20621 59009=
91631 31599 70806 10286 20243 40093 70222 82208 333 10314 562/9=
91636 31498 80606 10267 20253 4//// 70222 8127/ 333 10279 561/9=
91643 11498 70704 10269 20249 40092 58004 69901 71482 8237/ 333 10275

5
6
1
9
/
82918 87461=
91659 31698 11405 10251 2022/ 40123 58008 70200 81100
333 10285 569// 81830=
91680 31598 10803 10219 20197 40128 58005 70210 81100
333 10291 569// 81828=
91683 31598 50000 10231 20222 40127 58018 70111 85800
333 10295 569// 83824=
91691 36/// /0504 10245 20220 40143=
91699 36/// /0612 10245 20207 40149=
91753 36/// /1106 10267 20223 40121 58007
333 10294 55048 21493 58010=
91754 36/// /0804 10264 2//// 40124 58007
333 10293 55033 2//// 58007=
43237 32597 62705 10316 20187 39590 4//// 83338 333 10329
56699 57912 59001 82620 81925 85275=
40394 31959 02405 10406 21020 38941 48454 70522 333 59016 555
04410 589978=
40729 32660 11801 10270 20021 38322 40075 57013 81100 91145 333=
40762 32665 10207 10258 20083 38530 40057 57006 81400 91150
333 81640=
40831 32960 03307 10456 20082 39997 40005 57020 91150 333=
41084 32960 00704 10396 21090 38799 48463 333 59001 555 04410
59988=
94120 46/// /1408 10197 20028 30105 40141=
94151 35/// /2113 10211 30136 40156 52015=
94203 46/// /1205 10157 20040 30152 40163=
94207 35/// /0919 1//// 30139 40150 52014=
94212 46/// /1307 10129 21026 39689 40174=
94238 46/// /1208 10126 20017 39766 40203=
94268 46/// /0000 10108 20065 30138 40153=
94287 46/// /1308 10128 20080 30163 40172=
94290 35/// /1516 10194 30161 40168 52013=
94294 46/// /0000 10105 20052 30174 40184=
94298 35/// /1914 10197 30154 40160 52010=
94299 46/// /1518 10214 20124 30139 40150=
94300 46/// /1904 10150 20127 30179 40189=
94302 46/// /2905 10150 20076 30178 40184=
94312 46/// /0906 10151 20046 30159 40169=
94326 46/// /1403 10057 20031 39598 40240=
94332 46/// /0000 10065 20008 39803 40201=
94346 46/// /1606 10081 20024 39977 40206=
94363 46/// /1510 10104 20028 39970 40194=
94367 46/// /2109 10116 20073 30137 40175=
94394 35/// /2117 10187 30139 40147 52011=
94403 46/// /1307 10139 20114 30184 40226=
94430 46/// /1107 10133 21040 39619 40225=
94461 46/// /1009 10102 21040 39538 40234=
94510 46/// /0000 10046 20013 39857 40218=
94515 46/// /0000 10048 20023 39849 40211=
94578 46/// /2608 10122 20026 30152 40163=
94601 46/// /1118 10160 20107 30268 40285=
94610 46/// /1306 10114 20079 30237 40262=
94638 46/// /1607 10125 20123 30252 40285=
94653 46/// /0404 10054 20033 30250 40269=
94659 46/// /2304 10084 20022 30061 40263=
94672 46/// /0504 10088 20060 30254 40259=
94693 46/// /2106 10108 20050 30189 40253=
94776 46/// /2408 10105 20047 30171 40181=
94791 46/// /2307 10119 20018 30148 40155=
94802 46/// /1504 10106 20085 30206 40290=
94804 46/// /3116 10147 20122 30202 40241=
94821 46/// /3407 10082 20082 30153 40237=
94842 46/// /2707 10107 20096 30123 40224=
94865 46/// /2710 10105 20049 30213 40238=
94907 46/// /2506 10095 20040 30209 40219=
94910 46/// /0102 10045 20026 39956 40215=
94926 46/// /0000 11013 21061 39522 40213=
94975 46/// /2804 10071 20038 30163 40197=
94983 46/// /2406 10073 20041 30165 40190=
94995 46/// /2116 10139 20095 30044 40052=
94996 41582 23106 10189 20107 39953 40082 58005 71300 82200
333 10209=
28240 42999 02701 10255 20090 39850 40143 57016=
28419 42598 32503 10284 20102 30045 40162 57009 82330=
31285 12699 10000 10065 20029 40134 52018 60010 81500   333 10141=
31561 12698 83601 10128 20121 40086 52013 60010 82963   333 10192=
60020 32980 01302 10268 20137 30131 40175 54000
333 92418=
60101 32960 20508 10286 20184 40169 58004 80002
333 82073=
60115 32575 23607 10300 20213 40149 58008 81202
333 81826=
60127 32970 00901 10347 20159 39589 40140 57009=
60135 32960 03404 10252 20188 40156 57006 70241=
60155 32950 01004 10226 20190 40153 58005
333 82710=
60620 32960 01012 10413 2//// 40117 51024 80002
333 0//00 85075=
60715 32560 20305 10255 20176 30191 40196 58006 82200
333 50931 82823=
60765 32960 01105 10255 20183 30187 40193 58003
333 50461=
61024 32970 11008 10402 20106 39527 40065 80001
333 0//00 59006 81080=
61421 32958 00406 10426 20057 39852 40093
333 0//00 58008=
61442 31940 02408 10260 20199 30118 40122 70700
333 0//00 59026=
61497 33958 70403 10398 20156 3//// 4//// 87070
333 5//// 87363=
62002 32960 30804 10208 20113 39481 48571 57004 80004 333 83075=
62010 32960 20906 10292 20167 40181 55004 82030 333 82358=
62019 32558 43606 10235 20162 40168 53006 84500 333 84625=
62053 32560 33410 10257 20175 40159 56004 83500 333 83625=
62103 32970 31005 10317 20071 40153 58025 83080 333 83360=
62124 32960 0903= 10332 20093 39640 40116 57010=
62131 32970 00805 10280 20191 39844 40149 57014=
62161 32970 03603 10327 20106 40144 58014=
62259 32970 00902 10345 20144 40122 58015=
62271 32970 03505 10345 20088 40132 58014=
62306 32560 53507 10272 20180 40114 54000 85500=
62318 32560 43208 10261 20192 40095 58009 84800=
62366 32960 03304 10316 20165 40077 57012=
62405 32960 02803 10382 20123 40041 57014=
62414 32960 01506 10382 20078 40044 58016=
63674 32675 20904 10316 20162 39022 48499 81202
333 59003 81835
555 10215=
64600 32680 70000 10307 20226 39447 40086 84302
333 0//00 59007 84633 85080 94963 95833=
64601 31580 70204 10247 20195 38999 48513 71794 84938
333 0//00 58003 83620 81940 84365 86280 94959 95839=
64650 11575 72201 10250 20201 39693 40102 69931 70362 81932
333 0//16 58017 81826 86365 81940 94967 95837=
64659 32580 42801 10314 20223 39358 40057 84200
333 0//00 58000 84826 94939 95879=
65306 32960 72206 10336 20237 39770 40093 80008
333 58001 87276=
65578 11556 82104 10245 20241 30132 40142 60181 72196 8557/
333 58025 85620 88460=
65592 11456 8//// 10263 20244 30114 40137 60021 76062 888//
333 58013 86813 88640=
60030 32970 00110 10260 20171 30111 40165 53008 81500
333 92447=
60107 32458 73403 10220 20198 40193 52003 878//
333 83816 86623 95380=
60185 32970 03205 10334 20168 40127 56006=
60230 32958 40601 10385 20046 40108 57015 83082
333 82360=
60265 32658 62002 10330 20039 38938 48592 58007 81202
333 81840 85073=
60338 32570 60704 10234 20187 30122 40185 50000 865//
333 92427=
60602 32975 60000 10372 20075 40138 58006 80002
333 0//00 86074 95900=
60725 32970 00902 10299 20108 30021 40182 58014
333 50921=
60735 32970 00402 10260 20129 30118 40197 51004=
60760 32965 01604 10312 20125 30055 40160 58014
333 51421=
60769 32560 20404 10251 20175 30183 40188 57006 82200
333 50861 82820=
60775 32975 30804 10296 20106 39833 40172 57012 80002
333 51221 83070=
61052 32970 32605 10380 20194 39838 40081 80002
333 59013 83080=
61075 32970 72604 10386 20183 39799 40075 80008 91145
333 59013 87280=
61090 32960 53202 10400 20226 39575 40061 80002 91145
333 59007 85080=
61415 32960 03609 10245 20166 30133 40138
333 0//00 58006=
61498 31950 02806 10375 20122 39970 40096 706//
333 0//00 58003=
62007 32560 20604 10255 20202 40182 55004 82100 333 82820=
62016 32562 10105 10236 20204 40180 58004 81500 333 81625=
62055 32960 03505 10282 20172 40151 56006=
62056 32960 33603 10234 20133 39448 48526 56006 83500 333 83620=
62059 32560 33303 10245 20191 40150 52008 81502 333 81620 83070=
62120 32970 00705 10265 20106 39605 48561 58010=
96195 31456 70000 10286 20258 30050 40086 51025 71322 82931
333 10310 56000 57902 81917 83815 80956 80850=