ZCZC 000
SMCI10 BENJ 281800
AAXX 28181
58562 31658 81402 10211 20181 40126 57008 71000 885// 333
10288=
58562 31658 81402 10211 20181 40126 57008 71000 885// 333
10288=
52740 16/// /3303 10051 29074 36863 60000
555 1/132 2//00 /////=
45007 32470 61402 10286 20247 30081 40090 58008 82130
333  58021 81812 85360 =
57957 31540 80000 10238 20234 39894 40085 57009 71000 888//
333 10253=
59082 11550 80000 10262 20254 30008 40082 57010 69901 79580
889// 333 10300=
59117 32665 70000 10244 20232 39995 40096 57016 874// 333
10349=
59211 11665 80000 10248 20234 39863 40063 57013 69921 70060
8647/ 333 10286=
59265 11330 80000 10237 20234 39949 40082 57011 69991 76086
885// 333 10312=
59287 32661 31401 10268 20255 30042 40091 57010 83400 333XX
10319 =
59316 32464 71102 10272 20257 30089 40098 57014 874// 333
10321=
59431 31570 71101 10250 20246 39927 40070 57010 71300 879//
333 10315=
59644 32565 70000 10264 20258 30052 40067 57016 879// 333//
10318=
59758 32470 21802 10278 20261 30053 40073 57009 81102 333//
10355=
59023 11740 80000 10247 20246 39828 40068 57011 60071 71098
885// 333 10272=
59293 11561 80701 10257 20237 30045 40092 57013 69901 70080
888// 333 10330=
59417 11572 70901 20264 20250 39922 40069 57005 69901 71380
879// 333 10314=
59501 32565 31403 10275 20260 30091 40107 57006 83100 333
10311=
59663 32463 21602 10279 20262 30055 40082 57010 82100 333
10314=
59838 32980 01802 10278 20256 30053 40067 57013 333// 10331=
59948 32570 60201 10288 20267 30067 40075 57005 84102 333//
10327=
59981 32980 21401 10281 20259 30077 40083 57011 80002 333//
10319=
59985 32580 71401 10273 20262 30067 40072 57008 81102 333//
10335=
58040 32960 82002 10201 20150 30120 40124 57004 8807/ 333
10274=
58633 11656 80904 10211 20194 30016 40112 57005 69941 76060
885// 333 10285=
58847 11530 80000 10208 20202 30028 40128 57008 60021 76066
885// 333 10263=
57265 11360 82503 10150 20138 30035 40142 57020 60031 76066
8772/ 333 10225=
57279 11465 80201 10153 20143 40151 57007 60091 72166 8372/
333 10248=
57378 11765 83403 10167 20124 40138 57009 69901 72100 885//
333 10236=
57399 32960 80202 10205 20116 40117 57008 8807/ 333 10262=
57447 31950 80000 10175 20167 39604 40133 57007 71000 8807/
333 10191=
57461 11464 80000 10191 20124 39977 40134 57001 69921 76060
8277/ 333 10235=
57494 11962 83202 10190 20169 30084 40112 57010 69941 70060
8807/ 333 10250=
57584 11450 80204 10179 20172 40115 57011 60031 76066 887//
333 10255=
57598 11658 80202 10220 20198 40099 57006 69901 76060 885//
333 10302=
57655 11457 83601 10182 20176 40131 57011 60021 76060 8572/
333 10242=
57662 11758 82901 10196 20170 30084 40125 57007 69941 76060
885// 333 10250=
57745 11856 80703 10174 20161 39802 40119 57006 60041 76066
8802/ 333 10223=
57766 11762 83201 10192 20176 40109 57011 60021 76060 885//
333// 10238=
57799 11759 82901 10227 20217 30002 40083 57017 69901 71060
885// 333 10252=
57853 11440 83601 10193 20187 40109 57005 60011 76066 8772/
333 10222=
57866 11440 80206 10202 20200 39897 40097 57007 60061 78186
889// 333// 10245=
57972 11756 83601 10242 20230 39875 40088 57005 69921 71060
885// 333 10278=
58102 11962 82702 10178 20145 30082 40131 57009 69941 76060
8802/ 333 10254=
58203 11920 80000 10185 20180 30089 40133 57015 69971 76060
8807/ 333 10223=
58221 11658 83202 10196 20172 30109 40143 57002 69961 76060
885// 333 10242=
58314 11965 82702 10184 20148 30039 40124 57019 69901 70060
8807/ 333 10240=
58338 32760 80203 10213 20162 40120 57012 885// 333 10274=
58424 32960 83604 10227 20141 30083 40106 57011 8807/ 333
10277=
58437 11/00 91110 10119 20119 38161 57014 60031 74564 333
10166=
58527 11656 80201 10241 20205 30016 40088 57012 69901 76060
885// 333// 10316=
58606 11720 80000 10232 20222 30038 40091 57009 69921 76060
885// 333// 10297=
58715 11750 80000 10237 20231 40087 57008 60011 71060 8657/
333// 10272=
59102 32660 82201 10229 20222 40096 57013 855// 333 10306=
50468 32975 02903 10082 21010 39770 49964 57001 333 10269=
50745 32964 00403 10152 20001 39830 49999 52037 333 10308=
54337 32960 02202 10203 20084 39973 40053 57007 333 10327=
54342 32960 02003 10192 20080 39994 40053 57010 333 10306=
54471 32960 02007 10199 20114 30063 40068 57012 333 10258=
54497 32965 00000 10150 20117 30075 40089 52011 333 10290=
54662 32968 02202 10193 20053 39983 40098 57001 333 10273=
58027 32962 82701 10210 20113 30084 40133 57003 8807/ 333
10260=
58144 32965 80000 10206 20152 30114 40136 57002 8807/ 333
10272=
58659 11757 80000 10200 20187 30102 40136 57012 60021 71080
885// 333 10237=
59134 1156 80703 10223 20208 39956 40114 57012 69901 70060
885// 333 10310=
59046 11662 80000 10241 20238 40075 57009 60051 70098 885//
333 10309=
59058 11420 80000 10243 20242 40082 57005 69911 72160 885//
333 10261=
59072 11665 80000 10235 20228 40091 57007 60061 70098 884//
333 10282=
59087 31557 60202 10255 20248 40088 57010 71300 86902 333
10300=
59096 11465 80000 10241 20232 40093 57012 60021 78098 884//
333 10312=
59209 11562 80000 10234 20212 40065 57008 69901 72580 889//
333 10267=
59254 11660 80000 10252 20242 40077 57003 60071 70098 885//
333 10296=
59278 32560 20000 10261 20255 40085 57008 82400 333 10326=
59456 32572 31402 10267 20246 40079 57007 83400 333 10350=
59493 32570 11402 10282 20252 40089 57008 81100 333 10328=
59632 32965 50902 10267 20254 40069 57012 85040 333 10330=
59647 32962 70903 10276 20269 40063 57021 80002 333// 10314=
59658 11466 71403 10281 20269 40077 57010 69911 71380 879//
333 10320=
59673 11473 71102 10278 20267 40088 57007 60021 78000 879//
333 10318=
59845 32970 41803 10256 20245 40063 57018 80002 333// 10347=
59855 32570 41802 10280 20266 40070 57009 84100 333// 10332=
58345 11957 80701 10205 20174 40128 57005 69901 71060 8807/
333 10274=
58543 11965 80403 10213 20188 40117 57009 69931 76060 8807/
333 10295=
58556 32660 81601 10223 20185 40121 57013 885// 333 10300=
58569 32962 80402 10208 20199 40129 57007 8807/ 333 10249=
58646 11630 80000 10200 20195 40125 57013 60031 76060 885//
333 10236=
58660 11757 80000 10217 20194 40129 57008 69901 72160 885//
333 10255=
58834 11763 83601 10228 20210 40112 57011 60211 70098 885//
333 10315=
58926 11658 80000 10232 20226 40106 57014 69931 71060 885//
333 10306=
58944 11256 80204 10215 20209 40125 57004 69921 76060 887//
333 10260=
58150 31956 82202 10194 20161 30126 40134 57003 71000 80007
333 10271=
58251 32962 81801 10202 20136 30135 40141 57003 8807/ 333
10262=
58265 11970 81101 10183 20172 30129 40141 57004 69901 76000
8807/ 333 10227=
58472 32972 81102 10182 20160 30042 40138 57008 87047 333
10246=
58477 32465 80202 10187 20157 30091 40134 57008 8717/ 333
10279=
58666 11458 82003 10197 20194 30031 40130 57012 60011 78080
887// 333 10224=
58725 11657 80000 10234 20230 39846 40096 57009 60021 71060
885// 333 10270=
58760 11758 80000 10200 20191 40129 57018 69931 71080 885//
333 10222=
58921 11658 80401 10231 20222 39868 40102 57012 69961 71098
885// 333 10324=
51468 16/// /0500 10005 29031 36569 60001
555 1/124 2//00 /////=
53772 32960 01405 10165 20087 39238 40106 52001 333// 10275=
54218 32980 02003 10185 20041 39408 40043 57005 333// 10302=
54511 32965 02302 10208 20078 30045 40082 57007 333 10317=
54823 31940 71803 10230 20114 39920 40113 57007 70400 80002
333 10308=
58321 11560 83401 10198 20139 40127 57007 69911 76060 885//
333 10247=
58457 32763 80000 10212 20170 30075 40124 57014 885// 333
10293=
10259=
58457 32763 80000 10212 20170 30075 40124 57014 885// 333
10293=
58203 11920 80000 10185 20180 30089 40133 57015 69971 76060
8807/ 333 10223=
58437 11/00 91110 10119 20119 38161 57014 60031 74564 333
10166=
58102 11962 82702 10178 20145 30082 40131 57009 69941 76060
8802/ 333 10254=
58221 11658 83202 10196 20172 30109 40143 57002 69961 76060
885// 333 10242=
58314 11965 82702 10184 20148 30039 40124 57019 69901 70060
8807/ 333 10240=
58338 32760 80203 10213 20162 40120 57012 885// 333 10274=
58424 32960 83604 10227 20141 30083 40106 57011 8807/ 333
10277=
58238 32960 80401 10210 20117 30120 40129 57008 8807/ 333
10259=
58457 32763 80000 10212 20170 30075 40124 57014 885// 333
10293=
58321 11560 83401 10198 20139 40127 57007 69911 76060 885//
333 10247=
50953 32670 33203 10224 20038 39801 49967 52019 83100 333
10293=
57259 11562 80000 10136 20122 40149 57011 60011 76060 8277/
333 10177=
57476 32962 83603 10187 20112 40129 57009 8807/ 333 10246=
57554 11440 80000 10170 20157 40138 57011 60011 76060 885//
333 10231=
57776 11/00 90901 10171 20171 40101 57012 69971 74564 333
10198=
58506 11563 81411 10164 20154 40094 57018 60031 76064 885//
333// 10233 91119 91514=
58813 11660 80000 10244 20229 40079 57010 69901 70080 8647/
333// 10276=
52418 32970 71803 10207 20036 38807 40026 57001 80002 333
00151 10290=
52889 32980 01102 10144 20060 38436 40051 52001 333 05353
10257=
53646 32970 01603 10165 20063 38931 40088 52005 333 05304
10269=
56046 11980 80000 10030 20014 36284 57011 60021 70098 80007
333 00002 10111=
56029 32680 80000 10062 20039 36515 57001 889// 333 00101
10165=
52836 32980 20000 10063 20040 36911 54000 80002 333 05101
10139=
52955 32980 70000 10084 20038 36976 52004 80002 333 05204
10158=
56080 32980 70000 10051 20031 37147 57004 80002 333 05201
10159=
53915 32980 32901 10086 20074 38629 40130 57017 83040 333
05355 10145=
52652 11980 82503 10169 20076 38463 40031 54000 69901 70080
8802/ 333 00151 10267=
56096 32780 80901 10174 20107 38894 40081 57015 885// 333
05505 10230=
52787 32980 21403 10053 21027 37031 57011 80002 333 05201
10151=
52996 31/03 91605 10051 20051 37551 57012 74700 333 05301
10097=
57006 32665 70702 10125 20096 40116 57015 875// 333 05401
10187=
50632 32970 00000 10054 21039 39176 40018 52008 333// 10230=
53513 32970 02002 10170 20006 38919 40050 52004 333// 05502
10285=
53588 32980 00000 10096 21202 37807 57017 333 10160=
57083 32960 82502 10208 20106 30001 40130 57012 8807/ 333//
10273=
00000 36/// ///// 1//// 2//// 39154 4//// 5////
555 1//// 2//// 30129 400?1 50?10 6//// 7//// 80000 ////? 1/000 2//00
30000=
58362 32965 71102 10203 20165 30129 40139 57003 8703/ 333
10254=
50548 32980 00000 10056 21009 49998 52007 333// 10276=
50834 11980 22501 10151 20026 49991 52015 69901 70080 80002
333// 10310 91118 91529=
53480 32980 00000 10117 20055 40101 57005 333// 10233=
53673 32980 02901 10170 20061 40097 52002 333// 10282=
53787 32980 51802 10168 20069 40099 57001 80002 333// 10274=
53898 32963 21803 10217 20105 40107 57008 80002 333// 10312=
54725 32965 82204 10209 20141 40107 57005 80007 333// 10302=
54751 32962 02004 10188 20087 40107 57003 333// 10217=
54916 32960 12203 10202 20120 40132 57005 81030 333// 10277=
58208 11662 80402 10186 20120 40123 57013 69911 70060 885//
333// 10231=
56294 32963 81803 10191 20146 39543 40119 57007 8807/ 333
00052 10245=
56492 31756 80000 10194 20154 39728 40122 57014 71000 885//
333 00151 10215=
56571 32770 80000 10185 20136 38360 52001 888// 333 00003
10252=
56651 32680 20000 10151 20117 37613 57002 82400 333 00100
10222=
56951 32770 70000 10194 20176 38473 54000 87400 333 00100
10259=
57328 11430 80402 10163 20156 39724 40126 57012 60041 72166
885// 333 10171=
57411 32763 80000 10171 20159 39768 40129 57010 8557/ 333
10183=
57516 11430 83401 10176 20168 39821 40126 57009 69931 76060
887// 333 00252 10197=
57816 11657 83603 10143 20136 38762 40110 57012 69971 76066
885// 333// 00152 10181=
50136 32670 62903 10074 20014 39487 49994 52001 86900 333
10178=
50353 32970 10000 10052 21015 39759 49970 57001 81030 333
10215=
50557 32970 02703 10076 20021 39708 49990 52001 333 10275=
50756 32770 13403 10146 20055 39700 49974 52029 81500 333
10294=
50788 32970 32905 10179 20071 39821 49899 57012 80002 333
10248=
50963 32970 02503 10111 20081 39818 49945 57001 333 10273=
50978 32980 03202 10152 20080 39664 49937 57018 333 10232=
54236 32970 02005 10168 20096 39937 40034 57005 333 10316=
54374 32962 03601 10088 20073 39691 40079 52006 333 10249=
58730 11458 80702 10215 20209 40098 57010 60101 78086 884//
333 10266=
58731 11358 80000 10202 20200 40108 57011 60161 76066 887//
333 10245=
58754 11550 80000 10199 20191 40134 57017 60021 76066 885//
333 10226=
58911 11572 80000 10220 20217 40101 57016 69921 76060 885//
333 10289=
58931 11/00 92008 10162 20162 38364 57012 60051 74586 333
10199=
50527 32970 00000 10068 20005 39326 40026 52005 333// 10231=
50727 11980 01403 10042 20016 38887 40033 52013 69901 70080
333// 10282=
53564 32980 21402 10187 20070 39129 40077 52004 80002 333//
05407 10278=
53959 32965 72701 10167 20145 39692 40129 57014 8703/ 333//
10228=
54843 32965 01801 10161 20134 30084 40110 57004 333// 10295=
54909 32968 72502 10176 20134 30065 40125 57004 8703/ 333//
10273=
56193 32975 80009 10179 20130 40098 57012 8807/ 333 05103
10255=
56196 32973 81401 10185 20141 40117 57008 8807/ 333 00152
10257=
56287 11865 80000 10173 20151 40124 57011 69931 72160 885//
333 05101 10221=
56385 11680 83202 10030 20026 37027 57010 60021 70064 885//
333 00100 10060=
56666 32980 01402 10241 20179 49990 52005 333 05102 10342=
56671 32780 23601 10198 20174 38172 52004 82402 333 00001
10266=
56684 32565 80402 10131 20112 37884 52006 885// 333 00151
10250=
56751 32678 21406 10176 20146 37993 52001 82400 333 00100
10246=
56786 32565 81805 10184 20166 38089 52002 884// 333 00002
10254=
56886 32470 81602 10191 20182 38242 54000 884// 333 00002
10255=
56977 11470 80000 10216 20207 40056 54000 60021 79598 889//
333 00100 10296=
57206 32680 81101 10174 20136 40119 57010 8657/ 333 10240=
57348 11765 80903 10156 20117 40131 57006 69931 72160 885//
333 10180=
57426 11440 80401 10165 20160 40127 57011 60021 76066 887//
333 00200 10173=
57602 11740 80000 10190 20179 40125 57010 69901 72160 885//
333 10214=
57713 11462 80000 10160 20150 40115 57012 69931 76060 885//
333 00153 10198=
56586 11460 80000 10099 20088 38043 57007 60011 76060 885//
333 00000 10141=
56748 32980 00000 10175 20156 38319 54000 333 00100 10243=
56763 32680 11802 10251 20175 40008 52005 81400 333 00102
10337=
56768 32680 20000 10207 20137 38199 52002 82400 333 00102
10274=
56838 32970 00000 10222 20195 40067 54000 333 00151 10313=
56946 11575 80000 10205 20196 40069 52002 60181 70080 889//
333 00100 10293=
56954 31556 10000 10201 20189 40075 52003 71000 81100 333
00101 10293=
56959 11770 40000 10226 20222 40049 57001 69911 70080 84400
333 00100 10325=
56966 11765 73201 10251 20234 40037 57001 60051 72598 874//
333 00100 10362=
56969 32660 30000 10231 20225 40063 54000 83400 333 00100
10332=
56986 32260 70000 10197 20188 40066 57002 874// 333 00100
10240=
57237 11956 80000 10133 20122 40145 57008 69921 76060 8807/
333 10152=
57306 32970 80000 10162 20150 40126 57013 8807/ 333 10209=
57504 11759 80000 10185 20160 40119 57011 69951 76000 885//
333 00152 10218=
59007 32462 80000 10208 20201 40064 57008 885// 333 10246=
58321 11560 83401 10198 20139 40127 57007 69911 76060 885//
333 10247=
56065 32680 70903 10046 20004 36638 57005 83508 333 05204
10113=
53923 32980 01602 10094 20079 40128 57012 333 10152=
52323 32980 02502 10104 21009 38190 57003 333 00054 10244=
57127 11563 80000 10138 20118 39554 40148 57012 69901 76060
8172/ 333 10162=
53845 32965 02502 10129 20061 39047 40115 57010 333 05253
10248=
56033 11680 83402 11014 21033 36063 52005 60041 72680 889//
333 00151 10085=
52866 32980 73202 10112 20044 37674 54000 80002 333 05303
10223=
52754 11580 83409 10032 20000 36806 57006 69941 70080 889//
333 05201 10121 91118 91536=
54102 32980 02006 10152 20034 38943 40030 52003 333// 10250=
53463 32980 00000 10136 20063 38913 40085 57003 333// 05401
10258=
54602 32960 22501 10202 20132 40094 57007 80002 333// 10313=
53798 32960 71603 10218 20161 30003 40091 57011 80002 333//
10306=
54423 32980 00000 10142 20103 39648 40089 57002 333// 10297=
54618 32961 32003 10217 20136 30079 40096 57007 80002 333//
10311=
54401 32970 03402 10169 20043 39285 40095 54000 333// 10281=
54308 32980 00000 10136 20049 40091 52002 333// 10298=
54527 32960 42002 10190 20136 40097 57002 80002 333 10309=
50246 32665 70000 10053 20011 49979 57005 87900 333 10191=
50658 32980 13402 10131 20027 49979 52019 81030 333 10292=
50844 32962 73605 10212 20035 49985 52020 80002 333 10319=
50854 32970 03603 10205 20067 49972 52017 333 10307=
50888 32980 51803 10189 20046 49923 57009 80002 333 10237=
50968 32970 02704 10178 20052 49965 52003 333 10262=
50983 32970 02903 10123 20088 49933 57011 333 10201=
54096 32970 02902 10102 20067 49969 57013 333 10213=
54259 32965 02501 10145 20087 40061 52001 333 10282=
54324 32970 02204 10230 20044 40051 57004 333 10323=
54346 32965 02702 10183 20074 40069 57005 333 10286=
54493 32974 00000 10113 20076 40087 52009 333 10277=
53352 32980 01805 10160 21028 40058 57002 333// 10251=
53593 32980 00000 10155 20084 40098 57004 333// 10268=
53764 32970 01602 10166 20061 40099 54000 333// 10280=
53863 32962 02505 10153 20078 40112 57003 333// 10264=
53975 32962 00000 10156 20105 40119 57006 333// 10261=
54436 32980 00000 10165 20089 40089 57001 333// 10307=
54808 32968 01803 10180 20144 40116 57005 333// 10299=
54826 32968 72507 10122 20068 38461 57012 80002 333// 10173=
54836 32960 00000 10196 20114 40117 57009 333// 10280=
54863 32980 03203 10171 20102 40115 57001 333// 10289=
57071 32968 72004 10183 20104 40127 57011 8704/ 333// 10245=
47401 41250 83004 10087 20084 39829 49842 53011 78082 887//=
47412 41/65 80401 10136 20098 39849 49879 51027 78082 882//=
47420 41/60 22211 10112 20089 39803 49848 55018 7024/ 82600=
47426 41/60 82713 10101 20092 39852 49895 56008 78088 887//=
47582 41/65 72611 10141 20114 39980 40005 53014 72582 8627/=
47590 41/75 43005 10189 20117 39936 49986 53020 70380 81204=
47600 41/60 32202 10152 20132 30039 40055 53011 7028/ 83200=
47648 42/65 60501 10186 20173 39971 40003 51008 83572=
47662 42/60 72902 10223 20181 39965 40006 53013 82501=
47678 42/60 62709 10213 20201 39958 40050 53003 86200=
47740 41/60 23004 10164 20137 30039 40076 52012 70281 82530=
47778 42/60 42904 10205 20142 39969 40055 53008 81031=
47807 42970 01502 10166 20131 30087 40104 52004=
47827 42/60 63202 10182 20145 30068 40105 53001 81130=
47843 42975 03205 10178 20135 30076 40107 52002=
47898 41970 73503 10186 20137 30044 40082 53009 702// 82032=
47909 42/60 71601 10205 20183 30111 40120 56003 8127/=
47918 41/70 72204 10273 20255 30093 40101 58015 70298 8327/=
47936 41/60 80703 10228 20214 30055 40116 56010 72162 888//=
47945 41/20 72402 10246 20243 30094 40117 57008 71342 879//=
47971 41/08 92002 10233 20228 30128 40137 56005 74554=
47991 42/80 51005 10264 20220 30143 40153 55001 82232=
50603 32980 20402 10127 21012 39401 40032 52009 80002 333//
10254=
54026 32980 22504 10231 21011 39682 49?79 57009 80002 333//
10327=
54027 32980 02508 10215 21017 39458 49997 57006 333// 10306=
50603 32980 20402 10127 21012 39401 40032 52009 80002 333//
10254=
54026 32980 22504 10231 21011 39682 49979 57009 80002 333//
10327=
54027 32980 02508 10215 21017 39458 49997 57006 333// 10306=
47575 41/58 82807 10135 20119 39959 49963 53032 78082 882//=
47585 41/70 72401 10188 20093 39899 49953 53027 70282 878//=
47598 42970 72203 10180 20145 39994 40000 51011 80002=
47602 41/60 62810 10162 20139 30024 40044 53014 70282 86200=
47618 42/60 61103 10174 20077 39335 40021 53009 82102=
47624 42975 63402 10193 20118 39884 40014 51013 82032=
47636 42/65 62904 10191 20142 39991 40056 53004 82530=
47655 42965 12807 10194 20142 39977 40031 53007 80002=
47750 41/58 23101 10164 20151 30048 40074 53011 71011 81102=
47755 41962 22103 10181 20155 30072 40096 53009 702// 80001=
47772 42/60 70802 10213 20142 39974 40069 53009 8627/=
47800 42970 11601 10163 20083 30081 40103 51011 80001=
47815 42/65 23101 10189 20124 30079 40094 53007 81130=
47817 42980 10901 10163 20143 30068 40110 53002 80001=
47830 42965 72803 10179 20128 30074 40091 51008 87030=
47837 42/60 22908 10197 20152 30078 40099 55000 82100=
47891 42965 72605 10197 20129 30070 40082 53015 81031=
47899 42970 23007 10188 20139 39849 40064 53006 80002=
47927 41/60 81804 10262 20255 30059 40106 56017 78082 8797/=
52681 32980 70000 10192 20043 38555 40000 57001 80002 333
05504 10294=
52533 32975 82504 10191 20032 38469 40029 57008 85047 333
00003 10274=
57245 11962 81802 10143 20134 39811 40155 57012 69921 70010
8802/ 333 00052 10168=
57036 32962 80000 10158 20144 39665 40130 57012 8807/ 333
10170=
53614 32965 02702 10127 20077 38865 40087 57009 333 05354
10261=
53723 32970 00000 10115 20062 38624 40088 57010 333 05352
10244=
51886 32980 81801 10072 21011 37143 57002 80007 333 00001
10166=
52818 32970 22203 10094 20002 37258 57002 80002 333 00152
10206=
56004 32980 22703 11016 21035 35879 52003 80002 333 00206
10054=
52713 32980 20000 10068 21015 36932 52004 80002 333 00052
10139=
52602 32980 22902 10045 21037 37290 52002 80002 333 00153
10158=
52436 32970 82201 10179 20038 38417 40023 57008 8807/ 333
00103 10270=
57016 32965 80000 10149 20133 40129 57020 8807/ 333 10165=
57046 32469 71803 10071 20036 37929 57014 8153/ 333 05351
10087=
53705 32962 01608 10143 20057 40058 57008 333 05300 10250
91118 91518=
56021 11680 72501 10004 21029 36123 52005 69931 72680 82902
333 00201 10079=
52908 32680 12203 11037 21052 35816 52002 81900 333 00102
10052=
56018 11680 82001 10017 20015 36222 52002 60031 70080 889//
333 00252 10121=
52737 11680 70000 10082 20048 37092 52010 69931 78080 879//
333 05102 10141=
JNSR    28184 99460 11539
41/91 91424 10075 20075 49987 57073 76264 89///
22284 06039 11904 20303 315// 41204=
44216 32599 61803 10131 20071 38874 40043 52014 86500=
44219 415// 80000 10092 20066 38522 40063 52002 76162 8802/=
44221 41599 70000 10072 20040 38475 40029 54000 70262 87500=
44224 32998 70000 10040 21010 37983 40064 54000 87500=
44243 325// 50000 10138 20029 39248 40022 56004 82344=
44254 415// 80000 10125 20051 38925 40022 51009 70262 885//=
44257 329// 30000 10095 20030 38850 40030 57011 80001=
44266 326// 73203 10040 20012 37734 40102 54000 87800=
44291 328// 62905 10137 20021 38589 40029 56005 85074=
44325 329// 02702 10123 20051 38749 40057 52003=
44338 32899 32707 10182 20029 38378 49989 52003 83040=
44374 32499 82710 10162 21009 38192 49999 54001 885//=
44385 32999 03207 10215 21007 38800 49987 57009=
50564 32970 02502 10060 20005 49966 57003 333 10269=
54115 32980 02507 10216 21038 40011 57004 333// 10271=
53068 32980 02206 10184 21042 38979 40028 57003 333// 05606
10305=
53231 32980 01608 10165 21030 38420 57009 333// 05604 10255=
53276 32980 02209 10159 20005 38808 40059 57007 333// 10264=
54135 32980 02205 10212 20005 39799 40003 57009 333// 10318=
54539 32975 02503 10198 20104 30083 40097 57001 333// 10307=
54753 32970 01802 10170 20075 30106 40112 54000 333// 10233=
54857 32962 83402 10202 20148 30026 40114 54000 80007 333//
10254=
57067 11962 80000 10146 20134 39488 40147 57014 69911 70060
8807/ 333// 10172=
57178 11962 82702 10170 20142 39984 40138 57016 69921 70060
8807/ 333// 10224=
57297 11362 83203 10144 20140 39997 40133 57015 60031 76066
887// 333// 10220=
56146 11880 80000 10103 20056 36739 57009 69901 76000 885//
333 05104 10194=
56172 11780 80000 10109 20088 37345 57001 69901 76000 885//
333 05306 10212=
56247 11880 60000 10136 20113 37414 57003 69901 70080 84442
333 00357 10224=
56444 11565 80902 10093 20081 36817 57005 69941 76086 888//
333 00100 10136=
56462 11580 83201 10128 20117 37132 57003 69901 78080 884//
333 00101 10190=
56691 11240 83602 10091 20087 37764 57005 60061 76064 887//
333 00052 10129=
56739 32575 82001 10179 20167 38328 57002 884// 333 00102
10227=
56964 11570 10000 10208 20195 38672 40059 52005 69911 70080
81100 333 00101 10288=
56985 32575 11604 10218 20182 38665 40051 57002 81100 333
00100 10290=
57633 11460 80401 10158 20136 39366 40125 57014 69951 76060
887// 333 00257 10225=
57902 11458 80000 10180 20177 38590 40079 57013 69911 76060
887// 333 00001 10189=
57793 11530 80201 10219 20211 40102 57013 60211 78086 889//
333// 10259=
54405 32980 00000 10178 20082 40091 57002 333// 10302=
53698 32965 30202 10208 20140 40091 57009 80002 333// 10314=
DAFE 28180 99070 71151 41297 41409 10286 20216 40109 50016 70122
84100 22224 00263 20301 316// 40702 80236=
DYZM 28184 99137 31528 41798 61317 10230 2022/ 40080 54000 70222
8628/ 22243 00280 20303 313// 40505 5//// 6//// 80220 ICE=
3ESU8 28184 99001 51585 41498 50709 00/// 10270 2024/ 40100 55010
70211 85141 22233 00269 20202 307// 40303 5//// 6//// 80250=
ZMFB 28183 99407 31729 41/98 80613 40169 22221 20201 30000 40000=
GQVM 28183 99002 51016 41497 11609 10249 20234 40122 54000 7//00
8/100 22264 02260 20402 320// 40603 5//// 80238=
GQHC 28183 99464 31407 41498 62334 10040 20027 49928 58026 72582
863// 22224 04099 20704 321// 41210 5//// 80034=
PFOH 28180 99215 51226 41598 42503 10250 20184 40142 52017 7//00
842// 22213 02258 2//// 320// 40703 80205=
SHIP 28181 99260 70878 46/// /0000 10285 20231 40159 58012 91750
22200 00296 10601 70006
333 91201=
C6CE7 28184 99460 71504 41597 83110 10070 2003/ 40315 52005 70222
8859/ 22224 00110 20201 332// 40202 5//// 6//// 80050 ICE=
SHIP 28181 99285 70802 46/// /1603 10262 40142 58017 91750 22200
00271 10801 70004
333 91203=
SHIP 28181 99259 70936 46/// /1004 10270 20259 40152 57011 91750
22200 00276 10703 70014
333 91204=
SHIP 28181 99301 70888 46/// /2307 10278 20238 40150 58010 91750
22200 00282 10301 70005
333 91208=
SHIP 28181 99460 71310 46/// /3207 10090 30226 40226 52020 91750
22200 00095 10804 70021
333 91209=
KDBG 28184 99366 71279 41598 40118 10150 2010/ 40240 52005 70121
84810 22225 00144 20304 324// 40604 5//// 6//// 80122 ICE=
KHRC 28184 99313 71369 43498 70506 00/// 10211 2015/ 40235 51012
70222 8546/ 22255 00156 20201 311// 40908 80156=
KGTX 28184 99530 71443 41398 80504 10094 2004/ 40190 52008 70222
884// 22224 00067 20402 331// 40706 5//// 6//// 80067 ICE=
C6LF8 28183 99092 70886 41497 52608 10296 20293 40102 54001 70122
85251 22274 00298 20201 33517 40403 50604 6//// 80294=
SHIP 28171 99289 70785 46/// /2206 10268 40166 91720 22200 00263
10502 70009
333 91207=
SHIP 28171 99606 71468 46/// /2906 10098 40115 91720 22200 00095
11401 70004
333 91206=
SHIP 28181 99380 71300 46/// /3105 10138 40243 52008 91750 22200
00141 11403 70017
333 91205=
SHIP 28181 99526 71550 46/// /2805 10059 40266 53013 91750 22200
00059 10703 70016
333 91206=
VRRB 28184 99394 31541 41598 22922 10125 20049 49966 56000 70222
8//// 22263 00150 20604 328// 40807 5//// 80090=
ZCBH6 28183 99252 30842 41498 80512 10202 20183 40160 54000 70252
88700 22223 02218 20403 323// 40806 80190=
SHIP 28181 99259 70897 46/// /1805 10278 20238 40159 57010 91750
22200 00282 10602 70009
333 91206=
SHIP 28181 99411 70666 46/// /3603 10109 40097 58007 91750 22200
00102 10801 70007
333 91203=
SHIP 28181 99292 70882 46/// /2305 10272 20240 40143 58014 91750
22200 00280 10601 70007
333 91206=
SHIP 28181 99429 70689 46/// /0202 10106 40103 58007 91750 22200
00102 10801 70005
333 91203=
SHIP 28181 99288 70860 46/// /2504 10273 20237 40165 58011 91750
22200 00279 10601 70007
333 91205=
SHIP 28181 99606 71468 46/// /2905 10101 40118 53009 91750 22200
00094 10301 70004
333 91206=
SHIP 28171 99285 70802 46/// /1502 10269 40148 91720 22200 00270
10801 70004
333 91202=
FKWK 28174 99418 10086 44/// /2207 10198 20174 40162 50029 7////
8//// 22248 04208 2//// 8////=
SHIP 28171 99292 70944 46/// /1905 10273 20241 40155 56003 91650
22200 00274 10702 70011
333 91206=
SHIP 28171 99285 70845 46/// /2605 10268 20236 40158 50000 91650
22200 00273
333 91206=
SHIP 28171 99569 71778 46/// /1208 10032 40186 56007 91650 22200
00036 10904 70022
333 91210=
SHIP 28171 99563 71482 46/// /2908 10082 40144 51009 91650 22200
00074 11403 70014
333 91209=
VLST 28174 99410 31463 46/// /2627 10077 20016 39998 40028 52002
22274 85050=
SHIP 28171 99272 70904 46/// /1901 10274 40163 54000 91650 22200
00276
333 91202=
CBGR 28174 99193 31474 46/// /1917 10158 40187=
MYRF 28174 99183 31474 46/// /1722 10208 40150=
DVRF 28174 99188 31477 46/// /1824 10197 40151=
SHIP 28171 99259 70897 46/// /1706 10277 20238 40161 58007 91650
22200 00281 10602 70009
333 91207=
SHIP 28171 99411 70666 46/// /3503 10113 40102 54000 91650 22200
00103 10801 70007
333 91204=
SHIP 28171 99292 70882 46/// /2304 10270 20240 40151 58006 91650
22200 00280 10701 70007
333 91205=
SHIP 28171 99429 70689 46/// /3602 10102 40107 50004 91650 22200
00094 10701 70005
333 91203=
SHIP 28171 99288 70860 46/// /2403 10273 20239 40170 58003 91650
22200 00278 10601 70007
333 91204=
SHIP 28171 99289 70785 46/// /2206 10267 40168 58011 91650 22200
00262 10402 70010
333 91207=
SHIP 28171 99606 71468 46/// /2906 10097 40114 52006 91650 22200
00094 10301 70004
333 91207=
SHIP 28171 99425 71303 46/// /3207 10113 40232 51021 91650 22200
00117 10904 70021
333 91209=
VRUN4 28184 99103 70998 41396 63121 10280 2024/ 40110 52005 76052
85281 22264 00290 20204 331// 40204 5//// 6//// 80250 ICE=
DATG 28180 99350 71725 41498 11307 10175 20132 40245 52012 70100
81040 22224 00184 20202 310// 41203 80149=
ELXC4 28184 99085 31685 41398 71111 10285 2025/ 40082 52010 71382
8729/ 22243 00300 20301 314// 40803 80258=
V2KS 28184 99062 51617 41598 31118 10280 2025/ 40120 54000 70322
83185 22214 00270 20604 309// 40503 5//// 6//// 80260 ICE=
P3YR5 28184 99039 10996 43/// /3212 10280 2022/ 4//// 5//// 7////
8//// 22233 0//// 2//// 3//// 4//// 5//// 6//// 80240 ICE=
UAHV 28184 99109 51466 41497 41007 10280 2024/ 40108 53010 70310
84261=
ELJE3 28184 99450 51459 41497 62133 10070 2006/ 40025 57010 70322
868// 22223 0008/ 20604 323// 41010 5////=
SHIP 28181 99285 70802 46/// /1503 10262 40137 91820 22200 00270
10901 70004
333 91204=
WTEC 28184 99530 71571 41497 73013 10085 2004/ 40257 52013 70222
874// 22241 00060 20202 330// 40703 5//// 6//// 80062 ICE=
V7AP7 28184 99359 71255 41497 32321 10150 2012/ 40210 5//// 74000
82245 22225 00150 20302 328// 40503 5//// 6//// 80130 ICE=
ELWR3 28181 99168 71337 41598 70609 10257 20216 40140 54000 70322
878// 22214 04250 20604 302// 40706 80228=
WSRL 28184 99241 71529 41798 70920 10250 2018/ 40210 54000 70111
864// 22254 00206 20304 311// 40404 5//// 6//// 80200 ICE=
OYDM2 28184 99527 71423 41598 72714 10101 2003/ 40170 50010 70222
85202 22265 00072 20301 3//// 4//// 5//// 6//// 80067 ICE=
DDFO 28180 99299 71377 41598 20708 10200 20144 40245 51020 70211
8214/ 22274 20603 304// 40704 80165=
KLHV 28184 99539 71367 43498 72717 00/// 10139 2005/ 40145 52015
7//// 8771/ 22232 00094 20303 329// 40704 5//// 6//// 80094 /////=
WLDZ 28184 99103 70870 41598 70517 00/// 10290 2024/ 40095 50010
7022/ 871// 22213 00292 20202 303// 40404 5//// 6//// 80250=
4XFB 28184 99374 71331 43498 50507 10160 20110 40250 54000 8343/
22224 00170 20000 327// 40402 80130=
V2AC6 28183 99348 71249 41498 40027 10148 20118 40205 54000 70322
84440 22224 00180 20407 33130 40907 80130=
3FUX6 28184 99540 71757 41496 81121 10060 20039 40125 57055 75125
887// 22265 00010 20301 311// 40503 80050=
50949 32765 12904 10216 20070 39825 49981 52014 81500 333//
10308=
54161 32970 02509 10200 20100 39725 49995 52002 333// 10298=
54292 32970 00000 10116 20090 39796 40003 57006 333// 10253=
WTEU 28184 99311 71248 41798 60516 10170 2014/ 40180 53023 70222
86200 22262 00172 20404 334// 41006 5//// 6//// 80152 ICE=
KRGB 28184 99454 71251 41398 72114 10111 2009/ 40185 52030 70352
878// 22200 00116 20604 324// 40806 5//// 6//// 80100 ICE=
WGJC 28184 99395 11366 43498 32720 10133 2011/ 40025 54000 83400
22214 00128 20304 80122=
PFAS 28181 99346 11415 41498 81916 10230 20203 40004 56011 76000
88/// 22223 00231 2//// 3//// 80211=
KIRH 28183 99442 11787 41397 82727 10060 2002/ 40161 55002 75622
886// 22215 00067 20506 31528 40910 51009 6//// 80040 ICE=
C6NI7 28184 99532 11733 41/97 80920 10050 40117 70322=
DDAD 28181 99442 11558 41/91 91519 10098 20094 40050 54000 76364
89/// 22225 20303 30000 80096=
LAON4 28184 99501 11572 41397 81318 10050 2005/ 40125 57025 76082
889// 22253 00075 20204 321// 40405 5//// 6//// 80050 ICE=
LAOT4 28184 99461 11650 41/96 92504 10080 2005/ 40190 56003 74222
8//// 22213 00060 20302 330// 40302 5//// 6//// 80065 ICE=
3FYW4 28184 99356 71521 41398 63209 10150 20097 40296 53006 70122
86376 91800 22263 00190 1//// 20201 327// 40302 5//// 6//// 80120=
9VVP 28184 99476 71614 41798 11813 00/// 10070 2000/ 40295 52010
70200 81201 22235 04070 2//// 3//// 4//// 5//// 6//// 80040 /////=
C6MD8 28183 99066 71530 41498 40609 10280 20236 40115 52010 70211
841// 22254 02282 20302 309// 40403 80250=
3FPS6 28184 99516 71366 41698 52817 10100 2008/ 40200 51010 70222
85162 22263 00090 20504 328// 40504 5//// 6//// 80090 ICE=
3ETH9 28184 99481 71415 41698 72915 10080 2005/ 40251 52013 70325
8645/ 22274 00090 20302 33403 40605 50403 80065=
JPBY 28184 99195 11332 41598 30506 10270 20250 40119 57011 70200
82240 22261 00290 2//// 3//// 4//// 80255=
VRVS5 28184 99360 11724 41898 80215 10150 2012/ 40235 53010 70222
88/2/ 22223 00190 20302 326// 40403 80130=
JDSS 28184 99325 11610 41697 81308 10187 20163 40212 55005 70322
884// 22270 00189 20101 307// 40503=
ELJS7 28184 99507 71376 41598 72916 10080 20060 40220 52011 70322
86335 22274 00090 20403 330// 40806 80070=
JMMU 28184 99354 71334 41597 70906 10160 20144 40259 51012 70252
8783/ 22223 02149 20200
333 40501 80150=
S6JR 28184 99125 10449 41497 13508 10280 20251 40070 51015 70200
81/// 22225 00290 2//// 3//// 4//// 5//// 6//// 80260=
9KWK 28183 99256 31063 42598 32215 10215 20183 40155 51007 70222
84361 22233 00180 20504 32021 40403 50403 80190=
JPPT 28184 99347 11667 41/93 91303 10175 20151 40230 54000 74755
89/// 22264 00160 20301 325// 40502 5//// 80160=
SHIP 28171 99260 70878 46/// /1102 10278 20232 40164 58004 91650
22200 00289 10501 70006
333 91202=
SHIP 28171 99285 70802 46/// /0000 10271 40151 58008 91650 22200
00267 10801 70004
333 91201=
SHIP 28171 99259 70936 46/// /1003 10271 20260 40158 50000 91650
22200 00275 10803 70015
333 91203=
SHIP 28171 99301 70888 46/// /2406 10276 20229 40155 56009 91650
22200 00281 10601 70005
333 91207=
SHIP 28171 99460 71310 46/// /3007 10088 30220 40220 53019 91650
22200 00095 10805 70024
333 91208=
WXN3191 28164 99457 70858 41/98 61013 10109 2//// 40140 5//// 70122
222// 00056 2//02=
9VBK 28171 99509 10015 41/9/ /2418 10113 20074 40069 57009 7////
22213 04123=
SHIP 28171 99380 71300 46/// /3104 10137 40242 51015 91650 22200
00141 11404 70018
333 91205=
SHIP 28171 99526 71550 46/// /2906 10059 40259 52008 91650 22200
00059 10603 70017
333 91207=
SHIP 28184 99138 11138 41498 20606 10280 20253 40085 57015 70200
822// 22214 00300 20401 324// 40602 80260=
JMQY 28184 99459 11758 41497 82826 10060 20050 40128 57003 70222
885// 22225 00050 20302 330// 40504 80055=
50442 32970 02701 10011 21011 40003 52009 333 10241=
54273 32970 02203 10174 20077 40024 52002 333// 10265=
C6FH5 28184 99212 11528 41398 81213 10250 2025/ 40125 54000 70311
88/// 22213 00280 80230=
9MBK8 28184 99303 11278 41397 63515 10200 20163 40118 70301 82///
22283 00230 2//// 3//// 4//// 5//// 80182=
JCIR 28184 99205 11317 41498 21507 10275 20248 40117 57016 70100
8113/ 22244 00300 20303 309// 40403 5//// 80255=
PDLF 28180 99226 30967 41698 12701 10220 20158 40160 57002 70131
81021 22273 00230 20201 322// 40603 80180=
JNZJ 28184 99234 11436 43/98 /1708 10270 20250 40146 57008 7////
8//// 91755 22233 00290 80255=
4XGT 28183 99319 11268 41497 83015 10150 20140 40130 54000 70322
8832/ 22214 00250 20504 331// 40605 80145=
C6MJ6 28184 99220 11302 41398 30906 10265 20245 40121 56011 70301
831// 9//// 22284 00285 1//// 20502 309// 40503 5////=
JNVU 28184 99141 11389 41498 10514 10270 20257 40105 56010 70200
811// 22273 00310 80260=
3FRR5 28183 99055 11555 41498 90913 10270 20241 40081 50003 70222
89578 22234 04260 20402 309// 40402 80250=
ELJW2 28184 99440 11752 41/97 82825 10055 20033 40172 54000 70222
88/// 91800 22224 00070 20303 328// 40505 80045=
PGDC 28180 99158 11129 41/98 20908 10283 20252 40075 55010 70000
8//// 22255 00310 20404 3//// 80260=
SHIP 28184 99140 11141 41498 20606 10280 20253 40080 57020 70200
822// 22214 00300 20401 324// 40602 80260=
ZMKA 28184 99292 31594 41498 52720 10180 20117 40095 57015 70222
85100 22233 00/// 20202 325// 41003 5//// 80145=
9KWK 28183 99256 31063 42598 72215 10215 20183 40155 51007 70222
84361 22233 00180 20504 32021 40403 50403 80190=
YJZR9 28183 99155 31571 41598 11413 10270 20234 40104 56009 70200
81100 22243 02278 20301 314// 40702 5//// 80245=
ELXD7 28183 99200 31738 41598 31024 10256 20198 40134 54000 70322
83500 22223 00256 20502 30812 40503 50603 80218=
SHIP 28184 99108 31425 41/97 31426 10265 40079 70202 222// 20202
3//// 40201=
ELXS8 28181 99299 31138 41598 70415 10198 20186 40173 56008 71311
864// 22233 00218 20303 3//// 80190=
SHIP 28183 99121 31303 41/96 10000 10260 40118 70100 222// 20303
331// 40202=
JNSR 28184 99460 11539 41/91 91424 10075 20075 49987 57073 76264
89/// 22284 06039 11904 20303 315// 41204=
DNES 28184 99440 11651 41897 82111 10056 20041 40213 51003 70222
88/1/ 22225 00078 20101 331// 40705 80049=
ZKWS 28183 99250 51643 41397 72709 10218 20164 40065 57015 70222
87738 22212 00238 20301 327// 40602 5//// 80185=
SHIP 28184 99092 31339 41/97 51516 10210 40099 70311 222// 20502
315// 40404=
DDGY 28180 99348 31738 41598 80407 10157 20118 40145 57015 70222
88/// 22234 02180 20603 304// 40704 80134=
YJQL3 28183 99305 31626 41498 72311 10195 20134 40080 54000 70222
8559/ 22223 00205 20201 328// 40803 5//// 80160=
VLST 28184 99407 31461 46/// /2427 10082 20032 30005 40035 52005
22274 85059=
SHIP 28183 99121 31303 41/96 12400 10260 40118 70100 222// 20303
331// 40202=
ELXD4 28184 99018 31432 41097 53113 10280 20260 40096 57007 70322
84820 22273 00307 20501 304// 40502 5//// 80265=
SHIP 28183 99051 11095 41398 22205 10290 20262 40186 51010 70200
82141 22213 02280 2//// 3//// 4//// 5//// 6//// 80270=
9KWK 28183 99256 31063 42598 42215 10215 20183 40155 51007 70222
84361 22233 00180 20504 32021 40403 50403 80190=
SHIP 28181 99272 70904 46/// /1801 10277 40158 58005 91750 22200
00282
333 91202=
V7AT5 28183 99300 30492 41698 83415 10215 20169 40114 50010 7//11
8212/ 22263 02225 20303 305// 40810 5//// 80185=
SHIP 28181 99289 70785 46/// /2205 10268 40161 58016 91750 22200
00263 10502 70010
333 91206=
SHIP 28181 99292 70944 46/// /1803 10273 20240 40156 51003 91750
22200 00274 10602 70011
333 91204=
SHIP 28181 99285 70845 46/// /2505 10268 20234 40154 58010 91750
22200 00274
333 91206=
SHIP 28181 99569 71778 46/// /1108 10032 40186 57003 91750 22200
00036 10904 70021
333 91209=
SHIP 28181 99563 71482 46/// /3008 10082 40150 53010 91750 22200
00074 11403 70015
333 91209=
PGWB 28180 99259 31535 41998 02404 10144 20053 40161 55004 70200
80000 22283 02217 20602 320// 41303 80097=
C6CN4 28184 99117 31551 46/// /1217 10269 20234 30058 40081 57011
22254 85244=
SHIP 28161 99289 70785 46/// /2206 10268 40173 91620 22200 00263
10502 70009
333 91207=
SHIP 28161 99606 71468 46/// /3006 10104 40113 91620 22200 00095
11401 70003
333 91207=
3EYX9 28184 99112 70897 41798 40809 10305 20259 40097 57003 70100
82/13 22234 00280 20301 308// 40503 80270=
3FDO7 28184 99533 71507 41698 72920 10120 2010/ 40210 54000 70322
87425 22223 00080 20202 329// 40203 80110=
WGJF 28183 99156 70984 41498 32805 10290 2025/ 40110 56005 70111
83200 22234 00268 20201 32707 40803 50402 6//// 80260 ICE=
DNKF 28180 99380 71410 41698 73402 10155 20103 40275 51020 70222
83283 22265 00152 20000 328// 40302 80125=
WTDM 28184 99555 71579 41799 12504 10072 2001/ 40242 52011 70100
81141 22232 00073 20101 334// 40302 5//// 6//// 80046 ICE=
3FWH4 28184 99368 71533 41599 80216 10130 20113 40293 51020 70302
8849/ 91750 22265 00150 1//// 20101 31012 40301 5//// 6//// 80120=
3ETV8 28184 99511 71464 41697 62718 00/// 10085 2006/ 40228 52010
70122 866// 22274 00071 20502 332// 40805 5//// 6//// 80070=
3FWB9 28184 99319 71769 41497 81416 10180 20165 40200 56015 72052
884// 22264 00210 20201 312//=
S6TS 28184 99513 71506 41598 52815 10070 2005/ 40260 52020 72052
85400 22275 0//// 2//// 3//// 4//// 5//// 6//// 80060 ICE=
GOVL 28183 99261 51340 41598 49906 10230 2022/ 40131 52007 71621
832// 22224 00232 20202 332// 40202 5//// 6//// 80220 ICE=
3FHN6 28181 99041 11125 41598 41105 10295 20262 40082 58020 70000
84090 22223 02305 20402 321// 40301 80270=
SHIP 28183 99121 31303 41/96 14200 10260 40118 70100 222// 20303
331// 40202=
WFQE 28184 99533 71388 43697 82918 10100 2005/ 40155 55201 7////
886// 22272 00072 20204 330// 40908 5//// 6//// 80078 ICE=
SHIP 28161 99285 70802 46/// /0000 10265 40154 91620 22200 00267
10801 70004
333 91201=
FKWK 28164 99422 10082 44/// /2020 10198 20174 40150 50003 7////
8//// 22237 04204 2//// 8////=
SHIP 28161 99425 71303 46/// /3207 10110 40226 53016 91550 22200
00117 10904 70022
333 91208=
SHIP 28161 99289 70785 46/// /2206 10267 40174 50000 91550 22200
00263 10502 70009
333 91207=
SHIP 28161 99292 70944 46/// /1806 10269 20236 40156 55000 91550
22200 00273 10602 70011
333 91206=
SHIP 28161 99285 70845 46/// /2505 10267 20234 40163 52004 91550
22200 00270
333 91206=
SHIP 28161 99569 71778 46/// /1208 10031 40187 56012 91550 22200
00036 11004 70021
333 91210=
SHIP 28161 99563 71482 46/// /3007 10082 40142 52007 91550 22200
00074 11403 70015
333 91209=
SHIP 28161 99272 70904 46/// /1702 10269 40162 51004 91550 22200
00269
333 91203=
KGJB 28184 99436 71399 41498 73404 10106 2005/ 40279 52010 71922
867/4 22234 00092 20401 303// 40703 5//// 6//// 80078 ICE=
3FOA6 28184 99401 71249 41398 73215 10140 2004/ 40215 51010 70311
86214 22283 00140 2//// 3//// 4//// 5//// 6//// 80090 ICE=
WRJP 28184 99277 71420 41498 80309 10222 2017/ 40221 52019 70222
884// 22200 0//// 20302 312// 40703 5//// 6//// 80189 ICE=
C6LF9 28183 99109 70961 41298 73408 10278 20231 40108 54002 70382
86258 22235 00300 20101 326// 40403 5//// 80246=
54049 32770 72505 10224 20028 49997 52005 86502 333// 10310=
54157 32960 02006 10189 20082 40020 57003 333// 10300=
54186 32970 02505 10175 20019 40000 57011 333// 10223=
4XGU 28183 99305 71738 43498 30710 10200 20175 40210 54000 83200
22264 00238 20402 306// 40802 80185=
ELWG9 28184 99466 71722 41/93 91838 00/// 10075 20064 40080 54000
6//// 74345 8//// 22225 00066 20505 318// 41607 80070=
LADB2 28184 99500 71530 41297 83017 10070 2005/ 40270 54000 70322
88778 22223 00075 20605 3//// 4//// 5//// 6//// 80060 ICE=
WRYD 28184 99527 71554 41598 82913 10089 2003/ 40255 52015 70222
88600 22265 00052 20302 329// 40503 5//// 6//// 80061 ICE=
OXPW2 28184 99486 71512 41398 72908 10074 2001/ 40268 52018 70382
85578 22265 00067 20302 3//// 4//// 5//// 6//// 80046 ICE=
BOAB 28183 99520 71525 41597 43021 10060 2002/ 40210 5//// 70000
82610 22274 0//// 2//// 3//// 4//// 5//// 6//// 80040 ICE=
WTEF 28184 99581 71540 41697 22110 10083 2006/ 40180 53008 70200
811/5 22200 00067 20101 321// 40303 5//// 6//// 80072 ICE=
DIHE 28184 99084 70842 41498 62118 10280 20270 40100 54000 6////
70300 85560 22254 00294 20203 320// 40404 5//// 6//// 80250=
SHIP 28161 99259 70897 46/// /1605 10276 20240 40169 51006 91550
22200 00279 10502 70010
333 91206=
SHIP 28161 99411 70666 46/// /3402 10106 40103 54000 91550 22200
00099 10702 70008
333 91203=
SHIP 28161 99292 70882 46/// /2504 10269 20238 40154 50000 91550
22200 00278 10602 70008
333 91205=
SHIP 28161 99429 70689 46/// /3504 10106 40110 51011 91550 22200
00094 10701 70005
333 91204=
SHIP 28161 99288 70860 46/// /2704 10273 20237 40175 51006 91550
22200 00276 10601 70007
333 91205=
SHIP 28161 99606 71468 46/// /3105 10105 40112 53006 91550 22200
00095 10301 70004
333 91206=
YJQA8 28184 99420 11536 41595 81731 10170 2012/ 49968 55030 76366
887// 22228 00150 20606 317// 40606 5//// 6//// 80140 ICE=
DQVM 28180 99349 11502 41/97 81815 10205 20183 40100 51010 76122
8//// 22225 00206 2//// 3//// 80190=
ELKU8 28184 99057 10812 41498 32710 10275 2025/ 40100 70311 83840
22224 00310=
4XGS 28184 99254 11653 43498 40810 10250 20240 40200 54000 7////
84100 22264 00270 20502 306// 40503 5//// 80240=
ELPT3 28184 99471 11573 41/92 91226 10030 2001/ 40090 55015 74544
8//// 22214 00040 20607 80020=
MRGU3 28183 99484 11761 41297 92927 10042 20032 40062 57020 74752
89/// 22225 04037 20406 32811 40505 50906 80038=
ELWC6 28181 99467 11746 41297 73014 10055 20033 40120 54000 70222
8762/ 22225 00044 21004 327// 80045=
3FEA4 28184 99293 11586 43797 50810 10210 20200 40187 54008 85390
22274 0624/ 2//01 334// 4//02 5//// 80205=
PDHU 28181 99489 11591 41498 81410 10050 20013 40132 57028 70222
8311/ 22255 00030 20302 32034 40804 50804 80034=
WZJD 28184 99319 71388 41598 80215 10200 2014/ 40250 51018 70222
884// 22215 00167 20200 332// 40503 5//// 6//// 80160 ICE=
WNRD 28183 99340 71420 41398 80517 10172 2012/ 40250 52020 70222
886// 22265 00167 20302 331// 41203 5//// 6//// 80141 ICE=
3ENI3 28184 99466 11728 41596 82720 10050 2003/ 40150 54000 70222
886// 22213 00054 20804 327// 40805 5//// 6//// 80040=
3FOB4 28184 99498 11737 41/95 /3121 00/// 10055 2004/ 40068 53030
71244 8//// 22263 00040 20603 313// 40804 5//// 6//// 80050=
4XGV 28183 99410 11597 43597 82308 10140 20140 40232 54000 8007/
22214 00148 20501 321// 40602 80140=
VRUZ9 28183 99429 11544 41596 81730 10110 2009/ 40017 56025 70255
887// 22223 0//// 20807 317// 40807 5//// 6//// 80100 ICE=
3FTR6 28184 99520 11606 41/90 91213 ///// 10070 2005/ 40170 52010
74444 8//// 22263 00050 20401 31212 40401 50401 6//// 80060 /////
/////=
DQVH 28183 99076 10746 41498 52813 10280 2023/ 40110 51010 70362
84671 22265 00309 29902 328// 40403 5//// 6//// 80246 ICE=
WCX8882 28184 99485 11742 41496 82726 10050 2003/ 40090 54000 70222
886// 22225 0//// 20606 330// 40806 5//// 6//// 80040 ICE=
SHIP 28181 99425 71303 46/// /3306 10113 40236 51017 91750 22200
00117 11304 70022
333 91207=
SHIP 28161 99285 70802 46/// /2901 10259 40158 51003 91550 22200
00264 10801 70004
333 91202=
SHIP 28161 99259 70936 46/// /1302 10270 20261 40157 50003 91550
22200 00272 10703 70013
333 91203=
SHIP 28161 99301 70888 46/// /2407 10274 20232 40157 58007 91550
22200 00280 10701 70005
333 91208=
SHIP 28161 99460 71310 46/// /3106 10090 30212 40212 51021 91550
22200 00095 10804 70022
333 91208=
SHIP 28161 99260 70878 46/// /1202 10276 20236 40167 50000 91550
22200 00286 10501 70006
333 91203=
SHIP 28161 99380 71300 46/// /3204 10136 40237 51014 91550 22200
00141 11404 70019
333 91205=
SHIP 28161 99526 71550 46/// /2906 10059 40257 53007 91550 22200
00060 10704 70018
333 91207=
50774 32660 52702 10128 2002Z ??671 49952 520V? ??800 333
10264=
54094 32960 02504 10161 20075 39685 49962 57015 333 10246=
54377 32970 02002 10109 20083 40089 52006 333// 10268=
54386 32970 00202 10060 20042 40082 52007 333// 10194=
56079 32780 71603 10051 20021 36702 57009 82502 333 05106
10103=
56144 11480 80402 10093 20081 36887 52016 60041 78080 889//
333 00200 10184=
56152 11580 82903 10035 20021 36342 52002 69911 78080 889//
333 00101 10126=
56167 11580 80000 10105 20091 37095 52005 60031 78080 884//
333 00100 10186=
56173 32880 80201 10062 20033 36669 57005 889// 333 05107
10115=
56182 32980 00000 10079 20056 37208 57001 333 05105 10171=
56257 11680 80000 10077 20050 36300 57005 69911 70080 889//
333 00152 10154=
56357 32680 71602 10112 20031 36467 57005 874// 333 00101
10191=
56374 11175 80702 10073 20073 37431 57009 60091 78080 884//
333 00101 10117=
57707 11350 80000 10113 20104 38483 57010 60021 76060 887//
333 00153 10153=
57731 11462 83401 10193 20177 40109 57011 69901 76060 887//
333 10227=
57832 11462 83603 10163 20155 40115 57007 60011 76066 887//
333 10202=
57916 11662 80000 10221 20206 40074 57011 69931 70060 885//
333 10263=
57922 11440 83202 10181 20178 40085 57008 60011 76064 887//
333 10225=
57932 11463 83603 10224 20203 40085 57006 69931 76060 885//
333 10276=
50774 32660 52702 10128 2002Z KK671 49952 520VK KK800 333
10264=
54094 32960 02504 10161 20075 39685 49962 57015 333 10246=
44229 41999 50000 10034 20032 37836 40074 57010 70262 85040=
44286 329// 22903 10126 20029 38514 49992 57003 80002 333
91212=
44329 32998 00000 10080 20050 37700 4//// 54000=
44348 329// 00000 10156 21005 38590 40004 57006=
44386 329// 62705 10189 21025 38934 40014 57009 82040=
53083 32980 02903 10150 21055 40016 52001 333// 05606 10275=
53487 32965 03601 10140 20059 40088 57002 333// 10257=
54226 32980 01602 10200 20030 40030 57016 333// 10297=
54311 32980 00000 10125 20041 40081 52004 333// 10268=
54534 32960 02202 10203 20106 40096 57002 333// 10306=
54715 32970 01802 10191 20173 40105 57010 333// 10313=
54929 32970 72902 10202 20129 40128 57004 8703/ 333// 10278=
54945 32962 72504 10199 20139 40122 57003 80002 333// 10270=
57193 11762 80000 10165 20150 40137 57008 60011 72160 885//
333// 10234=
57290 11960 83401 10167 20152 40136 57006 69941 76066 8802/
333// 10224=
56066 36/// ///// 10043 21012 36622 4//// 57006
555 10040 2//// 3//// 40111 51001 60/// 7//// 80000
9//// ///// 1/020 2//00 30000=
57687 11356 82703 10187 20177 30028 40106 57012 69921 76066
8772/ 333 10273=
57993 11660 80000 10248 20239 39944 40087 57011 69941 76060
885// 333// 10279=
52634 36/// /0000 11001 21016 36766 4//// 57007
555 10020 2//// 30122 41111 51011 60/// 7//// 80000
9//// ///// 1/112 2//00 30000=
50434 32980 01801 11027 21065 39179 40030 52005 333// 10190=
50915 32580 22902 10167 21008 39081 40000 52011 81902 333//
10303 91118 91527=
53149 32980 12204 10168 21011 38720 40037 57004 80002 333//
05504 10274=
53192 32980 02702 10137 20016 38819 40050 52004 333// 10261=
53336 32980 02003 10153 21024 38651 40039 57004 333// 05503
10261=
53391 32980 02202 10148 21003 38485 40077 57006 333// 05205
10227=
53529 32980 02002 10144 20044 38593 40080 54000 333// 05302
10253=
53543 32980 01803 10154 21003 38517 40082 57001 333 10240=
54012 32980 52507 10170 20006 38918 40004 57002 80002 333//
10260=
54208 32980 02504 10146 20004 38711 40068 57007 333// 10233=
54776 32980 12504 10214 20039 30056 40112 57003 80002 333//
10216=
57528 16/// /2000 10159 29756 37563 61430
555 1/144 2//07 30181 12100
11101 10101 00010 10110 1011/
/////
2//// 3//// 6//// ///// ///// 8//// 9//// ///// ///// //004
11101 11111 1011/
11111 110//=
45007 32470 61402 10286 20247 30081 40090 58008 82130 333
58021 81812 85360=
45011 41465 71603 10275 20260 40099 51003 72582 8523/ 333
58018=
22001   28184 99281 11263
46/// /3510 10220 20169 40125 57009 8////
22200 06247 11101 70005 80187=
21004   28184 99289 11349
46/// ///11 10228 20219 40096 52002 8////
22200 06225 10703 70014 80222=
47105 32970 02305 10189 20101 30050 40080 52008=
47108 32965 00501 10148 20121 30006 40109 52007=
47115 32965 02903 10205 20065 39816 40068 52008 333 92042=
47135 32970 02704 10129 20087 39829 40118 52007=
47138 32965 02304 10185 20099 30092 40096 52006 333 92022=
47159 32970 02001 10188 20079 30020 40101 52009 333 92022=
47165 32957 03402 10148 20135 30080 40124 50004 71000 333
92022=
47184 3//// /2502 10181 20111 30107 40134 50003=
47008 42575 10000 10162 20078 39948 49998 58001 81500=
47016 42970 00000 10072 20051 39258 40095 52006=
47020 42965 00000 10099 20070 39747 40114 52009=
47035 42970 00501 10153 20107 30084 40092 52009=
47041 42970 03602 10148 20092 30038 40064 52003=
47055 42975 00000 10198 20051 30032 40080 52002=
47058 42966 00000 10149 20110 30061 40106 52012=
47069 42965 03201 10171 20090 30004 40099 52007=
23914 12499 72904 10092 20064 40060 53004 69900 87900 333
10179=
23921 11599 73201 10124 20086 40027 53004 60010 70282 84931
333 10190=
23955 41384 81002 10140 20129 49961 58015 72698 889// 333
84707=
24641 41498 80000 10081 20066 40045 52011 78082 86311 333
84911=
28440 11597 63204 10134 20050 40026 53004 60010 70298 83550
333 10235=
28748 11565 52704 10154 20128 40030 57007 60060 70292 82962
333 10241=
29231 42698 89901 10172 20103 49975 58016 8233/=
29838 42597 81702 10197 20105 40015 57008 8633/=
30372 42584 70201 10011 21006 40072 52008 82941=
30673 42699 33103 10044 21034 40026 57006 81401=
30823 42984 80000 10077 21019 40067 52002 83032=
30935 42999 80301 10111 20045 40047 53001 86041=
30965 42984 60000 10024 21039 40075 52012 80002=
31004 41295 80000 10052 20040 40005 52008 78082 87907 333
85704=
31088 42498 81306 10028 20025 40117 52001 886// 333 88710=
31137 42699 50000 10014 20011 49970 57005 85500=
31300 42984 02701 10017 21011 49956 58011=
31329 41499 80000 10060 20060 49927 57013 70282 889//=
31369 41497 80705 10062 20048 49974 57026 78082 889// 333
88915 95010 91114=
31371 41584 50000 10057 20036 49972 58004 72581 85900=
31388 42599 72003 10111 21002 49660 63017 87900=
31416 41598 83603 10033 20030 49949 57002 78082 889//=
31510 429// 03101 10093 21012 49962 58001=
31594 41966 03203 10094 20071 49944 52007 70198=
31707 42598 33604 10141 20074 49926 53009 81501=
31735 42997 31601 10095 20095 49902 57025 80001=
31873 42998 02404 10125 20099 49918 58014=
31909 42998 03202 10057 20057 49914 54000=
31960 42998 00303 10173 20065 49981 58003=
32053 41296 80906 10023 20018 49917 57049 78182 889// 333
87703 91112=
32061 41498 80608 10055 20028 49954 57043 78082 8497/ 333
91012 91114=
32098 41423 83605 10045 20040 49827 57053 78182 889// 333
88712 91111=
32150 41496 82706 10046 20039 49823 57008 70282 8335/ 333
91011 91113=
32165 41/91 92103 10091 20091 49840 57026 74565=
JFOY    28184 99250 11360
41097 02504 10260 20246 40127 56016 71000 80000
22283 00250 20101 399// 4//00 80250=
47003 42970 02301 10184 20088 39996 40000 58001=
47005 42980 01803 10103 20029 38547 54000=
47031 42970 00000 10040 20038=
47046 42969 02703 10146 20102 30030 40052 52001=
47060 42960 02703 10180 20114 30050 40105 52006=
47061 42980 02702 10242 20043 30021 40061 57007=
47065 42965 01401 10167 20110 30045 40107 52009=
47067 42965 00000 10133 20094 39986 40102 52015=
47068 42970 00000 10148 20100 30072 40106 52006=
47070 42970 00000 10141 20121 30025 40109 52009=
47075 42980 00000 10105 20097 39699 40116 52012=
98223 31565 11401 10255 20251 40075 56020 70544 81100 333
56999 81820=
98325 31460 20000 10262 20254 40072 58010 70544 81201 333
56999 81817=
98328 31461 21602 10172 20168 38507 40078 58007 71344 82901
333 56999 82912=
98429 31557 70000 10279 20241 40080 57012 70544 83830 333
56999 83823 85359=
98440 32470 40903 10286 20265 40083 58011 81202 333 56999
81817 84079=
98444 11465 60401 10261 20256 40084 57014 60021 70282 83202
333 56999 83818 84070=
98550 11459 81601 10274 20253 40079 57019 69921 78044 8497/
222// 20101 333 56999 82915 88357=
98618 11468 80000 10246 20244 40069 58009 60191 72366 8422/
333 56999 84818 88358=
98755 11575 62702 10256 20245 40081 58027 69901 70282 83208
333 56999 83820 84279=
98836 31562 60000 10247 20253 40088 58008 70544 82201 333
56999 82820 84081=
02548 36/// ///// 1//// 2//// 38655 40137 57003
555 1//// 2//// 3//// 40001 50000 60/// 7//// 80000
9//// ///// 1/019 2//00 30000=
44207 415// 83607 10040 20025 38227 40073 54002 76062 8852/=
44212 32999 50000 10142 20048 39001 40054 51006 85040=
44214 41698 50000 10075 20025 38216 40089 54000 83540=
44218 329// 40000 10110 20065 38510 40053 54000 84500=
44231 415// 80000 10098 20078 38591 40015 51001 76162 8852/=
44232 316// 80907 10119 20107 38966 40033 52006 70262 885//=
44239 315// 43603 10104 20032 38670 40014 54000 70191 82240
333 91109=
44241 329// 73203 10142 20045 39089 49998 52004 87040=
44259 32998 60502 10143 21025 39193 40037 58003 84044=
44272 414// 80000 10056 20008 38132 40039 50006 76366 8852/=
44277 325// 72702 10049 20032 37753 40076 54000 84554=
44282 32999 00000 10082 20019 38194 40032 53003=
44284 329// 00000 10032 21007 37790 40013 54000=
44285 32899 20000 10113 20029 38214 49991 57006 82040=
44287 32999 00000 10079 21012 38035 40037 54000=
44288 32899 32302 10126 20011 38072 49984 57006 83040=
44292 328// 83202 10168 20040 38555 49965 58007 8807/=
44294 329// 00704 10146 20041 38492 49962 57007=
44298 329// 32401 10189 21063 38584 40112 57007 83020=
44304 329// 20507 10135 20021 38851 49990 58008 82040=
44314 32998 00000 10135 20011 39021 40037 52006=
44347 32999 22704 10192 21009 38593 49978 58005 80002=
44354 319// 02707 10198 21030 38987 49970 58012 70700=
44358 32998 02703 10168 20009 38977 40046 54000=
44373 32999 32003 10194 21050 38436 49996 57010 82048=
28661 11660 62403 10154 20117 49999 57009 69900 70298 86300
333 10236=
28679 119// 62702 10121 20115 49997 57005 60080 71082 83031
333 10190=
28879 119// 22503 10140 20107 40014 57003 60020 70181 80002
333 10202=
28952 315// 83601 10141 20128 40043 57002 78082 889// 333
10248=
29122 41499 80802 10154 20136 49965 57017 72582 8435/ 333
84950=
29807 12597 32405 10147 20115 49984 54000 69960 83900 333
10193=
30230 42698 80000 10018 20005 40096 57004 85541=
30309 42996 60602 10098 21017 40043 57005 86030=
30385 41584 80000 10036 20034 40009 52002 72162 8892/=
30650 42984 00000 11011 21078 40115 52014=
30710 42960 81404 10052 21010 40079 57003 82031=
30844 42999 80000 10036 20010 40074 52002 80007=
31532 41569 82303 10089 20089 49913 57024 78098 87900=
31829 41598 72604 10079 20070 49866 56015 70272 85520=
35078 12975 22405 10128 20061 40032 57003 69960 82061 333
10216=
35108 32997 03101 10193 20143 40134 52004 333 10281=
35188 125// 62503 10143 20094 40028 57004 69900 83430 333
10184=
35229 32997 72802 10194 20112 40097 58003 87030 333 10264=
35394 11997 42102 10125 20099 40053 57002 60030 70291 84030
333 10166=
35416 32997 22702 10208 20125 80001 333 10268=
35671 32998 02602 10142 20070 40093 53006 333 10256=
35746 32998 00000 10210 20041 40094 53009 333 10293=
35796 32984 30202 10177 20059 40067 52006 83030 333 10261=
36003 11970 62303 10150 20128 40004 57003 60030 70198 86030
333 10235=
36859 32599 20102 10191 20043 40042 54000 81301 333 10296=
36870 31565 81002 10229 20045 40041 52017 78082 889// 333
10274 88929=
38198 329// 00301 10225 20038 333 10347=
38341 32997 02102 10173 20048 40069 52011 333 10304=
44341 32999 00000 10148 21016 38465 40980 54000=
44210 32999 00000 10096 20015 38434 51004=
44217 32998 10000 10053 20053 37862 40178 54000 81040=
44242 329// 60503 10133 20004 39154 49997 52005 86070=
44263 32998 00000 10045 21016 38009 40141 52006=
22550 12997 60000 10108 20095 40142 52008 69900 84041 333
10143=
22768 12997 60101 10128 20073 40144 52012 69900 80008 333
10161=
22845 32998 82401 10158 20033 40140 52004 8807/ 333 10200=
26063 12997 23201 10142 20065 40133 54000 69902 80001 333
10195=
26298 11597 60000 10207 20174 40123 53004 69912 70298 82400
333 10268=
26477 11662 70000 10193 20177 40121 53001 60032 72998 86301
333 10273 86940 91114=
26702 11996 50000 10163 20136 40066 57035 69952 71082 82031
333 10174=
26850 11670 61502 10262 20118 40112 57003 69902 70361 83530
333 10299=
26997 32976 01701 10226 20124 40165 57008 333 20266=
27595 32997 13105 10165 20050 40121 53003 80001 333 10215=
27612 32997 20000 10207 20115 40159 57007 82030 333 10259=
27947 32997 03102 10204 20100 40175 57005 333 10253=
27962 32997 03003 10178 20070 40158 55002 333 10250=
33008 32970 51802 10260 20126 40099 57007 85030 333 10305=
34009 32968 00701 10211 20065 40162 57003 333 10266=
34172 32960 43005 10212 20082 40157 53005 80001 333 10262=
34247 32572 31401 10220 20145 40168 53001 82101 333 10295=
34391 32997 22903 10229 20128 40152 53012 80002 333 10306=
37054 32998 00804 10161 20125 40172 53003 333 10238=
44203 415// 73603 10074 20056 38316 40063 54000 70262 8782/=
44213 41699 71803 10101 20090 38682 40052 52004 70262 87500=
44215 32998 22703 10105 20034 38330 40065 52001 82001=
44225 415// 82702 10056 20035 38183 40066 51001 76366 8852/=
44230 415// 83602 10103 20050 38677 40056 58005 70298 889//=
44237 41599 40000 10078 20056 38375 40034 58004 70162 84500=
44256 32999 50000 10072 20009 39222 40042 51003 85040=
44265 32999 20000 10094 20050 38775 40117 58012 80004=
44275 32998 20000 10045 20012 37662 40024 54000 82500=
44302 329// 10502 10131 20030 38986 40025 54002 80004=
44313 32999 20000 10115 20025 39247 40039 52013 82040=
44336 329// 42303 10168 21009 38564 49979 58008 84010=
23074 42998 80806 10031 21007 40107 58005 8807/=
23711 11469 73402 10103 20078 40064 52016 69930 72582 87900
333 10170 85918=
23804 11697 22701 10089 20081 40097 52014 60030 70282 82160
333 10151=
24125 42999 10208 10021 21029 40109 53002 80001 333 91011=
24143 42699 63601 10008 20004 40049 58005 86400=
24343 42999 13403 10012 21026 40048 52009 81030=
24738 42699 63304 10107 20004 40057 52005 84530=
24951 42699 60000 10062 20053 40017 52016 82531=
24959 41499 80202 10092 20084 40009 52006 72186 889// 333
85914=
24966 42599 80702 10082 20032 40019 52014 84931=
29313 42498 81402 10157 20130 49946 57011 889// 333 88918=
29612 41597 61302 10140 20122 49940 57015 78082 85308=
29698 42997 30000 10068 20064 40054 53004 80002=
30758 42984 00701 10022 21046 40072 52010=
32027 41597 80204 10043 20036 49944 57022 78082 889//=
35406 32997 00000 10211 20132 40165 57002 333 10290=
38062 32997 02803 10235 20050 333 10329=
38388 32998 03602 10270 21007 40086 53020 333 10369=
38413 429// 00803 10275 20025 40069 52011 333 10350=
38457 32598 70201 10238 20106 40040 52011 83362 333 10332=
38507 32996 22903 10176 20145 40114 52020 80001 333 10275=
38545 32998 23302 10227 20125 40067 53014 82050 333 10347=
38656 32998 02504 10306 20064 40065 53015 333 10368=
38687 32996 03202 10226 20095 40043 53011 333 10348=
38880 329// 03104 10284 20114 40098 52025 333 10356=
38895 32997 23302 10275 200// 4//// 5//// 82030 333 10367=
38927 32997 02802 10267 20027 49989 52009 333 10422=
38974 329// 03204 10260 20013 40060 52017 333 10365=
57845 11450 80201 10194 20188 40097 54000 60091 76066 8672/
333 10239=
333 10239=
58968 32860 70905 10250 20238 30097 40104 58014 8703/=
59358 31950 00802 10259 20241 30088 40099 57012 71010=
59559 32570 23401 10268 20230 30073 40101 55014 82500=
59792 32560 20907 10276 20265 30090 40095 57014 82200=
59997 32562 22601 10288 20280 30046 40060 57008 82200=
59158 32662 30000 10251 20225 30003 40101 57011 83400=
59562 11665 80000 10262 20221 30092 40103 57015 60041 70262
885//=
VRVY5   28183 99176 11240 41498 81015 10290 20263 40090 54000 70202
845// 22274 0//// 20403 308// 40503 80270=
20046 32981 32501 11063 21090 40226 51001 82031 333 11021=
20069 42978 23401 11091 21111 40229 52003 81031=
20087 42576 73203 11040 21052 40207 52005 875// 333 87620=
20292 42480 71901 11006 21021 40195 58002 875// 333 87613=
20667 12497 80507 11023 21038 40153 58001 69900 885// 333   11003
91109=
20674 41463 81204 10013 21004 40123 57002 76162 8657/ 333
86614=
20744 32998 13203 11002 21026 40209 52006 81030 333   10020 91105=
20891 42997 00203 11034 21038 40166 54000=
23022 31497 80306 11013 21021 40146 52023 78582 885// 333   10001
85617 91111=
23032 12457 83207 10006 21002 40105 52008 69910 885// 333   10022
88611 91108=
29328 41498 81403 10145 20134 49975 57014 78082 889//   333 85918=
29348 41597 71301 10184 20114 40004 58004 72522 84930=
29405 41497 81002 10123 20116 49927 57015 70298 8533/=
29937 42598 72404 10192 20112 40026 57004 87500=
98135 31470 41404 10279 20258 40097 58013 70544 81201 333
56999 81819 84076=
98329 31470 10401 10260 20247 40078 5/008 70544 81200 333
56999 81818=
98653 31468 61502 10265 20240 40085 58015 70544 82270 333
56199 82818 84358=
48325 31510 80000 10255 20236 39831 40072 71092 888//
333 58001=
48405 32962 20000 10291 20266 39891 40051 80001
333 59007=
48450 11560 30000 10280 20236 30036 40069 69903 71381 82903
333 59001 79999=
48459 32563 30000 10295 20252 30063 40065 82206
333 59001=
48565 11560 40000 10255 20241 30072 40083 60353 70162 81135
333 59003 70442=
48568 32460 30000 10262 20240 30076 40084 81101
333 59005 79999=
48569 32560 50000 10255 20238 30045 40085 82241
333 59005 70005=
96035 31550 50000 10256 20244 30063 40095 57011 70521 82531
333 56000 82620=
96073 01408 80000 10250 20241 30099 40106 51010 60051 79596 889//
333 56099 57900 60057 88910 80900=
96109 31557 43603 10270 20245 30044 40083 51003 71322 81932
333 56000 57901 81920 80970=
22113 11573 81603 10078 20034 40105 57006 69902 78082 8695/
333 10078 91005=
22271 32580 70905 11006 21024 40167 52009 87500 333 10014
87627=
22820 11599 80902 10119 20099 40125 57008 69912 70262 8253/
333 10186=
22887 11570 63002 10109 20067 40134 52017 69910 70282 82531
333 10162=
26781 12997 70160 11019 20144 40147 57003 69902 333 10265=
27037 32570 80502 10171 20046 40142 57003 85930 333 10225=
33345 32998 01702 10232 20148 40159 57010 333 10280=
33658 32997 21104 10230 20098 40127 57006 82030 333 10295=
33791 32997 51404 10263 20104 40157 56004 85030 333 10297=
33837 32999 22703 10218 20119 40165 56007 82030 333 10262=
33946 32997 09904 10189 20083 40162 55002 333 10285=
34300 32997 00000 10242 20128 40171 58002 333 10287=
34560 32962 20000 10210 20111 40168 57001 82030 333 10284=
34691 32998 22903 10214 20082 40158 5/004 82040 333 10307=
34880 32997 03402 10212 20115 40170 53007 333 10293=
37472 12984 70000 10183 20151 40173 57001 69900 87070 333
10247=
48327 32962 00000 10248 20228 39708 40062 333 58006=
48331 32560 20000 10261 20250 39834 40062 84551 333 58001=
48353 31560 20000 10262 20237 39771 40056 70191 81502 333
58009=
48356 32962 00000 10279 20267 39865 40059 333 58010=
48375 32560 70000 10263 20241 39842 40066 84536 333 58006=
48378 32560 20000 10285 20249 30006 40058 81505 333 58005=
48381 32960 00000 10280 20250 39834 40055 333 58002=
48407 31559 30000 10290 20262 39914 40053 71021 81101 333
58006=
48431 32560 30000 10270 20245 39849 40061 81505 333 58006
70003=
48432 31956 10000 10281 20254 39894 40060 71000 80001 333
58006=
48455 32562 62402 10300 20256 30062 40067 85846 333 59009=
48456 32560 42206 10286 20267 30051 40064 82935 333 59004
79999=
48480 32560 40000 10277 20260 30065 40069 83505 333 59002
79999=
48500 32962 22803 10273 20237 30062 40067 80005 333 59003
70024=
24266 42699 70000 10031 21007 40085 52004 82970=
24329 42998 20000 10043 21029 40080 52007 80002=
24507 426// 70000 10026 21007 40121 52007 87500=
24671 42698 80000 10057 20045 40055 52008 885//=
24688 42699 61602 10059 20019 40093 52009 83431=
24908 42580 60201 10053 21029 40083 57004 86500=
24944 42699 82502 10074 20067 40048 51003 83932=
29594 42599 82002 10115 20045 40044 54000 83901=
29634 41657 81806 10151 20135 40000 57010 78082 883// 333
88933=
29676 42698 23201 10100 20084 40046 58007 82500=
30054 42998 30000 10001 21001 40111 52010 80001=
30393 42599 83403 10021 20013 49998 52003 83931=
30433 42999 23102 10046 21042 40099 58005 81041=
30469 429// 10000 11019 21029 40063 52014 81040=
30521 00000 10022 21006 40078 52005=
30554 42/// 00000 11040 21074 40129 52006=
30603 42997 00000 10080 20036 40060 57002=
30612 429// 23601 10083 20046 40058 57004 80001=
30635 429// 00000 10048 21018 40092 54000=
30692 42999 00000 11002 21011 49983 52003=
30802 42697 80000 10084 20073 38604 48410 58004 86530 333
95790=
30879 42999 00000 10022 21031 40044 52011=
30925 416// 83603 10128 20019 40033 54000 78082 85961=
35700 32998 02702 10213 20086 40143 53008 333 10302=
36034 41598 81805 10143 20137 40038 58008 78082 889// 333
86920=
36061 42997 30000 10108 20102 40070 57009 80001=
36982 115// 82105 11004 21004 36520 47067 53010 60022 77377
8802/ 333 10085=
38353 416// 52802 10216 20034 40024 58005 72998 85400 333
10296=
38392 32997 53604 10273 20064 40084 53027 85060 333 10370=
38613 429// 72006 10224 20118 40044 52006 87900 333 10319=
38696 329// 01603 10237 20030 40029 53004 333 10316=
38750 32597 52809 10208 20169 40143 52018 85500 333 10236=
VRVY5 28183 99176 11240 41498 81015 10290 20263 40090 54000 70202
845// 22274 0//// 20403 308// 40503 80270=
ELXD6 28183 99379 51582 /1/96 81144 00/// 10135 20135 49990 57020
6//// 76222 88/// 22212 0//// 20507 309// 41015 5//// 6//// 80135=
PGDM 28180 99065 10769 41/97 /3105 10253 20232 40102 56012 75152
8//// 22225 00288 20602 328// 40502 80238=
PCSS 28180 99058 10832 41/98 22112 10287 20248 40091 54000 7////
82/// 22265 00279 20304 80258=
ZCAA 28184 99072 11293 41398 81808 10260 20250 40095 54000 70222
88/// 22213 00/// 2//// 80250=
PJKP 28184 99220 71134 41698 53604 10225 20154 40150 51015 7021/
851// 22233 02222 20000 332// 41806 80179=
3FWP3 28181 99221 11152 43/98 /1606 10300 2//// 40114 52010 7////
8//// 22222=
JFOY 28184 99250 11360 41097 02504 10260 20246 40127 56016 71000
80000 22283 00250 20101 399// 4//00 80250=
SHIP 28181 99289 70785 46/// /2306 10267 40157 91820 22200 00263
10502 70009
333 91207=
SHIP 28181 99606 71468 46/// /2907 10104 40118 91820 22200 00095
10301 70004
333 91208=
VNW4455 28183 99098 31231 41398 11409 10274 20254 40099 5//// 71311
81902 22231 02284 20201 314// 40402 80260=
SHIP 28184 99281 11263 46/// /3510 10220 20169 40125 57009 8////
22200 06247 11101 70005 80187=
SHIP 28184 99289 11349 46/// ///11 10228 20219 40096 52002 8////
22200 06225 10703 70014 80222=
SHIP 28184 99159 31078 41/97 41120 10265 40126 70310 222// 00289
20101 312// 40303 5////=
LAQQ2 28184 99439 11450 41697 53518 00/// 10100 2010/ 40300 51010
70311 85226 22213 00100 20306 30435 40306 50202 6//// 80090=
WFDP 28184 99538 71355 41598 72815 10133 2004/ 40162 53007 72162
874// 22274 00089 20303 31627 40806 50606 6//// 80089 ICE=
WTEJ 28184 99436 71243 41397 62006 10145 2012/ 40214 52012 70222
85163 22281 00131 20202 328// 40404 5//// 6//// 80130 ICE=
02186 11973 61804 10080 20059 30012 40037 53006 69992 70142
82096 333 10100 82360 86270=
02226 12789 42002 10120 20013 39553 49992 53008 84500 333
10135 84650=
02464 46/// /1703 10145 20056 30060 40077 58008 333 10171=
02590 46/// /1402 10126 20057 30022 40083 58011 333 10168=
02836 11884 51702 10114 20037 40055 50001 60032 70162 81048
333 10115 20035 31///=
02935 12984 52001 10168 20009 40088 56/// 69902 70211 80001
333 10189 20081 30///=
03005 32482 73306 10084 20036 40021 52014 878/2 333 10093
81715 87637=
03772 11581 72804 10134 20045 40067 52019 60022 72998 84963
333 10156 81925 84830 96295=
03917 11480 61603 10105 20057 40051 52017 60052 70298 85903
333 10140 82918 83825=
03953 11582 33003 10119 20067 30073 40109 52018 69932 72581
83300 333 10130 83925 92438=
04018 32587 60211 10075 21002 40091 52002 85842 333 10086
20055 81825 83643 85656=
04077 22380 80207 10028 20001 40110 52002 886// 333 10042
20022 69928=
04320 32689 73108 11024 21054 30159 40174 58006 87500 333
10003 21046=
04360 32989 20103 10023 21003 30086 40151 58003 80005 333
10034 21012=
06610 14440 82305 10119 20094 39568 40142 52020 60042 76362
8472/ 333 10164 32/// 81715 83725 88540 91127=
07149 11675 52807 10151 20045 30017 40124 53012 69942 70386
85200 333 10170 20112 81840 84848 91137=
07510 01460 72703 10158 20103 30096 40169 51002 60022 76062
8687/ 333 10172 20145 69907 81816 84621 87360=
07650 12680 53104 10219 20145 30108 40145 55001 69902 81532
333 10227 20166 81633 83360 85075=
07761 32675 72101 10201 20136 30156 40167 55000 83844 333
10232 20189 82833 85642 87075 95030=
08509 32561 42002 10213 20155 30198 40264 50000 84800 333
10222 82829 91007=
10385 11683 72103 10185 20081 39982 40041 58008 69902 70162
8287/ 333 10206 20112 55300 82840 87462=
10637 11786 22605 10168 20001 39952 40085 53013 69952 70281
81831 333 10188 20123 55309 81856 91117 91213 96481=
10870 11562 81901 10136 20117 39601 40120 53003 60042 76362
8682/ 333 10194 20117 55300 83835 85656 88462=
16560 32982 73106 10250 20120 30154 40160 53008 83012 91745
333 10282 55310 83460=
17609 32970 02501 10234 20174 40110 53004 333 10294=
12330 32665 71701 10203 20145 39957 40060 56010 875// 333
10211 20123=
12375 11970 71403 10179 20150 39949 40074 57008 60022 72998
84033 333 10279 20142 91122=
12843 35/83 /2302 10271 20133 39927 40085 55005 333 10314=
13272 32780 31105 10272 20141 39983 40095 55004 83500 333
10320 83650=
23256 32699 81204 10084 21012 40055 57004 8357/ 333 10120=
23274 42898 70903 10053 21029 40103 53001 80001=
23330 11597 80106 10051 20037 40055 52019 69900 76162 84831
333 10187=
23383 42999 20000 10010 21046 40128 54000 80001=
23472 42999 30704 10078 21038 40096 52001 80001=
23552 32997 31002 10119 20064 40046 57002 80001 333 10191=
23631 32998 13605 10140 20112 40011 52008 81080 333 10230=
23678 42998 01701 10060 20031 40066 58003=
23734 32798 33601 10136 20053 40000 54000 83500 333 10216=
23849 42696 70405 10164 20124 49974 57008 83830=
23884 425// 61302 10109 20055 40053 51001 86500=
23933 32997 80602 10161 20103 49988 57008 80001 333 10206=
23966 42599 80702 10147 20123 40010 58006 86902=
25400 41898 82902 10028 20001 40164 53002 76162 8802/=
28275 32599 80000 10140 20107 49971 57006 8333/ 333 10203=
28382 11996 83203 10143 20137 49945 57009 60160 76186 8807/
333 10166=
28493 11264 81103 10135 20129 49913 57013 60170 78082 889//
333 10159 86706=
28573 12680 22703 10145 20103 49971 57006 69960 82500 333
10172=
28698 11484 80000 10145 20127 49938 57003 60380 70298 883//
333 10186=
28722 32564 72904 10174 20043 40083 53008 83501 333 10240=
28786 11999 73005 10143 20121 49968 52004 69900 70282 87070
333 10194=
29253 415// 71401 10136 20124 40009 54000 70298 87900=
29263 41571 82801 10114 20098 40012 57004 70298 8695/=
29282 41568 80601 10083 20065 40049 58007 78082 889//=
29430 41496 80000 10156 20132 40008 57003 78182 889// 333
88913=
35067 329// 3//// 10172 20077 40037 57002 83030 333 10240=
35121 11979 63104 10186 20058 40108 53009 69900 70282 80001
333 10265=
38763 32697 22508 10256 20162 40107 52015 82200 333 10323=
38911 32997 03003 10274 20038 40011 53009 333 10391=
38987 329// 01901 10243 20025 40059 52023 333 10371=
3FWP3   28181 99221 11152 43/98 /1606 10300 2//// 40114 52010 7////
8//// 22222=
06011 32582 73306 10078 20026 39974 40041 52014 87500 333
10112 20046 87626=
06180 01458 71509 10125 20123 39994 40000 55022 69942 78286
86972 333 10151 20117 69927 81613 82922 85644 87357 91131=
07110 32570 62605 10122 20071 30028 40142 50005 86900 333
10144 20093 81926 84830=
08001 11208 82405 10164 20156 30094 40174 52007 60022 75155
8577/ 333 10186 92433=
08221 32670 52905 10221 20123 39521 40175 54000 82831 333
10248=
08306 32365 72206 10220 20188 30161 40167 54000 81631 333
10250=
08495 32980 12007 10275 20132 40185 57002 80001 333 10289
81075=
10338 11582 42205 10119 20052 39962 40033 52027 69912 72581
84901 333 10174 20115 55308 81930 83840 91123 91215=
16242 32465 72402 10206 20181 30142 40145 58000 84235 333
10240 84813 83359 85073=
16320 32860 22104 10290 20120 30110 40122 56007 82030 91745
333 10292 55310 82358=
16420 32597 43503 10234 20178 30082 40145 53001 84200 91745
333 10264 55300 84825=
16597 32965 03507 10219 20174 30067 40153 50003 333 10263=
17060 32960 00306 10204 20124 40136 57004 333 10264=
17128 32670 33102 10184 20072 39058 40110 57003 83200 333
10238 83840=
17170 32670 20000 10132 20061 38330 48494 53005 82100 333
10182 82835 10106=
17200 32670 43006 10220 20096 39152 40080 53002 84200 333
10264 84840=
11518 11563 82305 10131 20110 39672 40099 51017 60022 76162
8452/ 333 10220 81726 84646 88557=
15420 32560 31101 10223 20078 30035 40140 57005 82230 333
10291 30054 91002 91202=
15614 31698 61102 10213 20102 39461 40128 54000 70221 82462
333 10267=
21908 42999 23602 10008 21038 40129 57002 80001=
24982 42499 80000 10042 20042 40121 58010 889//=
25325 42999 00205 10002 21073 40181 52006=
28255 11457 82704 10140 20118 49993 53006 69900 78082 883//
333 10237 86918=
28642 11697 73205 10141 20106 40028 51004 69940 70182 84330
333 10230=
29557 42698 61804 10183 20084 40024 57008 81571=
29822 42997 62008 10146 20131 40001 57007 86060=
29846 42997 81803 10158 20123 40039 57008 83031=
30777 42998 09002 11001 21049 40069 52018=
31174 42299 80205 10008 20003 40026 57006 886//=
31263 42598 80000 10057 20052 39423 49971 57002 78082 889//=
31624 41599 80000 10084 20055 49912 57016 70281 889//=
36096 42698 72801 10144 20064 40025 52008 85932 333 95090=
36103 41699 80000 10106 20092 40068 52006 72582 889// 333
95090=
36974 117// 70901 10115 20078 37955 48488 52004 69900 70298
83932 333 10230=
29023 41598 80403 10154 20123 49980 58016 71798 889//=
91165 32566 40607 10256 20200 30138 40191 51015 91753 333
10256 20228=
91245 32566 40807 10270 20240 30137 91750=
91285 12966 02802 10239 20206 30176 40190 53010 60041 91753
333 10239 20194=
91334 32472 80000 10255 20254 30085 40088 56010 83271 333
56999 70056=
91348 11474 84952 10250 20236 30046 40098 57002 60071 70282
85231 333 56399 70142=
91366 32574 70608 10274 20237 30080 40089 53003 85871 333
56116=
91371 32474 40905 10278 20253 30992 40995 83231 333 56229
84815=
91376 11472 80807 10260 20230 30091 40095 53008 60151 76186
8487/ 333 5622/ 70183=
91408 32474 21302 10250 20241 30056 40094 57024 81131 333
56399 70046=
91413 32469 44952 10249 20244 30075 40094 57015 82101 333
561/9 70010=
55279 32980 00000 10036 21059 35731 54000 333 00102 10100=
55299 32880 20000 10026 20008 35892 52002 82400 333 00201
10087=
55472 11980 00000 10034 21037 35787 52004 69901 70080 333
00201 10112=
55578 11780 70000 10054 20037 36403 52006 60121 70098 879//
333// 00256 10170 93901=
55591 11579 80000 10069 20051 36554 52008 60061 78088 889//
333 00353 10189=
55664 11780 80000 10069 20040 36031 52007 69911 78080 889//
333// 00251 10179=
55696 32680 50403 10084 20038 36356 52003 85400 333 00152
10152=
55773 11470 70000 10044 20027 36026 57003 69901 70080 874//
333// 00000 10109=
56106 11780 71402 10051 20016 36252 52003 60011 70080 874//
333 00351 10146=
56137 11580 82503 10083 20061 36833 52019 60021 78080 889//
333// 00100 10182=
56312 11580 81401 10102 20099 37080 52002 60051 78088 889//
333// 00001 10183=
55279 32980 00000 10036 21059 35731 54000 333 00102 10100=
55299 32880 20000 10026 20008 35892 52002 82400 333 00201
10087=
55472 11980 00000 10034 21037 35787 52004 69901 70080 333
00201 10112=
55578 11780 70000 10054 20037 36403 52006 60121 70098 879//
333// 00256 10170 93901=
55591 11579 80000 10069 20051 36554 52008 60061 78088 889//
333 00353 10189=
55664 11780 80000 10069 20040 36031 52007 69911 78080 889//
333// 00251 10179=
55696 32680 50403 10084 20038 36356 52003 85400 333 00152
10152=
55773 11470 70000 10044 20027 36026 57003 69901 70080 874//
333// 00000 10109=
56106 11780 71402 10051 20016 36252 52003 60011 70080 874//
333 00351 10146=
56137 11580 82503 10083 20061 36833 52019 60021 78080 889//
333// 00100 10182=
56312 11580 81401 10102 20099 37080 52002 60051 78088 889//
333// 00001 10183=
51133 32980 13602 10161 20098 39440 40051 57011 80002 333//
05704 10240=
51243 32980 03202 10204 20083 39549 40060 52004 333 05403
10275=
51288 32680 10000 10062 20015 38303 57002 81400 333 05351
10117=
51431 32980 10403 10182 20061 39298 40037 57001 80002 333//
05604 10280=
51463 32980 02003 10150 20049 39038 40084 57012 333 05403
10212=
51495 32980 13616 10194 20004 40125 52005 80002 333 00152
10263 91121 91536=
51542 32680 13402 10028 21023 37556 52004 81400 333 05151
10154=
51644 32980 02703 10192 20069 38852 40017 52008 333 05201
10296=
51656 31956 82702 10222 20061 39014 40024 57002 70630 80007
333 05107 10306=
51133 32980 13602 10161 20098 39440 40051 57011 80002 333//
05704 10240=
51243 32980 03202 10204 20083 39549 40060 52004 333 05403
10275=
51288 32680 10000 10062 20015 38303 57002 81400 333 05351
10117=
51431 32980 10403 10182 20061 39298 40037 57001 80002 333//
05604 10280=
51463 32980 02003 10150 20049 39038 40084 57012 333 05403
10212=
51495 32980 13616 10194 20004 40125 52005 80002 333 00152
10263 91121 91536=
51542 32680 13402 10028 21023 37556 52004 81400 333 05151
10154=
51644 32980 02703 10192 20069 38852 40017 52008 333 05201
10296=
51656 31956 82702 10222 20061 39014 40024 57002 70630 80007
333 05107 10306=
51133 32980 13602 10161 20098 39440 40051 57011 80002 333//
05704 10240=
51243 32980 03202 10204 20083 39549 40060 52004 333 05403
10275=
51288 32680 10000 10062 20015 38303 57002 81400 333 05351
10117=
51431 32980 10403 10182 20061 39298 40037 57001 80002 333//
05604 10280=
51463 32980 02003 10150 20049 39038 40084 57012 333 05403
10212=
51495 32980 13616 10194 20004 40125 52005 80002 333 00152
10263 91121 91536=
51542 32680 13402 10028 21023 37556 52004 81400 333 05151
10154=
51644 32980 02703 10192 20069 38852 40017 52008 333 05201
10296=
51656 31956 82702 10222 20061 39014 40024 57002 70630 80007
333 05107 10306=
51053 32980 00702 10152 20096 40081 57004 333 05304 10215=
51087 32980 00000 10117 20078 39178 40101 57004 333 05152
10185=
51156 32980 00000 10104 20062 38666 40100 54000 333 00003
10207=
51709 11970 30000 10207 20093 38652 40024 57002 69901 70080
80002 333// 05301 10305=
51716 32970 00000 10201 20106 38812 40010 52007 333// 05302
10314=
51777 32970 62203 10262 20023 39070 40028 54000 80002 333
05106 10322=
51828 32970 72203 10227 20010 38573 40019 52013 80002 333//
05201 10307=
51839 32970 00000 10199 20033 40007 52001 333// 05351 10314=
51855 11970 60000 10191 20076 40017 57001 69901 70080 80002
333 05101 10304=
51931 32970 00901 10175 20060 40026 52007 333// 05253 10317=
52203 32980 60000 10162 20081 39210 40026 57005 80002 333
00254 10300=
52267 32780 73405 10228 21003 38985 49998 52010 82902 333//
05405 10310=
51053 32980 00702 10152 20096 40081 57004 333 05304 10215=
51087 32980 00000 10117 20078 39178 40101 57004 333 05152
10185=
51156 32980 00000 10104 20062 38666 40100 54000 333 00003
10207=
51709 11970 30000 10207 20093 38652 40024 57002 69901 70080
80002 333// 05301 10305=
51716 32970 00000 10201 20106 38812 40010 52007 333// 05302
10314=
51777 32970 62203 10262 20023 39070 40028 54000 80002 333
05106 10322=
51828 32970 72203 10227 20010 38573 40019 52013 80002 333//
05201 10307=
51839 32970 00000 10199 20033 40007 52001 333// 05351 10314=
51855 11970 60000 10191 20076 40017 57001 69901 70080 80002
333 05101 10304=
51931 32970 00901 10175 20060 40026 52007 333// 05253 10317=
52203 32980 60000 10162 20081 39210 40026 57005 80002 333
00254 10300=
52267 32780 73405 10228 21003 38985 49998 52010 82902 333//
05405 10310=
98526 11465 80401 10254 20249 40064 57014 60171 79596 8397/
333 56999 83918 88357=
98748 31465 70000 10260 20/// 40087 57010 70544 82270 333
56999 82818 87358=
51839 32970 00000 10199 20033 40007 52001 333// 05351 10314=
51855 11970 60000 10191 20076 40017 57001 69901 70080 80002
333 05101 10304=
48820 11598 61801 10255 20239 30055 40063 57002 60281 70398
862// 333 58025 86895=
48826 31597 61103 10271 20268 39931 40059 58001 71322 869//
333 58019 83895 82995=
48838 32598 50000 10276 20268 30061 40067 58006 85200 333
58017 85895=
48839 32998 51605 10271 20267 39997 40061 58007 80008 333
58018 85299=
48845 32998 00000 10284 20260 30049 40056 58006 333 58021=
48848 32998 70000 10274 20260 30054 40052 57013 80008 333
58020 87299=
48855 32598 61101 10286 20275 30058 40066 58005 868// 333
58013 85895 83697=
48870 32498 50000 10294 20280 30063 40070 51001 85200 333
58007 82894 83895=
48877 32998 30000 10277 20235 30062 40067 50004 80008 333
58001 83299=
48887 32598 60000 10277 20257 30073 40079 58001 862// 333
58006 86895=
48900 32497 32202 10274 20261 30065 40075 57006 83800 333
59001 81894 83696=
48914 32998 70000 10276 20260 30084 40086 57006 80008 333
58001 87299=
48917 32598 62704 10295 20258 30070 40075 57002 81108 222//
00306 333 59007 81895 86299=
48918 32598 72703 10265 20258 30069 40080 56005 81108 222//
00294 2//// 333 59010 81894 87299=
53782 32975 42902 10204 20075 40093 57009 80002 333// 10297=
50442 32970 02701 10011 21011 40003 52009 333 10241=
54346 32965 02702 10183 20074 40069 57005 333 10286=
59849 32963 02701 10249 20239 40075 57007 333// 10329=
54186 32970 02505 10175 20019 40000 57011 333// 10223=
54337 32960 02202 10203 20084 39973 40053 57007 333 10327=
59855 32570 41802 10280 20266 40070 57009 84100 333// 10332=
54218 32980 02003 10185 20041 39408 40043 57005 333// 10302=
59845 32970 41803 10256 20245 40063 57018 80002 333// 10347=
59316 32464 71102 10272 20257 30089 40098 57014 874// 333
10321=
50774 32660 52702 10128 20072 39671 49952 52025 85800 333
10264=
53975 32962 00000 10156 20105 40119 57006 333// 10261=
53787 32980 51802 10168 20069 40099 57001 80002 333// 10274=
59493 32570 11402 10282 20252 40089 57008 81100 333 10328=
57067 11962 80000 10146 20134 39488 40147 57014 69911 70060
8807/ 333// 10172=
57127 11563 80000 10138 20118 39554 40148 57012 69901 76060
8172/ 333 10162=
58667 11558 80402 10191 20188 40130 57017 60041 71060 885//
333 10223=
58457 32763 80000 10212 20170 30075 40124 57014 885// 333
10293=
56080 32980 70000 10051 20031 37147 57004 80002 333// 05201
10159=
54471 32960 02007 10199 20114 30063 40068 57012 333 10258=
57516 11430 83401 10176 20168 39821 40126 57009 69931 76060
887// 333 00252 10197=
58606 11720 80000 10232 20222 30038 40091 57009 69921 76060
885// 333// 10297=
54662 32968 02202 10193 20053 39983 40098 57001 333 10273=
59948 32570 60201 10288 20267 30067 40075 57005 84102 333//
10327=
59673 11473 71102 10278 20267 40088 57007 60021 78000 879//
333 10318=
59096 11465 80000 10241 20232 40093 57012 60021 78098 884//
333 10312=
59087 31557 60202 10255 20248 40088 57010 71300 86902 333
10300=
51573 32970 00903 10274 21023 39969 40011 52007 333// 00000
10365=
51709 11970 30000 10207 20093 38652 40024 57002 69901 70080
80002 333// 05301 10305=
51716 32970 00000 10201 20106 38812 40010 52007 333// 05302
10314=
51811 11965 00000 10190 20105 38703 40016 52008 69901 70080
333// 05351 10315=
54094 32960 02504 10161 20075 39685 49962 57015 333 10246=
89664 32961 08002 11310 21340 30254 40294 52020=
16597 32965 03513 10219 20174 30067 40153 50003
333 10263=
91334 32472 80000 10255 20254 30085 40088 56010 83271 333 56999
70056 555 92818=
317071 316072 317070 321066 321064 323066=
56096 32780 80901 10174 20107 38894 40081 57015 885// 333//
05505 10230=
59954 32570 20000 10275 20265 40078 57007 82200 333// 10327=
58549 11761 81103 10230 20181 40117 57009 69901 76060 885//
333 10280=
53480 32980 00000 10117 20055 40101 57005 333// 10233=
57279 11465 80201 10153 20143 40151 57007 60091 72166 8372/
333 10248=
57399 32960 80202 10205 20116 40117 57008 8807/ 333 10262=
57461 11464 80000 10191 20124 39977 40134 57001 69921 76060
8277/ 333 10235=
53513 32970 02002 10170 20006 38919 40050 52004 333// 05502
10285=
58834 11763 83601 10228 20210 40112 57011 60211 70098 885//
333 10315=
59209 11562 80000 10234 20212 40065 57008 69901 72580 889//
333// 10267=
56294 32963 81803 10191 20146 39543 40119 57007 8807/ 333
00052 10245=
56459 11880 23203 10192 20103 37615 57002 69901 70080 82400
333 00005 10247=
56475 11480 80000 10123 20118 38328 57011 60041 70060 885//
333 00100 10151=
58027 32962 82701 10210 20113 30084 40133 57003 8807/ 333
10260=
54916 32960 12203 10202 20120 40132 57005 81030 333 10277=
54909 32968 72502 10176 20134 30065 40125 57004 8703/ 333
10273=
53463 32980 00000 10136 20063 38913 40085 57003 333// 05401
10258=
54602 32960 22501 10202 20132 40094 57007 80002 333// 10313=
57522 11440 80000 10176 20164 40129 57014 69931 76060 887//
333// 10215=
57662 11758 82901 10196 20170 30084 40125 57007 69941 76060
885// 333// 10250=
59663 32463 21602 10279 20262 30055 40082 57010 82100 333
10314=
54493 32974 00000 10113 20076 40087 52009 333 10277=
54324 32970 02204 10230 20044 40051 57004 333 10323=
54497 32965 00000 10150 20117 30075 40089 52011 333 10290=
58527 11656 80201 10241 20205 30016 40088 57012 69901 76060
885// 333// 10316=
51133 32980 13602 10161 20098 39440 40051 57011 80002 333//
05704 10240=
57504 11759 80000 10185 20160 40119 57011 69951 76000 885//
333 00152 10218=
59758 32470 21802 10278 20261 30053 40073 57009 81102 333//
10355=
50968 32970 02704 10178 20052 49965 52003 333 10262=
50557 32970 02703 10076 20021 39708 49990 52001 333 10275=
50788 32970 32905 10179 20071 39821 49899 57012 80002 333
10248=
50136 32670 62903 10074 20014 39487 49994 52001 86900 333
10178=
50844 32962 73605 10212 20035 49985 52020 80002 333 10319=
50658 32980 13402 10131 20027 49979 52019 81030 333 10292=
50756 32770 13403 10146 20055 39700 49974 52029 81500 333
10294=
50854 32970 03603 10205 20067 49972 52017 333 10307=
50963 32970 02503 10111 20081 39818 49945 57001 333 10273=
50246 32665 70000 10053 20011 49979 57005 87900 333 10191=
50983 32970 02903 10123 20088 49933 57011 333 10201=
50745 32964 00403 10152 20001 39830 49999 52037 333 10308=
50468 32975 02903 10082 21010 39770 49964 57001 333 10269=
50978 32980 03202 10152 20080 39664 49937 57018 333 10232=
54096 32970 02902 10102 20067 49969 57013 333 10213=
54527 32960 42002 10190 20136 40097 57002 80002 333 10309=
59046 11662 80000 10241 20238 40075 57009 60051 70098 885//
333// 10309=
57793 11530 80201 10219 20211 40102 57013 60211 78086 889//
333// 10259=
59644 32565 70000 10264 20258 30052 40067 57016 879// 333//
10318=
53915 32980 32901 10086 20074 38629 40130 57017 83040 333//
05355 10145=
54857 32962 83402 10202 20148 30026 40114 54000 80007 333
10254=
56287 11865 80000 10173 20151 40124 57011 69931 72160 885//
333 05101 10221=
59838 32980 01802 10278 20256 30053 40067 57013 333// 10331=
57866 11440 80206 10202 20200 39897 40097 57007 60061 78186
889// 333// 10245=
53898 32963 21803 10217 20105 40107 57008 80002 333// 10312=
59647 32960 70903 10276 20269 40063 57021 80002 333// 10314=
57006 32665 70702 10125 20096 40116 57015 875// 333// 05401
10187=
54157 32960 02006 10189 20082 40020 57003 333// 10300=
58477 32465 80202 10187 20157 30091 40134 57008 8717/ 333
10279=
58556 32660 81601 10223 20185 40121 57013 885// 333 10300=
58543 11965 80403 10213 20188 40117 57009 69931 76060 8807/
333 10295=
58666 11458 82003 10197 20194 30031 40130 57012 60011 78080
887// 333 10224=
58562 31658 81402 10211 20181 40126 57008 71000 885// 333
10288=
53543 32980 01803 10154 21003 38517 40082 57001 333 10240=
59632 32965 50902 10267 20254 40069 57012 85040 333// 10330=
50834 11980 22501 10151 20026 49991 52015 69901 70080 80002
333// 10310 91118 91529=
54027 32980 02508 10215 21017 39458 49997 57006 333// 10306=
50727 11980 01403 10042 20016 38887 40033 52013 69901 70080
333// 10282=
54026 32980 22504 10231 21011 39682 49979 57009 80002 333//
10327=
54115 32980 02507 10216 21038 40011 57004 333// 10271=
54226 32980 01602 10200 20030 40030 57016 333// 10297=
57584 11450 80204 10179 20172 40115 57011 60031 76066 887//
333// 10255=
59023 11740 80000 10247 20246 39828 40068 57011 60071 71098
885// 333// 10272=
58646 11630 80000 10200 20195 40125 57013 60031 76060 885//
333 10236=
59117 32665 70000 10244 20232 39995 40096 57016 874// 333
10349=
56666 32980 01402 10241 20179 49990 52005 333 05102 10342=
59058 11420 80000 10243 20242 40082 57005 69911 72160 885//
333// 10261=
54292 32970 00000 10116 20090 39796 40003 57006 333// 10253=
54049 32770 72505 10224 20028 49997 52005 86502 333// 10310=
50949 32765 12904 10216 20070 39825 49981 52014 81500 333//
10308=
54374 32962 03601 10088 20073 39691 40079 52006 333// 10249=
54273 32970 02203 10174 20077 40024 52002 333// 10265=
54161 32970 02509 10200 20100 39725 49995 52002 333// 10298=
54386 32970 00202 10060 20042 40082 52007 333// 10194=
59293 11561 80701 10257 20237 30045 40092 57013 69901 70080
888// 333 10330=
59254 11660 80000 10252 20242 40077 57003 60071 70098 885//
333// 10296=
50425 32970 00000 10040 21062 40037 52004 333// 10220=
57993 11660 80000 10248 20239 39944 40087 57011 69941 76060
885// 333// 10279=
54259 32965 02501 10145 20087 40061 52001 333 10282=
54236 32970 02005 10168 20096 39937 40034 57005 333 10316=
54342 32960 02003 10192 20080 39994 40053 57010 333 10306=
53502 31959 72502 10181 20025 40036 52001 70600 80002 333//
05503 10301=
52267 32780 73405 10228 21003 38985 49998 52010 82902 333//
05405 10310=
52378 32980 32204 10192 21060 49997 57004 80002 333// 05600
10298=
52576 32970 32703 10200 21009 38422 52006 80002 333// 05202
10282=
52495 32963 41809 10178 21008 38603 40013 57008 80002 333//
05605 10279 91117 91518=
53602 32970 02007 10130 20047 38381 57014 333// 10244=
59431 31570 71101 10250 20246 39927 40070 57010 71300 879//
333// 10315=
54135 32980 02205 10212 20005 39799 40003 57009 333// 10318=
58203 11920 80000 10185 20180 30089 40133 57015 69971 76060
8807/ 333 10223=
58437 11/00 91110 10119 20119 38161 57014 60031 74564 333
10166=
58102 11962 82702 10178 20145 30082 40131 57009 69941 76060
8802/ 333 10254=
58221 11658 83202 10196 20172 30109 40143 57002 69961 76060
885// 333 10242=
58314 11965 82702 10184 20148 30039 40124 57019 69901 70060
8807/ 333 10240=
58338 32760 80203 10213 20162 40120 57012 885// 333 10274=
58424 32960 83604 10227 20141 30083 40106 57011 8807/ 333
10277=
57766 11762 83201 10192 20176 40109 57011 60021 76060 885//
333// 10238=
57957 31540 80000 10238 20234 39894 40085 57009 71000 888//
333// 10253=
54843 32965 01801 10161 20134 30084 40110 57004 333 10295=
54863 32980 03203 10171 20102 40115 57001 333 10289=
54725 32965 82204 10209 20141 40107 57005 80007 333 10302=
53588 32980 00000 10096 21202 37807 57017 333 10160=
58715 11750 80000 10237 20231 40087 57008 60011 71060 8657/
333// 10272=
51628 32960 12701 10166 20116 40027 52010 80002 333// 05351
10295=
57290 11960 83401 10167 20152 40136 57006 69941 76066 8802/
333// 10224=
56385 11680 83202 10030 20026 37027 57010 60021 70064 885//
333 00100 10060=
58659 11757 80000 10200 20187 30102 40136 57012 60021 71080
885// 333 10237=
58464 32965 70902 10200 20174 40130 57011 8704/ 333 10279=
58472 32972 81102 10182 20160 30042 40138 57008 87047 333
10246=
58760 11758 80000 10200 20191 40129 57018 69931 71080 885//
333 10222=
58660 11757 80000 10217 20194 40129 57008 69901 72160 885//
333 10255=
55591 11579 80000 10069 20051 36554 52008 60061 78088 889//
333 00353 10189=
59265 11330 80000 10237 20234 39949 40082 57011 69991 76086
885// 333// 10312=
54945 32962 72504 10199 20139 40122 57003 80002 333// 10270=
56386 11862 80000 10187 20156 40121 57008 69901 70060 885//
333 00000 10219=
54401 32970 03402 10169 20043 39285 40095 54000 333// 10281=
59211 11665 80000 10248 20234 39863 40063 57013 69921 70060
8647/ 333// 10286=
53487 32965 03601 10140 20059 40088 57002 333// 10257=
53564 32980 21402 10187 20070 39129 40077 52004 80002 333//
05407 10278=
53863 32962 02505 10153 20078 40112 57003 333// 10264=
53772 32960 01405 10165 20087 39238 40106 52001 333// 10275=
53853 32970 00902 10132 20041 40114 57012 333// 10256=
53664 32970 80901 10163 20127 40101 52007 8807/ 333// 10270=
53959 32965 72701 10167 20145 39692 40129 57014 8703/ 333//
10228=
53868 31958 00000 10152 20125 40123 57008 71000 333// 10253=
57037 32965 80901 10147 20140 40122 57015 8807/ 333 05252
10177=
53845 32965 02502 10129 20061 39047 40115 57010 333 05253
10248=
59501 32565 31403 10275 20260 30091 40107 57006 83100 333
10311=
59417 11572 70901 10264 20250 39922 40069 57005 69901 71380
879// 333// 10314=
51818 32962 21402 10219 20042 40005 54000 80002 333// 05302
10319=
51839 32970 00000 10199 20033 40007 52001 333// 05351 10314=
51931 32970 00901 10175 20060 40026 52007 333// 05253 10317=
51705 32980 12702 10172 21003 37810 57003 80002 333// 05204
10255=
58847 11530 80000 10208 20202 30028 40128 57008 60021 76066
885// 333 10263=
53231 32980 01608 10165 21030 38420 57009 333// 05604 10255=
53391 32980 02202 10148 21003 38485 40077 57006 333// 05205
10227=
53352 32980 01805 10160 21028 40058 57002 333// 10251=
53276 32980 02209 10159 20005 38808 40059 57007 333// 10264=
53083 32980 02903 10150 21055 40016 52001 333// 05606 10275=
53149 32980 12204 10168 21011 38720 40037 57004 80002 333//
05504 10274=
53068 32980 02206 10184 21042 38979 40028 57003 333// 05606
10305=
53336 32980 02003 10153 21024 38651 40039 57004 333// 05503
10261=
53529 32980 02002 10144 20044 38593 40080 54000 333// 05302
10253=
52984 32980 00000 10091 20062 38042 57002 333 05352 10229=
52418 32970 71803 10207 20036 38807 40026 57001 80002 333
00151 10290=
52889 32980 01102 10144 20060 38436 40051 52001 333 05353
10257=
53646 32970 01603 10165 20063 38931 40088 52005 333 05304
10269=
56046 11980 80000 10030 20014 36284 57011 60021 70098 80007
333 00002 10111=
56029 32680 80000 10062 20039 36515 57001 889// 333 00101
10165=
52836 32980 20000 10063 20040 36911 54000 80002 333 05101
10139=
52955 32980 70000 10084 20038 36976 52004 80002 333 05204
10158=
52652 11980 82503 10169 20076 38463 40031 54000 69901 70080
8802/ 333 00151 10267=
52446 32965 82906 10226 20025 40013 52006 80007 333 05203
10286=
52707 31765 30000 10085 20018 37289 57008 70030 81502 333
00102 10194 91122 91532=
52825 32980 02506 10104 21009 37259 52006 333 05203 10183=
56125 11780 81403 10073 20018 36548 57002 60041 70098 889//
333 00251 10180=
56067 32680 70000 10064 20042 36550 57007 875// 333 05206
10110=
52842 32980 32701 10085 20014 36986 52003 80002 333 05206
10168=
53821 32980 31602 10116 20074 40103 57014 80002 333 05253
10216=
52787 32980 21403 10053 21027 37031 57011 80002 333 05201
10151=
52996 31/03 91605 10051 20051 37551 57012 74700 333 05301
10097=
54618 32961 32003 10217 20136 30079 40096 57007 80002 333//
10311=
54423 32980 00000 10142 20103 39648 40089 57002 333// 10297=
54308 32980 00000 10136 20049 40091 52002 333// 10298=
54518 32962 02202 10213 20101 40100 57001 333// 10322=
58931 11/00 92008 10162 20162 38364 57012 60051 74586 333
10199=
56571 32770 80000 10185 20136 38360 52001 888// 333 00003
10252=
56492 31756 80000 10194 20154 39728 40122 57014 71000 885//
333 00151 10215=
56188 11959 80000 10174 20151 40110 57009 69901 71080 807//
333 00051 10230=
57405 11765 80000 10179 20163 40125 57008 69971 78080 884//
333 10203=
53614 32965 02702 10127 20077 38865 40087 57009 333 05354
10261=
53593 32980 00000 10155 20084 40098 57004 333// 10268=
53798 32960 71603 10218 20161 30003 40091 57011 80002 333//
10306=
54102 32980 02006 10152 20034 38943 40030 52003 333// 10250=
59981 32980 21401 10281 20259 30077 40083 57011 80002 333//
10319=
56374 11175 80702 10073 20073 37431 57009 60091 70080 884//
333// 00101 10117=
57193 11762 80000 10165 20150 40137 57008 60011 72160 885//
333// 10234=
59082 11550 80000 10262 20254 30008 40082 57010 69901 79580
889// 333 10300=
59278 32560 20000 10261 20255 40085 57008 82400 333 10326=
58633 11656 80904 10211 20194 30016 40112 57005 69941 76060
885// 333 10285=
58569 32962 80402 10208 20199 40129 57007 8807/ 333 10249=
57237 11956 80000 10133 20122 40145 57008 69921 76060 8807/
333 10152=
56671 32780 23601 10198 20174 38172 52004 82402 333 00001
10266=
56173 32880 80201 10062 20033 36669 57005 889// 333 05107
10115=
56172 11780 80000 10109 20088 37345 57001 69901 76000 885//
333 05306 10212=
56182 32980 00000 10079 20056 37208 57001 333 05105 10171=
56079 32780 71603 10051 20021 36702 57009 82502 333 05106
10103=
57447 31950 80000 10175 20167 39604 40133 57007 71000 8807/
333 10191=
57476 32962 83603 10187 20112 40129 57009 8807/ 333 10246=
54208 32980 02504 10146 20004 38711 40068 57007 333// 10233=
54012 32980 52507 10170 20006 38918 40004 57002 80002 333//
10260=
53192 32980 02702 10137 20016 38819 40050 52004 333// 10261=
50915 32580 22902 10167 21008 39081 40000 52011 81902 333//
10303 91118 91527=
57265 11360 82503 10150 20138 30035 40142 57020 60031 76066
8772/ 333 10225=
57378 11765 83403 10167 20124 40138 57009 69901 72100 885//
333 10236=
57494 11962 83202 10190 20169 30084 40112 57010 69941 70060
8807/ 333 10250=
59658 11466 71403 10281 20269 40077 57010 69911 71380 879//
333 10320=
57297 11362 83203 10144 20140 39997 40133 57015 60031 76066
887// 333// 10220=
58208 11662 80402 10186 20120 40123 57013 69911 70060 885//
333// 10231=
54377 32970 02002 10109 20083 40089 52006 333// 10268=
53738 32975 00000 10113 20072 40105 57012 333 10224=
51431 32980 10403 10182 20061 39298 40037 57001 80002 333//
05604 10280=
54311 32980 00000 10125 20041 40081 52004 333// 10268=
54624 32965 02002 10196 20121 40105 57005 333// 10317=
58506 11563 81411 10164 20154 40094 57018 60031 76064 885//
333// 10233 91119 91514=
57799 11759 82901 10227 20217 30002 40083 57017 69901 71060
885// 333// 10252=
57411 32763 80000 10171 20159 39768 40129 57010 8557/ 333
10183=
54429 32980 00000 10172 20113 40089 57004 333// 10304=
54436 32980 00000 10165 20089 40089 57001 333// 10307=
54539 32975 02503 10198 20104 30083 40097 57001 333// 10307=
57432 11830 80000 10183 20177 40121 57008 69971 71060 885//
333 10190=
57426 11440 80401 10165 20160 40127 57011 60021 76066 887//
333 00200 10173=
57633 11460 80401 10158 20136 39366 40125 57014 69951 76060
887// 333 00257 10225=
57348 11765 80903 10156 20117 40131 57006 69931 72160 885//
333 10180=
57083 32960 82502 10208 20106 30001 40130 57012 8807/ 333//
10273=
58665 11650 82001 10200 20187 40127 57008 69941 72160 885//
333 10239=
57816 11657 83603 10143 20136 38762 40110 57012 69971 76066
885// 333// 00152 10181=
56196 32973 81401 10185 20141 40117 57008 8807/ 333 00152
10257=
56137 11580 82503 10083 20061 36833 52019 60021 78080 889//
333// 00100 10182=
56116 11476 80000 10041 20023 36378 52006 60091 76086 8672/
333// 00251 10157=
56223 11575 80000 10051 20040 36557 52009 60101 76186 8572/
333// 00102 10166=
56331 32680 70000 10075 20057 36419 57004 85402 333// 00153
10130=
56152 11580 82903 10035 20021 36342 52002 69911 78080 889//
333 00101 10126=
56146 11880 80000 10103 20056 36739 57009 69901 76000 885//
333 05104 10194=
53882 32963 00000 10136 20083 40123 57007 333// 10252=
53663 32980 02203 10121 20036 40099 52001 333// 10232=
53673 32980 02901 10170 20061 40097 52002 333// 10282=
53764 32970 01602 10166 20061 40099 54000 333// 10280=
59321 11662 80408 10239 20230 40112 57010 69901 70060 885//
333 102//=
56247 11880 60000 10136 20113 37414 57003 69901 70080 84402
333 00357 10224=
56462 11580 83201 10128 20117 37132 57003 69901 78080 884//
333 00101 10190=
56257 11680 80000 10077 20050 36300 57005 69911 70080 889//
333 00152 10154=
56357 32680 71602 10112 20031 36467 57005 874// 333 00101
10191=
56144 11480 80402 10093 20081 36887 52016 60041 78080 889//
333 00200 10184=
57245 11962 81802 10143 20134 39811 40155 57012 69921 70010
8802/ 333 00052 10168=
57016 32965 80000 10149 20133 40129 57020 8807/ 333 10165=
57036 32962 80000 10158 20144 39665 40130 57012 8807/ 333
10170=
57046 32469 71803 10071 20036 37929 57014 8153/ 333 05351
10087=
57144 11670 80000 10128 20121 40154 57013 69911 70060 8257/
333 10148=
58813 11660 80000 10244 20229 40079 57010 69901 70080 8647/
333// 10276=
56065 32680 70903 10046 20004 36638 57005 83508 333 05204
10113=
53923 32980 01602 10094 20079 40128 57012 333 10152=
52447 43975 82705 10224 20019 40021 57007 8802/ 333 00005
10301=
52674 32980 72905 10135 20023 37982 52001 80002 333 05106
10232=
57134 11465 80000 10102 20100 40132 57009 69921 76066 8657/
333 05100 10140=
57106 32965 70703 10139 20094 40136 57011 8703/ 333 05202
10198=
52856 32680 82703 10128 20023 37204 52004 889// 333 05305
10183=
52765 32980 72701 10056 20030 37179 57004 80002 333 05252
10173=
52323 32980 02502 10104 21009 38190 57003 333 00054 10244=
56033 11680 83402 11014 21033 36063 52005 60041 72680 889//
333 00151 10085=
52866 32980 73202 10112 20044 37674 54000 80002 333 05303
10223=
52754 11580 83409 10032 20000 36806 57006 69941 70080 889//
333 05201 10121 91118 91536=
52986 32980 00000 10100 20057 38078 57005 333 05352 10213=
57853 11440 83601 10193 20187 40109 57005 60011 76066 8772/
333// 10222=
57687 11356 82703 10187 20177 30028 40106 57012 69921 76066
8772/ 333 10273=
89054 32115 61104 11038 21043 40201 52010 86600
333 72200 86703=
89056 31908 11103 11044 21047 40214 52012 74144 81500
333 73300 81620=
89057 31101 81102 11050 21053 40217 52011 74644 886//
333 73000 88702=
89058 31258 11408 11039 21039 40211 52010 71040 81600=
89059 32660 82004 11034 21067 40211 52006 885//
333 75599 88640=
89251 31557 10601 11030 21033 40190 52010 71010 81500=
89009 41661 10509 11682 36948 52003 77670
333 81241=
78897 32575 71314 10299 20213 40133 58016 87831
333 02396 10307 20242 59015 70016 85820 83646=
78583 11574 70910 10300 20254 40129 69901 70166 83232 333
02336 58000 70094 83824 87358=
33815 32698 30701 10253 20114 40148 57002 82401 333   10296=
60096 32958 00214 10220 20186 40107 56013
333 10243=
60101 12965 23208 10232 20141 40201 56003 69922 80002
333 10240 83070=
60115 32975 23610 10261 20129 40170 56002 80002
333 10287 82073=
60135 32960 23610 10215 20157 40197 55000 80002
333 10242 82070=
60150 32560 23210 10270 20140 39548 40166 53001 82202
333 10274 82820=
60156 32960 20216 10231 20146 40187 53001 80002
333 10258 82070=
60230 32660 51402 10333 20121 40137 58005 82902
333 10337 82940 84073=
60060 32457 73407 10205 20173 40171 58001 875//
333 10215 83710 86616 95300=
60105 32960 23412 10211 20194 40194 56005 80001
333 10226 82070=
60106 32965 00208 10270 20157 40190 55003
333 10285=
60107 32960 00204 10242 20139 40188 56002
333 10252 95300=
60127 32970 00000 10298 20098 39599 40161 53002
333 10315=
60141 32560 13008 10271 20117 39523 40163 55002 81200
333 10282 81826 94400 95800=
60185 32470 20217 10247 20163 40178 53003 82500
333 10283 82616=
60190 32565 32808 10344 20049 39570 40132 56003 82202
333 10346 82826=
60191 32565 32605 10327 20113 40130 56003 82902
333 10340 81830 82933=
60195 32575 3//// 10277 20086 38542 48559 57004 83200
333 10294 83833=
60210 32675 32005 10325 20105 38997 48552 58007 83300
333 20327 83830 81933=
60265 32670 42404 10324 21023 38895 48547 56007 84802
333 10347 83840 81850=
60318 32965 03204 10285 20171 40194 58007
333 10290=
60340 32970 01006 10250 20201 40182 54000
333 10274=
81405 01258 80102 10249 20237 40100 60111 72162 8787/
333 59004 60027 84805 83820 88359
555 10250 20228=
48698 31962 70000 10276 20252 30068 40086 70522 81038 333 81366
86080=
91643 31499 31008 10281 20260 40091 53010 70200 83200 333 562//
83819=
91631 31599 20902 10267 20249 40087 70312 82108 91743 333 562/9=
91648 31599 10000 10277 20244 40096 53006 70200 81100 333 562//=
61902 32584 31015 10276 20199 40118 83100 333 10294 59008 83823=
88889 11281 81302 10042 20037 40130 57003 69961 76166 8552/ 333
82704 85620 88550=
45007 32470 61402 10286 20247 30081 40090 58008 82130
333  58021 81812 85360 =
78388 32578 20314 10308 20242 40130 82801 333 02200 10323
20245 59012 81822=
91554 32581 11003 10225 20217 40099 53004 81100
333 563// 81825=
91555 31560 11115 10255 20206 40106 5//// 705/1 81100
333 563// 81820=
91557 32580 10000 10182 20182 40123 53004 81100
333 563// 81820=
91568 32580 10000 10180 20175 40122 5//// 81100
333 563// 81825=
60710 32565 52904 10213 20181 30099 40176 56004 82202
333 10242 82820 84070=
60714 32570 53110 10215 20168 30169 40176 52003 82202
333 10255 82820 84070=
60720 32960 23206 10219 20172 30131 40166 53002 80002
333 10253 82070=
60728 32560 23608 10242 20172 30163 40167 54000 81202
333 10274 81823 92426=
60738 32560 03212 10200 20087 38961 48544 53001 82202
333 10206 82823 83070=
60748 32560 23606 10272 20141 39761 40160 54000 82200
333 10284 82826=
60750 32565 11006 10233 20190 30138 40170 56001 81200
333 10276 81820=
60740 32965 00506 10235 20178 30163 40166 55000
333 10255=
60745 32560 42206 10277 20120 39799 40153 54000 84200
333 10286 84830=
60764 32560 32706 10294 20172 30128 40177 57006 83500
333 10304 83070=
60770 32958 00406 10258 20156 30027 40262 55005
333 10279=
81408 06/// /0506 10266 20248 40093 64081
333 59007 69947=
81415 06/// /0604 10228 30221 40108 60141
333 58001 60147=
89642 43/// /1427 11123 21146 39825 49880 55006
333 01656 91045 91156=
91348 11474 89903 10250 20236 30046 40098 57002 60071 70282 85231
333 56399 70142 555 92818=
17601 32975 02613 10217 20180 40111 55001 333 10279=
11036 32780 61808 10244 20113 39842 40057 55007 81182 333 10269
81856 83363 91115 91211=
11010 32782 83107 10177 20088 39737 40099 52026 8687/ 333 10228
82850 85657 86362 91114 91209=
11120 11570 70603 10154 20134 39420 40096 52018 69902 78082 8687/
333 10240 81625 83856 85657 91114 91208=
11150 11470 89901 10145 20127 39598 40119 51020 60022 72186 888//
333 10218 81712 84829 86645=
11240 32780 51803 10222 20110 39686 40079 57004 82871 333 10265
81856 83360 85364=
11816 32782 71705 10247 20113 39916 40069 55012 81972
333 10273 81950 84360 =
11826 32980 61606 10250 20136 39881 40067 56014 85051
333 10277 85363 =
11903 12880 72202 10236 20141 39720 40075 57009 69932 86401
333 10287 86657 =
11934 32782 41602 10203 20096 39313 42755 57012 83442
333 10256 83656 =
11968 32783 11602 10229 20158 39831 40094 56012 81400
333 10293 81656 =
11841 32780 41803 10252 20110 39706 40055 57011 82148
333 10282 82856 84270 =
11858 32681 31703 10253 20145 39939 40080 56007 81102
333 10303 81840 83070 =
11916 32482 61813 10099 20066 37970 48456 57012 84263
333 10121 84810 91120 =
11927 11765 61902 10256 20118 39836 40079 56008 69902 79511 85902
333 10303 84956 =
11930 32/82 22104 10047 20044 37390 47088 58014 82441
333 10063 826// 91009
444 26//5 =
11993 32970 01802 10243 20144 39896 40098 57012
333 10296 =
11855 32780 61503 10238 20105 39922 40077 57006 81942
333 10292 81956 83360 =
11867 32781 72005 10243 20141 39780 40075 56009 81441
333 10279 81650 83360 87072 =
11880 12661 61901 10254 20139 39918 40078 57007 69902 83431
333 10306 83643 =
11918 12786 41605 10218 20076 39295 42741 57017 69902 82202
333 10256 82850 91012 =
11933 32680 61302 10159 20089 38625 48481 57013 84242
333 10202 84836 =
11976 32975 11801 10237 20142 39847 40094 57014 80002
333 10281 81070 =
11978 32680 11202 10247 20172 39976 40097 57012 81100
333 10298 81846 =
12772 32681 11703 10264 20110 39825 40090 56011 81300
333 10303 81933=
12822 32975 51703 10252 20109 39941 40075 57010 81042 333 10293=
12843 35/83 /2302 10271 20133 39927 40085 55005 333 10314=
12882 32780 11802 10272 20125 39972 40096 56011 81260
333 10305 81856=
12925 32984 31701 10235 20149 39926 40088 55007 81042 333 10279=
12942 32670 31901 10255 20166 39862 40093 57008 81301
333 10290 81946=
12982 32965 11504 10268 20121 30000 40095 55006 81082 333 10313=
54808 32968 01803 10180
20144 40116 57005 333// 10299=
91408 32474 21303 10250 20241 30056 40094 57024 81131 333 56399
70046 555 92818=
54826 32968 72507 10122 20068
38461 57012 80002 333// 10173=
10004 46/58 ///13 10108 20102 39888 49888 57014
222// 00122
333 10132 /0097 55300 91122 91217=
10015 11458 81821 10101 20079 39892 49902 56036 60032 76086 877//
222// 02116
333 10127 20097 553// 87712 91129 90261 91218 91223=
10020 11458 81814 10101 20075 39891 49926 58020 60022 78096 879//
333 10129 20101 55300 2//// 84816 83920 85626 91121 91215=
10055 11580 62010 10153 20055 39972 49982 55004 60012 71586 86900
333 10167 20107 55305 84920 84633 91119=
10147 11680 72212 10136 20032 39970 49988 53005 60032 70286 878//
333 10173 20101 55300 81845 87650 91121 91216=
10162 16/60 /2006 10147 20079 39920 40000 51006 69902
333 10182 20101 55308 91117=
10184 32682 81906 10180 20108 30006 40013 56017 8451/
333 10181 20117 55304 84648 88465=
10224 11572 72315 10114 20048 39988 49994 53013 60012 76081 875//
333 10172 20096 55301 87633 91126 91218=
10270 11681 72305 10177 20076 39979 40032 57003 69932 72162 82236
222// 06167
333 10184 20112 55300 82833 87280 91116=
10338 11582 42210 10119 20052 39962 40033 52027 69912 72581 84901
333 10174 20115 55308 81930 83840 91123 91215=
10361 11682 72104 10158 20071 39944 40044 53012 69932 78062 8637/
333 10171 20091 55304 84939 85656 91116=
10384 11681 72107 10186 20086 39981 40038 58006 69902 70162 8127/
333 10202 20106 55300 81844 87463 91113=
10393 11782 82005 10174 20093 39929 40051 58002 69972 70262 8237/
333 10213 20110 55300 20269 30255 82956 88462=
10400 11580 62511 10121 20044 30025 40074 53029 60022 78181 86300
333 10162 20105 55305 83932 83840 91128 91218=
10438 11588 42504 10156 20007 39787 40059 53021 69942 70286 83202
333 10169 20109 55306 83828 91117=
10469 11682 71906 10169 20092 39895 40053 56002 69902 70362 85832
333 10209 20106 55300 83845 84657 85363=
10488 11583 71904 10156 20124 39800 40071 51005 69962 72162 8682/
333 10207 20099 55300 81830 86650 87460=
10548 11583 52306 10136 20050 39542 40067 53005 69902 70182 84232
333 10152 20076 55302 84830 91119 91211=
10637 11786 22609 10168 20001 39952 40085 53013 69952 70281 81831
333 10188 20123 55309 81856 91117 91213 96481=
10685 11575 62006 10126 20092 39424 40079 58004 69942 72562 83832
333 10194 20083 553// 81820 84080 91115=
10738 11386 73402 10123 20110 39650 40108 53014 60022 78062 85831
333 10170 20090 55300 81708 84650 86360 91113=
10763 11570 82403 10120 20097 39729 40103 53010 60022 76086 878//
333 10207 20095 55300 20081 82822 84640 87656 91116 91211=
10788 11458 82202 10142 20134 39685 40104 51010 60032 76162 8272/
333 10207 20125 55300 82710 88556 96463=
10852 11675 72105 10136 20103 39553 40105 53003 69942 76086 8427/
333 10189 20104 55300 84845 86358 91114=
10946 11568 82001 10119 20095 39310 40121 53011 69912 76162 878//
333 10179 20081 55300 83820 87650=
10091 11586 71910 10162 20103 39960 40009 56023 69902 70162 82878
333 10164 20123 55300 20403 30403 81823 83360 91115 91211=
10113 11460 72212 10107 20098 39895 49913 55009 60032 76186 878//
333 10137 20089 55300 85815 87640 91125 91215=
10129 11464 72119 10109 20069 39949 49962 54000 60022 78086 872//
222// 02172 2//03
333 10168 20098 55300 82710 87815 91128 91222 90245 91218 90226
91221 90323 90215 91221 90308=
10131 11572 81914 10100 20058 39937 49951 58007 60032 72198 875//
333 10161 20100 55300 87623 91124 91215=
10170 11582 82011 10167 20069 39984 49998 55002 69902 70386 8537/
333 10182 20115 55301 85930 87461 91120 91211=
10253 16/60 /2408 10154 20036 30009 40030 53010 69992
333 10180 20096 55307 91117 91211=
10280 16/60 /2008 10173 20100 39923 40017 56015 69902
333 10179 20104 55300 91117 91212=
10291 11682 72107 10187 20087 39970 40034 56015 69902 70262 8117/
333 10207 20104 55300 81840 87463 91114=
10305 11475 72307 10097 20057 39983 40014 53031 60052 72582 878//
333 10156 20090 55300 83813 85819 85635 91123 91214 96480=
10315 11670 62411 10116 20039 39968 40031 51024 60032 70282 85201
333 10165 20093 55302 85840 85075 91125 91216=
10348 11684 42505 10151 20021 39935 40038 52021 69902 70181 83801
333 10180 20105 55307 83845 91117=
10385 11683 72106 10185 20081 39982 40041 58008 69902 70162 8287/
333 10206 20112 55300 82840 87462=
10427 11589 42410 10054 20023 39072 48388 53021 60022 72581 83201
333 10112 20053 55304 83823 91124 91216=
10453 11489 52313 10061 20036 38741 48381 53039 60022 72542 83241
333 10068 20034 55302 83810 91138 91231 96280 96481 96445=
10474 11684 72306 10178 20082 39924 40048 55000 69902 70362 84821
333 10202 20097 55300 20326 81833 84650 85462=
10490 16/59 /2105 10172 20095 39942 40059 58003 69942
333 10214 20110 55300 20135 91114=
10499 11261 82903 10151 20123 39799 40078 53007 69992 76162 8117/
333 10200 20109 55300 81805 88357=
10501 11686 62304 10109 20059 39835 40078 51026 60012 72581 85861
333 10156 20099 55304 81846 85658 91123 91213=
10513 11586 62706 10119 20054 39962 40081 51026 69932 85931
333 10178 20099 55305 81925 85845 99012 91121 91214=
10532 11782 42806 10156 20029 39849 40077 53023 69952 70261 83240
333 10180 20112 55305 83850 91119=
10544 12684 52408 10099 20030 39019 48416 53011 60012 82231
333 10117 20053 55308 82834 83076 91124 91217=
10554 11689 62409 10145 21003 39683 40058 53013 69901 70262 82832
333 10170 20095 55307 20873 82840 85076 91121 91215=
10577 11584 72307 10143 20090 39583 40070 58002 69902 72162 8425/
333 10202 20108 55300 20148 30147 84828 87359 91117 91212=
10578 11288 82413 10073 20065 38715 48420 58007 69912 70286 872//
333 10140 20053 55300 20107 30102 87803 91119 91214=
10609 11684 32705 10144 20020 39771 40092 52016 69912 70261 82231
333 10166 20113 82845 91118=
10655 11483 72305 10135 20096 39764 40082 51008 69912 70286 82878
333 10184 20085 55301 81819 85362 87275 91116 91211=
10688 11575 82401 10126 20114 39582 40093 58005 60022 75862 888//
333 10201 20111 55300 82823 88631=
10708 12784 32506 10138 20048 39727 40102 53011 60022 82941
333 10157 20107 55305 82950 91116 91212=
10729 11686 42605 10171 20024 39973 40090 52009 69932 70181 82840
333 10179 20122 55302 82840 91114=
10776 11458 82002 10143 20143 39676 40108 52004 60032 76362 878//
333 10212 20118 55300 82813 87630=
10803 11384 72205 10144 20113 39772 40123 51018 60032 70362 83248
333 10180 20130 55301 81706 83823 85359 96463=
10836 11186 72706 10094 20084 39251 40105 53007 60042 72884 8387/
333 10163 20082 55300 81702 83625 86461 91119 91213 98689=
10929 11564 82502 10130 20127 39600 40121 53008 60032 76362 8172/
333 10175 20088 55300 81823 88459=
10961 11/02 82007 10004 20004 37059 47030 57003 69912 77174 885//
333 10021 21003 55300 886// 91116 91212 96041 96471 96468 96445 98404=
10962 11468 82706 10099 20086 39003 48462 53003 60032 76362 885//
333 10176 20078 55300 82715 88630 91117 91212=
11938 32682 41604 10193 20101 39086 42750 57014 84401
333 10227 84646 =
54751 32962 02004 10188
20087 40107 57003 333// 10217=
54511 32965 02302 10208 20078 30045 40082 57007
333 10317=
11101 11565 81001 10134 20133 39609 40119 53012 60022 76382
885// 333 88630=
11022 32680 63311 10186 20112 39682 40052 55002 84982 333 10258 81935
84838 90403 91118=
11028 36/// /2506 10211 20120 39744 40068 333 10291 90404 91114=
11130 11575 83602 10152 20097 39534 40100 52018 69902 70362
885// 333 10215 81727 88650=
11157 32682 79902 10195 20104 39330 40055 50001 8387/ 333 10249 81845
83656 86465=
11172 32775 50000 10197 20074 57008 85100 333 10236 85850=
11204 36/// /1205 10179 20108 39330 40079 333 10202 90436 91114=
11231 32682 89901 10198 20117 39556 40095 57005 8187/ 333 10245
81845 87464=
54776 32980 12504 10214 20039 30056 40112 57003 80002
333// 10216=
52740 16/// /3303 10051 29074 36863 60000
555 1/132 2//00 /////=
11423 01161 82403 10105 20105 39236 42735 55005 60032 76166 887//
333 10186 69935 88702=
11464 11270 72510 10101 20090 39127 42726 55002 60022 70262 85770
333 10206 85704=
11487 01364 82702 10120 20115 39497 40103 52014 60012 76162 8382/
333 10223 69945 81809 83656 88457=
11518 11563 82305 10131 20110 39672 40099 51017 60022 76162 8452/
333 10220 81726 84646 88557=
11659 01357 83207 10131 20126 39477 40096 50020 60042 79581 889//
333 10232 60045 88908=
11782 32775 61905 10240 20135 39767 40061 57006 81872
333 10262 81850 86360=
60715 32960 53112 10244 20135 30161 40166 53003 80002
333 10274 85070=
60725 32560 33406 10244 20162 30011 40175 53006 81202
333 10275 81820 83070=
60735 32565 31006 10269 20149 30082 40160 57004 83202
333 10299 83826=
60760 32560 32606 10303 20117 30028 40133 58013 83200
333 10318 83830=
60765 32560 10608 10246 20208 30158 40164 55004 81200
333 10267 81820=
60769 32558 10810 10234 20181 30158 40163 57002 81200
333 10266 81820=
60775 32562 40708 10260 20111 39819 40161 53002 84200
333 10283 84826=
54836 32960 00000 10196
20114 40117 57009 333// 10280=
91376 11472 80813 10260 20230 30091 40095 53008 60151 76186 8487/
333 5622/ 70183 555 92818=
57001 70000 80/// 91750
333 10170 20107=
57178 11962 82702 10170 20142 39984 40138 57016 69921
70060 8807/ 333// 10224=
33506 32698 20000 10240 20138 40175 57002 82100 333 10286=
33587 32697 20000 10219 20146 40161 57005 82500 333 10293=
33658 32997 21104 10230 20098 40127 57006 82030 333 10295=
33663 32998 00000 10243 20135 40143 57007 333 10309=
33711 32998 20403 10231 20134 40163 57006 82030 333 10286=
33791 32997 51404 10263 20104 40157 56004 85030 333 10297=
33910 32998 00502 10215 20125 40168 57006 333 10260=
33946 32997 09904 10189 20083 40162 55002 333 10285=
34300 32997 00000 10242 20128 40171 58002 333 10287=
34504 32997 30000 10237 20119 40166 57004 83040 333 10305=
34519 32960 30000 10232 20123 40167 57003 83030 333 10272=
34601 32997 50000 10221 20111 40170 55001 85030 333 10290=
10130 82818 83822 86635 91018 91127 91221 555 51120 51214 53029=
17600 32965 03006 10220 20200 30108 40124 53006
333 10274=
17609 32970 02502 10234 20174 40110 53004
333 10294=
17022 32970 33003 10181 20168 40140 58009 83030 333
10210 83360 92428=
17038 32665 60000 10185 20173 40157 53002 83150
333 10215 83835 86360 92427=
17050 32970 00704 10251 20101 40140 55000 333 10294=
17060 32960 00312 10204 20124 40136 57004
333 10264=
17096 32570 20908 10130 20034 38224 48477 53004 82100
333 10194 82830 10091=
17124 32665 43104 10214 20126 39245 40121 56003 81130
333 10252 81840 83360=
17128 32670 33103 10184 20072 39058 40110 57003 83200 333 10238 83840=
17170 32670 20000 10132 20061 38330 48494 53005 82100
333 10182 82835 10106=
17195 32670 33002 10164 20096 38963 48501 53002 83100
333 10214 83835 10134=
17200 32670 43012 10220 20096 39152 40080 53002 84200 333 10264
84840=
17219 32965 31006 10236 20149 40125 52009 80001
333 10309 83070=
17240 32575 41506 10204 20108 39012 40106 55002 84200
333 10256 84830=
17244 32970 09903 10176 20073 38984 48501 53001
333 10226 10118=
17280 32970 00000 10236 20028 39319 40065 53003 333 10303=
17350 32960 01706 10232 20164 40105 52010 333
10308=
17034 32670 70901 10192 20161 40148 53002 84270 333
10216 84835 87359 92438=
17070 11965 01802 10152 20129 39303 40151 56004 60102
70198 333 10258=
17084 11670 72202 10168 20129 39260 40136 53002 60022
70382 84270 333 10238 84835 87360=
17090 32965 02904 10146 20103 38718 48502 52008 333
10200 10127=
17098 32670 20609 10106 20068 38213 48505 52006 82100
333 82835 10144=
17150 32960 03408 10211 20120 40130 53006 333 10282=
17160 32670 63602 10174 20122 39011 48508 56002 84250
333 10220 84840 86360 10125=
17184 32670 30207 10262 20163 40104 53007 83200 333
10327 83840=
17190 32670 30000 10178 20108 39010 48500 56002 83100 333
10230 83835 10117=
17210 32975 00000 10235 20074 39087 40055 53004
333 10292=
17234 32970 32904 10252 20132 40108 53009 80001 333
10342 83070=
17260 32970 03304 10240 20111 39300 40072 53002 333 10298=
17370 32965 03201 10244 20194 40112 53008
333 10295 92427=
17056 32970 00304 10215 20169 40142 56003 333 10232
92418=
17092 32665 52106 10188 20070 38829 48482 53002 83230
333 10236 83840 85360 10089=
17112 32970 30306 10222 20188 40136 54000 80001
333 10265 83070 92418=
17115 32960 00108 10195 20108 40132 56002 333 10230=
17116 32970 02103 10240 20122 40121 54000
333 10278=
17188 32670 22703 10220 20085 39084 40093 55002 82100
333 10264 82840=
17202 32970 22004 10198 20034 39104 40086 53004 82030
333 10280 82360=
17248 32975 03602 10202 20079 38960 48496 54000 333
10246 10110=
17292 32970 00903 10220 20146 39390 40112 54000 333
10300=
17300 32570 20904 10238 20158 40104 52008 82100
333 10315 82830=
17330 32670 13402 10230 20182 40102 55001 81100 333
10294 81840=
17042 32970 33602 10190 20165 40170 53001 83030 333
10246 83360 92438=
17074 32670 72002 10162 20112 39238 40140 56002 84270
333 10225 84834 87460=
17085 32970 00000 10202 20114 40124 55000 333 10246=
17100 32970 00000 10200 21050 39152 40098 51007
333 10246=
17140 32665 50701 10157 20116 38708 48504 53002 85200
333 10197 85840 10126=
17203 32670 50000 10200 20085 38840 48517 53003 83150
333 10276 83840 85360 10113=
17205 32680 30000 10150 20063 38330 48495 54000 83200 333 10196
83840 92418 10098=
17237 32670 12503 10260 20119 40098 55004 81100 333
10308 81840=
17250 32675 20702 10172 20091 38803 48507 52003 82100
333 10212 82840 10129=
17255 32970 03008 10240 20168 39447 40083 52011 333
10302=
17375 32975 03202 10244 20181 40108 53006 333 10306
92418=
54753 32970 01802 10170 20075 30106 40112 54000 333//
10233=
12205 11570 71505 10180 20130 30025 40033 57021 69982 70382 873//
333 10192 20142 91115=
12465 11560 50501 10192 20172 39837 40058 58017 60042 72981 83230
333 10281 20142 91113=
12560 11698 61502 10234 20136 39739 40062 56017 69902 70182 83542
333 10270 20127=
12695 32670 30000 10245 20140 39781 40100 57008 83900
333 10288 20188=
12120 12498 71603 10167 20115 30049 40056 58015 69912 84532
333 10181 20113 91114=
12250 12597 51701 10210 20149 39974 40058 57021 69912 81231
333 10218 20130=
12330 32665 71701 10203 20145 39957 40060 56010 875//
333 10211 20123=
12375 11970 71403 10179 20150 39949 40074 57008 60022 72998 84033
333 10279 20142 91122=
12424 11599 73004 10208 20142 39915 40059 55007 69902 71781 8497/
333 10242 20128=
12100 32565 71403 10180 20117 30034 40040 57017 873//
333 10198 20135=
12105 32598 81604 10171 20141 30010 40050 56013 8127/
333 10180 20125 91111=
12135 32497 61201 10144 20130 30064 40067 57021 86500
333 10146 20112=
12235 12997 61503 10157 20132 39860 40062 58017 69902 83038
333 10159 20120 91112=
12400 11565 82304 10151 20133 39851 40078 53012 69932 78122 879//
333 10214 20102 91112=
12435 31560 72401 10212 20164 39894 40056 56012 71711 879//
333 10236 20130=
12495 32697 20201 10202 20129 39818 40095 57007 81301
333 10284 20178=
12510 11097 72210 10076 20065 38320 48437 55003 60032 79584 869//
333 10091 20048=
12520 11658 83203 10188 20169 39658 40070 57004 60092 79598 8495/
333 10240 20117 91013 91113=
12570 11598 70601 10188 20171 39777 40079 58017 60072 70198 81438
333 10277 20161 91118=
12575 32660 21802 10251 20132 39841 40079 57012 81303
333 10298 20186 91110=
12595 32698 41501 10254 20212 39855 40098 56009 83201
333 10294 20200=
87637=
83362 86075=
10143 81925 83075=
10156 81925 84830 96295=
54715 32970 01802 10191 20173 40105 57010
333// 10313=
59287 32661 31401 10268 20255 30042 40091 57010 83400 333XX
10319 =
10321=
59985 32580 71401 10273 20262 30067 40072 57008 81102 333//
10335=
58040 32960 82002 10201 20150 30120 40124 57004 8807/ 333
10274=
12160 12598 70602 10175 20149 30012 40063 58025 69942 82236
333 10177 20117=
12210 11597 81402 10161 20136 39979 40045 56014 60022 72522 8591/
333 10194 20118 91111=
12310 11670 81703 10174 20096 30023 40051 50000 69932 70282 8497/
333 10218 20121 91112=
12399 32598 31401 10242 20140 39940 40098 56007 81402
333 10296 20193=
12418 12597 82702 10202 20126 39955 40063 55002 69912 8127/
333 10222 20124=
12469 11598 71302 10203 20138 39843 40062 58018 60012 70398 83968
333 10282 20136=
12488 11597 61502 10194 20154 39931 40078 58013 60022 72981 84302
333 10296 20166 91121=
12540 32697 62201 10238 20181 39819 40054 58014 82231
333 10271 20131 91114=
12566 11965 60503 10225 20161 39798 40070 57018 60092 70198 80002
333 10270 20171=
12625 11780 51702 10204 20098 39129 42744 56013 60052 70198 81263
333 10240 20148 91111=
12690 32698 21403 10235 20125 39624 40102 56012 81930
333 10271 20178 91110=
12115 32497 61604 10171 20110 30039 40052 57015 84370
333 10183 20117 91113=
12125 11997 41602 10162 20124 30008 40057 58016 69982 7008/ 81032
333 10175 20121=
12200 11480 61803 10184 20112 30018 40024 56019 69922 70382 83530
333 10192 20139=
12272 12570 71101 10216 20144 39904 40062 57025 69902 879//
333 10225 20122=
12280 31570 71401 10222 20156 39919 40071 57019 71711 85901
333 10250 20125=
12285 16/// /9907 10174 20142 39986 40096 52010 60012
333 10275=
12345 31570 72603 10226 20169 39920 40055 56015 71711 879//
333 10238 20125=
12415 11598 82903 10196 20122 39921 40066 52003 69902 79592 8397/
333 10230 20121=
12455 32665 60201 10227 20160 39824 40054 56011 83231
333 10276 20134=
12500 11560 81602 10167 20135 39681 40080 52010 69912 78082 879//
333 10226 20106=
12530 32597 71901 10240 20150 39866 40052 56009 8693/
333 10278 20131 91111=
12550 11565 51702 10227 20174 39721 40057 57016 60022 70398 82235
333 10276 20133=
12580 32680 31802 10248 20151 39863 40093 57011 81202
333 10287 20183 91111=
12585 32698 31002 10207 20135 39839 40092 58014 81342
333 10287 20173=
12600 31570 71405 10238 20121 39608 40059 57017 70192 82532
333 10274 20147=
12650 11570 51712 10105 20056 37982 48465 56016 69972 70398 82242
333 10126 20089 91020 91123=
12660 32970 21201 10250 20120 39744 40078 57010 82060
333 10295 20162 91111=
15004 32570 52902 10284 20134 39798 40099 57007 83361 333   10304 30048=
15020 32965 21403 10258 20092 39949 40134 57010 80001
333 10302 30055=
15090 32965 81603 10265 20059 30024 40143 57011 80007
333 10305 30054=
15108 32281 31610 10117 20117 38127 48529 57012 82360
333 10172 30/// 95100=
15120 32670 31802 10252 20085 39650 40114 57010 81303 333   10282 30055=
15150 32970 31802 10257 20095 39927 40143 57011 80001
333 10294 30052=
15200 32970 01804 10269 20104 39967 40100 57006 333 10316 30056=
15260 32570 41605 10230 20137 39618 40118 57007 84300
333 10286 30049 95010=
15280 32984 01808 10038 21005 37545 47108 57012
333 10086 3//// 41998=
15292 32980 01806 10252 20103 39861 40136 57005
333 10290 30044 95000=
15310 32580 30903 10255 20140 30067 40148 57010 82430
333 10294 30057=
15346 32962 00000 10252 20105 39870 40141 56006
333 10290 30055 95090=
15350 32660 21802 10264 20093 30043 40154 57005 82100
333 10300 30055=
15360 32962 01402 10231 20187 30152 40162 56008 333 10250 92417
222// 00238 20200=
15410 32960 00000 10273 20124 30047 40137 54000 333 10306 30055=
15420 32560 31101 10223 20078 30035 40140 57005 82230
333 10291 30054 91002 91202=
15450 32960 31106 10254 20106 39908 40130 57012 83040
333 10294 30053=
15460 32960 11102 10253 20114 30131 40154 57006 80001
333 10299 30059=
15470 32960 11103 10254 20055 30023 40142 57009 81060
333 10292 30050=
15480 32960 11802 10210 20210 30149 40164 57010 81040
222 00164 2////  333 10245 30051 92417=
54929 32970 72902 10202
20129 40128 57004 8703/ 333//
10278=
11406 11470 82501 10128 20103 39544 40091 56002 69942 78086 8627/
333 10217 86815 88359 91122=
11457 01160 82705 10083 20081 38838 48448 53003 60022 76162 8277/
333 10201 69935 82703 88356=
11520 01668 82602 10136 20111 39746 40103 52026 69942 76062 8552/
333 10225 69945 85640 88459=
11636 01581 73106 10130 20104 39428 42734 53018 60022 79191 879//
333 10231 60015 81928 86828 91012=
11679 32675 73306 10166 20112 39600 40067 55006 8437/
333 10254 82943 82843 86463=
11723 31680 61606 10234 20121 39767 40045 56015 71311 84968
333 10274 81946 84846 83358 85270=
11766 32982 62005 10192 20102 39219 42724 55010 83062
333 10237 83360 85072=
11774 32983 62104 10228 20116 39799 40054 55010 84056
333 10256 84359 86073=
11787 32481 61710 10161 20092 38621 48449 57015 81241
333 10204 81816 83357 91015 91121=
80009 22214 20401 316// 40703 80220=
81200 22214 02230 20101 30000 80240=
22212 02284 20101 309// 40703 80250=
82610 22274 0//// 2//// 3//// 4//// 5//// 6//// 80040 ICE /////=
298077 297080 297076 297080 297080 297080=
59133 11656 80405 10222 20204 40115 57009 69921 71060 885//
333 10261=
57259 11562 80000 10136 20122 40149 57011 60011 76060 8277/
333 10177=
50353 32970 10000 10052 21015 39759 49970 57001 81030 333
10215=
50888 32980 51803 10189 20046 49923 57009 80002 333 10237=
50953 32670 33203 10224 20038 39801 49967 52019 83100 333
10293=
50564 32970 02502 10060 20005 49966 57003 333 10269=
54449 32965 00000 10194 20110 40088 57004 333// 10293=
54405 32980 00000 10178 20082 40091 57002 333// 10302=
54705 32962 81803 10206 20151 40097 57012 80007 333// 10325=
53705 32962 01608 10143 20057 40058 57008 333 05300 10250
91118 91518=
53723 32970 00000 10115 20062 38624 40088 57010 333 05352
10244=
56167 11580 80000 10105 20091 37095 52005 60031 78080 884//
333 00100 10186=
57306 32970 80000 10162 20150 40126 57013 8807/ 333 10209=
57313 32880 81401 10170 20160 40124 57009 885// 333 00002
10182=
57328 11430 80402 10163 20156 39724 40126 57012 60041 72166
885// 333 10171=
57602 11740 80000 10190 20179 40125 57010 69901 72160 885//
333 10214=
58238 32960 80401 10210 20117 30120 40129 57008 8807/ 333
10259=
58345 11957 80701 10205 20174 40128 57005 69901 71060 8807/
333 10274=
58251 32962 81801 10202 20136 30135 40141 57003 8807/ 333
10262=
58144 32965 80000 10206 20152 30114 40136 57002 8807/ 333
10272=
58265 11970 81101 10183 20172 30129 40141 57004 69901 76000
8807/ 333 10227=
58150 31956 82202 10194 20161 30126 40134 57003 71000 80007
333 10271=
59072 11665 80000 10235 20228 40091 57007 60061 70098 884//
333 10282=
59456 32572 31402 10267 20246 40079 57007 83400 333 10350=
54534 32960 02202 10203 20106 40096 57002 333// 10306=
53698 32965 30202 10208 20140 40091 57009 80002 333// 10314=
53929 32765 71403 10104 20097 40134 57017 875// 333 10141=
56093 32980 60000 10086 20084 37679 57008 80002 333 05303
10174=
52424 32980 10000 10161 20061 40031 57006 80002 333 00151
10301=
52633 11675 80000 10006 21017 36777 57006 60031 78380 889//
333 00053 10097=
56034 11675 83602 10003 21005 35954 52001 60011 78380 889//
333 00200 10089=
52681 32980 70000 10192 20043 38555 40000 57001 80002 333
05504 10294=
52533 32975 82504 10191 20032 38469 40029 57008 85047 333
00003 10274=
51886 32980 81801 10072 21011 37143 57002 80007 333 00001
10166=
52818 32970 22203 10094 20002 37258 57002 80002 333 00152
10206=
56004 32980 22703 11016 21035 35879 52003 80002 333 00206
10054=
52713 32980 20000 10068 21015 36932 52004 80002 333 00052
10139=
52602 32980 22902 10045 21037 37290 52002 80002 333 00153
10158=
52436 32970 82201 10179 20038 38417 40023 57008 8807/ 333
00103 10270=
56021 11680 72501 10004 21029 36123 52005 69931 72680 82902
333 00201 10079=
52908 32680 12203 11037 21052 35816 52002 81900 333 00102
10052=
56018 11680 82001 10017 20015 36222 52002 60031 70080 889//
333 00252 10121=
52737 11680 70000 10082 20048 37092 52010 69931 78080 879//
333 05102 10141=
58321 11560 83401 10198 20139 40127 57007 69911 76060 885//
333 10247=
56312 11580 81401 10102 20099 37080 52002 60051 78088 889//
333// 00001 10183=
56227 11268 80000 10100 20095 37313 57002 60031 76060 8362/
333// 00151 10142=
56434 11480 80000 10140 20124 37674 57004 69981 76060 8372/
333// 00100 10158=
54823 31940 71803 10230 20114 39920 40113 57007 70400 80002
333 10308=
55773 11470 70000 10044 20027 36026 57003 69901 70080 874//
333// 00000 10109=
55664 11780 80000 10069 20040 36031 52007 69911 78080 889//
333// 00251 10179=
55578 11780 70000 10054 20037 36403 52006 60121 70098 879//
333// 00256 10170 93901=
56193 32975 80009 10179 20130 40098 57012 8807/ 333 05103
10255=
80002 333// 05301 10305=
59134 1156/ 80703 10223 20208 39956 40114 57012 69901 70060
885// 333 10310=
58362 32965 71102 10203 20165 30129 40139 57003 8703/ 333
10254=
10264=
10261=
51334 32980 00000 10174 20060 40058 54000 333 05651 10284=
51379 32980 01804 10096 20072 40117 57007 333 05452 10225=
52895 32980 01406 10146 20057 40056 57003 333 05352 10244=
78397 32575 21120 10306 20244 30107 40125 82802 333 01000 10328 256 5
9010 81822=
78988 32582 50914 10316 20266 30101 40110 57026 83201
333 59017 83822 84081=
78982 32580 30918 10318 20248 30098 40103 57027 81201
333 59018 81825 83081=
91925 01480 73004 10250 20223 30068 40126 51017 69941 7038/ 86201
333 56209 69927 86816 83076
555 12810 59005=
91938 32580 10406 10269 20214 30121 40124 53012 81201
333 56209 81823
555 10410 59030=
91943 32570 20910 10279 20221 30124 40127 53015 82200
333 56200 82823
555 11016 59017 336// 92438=
91948 32580 23602 10235 20192 30047 40149 51007 82200
333 56700 82826 92438
555 13406 59027=
91954 32580 63408 10254 20219 30116 40119 51007 81201
333 56809 81820 86080
555 13612 59047=
91958 32480 43210 10234 20187 30107 40109 51003 84201
333 56709 84818
555 13223 59057=
60220 32458 10218 10189 20168 40177 56002 81600
333 10194 81710=
78792 31459 81707 10306 20235 30091 40106 57009 70544 83274
333 10322 20244 30/// 564// 58002 83818 83359 85080 =
78793 11470 82004 10288 20235 30070 40101 57005 69901 72162 8322/
333 10288 20244 31/// 564// 59003 83815 88460 =
78795 32470 80000 10302 20240 30000 40100 57003 83250
333 10304 20228 30/// 5680/ 58007 84818 85359 =
78970 11458 71304 10267 20239 30087 40112 60021 78082 86943
333 10325 20245 59008 83915 84818 90916=
78962 11462 71014 10290 20243 30112 40120 69911 71582 87802
333 02209 10300 20243 59009 82818 86635 90930=
64500 32470 72606 10268 20242 30089 40103 879/2
333 10295 58007 83611 87630 81920 94941 95831=
64501 32460 42008 10260 20238 30108 40118 84500
333 10290 58005 84610=
64503 12460 5//// 10250 20228 30073 40114 60014 85500
333 10290 59007 83611 84620=
64510 11460 8//// 10228 20210 3//// 40/// 60062 70196 8597/
333 10/// 5//// 85610 81916 88460 94946 95836=
64550 32460 6//// 10270 20244 39004 40105 83202
333 10305 58002 83813 86073 94939 95839=
64551 31465 5//// 10268 20242 30075 40104 71322 83901 911//
333 10322 58039 83811 85076 82920 94959 95832 95834=
64552 32460 6//// 10258 20220 39449 40093 86900 916//
333 10310 5//// 85816 83920 94979=
64556 31565 3//// 10248 20222 39522 40089 71321 83900 926//
333 10/// 58008 83626 81916 94938 95818=
64565 32460 6//// 10240 20211 39468 40103 83202 910//
333 10270 58011 83810 86073=
60020 32575 11004 10237 20115 30141 40185 57012 81500
333 10247 92438=
60030 32570 20228 10216 20167 30118 40173 57007 82500
333 10236 92447=
60040 32565 10225 10221 20188 30153 40178 57011 81500
333 10255 92447=
60338 32982 02809 10250 20134 30114 40177 57005
333 10281 92418=
81401 02460 70404 10266 20224 40095 60121 8593/
333 59009 69927 81910 83813 85360=
78958 01456 51228 10283 20257 30098 40108 72582 8593
333 10309 20242 59017 83815 829//=
71261 36/// /0711 10179 20101 39851 40106 58009 333 10180 20095
70000=
71265 36664 60711 10127 20075 30035 40127 58009 333 10140 20114
70000=
71434 36/// /1906 10107 20044 30146 40212 58021 333 10107 20005
70000=
71629 32574 80606 10133 20070 39903 40134 56010 888// 333
10135 20072 70000=
71043 32583 52705 10052 20010 30100 40193 58002 81571 333 10078 20011
55480 70000=
71045 36/// /2401 10103 21012 39289 40135 58002 333 10103 21026
70000=
71050 17/64 /2306 10123 20016 39083 40147 50000 69941 7//4/ 333
10123 21015 70022=
71066 32574 53512 10086 21039 39747 40162 51006 83501 333 10089 20004
70000=
71069 17564 83113 10091 20038 39432 40126 51014 69951 7//4/ 333
10100 20066 70020=
71076 46/// /2906 10087 20041 39705 40092 50000 333 10087 20028=
71077 36/32 /0209 10117 20052 39561 40078 51004 333 10117 20076
70000=
71081 17464 61909 11010 21027 30264 40275 56008 69951 7454/ 333
11008 21035 70010=
71082 17059 60905 11071 21083 30179 40220 53001 69951 7//4/ 333
11065 21099 70005=
71083 32269 81220 11011 21026 30144 40181 57023 885// 333 11007 21025
70000=
71090 36964 00702 11018 21041 30228 40263 58013 333 11017 21095
70000=
71092 46664 83407 11067 39636 40313 58002 333 11064 21126=
71093 460// /3413 11014 39777 40277 55003 333 11009 21068=
71094 460// /3503 11016 39363  51002=
71095 37556 82504 11065 21090 30188 40261 53002 745// 333 11047
21113 70000=
71101 36764 32413 10110 20026 30165 40173 53018 333 10112 20076
70000=
71104 31574 51806 10112 20024 39053 40149 50005 71411 83272
333 10113 20034 70050=
71108 11240 80701 10093 20085 30125 40196 51017 60151 78188 888//
333 10104 20088 70418 90983=
71109 11480 83110 10108 20065 30164 40190 52019 60021 78088 885//
333 10107 20066 70082 90983=
71851 36/// /1910 10161 20113 39772 40099 55011 333 10162 20084
70000=
71852 17964 31621 10178 20090 39813 40100 58029 69951 7//4/ 333
10182 20091 70005=
71873 36/64 /3019 10099 20067 39157 40087 51015 333 10105 20067
70018=
71875 17664 82725 10129 20003 38776 40135 53011 69951 7//4/ 333
10136 20049 70030=
71930 11358 83006 10072 20065 39209 40133 52013 60061 78088 887//
333 10072 20049 70206 90999=
71931 17/64 /3304 10080 20043 39437 40111 51017 60061 7//44 333
10090 20078 70364=
71932 36664 33411 10121 20020 39659 40104 53003 333 10129 20070
70005=
71933 36564 82909 10083 21002 39830 40115 58003 333 10086 20020
70000=
71935 32574 70108 10038 21024 39966 40174 51011 87500 333 10040 20016
70000=
71936 32574 70212 10037 21016 39915 40174 52010 86708 333 10040 20010
79999=
71938 32374 70407 11053 21083 30234 40264 50000 87500 333
11050 21083 79999=
71940 11582 70605 10117 20037 39356 40151 50007 69941 71662 85170
333 10117 20062 70016 90961=
71943 32574 61904 10104 20005 39334 40162 51005 83130 333 10104 20050
70038=
71944 37564 33302 10100 20022 39334 40154 51013 743// 333 10100
20067 70005=
71945 32783 20000 10135 21006 39702 40166 50001 81570 333 10143 21003
70000=
71946 32974 00903 10132 21069 39974 40184 54000 333 10132 21007 70000
=
71948 46964 00824 11094 30123 40238 56003 333 11092 21135=
71949 36/64 /0804 10122 21033 39297 40150 58007 333 10122 20003
70000=
71950 11680 81805 10120 20049 39511 40129 51008 69921 78062 86241
333 10128 20067 70014 90910=
71957 36964 60204 10007 21037 30124 40212 53006 333 10013 21030
70000=
71958 17764 62209 10105 21037 39193 40142 53008 69951 7//4/ 333
10115 21011 70005=
71964 32586 40303 10060 20033 39302 40150 56001 81671 333 10067 21001
70036=
71968 469// 03306 11074 30155 40220 53007 333 11046 21084=
71816 32574 10516 10084 20014 30164 40225 58003 81100 333
10094 20025 55002 70054=
71817 36464 80214 10025 21015 30201 40216 51011 333 10035 20008
70060=
71818 11466 80111 10020 20003 30231 40249 52009 69941 72075
885// 333 10023 20005 41997 70078 90983=
71821 17564 60207 10140 20055 39841 40184 56010 69951 7//4/ 333
10151 20007 70005=
71822 17664 30304 10141 20042 39692 40161 58008 69951 7//4/ 333
10149 20048 70005=
71825 32474 80512 10057 20016 39556 40228 51003 885// 333 10058 20004
79999=
71827 32674 20608 10160 20040 39960 40202 58011 81101 333 10168 20004
70000=
71828 36664 81008 10094 20000 39606 40246 58007 333 10097 21017
70000=
71831 32574 70404 10106 20031 39919 40199 58012 87500 333
10160 20013 70000=
71832 36/64 /3610 10150 20044 39876 40199 56010 333 10150 21001
70000=
71834 32674 70905 10135 20054 39768 40191 58018 83571 333
10138 20034 70000=
71836 36664 81105 10067 20031 30208 40220 56007 333 10069 21003
70005=
71842 32774 21510 10201 21007 39688 40154 58021 81172 333 10203 20107
70000=
71845 32974 21408 10181 20049 39702 40166 57024 81021 333
10181 20090 50920 70000=
71850 32774 62310 10176 20050 39663 40151 58010 81101 333 10181 20104
70000=
71854 32774 22114 10199 20038 39676 40135 56018 81102 333
10203 20083 70000=
71855 17564 31107 10156 20139 39679 40041 58028 60021 7//4/ 333
10156 20097 70020=
71856 36764 31617 10160 20084 39826 40103 58021 333 10171 20071
70000=
71858 17/64 /1707 10114 20097 39776 40049 58021 60021 7//4/ 333
10129 20112 70044=
71861 17764 32421 10200 20061 39340 40040 50006 69951 7//4/ 333
10202 20125 70005=
71862 11774 22923 10213 20065 39393 40070 51011 69921 70281
81182 333 10216 20119 50540 70002 90945=
71863 36664 82823 10176 20075 39366 40041 51001 333 10196 20117
70000=
71802 36/// ///// 10136 20101 40060 333 70000=
71819 11466 80426 10037 21019 30151 40186 52015 69901 70252 887//
333 10045 20014 79999 90921=
71846 36/64 /1206 10137 20046 39878 40187 58018 333 10137 20039
70000=
10205 20098 70000=
71702 17/// /3515 10069 20069 40103 60031 7//4/ 333 10088 20061
70118=
71717 11474 80312 10077 20051 30089 40130 52013 60011 72082
887// 333 10078 20050 70040 90936=
71194 17/64 /0614 10112 20076 30057 40070 50003 69971 7//4/ 333
10112 20059 70007=
71197 17359 80810 10086 20062 30032 40081 51008 60021 7434/ 333
10086 20059 70015=
71918 460// /1811 11040 39834 40254 58009 333 11032 21064=
71923 46/// /0000 10008 20006 39600 40035=
71865 36/64 /2219 10194 20091 39345 40000 56017 333 10194 20122
70000=
71866 17464 83216 10123 20080 39433 40029 53035 69951 7//4/ 333
10186 20117 70010=
71867 11274 81414 10121 20113 39686 40010 58022 60011 76162
885// 333 10132 20047 70060 90966=
71868 17664 31709 10167 20122 39568 49993 58022 60011 7//4/ 333
10175 20069 70045=
71869 11366 83410 10105 20092 39495 40005 52015 69961 78082 885//
333 10125 20082 70018 90927=
71870 37664 32925 10163 20062 39120 40056 53013 743// 333 10179
20109 70005=
71871 11474 83614 10088 20070 39285 40074 51023 69981 78022 885//
333 10100 20061 70012 90942=
71874 17964 02725 10170 21023 39035 40102 53009 60031 7//4/ 333
10178 20083 70050=
71877 32786 60107 10129 20034 38859 40104 51007 82171 333
10150 20017 79999=
71878 11474 83314 10084 20062 39062 40123 52019 69941 78062 8457/
333 10085 20053 70034 90926=
71879 36564 80306 10087 20053 39317 40110 51022 333 10094 20054
70020=
71880 11682 61914 10127 20030 39061 40148 50000 69941 71582 84270
333 10132 20040 70078 90930=
71881 37464 83304 10068 20045 39057 40142 51019 743// 333 10069
20049 70020=
71882 17564 32803 10128 20069 39630 40159 50000 69951 7//4/ 333
10130 20079 70095=
71883 17/// /1001 10106 20077 39351 40161 51002 69961 7//4/ 333
10121 20047 70252=
71887 32683 60602 10164 20040 39729 40141 58006 83270 333 10168 20068
70012=
71889 32774 61504 10160 20020 39742 40150 50003 86200 333 10167 20073
70018=
71891 36664 31623 10121 20046 39891 40166 50004 333 10121 20089
70050=
71892 11480 71311 10131 20098 30180 40185 51013 69921 70382 85270
333 10135 20097 70050 90945=
71397 11574 73609 10113 20048 30061 40095 50001 69901 70255
87500 333 10120 20070 70012 90961=
71398 36/64 /3404 10095 20060 30042 40091 51004 333 10098 20071
70000=
71400 17/64 /0212 10050 20039 40120 69971 7//4/ 333 10065 20043
70132=
71410 36/64 /3413 10080 20058 30079 40107 53007 333 10095 20062
70066=
71411 36/61 /3407 10145 20049 30081 40091 50001 333 10145 20061
70000=
71412 46/// /0118 10062 20062 30069 40082 53005 333 10069 20051=
71430 36/64 /0910 10116 20085 30038 40134 58006 333 10128 20071
70000=
71431 36/// /1003 10105 20073 30041 40135 56008 333 10128 20094
70000=
71432 36/64 /0821 10116 20110 30025 40121 58009 333 10124 20108
70000=
71435 36/64 /0903 10175 20034 39588 40170 58017 333 10175 20073
70000=
71436 36/64 /1406 10135 20073 39778 40131 56011 333 10138 20070
70000=
71441 36/// /1622 10188 20086 39805 40107 58030 333 10197 20050
70000=
71443 17/// /1910 10194 20141 39620 40016 58028 60021 7//4/ 333
10194 20107 70022=
71474 37464 82803 10100 21013 38929 40147 51005 743// 333 10126
21001 70000=
71538 11562 80907 10128 20099 39863 40089 55003 60131 76166
8857/ 333 10134 20111 70172 90973=
71600 36264 83010 10098 20072 30053 40059 53002 333 10119 20077=
71601 32574 63309 10119 20053 30016 40078 50000 86500 333
10123 20082 79999=
71073 36/// /2909 10067 20019 39692 40107 51001 333 10069 21009
70000=
71075 36/// /3007 10078 20066 39462 40051 53009 333 10085 20041
70284=
71096 460// /2402 11009 39555 40291 50000 333 11009 21040=
71893 11580 70907 10134 20084 30147 40178 52011 69901 71582
83870 333 10142 20087 50120 70010 90960=
71894 17/// ///// 10119 30176 40185 51017 60201 7//4/ 333 10125
20091 70238=
71896 11366 83406 10085 20045 39327 40149 52018 69901 70265 885//
333 10087 20041 70006 90927=
71897 31470 81802 10113 20086 30137 40169 52020 715// 882// 333
10129
20090 70064=
71898 17464 82704 10090 20047 30127 40171 51027 60031 7//4/ 333
10093 20077 70120=
71899 32474 62416 10091 20049 30092 40142 52020 8421/ 333 10091
20055
70000=
71902 32974 21007 10051 20020 30258 40267 57009 80001 333
10071 20014 79999=
71905 31948 03407 10003 21018 30205 40218 58008 71042 333 10005 21010
79999=
71906 32474 50310 10063 21003 30202 40250 55005 81501 333 10092 21032
70000=
71907 36964 00711 10086 20033 30198 40230 58009 333 10087 21013
70000=
71909 17864 33418 10033 20006 30222 40265 58003 69951 7//4/ 333
10035 20008 70005=
71910 36964 00509 11016 21056 30234 40300 58008 333 11014 21068
70000=
71911 46048 /1806 11019 30176 40232 56009 333 11019 21084=
71912 11574 81817 10167 20091 39906 40083 56014 69901 70362
885// 333 10175 20095 79999 90939=
71913 37564 61417 10048 20007 30037 40073 58024 743// 333 10048
20006 70000=
71915 11374 81112 11047 21051 30208 40293 55015 69901 70274
886// 333 11045 21083 44008 79999 90951=
71917 32586 62610 11057 21092 30214 40228 53002 86570 333
11054 21090 70000=
71922 11366 83611 10081 20073 39589 40045 57011 60081 78122 887//
333 10084 20015 70162 90942=
71924 32374 62505 11117 21143 30143 40233 52015 85530 333
11113 21134 70002=
71925 32974 20310 11102 21120 30218 40255 57004 80001 333
11083 21133 70000=
71928 36/64 /3308 10077 20046 38976 40125 51014 333 10077 20054
70060=
71114 17664 62605 10126 20080 30139 40187 50003 60011 7//4/ 333
10128 20082 70560=
71122 36/64 /2408 10082 21012 38546 40127 51008 333 10097 20029
70018=
71123 11424 83110 10073 20054 39260 40115 52021 60021 76122
887// 333 10079 20039 70112 90921=
71125 11474 80109 10103 20063 39492 40065 53016 60081 70266
888// 333 10104 20077 70222 90939=
71129 11474 82917 10128 20067 39247 40050 51015 69941 71682
882// 333 10128 20083 50920 70004 90921=
71130 11574 70206 10114 20100 39550 49994 56014 60071 72982
82983 333 10143 20062 50360 70072 90926=
71131 36/64 /2923 10159 21025 38864 40079 53004 333 10159 20075
70008=
71135 36/64 /2723 10182 21007 39032 40080 51006 333 10182 20118
70000=
71138 11674 22215 10207 20086 39434 40018 58016 69921 70381
82281 333 10211 20111 70004 90941=
71141 11566 81817 10137 20085 39806 40077 56007 69941 79581
82987 333 10157 20102 70156 90910=
71145 32774 71811 10202 20063 39820 40105 57022 81101 333
10207 20129 79999=
71148 16/// /1720 10147 20125 39540 40107 58016 69921 333 10147 20074
70002=
71185 17564 30617 10078 20027 30114 40138 53019 69951 7434/ 333
10099 20057 70005=
71187 36664 81010 10097 20047 30142 40169 51007 333 10104 20066
70000=
71188 11366 83504 10067 20054 30110 40151 51011 60011 76166
887// 333 10068 20050 70068 90983=
71196 36059 80615 10047 20037 30079 40116 51011 333 10059 20031
70005=
71103 46464 83504 10098 20063 39502 40155 51014 333 10104 20069=
71115 36/// /2907 10156 20035 333 10165 20078 70002=
71121 36464 83605 10085 20068 39300 40115 51024 333 10089 20043
70025=
71127 46064 /3511 10114 20037 39365 40083 51012 333 10115 20079=
71143 36/// /1526 10126 20100 39735 40042 55033 333 10140 20112
70000=
71450 36/// /2722 10136 20089 39346 40044 53035 333 10172 20122
70000=
71490 36/// /0000 11009 21011 39836 40145 56009 333 11009 21026
70000=
71952 36/// /1407 10110 20060 39301 40139 51008 333 10111 20022
70000=
71967 36/// /2907 10054 20054 39207 40173 51005 333 10055 20007
70000=
71201 17/// ///// 10110 60041 7//4/ 333 10128 20105 70076=
71603 32574 63518 10115 20036 30040 40092 50000 86570 333
10134 20075 79999=
71607 36/// /3609 10136 20053 30077 40109 58001 333 10136 20081
70000=
71609 11474 70314 10098 20054 39973 40106 53002 69901 78082 88800
333 10116 20062 70002 90931=
71610 17564 82604 10121 20077 39840 40131 55003 69951 7//4/ 333
10127 20070 70005=
71621 32574 80406 10143 20085 30029 40134 56007 885// 333
10143 20065 70000=
71623 32774 70813 10163 20086 39777 40107 55005 81176 333 10165 20102
70000=
71624 32674 81210 10144 20071 39916 40125 57010 83571 333
10149 20081 70000=
71625 36564 80402 10137 20057 39990 40148 58011 333 10139 20091
70000=
71627 36564 80405 10142 20083 30091 40134 58002 333 10147 20098
70000=
71628 32682 70705 10142 20064 30002 40140 56007 87500 333
10145 20095 70000=
71630 32574 70406 10136 20062 39800 40139 58007 86570 333
10142 20054 70000=
71631 36/64 /0809 10139 20079  333 10139 20076 70000=
71632 36/64 /0805 10163 20069 39921 40151 58012 333 10163 20055
70000=
71633 32574 80609 10134 20085 39868 40135 57009 81101 333
10134 20084 70000=
71700 11574 80210 10113 20048 30092 40117 51008 69901 70282 885//
333 10119 20064 79999 90940=
71705 11340 83616 10070 20060 30022 40109 52013 69961 78082
887// 333 10085 20050 70064 90927=
71706 11158 83610 10064 20061 30037 40097 53010 69901 75182 887//
333 10078 20051 70035 90917=
71707 11132 80111 10058 20047 39985 40061 52004 60061 78085 887//
333 10062 20055 70110 90983=
71709 11136 80310 10070 20056 30079 40092 52009 69901 71065 886//
333 10082 20052 70008 90927=
71711 11674 81005 10105 20046 30088 40138 53007 69941 70282 885//
333 10106 20053 70044 90942=
71714 36/// /0811 10108 20060 30061 40152 51004 333 10113 20085
70000=
71715 36/64 /0114 10103 20037 39976 40157 53002 333 10103 20054
70014=
71718 32583 20618 10092 20043 30102 40167 53006 81570 333 10100 20054
70004=
71719 17/// /0220 10067 20051 30121 40127 51011 69971 7//4/ 333
10069 20050 70076=
71725 36564 60309 10139 20061 39756 40167 56012 333 10140 20029
70000=
71726 36/64 /3501 10113 20055 39630 40161 55002 333 10113 20043
70000=
71727 32680 80304 10118 20035 39964 40159 53001 885// 333
10123 20062 79999=
71728 32682 61103 10126 20042 39938 40156 58003 86100 333 10129 20082
70000=
71730 32674 60210 10138 20051 39740 40159 57011 83131 333
10149 20064 70000=
71731 33/// /0505 10114 20053 39715 40161 52004 333 10119
20057 70000=
71733 36964 00208 10162 20076 39906 40140 58022 333 10168 20053
70000=
71735 32474 80209 10120 20045 39876 40173 58009 888// 333
10127 20037 70000=
71738 32674 73508 10167 20044 39815 40162 58017 83508 333
10174 20070 70000=
71739 32574 70907 10120 20044 39823 40183 58014 87500 333 10120 20004
70000=
71749 36964 31010 10113 20058 39940 40184 58010 333 10122 20068
70000=
71799 11683 82602 10148 20069 30160 40183 51014 69921 71562
8487/ 333 10148 20103 70008 90942=
71801 31/08 90510 10056 20049 39922 40094 53005 74742 333 10091 20049
79999=
71803 32374 80412 10077 20048 39932 40117 53014 885// 333
10105 20048 70074=
71807 17/// /0114 10095 20065 30060 40076 56003 69961 7//4/ 333
10106 20064 70020=
71808 37464 80623 10052 20012 30146 40193 51017 743// 333 10065
20026 70005=
71809 11474 80415 10051 20026 30104 40131 52012 69901 70288 885//
333 10061 20036 70017 90962=
71810 36/64 /0306 10091 20039 30095 40158 51007 333 10091 20041
70000=
71813 37564 80625 10098 20037 30141 40154 53014 743// 333 10109
20046 70040=
71814 36/// /0626 10060 20035  333 10064 20041 70000=
71815 32674 70817 10114 20061 30060 40091 52008 85540 333
10117 20061 70002=
94120 46/// /1412 10212 20092 30089 40124=
94150 46/// /1512 10228 20146 30050 40111=
94203 46/// /1106 10158 20095 30136 40147=
94207 35/// /0517 1//// 30127 40138 57016=
94212 46/// /0909 10138 20007 39689 40169=
94216 46/// /1509 10191 20043 30116 40167=
94238 46/// /1314 10106 21010 39766 40198=
94268 46/// /1508 10163 20025 30107 40122=
94287 46/// /1613 10195 20084 30136 40145=
94294 46/// /2010 10143 20010 30174 40184=
94298 35/// /1620 10226 30133 40139 57006=
94299 46/// /1625 10248 20193 30109 40120=
94300 46/// /0405 10160 20040 30159 40169=
94302 46/// /2307 10133 20126 30170 40176=
94312 46/// /1308 10161 20070 30159 40169=
94317 46/// /2004 10037 20014 39605 40202=
94319 46/// /1310 10115 20056 39861 40199=
94326 46/// /1704 10014 20011 39607 40242=
94332 46/// /1508 10093 21036 39800 40193=
94346 46/// /1506 10030 21011 39992 40218=
94363 46/// /0000 10049 20003 39978 40199=
94367 46/// /1911 10110 20049 30141 40179=
94374 46/// /2108 10077 21012 30175 40192=
94394 35/// /2017 10186 30137 40145 57005=
94403 46/// /0415 10147 20020 30147 40188=
94429 46/// /0508 10106 20025 39744 40217=
94430 46/// /0710 10097 20009 39611 40209=
94461 46/// /0405 10044 20020 39551 40240=
94462 46/// /1406 10040 20019 39678 40250=
94510 46/// /0000 10001 21016 39856 40213=
94515 46/// /2506 10025 21008 39844 40201=
94578 46/// /3104 10100 21020 30144 40155=
94584 46/// /2611 10099 21006 30053 40164=
94601 46/// /0416 10116 20026 30194 40211=
94637 46/// /1105 10048 20014 39830 40268=
94638 46/// /0307 10088 20073 30258 40291=
94647 46/// /3603 10126 20049 3//// 4////=
94651 46/// /1809 10103 20072 30209 40288=
94653 46/// /2111 10140 20060 30258 40277=
94659 46/// /2110 10101 20050 30058 40258=
94672 46/// /2113 10129 20051 30222 40227=
94693 46/// /2607 10083 20073 30136 40199=
94703 46/// /2506 10075 20050 30072 4////=
94729 46/// /2511 10008 21008 39254 40110=
94767 46/// /2822 10084 21023 30067 40073=
94776 46/// /2816 10075 20010 30095 40105=
94791 46/// /3308 10058 20019 30106 40113=
94802 46/// /0510 10074 20031 30173 40256=
94804 46/// /2020 10135 20086 30202 40241=
94821 46/// /2706 10086 20071 30091 40175=
94850 46/// /2222 10096 20061 30039 40084=
94865 46/// /2713 10060 20027 30095 40120=
94907 46/// /2714 10063 20035 30071 40081=
94910 46/// /3304 10020 20009 39881 40135=
94926 46/// /3212 10017 21024 39411 40085=
94954 46/// /2139 10090 20062 39940 40050=
94956 46/// /1505 10063 20049 30015 40041=
94975 46/// /2805 10057 21008 39968 40001=
94983 46/// /2513 10059 20005 39973 49998=
94995 46/// /2627 10163 20111 30053 40061=
94996 47/// /3615 10198 20187 39974 40103 57012 72144=
95711 46/// /2508 10063 20056 39872 40180=
95719 46/// /2606 10030 20026 39821 40157=
96995 46/// /1409 10252 20240 39814 40108=
96996 45/// /0911 10270 20243 30108 40112 57010=
89564 45/// /1424 11132 21193 39964 49985 57001=
89571 45/// /1504 11109 21150 39922 49952 57004=
89611 45/// /1712 11175 21198 30045 40101 57018=
94934 35/// /2528 10102 30008 40032 52018=
94974 37/// /2223 10084 30011 40034 57009 76044=
95288 35/// /1722 10240 30107 40122 57012=
95872 46/// /2723=
89758 46/// /21// 11462 37074 4//// 5////=
89568 46/// /1426 11436 37361 4//// 5////=
89774 46/// /0624 11402 37186 4//// 5////=
89002 41/90 90941 11125 21148 39973 40025 58006 73933
333 00947 92953=
91811 31599 60405 10275 2024/ 40100 70310 82101 333 561/9=
91843 11498 83418 10243 20230 40087 50002 60161 71562 8677/
333 5689/ 82708 85817 88458=
91636 11498 71012 10260 20250 4//// 60041 71528 8237/ 333 5629/=
85406 32960 01911 10182 20123 40153 57016=
85418 32965 02211 10162 20107 40148 57020 =
85432 32984 32612 10224 21058 37778 48452 51007 80001
333 56000 83070=
85442 32965 42008 10174 20089 40148 58020 80001
333 56007 84075=
85469 41550 89902 10176 20152 40127 52016 76182 8422/
333 56769 84820 88550=
85488 32462 12609 10155 20103 39998 40167 57014 70211 81500
333 56000 81615=
85574 31956 71902 10158 20042 39613 40166 57010 70521 87030
333 58011 56070 87367=
85585 32598 52305 10189 20136 40147 54000 85200
333 56500 85825=
85586 31957 72504 10153 20092 40182 52005 70521 87030
333 56060 87365=
85629 32970 80000 10144 20056 40171 56009 8803/
333 56079 88360=
85672 12660 80313 10124 20116 40161 58008 60031 884//
333   56899 88640=
85682 11218 80108 10133 20127 40154 58005 60021 76182 8472/
333 56889 84705 88550=
85743 11456 80502 10128 20119 40139 57013 60041 76162 8272/
333 56779 82715 88518=
85766 11125 80404 10123 20119 40130 57014 60091 76386 8572/
333 56889 82703 85608 88530=
85782 32457 80303 10140 20117 40130 58009 71522 888//
333 56899 83815 88640 =
85799 11460 63607 10142 20127 40130 58015 69941 70162 85501
333 56806 85617=
85874 32580 83508 10090 20065 39508 40125 58009 8587/
333 56669 82817 84626 88359=
85892 32670 70000 10647 20036 40101 54002 83106
333 56607 83640 87268 =
85934 11120 80714 10068 20066 40114 52015 69931 75252 887//
333   56299 88702=
78894 36/// /1308 10305 20204 30080 40139 58019
333 10318 20255 59019=
61990 41468 60806 10223 20197 40170 71581 86800
333 10272 58003=
61995 42570 50903 10198 20181 39688 85800
333 10244 58004=
61988 41460 70705 10230 20202 40179 78000 87800
333 10273 58010 91127=
61986 41440 80921 10231 20204 40149 78082 888//
333 10290 58005=
61974 42470 10000 10228 20219 40128 81100
333 10299 58006=
78906 11460 82106 10247 20235 30129 40134 60111 76086 884//
333 10309 20239 59011 87816 90914=
78905 11430 81508 10266 20244 30126 40142 60121 78086 882//
333 10269 20226 59009 88810 90915 = 42-6NN  93E
45011 41465 71606 10275 20260 40099 51003 72582 8523/
333 58018=
86011 32570 60000 10284 20182 40129 58040 82570 333 82633 86457 =
86033 32970 00000 10270 20154 40109 57024 =
86065 32970 20000 10254 20051 40155 57029 82030 =
86068 32970 00905 10268 20174 40117 57033 =
86086 32970 00000 10260 20120 40149 57027 =
86097 32970 01114 10234 21035 40142 57022 =
86134 32970 01206 10238 20065 40155 57024 =
86192 32970 21404 10218 20040 40113 57039 800=1 =
86210 32970 12306 10208 20050 40148 57024 80004 =
86218 32970 31212 10224 20060 40167 57033 80002 =
86233 32970 01404 10216 20087 40157 57030 =
86248 32970 01805 10202 20077 40175 57017 =
86255 32970 00908 10216 20088 40184 57014 =
86260 32970 01004 10220 20132 40164 56023 =
86268 32970 02305 10220 20129 4//// 5//// =
86285 32970 00000 10194 20091 40157 58019 =
84628 34460 12306 10210 20163 30117 40133 70244 81600
333   564// 59007 81716=
84782 31967 02310 10200 20118 39634 40163 70204
333   59010=
84735 31966 01804 10145 21015 36436 70200
333 58005=
84686 31762 20000 10190 20046 36880 70120 82500
333   56900 58001 82650=
84455 31564 60000 10316 20240 39800 40142 70222 8313/
333   5600/ 59014 83830 83363=
84377 31460 70303 10300 20246 30006 40109 70222 84230
333 5600/ 58007 84813 83360=
84425 31461 80604 10280 20239 39959 40168 70222 885//
333 569// 58015 88615=
84474 31462 50000 10320 20238 39782 70304 85100
333 56000 59016 85820=
84564 31960 00608 10274 20160 38154 70122
333 59001=
84534 31660 30000 10305 20215 39390 40093 70212 83200
333 56900 59010 83840=
84501 31962 01610 10210 20163 30101 40141 70200
333 59003=
84515 31460 40904 10320 20239 39936 40108 70122 84200
333 56900 59026 84820=
84752 31965 02608 20210 21013 37526 70200
333 59001=
84658 31460 61208 10270 20229 39877 40099 70122 862//
333 563// 58011 86815=
84691 31962 03010 10213 20167 30102 40109 70204
333 59006=
84370 31560 83405 10290 20212 30073 40101 70222 8453/
333   5699/ 59004 84620 84360=
84390 31970 42114 10243 20176 30025 40126 70302 84030
333   56000 59004 84360=
84452 31960 61814 10230 20152 30096 40127 70322 86030
333   56000 59004 86360=
84401 31760 61805 10270 20214 30087 40154 70222 8602/
333   5600/ 58004 86457=
84472 31665 40909 10208 20086 37402 70300 84500
333   56000 59004 84643=
84531 31962 11720 10209 20142 30105 40117 70100 80001
333   56009 59004 81074=
84673 31668 20503 10227 20089 37341 70300 82800
333   56000 59003 82850=
71966 46/// ///// 10110 333 10111 21026=
71473 17/// /1808 30154 51013 60011 7//4/ 333 70058=
71120 32574 73513 10104 20079 39440 40082 52013 82570 333
10130 20080 70112=
71140 11274 71512 10139 20131 39587 40076 58020 60041 78082 81780
333 10139 20085 70048 90916=
71182 36964 00510 10095 21020 39690 40229 58001 333 10104 20012
70000=
71200 17/// /2206 10113 20101 60041 7//4/ 333 10115 20095 70050=
68906 12498 72406 10061 20026 30036 40102 52021 60012 8555/
333 10086 20061 91008 555 20012 91010=
71475 36/// /1702 10125 20086 30093 40186 51012 333 10126 20084
70050=
71107 36/// /3321 10104 30076 40189 51025 333 10116 20063 70000=
60351 32960 50000 10223 20187 40185 53001 80002
333 10258 85070 95900=
60425 32965 33310 10293 20119 40172 53005 81032
333 10328 81360 83070 95900=
60430 32565 10610 10230 20149 40178 56005 81101
333 10284 81826 95900=
60444 32575 32208 10248 21066 39142 48551 56004 82202
333 10258 82830 95900=
60467 32665 32810 10300 20157 40136 55004 81202
333 10301 81833 83073 95900=
60468 32665 43512 10241 20079 39243 48535 55001 81202
333 10262 81833 84070 95900=
60515 32560 43210 10300 20061 40173 55005 82202
333 10311 82830 83070 95900=
60518 32970 20000 10236 20186 40174 56003 80002 222// 20000
333 10246 32073 91807 95900=
60581  32960 00608 10301 20106 40168 55002
71872 32883 33124 10180 20006 39256 40083 52009 82101 333 10180 20078
70000=
71876 11574 80111 10101 20073 39398 40044 51028 69961 72122
885// 333 10138 20097 70006 90921=
50527 32970 00000 10068 20005 39326 40026 52005 333// 10231=
50548 32980 00000 10056 21009 49998 52007 333// 10276=
50632 32970 00000 10054 21039 39176 40018 52008 333// 10230=
50603 32980 20402 10127 21012 39401 40032 52009 80002 333//
10254=
50434 32980 01801 11027 21065 39179 40030 52005 333// 10190=
41170 42964 03212 10354 20113 39994 40007 333 10445 59008=
57598 11658 80202 10220 20198 40099 57006 69901 76060 885//
333 10302=
57655 11457 83601 10182 20176 40131 57011 60021 76060 8572/
333 10242=
57745 11856 80703 10174 20161 39802 40119 57006 60041 76066
8802/ 333 10223=
57972 11756 83601 10242 20230 39875 40088 57005 69921 71060
885// 333 10278=
10277=
59102 32660 82201 10229 20222 40096 57013 855// 333 10306=
26045 12998 13202 10114 20042 40132 57005 69902 80001   333 10161
555 50126=
26058 12998 60000 10124 20034 40141 58004 60032 81042   333 10161
555 50121=
26115 32998 41101 10124 20084 40113 57018 81031   333 10125   555
50115=
26141 12998 20403 10149 20067 40124 57005 69902 82043   333 10198
555 50152=
26215 32698 71403 10128 20067 40112 58021 87500   333 10166 87641
555 50135=
26231 32998 60000 10134 20093 40123 57016 83035   333 10175   555
50150=
26242 12598 41002 10178 20120 40124 58010 69932 82530   333 10200
555 50172=
26247 12598 20000 10185 20128 40122 56003 69932 82500   333 10208
555 50176=
26135 12997 32302 10165 20089 40122 57006 69902 80002   333 10206
555 50159=
47101 31450 83203 10133 20127 30023 40113 52012 71021 886//=
47105 32970 02310 10189 20101 30050 40080 52008=
47108 32965 00501 10148 20121 30006 40109 52007=
47115 32965 02906 10205 20065 39816 40068 52008 333 92042=
47133 32961 01405 10135 20112 30040 40121 52007=
47138 32965 02307 10185 20099 30092 40096 52006 333 92022=
47159 32970 02002 10188 20079 30020 40101 52009 333 92022=
47165 32957 03404 10148 20135 30080 40124 50004 71000 333 92022=
47168 32970 02509 10176 20083 30032 40109 52012 333 92022=
47184 3//// /2503 10181 20111 30107 40134 50003=
47090 32968 02904 10206 20063 30050 40070 52007 333 92022=
47095 32970 00703 10120 20113 39928 40111 52013=
47100 41925 02909 10086 20080 39151 40123 52007 71000=
47106 32970 02309 10186 20090 30037 40081 50005=
47112 31958 01806 10153 20131 30026 40106 52006 71000 333 92022=
47114 32962 00000 10121 20115 39942 40119 52011=
47119 31945 01603 10144 20119 30071 40112 52009 71000=
47121 31/06 90901 10112 20111 39844 40125 52012 74540=
47129 32965 02002 10120 20110 30096 40126 52008=
47130 32968 02708 10174 20098 30026 40083 52005 333 92023=
47131 32970 01803 10140 20114 30051 40119 52009=
47135 32970 02707 10129 20087 39829 40118 52007=
47136 32965 01402 10128 20106 39944 40112 52008=
47140 32961 02506 10153 20122 30086 40122 333 92011=
47143 3//// /0902 10166 20107 30039 40106 52010=
47146 32963 01804 10123 20106 30062 40128 52006=
47152 32968 02901 10164 20100 30060 40099 52008=
47155 32970 01102 10169 20097 30102 40106 52012 333 92011=
47156 31959 02302 10142 20112 30037 40124 50004 71000=
47162 32965 00203 10156 20093 30069 40107 52009 333 92021=
47170 32962 21804 10133 20108 30083 40124 52009 80001 333 92022=
47185 32968 03609 10154 20136 30043 40127 52004=
47189 32980 43403 10189 20080 30062 40121 52008 84030 333 92011=
47192 32965 03200 10130 20098 30083 40110 52009=
58926 11658 80000 10232 20226 40106 57014 69931 71060 885//
333 10306=
58944 11256 80204 10215 20209 40125 57004 69921 76060 887//
333 10260=
91212=
13272 32780 31105 10272 20141 39983 40095 55004 83500 333 10320
83650=
13376 32698 70000 10249 20144 39861 40106 54000 83232 333 10312=
13388 31698 60801 10243 20162 39881 40111 53002 70292 83531 333
10323=
26229 32599 60201 10139 20056 40121 57018 83960
333 10167=
26313 32597 71702 10104 20074 40113 57026 81930
333 10146=
26314 11598 30804 10144 20067 40098 57028 69902 72581 82930
333 10148=
26324 32998 80601 10115 20068 40116 57020 8807/   333 10154=
26348 12599 30000 10190 20151 40122 57007 60022 82250   333 10214=
26406 11560 80802 10125 20103 40095 57024 69982 78082 889//
333 10162 88921=
26422 32697 70703 10164 20055 40113 57023 86141
333 10185 86836=
26446 32998 02401 10217 20150 40122 57005   333 10238=
26544 32964 70000 10225 20123 40103 56004 82032   333 10255=
51468 16/// /0500 10005 29031 36569 60001
555 1/124 2//00 /////=
71805 11240 80506 10066 20054 30040 40068 50001 69922 71064 886//
333 10082 20051 88704=
10177 32/// 88735 91120=
10161 84645 84460=
58725 11657 80000 10234 20230 39846 40096 57009 60021 71060
885// 333 10270=
58921 11658 80401 10231 20222 39868 40102 57012 69961 71098
885// 333 10324=
40582 31957 03513 10377 20051 40042 53019 70500 333 10440=
12295 32970 51801 10227 20148 39915 40090 55004 83032
333 10293 20166=
12185 32670 71202 10226 20167 39940 40067 57023 879//
333 10244 20119=
12195 32670 31102 10231 20143 39869 40082 56018 81202
333 10255 20122=
12360 11598 71601 10185 20150 39937 40064 55010 60062 72981 86902
333 10260 20125 91118=
12385 11697 72402 10202 20116 39910 40090 57005 69912 72511 879//
333 10283 20166 91117=
33088 32597 11101 10264 20111 40127 57005 81100 333 10314=
33246 32997 00000 10224 20186 40163 56008 333 10287=
33261 32970 00000 10230 20137 40172 57006 333 10272=
33275 32997 00602 10228 20085 40175 57004 333 10275=
33301 32597 11504 10262 20128 40123 56004 81100 333 10307=
33325 32998 01201 10234 20126 40146 57013 333 20281=
33415 32997 31406 10232 20124 40126 53002 82031 333 10281=
33429 32997 01604 10222 20113 40139 57005 333 10276=
33466 32998 00000 10236 20159 40161 57007 333 10277=
33526 32560 71302 10234 20118 40117 57002 86330 333 10301
86926=
33562 32697 41003 10220 20129 40149 57010 84500 333 10275=
33761 32998 11201 10240 20114 40156 54000 81040 333 10291=
33889 32998 01401 10232 20142 40159 57005 333 10294=
33902 32998 50000 10225 20127 40168 54000
80009 333 10302=
33983 32997 23604 10194 20142 40161 57003 82030 333 10264=
34415 32997 30000 10225 20155 40173 56001 83040 333 10312=
34523 32997 19901 10217 20120 40175 52001 81060 333 10300=
57071 32968 72004 10183
20104 40127 57011 8704/ 333//
10245=
12497 32670 31503 10251 20135 39893 40098 57009 82941
333 10289 20199=
36911 416// 61202 10204 20065 39146 40045 52013 70282 83550
333 10301=
36974 117// 70901 10115 20078 37955 48488 52004 69900 70298
83932 333 10230=
36982 115// 82105 11004 21004 36520 47067 53010 60022 77377
8802/ 333 10085=
38345 32998 20000 10180 20097 38841 48454 52007 82030 333
10253=
38353 416// 52802 10216 20034 40024 58005 72998 85400 333
10296=
38613 429// 72006 10224 20118 40044 52006 87900 333 10319=
16059 11558 63503 10204 20154 39769 40102 56008 69922 71022 83270
333 10217 83824 83360=
16080 32565 79909 10229 20113 39984 40103 56007 82250
333 10258 82825 85358=
16153 32397 62637 10185 20186 39847 40104 57005 84380 91745 333
10202
55302 81906 83810 85363 555 0414/=
16191 12662 52004 10220 20171 30101 40118 56014 60062 85500
333 10256 85640=
16158 32575 62910 10204 20148 30142 40149 57007 81101 91745 333
10238 55310 81825=
16242 32465 72404 10206 20181 30142 40145 58000 84235
333 10240 84813 83359 85073 555 0////=
16310 32597 43314 10226 20212 39932 40145 55000 82250 91745 333
10254 55303 82830 83359 555 0216/=
16261 11562 50204 10220 20200 30051 40121 53005 69922 72991 83960
91745 333 10300 55300 81830 82935 83359 94963 95000=
16320 32860 22107 10290 20120 30110 40122 56007 82030 91745 333
10292 55310 82358 555 0100/=
16420 32597 43506 10234 20178 30082 40145 53001 84200 91745 333
10264 55300 84825 555 0200/=
16429 32465 53308 10216 20202 30149 40160 55003 85200 91745 333
10238 55305 85814=
16470 31250 73110 10192 20181 39934 40166 55005 71022 87600 91745
333 10212 55300 22036 87704 95080=
16410 11468 20404 10204 20177 30012 40149 53001 69922 72111 82200
91745 333 10256 82815=
16560 32982 73112 10250 20120 30154 40160 53008 83012 91745 333
10282 55310 83460=
26554 11560 70902 10187 20159 40116 54000 60052 79598 8693/   333
10267 91113=
26666 12560 72702 10249 20132 40126 57002 69902 879//   333 10292
87930=
26850 11670 61502 10262 20118 40112 57003 69902 70361 83530   333
10299=
26863 32960 01603 10241 20143 40136 56002 333 10291=
26941 32960 02403 10272 20093 40107 57005 333 10315=
26951 32570 61802 10255 20147 40122 57004 82231   333 10304=
33008 32970 51802 10260 20126 40099 57007 85030 333 10305=
33019 32665 21601 10272 20144 40112 57004 82100 333 10313=
33036 32970 00602 10248 20121 40133 57009   333 10308=
33041 32970 01502 10247 20151 40156 57006   333 10289=
41859 11320 80902 10229 20220 39991 40031 60303 79596 8692/ 333
56299 58016 70522 84708 85612 88458 82930=
41883 113// 80904 10245 20230 30003 40023 60031 79592 8632/ 333
56399 58022 70262 83709 83615 88458 81930=
41891 31350 81305 10233 20213 40045 71722 8632/ 333 56399 58009
70576 83708 83615 81928 88460=
41907 113// 81302 10250 20220 39986 40004 69902 71355 8562/ 333
56999 59001 70002 85710 83615 88460=
41923 32340 50902 10238 20220 30020 40030 84670 333 56490 58027
70220 82709 83615=
41936 31356 71717 10284 20270 40028 70522 86930 333 70010 56990
58017 85707 83615 81930 86362=
41943 32450 81803 10225 20220 30045 40054 84530 333 56490 58001
70266 83618 83362=
41950 114// 30000 10234 20230 30028 40032 69933 70152 83800 333
56900 58005 70703 82618=
41978 11438 31303 10230 20220 40045 60016 70162 82440 333 56990
59004 82615=
41992 11445 61505 10250 20240 30029 40033 60025 70599 83410 333
56990 59014 70170 83616 86458=
26038 32998 60401 10120 20053 40121 57013 82031   333 10164   555
50134=
83695 88499=
60390 32558 63408 10234 20184 40187 53004 81202
333 10260 81826 85070 95900=
60402 32560 60807 10222 20192 40182 53003 81202
333 10242 81820 86073 95900=
60419 32970 43510 10230 20120 40176 58002 80002
333 10257 84073 95900=
60475 32665 40604 10225 20120 39250 48539 56001 82202
333 10239 82846 83073 95900=
60490 32980 43406 10240 20166 40178 55001 80002
333 10278 84073 95900=
60525 32670 13510 10324 20079 40150 55004 81202
333 10333 81840 95900=
60531 32970 20208 10265 20120 40185 53002 80002
333 10296 82073 95900=
60571 32670 31510 10332 2//// 39247 48545 57010 83200
333 10344 83840 95900=
60590 32965 00308 10316 20113 40156 56007
333 0//00 10330  =
60630 32965 00520 10346 20083 40110 56005 333 10376=
60656 32760 40000 10375 2//// 40114 56006 84100
333 10390 84840 =
60670 32960 00317 10325 20056 39039 48510 53001
333 10361 95900=
60680 32760 43212 10335 21014 38630 48498 57001 84200
333  84856 95900=
57554 11440 80000 10170 20157 40138 57011 60011 76060 885//
333 10231=
57776 11/00 90901 10171 20171 40101 57012 69971 74564 333
10198=
41240 32960 00000 10315 20237 39990 49993 333 10325 58003=
41244 36/// /2406 10333 20187 39667 40019
333 0E035 10423 59000  =
41246 32959 00202 10322 20265 39991 49996
333 10357 59002 =
41254 32960 02107 10243 21117 38016 48271 333 10310 59003=
41256 32960 02704 10311 20230 39979 49988
333 10409 59002 =
41262 36/// /1606 10345 21042 39801 49989
333 0E035 10442 59000  =
41268 32960 02113 10360 20249 39989 40004 333 10438 58000=
41288 31957 02114 10288 20260 39994 40016 70500 333 10364 58000=
41304 36/// /1410 10307 20201 39710 40027
333 0E031 10428 59000  =
41312 36/// /2004 10291 20253 30003 40043
333 0E/// 10319 58008  =
41314 32960 01811 10297 20132 39543 40056 333
10426 58002 =
41316 32561 52306 10301 20252 30015 40040 85500
333 10331 58008 85625 =
26645 31563 70701 10237 20164 40100 57007 70291 82302   333 10277=
26659 31560 60304 10223 20143 40127 53005 71791 86300   333 10298
86923=
26763 32965 01705 10241 20141 40133 57004   333 10294 91110=
26825 11560 30904 10220 20162 40089 57012 69942 70198 82202   333
10282=
26832 31560 71202 10235 20163 40098 56004 71711 84930   333 10289=
26887 32970 01703 10223 20141 40156 57007   333 10277=
26961 32962 11802 10249 20118 40133 57004 80001   333 10311=
33027 32965 11702 10265 20128 40129 56004 81060   333 10317=
16066 11420 80102 10191 20152 39861 40110
57005 60422 71022 83520 333 83610 85421=
16084 32570 82408 10220 20074 39948 40107 56005 81268 91745 333
10256 55302 81830 83360=
16120 32570 51711 10196 20180 30135 40138 57006 85200
333 10222 85820 97075 555 0300/=
16090 32560 52302 10224 20150 30024 40103 56009 84230 91745 333
10247
55302 81820 83830=
16170 32465 52813 10210 20119 30090 40134 50001 82102
333 10256 82830=
16206 32572 73112 10222 20151 30131 40139 57002 81141 91745 333
10260 81820=
16289 32560 22707 10220 20158 30064 40147 51002 82100 333 10275
82820
=
16460 31558 41103 10219 20196 30125 40145 55000 71011 82130
333 10268 82830 83358 95080=
16362 31456 42810 10222 20191 30127 40144 51001 71011 83230
333 10254 83815 83362=
16008 42565 81908 10110 20074 38495 48456 56004 885// 91745 333
10114 88630=
16020 32770 71814 10207 20110 39808 40086 53003 85210
333 10246 85850 87458=
16110 32565 70000 10238 20193 30089 40112 56009 85570 91745 333
10242
55300 85625 83358 555 0100/=
16134 32070 72022 10062 20031 37820 48486 57019 82220 91740 333
10084 55300 82801 85440=
16149 31565 50000 10212 20193 30100 40115 56009 70298 85270 91745
333 10250 81820 83830=
16230 31560 72204 10215 20192 30110 40123 51003 76192 83470
333 10271 83825 86357=
16252 32560 52104 10204 20134 39227 42785 51001 81478 91745 333
10236 55304 81625 84358=
16270 32560 51906 10266 20143 30074 40124 55003 82530
333 10274 82620 85358=
16325 32997 21409 10242 20193 30103 40117 57007 82030 91745 333
10270 82359 98265 555 0223/=
16360 32997 22304 10246 20108 39994 40122 56018 82030 91745 333
10262 55308 82359 555 0////=
16400 32497 33505 10218 20194 39871 40151 56003 83230 91745 333
10250 55310 22/// 81818 555 0100/=
16453 32597 22608 10226 20148 30068 40144 56004 82800 91745 333
10276 55303 81824 98077 555 0100/=
16480 32597 20802 10210 20140 30084 40144 51006 81570 91745 333
10246 55300 81630 555 0200/=
11414 11575 89902 10126 20088 39387 42731 58001 69902 70261 8452/
333 10194 84623 88458
555 378// 50145 60142 70137 80128=
11438 11680 82504 10154 20091 39709 40091 50001 69962 70262 8327/
333 10232 83835 88461
555 366//=
11502 01488 79901 10132 20114 39643 40084 50005 60022 72162 8387/
333 10189 69915 81810 87462
555 389// 50165 60164 70158 80142 90127=
11538 01868 83004 10137 20086 39513 40103 52028 69912 76082 8807/
333 10250 69905 88556
555 371// 50206 60195 70161 80137=
11628 11465 73201 10135 20111 39478 40092 53017 60242 72598 87500
333 10243 87610
555 385//=
11643 01460 82201 10114 20110 39155 42733 53003 60042 72998 8426/
333 10180 60045 84814 87357
555 397// 50159 60156 70142=
11683 01215 83106 10124 20121 39249 42740 53016 60022 79511 8797/
333 10211 60025 86905
555 398//=
11693 31460 63109 10193 20126 39601 40064 50004 71792 86900
333 10240 84913 91016
555 365//=
11698 32582 72808 10181 20117 39674 40063 55000 86201
333 10250 86823 91014
555 366// 50217 60213 7//// 8//// 9////=
11710 32562 71706 10212 20097 39469 40050 56009 8357/
333 10246 83630 87358
555 348// 50207 60203 70177 80140=
38392 32997 53604 10273 20064 40084 53027 85060 333   10370=
38507 32996 22903 10176 20145 40114 52020 80001 333   10275=
38545 32998 23302 10227 20125 40067 53014 82050 333   10347=
38763 32697 22508 10256 20162 40107 52015 82200 333   10323=
38880 329// 03104 10284 20114 40098 52025 333   10356=
38974 329// 03204 10260 20013 40060 52017 333   10365=
38895 32997 23302 10275 200// 4//// 5//// 82030 333   10367=
38911 32997 03003 10274 20038 40011 53009 333   10391=
38799 32997 13602 10292 20059 40045 52016 81030 333   10393=
38806 32997 03602 10272 20046 40027 52009 333   10370=
38915 32997 032// 10325 20126 40000 51006 333   10410=
38750 32597 52809 10208 20169 40143 52018 85500 333   10236=
38987 329// 01901 10243 20025 40059 52023 333   10371=
38774 329// 01601 10280 20157 40110 52016 333   10345=
38687 32996 03202 10226 20095 40043 53011 333   10348=
38149 42598 83605 10214 20109 40096 58002 69902 889// 33310   558
83089=
38178 429// 00103 10257 20082 40066 57009   333 10339=
38264 35798 83606 10272 20109 40088 52012 8297/   333 10359=
38396 42996 63603 10249 20094 40085 53016 86080   333 10355=
38403 429// 00903 10305 20110 40063 53008   333 10368=
38413 429// 00803 10275 20025 40069 52011   333 10350=
38457 32598 70201 10238 20106 40040 52011 83362   333 10332=
38462 42997 50000 10158 20056 38708 48465 52002 84051   333 10264=
38565 329// 50000 10213 20081 40055 53007 85040   333 10314=
38579 329// 31701 10224 20115 40036 50006 80001   333 10330=
38583 42997 42701 10234 20128 40037 53006 82201   333 10347=
38611 42697 70903 10265 20133 40023 52010 889//   333 10354 83389=
38618 326// 80000 10227 20151 40017 57001 8655/   333 10325=
38683 41996 83205 10252 20034 40049 53013 70522 82031   333 10360=
38696 329// 01603 10237 20030 40029 53004   333 10316=
38812 42997 23203 10241 20104 40016 53004 80001   333 10365=
38927 32997 02802 10267 20027 49989 52009   333 10422=
43466 32498 30000 10280 20246 30086 40094 83100 333 59005
83818=
40356 42960 02708 10270 21050 39138 48492 333 10340 58011
55120 555 04410 50072=
40357 42962 01205 10300 21020 39459 40058 333 10360 58020 55///=
40360 42960 03015 10274 20030 39518 40079 333 10370 58003 55123=
40361 42960 01104 10314 21010 39327 40050 333 10364 58019 55///=
40362 42962 00106 10310 20090 39568 40057 333 10379 58040 55105=
40373 42960 03610 10352 21010 39635 40024 333 10430 58011 55///=
40375 42960 00304 10310 20040 39214 40044 333 10360 59002 55125=
40377 42960 03610 10348 20120 39578 40025 333 10420 58012 55///=
40394 42960 00608 10310 20010 38986 48486 333 10360 58023 55110
555 04410 50046=
40400 42960 03308 10272 20200 30033 40060 333 10300 58003 55124=
40405 42960 03510 10344 21020 39327 40017 333 10434 58033
55///=
40416 42960 03412 10340 20120 39983 40002 333 10440 59007 55///=
40420 42960 03604 10350 20040 39823 40016 333 10450 59008 55///=
40430 42960 02310 10370 20070 39335 40009 333 10420 59002 55116=
40437 42960 03205 10360 21030 39347 49995 333 10447 59006 55110=
40438 42960 01306 10380 20000 39354 40009 333 10440 59008 55105=
40439 42960 02908 10278 20200 30029 40041 333 10384 58007 55///=
56651 32680 20000 10151 20117 37613 57002 82400 333 00100
10222=
56951 32770 70000 10194 20176 38473 54000 87400 333 00100
10259=
41024 42960 03606 10300 20180 30027 40046 333 10400 58004 55104=
41030 42960 03002 10344 20140 39768 40029 333 10448 59001 55///=
41055 42960 02404 10290 20080 38340 48480 333 10360 58004 55100
555 04410 50007=
41084 42960 00904 10320 21040 38806 48471 333 10399 58005 55115
555 04410 50004=
41112 42960 10000 10235 20078 37935 48482 81030 333 10320 58006
55109 81357 555 04410 50019=
41114 42960 02705 10248 20133 37968 48480 333 10337 58003 55110
555 04410 50012=
41128 42960 00000 10290 21050 38759 48477 333 10395
58012 55114 555 04410 50009=
41136 42960 00608 10360 21060 39247 40005 333 10420 58003 55103=
41140 42960 23108 10333 20260 30022 40030 82030 333 10370 58006
82360=
60355 32965 40000 10212 20190 40181 53005 80002
333 10222 84073 95900=
60445 32960 63607 10220 21013 39027 48551 54000 80002
333 10244 86073 95900
60506 32970 33510 10260 20119 40182 53002 80001
333 10291 83073 95900=
60511 32565 13510 10254 20049 39087 48545 55000 81101
333 10272 81826 95900=
60535 32670 23408 10235 20017 38865 48541 53001 81101
333 10242 81840 95900=
60549 32560 23506 10273 20073 38895 48536 55000 82100
333 10288 82830 95900=
60550 32670 33606 10250 20030 38708 48553 55001 83100
333 10265 83840 95900=
60555 32970 20000 10310 20131 40166 55006 82030
333 10320 82360=
60559 32960 30000 10303 20145 40155 57008 80002
333 10313 83073=
60560 32670 50000 10302 20075 39975 48534 56003 85200
333 10309 85840 95900=
60602 32675 20000 10358 20044 40124 56006 82200
333 10365 82843 95900=
60620 32960  00418 10360 2//// 40120 56013
333 10375=
10215=
11146 31/00 92412 11004 21010 36927 47027 58006 74544 333
10003 89/00 91117=
58730 11458 80702 10215 20209 40098 57010 60101 78086 884//
333 10266=
58731 11358 80000 10202 20200 40108 57011 60161 76066 887//
333 10245=
58754 11550 80000 10199 20191 40134 57017 60021 76066 885//
333 10226=
58911 11572 80000 10220 20217 40101 57016 69921 76060 885//
333 10289=
11001 21068=
20046 87626 =
12270 11550 70000 10170 20156 39905 40080 55004 60032 71782 879//
333 10254 20127
555 91118=
12300 11560 82002 10152 20140 39970 40057 57002 60032 72522 889//
333 10198 20069=
12230 12462 70000 10176 20140 39972 40058 58012 60012 81532
333 10182 20117=
56684 32565 80402 10131 20112 37884 52006 885// 333 00151
10250=
56751 32678 21406 10176 20146 37993 52001 82400 333 00100
10246=
56786 32565 81805 10184 20166 38089 52002 884// 333 00002
10254=
56886 32470 81602 10191 20182 38242 54000 884// 333 00002
10255=
56977 11470 80000 10216 20207 40056 54000 60021 79598 889//
333 00100 10296=
57206 32680 81101 10174 20136 40119 57010 8657/ 333 10240=
57713 11462 80000 10160 20150 40115 57012 69931 76060 885//
333 00153 10198=
47401 41250 83007 10087 20084 39829 49842 53011 78082 887//=
47412 41/65 80402 10136 20098 39849 49879 51027 78082 882//=
47420 41/60 22221 10112 20089 39803 49848 55018 7024/ 82600=
47426 41/60 82726 10101 20092 39852 49895 56008 78088 887//=
47582 41/65 72621 10141 20114 39980 40005 53014 72582 8627/=
47590 41/75 43009 10189 20117 39936 49986 53020 70380 81204=
47600 41/60 32204 10152 20132 30039 40055 53011 7028/ 83200=
47648 42/65 60502 10186 20173 39971 40003 51008 83572=
47662 42/60 72903 10223 20181 39965 40006 53013 82501=
47678 42/60 62717 10213 20201 39958 40050 53003 86200=
47740 41/60 23008 10164 20137 30039 40076 52012 70281 82530=
47778 42/60 42907 10205 20142 39969 40055 53008 81031=
47807 42970 01504 10166 20131 30087 40104 52004=
47827 42/60 63204 10182 20145 30068 40105 53001 81130=
47843 42975 03210 10178 20135 30076 40107 52002=
47898 41970 73505 10186 20137 30044 40082 53009 702// 82032=
47909 42/60 71601 10205 20183 30111 40120 56003 8127/=
47918 41/70 72208 10273 20255 30093 40101 58015 70298 8327/=
47936 41/60 80705 10228 20214 30055 40116 56010 72162 888//=
47945 41/20 72404 10246 20243 30094 40117 57008 71342 879//=
47971 41/08 92004 10233 20228 30128 40137 56005 74554=
47991 42/80 51010 10264 20220 30143 40153 55001 82232=
47407 41/58 82007 10121 20088 39723 49858 51018 78082 882//=
47409 41/60 73508 10112 20098 39779 49829 53005 70281 872//=
47418 41/58 62118 10097 20083 39807 49850 55004 71041 81672=
47421 41/30 82910 10103 20100 39875 49920 53055 7816/ 882//=
47430 41/65 72923 10122 20094 39869 49920 53023 78088 872//=
47570 41/58 83304 10154 20132 39783 40031 53016 78082 882//=
47575 41/58 82814 10135 20119 39959 49963 53032 78082 882//=
47585 41/70 72402 10188 20093 39899 49953 53027 70282 878//=
47598 42970 72205 10180 20145 39994 40000 51011 80002=
47602 41/60 62819 10162 20139 30024 40044 53014 70282 86200=
47605 41/30 72412 10177 20157 30028 40067 53014 71022 872//=
47618 42/60 61105 10174 20077 39335 40021 53009 82102=
47624 42975 63404 10193 20118 39884 40014 51013 82032=
47636 42/65 62907 10191 20142 39991 40056 53004 82530=
47655 42965 12814 10194 20142 39977 40031 53007 80002=
47663 41960 52502 10176 20165 30025 40057 53011 702// 80001=
47675 42960 11911 10189 20156 39920 40012 50004 81031=
47741 41/56 52511 10178 20151 30058 40083 53010 71022 81102=
47746 42/70 73503 10193 20130 30062 40080 53010 86202=
47750 41/58 23101 10164 20151 30048 40074 53011 71011 81102=
47755 41962 22106 10181 20155 30072 40096 53009 702// 80001=
47772 42/60 70804 10213 20142 39974 40069 53009 8627/=
47800 42970 11601 10163 20083 30081 40103 51011 80001=
47815 42/65 23102 10189 20124 30079 40094 53007 81130=
47817 42980 10901 10163 20143 30068 40110 53002 80001=
47830 42965 72806 10179 20128 30074 40091 51008 87030=
47837 42/60 22915 10197 20152 30078 40099 55000 82100=
47887 42/60 60803 10175 20140 30055 40095 53006 86130=
47891 42965 72610 10197 20129 30070 40082 53015 81031=
47899 42970 23014 10188 20139 39849 40064 53006 80002=
47927 41/60 81807 10262 20255 30059 40106 56017 78082 8797/=
33345 32998 01702 10232 20148 40159 57010 333 10280=
33631 32697 31003 10272 20142 40099 57010 83100 333 10304=
33837 32999 22703 10218 20119 40165 56007 82030 333 10262=
33924 32998 60000 10206 20174 40171 57003 85038 333 10276=
33317 32988 01501 10227 20105 40137 57004 333 10291=
16181 11557 73204 10194 20186 39888 40128 55004 60132 72992 85970
91745 333 10244 55300 82920 83825 95090=
16219 11/00 92613 10108 20084 38143 48514 58005 69982 74564 91745
333 10158 55300 89/00 95090 95190=
16280 32997 32712 10206 20167 39920 40135 58016 80002 91745 333
10238 55305 555 0317/=
16520 32575 69909 10206 20164 30143 40170 55002 83202
333 10237 83820=
16522 32498 53205 10192 20155 39932 40171 58007 82101 91745 333
10206 55303 82815 555 0200/=
16550 31496 61604 10242 20174 39970 40143 56002 71011 82231 91745
333 10256 55310 82810 83358 555 0200/=
16564 32498 62916 10246 20081 30012 40148 53001 81101 91745 333
10248 81815 555 0316/=
56586 11460 80000 10099 20088 38043 57007 60011 76060 885//
333 00000 10141=
56748 32980 00000 10175 20156 38319 54000 333 00100 10243=
56763 32680 11802 10251 20175 40008 52005 81400 333 00102
10337=
56768 32680 20000 10207 20137 38199 52002 82400 333 00102
10274=
56838 32970 00000 10222 20195 40067 54000 333 00151 10313=
56946 11575 80000 10205 20196 40069 52002 60181 70080 889//
333 00100 10293=
56954 31556 10000 10201 20189 40075 52003 71000 81100 333
00101 10293=
56959 11770 40000 10226 20222 40049 57001 69911 70080 84400
333 00100 10325=
56966 11765 73201 10251 20234 40037 57001 60051 72598 874//
333 00100 10362=
56969 32660 30000 10231 20225 40063 54000 83400 333 00100
10332=
56986 32260 70000 10197 20188 40066 57002 874// 333 00100
10240=
59007 32462 80000 10208 20201 40064 57008 885// 333 10246=
40155 31459 53307 10228 20198 30103 40113 58004 71000 85200 333 10272=
40180 32460 23407 10229 20196 30074 40121 53011 82100 333 10282=
40199 32970 00313 10317 20066 30087 40090 52013 333 10350=
83499 22200 20201 320// 40303 80230=
82100 22214 02270 20301 321// 40502 5//// 80245=
82198 22224 00270 299// 80254=
62402 28184 99548 10046 41395 83432 10083 20067 49986 54000 761//
887// 22200 00100 20405 3//// 4//// 5//// 80075=
41598 30506 10270 20250 40119 57011 70200 82240
22261 00290 2//// 3//// 4//// 80255=
41697 81308 10187 20163 40212 55005 70322 884//
22270 00189 20101 307// 40503=
41592 93314 10100 20120 40180 54000 72842 896/7 91755
22224 00090 20202 40202 80100=
70200 88500 22200 06054 20301 321// 40702 5//// 85100=
15549 17162 35067 36101 05008 07260 10123 11173 12411 13409 14739
15551 17160 35067 36086=
80074=
80077=
62120 28184 99564 10021 46698 ///// 10365 49993 52004 22200 80084=
62103 28184 99499 70029 46/98 /2723 10117 20086 40111 52010 22200
00117 10704 70021 555 1//35 05006 07274 10117 11173 12417 13417
14730 15551 17258 35064 36082 05005 07253 10129 11189 12424 13418
14733 15552 17271 35065 36086=
62301 28183 99523 70045 46/// /2614 1//// 2//// 40061 22200 00135
10402=
15550 18001 19021 22175 23021 35054 36052 50055 51002 52012 53296
70001 71000 72871 73137 74012 75417 76900 90104 05272 10052 11074
12406 13413 14571 15550 18002 19022 22175 35054 36052 50055 71000
72871 73136 74012 75417 76900 90167=
81100 22213 00180 20403 32500 40404 50000 80200=
80416 32470 60704 10261 20151 39208 48581 867// 333 30///
569// 59016 86716 1017=
80420 32470 43607 10311 20216 30081 40087 84200 333 30///
56200 59015 84813 1010=
80425 32470 61602 10328 20243 30058 40089 8252/ 333 5699/
59004 82613 84460 1008=
80427 32570 71804 10304 20185 39855 40108 8357/ 333 30///
5699/ 59012 83620 84459 1012=
80431 32570 51805 10312 20198 39589 40055 852// 333 30///
569// 59014 85820 1009=
80475 11456 80000 10199 20166 39772 40137 60111 76066 887//
333 32/// 569// 58006 88713 1015=
80403 32480 70607 10320 20239 30117 40136 81205 333 30///
56909 59010 81816 86075 1014=
80407 32470 61403 10318 20230 30007 40082 86900 333 30///
569// 59007 86816 81916 1008=
80410 32470 80905 10292 20209 39411 40083 84238 333 30///
56999 59016 84816 1012=
80413 32470 82704 10297 20188 39599 40083 83528 333 30///
56999 59015 83616 1010=
80415 32570 50501 10292 20247 30066 40120 855// 333 30///
569// 59007 85620 1012=
80419 32370 63404 10311 20190 30069 40078 84805 333 30///
56909 59018 84810 83080 1007=
80421 32464 50908 10308 20246 30086 40108 83806 333 30///
56209 59020 83816 1011=
80428 32470 80703 10292 20233 39921 40104 8627/ 333 5699/
58011 86817 83357 1014=
80435 11320 83303 10254 20236 30022 40098 60201 79588 8497/
333 33/// 5629/ 59015 82910 84713 85457 1010=
80438 32575 82503 10233 20130 38503 48500 81517 333 30///
56999 58003 81630 83461 88280 1018=
80444 32470 80201 10327 20221 30019 40070 83508 333 30///
56209 59009 83613 87280 1006=
80447 32565 81114 10287 20149 39646 40063 83507 333 30///
56909 59009 83620 85280 1011=
80457 12470 62502 10308 20181 30027 40111 69901 865// 333
31/// 569// 58008 86610 1011=
82900 22233 20202 312// 40803 80250=
51765 32980 03401 10186 20068 39099 40022 52004 333 05103
10322=
51777 32970 62203 10262 20023 39070 40028 54000 80002 333
05106 10322=
51053 32980 00702 10152 20096 40081 57004 333 05304 10215=
51467 32980 00000 10153 21055 38221 52008 333 05102 10236=
51495 32980 13616 10194 20004 40125 52005 80002 333 00152
10263 91121 91536=
51542 32680 13402 10028 21023 37556 52004 81400 333 05151
10154=
51711 32780 22705 10120 20032 37984 52008 82502 333 05203
10262=
51356 32970 01403 10203 20069 40059 57016 333 05605 10263=
55228 32980 02202 10061 21116 36073 52019 333 00351 10162=
56106 11780 71402 10051 20016 36252 52003 60011 70080 874//
333 00351 10146=
55279 32980 00000 10036 21059 35731 54000 333 00102 10100=
55472 11980 00000 10034 21037 35787 52004 69901 70080 333
00201 10112=
55696 32680 50403 10084 20038 36356 52003 85400 333 00152
10152=
55299 32880 20000 10026 20008 35892 52002 82400 333 00201
10087=
55437 32780 21602 10070 20015 36378 52005 82100 333 00152
10185=
55248 32780 22701 10032 21106 35970 52017 82100 333 00101
10144=
10402=
51828 32970 72203 10227 20010 38573 40019 52013 80002 333//
05201 10307=
56739 32575 82001 10179 20167 38328 57002 884// 333 00102
10227=
56964 11570 10000 10208 20195 38672 40059 52005 69911 70080
81100 333 00101 10288=
52203 32980 60000 10162 20081 39210 40026 57005 80002 333
00254 10300=
56444 11565 80902 10093 20081 36817 57005 69941 76086 888//
333 00100 10136=
51076 32980 20000 10111 20073 39258 40106 52004 80002 333
00000 10197=
51243 32980 03202 10204 20083 39549 40060 52004 333 05403
10275=
51288 32680 10000 10062 20015 38303 57002 81400 333 05351
10117=
51463 32980 02003 10150 20049 39038 40084 57012 333 05403
10212=
51730 32975 01401 10180 20100 40016 52006 333 05301 10317=
51232 32980 11804 10230 20049 40061 57002 80002 333 05604
10291=
51346 32980 01402 10193 20065 40051 57010 333 05601 10265=
53478 32975 00000 10099 20070 40107 54000 333 10230=
85864 11570 72403 10084 20076 40138 52010 60021 70182 87200
333 56600 82610 86835=
85470 32980 52709 10172 20088 40139 57008 80002
333 56006 85070=
65352 32960 70000 10335 20207 39914 40089 80002
333 10360 59017 87076=
65361 32470 71804 10290 20217 39659 40095 82232
333 10310 59003 82816 87076=
65376 32460 72204 10294 20209 39639 40097 83202
333 10/// 59011 83813 87076=
65387 32465 71804 10292 20238 30075 40103 81202
333 10325 59008 81813 87073=
67027 32980 02806 10250 20220 30120 40145 52018
333 10320=
67083 32470 50000 10167 20105 38762 48533 52021 85800
333 10252 81817 85620=
67095 32475 30000 10206 20193 30150 40156 52019 83800
333 10285 83817
555 81633=
67161 32580 10000 10196 20188 30157 40166 52018 81200
333 10285 81820=
67197 11470 30000 10197 20181 30154 40164 52016 69912 71561 83800
333 10274 81817 83633=
64387 32665 62708 10198 20158 38518 48512 84230
333 10250 58002 84833 83360 1019.6=
64504 11465 7//// 10259 20232 30104 40119 60162 70396 8437/
333 10/// 58005 84813 81916 87461 94941 95831=
64507 32460 7//// 10255 20226 3//// 40/// 878//
333 10308 5//// 84813 87630=
64560 11460 3//// 10238 20223 39569 40106 6///2 7131/ 83300 913//
333 10284 58013 83613 81916 95448 95818=
65338 32460 71806 10287 20240 39913 40101 84802
333 10328 59009 83611 85076 94919 95818=
71926 11380 71112 11005 21014 30136 40159 57017 69901 73652
87700 333 11004 21023 44038 79999 90933=
86500 333 10051 20018 70025 90917=
71951 11380 81808 10091 20069 39888 40152 53027 60021 78082 882//
333 10097 20082 70042 90926=
91772 31498 51706 10244 20191 40120 70222 83808 333 563/9=
91784 31599 21906 10220 20134 40115 70200 81131 333 564/9 81820=
91792 31599 52105 10207 20148 40131 53007 70301 85100 333 565//
85820=
65306 32560 72204 10342 20199 39749 40071 83832
333 10355 59014 82620 84363 86076 94913 95833
65319 32960 5//// 10325 20209 39573 40079 80002=
65330 32560 60000 10342 20191 39655 40087 81132
333 10320 59009 81823 85076 94906 95816=
65335 32460 7//// 10307 20230 39863 40087 83802
333 10334 59009 82813 85076 94902 95812=
65344 32460 71810 10285 20242 30091 40101 85802
333
91577 32570 10406 10197 20180 40124 53004 81100
333 81826=
91579 36/// /0000 10180 20177 40125 53001=
91582 32462 20000 10168 20160 40128 55000 82100
333 56000 82810=
91583 06/// /1702 10214 20206 40126 55000 69961
333 69967=
91587 06/// /2002 10140 20135 30084 40135 55001 69922
333 10232 20139 69927=
91590 32765 11604 10179 20173 40123 57001 81500
333 81650=
91592 32565 13604 10209 20181 40123 57001 81101
333 56100 81830=
61968 16/// /0000 10215 20201 30143 40148 69962
333 10302 58012=
61970 36/// /1806 10246 20188 30153 40165
333 10285 58018=
61972 36/// /2306 10236 20183 30166 40181
333 10273 58020=
61976 91456 70708 10237 20218 40158 69962 76161 878//
333 10283 58007 84815 87650 92446=
61980 32565 31406 10221 20175 40173 83800
333 10276 58007 81820 83657 924/7=
67005 36/// /2606 10255 20220 40155
333 10291 58016=
61996 16/// /2527 10126 20089 40091 60022
333 10127 58057 91149=
61998 16/// /2527 10013 21014 39922 49958 53024 69922
333 10019 58063 91039=
91570 06/// /0708 10248 20236 30110 40113 52002 69921
333 69927=
91574 36/// /1816 10225 20222 30116 40122 56003=
91598 06/// /1324 10175 30095 40127 55005 69981
333 69947=
61701 32960 03311 10255 20197 40100 80000
333 10286 58012=
91944 36/// /0708 10271 20231 30134 40140 51015=
91945 36/// /0508 10259 20222 30126 40131 51018 555 1//17 59035=
61712 32960 03203 10340 20211 4//// 80000
333 10360 5////=
89050 41492 30000 11042 21045 40215 51012 74640 83500 333
83699=
89512 32972 81344 11078 21275 40049 53004 86031 333 11071=
89592 41990 01034 11144 21144 49929 57012 73973 80000=
89606 42982 02608 11768 21804 36337 47572 53003=
89022 41697 41304 11278 21296 30070 40112 57001 77077 84070
333 84340=
61809 32560 23602 18370 20182 3//// 4//// 81202
333 10373 5//// 81820 82075=
61811 32975 01802 10333 20186 3//// 4////
333 10/// 5////=
61820 31465 70414 10285 28205 39237 40070 71792 87970
333 10297 59001 81360 35338=
61832 11470 62704 10285 20250 40084 60022 71762 84970
333 10328 58004 84616=
61833 32465 30010 10310 20211 40080 82230
333 10/// 59007 82816 83360=
61834 12465 80000 10255 20221 3//// 4//// 60952 83472
333 10325 5//// 83817 85320 83076=
61849 32575 52202 10288 20213 39589 40095 85200
333 10302 59081 85820=
91754 01475 81308 10266 20229 40108 53008 60021 70282 888//
333 69927 81810 86819=
59004 82613 84460 1008=
86330 32998 10000 10194 20092 40176 57018 80001=
86360 32997 10605 10198 20115 40168 57024 800006=
86460 32998 30000 10178 20068 40165 58021 80005=
86560 32997 22004 10181 20105 40166 55016 80001=
86565 32598 21906 10148 20086 40163 57015 81401=
86580 32597 21606 10148 20094 40168 57016 81201=
83377 31697 72304 10252 20099 38850 40100 70544 86405 333 59005=
83378 32670 63006 10284 20107 38950 48504 83130 333
59007=
83208 32570 40906 10300 20184 39420 40089 82230 333 59008=
83766 32997 00000 10246 20090 39494 40153 58015=
83767 32997 02302 10217 20061 39531 40195 58016=
83768 32970 02302 10230 20040 39493 40148 56017=
83783 32997 11406 10222 20018 39463 40142 56015 80002=
83811 32997 02302 10192 20021 39233 40129 56002=
83813 32997 02702 10180 20042 39031 40140 56016=
83836 32997 02303 10175 20016 39144 40129 56018=
83840 32970 03005 10176 21015 39116 40164 55003=
83844 32597 11805 10224 20040 30126 40133 56019 81100=
83872 32997 02306 10202 20058 30067 40150 58016=
83881 31997 02704 10170 20079 39868 40178 56023 70241=
83883 32997 02302 10164 20024 39382 40167 57020=
83887 32997 02306 10135 21013 39092 40152 57021=
83899 32970 02006 10214 20060 30136 40136 56017=
83907 32997 22302 10190 20084 39868 40158 56006 80001=
83912 32997 02302 10164 20060 39599 40145 57010=
83914 32997 12307 10148 20027 39387 40185 57012 80001=
83919 32997 02702 10118 20041 38971 40172 57013=
83927 32997 00502 10186 20114 30099 40182 57013=
83936 32997 22303 10186 20094 30027 40152 56015 80001=
83948 32597 12306 10197 20109 30099 40137 57015 81100=
83953 32997 01402 10180 20099 39798 4//// 58013=
83964 32997 02302 10161 20056 39660 40167 57007=
83971 32570 42304 10181 20112 30166 40166 58011 84500=
83980 31596 12306 10142 20025 39890 40180 57016 70500 81100=
83995 32697 72308 10148 20102 30160 40164 54000 87400=
83997 32497 22310 10157 20095 30115 40160 56009 82200=
83612 32970 01508 10274 20122 39490 40119 57029=
83716 32970 01904 10264 20006 39619 40129 57016=
83722 31962 01810 10242 20082 39428 40123 56020 70500=
83780 32970 00000  10218 20030 39223 40117 56021=
83818 32570 31808 10208 20133 30136 40139 56009 83500=
83827 32970 02602 10206 20079 39886 40172 58024=
83649 32470 61810 10260 20225 40104 56017 83550=
61627 32960 03204 10380 20168 30052 40075
333 10390 58012=
61630 32962 00404 10428 20168 30040 40059
333 10440 58003=
61641 32458 73410 10223 20188 30078 40111 875//
333 10204 58011 87613=
61679 32962 02708 10348 20207 30088 40096
333 10372 58016=
61695 32962 02806 10317 20220 30070 40096
333 10350 58009=
58011 86817 83357 1014=
82979 32498 31803 10322 20177 39646 40108 83100 333 59021=
82986 32699 31403 10315 20177 39790 40073 83060 333 59009=
83090 32698 61408 10298 20186 39611 40137 86100 333 58031=
83096 32698 10906 10276 20225 30087 40094 81100 333 59024=
83097 32598 2//// 10296 20218 30059 40082 82200 333 58010=
83179 32598 51803 10334 20129 39616 40060 83101 333 59024=
83182 32597 31405 10308 20117 39259 40088 82201 333 59016=
83186 32598 51405 10279 20193 39510 40067 83204 333 59013=
83195 32499 305// 10288 20208 39850 40096 82101 333 59014=
83236 32598 73602 10321 20165 39591 40/// 82106 333 59011=
83242 32497 71803 10271 20179 39601 40082 81303 333 59018=
83244 32697 52303 10308 20156 39790 40080 83204 333 59017=
83248 32470 21507 10278 20240 40106 82200 333 59021=
83286 32598 4//// 10317 20131 39430 40079 84300 333 59007=
83288 32598 61801 10326 20164 39582 40089 82108 333 59011=
83339  32498 60000 10292 20138 39118 40084 84201 333 59016=
83349 32570 30506 10280 20244 40100 81101 333 59019=
83398 32597 63606 10278 20230 30090 40095 83240 333 59022=
83408 32598 52709 10333 20096 39565 40052 83202 333 59016=
82287 21596 73203 10286 20260 30027 40053 70321 85400 333
59005 69901=
82392 32498 20903 10318 20222 39964 40065 82100 333 59003=
82398 32570 20910 10320 20218 40094 82100 333 59009=
82400 21470 51804 10260 20246 40097 70162 82134 333 59012 60201=
82493 32596 209// 10313 20227 30062 40076 82100 333 59009=
82579 32570 31206 10336 20227 40076 83100 333 59010=
82583 32599 21803 10332 20174 39743 40078 82100 333 59014=
82599 32570 31415 1029 20219 40097 83200 333 59009=
82678 32598 20903 10326 20168 39939 40096 86200 333 59001=
82683 32595 30904 10332 20138 39630 40076 83100 333 59012=
82686 32598 30903 10316 20175 39846 4009955 82100 333 59004=
82689 32998 02302 10332 20099 39813 40077 333 59007=
82780 32698 21402 10346 20164 39828 40078 82100 333 59004=
82784 32598 11403 10319 20149 49625 40089 81100 333 59010=
82789 32599 01805 10268 20135 38984 40104 333 59010=
82791 32599 20503 10339 20129 39779 40060 82100 333 59011=
82795 32597 20906 10280 20150 39477 40090 82100 333 59010=
82798 32596 70906 10288 20230 30110 40131 87200 333 59001=
82879 325983 59020=
82882 32998 01806 10320 20212 39644 40057 333 59010=
82886 32697 21405 10325 20180 39685 40063 81101 333 59014=
82893 32798 11405 10250 20231 39193 40089 81100 333 59013=
82899 32570 31706 10291 20211 40104 83200 333 59010=
82983 32595 20503 10318 20149 39671 40082 82100 333 59017=
82026 21458 63604 10260 20246 40083 76271 86200 333
58002 60051=
82193 32570 53508 10295 20247 40059 84204 333 59004=
82022 32570 61704 10312 20228 40094 85101 333
59010=
82332 42570 60000 10312 20262 40093 83204 333 59001=
82824 32570 50305 10332 20217 40098 84204 333 59002=
82917 32670 50405 10318 20216 40104 85100 333 58003=
61687 32957 53406 10385 20098 30017 40072 80002
333 10395 58004 85073=
78866 32584 31111 10308 20247 30139 40143 57020 83200
333 59019 83825=
58016=
59015=
83264 32897 60505 10325 20222 39690 40101 82208 333 59002=
83309 31599 61804 10320 20275 39796 40116 70510 85940 333
58000=
83358 32797 60000 10310 20187 39698 40096 84128 333 59005=
83361 32698 63603 10334 20274 39927 40131 83280 333 59015=
83405 31597 53204 10328 20237 39972 40105 70544 85200 333
58002=
80001 32570 30706 10289 20250 30122 40123 82201
333 10296 20269 57832 58003 82823=
80028 31470 70903 10334 20236 30064 40081 70522 84101
333 564/9 59009 84815 85070=
80063 31458 83105 10293 20260 71522 8672/
333 5600/ 86712 86458=
80084 01358 82403 10260 20246 600// 75262 885//
333 560// 88607=
80091 31468 70000 10286 20234 70522 83101
333 569/9 83815 84070=
80094 31462 83404 10220 20196 38808 71522 8587/
333 5600/ 58007 85815 85360=
80097 32568 81410 10302 20184 39740 40083 8487/
333 5600/ 58002 84823 84359=
80099 31456 81803 10262 20232 39910 40055 75322 888//
333 568// 58009 88810=
80112 11470 70000 10208 20142 37891 60021 70552 83278
333 56000 57894 59015 83818 83358 86270=
80144 01250 82703 10248 20239 60151 71552 86710
333 5600/ 60047 86708 88457=
64700 32660 52610 10310 20163 39724 40055 81332 91756
333 10390 58007 81950 85075=
64750 32962 20000 10330 20179 39656 40056 80002 91755
333 10360 59056 82075=
30433 42999 23102 10046 21042 40099 58005 81041=
30554 42/// 00000 11040 21074 40129 52006=
30635 429// 00000 10048 21018 40092 54000=
30673 42699 33103 10044 21034 40026 57006 81401=
30692 42999 00000 11002 21011 49983 52003=
30758 42984 00701 10022 21046 40072 52010=
30802 42697 80000 10084 20073 38604 48410 58004 86530   333 95790=
30823 42984 80000 10077 21019 40067 52002 83032=
30879 42999 00000 10022 21031 40044 52011=
30935 42999 80301 10111 20045 40047 53001 86041=
30965 42984 60000 10024 21039 40075 52012 80002=
31300 42984 02701 10017 21011 49956 58011=
31329 41499 80000 10060 20060 49927 57013 70282 889//=
31369 41497 80705 10062 20048 49974 57026 78082 889//   333 88915
95010 91114=
31416 41598 83603 10033 20030 49949 57002 78082 889//=
31484 41560 80000 10102 20095 49921 57013 78182 889//=
31510 429// 03101 10093 21012 49962 58001=
31735 42997 31601 10095 20095 49902 57025 80001=
11603 01665 82706 10143 20097 39626 40089 53013 69912 76162 8447/
333 10198 69915 84636 87459=
44231 415// 80000 10098 20078 38591 40015 51001 76162 8852/=
44259 32998 60502 10143 21025 39193 40037 58003 84044=
44277 325// 72702 10049 20032 37753 40076 54000 84554=
44288 32899 32302 10126 20011 38072 49984 57006 83040=
44292 328// 83202 10168 20040 38555 49965 58007 8807/=
44304 329// 20507 10135 20021 38851 49990 58008 82040=
44373 32999 32003 10194 21050 38436 49996 57010 82048=
40250 32970 00000 10274 20045 39312 40061 54002 333 10330=
40265 32960 02308 10218 20133 39348 40116 53005 333 10295=
40296 32965 00000 10316 20157 40128 52009 333 10346=
40310 32960 03314 10210 20085 38518 48481 57003 333 10330=
40255 32960 02408 10206 20086 39423 40116 54000 333 10280=
40260 31958 03118 10262 20174 39337 40080 52009 70700 333 10328=
40270 32960 02616 10206 20087 39238 40103 52003 333 10285=
40272 32960 03110 10210 20135 39298 40104 52010 333 10302=
40340 31958 03512 10314 20158 40078 52014 70500 333 10352=
48300 32562 30000 10255 20242 39764 40065 82530
333 59010=
48327 32962 00000 10248 20228 39708 40062
333 58006=
48331 32560 20000 10261 20250 39834 40062 84551
333 58001=
48353 31560 20000 10262 20237 39771 40056 70191 81502
333 58009=
48356 32962 00000 10279 20267 39865 40059
333 58010=
48375 32560 70000 10263 20241 39842 40066 84536
333 58006=
48378 32560 20000 10285 20249 30006 40058 81505
333 58005=
48431 32560 30000 10270 20245 39849 40061 81505
333 58006 70003=
48456 32560 42211 10286 20267 30051 40064 82935
333 59004 79999=
48480 32560 40000 10277 20260 30065 40069 83505
333 59002 79999=
48500 32962 22806 10273 20237 30062 40067 80005
333 59003 70024=
48565 11560 40000 10255 20241 30072 40083 60353 70162 81135
333 59003 70442=
48569 32560 50000 10255 20238 30045 40085 82241
333 59005 70005=
40100 32960 03003 10228 20176 40119 53003 918//
333 10258 92437=
40103 32965 00000 10213 20189 40122 53003
333 10267=
40718 32560 40000 10222 20190 30189 40158 52015 81530 91750 333
55105 81630 83359 90192=
40732 32660 71402 10218 20169 30168 40148 52009 83470 91745 333
55072 83635 87459=
40745 32960 02103 10236 20030 38995 40053 52032 91750 333
55128 21010=
40754 32960 02906 10270 38750 49999 52014 91755 333 55125 =
40766 32960 03102 10216 20013 38653 40043 52018 91750 333 55121
23028=
40800 32960 02503 BQPWORX BWQPPR 38395 49969 52012 91-45333
55125 23022=
40811 32960 03104 10350 20074 30001 40027 53008 91750 333 55113
22741=
40841 32960 10606 10290 21012 38206 49962 52014 81030 91750 333
55124 23003 81360=
40848 32960 03003 10296 20028 38464 49983 52016 91750 333 55128=
40856 32960 02703 10318 20060 38562 49935 51020 91750 333 55107
21044=
40875 32960 00000 10318 20231 39974 49986 52017 91750 333
55116 =
48328 32960 20000 10266 20247 39781 40056 82045
333 58001=
48330 31556 40000 10266 20243 39872 40056 71021 82505
333 59005=
48351 32561 20000 10280 20259 39986 40058 80005
333 58004=
48354 31560 50000 10285 20254 39849 40049 71321 83903
333 58003=
48379 31558 10000 10265 20243 39916 40048 71000 81100
333 58006=
48432 31956 10000 10281 20254 39894 40060 71000 80001
333 58006=
48455 32562 62403 10300 20256 30062 40067 85846
333 59009=
48462 32960 00000 10270 20247 30013 40069
333 58001=
48477 32562 20000 10280 20266 30060 40074 82101
333 59001=
48532 32560 10000 10255 20240 30068 40077 81100
333 59011 70316=
48310 31557 50000 10261 20236 39606 40051 71022 82835
333 58004=
48325 31510 80000 10255 20236 39831 40072 71092 888//
333 58001=
48380 32560 40000 10271 20261 39971 40064 81545
333 58002=
48405 32962 20000 10291 20266 39891 40051 80001
333 59007=
48421 31557 30000 10252 20242 39965 40078 71021 82505
333 58001 70018=
48450 11560 30000 10280 20236 30036 40069 69903 71381 82903
333 59001 79999=
48459 32563 30000 10295 20252 30063 40065 82206
333 59001=
48465 32960 20000 10276 20244 30064 40068 80001
333 58000=
48568 32460 30000 10262 20240 30076 40084 81101
333 59005 79999=
48416 31959 30000 10286 20264 39913 40059 71091 81035
333 58010=
48418 31940 00000 10272 20259 39999 40055 71000
333 58001 70003=
48460 32562 43104 10290 20256 30030 40061 82506
333 59017=
48478 31559 10000 10295 20267 30064 40069 71000 81200
333 59002=
48561 01458 30000 10239 20232 30086 40090 60123 71066 81545
333 58003 60057 70217=
48564 01560 40000 10262 20241 30081 40085 60253 70262 82246
333 59004 69907 70283=
36859 32599 20102 10191 20043 40042 54000 81301   333 10296=
36864 32684 32701 10247 20023 40023 52013 83500   333 10305=
38222 32597 63202 10250 20068 40027 54000 86900   333 10330 83069=
38341 32997 02102 10173 20048 40069 52011   333 10304=
38343 32797 22303 10211 20117 40049 53024 82900   333 10313=
38647 329// 02803 10248 20131 40104 52021 333   10321=
38886 329// 02801 10262 20239 40071 52009 333   10373=
38388 32998 03602 10270 21007 40086 53020 333   10369=
38656 32998 02504 1030620064 40065 53015 333   10368=
44203 415// 73603 10074 20056 38316 40063 54000 70262 8782/=
44207 415// 83607 10040 20025 38227 40073 54002 76062 8852/=
44212 32999 50000 10142 20048 39001 40054 51006 85040=
44213 41699 71803 10101 20090 38682 40052 52004 70262 87500=
44215 32998 22703 10105 20034 38330 40065 52001 82001=
44218 329// 40000 10110 20065 38510 40053 54000 84500=
44225 415// 82702 10056 20035 38183 40066 51001 76366 8852/=
44230 415// 83602 10103 20050 38677 40056 58005 70298 889//=
44232 316// 80907 10119 20107 38966 40033 52006 70262 885//=
44239 315// 43603 10104 20032 38670 40014 54000 70191 82240
333 91109=
44241 329// 73203 10142 20045 39089 49998 52004 87040=
44256 32999 50000 10072 20009 39222 40042 51003 85040=
44265 32999 20000 10094 20050 38775 40117 58012 80004=
44272 414// 80000 10056 20008 38132 40039 50006 76366 8852/=
44285 32899 20000 10113 20029 38214 49991 57006 82040=
44298 329// 32401 10189 21063 38584 40112 57007 83020=
44302 329// 10502 10131 20030 38986 40025 54002 80004=
44313 32999 20000 10115 20025 39247 40039 52013 82040=
44314 32998 00000 10135 20011 39021 40037 52006=
44347 32999 22704 10192 21009 38593 49978 58005 80002=
12215 36/// /9903 10160 20131 39894 40066 57011 69962
333 10165 20056=
34712 32998 00903 10229 20171 40166 57002 333 10256=
33177 32699 31701 10260 20143 40104 57012 84300 333 10300=
33614 12997 23502 10246 20148 40164 57004 80001 333 10274=
33990 32681 20000 10216 20107 40160 56005 82100 333 10268=
23914 12499 72904 10092 20064 40060 53004 69900 87900   333 10179=
23921 11599 73201 10124 20086 40027 53004 60010 70282 84931   333
10190=
23955 41384 81002 10140 20129 49961 58015 72698 889//   333 84707=
23966 42599 80702 10147 20123 40010 58006 86902=
28255 11457 82704 10140 20118 49993 53006 69900 78082 883//   333
10237 86918=
28440 11597 63204 10134 20050 40026 53004 60010 70298 83550   333
10235=
28661 11660 62403 10154 20117 49999 57009 69900 70298 86300   333
10236=
28722 32564 72904 10174 20043 40083 53008 83501   333 10240=
28748 11565 52704 10154 20128 40030 57007 60060 70292 82962   333
10241=
29231 42698 89901 10172 20103 49975 58016 8233/=
29313 42498 81402 10157 20130 49946 57011 889//   333 88918=
29612 41597 61302 10140 20122 49940 57015 78082 85308=
29634 41657 81806 10151 20135 40000 57010 78082 883//   333 88933=
29838 42597 81702 10197 20105 40015 57008 8633/=
36061 42997 30000 10108 20102 40070 57009 80001=
10235=
23909 11598 52802 10086 20062 40073 51001 60040 70182 81402   333
10176=
28116 11697 62502 10091 20077 40087 53019 69940 70198 86900   333
10176=
28240 11550 82802 10105 20087 40036 52003 69930 78082 889//   333
10232=
28419 32696 42902 10157 20082 40075 52006 84300   333 10226=
28621 32998 73304 10170 20030 40082 53007 87030   333 10228=
29122 41499 80802 10154 20136 49965 57017 72582 8435/   333 84950=
29328 41498 81403 10145 20134 49975 57014 78082 889//   333 85918=
29348 41597 71301 10184 20114 40004 58004 72522 84930=
29405 41497 81002 10123 20116 49927 57015 70298 8533/=
29418 41598 71002 10132 20127 49936 57015 70282 82930=
29430 41496 80000 10156 20132 40008 57003 78182 889//   333 88913=
29524 41474 71603 10140 20129 49954 57016 78098 87900=
29605 41598 81902 10130 20123 49925 57008 70282 84502=
29631 41596 81503 10142 20118 49989 57002 78082 889//=
29706 41499 82005 10141 20117 49945 57005 70282 84301=
29736 42998 81504 10177 20113 40015 57020 88050=
29937 42598 72404 10192 20112 40026 57004 87500=
36034 41598 81805 10143 20137 40038 58008 78082 889//   333 86920=
28216 12598 32702 10172 20073 40078 57001 69900 83100   333 10224=
28321 11599 63601 10136 20065 40067 53004 69900 70296 86500   333
10210=
28451 31497 83603 10136 20125 49996 57006 76162 8802/   333 10243=
28537 11497 80702 10122 20062 40068 53016 60020 78098 889//   333
10221=
28541 11984 63003 10140 20104 40025 54000 69930 70298 82032   333
10226=
28642 11697 73205 10141 20106 40028 51004 69940 70182 84330   333
10230=
28655 31598 82503 10153 20129 40015 57010 70282 889//   333 10228=
28925 32997 33404 10172 20095 40087 52003 82081   333 10250=
29557 42698 61804 10183 20084 40024 57008 81571=
29625 41598 30305 10147 20131 49973 57006 70281 83500=
29642 42960 81805 10184 20102 40024 57010 8807/=
29813 41999 01906 10138 20131 49955 57025 70298=
29822 42997 62008 10146 20131 40001 57007 86060=
29846 42997 81803 10158 20123 40039 57008 83031=
29915 42999 32005 10155 20109 49999 57007=
44216 32599 61803 10131 20071 38874 40043 52014 86500=
44219 415// 80000 10092 20066 38522 40063 52002 76162 8802/=
44221 41599 70000 10072 20040 38475 40029 54000 70262 87500=
44224 32998 70000 10040 21010 37983 40064 54000 87500=
44243 325// 50000 10138 20029 39248 40022 56004 82344=
44254 415// 80000 10125 20051 38925 40022 51009 70262 885//=
44257 329// 30000 10095 20030 38850 40030 57011 80001=
44266 326// 73203 10040 20012 37734 40102 54000 87800=
44291 328// 62905 10137 20021 38589 40029 56005 85074=
44325 329// 02702 10123 20051 38749 40057 52003=
44338 32899 32707 10182 20029 38378 49989 52003 83040=
44374 32499 82710 10162 21009 38192 49999 54001 885//=
44385 32999 03207 10215 21007 38800 49987 57009=
30385 41584 80000 10036 20034 40009 52002 72162 8892/=
30650 42984 00000 11011 21078 40115 52014=
30844 42999 80000 10036 20010 40074 52002 80007=
30925 416// 83603 10128 20019 40033 54000 78082 85961=
31371 41584 50000 10057 20036 49972 58004 72581 85900=
31388 42599 72003 10111 21002 49660 63017 87900=
31532 41569 82303 10089 20089 49913 57024 78098 87900=
31594 41966 03203 10094 20071 49944 52007 70198=
31754 42999 30000 10068 20068 49913 57011 80001=
28679 119// 62702 10121 20115 49997 57005 60080 71082 83031   333
10190=
28766 12699 20000 10130 20090 49996 57016 69970 82500   333 10212=
28867 32998 33202 10160 20094 40018 57007 83030   333 10230=
28879 119// 22503 10140 20107 40014 57003 60020 70181 80002   333
10202=
28952 315// 83601 10141 20128 40043 57002 78082 889//   333 10248=
28966 129// 30000 10163 20082 40015 57007 69980 83040   333 10234=
34691 32998 22903 10214 20082 40158 5/004 82040   333 10307=
35067 329// 3//// 10172 20077 40037 57002 83030   333 10240=
35078 12975 22405 10128 20061 40032 57003 69960 82061   333 10216=
35188 125// 62503 10143 20094 40028 57004 69900 83430   333 10184=
35376 32998 22503 10118 20074 40057 54000 80001   333 10232=
35671 32998 02602 10142 20070 40093 53006   333 10256=
35700 32998 02702 10213 20086 40143 53008   333 10302=
35796 32984 30202 10177 20059 40067 52006 83030   333 10261=
36003 11970 62303 10150 20128 40004 57003 60030 70198 86030   333
10235=
36152 115// 21805 10144 20104 40032 57013 69930 70288 82400   333
10239=
36208 329// 30801 10105 20071 40073 57007 80001   333 10199=
36397 329// 21804 10165 20094 40054 54000 80002   333 10250=
36535 329// 20000 10100 20036 40078 57009 82030   333 10227=
36821 32598 70000 10205 20080 40031 54000 82932   333 10308=
36870 31565 81002 10229 20045 40041 52017 78082 889//   333 10274
88929=
38196 32998 03202 10228 20006 40050 51002   333 10275=
38198 329// 00301 10225 20038   333 10347=
38328 329// 20904 10205 20048 40042 53005 80003   333 10320=
38334 32998 21003 10199 20025 40064 52014 80002   333 10301=
38439 32598 63603 10263 20099 40044 52007 83971   333 10359=
28978 11997 22802 10108 20092 40034 57001 60010 70281 80003   333
10186=
35173 12998 00000 10115 20093 40043 57003 60040   333 10203=
26898 32998 00000 10218 20095 40167 57008   333 10262=
26997 32976 01701 10226 20124 40165 57008   333 20266=
27595 32997 13105 10165 20050 40121 53003 80001   333 10215=
27612 32997 20000 10207 20115 40159 57007 82030   333 10259=
27703 32897 22101 10204 20090 40171 56004 82030   333 10255=
27707 32982 00000 10204 20105 40169 57005   333 10256=
27719 32997 00000 10198 20094 40174 56003   333 10258=
27786 32997 02704 10156 20061 40145 53008   333 10234 91112=
27906 32997 01502 10201 20107 40180 57005   333 10257=
27928 32998 00000 10190 20110 40180 53002   333 10257=
27947 32997 03102 10204 20100 40175 57005   333 10253=
27962 32997 03003 10178 20070 40158 55002   333 10250=
27983 32998 02903 10178 20073 40142 53006   333 10251=
28711 12997 52703 10147 20046 40110 53005 69900 83031   333 10221=
28807 32997 22803 10148 20071 40132 54001 80001   333 24240=
34009 32968 00701 10211 20065 40162 57003   333 10266=
34047 32972 23202 10199 20094 40174 57002 80001   333 10259=
34116 32998 09901 10216 20111 40177 53002   333 10265=
34123 32970 03601 10204 20098 40177 54000   333 10274=
34152 32998 33102 10218 20100 40165 57001 80001   333 10262=
34172 32960 43005 10212 20082 40157 53005 80001   333 10262=
34186 32975 33003 10202 20093 40148 53008 80001   333 10274=
34247 32572 31401 10220 20145 40168 53001 82101   333 10295=
34336 32998 23202 10234 20118 40185 53002 82030   333 10298=
34391 32997 22903 10229 20128 40152 53012 80002   333 10306=
35121 11979 63104 10186 20058 40108 53009 69900 70282 80001   333
10265=
22113 11573 81603 10078 20034 40105 57006 69902 78082 8695/   333
10078 91005=
22217 11698 81804 10085 20056 40109 53001 69912 70282 8655/   333
10089 86640 91007=
22235 32481 70703 10080 20038 40130 52002 86530   333 10093 86617
91005=
22349 12599 70708 10019 21000 40160 51004 60032 87500   333 10096
91009 91112=
22408 12599 20000 10124 20056 40107 53007 69902 82400   333 10129=
22602 12998 21702 10134 20045 40095 54000 69902 82030   333 10146=
22721 32999 80000 10100 20056 40128 54000 8805/   333 10172=
22802 32977 21102 10129 20104 40122 55001 81089   333 10147=
22820 11599 80902 10119 20099 40125 57008 69912 70262 8253/   333
10186=
26059 11997 22601 10142 20080 40131 57005 60022 70281 82030   333
10190=
26063 12997 23201 10142 20065 40133 54000 69902 80001 333
10195=
26094 11982 20000 10166 20149 40132 52002 69992 70281 82030   333
10268 91112=
26258 12970 00000 10194 20148 40121 53002 69902   333 10242=
26298 11597 60000 10207 20174 40123 53004 69912 70298 82400   333
10268=
26477 11662 70000 10193 20177 40121 53001 60032 72998 86301   333
10273 86940 91114=
26585 32997 51802 10219 20128 40143 57005 80004   333 10265=
26702 11996 50000 10163 20136 40066 57035 69952 71082 82031 333 10174=
26781 12997 70160 11019 20144 40147 57003 69902   333 10265=
27402 32997 22301 10222 20132 40144 57004 82031   333 10252=
22028 32580 71508 10033 20012 40129 57008 85540   333 10033 91012
91114=
22106 11598 70901 10074 20051 40098 57002 69942 70282 87500 333
10089 87632 91002=
22127 11497 71204 10072 20046 40125 53002 69902 78082 86930   333
10081 84620 91005=
22324 32599 81203 10188 20059 40128 52006 889//   333 10132 91005=
22621 32998 82002 10148 20061 40125 54000 8805/   333 10170=
22831 32698 70000 10138 20086 40139 58003 82930   333 10218=
22892 12998 62004 10131 20062 40117 53001 69902 80008   333 10148
91111=
26275 11597 20802 10207 20174 40124 54000 69932 70291 81960   333
11262=
26389 11464 62701 10180 20159 40128 54000 69982 72998 86900   333
10265=
26695 32997 02501 10219 20120 40161 57007   333 10256=
26882 32970 01403 10217 20127 40166 57004   333 10274=
21432 41497 81705 11073 21094 40265 58006 77872 885// 333
88616=
21908 42999 23602 10008 21038 40129 57002 80001=
21921 42598 80307 10008 21025 40092 57014 85207=
21946 42398 80906 11062 21077 40239 54000 886// 333 88708=
21982 32480 80306 11018 21042 40181 52005 885//   333 21035 42997
55020 88614 91108=
25123 42498 83604 11043 21055 40200 52004 885// 333 88611=
25399 32598 82107 10002 21012 40159 58003 885//   333 21002 47073
88623 91109=
25551 11999 60000 10010 21036 40154 52003 69902 70272 83031   333
21023 55045=
25563 11599 32911 11014 21031 40123 53013 60022 70272 83200   333
21017 41998 55034 91114=
25594 11321 82006 10003 21005 40162 55001 60052 77572 8872/   333
21002 42005 91109=
31054 42699 60901 10082 20025 40011 52010 86500=
31123 42999 20000 10038 20033 49986 52012 80001=
40703 32660 20402 10208 20056 38887 40087 52018 82400 91747 333
55116 82640=
40712 32660 42702 10190 20061 38658 40057 52015 84300 91750 333
55124 22666 81935 83840=
40729 32560 10606 10156 20066 38322 40062 52025 81101 91745 333
55127 2729=
40736 32660 42603 10218 20169 30180 40153 52017 81430 91745 333
55109 81635 83360=
40739 32965 00903 10200 20046 38630 40043 51018 91750 333 55118=
40743 32962 01203 10280 20042 38991 40050 52030 91750 333
55120=
40762 32960 03603 10236 20012 38511 40008 52032 91750 333
55128=
40768  32960  00000  10180 21022  38224 40040  52014 91750  333 55128
23796=
40769 32960 02702 10250 21053 38263 40006 53011 91750 333 55125=
40785 32965 00000 10296 20056 38959 49990 52017 91746 33355116=
40809 32965 00000 10294 20034 38458 49963 52018 91750 333
55120 2////=
40821 32960 02204 10278 21031 38713 49988 53010 91750 333
55120 2//// =
40831 32960 03304 10350 20072 30021 40029 51009 91750 333 55108=
61017 32965 50000 10390 20070 39651 40031 80002
333 10445 59003 85080=
61024 11650 62816 10362 20142 39511 40053 69902 70562 81162
333 10430 58017 81840 84364 85080 94939=
61036 32960 7//// 10400 20162 39819 40048 80008 91745
333 10420 59002 87280=
61043 31740 52804 10384 20155 39623 40045 71711 81932 91745
333 10400 58001 81950 84365 94941 95811=
61045 32960 7//// 10375 20137 39553 40027 81036 91745
333 10415 59008 81364 87280=
61049 32960 7//// 10392 20094 39718 40030 81038 91745
333 10450 59007 81364 87280=
61052 32960 52210 10400 20166 39810 40053 80002
333 10410 59006 85080=
61075 32765 72006 10370 20192 39750 40048 81308 91746
333 10393 59010 81950 87280 94941 95831=
61080 32965 72804 10370 20166 39628 40032 80008 91745
333 10388 59009 87280=
61090 32960 63406 10376 20121 39548 40036 82062 91745
333 10402 59008 82365 85080=
61096 32665 70000 10386 20140 39656 40020 83108 91745
333 10430 59013 83840 85280 94919 95879=
25621 42699 70000 10029 21029 40139 53005 82531=
25703 41698 70203 10061 20022 40134 52010 78082 86330   333 86941=
25913 41/92 90802 10002 20002 40152 58001 75164 96045=
25954 42195 81501 10009 20009 40172 52006 886//   333 88703=
31088 42498 81306 10028 20025 40117 52001 886//   333 88710=
31829 41598 72604 10079 20070 49866 56015 70272 85520=
31873 42998 02404 10125 20099 49918 58014=
31909 42998 03202 10057 20057 49914 54000=
31960 42998 00303 10173 20065 49981 58003=
32053 41296 80906 10023 20018 49917 57049 78182 889//   333 87703
91112=
32098 41423 83605 10045 20040 49827 57053 78182 889//   333 88712
91111=
32150 41496 82706 10046 20039 49823 57008 70282 8335/   333 91011
91113=
32165 41/91 92103 10091 20091 49840 57026 74565=
32215 41466 81603 10038 20031 40129 57014 76162 8872/=
32389 42699 81103 10063 20035 40157 52006 8657/=
32583 42699 70000 10052 20020 40168 51005 81539=
17270 32970 03103 10258 20077 39462 40064 52006 333
10320=
21824 42370 80908 11039 21044 40163 57006 886// 333 88707=
48407 31559 30000 10290 20262 39914 40053 71021 81101
333 58006=
48552 32460 20000 10253 20242 30067 40074 81105
333 59004 70042=
44354 319// 02707 10198 21030 38987 49970 58012 70700=
56691 11240 83602 10091 20087 37764 57005 60061 76064 887//
333 00052 10129=
56985 32575 11604 10218 20182 38665 40051 57002 81100 333
00100 10290=
57902 11458 80000 10180 20177 38590 40079 57013 69911 76060
887// 333 00001 10189=
35108 32997 03101 10193 20143 40134 52004   333 10281=
35217 32597 23204 10200 20125 40136 57005 82900   333 10270=
35229 32997 72802 10194 20112 40097 58003 87030   333 10264=
35302 326// 62701 10216 20122 40142 54000 86200   333 10282=
35394 11997 42102 10125 20099 40053 57002 60030 70291 84030   333
10166=
35406 32997 00000 10211 20132 40165 57002   333 10290=
35416 32997 22702 10208 20125 80001   333 10268=
35426 32899 52301 10162 20105 40122 53004 82065   333 10269=
35532 32998 00000 10190 20053 40118 52001   333 10239=
35746 32998 00000 10210 20041 40094 53009   333 10293=
35849 32998 00000 10211 20038 40098 52008   333 10299=
35953 329// 00000 10210 20006 40095 52012   333 10305=
35969 329// 236// 10204 20034 40083 52010 80001   333 10324=
38062 32997 02803 10235 20050   333 10329=
38069 329// 22703 10210 20106 80001   333 10328=
34560 32962 20000 10210 20111 40168 57001 82030 333 10284=
34824 32996 00701 10228 20117 40157 54000   333 10305=
34858 32965 00000 10200 20098 40169 54000   333 10288=
34880 32997 03402 10212 20115 40170 53007   333 10293=
37054 32998 00804 10161 20125 40172 53003   333 10238=
37472 12984 70000 10183 20151 40173 57001 69900 87070   333 10247=
34240 32973 10302 10199 20105 40173 54000 80001 333 10280=
34357 32998 20801 10244 20113 40169 54000 82030 333 10300=
34363 32998 13402 10233 20133 40162 54000 81060 333 10285=
34545 32998 01902 10218 20090 40172 54000   333 10290=
34579 32979 02701 10202 20120 40165 53004   333 10291=
34655 32997 22701 10223 20053 40177 54000 82030 333 10288=
34759 32998 31401 10197 20126 40178 54000 80001   333 10284=
34838 32997 00501 10219 20111 40164 53001   333 10282=
34929 32964 30403 10197 20138 40148 57001 83030   333 10272=
34954 32998 00000 10179 20106 40169 53002   333 10270=
37031 32997 20902 10209 20124 40161 53003 81061   333 10262=
37085 12996 60000 10207 20128 40181 53001 69900 80001   333 10274=
37145 12998 20901 10180 20152 40180 53001 69960 82040 333 10235=
37171 32996 23202 10197 20173 40147 53001 82030 333 10230=
37228 12997 21902 10133 20124 40176 53004 69950 82030 333 10192=
28049 114// 83006 10109 20102 40008 53003 60010 78082 889//   333
10244=
28319 32498 63102 10162 20048 40073 53004 82550   333 10216=
28434 125// 23101 10104 20065 40067 52007 60070 82900   333 10227=
28552 31498 82903 10156 20136 40005 57004 78082 883//   333 10243=
29111 42698 60502 10146 20128 49954 57010 83501=
29209 41497 80000 10120 20112 49947 57007 78098 889//=
29551 42597 60000 10172 20086 40021 57004 86300=
29602 41584 62801 10141 20136 49940 57010 70282 86900
333 84624=
29636 42598 62002 10174 20116 40003 57010 86300=
29654 42599 51802 10145 20070 40043 57004 83078=
29712 41598 61805 10151 20126 49958 57010 70282 85970=
29724 41597 22105 10150 20111 49987 57011 70281 82300=
29726 41598 21803 10151 20124 40004 57012 70181 82300=
29814 42999 21605 10149 20102 49973 57009 82030=
29827 41697 31804 10150 20104 40013 54000 70181 83500=
29923 41597 82106 10150 20135 40018 54000 78082 889//=
29939 42597 50000 10177 20121 40035 57011 83330=
36021 429// 32303 10125 20095 40021 57006 80001=
36022 41998 31902 10143 20119 40029 57005 70298 82032=
36038 42498 82502 10172 20119 40045 53004 885//   333 88617=
36058 42999 00000 10107 20097 40083 57003=
23226 11360 83607 10012 20001 40083 52016 60030 76162 885//
333   10078 86707=
23606 11462 83404 10110 20064 40079 52022 69940 70282 8535/ 333
10145 85917=
23701 11599 43501 10105 20074 40103 53024 60110 70181 82540 333 10150=
26167 12965 63602 10177 20144 40134 53005 69902 86030   333 10232=
27857 32997 00000 10181 20048 40168 57003   333 10252=
28909 32999 63003 10149 20105 40119 53001 82041   333 10258=
37061 32579 72102 10198 20133 40176 53007 83501   333 10273=
29068 428// 80000 10100 20092 40039 58004 8807/=
29274 41584 80701 10123 20078 40037 57006 72998 889//=
29363 42597 70602 10156 20125 40023 51001 87300=
29456 415// 72002 10160 20099 40027 57005 70298 85901=
29467 41598 51504 10141 20092 40039 57012 70298 85900=
29477 419// 62602 10127 20098 40036 53002 70282 80001=
29576 42597 72302 10135 20088 40042 58004 82931=
29587 415// 32501 10106 20092 40052 53009 70281 83900=
29756 42984 60701 10121 20068 40079 58003 80002=
29962 42984 00000 10120 20081 40078 58003=
30157 42998 01201 10005 21005 40110 54000=
30320 42997 60000 10077 20011 40080 56003 85031=
30537 429// 02901 10098 21050 40090 57008=
82240 22261 00290 2//// 3//// 4//// 80255=
82141 22213 02280 2//// 3//// 4//// 5//// 6//// 80270=
48820 11598 61801 10255 20239 30055 40063 57002 60281 70398
862// 333 58025 86895=
48826 31597 61103 10271 20268 39931 40059 58001 71322 869//
333 58019 83895 82995=
48839 32998 51605 10271 20267 39997 40061 58007 80008 333
58018 85299=
48845 32998 00000 10284 20260 30049 40056 58006 333 58021=
48848 32998 70000 10274 20260 30054 40052 57013 80008 333
58020 87299=
48855 32598 61101 10286 20275 30058 40066 58005 868// 333
58013 85895 83697=
48870 32498 50000 10294 20280 30063 40070 51001 85200 333
58007 82894 83895=
48877 32998 30000 10277 20235 30062 40067 50004 80008 333
58001 83299=
48887 32598 60000 10277 20257 30073 40079 58001 862// 333
58006 86895=
48900 32497 32202 10274 20261 30065 40075 57006 83800 333
59001 81894 83696=
48914 32998 70000 10276 20260 30084 40086 57006 80008 333
58001 87299=
48917 32598 62704 10295 20258 30070 40075 57002 81108 222//
00306 333 59007 81895 86299=
48918 32598 72703 10265 20258 30069 40080 56005 81108 222//
00294 2//// 333 59010 81894 87299=
48920 32598 52508 10291 20254 30041 40041 58010 82208 333
59003 82895 84299=
48803 32497 80000 10263 20260 39948 40059 58004 889// 333
58017 84894 88995=
48806 32498 70000 10224 20221 39317 40074 58003 878// 333
58017 82894 87696=
48808 11496 80000 10242 20242 39789 40067 58002 60161 79596
889// 333 58010 83894 84995 88696 96010=
48823 32497 80000 10281 20273 30054 40058 58003 889// 333
58029 85894 82995 88696=
48830 31597 71601 10249 20242 39772 40071 58002 71322 82908
333 58018 82995 86299=
48840 32498 80000 10275 20266 30054 40060 57003 888// 333
58033 83894 88696=
48852 32998 60000 10273 20254 30047 40057 58008 80008 333
58009 86299=
48916 32498 20000 10280 20254 30034 40084 58003 82900 333
59008 81894 82995=
48802 31/91 93201 10182 20182 38393 58007 74542 333 58014=
48810 11497 80000 10247 20240 39869 40070 58003 60031 76096
8572/ 333 58019 85894 88499=
48831 11497 80000 10254 20231 30026 40062 50000 69911 70298
878// 333 58024 82894 87697=
48838 32598 50000 10276 20268 30061 40067 58006 85200 333
58017 85895=
48846 32998 70000 10276 20259 30050 40053 58007 80008 333
58016 87299=
48863 32598 80000 10272 20252 30062 40071 50000 889// 333
58015 82895 83995 87697=
48866 32998 00000 10224 20218 39231 40105 58002 333 58007=
48875 32498 21401 10245 20230 39548 40079 58004 82100 333
58004 82894=
48907 32598 22506 10292 20264 30073 40075 58006 82200 333
59005 82895=
83437
22254 04137 20502 326// 41005 8////=
84160 22215 00250 20301 311// 40602=
87007 22284 02264 20505 323// 40606 5//// 80235=
40061 51002 70111 81032 222// 00083 20102 323//
40605 80086= =
51656 31956 82702 10222 20061 39014 40024 57002 70630 80007
333 05107 10306=
52118 32680 70000 10087 20004 38227 57008 83902 333 00155
10187=
51855 11970 60000 10191 20076 40017 57001 69901 70080 80002
333 05101 10304=
51567 32965 10000 10195 20045 40026 52008 80002 333 05201
10304=
52313 32980 11403 10130 21069 38368 57008 80002 333 00054
10254=
58020 87299=
58013 85895 83697=
58007 82894 83895=
58001 83299=
58006 86895=
59001 81894 83696=
57731 11462 83401 10193 20177 40109 57011 69901 76060 887//
333 10227=
57916 11662 80000 10221 20206 40074 57011 69931 70060 885//
333 10263=
57922 11440 83202 10181 20178 40085 57008 60011 76064 887//
333 10225=
57932 11463 83603 10224 20203 40085 57006 69931 76060 885//
333 10276=
58021 81812 85360=
98135 31470 41404 10279 20258 40097 58013 70544 81201
333 56999 81819 84076=
98223 31565 11401 10255 20251 40075 56020 70544 81100
333 56999 81820=
98325 31460 20000 10262 20254 40072 58010 70544 81201
333 56999 81817=
98328 31461 21602 10172 20168 38507 40078 58007 71344 82901
333 56999 82912=
98329 31470 10401 10260 20247 40078 5/008 70544 81200
333 56999 81818=
98431 11457 81502 10254 20239 40086 58003 60031 71796 8497/
333 56999 83915 83616 88459=
98440 32470 40903 10286 20265 40083 58011 81202
333 56999 81817 84079=
98444 11465 60401 10261 20256 40084 57014 60021 70282 83202
333 56999 83818 84070=
98536 11465 80901 10257 20235 40074 58006 60061 72598 8397/
333 56999 83918 88357=
98550 11459 81601 10274 20253 40079 57019 69921 78044 8497/
222// 20101
333 56999 82915 88357=
98618 11468 80000 10246 20244 40069 58009 60191 72366 8422/
333 56999 84818 88358=
98646 32560 70000 10272 20255 40094 57019 82238
333 56999 82820 84360 86275=
98653 31468 61502 10265 20240 40085 58015 70544 82270
333 56199 82818 84358=
98741 31468 80000 10250 20241 40082 58010 71322 82907
333 56999 82917 88275=
98747 31468 72001 10249 20233 40070 58024 71344 83970
333 56999 81917 82618 87358=
98753 31465 40000 10254 20239 40076 58021 70544 81231
333 56999 81816 83079=
98755 11575 62702 10256 20245 40081 58027 69901 70282 83208
333 56999 83820 84279=
98836 31562 60000 10247 20253 40088 58008 70544 82201
333 56999 82820 84081=
82024 32697 60504 10295 20268 84263=
82042 32596 60000 10282 20244 84432=
82106 32697 63204 10325 20242 39976 40074 83320 333
58000=
82113 32698 43206 10298 20244 81211=
82212 32797 60000 10310 20273 30036 40098 83242 333
58002=
82317 32399 30000 10296 20260 82201=
82326 32698 31802 10298 20262 30074 40139 83200 333
59001=
82331 32597 60000 10300 20239 30031 40113 84291 333
58001=
82336 32698 50503 10324 20250 84202=
82410 32597 53602 10321 20279 82261=
82425 32397 40903 10316 20257 30054 40109 84364 333
59002=
82533 32697 42302 10228 20284 30055 40110 84201 333
58021=
82704 32697 61403 10312 20236 39871 40064 85109 333
59009=
82723 32696 71402 10324 20236 85201=
82807 21596 33602 10276 20262 70266 83200 333 60041=
91652 36/// /1610 10250 20205 40118=
91659 31598 31410 10246 2021/ 40115 53006 70300 83800
333 563// 82828=
91670 36/// /1007 10249 20222 40116=
91680 31598 20804 10201 20185 40120 53007 70200 82100
333 569// 82828=
91683 11598 50000 10210 20204 40135 58007 69901 70282 85800
333 569// 84824=
91691 36/// /2002 10192 20190 40130=
91697 36/// /1304 10203 20177 40134=
91699 36/// /1806 10211 20158 40135=
58017 84894 88995=
58009 86299=
58015 82895 83995 87697=
58004 82894=
61612 32960 02606 10390 20171 30076 40084
333 10408 58004=
61666 32962 03204 10348 20200 30072 40082
333 10365 58022=
61697 32960 03610 10259 20206 30085 40100
333 10289 59002=
61698 32960 03204 10382 20249 30066 40077
333 10394 58008=
61699 32560 50408 10377 20192 39885 40068 85200
333 10382 58000 85820 94919 95839=
63791 32980 01703 10186 20130 39148 48519
333 10279 55300 58013=
63862 32980 11112 10215 20126 38907 48521 81040 91746
333 10290 55300 58014 81360=
63894 32980 00000 10236 20212 30089 40149 91750
333 10311 55300 58016=
82863 32698 62308 10336 20204 39878 40087 82208 333 59010=
83064 32698 41404 10334 20175 39836 40105 82240 333 59006=
83228 32799 61402 10322 20300 39835 40/// 82208 333 59009=
83235 32698 30000 10308 20182 39426 40088 83200 333 59006=
83332 32697 60000 10293 20142 39194 40089 84220 333 59005=
83368 32699 32702 10330 20172 39728 40091 83200 333 59003=
83374 32598 21806 10316 20138 39531 40097 83100 333 59005=
83376 31597 52704  10304 20114 39263 40081 70542 83201 333 58001=
83423 31697 62704 10294 20148 39284 40098 70541 82131 333 59010=
83470 32698 62304 10283 20158 86100 333=
83522 32698 52702 10264 20160 39262 85200 333 59002=
83526 32898 62305 10264 20145 39179 40113 86040 333 59008=
68174 31560 11704 10098 20052 38814 48541 52016 70500 81500
333 10184 20097 91006 555 91022=
68242 32978 02706 10114 21060 38762 48548 52019
333 10212 20111 91008 555 91021=
68262 32960 00000 10095 20024 38742 48554 52017
333 10205 20095 91001 555 91023=
68263 32972 00000 10104 21016 38516 48539 52016
333 10179 20103 91000 555 91023=
68350 36/// /3404 10090 20007 38687 48537 52020
333 10213 20067 91007 555 91021=
68368 32982 03204 10096 21027 38333 48536 51016
333 10166 555 91023=
68372 16/// /2404 10072 21045 38487 48549 52020 69922
333 10164 20072 91004 555 20002 91024=
68424 32982 02804 10072 21020 39248 48542 52017
333 10198 20072 91004 555 91021=
68438 31974 00000 10075 21014 38855 48543 52017 70500
333 10183 20075 91005 555 91022=
68442 32982 00000 10047 21030 38688 48533 51017
333 10177 555 91022=
68461 32980 00000 10043 21007 38345 48533 52015
333 10149 20043 91003 555 91022=
68512 32982 02708 10098 20038 39060 48539 52010
333 10145 20098 91008 555 91021=
68588 32970 00000 10174 20137 30142 40158 51016
333 10238 555 91015=
68618 32580 12506 10096 20036 39090 48530 52014 81500
333 10151 20094 91006 555 91021=
68668 32980 00000 10097 20045 39315 48515 52023
333 10208 20094 555 91017=
68714 31305 83513 10130 20127 30143 40181 52001 75054 886//
333 10132 20128 91023 555 91018=
68752 36/// /3106 10121 21011 39483 48514 52023
333 10198 20120 91007 555 91017=
68816 11350 83415 10135 20128 30111 40162 52013 60042 76166 887//
333 10154 555 91016=
68828 32770 73106 10174 20058 39904 40130 52013 875//
333 10229 555 91013=
68842 32970 02705 10120 20053 30065 40139 52013
333 10215 555 91013=
68858 32982 03105 10129 20106 30016 40165 52024
333 10219 555 91016=
81225 41456 71004 10240 20234 40105 79198 85963
333 56299 58003 81810 82915 84820 85360=
81202 31470 31210 10288 20247 40103 71500 83903
333 56209 59002 82815 82918=
81251 32570 40604 10292 20225 40091 83942
333 56299 59002 81920 83820=
83552 32398 23606 10274 20207 39955 40132 81908 333 58001=
83565 32697 61802 10264 20195 39648 40116 86200 333 58014=
83618 32999 02302 10264 20088 39771 40146 5////=
83623 32696 60000 10256 20162 39512 40086 58026 86200=
83630 21397 62304 10200 20168 39019 40127 57021 70362 83570 333
60021=
83676 32597 12306 10259 20138 39506 40135 57020 81100=
83704 32999 01406 10248 20035 39636 40051 51002=
83726 31993 03206 10233 20098 39159 40119 58024 70544=
83773 329// 82302 10196 20037 39134 40010 58013 7//// 80001=
83821 32998 01805 10208 20094 30139 40144 56027 70000 80000=
83190 32598 61404 10293 20204 39689 40102 85266 333 59014=
88903 41000 73200 11040 21045 40004 57066 72217 896//=
40605 80086= =
93004 36/// /0537 10157 20108 40129 57014=
93023 36/// /0413 10161 20099 40161 57015=
93196 36/// /1615 10122 20101 40196 57003=
93305 41998 90324 10155 20098 40169 57005=
93334 36/// /0507 10051 20024 39229 57010=
93404 36998 /0802 10058 20034 40193 57006=
93498 36/// /3512 10110 20064 40192 57008=
93527 36/// /3415 10145 20117 40171 54000=
93597 36/// /3420 10123 20095 40161 57013=
93615 16/// /0809 10110 20086 40132 57006 60041=
93678 36998 /0206 10103 20027 40119 57012=
93709 16/// /0517 10132 20113 40071 57027 60111=
93831 36798 /0514 10128 20074 40045 57017=
93896 31598 80212 10100 20077 40064 57018 70222 886//
333 88725=
93947 36/// /0217 10092 20076 40086 57008=
93994 36/// /2006 10178 20126 40121 52008=
67765 42984 20000 10160 20093 38698 48541 82400 333 10272 58014
82659=
67775 42780 12602 10192 20057 38533 48538 81400 333 10251 58012
81656=
67779 42980 10000 10183 20111 39078 48534 81060 333 10288 58015
81360=
67853 42980 10000 10135 20099 38956 48528 81030 333 10294 58012
81361=
67861 42980 10000 10167 20092 38753 48533 81400 333 10264 58009
81658=
67867 42980 11701 10141 20119 38614 48540 81030 333 10256 58018
81360=
67881 42980 50202 10148 20098 38610 48536 85030 333 10247 58016
85360=
67965 42980 01310 10158 20108 38715 48539 333 10257 58015=
67975 41665 41202 10146 20141 38962 48544 70500 83532 333 10240 58023
83630=
67977 41568 10000 10167 20154 39704 48538 70511 81500 333 10220 58022
81625=
67983 41330 80903 10159 20153 38937 48556 74022 886// 333 10222 58018
88706=
67991 42680 10000 10165 20131 39655 48537 81500 333 10250 58031
81635=
88963 32965 00000 11078 21113 30188 40217 52012 333
92407 95000 =
88968 11256 81408 11036 21044 30092 40107 51009 69901 71025 887// 333
56399 88706 90063 90961 92426 92821 94070 D/SE=
89034 11362 80915 11152 21197 39785 40120 54000 69901 70272 886// 333
56699 88708 =
89053 31008 60502 11046 21059 30201 40215 52007 74640 86600 333
56300 86701 90020 92403 92840 93503 94069 95099 =
89055 32965 03207 11118 21132 39953 40214 58001 333
92702 92843=
67843 42980 00000 10154 20079 38961 48520 333 10300 58014=
13585 42698 20000 10225 20086 39372 40124 55001 82800 333 10278 94120
=
13598 11698 80000 10165 20128 48496 52009 60022 79596 889// 333 10247
90647 90816 94098=
63708 31580 40000 10205 20168 48496 71792 84900
333 10275 58008 82920 83322=
63714 11480 60000 10177 20135 48502 60012 70196 81420
333 10270 81619 85458=
63740 31570 62205 10194 20138 48512 70222 8353/
333 10240 58005 83621 85358=
63820 32580 11806 10246 20228 40135 81100
333 10296 58012 81820=
63612 31680 20503 10321 20151 40068 71300 81903
333 10361 58005 81931=
63619 31981 40000 10225 20133 48513 70200 80001
333 10284 58001 84077=
63641 32980 21415 10217 20117 80001
333 10266 82077=
63661 11480 40904 10160 20138 48534 60072 71391 81931
333 10252 58008 81918 83359=
63671 32582 21705 10318 20159 82500
333 10348 82627=
63695 32480 51603 10190 20137 85500
333 10244 85618=
63723 32982 01818 10285 20175 40115
333 10348 58011=
63793 32582 11408 10235 20141 40138 81500
333 10287 58015 81621=
78948 11363 80612 10261 20239 30114 40122 60341 76186 8384/ 333 02249
10268 20228 59016 70682 83808 97458 90963=
78947 11472 71209 10258 20240 30119 40122 60201 72162 8342/ 333 02299
10264 20230 59015 70692 83812 87460 90963=
71068 32674 13614 10123 21027 39462 40144 52008 81100 333 10126 20066
79999=
83550 32597 2//// 10308 20235 30052 40082 70200 82200
333 59025=
83698 32799 61807 10238 20173 30094 40108 50611 8644/=
83718 31595 70000 10228 20181 3//// 4//// 5//// 70544 87700=
83738 32698 20000 10210 20158 39614 40113 57008 82500=
85196 32584 60000 10280 20219 39556 40124 57030 86800
333 56300 59008 86820=
85207 32584 40000 10274 20226 39651 40132 57039 83230
333 56790 59008 83820 84357=
85247 32580 43608 10300 20202 39810 40136 57030 84100
333 56700 59008 84820=
85268 32580 60000 10276 20220 39820 40133 57031 86500
333 56600 59004 83620 86635=
85289 32580 20905 10270 20202 39960 40116 57026 82200
333 56100 58000 82820=
85315 32584 80000 10203 20152 39241 40139 57030 885//
333 56009 59025 88627=
85245 32570 71806 10256 20169 39644 40123 57028 82530
333 56409 59024 82630 86357=
85223 32684 10000 10243 20081 37482 47122 57038 81100
333 56000 59011 81827=
85283 32984 00000 10188 20077 37186 47113 57027
333 59012=
85345 32584 70404 10224 20166 39660 40136 57024 82530
333 56000 59020 82627 87357=
85364 32984 00000 10200 20067 38110 48491 57032
333 59015=
85365 32584 83605 10200 20127 39410 40165 57030 8253/
333 56119 59028 82625 88357=
61600 32460 83612 10216 20194 30099 40104 885//
333 10352 58007 88613=
24125 42999 10208 10021 21029 40109 53002 80001   333 91011=
24143 42699 63601 10008 20004 40049 58005 86400=
24266 42699 70000 10031 21007 40085 52004 82970=
24343 42999 13403 10012 21026 40048 52009 81030=
24639 42599 50000 10046 20046 40055 52006 81531=
24641 41498 80000 10081 20066 40045 52011 78082 86311   333 84911=
24652 42699 70806 10100 20006 40029 52009 82531=
24656 41498 80303 10086 20082 40027 52003 75185 889//=
24671 42698 80000 10057 20045 40055 52008 885//=
24688 42699 61602 10059 20019 40093 52009 83431=
24738 42699 63304 10107 20004 40057 52005 84530=
24768 42599 70602 10078 20065 40020 52013 86530=
24923 42999 62701 10016 21000 40092 52005 83031=
24944 42699 82502 10074 20067 40048 51003 83932=
24951 42699 60000 10062 20053 40017 52016 82531=
24959 41499 80202 10092 20084 40009 52006 72186 889//   333 85914=
24962 41599 80401 10104 20085 40013 52016 78182 85301=
24966 42599 80702 10082 20032 40019 52014 84931=
25400 41898 82902 10028 20001 40164 53002 76162 8802/=
30054 42998 30000 10001 21001 40111 52010 80001=
30393 42599 83403 10021 20013 49998 52003 83931=
30493 42699 70000 10021 49993 52004 875//=
31004 41295 80000 10052 20040 40005 52008 78082 87907   333 85704=
31137 42699 50000 10014 20011 49970 57005 85500=
57707 11350 80000 10113 20104 38483 57010 60021 76060 887//
333 00153 10153=
57832 11462 83603 10163 20155 40115 57007 60011 76066 887//
333 10202=
24988 41599 82101 10036 20029 40123 52005 70282 889//=
25325 42999 00205 10002 21073 40181 52006=
25378 11395 80000 11002 21002 40119 56002 60032 77374 8672/   333
21004 46002=
31174 42299 80205 10008 20003 40026 57006 886//=
31263 42598 80000 10057 20052 39423 49971 57002 78082 889//=
31489 42699 60000 10098 20080 49927 57016 86900=
31959 42398 32901 10074 20070 49931 52007 82601=
32027 41597 80204 10043 20036 49944 57022 78082 889//=
32076 41496 83605 10026 20026 49882 57027 78182 889//=
32509 42699 60000 10028 20004 40170 51006 84530=
44237 41599 40000 10078 20056 38375 40034 58004 70162 84500=
44275 32998 20000 10045 20012 37662 40024 54000 82500=
44282 32999 00000 10082 20019 38194 40032 53003=
44284 329// 00000 10032 21007 37790 40013 54000=
44287 32999 00000 10079 21012 38035 40037 54000=
44294 329// 00704 10146 20041 38492 49962 57007=
44358 32998 02703 10168 20009 38977 40046 54000=
44229 41999 50000 10034 20032 37836 40074 57010 70262 85040=
44286 329// 22903 10126 20029 38514 49992 57003 80002 333
91212=
44329 32998 00000 10080 20050 37700 4//// 54000=
44348 329// 00000 10156 21005 38590 40004 57006=
44386 329// 62705 10189 21025 38934 40014 57009 82040=
16622 32965 31708 10240 20117 30138 40143 56002 80005 333 10292
90730 91115 555 10000 40204 30000 10294 20296 30296 40282
50242 40000 47640 44270 50000 50170=
16641 32570 20000 10252 20137 30124 40130 56003 81250
333 10290 90730 91109 555 10000 40202 40000 47626 44230
50000 50184=
16682 32560 63604 10214 20168 30122 40140 57008 81154 333 10260
81820 83358 90730 91108 555 10000 40176 30000 10242 20242 30238 40238
50235 60220 40000 47628 44250 50000 50186 70000 77/// 7/Y//=
16716 11562 70000 10210 20178 30118 40136 58006 69962 70162 84870 333
10278 82825 84640 87360 90730 91115 555 10000 40210 40000 47625
44250 50000 50190 60000 60006 60130 70000 77/// 7R///=
16734 11570 70704 10194 20171 30065 40126 55002 60042 70262 82270 333
10228 82825 87360 90730 91108 555 10000 40180 40000 47583 44230 50000
50180 60000 60330 70000 77/// 7R///=
16743 32665 60617 10198 20143 39933 40127 57001 82250
333 10240 82835 86360 90730 91123 555 10000 30240 40000
47484 44225 50000 50166=
16749 32960 22405 10216 20204 30105 40118 53003 80005 333 10246 90730
91116 555 10000 40216 40000 47614 44245 50000 50208=
16754 12565 43603 10222 20167 30082 40127 54000 69912 81230 333 10250
81830 83358 90730 91107 555 10000 40216 40000 47599 44250 50000 50188
60000 60001 60005=
16650 32965 40108 10214 20154 30123 40127 56003 80006
333 10266 90715 555 10000 40214 30000 20288 30296 40272
50236 60216 40000 47628 44255 50000 50178=
16732 32965 73504 10214 20143 30120 40133 56002 87070 333 10234 90730
91111 555 10000 40214 40000 47623 44220 50000 50172=
16614 32575 20000 10210 20125 39382 40131 54000 82200 333 10258 90730
91109=
16627 32960 00000 10240 20139 30136 40140 53003 333 10292 90730 91114
555 10000 40226 30000 10252 20262 30254 4//// 50226 60194 40000 47638
44265 50000 50180=
16667 32970 50000 10250 20181 30114 40119 54000 80006 333 10286 90730
91107 555 10000 40206 30000 1//// 20304 30306 4//// 5//// 6//// 40000
47620 44240 50000 50206=
16675 32565 41103 10230 20130 30109 40128 54000 81130 333 10286
81825 83059 90730 91117 555 10000 40220 30000 10260 20264 30258
40246 50228 60199 40000 47617 44240 50000 50172=
16710 11564 60000 10100 20058 39370 40137 58020 60042 70162 84270 333
10160 84820 86358 90730 91110 555 10000 40080 30000 10204 20242 30204
40208 50210 60192 40000 47056 44200 50000 50080 60000 60044 60340
70000 77/// 7R///=
16723 32965 60000 10224 20154 30114 40122 51008 80006 333 10300 90730
91113=
16738 11560 73614 10190 20174 39942 40134 57011 69902 70262
83170 333 10258 83820 87358 90730 91120=
16746 32960 23408 10214 20168 39954 40130 53004 82030 333 10262 90730
91114 555 10000 40208 40000 47501 44240 50000 50186=
48517 32560 20000 10263 20235 30074 40079 81205
333 59006=
47058 42966 00000 10149 20110 30061 40106 52012=
47008 42575 10000 10162 20078 39948 49998 58001 81500=
47016 42970 00000 10072 20051 39258 40095 52006=
47020 42965 00000 10099 20070 39747 40114 52009=
47035 42970 00501 10153 20107 30084 40092 52009=
47041 42970 03602 10148 20092 30038 40064 52003=
47055 42975 00000 10198 20051 30032 40080 52002=
47069 42965 03201 10171 20090 30004 40099 52007=
91366 32574 70616 10274 20237 30080 40089 53003 85871 333 56116 555
92818=
42071 31995 00000 10324 20232 49963 70600 333 59011=
42101 31995 00000 10324 20222 49972 70600 333 58003=
42111 32996 00000 10256 20182 39244 49984 333 58000=
42131 32996 02302 10352 20127 49975 333 58012=
42165 31996 02008 10345 20100 49985 70240 333 58008 =
42182 31994 02704 10364 20151 49973 70700 333 58013=
42189 31695 20000 10336 20252 49975 70600 81530 333 58013 81630
82360=
42339 31995 02303 10350 20169 40014 70600 333 58021=
42379 32996 00905 10280 20224 49994 333 58022=
41036 42960 12912 10290 20040 38534 48483 80001 333
10374 58000 55115 81070 555 04410 50021=
56066 36/// ///// 10043 21012 36622 4//// 57006
555 10040 2//// 3//// 40111 51001 60/// 7//// 80000
9//// ///// 1/020 2//00 30000=
10146 911//=
47003 42970 02301 10184 20088 39996 40000 58001=
47005 42980 01803 10103 20029 38547 54000=
47031 42970 00000 10040 20038=
47046 42969 02703 10146 20102 30030 40052 52001=
47060 42960 02703 10180 20114 30050 40105 52006=
47061 42980 02702 10242 20043 30021 40061 57007=
47065 42965 01401 10167 20110 30045 40107 52009=
47067 42965 00000 10133 20094 39986 40102 52015=
47068 42970 00000 10148 20100 30072 40106 52006=
47070 42970 00000 10141 20121 30025 40109 52009=
47075 42980 00000 10105 20097 39699 40116 52012=
32061 41498 80608 10055 20028 49954 57043 78082 8497/   333 91012
91114=
23074 42998 80806 10031 21007 40107 58005 8807/=
23274 42898 70903 10053 21029 40103 53001 80001=
23383 42999 20000 10010 21046 40128 54000 80001=
23472 42999 30704 10078 21038 40096 52001 80001=
23678 42998 01701 10060 20031 40066 58003=
23884 425// 61302 10109 20055 40053 51001 86500=
24507 426// 70000 10026 21007 40121 52007 87500=
24908 42580 60201 10053 21029 40083 57004 86500=
29263 41571 82801 10114 20098 40012 57004 70298 8695/=
29282 41568 80601 10083 20065 40049 58007 78082 889//=
29570 42596 72301 10159 20084 40035 58013 85901=
29698 42997 30000 10068 20064 40054 53004 80002=
29862 41984 23201 10119 20092 40063 58002 70291 80001=
30230 42698 80000 10018 20005 40096 57004 85541=
30309 42996 60602 10098 21017 40043 57005 86030=
30521 00000 10022 21006 40078 52005=
30710 42960 81404 10052 21010 40079 57003 82031=
23973 42999 10000 10070 20038 40051 58003 80001=
29253 415// 71401 10136 20124 40009 54000 70298 87900=
29471 415// 30000 10116 20100 40033 58005 70298 83900=
29481 41599 51401 10111 20105 40032 58007 70298 85300=
29553 41574 81802 10152 20109 40037 58007 70292 8592/=
29562 41584 61903 10142 20099 40040 5//// 70282 86900=
29581 42598 79901 10149 20115 40043 51002 8495/=
29594 42599 82002 10115 20045 40044 54000 83901=
29653 42997 01601 10101 20082 40057 57003=
29675 42998 00000 10066 20048 40066 58003=
29676 42698 23201 10100 20084 40046 58007 82500=
29759 42584 22701 10083 20061 40079 58008 81501=
29766 42999 00000 10103 20089 40066 57005=
29864 42984 03303 10081 20065 40075 58004=
29869 42972 30000 10106 20090 40074 58001 80001=
29956 42984 02102 10094 20077 40083 58001=
30504 42997 31701 10115 20062 40051 54000 80002=
30603 42997 00000 10080 20036 40060 57002=
30612 429// 23601 10083 20046 40058 57004 80001=
30622 429// 00000 10026 21007 40068 52009=
30499 42999 22504 10007 21007 49995 52002 82030=
30683 42699 70000 10048 20004 40006 52001 82941=
31253 42993 60000 10052 21026 49958 58004 86030=
31295 429// 32804 10031 21010 49979 54000 83031=
31348 415// 83604 10020 20017 49988 58008 78082 889//=
31418 42598 83603 10063 20055 49956 58007 889//=
31442 429// 02904 10060 21016 49957 58002=
31445 42984 02902 10046 21011 49974 54000=
31474 41598 73201 10063 20056 49914 57023 70282 87900=
31534 41/93 90000 10071 20071 49929 54000 74598=
31587 41979 02902 10096 20034 49955 58006 70191=
31632 41/93 90000 10084 20084 49910 57026 74245 8////=
31702 42584 62502 10128 20077 49924 53007 86900   333 91110=
31713 415// 50000 10121 20105 49903 57008 85300=
31725 42498 21802 10119 20093 49903 57018 82500=
31801 41692 90000 10078 20077 49920 57002 74542=
30455 429// 03101 11027 21064 38839 48409 58001=
30549 429// 02502 11057 21091 38503 48402 52005=
30726 429// 20502 10032 20000 40093 52003 80001=
30731 42999 01001 10012 21020 40096 58002=
30739 429// 50302 10083 21038 40068 52002 83072=
30745 42999 20301 10057 21023 40084 52005 80001=
30764 42998 00000 11025 21041 40088 52017=
30811 426// 71202 10099 20059 40065 54000 8357/=
30822 42998 80000 10047 20025 40095 54000 8807/=
30824 42699 80000 10042 20027 40090 58003 885//=
30829 42984 80504 10136 21012 40038 58006 8807/=
30846 42999 50000 10044 21020 40031 51003 80001=
30859 42899 20000 10022 21018 40051 52006 82040=
30862 42984 03203 10041 21054 40058 52010=
30957 42984 20000 10058 21032 40057 51001 82040=
31845 42998 00000 10060 20060 49927 58004=
31878 41957 01701 10094 20094 49940 57012 71011=
31915 42998 22804 10174 20058 49954 57013 82040=
31921 42978 12303 10124 20077 49944 58014 80001=
31969 42998 02604 10153 20084 40001 54000=
31981 42999 02704 10092 20084 49964 54000=
31987 42999 00301 10110 20094 49991 52002=
32069 41598 80000 10097 20090 49827 57034 78082 889//=
42410 21495 80000 10246 20243 40031 79596 8592/ 333 58003 6012/
85615 81920 87456=
42415 21595 80000 10240 20231 40031 72162 8532/ 333 58017 6004/
85620 81930 87458=
42492  31996 00906 10286 20247 40000 70500 333 58017=
42798 21595 30000 10330 20281 49991 70562 82530 333 58013 6990/
82620 83360=
42809 31395 72005 10300 20272 40013 70522 87700 333 56400 58003
84708 84612=
10063 91112=
30372 42584 70201 10011 21006 40072 52008 82941=
30469 429// 10000 11019 21029 40063 52014 81040=
30781 42999 02602 11027 21043 40045 52017=
24856 41599 83402 10088 20082 40011 52066 72162 885//   333 88626=
30686 42699 23602 10080 21007 49996 52004 82500=
30777 42998 09002 11001 21049 40069 52018=
30961 42999 00601 10046 21018 40055 51006=
30971 42984 00000 11031 21051 40080 52008=
30978 42984 80000 10079 21002 40043 52007 80001=
31624 41599 80000 10084 20055 49912 57016 70281 889//=
24982 42499 80000 10042 20042 40121 58010 889//=
32121 41497 81202 10055 20043 49927 57026 78082 889//=
32128 41497 83502 10070 20068 49826 55004 78082 883//=
62600 32970 03402 10345 20105 39855 40058 10405 58015=
62640 32970 0000 10355 20080 39703 40044 10438 58008=
62641 32970 03306 10300 20200 30020 40085 10374 58012=
62650 32970 03604 10360 21005 39875 40043 10430 59001=
62680 32970 70000 103502 0100 39658 40037 10440 58011=
62721 32970 7000 10375 20075 39619 40036 800071 0420 56009 58004 8727
62730 32970 0000 10343 20150 10405=
62751 32970 7000 103360 20174 39649 40064 82047
10408 56099 58004 83365 87275=
62752 32970 72001 10345 20160 39398 40047 80007 5 10386 56009
59001 87275=
62760 31770 70303 10325 20160 39261 4004 71322 81970 10392
56690 57961 58015 8190 87365=
62762 32970 71803 10330 20188 39574 40030 80007 10380 56009 5901 5872
62770 32970 71410 1280 201303 9208 40081 84047 10385 56099
58012  84365 8725=
15502 31998 61401 10266 20109 40123 56007 70310 80006 333 10310=
15525 31997 30000 10232 20139 40133 56003 70300 83001 333 10286=
15552 31998 20902 10190 20163 40156 57007 70111 80009 222// 2//00 333
10261 555 92012 92418=
15614 31698 61102 10213 20102 39461 40128 54000 70221 82462 333 10267
555 95000=
15615 11/91 92902 10028 20023 37166 47114 57009 69942 74184 333 10072
555 95199=
15625 31960 31204 10234 20123 40129 56003 70300 83030 333 10300 555
95490=
15627 31/97 30000 10046 20032 37660 47116 56004 70141 82231 333 10090
555 95110=
15640 31798 10905 10220 20122 40145 57004 70200 81200 333 10270 555
95000=
15655 31998 31403 10196 20174 40155 54000 70200 80001 222// 00187
314// 40601 333 10235 555 92025 92428=
15712 31698 60904 10256 20118 40118 53001 70322 86900 333 10305 555
95000=
15730 31998 30000 10218 20093 40138 56002 70200 80002 333 10270=
42571 32997 03204 10344 20143 49985 333 58001=
42779 32996 00000 10322 20176 39335 40000 333 58005=
42867 21596 82912 10292 20208 40028 79596 8593/ 333 58016
6990/ 84620 81930 86360=
43041 31596 41802 10264 20224 39438 40042 70199 82502 333
58005 82625 83075=
52634 36/// /0000 11001 21016 36766 4//// 57007
555 10020 2//// 30122 41111 51011 60/// 7//// 80000
9//// ///// 1/112 2//00 30000=
42634 32596 12710 10290 20238 40042 81500 333 58010 81620 =
42647 31996 02308 10324 20244 40037 70500 333 58007 =
42909 32596 22311 10298 20259 40050 82500 333 56500 58002 82620 =
43003 21595 41803 10278 20252 40061 75205 84800 333 58010 6990/
82620 83825=
43063 22596 12701 10246 20211 39450 40067 81500 333
58005 6994/ 81628=
43110 21496 70910 10248 20239 40079 72165 83820 333 58003 6016/
85619 83822 86456=
43117 32997 02302 10270 20233 40066 333 58011=
43192 21596 60905 10268 20245 40082 75065 84720 333 58009 6016/=
48381 32960 00000 10280 20250 39834 40055
333 58002=
98429 31557 70000 10279 20241 40080 57012 70544 83830
333 56999 83823 85359=
98531 11458 80703 10256 20248 40078 58003 60061 79298 8397/
333 56999 81818 88354=
57528 16/// /2000 10159 29756 37563 61430
555 1/144 2//07 30181 12100
11101 10101 00010 10110 1011/
/////
2//// 3//// 6//// ///// ///// 8//// 9//// ///// ///// //004
11101 11111 1011/
11111 110//=
24724 42699 22602 10036 21017 40084 57002 81401=
43128 31596 62305 10314 20207 39458 40044 71322 83330 333 57922
58012 83620 81930=
43150  32597 22306 10306 20276 39972 40045 82800 333 58010
86120=
43185 32996 00000 10314 20264 30045 40048 333 58011=
43198 21496 62303 10216 20204 39265 40088 70252 84601 333 56509
58008 6993/ 82710 83618=
43201 22996 02308 10230 20209 39371 40089 333 58015 6992/=
43213 32996 12702 10310 20212 39748 40057 80002 333 58012=
43233 32396 22904 10234 20201 39278 40081 81601 333 56609 58012=
43279 31596 62302 10300 20255 30049 40066 71322 83930 333 57972
58009 82620 81930 85360=
43284 21996 31108 10252 20240 39980 40096 70182 81501 333 58002
6013/ 81620 83075=
43295 22996 02704 10234 20189 39082 48495 333 58007 6990/=
43314 32596 30502 10274 20251 40099 82430 333 59006=
43321 31496 42310 10250 20214 39642 40087 70511 82531 333
58000 82615 83358=
43344 31596 52903 10306 20237 39978 40076 71311 83902 333 57981
58000 82620 81930 83075=
43353 32496 29903 10270 20244 40106 82800 333 56700 59006 81616=
43369 21596 70000 10278 20258 40100 70362 8447/ 333 59010 6002/
82620 83825 86458=
43371 32596 40000 10284 20258 30025 40097 81101 333 59010 81825
83075=
58647 11659 80000 10199 20191 40125 57007 60111 71060 885//
333 10245=
96035 31550 50000 10256 20244 30063 40095 57011 70521 82531
333 56000 82620=
51087 32980 00000 10117 20078 39178 40101 57004 333 05152
10185=
51156 32980 00000 10104 20062 38666 40100 54000 333 00003
10207=
51644 32980 02703 10192 20069 38852 40017 52008 333 05201
10296=
10152=
92022=
37985 42596 21701 10215 20193 40149  52014 82900 333   10259=
37575 42594 80204 10192 20105 40148 53013 882// 333   10215=
80214 01460 60000 10250 20213 60011 70522 82830
333 5660/ 60017 82815 85359=
80222 41569 80705 10168 20115 37516 71565 8252/
333 5640/ 59002 82623 88460=
80259 11458 80000 10252 20196 39041 69941 70552 8487/
333 5690/ 58009 84815 85358=
80315 11363 61408 10285 20206 89586 40069 69931 71552 83650
333 5633/ 58016 83707 84358=
80342 32562 73202 10198 20170 38210 84830
333 5643/ 58003 84820 83358=
80370 01456 80000 10114 20105 60031 76065 8642/
333 5630/ 60027 86614 88457=
80398 01458 59902 10292 20239 30011 40106 60031 71562 83832
333 56299 58001 60037 83813 83358=
83650 31397 43208 10260 20210 40139 57014 7032/ 8216/ 00255 20302=
37735 42998 53201 10191 20137 40159 53010 85060 333   10229=
71119 17/// ///// 10068 20068 69981 7//4/ 333 10083 20060 70092=
87078 32970 50705 10236 20052 30002 40154 57027 80006=
87097 32970 01805 10199 20086 39858 40175 57024=
87155 32965 10708 10214 20092 30113 40175 56025 80004 333 56006
81070=
87162 32970 10708 10217 20087 3330094 40166 57029 80001 333 56007=
87166 32970 00507 10216 20099 30102 40175 57024=
87178 32970 01104 10204 20092 30028 40176 57027=
87270 32965 20510 10216 20069 30102 40165 57028 80001 333 56005
82070=
87289 32970 00905 10196 20114 30102 40186 57023=
87374 32970 03611 10204 20154 30066 40158 57028=
87393 32965 00000 10206 20117 30116 40180 57029=
87395 32965 00502 10190 20110 30130 40176 57029=
87480 32965 03614 10210 20066 30130 40160 57032=
87497 32965 00205 10197 20112 30140 40165 57023=
87534 32960 13610 10213 20100 39965 40126 57028 80004 333 56005
81070=
87548 31959 63606 10210 20086 30057 40153 58020 70522 80006 333 56005
86270=
87576 31958 73604 10186 20099 30145 40169 56017 70422 80008
333 56006 87270=
87582 32960 20204 10169 20112 30168 40174 57015 80006 333 56006
82270=
87593 32960 40508 10168 20105 30144 40172 56017 80005 333 56000
84270=
87623 31965 80504 10178 20117 39898 40126 57028 70542 83032 333
56056 83360 86070=
84270=
87645 32970 53607 10161 20092 39944 40155 58020
80006 333 56007 85270=
87692 31960 73409 10151 20100 30137 40163 57023 70341 80006 333
56006 87270=
87715 32965 72706 10140 20059 39805 40129 57021 84076 333 56029 84360
85270=
87750 32965 73608 10182 20056 30036 40135 57024 80008 333 56007
87270=
87765 32580 70000 10104 20045 39172 48460 57015 85520 333 56650
85630 84560=
87016 32565 80000 10218 20159 39702 40110 57043 885// 333 56499
88620=
87022 32665 83604 10218 20118 39616 40130 57027 8657/ 333 56449
86640=
87046 32665 70914 10178 20119 39102 48484 57035 82572
333 56199 82635=
87047 31565 80708 10162 20101 38774 48489 57029 70422 8357/ 333
56009 83630 85360=
87121 32565 60000 10224 20125 39588 40098 57032 83160
333 56869 83825=
87129 32970 30510 10232 20098 39887 40118 52033 80001=
87217 32670 50505 10217 20119 39596 40090 57037 81106 333 56706
81840=
87222 32770 20530 10242 20108 39551 40070 57043 333
56200 82850=
87257 32965 40218 10218 20082 30035 40141 58045 80002 333 56006=
87311 31962 00503 10200 20066 39409 40095 57032 70500 80001
333 56001 82270 90008=
87320 32970 40914 10202 20110 39564 40091 57040 80004 333 56003=
87328 32780 23620 10220 20084 39459 40103 57032 81506 333 56600 81650
95000=
87344 32965 63618 10213 20087 39566 40111 57032 84076 333 56088
84360 82270 91128 94237=
87349 32970 20508 10221 20076 39609 40096 57035 81075 333 56087
81360=
87371 32962 03608 10190 20119 30133 40154 57035=
87416 32670 40000 10187 20088 39350 40097 57023 84800 333 56799=
87418 32965 11803 10185 20108 39302 40105 57024 81070 333 56060
81360=
87436 32980 03624 10207 20067 39290 40102 57019=
87448 32670 43417 10222 20056 39549 40113 57027 81575 333 56995=
87453 32970 03606 10220 20066 39624 40110 57021=
87467 32970 03608 10210 20066 39999 40134 57024 333 56000=
87506 32970 60502 10138 20058 38543 48466 58019 86076 56066 95084=
87509 32670 32304 10184 20073 39255 40107 57019 81106 333 56000
81835=
67341 32570 00104 10198 20184 40164 52012=
67755 42980 01704 10241 20162 39415 48495 333 10298 59009=
67781 41865 10101 10200 20096 38800 48542 70500 81402 333 10262 58024
81657=
67865 42780 20000 10130 20112 38822 48534 82400 333 10279 58013
82656=
67961 42980 01102 10153 20126 3//// 48/// 333 10250 5////=
70026 32166 81111 11072 21083 30218 40225 51007 91753 333 11056
21078 555 92818=
70133 12566 80000 10011 21006 30186 40193 50007 69901 91753 333
10022 20000 555 92818=
70231 32766 82605 10061 20017 30082 40212 53010 91753 333 10078
20044 555 92818=
70261 32866 49903 10094 20006 30010 40181 50002 91753 333 10117
20022 555 92818=
70273 32966 20000 10100 21022 30097 40145 53008 91753 333 10133
20044 555 92818=
70308 12566 81310 10039 20022 30215 40228 56007 69901 91753 333
10039 20028 555 92818=
70316 12466 80308 10028 20000 30226 40266 58001 69901 91753 333
10044 20022 555 92818=
70326 32466 60000 10056 20022 30196 40217 51009 91752 333 10083
21022 555 92818=
70350 32966 03216 10111 20000 30131 40173 50005 91753 333 10117
20078 91020 555 92818=
70361 32966 42704 10144 20078 30083 40102 53005 91753 333 10150
20000 555 92818=
70398 12566 89905 10089 20050 30114 40156 53027 69901 91753 333
10089 20083 555 92818=
70341 32966 02308 10094 20039 30139 40164 53008 91753 333 10128
20011 555 92818=
70194 32866 40703 10100 20000 30019 52007 91755 555 92818=
78255 32560 40802 10310 20165 39993 40143 57021 84200 333 10312
20220 84820=
78318 31562 60304 10281 20242 30144 40148 58014 71792 86900 333
10306 20250 30/// 56900 57941 59015 82820 849//=
78325 31564 20206 10304 20217 30090 40147 58009 70500 82903 333
10313 20240 30/// 56909 57953 59015 81820 819//=
78333 31/10 11503 10305 20229 30134 40140 58016 70500 81963 333
10308 20218 30/// 56999 57963 59018 818// 819//=
78338 31558 20901 10325 20193 30132 40145 58016 70500 82200 333
10325 20220 30/// 56200 59019 82826 555 10901=
78349 31561 30802 10318 20193 30030 40138 58023 70500 83200 333
10319 20227 30/// 56200 59014 83822 555 10903=
78360 31568 31803 10306 20247 30125 40136 58012 70511 83800 333
10318 20242 30/// 56400 57881 59011 82820 92032 555 11803=
78369 31568 20803 10292 20238 30128 40140 58010 70500 81202 333
10304 20264 30/// 56909 59014 81820 92033=
72201 11466 49905 10294 20239 30151 40158 58012 69901 761// 91753
333 10311 20278 555 92818=
72202 32566 41509 10317 20239 30144 40149 58017 91756 333 10322
20272 555 92818=
72203 32666 41508 10317 20228 30148 40154 58014 91753 555 92818=
72205 32866 22911 10356 20172 30103 40140 58021 91753 333 10356
20261 91016 555 92818=
72206 32766 23014 10333 20206 30108 40120 58026 91756 333 91018
555 92818=
72207 32666 42611 10333 20211 30083 40099 58023 91753 333 10339
20244 91015 555 92818=
72208 12966 02309 10283 20244 30075 40089 56020 60071 91756 333
10356 20244 555 92818=
72212 35/// /2515 10328 20211 30126 40139 58017 91753 333 10333
20239 91019 555 92818=
72214 32766 22515 10350 20200 30108 40127 58027 91753 333 10356
20256 555 92818=
72217 12666 42816 10311 20200 39980 40106 58017 69901 91753 333
10322 20244 91021 555 92818=
72218 32766 42613 10322 20194 30037 40088 58022 91753 333 10328
20256 91018 555 92818=
72219 12666 82913 10256 20194 39749 40112 56015 60041 91753 555
92818=
72223 32966 02710 10311 20206 30065 40142 58011 91756 333 10322
20244 555 92818=
72226 12666 22712 10311 20206 30051 40121 58019 69901 91753 333
10317 20222 555 92818=
72231 32666 62213 10333 20217 30134 40149 58013 91753 333 10339
20250 555 92818=
72234 32566 62609 10289 20217 30023 40131 58018 91753 333 10289
20200 555 92818=
72235 32566 63005 10278 20222 30024 40139 56013 91754 333 10289
20206 555 92818=
72240 32966 09904 10311 20233 30136 40155 58011 91753 333 10317
20244 555 92818=
72243 32566 80604 10278 20239 30119 40155 55010 91753 333 10289
555 92818=
72248 32566 49904 10278 20211 30062 40154 58008 91756 555 92818=
72250 12966 01311 10333 20233 30135 40140 58007 69901 91756 333
91016 555 92818=
72251 32566 81706 10290 20240 30126 91814 555 92818=
72253 32666 60807 10267 20194 39878 40155 58000 91753 333 10267
555 92818=
72254 35566 29906 10289 20200 39940 40154 57005 91753 333 10289
20211 555 92818=
72255 35466 40107 10290 20250 30113 91811 555 92818=
72256 32966 00000 10283 20183 39980 40158 56013 91753 333 10289
20183 555 92818=
72259 32966 43403 10317 20161 39961 40160 58006 91753 333 10317
20206 555 92818=
72261 35966 09905 10300 20167 39791 40147 57015 91753 333 10300
20206 555 92818=
72263 32966 00000 10294 20150 39498 40159 58011 91753 333 10294
20178 555 92818=
72265 32966 09903 10294 20111 39189 40151 58012 91753 333 10294
20194 555 92818=
72266 32966 01909 10300 20150 39544 40159 58011 91753 333 10300
20200 555 92818=
72267 32966 02206 10272 20106 39077 40168 58008 91753 333 10278
20161 555 92818=
72270 32966 01605 10317 20122 38844 40128 58007 91751 333 10322
20217 555 92818=
72274 32966 00000 10372 20044 39230 40100 56010 91755 333 10372
20228 555 92818=
72278 32966 01105 10367 20100 39727 40101 58004 91756 333 10367
20261 555 92818=
72280 32966 /2407 10356 20128 30029 40100 58000 91756 333 20233
555 92818=
72290 32966 23308 10244 20172 30128 40137 52004 91751 333 10244
20172 555 92818=
72295 32266 42610 10222 20194 30097 40133 51007 91750 333 10244
20172 555 92818=
72304 35561 20908 10239 20189 30084 40088 58017 91751 333 10244
20206 555 92818=
72308 12466 81306 10200 20161 30077 40084 58024 69901 91751 333
10200 20178 555 92818=
72310 32966 82717 10300 20172 30005 40084 58017 91756 333 10317
20244 91025 555 92818=
72311 12566 22309 10272 20200 39821 40104 56021 69951 91753 333
10272 20206 91015 555 92818=
72314 11366 82005 10233 20211 39811 40078 58014 69951 761// 91751
333 10267 20222 555 92818=
72317 11348 82306 10228 20206 39755 40071 58014 69981 761// 91754
333 96010 555 92818=
72324 12566 82909 10239 20183 39859 40102 58019 69901 91753 333
10244 20200 555 92818=
72326 31566 82111 10220 20190 39735 761// 91808 555 92818=
72327 32666 82809 10233 20133 39891 40099 58009 91753 333 10239
20194 555 92818=
72334 32766 22813 10278 20156 30028 40127 56016 91753 333 10278
20200 91020 555 92818=
72340 12966 02912 10272 20144 30055 40148 58012 69931 91753 333
10272 20194 555 92818=
72344 32966 02808 10272 20161 39997 40160 58012 91753 333 10278
555 92818=
72351 12966 20000 10300 20111 39806 40165 58007 69901 8/001 91753
333 10306 20178 555 92818=
72353 32966 21708 10294 20144 39715 40171 57009 91753 333 10294
20167 555 92818=
72356 32966 02810 10289 20150 39923 40161 56010 91753 333 10289
20172 91016 555 92818=
72363 32966 02012 10283 20122 38953 40167 58011 91753 333 10283
20139 555 92818=
72365 32966 09904 10283 20000 38425 40144 58008 91756 333 10283
20161 555 92818=
72374 35966 00808 10317 20061 38544 40135 58011 91756 333 10317
20133 555 92818=
72384 32966 00000 10267 20111 39976 40150 58001 91756 333 10267
20167 555 92818=
72386 32966 41715 10378 20078 39350 40088 58006 91756 333 10383
20294 555 92818=
72389 32966 21504 10278 20139 30032 40150 50000 91756 333 10278
20178 555 92818=
72394 32966 02907 10233 20111 30051 40139 51003 91751 333 10233
20106 555 92818=
72401 11332 81304 10172 20161 30028 40093 58018 69931 710// 91754
555 92818=
72403 12466 80806 10167 20139 39981 40098 58015 69901 91751 333
10167 20144 555 92818=
72407 35966 00609 10167 20100 30081 40103 56010 91754 333 10183
20139 555 92818=
72408 32666 81106 10194 20106 30076 40099 58015 91754 333 10200
20150 555 92818=
72411 11132 81309 10172 20161 39663 40077 58019 69931 710// 91754
333 10172 20150 555 92818=
72412 37566 82409 10200 20160 39201 791// 91813 555 92818=
72414 12566 82106 10211 20183 39715 40060 58010 69981 91754 333
10211 555 92818=
72421 12766 62811 10200 20144 39752 40062 52001 60061 91751 333
91020 555 92818=
72428 12666 60506 10161 20150 39753 40044 58010 60421 91751 333
10172 555 92818=
72429 32566 83016 10170 20140 39711 91810 555 92818=
72432 12666 83110 10194 20128 39957 40094 55001 69901 91754 333
10211 555 92818=
72434 32566 83012 10167 20122 39920 40120 53012 91753 333 10189
20161 555 92818=
72438 12566 83008 10183 20139 39787 40071 51003 69931 91755 333
10200 20156 555 92818=
72440 32966 03014 10239 20128 39705 40154 56002 91754 333 10244
20156 91020 555 92818=
72445 32566 23015 10189 20117 39820 40141 51007 91754 333 91019
555 92818=
72446 32966 03111 10233 20139 39785 40149 58005 91753 333 10239
20133 91017 555 92818=
72450 32966 22314 10289 20117 39684 40152 58015 91756 333 10294
20150 555 92818=
72451 32966 02119 10311 20117 39249 40138 58017 91756 333 10311
20161 91026 555 92818=
72456 32966 02908 10261 20133 39835 40151 58017 91756 333 10267
20139 555 92818=
72458 35966 02111 10283 20144 39617 40134 56026 91755 333 10283
20122 91018 555 92818=
72464 32966 01408 10306 20067 38569 40122 58016 91754 333 10317
20094 555 92818=
72465 32966 02810 10328 20044 38874 40112 56010 91756 333 10333
20156 555 92818=
72476 32966 09905 10294 20039 38558 40122 56012 91756 333 10300
20144 555 92818=
72486 35966 02010 10261 20028 38111 40108 58007 91753 333 10261
20067 555 92818=
72492 32966 02912 10278 20067 30142 40152 58002 91756 333 10278
20117 555 92818=
72503 32766 80707 10194 20094 30087 40099 57015 91751 333 10189
20156 555 92818=
72508 32766 83507 10178 20078 30033 40105 56009 91751 333 10183
20133 555 92818=
72509 32666 61207 10133 20083 30104 40112 58005 91754 333 10150
20133 555 92818=
72515 32666 69904 10150 20067 39535 40113 58010 91756 333 10156
20083 555 92818=
72518 32666 83406 10150 20078 30015 40122 58006 91751 333 10161
20122 555 92818=
72519 32666 60000 10161 20078 39970 40115 57008 91754 333 10167
20100 555 92818=
72520 31216 80606 10130 20130 39626 710// 91757 555 92818=
72524 11248 80514 10128 20128 39797 40077 58002 60431 763// 91751
333 10133 20122 96010 555 92818=
72528 32566 80512 10156 20078 39849 40110 56012 8/507 91754 333
10161 20106 555 92818=
72530 11124 80309 10117 20117 39845 40088 53016 60031 710// 91756
333 10156 20117 91024 555 92818=
72532 11332 83211 10156 20144 39855 40096 51012 69951 761// 91754
333 96010 555 92818=
72533 11240 80608 10144 20144 39780 40075 53014 60011 763// 91754
333 10156 96010 555 92818=
72537 32462 80507 10120 20110 39855 91801 555 92818=
72546 32466 83013 10144 20111 39803 40150 53006 91754 555 92818=
72547 32361 80114 10111 20100 39733 40123 51019 91755 333 10144
20111 91018 555 92818=
72552 32966 01511 10250 20161 39476 40129 56031 91756 333 10250
20106 555 92818=
72556 35966 01406 10239 20122 39588 40137 56027 91754 555 92818=
72557 32966 09903 10189 20111 39757 40154 58014 91755 555 92818=
72562 32966 02008 10306 20111 39150 40105 56020 91756 333 10306
20089 555 92818=
72564 32966 22411 10278 20044 38131 40100 56007 91756 333 10278
20117 555 92818=
72565 32966 61513 10294 20061 38342 40101 58008 91753 333 10294
20106 555 92818=
72569 32966 02615 10278 20039 38344 40081 56006 91755 333 10283
20128 555 92818=
72572 32966 03510 10278 20044 38713 40115 51002 91756 333 10283
20183 555 92818=
72576 35966 09903 10250 20017 38286 40088 51002 91756 333 10250
20100 555 92818=
72578 32766 22317 10222 20072 38644 40140 58001 91756 333 10233
20122 91020 555 92818=
72591 32866 49906 10256 20050 30031 40153 58005 91755 333 10261
20128 555 92818=
72594 11561 73608 10167 20125 30212 40212 53007 69901 70252 81408
333 10169 20120 70024 81660 87266 90960 =
72597 32666 29903 10161 20061 39716 40192 58007 91756 555 92818=
72606 32766 80607 10156 20067 30089 40108 56007 91751 333 10172
20139 555 92818=
72617 32566 83408 10150 20067 30004 40130 58006 91754 333 10150
20111 555 92818=
72635 12566 80416 10122 20100 39811 40103 53006 69931 91756 333
10133 20100 555 92818=
72636 12666 80809 10133 20106 39879 40108 53006 60041 91755 555
92818=
72637 12866 20508 10167 20106 39824 40101 56005 60211 91753 333
10167 555 92818=
72638 35966 00411 10167 20061 39704 40121 58005 91755 333 10172
20094 91017 555 92818=
72640 11232 80215 10094 20094 39861 40115 53015 60101 751// 91752
333 91021 96010 555 92818=
72641 12464 80511 10117 20094 39809 40119 53013 69931 91753 333
10128 20094 555 92818=
72644 12366 80309 10122 20106 39668 40145 53006 69901 91754 333
10122 20111 555 92818=
72645 12966 00614 10156 20089 39880 40137 50004 69901 91756 333
10161 555 92818=
72651 32966 09904 10172 20111 39630 40145 58017 91756 333 10172
555 92818=
72654 32966 01409 10206 20128 39668 40131 58020 91755 333 10206
20056 555 92818=
72659 32966 01609 10200 20117 39662 40129 58020 91756 333 10200
20044 555 92818=
72662 32966 00111 10256 20139 39009 40095 55002 91755 333 10256
20106 555 92818=
72666 32566 63012 10194 20117 38779 40131 51009 91756 333 10200
20106 555 92818=
72677 11466 61605 10133 20100 38907 40135 55007 60061 761// 91756
333 10167 20106 555 92818=
72681 32966 03310 10194 20072 39163 40150 58000 91756 333 10194
20133 555 92818=
72683 35966 09903 10139 20033 38740 40164 58004 91753 333 10150
20067 555 92818=
72688 32666 82404 10150 20044 39644 40180 58005 91756 333 10167
20106 555 92818=
72693 12566 62310 10144 20094 30072 40209 53004 69901 91756 333
10150 555 92818=
72694 12466 82005 10128 20111 30129 40203 51005 69931 91756 333
10144 20111 555 92818=
72698 12566 62108 10139 20111 30194 40202 51005 69981 91755 333
10139 20111 555 92818=
72712 32666 80106 10111 20044 39899 40129 51006 91754 333 10111
555 92818=
72745 32866 21113 10144 20061 39646 40168 58004 91755 333 10150
20067 555 92818=
72747 35966 01707 10206 20056 39722 40152 56014 91755 333 10206
20094 555 92818=
72753 32466 81611 10150 20111 39820 40151 56004 91753 333 10156
20061 555 92818=
72764 32966 02209 10206 20144 39522 40113 51009 91752 555 92818=
72767 32966 02517 10222 20056 39414 40081 53009 91752 333 10233
20161 91025 555 92818=
72768 32966 02821 10217 21017 39284 40086 51003 91756 333 10222
20133 91031 555 92818=
72772 32866 43114 10167 20033 38796 40143 58005 91756 333 10167
555 92818=
72773 32866 62209 10144 20017 39051 40167 58002 91756 333 10144
555 92818=
72776 32866 22423 10189 21006 38856 40110 51000 91756 333 10189
20067 91029 555 92818=
72777 35966 42622 10200 21028 39191 40098 58001 91756 333 10206
20111 91033 555 92818=
72779 35866 43010 10139 20017 39116 40157 51003 91756 333 10150
20089 555 92818=
72781 32966 69903 10172 20017 39784 40175 58003 91756 333 10178
20039 555 92818=
72785 32666 62014 10133 20028 39333 40173 50003 91756 333 10150
20039 91019 555 92818=
72793 12666 62209 10133 20083 30028 40192 51005 69931 91756 333
10133 20094 555 92818=
72306 11464 80306 10233 20200 39926 40081 56017 69901 761// 91751
333 10233 20200 555 92818=
72315 12766 43009 10267 20156 39335 40075 58026 69931 91754 333
10267 20183 555 92818=
72402 35766 60807 10167 20128 30091 40091 56016 91754 333 10189
20144 555 92818=
72405 32466 80606 10170 20130 30074 91758 555 92818=
72406 11659 80408 10139 20122 30045 40099 58010 60061 761// 91754
333 10156 20139 96010 555 92818=
72423 12666 82811 10211 20133 39907 40080 53001 69901 91756 555
92818=
72425 31466 62105 10190 20170 39760 761// 91805 555 92818=
72504 32766 82009 10178 20056 30098 40103 56009 91754 333 10183
20150 555 92818=
72507 32666 80205 10167 20078 30082 40105 58005 91751 333 10172
20150 555 92818=
72513 32966 03607 10183 20067 39753 40089 58019 91754 333 10194
20100 555 92818=
72521 31232 80412 10120 20120 39618 761// 91815 333 96010 555
92818=
72529 32566 60511 10144 20078 39924 40126 56008 8/102 91754 333
10150 20111 91016 555 92818=
72535 12366 80707 10144 20128 39802 40079 51010 60011 91754 333
10150 555 92818=
72536 12466 80711 10133 20128 39821 40072 50005 60071 91752 555
92818=
72544 12464 80109 10156 20139 39893 40106 51019 69981 91755 333
10156 20133 555 92818=
72592 32966 02905 10217 20067 39976 40155 50001 91756 333 10228
20144 555 92818=
72605 35666 80000 10172 20061 39983 40107 56010 91751 333 10183
20128 555 92818=
72783 32766 60905 10167 20050 39662 40178 58005 91756 333 10178
20078 555 92818=
72784 32774 13107 10192 20018 39900 40165 58003 81100 333 10197
20088 555 92818=
72791 15566 82309 10133 20094 30191 40200 53014 69931 91756 333
10139 20106 555 92818=
89061 32689 25004 11046 30196 40206 52009 82500 91735 222// 01012
ICE 106/0 333 43020 82740=
89063 42999 20702 11034 21038 30200 40214 52009 82030 91745 222//
03016 333 46115=
89062 42398 81002 11029 21041 30201 40243 52010 886// 333 42012
88708=
71472 36/// /2312 10083 30167 40184 51020 333 10083 20072 70000=
87791 32980 73207 10160 20082 30116 40124 57017 80006 333 56005
87270=
87803 32980 70703 10103 20013 39198 40107 57015 86076 333 56060
86360=
87828 32980 42506 10170 20071 30070 40122 57019 82066 333 56077
82360 83270=
87860 32980 52706 10174 20024 30049 40104 57005 82072 333 56066
82360 83070=
87903 31270 70000 10048 20018 39837 40107 52009 72852 84676 333
56666 84705=
87909 32580 72512 10102 20049 30020 40095 52001 81576 333 56660
81630 83360=
87925 31009 82503 10068 20068 30073 40096 51013 74644 886// 333
56099 88701 90091=
87938 11470 80716 10042 20022 30076 40147 52009 69941 71552 8467/ 333
56229 84715 85360=
85154 32884 30000 10268 20205 39948 40127 57020 83030
333 56030 58009 83358=
85041 11458 52803 10281 20232 39847 40162 57023 60061 71522 83930
333 56770 58007 82817 81923 84358=
85043 11457 61906 10255 20242 39945 40106 57021 60101 71562 85903
333 56400 58000 84615 81920 86070=
85114 32484 40000 10324 20239 39966 40129 57024 84200
333 56000 58004 84817=
85123 32484 60000 10278 20219 39950 40114 57025 83530
333 56000 58000 83616 85358=
85140 32484 70000 10260 20206 39872 40142 57026 86550
333 56330 58012 86627 87357=
85141 32484 70000 10265 20209 39944 40175 57022 85530
333 56330 58014 85617 86357=
85152 32484 80000 10242 20192 39906 40127 57024 8652/
333 56339 58016 86630 88457=
85230 32984 00905 10160 20018 36276 58024
333 59010=
85242 32984 00000 10178 21007 36548 57012
333 59002=
85201 32484 12205 10140 20018 36296 57020 81100
333 56000 59008 821827=
76220 32980 00906 10300 20080 38197 40115 57023 91740 333
10300 20100 30/// 58041=
76243 32375 60902 10322 20210 39877 40154 57003 80006 91750
333   10328 20204 30/// 56006 58061 86070=
76305 32970 00501 10300 20211 30101 40111 57002 91730 333
10335 20198 30/// 58032 90800=
76393 32664 50503 10309 20187 39565 40129 56004 82239 91750
333   10313 20202 31/// 56355 58054 82841=
76499 31558 30000 10345 20199 30101 40131 57011 70544 83200
91740 333   10345 20245 30/// 563// 58048 83822=
76519 32560 80000 10218 20096 38347 40083 57011 8623/ 91748
333   10230 20177 30/// 5622/ 58015 86825=
76525 32560 71104 10154 20063 37489 40111 57003 81249 91750
333   10156 20110 31/// 56222 58016 81822 84358=
76548 32470 70503 10304 20259 30103 40133 58007 872// 91750
333   10312 20262 30/// 561// 58043 84811 83611=
76556 31562 12602 10297 20182 39087 40087 57003 70444 81100
91731 333   10310 20178 30/// 56200 58005 81820=
76581 31665 63601 10304 20181 39041 40099 57016 70544 86200
91756 333   10304 20199 31/// 56200 58027 86834=
76585 02580 33602 10302 20258 39989 40139 58008 60161 83200
91730 333   10303 20201 32/// 561// 58051 60161 83830=
76593 32470 40502 10286 20234 30126 40142 57013 82130 91750
333   10315 20264 30/// 561// 58020 81620 83330 92011=
76640 11350 82701 10274 20244 30123 40153 57007 75055 8442/
91750 333   10280 20256 30/// 5622/ 58053 69907 84609 84433
=
76647 11465 80903 10298 20250 30100 40130 58016 69916 72166
8322/ 91755 333   10298 20220 32/// 58010 69921 83815 85457
90924=
76675 01565 80502 10166 20096 37379 40087 56009 69901 70562
85320 91755 333   10176 20103 31/// 56110 58006 82926 83626
98465=
76741 31360 31802 10330 20259 30081 40101 57019 70444 832//
91750 333   10336 20238 30/// 564// 58010 83822=
76762 32580 61802 10290 20185 38751 40090 57011 83230 91740
333   10294 20186 30/// 56320 58003 83830=
76805 32870 32702 10320 20238 30108 40108 57018 83/3/ 91800
333   10320 20253 30/// 59006 83358=
76840 32756 70000 10340 20198 30096 40146 57005 87040 91750
333   10345 20225 30/// 56010 59004 87460=
76848 32370 80000 10220 20169 38376 49993 57007 84220 91735
333   10222 20159 31/// 56190 58001 82610 82820 84460=
76855 32580 60303 10300 20266 3//// 4//// 5//// 82500 91740
333   10310 20244 31/// 56990 58/// 82520 84358 92001=
76903 31680 62701 10314 20221 39995 40125 58003 70422 82440
91740 333   10324 20230 30/// 56890 59014 81830 82650 83360
93478=
82480 32697 52304 10330 20202 39879 40060 82100 333 59016=
82586 32598 31403 10305 20206 39852 40088 83100 333 59019=
82693 32599 21402 10346 20134 39822 40074 81201 333 59009=
82975 32594 50000 10321 20175 39725 40112 81300 333 59001=
94151 35/// /2117 10232 30101 40121 57018=
94290 35/// /1524 10226 30134 40141 57009=
94552 46/// /2408 11003 21005 39696 40170=
94129 35/// /1208 10245 30088 40111 57016=
94210 35/// /1211 10246 30124 40129 57015=
94289 35/// /1026 10237 30121 40130 57009=
94307 35/// /1022 10213 30130 40170 57016=
94371 35/// /1622 10193 30158 40164 54000=
94379 35/// /1819 10187 30151 40160 52001=
96073 01408 80000 10250 20241 30099 40106 51010 60051 79596 889//
333 56099 57900 60057 88910 80900=
96109 31557 43605 10270 20245 30044 40083 51003 71322 81932
333 56000 57901 81920 80970=
96633 01456 82903 10250 20244 30076 40083 57006 60064 70596 8492/
333 56009 57900 69907 81922 83618 88460 809//=
96749 16/// /1602 10242 20237 30078 40092 56014 60032
333 56000=
96805 01560 73602 10268 20247 30088 40098 56012 69931 72162 83231
333 56000 57801 69937 83820 80860=
97072 32558 51002 10260 20227 30006 40108 56015 82431
333 56000 82620=
97340 31558 70000 10256 20239 30094 40106 57015 71792 84972
333 56000 57900 81920 83620 86460 80957=
96075 31457 80503 10243 20237 30093 40103 58001 71792 8692/
333 56009 57902 83916 83617 80965=
96171 31450 50000 10256 20247 30062 40086 51003 70511 83521
333 56000 83616=
76050 31310 83305 10190 20170 30125 40135 52020 6//// 720//
886// 91750 333   10210 20140 30///=
76055 32980 00903 10366 20153 30081 40100 52009 91735 333
10367 20220 30/// 59023=
76122 32980 00902 10333 20004 38564 40088 5//// 91741 333
10333 20143 30/// 58012=
76225 32960 00501 10322 20057 38614 40095 57005 91750 333
10322 20187 30/// 58028=
76256 32980 01803 10300 20213 30097 40113 57001 91750 333
10314 20196 30/// 59004=
76342 31762 61402 10270 20165 39468 40149 57001 70021 86020
91745 333   10274 20195 31/// 56050 58071 86456=
76373 12355 61203 10276 20066 38210 40098 57015 70444 86300
91756 333   10308 20142 30/// 56600 58013 86910=
76382 32580 10000 10270 20165 38900 40084 57007 81200 91740
333   10275 20195 31/// 56500 58046 81820=
76390 31450 40603 10199 20144 38239 40093 57008 70544 83630
91745 333   10205 20130 30/// 56170 58028 83714=
76402 31958 03402 10300 20147 30067 40127 57008 7054/ 91745
333   10308 20135 30/// 58016=
76405 31975 03001 10336 20164 30099 40119 57006 70540 91750
333   10336 20182 30/// 58012=
76412 31966 03201 10335 20145 30092 40132 57004 70544 91740
333   10342 20185 30/// 58005=
76423 32582 50701 10270 20099 38172 40084 57007 82230 91745
333   10292 20168 30/// 56000 58022 82820 83356=
76458 32968 02604 10291 20195 30092 40102 57008 91750 333
10309 20255 30/// 58004=
76471 32680 40906 10225 20109 37704 40062 57003 84200 91745
333   10280 20130 30/// 56500 58016 84850=
76491 32456 33601 10312 20216 39760 40150 57007 83200 91740
333   10340 20230 30/// 56800 58064 83813=
76539 31565 61003 10223 20155 38128 40046 57007 70544 862//
91745 333   10239 20119 30/// 565// 58023 86826=
76577 32570 72302 10232 20156 38048 40108 58004 83530 91740
333   10236 20146 31/// 56110 58012 83622 84358=
76632 31565 73607 10184 20110 37605 40046 57007 71421 832/1
91750 333   10234 20115 30/// 561/5 58011 83830 84080 91306
90083=
76644 32460 71604 10352 20189 30125 40135 57013 85833 91755
333   10361 20240 30/// 56399 58019 83820 82320 82050 91006
91516=
76654 31557 41605 10298 20240 30103 40107 57005 70544 81230
91750 333   10306 20257 30/// 56990 59003 81820 83356=
76656 01575 80000 10190 20160 38524 40118 54001 69911 75052
8462/ 91748 333   10196 20155 31/// 5639/ 58012 69911 84715
84458=
76665 31564 73601 10220 20127 38112 40099 57009 70322 83230
91750 333   10220 20115 30/// 56880 57882 56008 83827 74358
=
76683 31662 40901 10247 20125 37813 40087 57013 70544 86101
91740 333   10255 20124 30/// 56805 58005 83842 81081=
76685 31550 72001 10210 20121 37866 40053 57009 70544 87400
91755 333   10208 20130 30/// 56900 58006 87624=
76687 11566 71603 10242 20166 38648 40118 52004 60031 72122
819// 91745 333   10255 20188 31/// 563// 58030 81925 84824
82624=
76698 01660 80000 10270 20251 30100 40115 57001 60021 75062
88200 91750 333   10292 20240 31/// 56300 58010 60026 88820
=
76723 32965 81603 10262 20209 30079 40109 54000 80007 91740
333   10274 20225 30/// 58002 88280 92301=
76726 31460 70000 10255 20199 38401 40073 55002 70544 87500
91750 333   10255 20165 31/// 56560 58011 86815=
76737 31580 51102 10248 20188 38770 40120 56001 70321 85200
91740 333   10251 20160 30/// 56200 57895 58028 85827 91105
91511=
76743 31558 61201 10300 20243 30105 40125 56010 70222 83239
91745 333   10303 20255 30/// 56100 58017 83823 82356=
76750 01560 80702 10305 20257 30122 40132 57004 69901 70362
8327/ 91752 333   10309 20257 30/// 56230 59001 69906 83820
85358=
76773 31568 50601 10254 20155 38396 40134 57013 70522 85200
91750 333   10260 20170 31/// 56900 58003 83620 82820=
76775 31560 51511 10242 20146 38498 40138 57009 70322 85900
91750 333   10272 20160 30/// 56900 56882 58008 83620 81827
81920=
76843 32565 51102 10296 20231 39521 40159 57014 83230 91750
333   10307 20207 31/// 569// 58000 83830=
40009 32970 02602 10251 20156 40056 52008 333 10333=
40016 32970 02501 10264 20104 40067 52006 333 10350=
40022 32965 01301 10230 20161 40125 54001 222// 20000 333 10250=
40030 32970 03101 10238 20089 40079 52012 333 10318=
40039 32970 02502 10274 20083 40060 53003 333 10328=
40066 32970 03201 10206 20138 40111 51004 333 10268=
40072 32970 00000 10286 20062 40081 52008 333 10350=
40083 32970 00502 10174 20051 48471 52007 333 10246=
83383 32598 40000 10326 20112 3//// 4//// 84130 333 5////=
83384 32998 00000 10320 20136 39526 40106 333 59016=
83393 32596 40902 10316 20192 39374 40085 82110 333 59021=
83492 32598 22704 10322 20184 39700 40080 84200 333 59026=
83514 32597 61803 10264 20185 39435 40121 83320 333 59001=
83531 32597 62706 10268 20142 39067 40109 85240 333 59012=
83538 32598 62303 10245 20096 38694 40108 86200 333 59015=
83570 32596 32701 10286 20165 39322 40091 82024 333 59018=
83574 32697 72304 10256 20199 39507 40125 59011 87070=
83577 32598 62706 10248 20180 39278 40133 84260 333 58009=
83579 32597 62303 10240 20189 38979 40102 86200 333 59009=
83582 32597 62708 10252 20196 39331 40097 58019 83300=
83592 32598 23205 10286 20155 39407 4//// 82200 333 59024=
83595 32597 32701 10336 20193 39980 40063 82200 333 59031=
83642 32496 63606 10244 20215 39314 40083 56016 86200=
83344 32598 33203 10275 20226 39089 40076 83400 333 59027=
83334 32598 30504 10316 20134 3//// 4//// 83100 333 5////=
83386 32598 12706 10319 20110 30558 40102 81101 333 59013=
83388 32497 50000 10325 20180 39398 40061 85200 333 59011=
83442 32597 10000 10330 20155 39734 40071 81100 333 59025=
83479 32597 42702 10305 20147 39326 40118 84400 333 59013=
83483 32597 30903 10311 20148 39510 40093 83300 333 59018=
83488 32596 13202 10281 20140 39092 40096 81200 333 59012=
83587 32698 62701 10257 20125 39108 40108 86200 333 59012=
83683 32697 22702 10254 20154 39128 40083 57024 81109=
83687 32697 42709 10240 20158 39094 40096 58020 84100=
83692 32497 81806 10170 20150 39084 40131 58014 887//=
58005 6994/ 81628=
43157 22596 40000 10240 20220 39454 40085 83401 333 58009 6993/=
22271 32580 70905 11006 21024 40167 52009 87500   333 10014 87627=
22550 12997 60000 10108 20095 40142 52008 69900 84041 333 10143=
22768 12997 60101 10128 20073 40144 52012 69900 80008   333 10161=
22845 32998 82401 10158 20033 40140 52004 8807/   333 10200=
22887 11570 63002 10109 20067 40134 52017 69910 70282 82531   333
10162=
23205 11457 80705 11001 21016 40152 52021 69900 78582 889//   333
10028 88912=
23219 12498 81006 10025 20001 40093 52022 69950 885// 333 10087 88619=
23418 12970 63607 10090 20048 40077 52028 69940 86030
333 10174=
23711 11469 73402 10103 20078 40064 52016 69930 72582 87900 333 10170
85918=
23804 11697 22701 10089 20081 40097 52014 60030 70282 82160 333
10151=
27037 32570 80502 10171 20046 40142 57003 85930 333 10225=
27199 32598 23401 10146 20036 40110 53010 82300   333 10195=
27271 32998 13202 10162 20009 40130 53012 81030   333 10221=
27459 32998 23202 10198 20056 40147 53002 80009   333 10231=
27730 32965 00000 10166 20081 40177 54000   333 10252=
22165 11458 70807 11005 21020 40176 51005 69900 78582 87300   333
10009=
22676 11682 23202 10118 20074 40126 52013 60050 70282 81540   333
10130=
22837 11599 70000 10113 20097 40143 57005 69990 70282 8493/   333
10192=
22954 31984 83004 10148 20045 40140 51005 70282 8807/   333 10205=
23405 11575 83406 10069 20041 40115 52034 69990 70282 885// 333 10155
88621=
23412 12498 80406 10039 20024 40100 52030 69900 883// 333 10164 84913=
23803 11599 63002 10092 20077 40080 53010 60070 72522 85960 333 10163
85928=
27066 32698 63002 10152 20040 40136 52013 83232   333 10191=
27083 31599 23302 10104 20053 40125 52018 70281 82300   333 10170=
27113 31496 83602 10199 20107 40139 53010 78082 8633/   333 10234
85912=
27242 32584 80000 10178 20068 40142 58005 8595/   333 10241=
27329 32981 30000 10195 20115 40146 56005 81031   333 10251=
27355 32684 22702 10172 20073 40146 53008 82532   333 10227=
27373 32999 23404 10169 20002 40120 53005 82040   333 10216=
27665 32997 42602 10173 20071 40157 54000 80001   333 10228=
27823 32982 02501 10184 20104 40176 57008   333 10247=
28009 11698 63201 10102 20061 40098 52012 69930 70282 86400   333
10186=
28411 32797 53205 10147 20121 40089 53008 82530   333 10220=
22365 32470 80504 10020 20009 40153 52007 888//   333 10057=
22438 32879 71007 10066 20052 40131 54000 80050   333 10099=
22563 12884 30402 10111 20067 40135 52014 60020 82031   333 10148=
22641 12584 71001 10140 20082 40131 53001 69900 82530   333 10148=
22695 11784 33203 10097 20074 40119 52026 60020 70281 82530 333 10141=
22854 32884 83302 10147 20029 40135 52006 81037   333 10186=
22867 32989 70501 10149 20064 40139 52007 82039   333 10187=
22939 11597 71102 10136 20093 40141 57007 69900 72582 875//   333
10201 85922=
22996 11470 22902 10093 20071 40114 52005 60020 70181 82401 333 10172=
27008 11457 70000 10179 20169 40126 53010 69900 71082 83930   333
10258=
27051 32465 83305 10136 20036 40143 52014 85531   333 10195 85620=
27225 33968 51802 10215 20112 40137 57001 80001   333 10246=
27252 32484 93204 10186 20029 40134 53008 85360   333 10230 85818=
27369 32699 62803 10191 20043 40128 53004 86500   333 10233=
27393 32596 73202 10169 20027 40110 53006 87900   333 10195=
27479 32999 12502 10194 20048 40125 54000 81030   333 10243=
27532 32997 02402 10201 20114 40154 55001   333 10249=
27648 32997 02601 10178 20082 40165 53001   333 10246=
27679 32973 02702 10182 20055 40144 53002   333 10225=
28214 32699 73002 10149 20032 40086 53002 87500   333 10196 87634=
31285 413// 80505 10011 20011 40004 57014 78088 889//=
31561 42698 70602 10113 20089 49921 57009 87500   333 87636=
32010 41296 81008 10027 20027 49999 57028 78082 889//   333 87706
91010 91113=
41620 329// 01805 10320 20091 48415 333 58005=
41624 3XXX/ 90506 10325 20166 49986 70600 333 58045=
41640 319// 02303 10358 20200 49967 70500 333 59002=
41660 319// 01320 10322 20003 48407 70600 333 58004=
41675 319// 02304 10360 20187 49969 70501 333 58013=
41715 329// 01310 10370 20305 49984 333 58033=
41756 329// 01810 10295 20275 40004 333 58021=
41764 329// 02718 10290 20248 40022 333 58026=
41768 329// 02312 10300 20228 40011 333 58009=
41780 325// 62312 10300 20251 40036 86600 333 56900 58014
83720 85630=
42103 31995 00000 10336 20205 49963 70600 333 58000=
43181 31596 70000 10320 20233 30023 40050 70292 84532 333 58012=
43311 22596 62705 10284 20259 40082 82870 333 59008 6001/ 82620
85358=
62306 32960 80906 10238 20158 40137 53002
84058 333   10274=
62318 32960 03607 10238 20168 40121 56004
333   10272=
62337 32960 03501 10226 20184 40119 53004
333   10282=
62366 32960 00211 10294 20122 40118 52006
333   10336=
62393 32960 03414 10306 20092 40078 53003
333   10358=
62405 32960 02902 10344 20139 40062 52013
333   10414=
62414 32960 00111 10350 20007 40052 51007
333   10407=
62417 32960 60910 10327 20117 40113 53005
86050 333   10370=
62440 32960 00305 10256 20139 40125 53007
333   10334=
62463 32960 03418 10304 20095 40082 53013
333   10333=
62465 32960 03410 10282 20178 40071 53018
333   10303=
91165 32566 40613 10256 20200 30138 40191 51015 91753 333 10256
20228 555 92818=
91182 12566 20812 10244 20194 30176 40181 53010 69951 91753 333
10250 20222 555 92818=
91190 32666 40510 10250 20189 30158 40188 53014 91754 555 92818=
91285 12966 02803 10239 20206 30176 40190 53010 60041 91753 333
10239 20194 555 92818=
91413 32469 49904 10249 20244 30075 40094 57015 82101 333 561/9
70010 555 92818=
91765 32469 72807 10249 20236 30098 40102 51010 85430 333 5679/
70010 555 92818=
91245 32566 40814 10270 20240 30137 91750 555 92818=
41571 316// 40000 10306 20114 49973 70600 81530 333 56990
59001=
41594 316// 72720 10360 20133 49962 71793 84930 333 56990
58002=
41710 329// 01302 10361 20032 49937 333 59004=
41739 316// 12303 10330 21004 48446 70500 81500 333 56900
58018 81635=
41744 329// 01304 10320 20118 48429 333 58025=
41749 319// 01815 10310 20254 40009 70500 333 58040=
41600 319// 00000 10318 20230 49968 70500 333 59002=
41700 329// 00000 10320 20182 49967 333 58017=
41725 329// 02315 10340 20208 49996 333 58038=
41759 329// 01302 10300 20265 40018 333 58025=
91371 32474 40910 10278 20253 30992 40995 83231 333 56229 84815 555
92818=
20069 42978 23401 11091 21111 40229 52003 81031=
20087 42576 73203 11040 21052 40207 52005 875// 333 87620=
20292 42480 71901 11006 21021 40195 58002 875// 333 87613=
20667 12497 80507 11023 21038 40153 58001 69900 885// 333   11003
91109=
20674 41463 81204 10013 21004 40123 57002 76162 8657/ 333
86614=
20744 32998 13203 11002 21026 40209 52006 81030 333   10020 91105=
20891 42997 00203 11034 21038 40166 54000=
23022 31497 80306 11013 21021 40146 52023 78582 885// 333   10001
85617 91111=
23032 12457 83207 10006 21002 40105 52008 69910 885// 333   10022
88611 91108=
23256 32699 81204 10084 21012 40055 57004 8357/   333 10120=
23330 11597 80106 10051 20037 40055 52019 69900 76162 84831   333
10187=
23552 32997 31002 10119 20064 40046 57002 80001   333 10191=
23631 32998 13605 10140 20112 40011 52008 81080   333 10230=
23734 32798 33601 10136 20053 40000 54000 83500 333 10216=
23849 42696 70405 10164 20124 49974 57008 83830=
23933 32997 80602 10161 20103 49988 57008 80001 333 10206=
28275 32599 80000 10140 20107 49971 57006 8333/   333 10203=
28493 11264 81103 10135 20129 49913 57013 60170 78082 889//   333
10159 86706=
28698 11484 80000 10145 20127 49938 57003 60380 70298 883//   333
10186=
23929 32581 53405 10152 20132 49997 54000 82930 333 10223=
28383 11559 83001 10140 20134 49934 57006 60090 78082 889//   333
10165 86720=
28465 32598 42801 10160 20094 49984 57005 82530   333 10220=
28586 11598 82805 10139 20124 49938 57006 60050 70282 889//   333
10181 88923=
28588 11570 72803 10141 20121 49955 57004 60010 70282 85970   333
10179=
28688 12970 72904 10116 20097 49972 52002 87030   333 10186=
28696 12999 72303 10141 20132 49937 57005 60130 87050   333 10200=
28791 11983 82805 10142 20122 49959 52001 60060 70298 8804/   333
10184=
29367 42585 81702 10160 20103 40035 54000 82907=
23426 11489 83605 10124 20093 40031 52003 60030 70282 8367/   333
10206=
28367 32499 62702 10163 20100 49984 57005 86300   333 10225=
28382 11996 83203 10143 20137 49945 57009 60160 76186 8807/   333
10166=
28481 11597 73303 10138 20127 49957 57007 60070 70282 86301   333
10168=
28491 11459 83601 10136 20132 49918 57012 60070 78082 889//   333
10166 88912=
28573 12680 22703 10145 20103 49971 57006 69960 82500   333 10172=
28593 11581 81402 10141 20135 49922 57007 60180 70298 883//   333
10177=
28598 11497 82604 10146 20133 49932 57007 60030 78098 889//   333
10189 88913=
28786 11999 73005 10143 20121 49968 52004 69900 70282 87070   333
10194=
28797 11497 72704 10139 20128 49969 54000 60020 10212 70282 87300
333 88917=
28799 11796 82702 10144 20131 49953 57003 60040 71098 83401   333
10187=
23662 32999 21102 10093 20030 40050 57010 80001   333 10147   333
10147=
23788 42898 70301 10040 20004 40074 52008 87050=
23986 42284 81002 10051 20049 40058 58005 883//   333 85706 88918
95000=
36096 42698 72801 10144 20064 40025 52008 85932   333 95090=
36103 41699 80000 10106 20092 40068 52006 72582 889//   333 95090=
40001 32970 02401 10264 20059 40059 53012 333 10335=
40007 32970 02609 10242 20107 40067 51009 333 10320=
40045 32970 02902 10276 20051 40077 52008 333 10334=
40080 32965 02008 10242 20089 39397 40075 52008 333 10322=
40095 32970 03503 10216 20101 39489 40100 53009 333 10291=
60360 32660 60608 10217 20177 40173 56001 82202
333 10245 82833 85073 95900=
60566 32960 01512 10307 20056 40155 55007
333 10324=
60580 32760 10908 10310 20139 40155 55009 81200
333 10316 81850=
60611 32960 03412 10290 20102 40124  53008
333 10326=
42737 32996 02512 10300 20249 40043 333 58011=
60640 32965 03608 10320 20116 40106 55000
333 10340=
62771 32970 70000 10340 01150 39420 40041 80007 10385 59004 87275=
62772 32970 72701 10330 20220 39633 40050 80007 10390 59012 87275=
62781 31770 70000 10320 20150 9457/ 40076 7132/ 81947 10383 56749
57973 59001 81956 83365 87275=
62790 31770 72707 10300 20170 39372 40076 71322 81947 10385 56479
57942 58017 81956 82365 87275=
62795 32970 7000/ 10340 20170 39551 40032 80007 10390 56009 59001
8727/=
62801 3970/ 7000/ 10310 20220 39638 40064 80007 10355 59016 8275=
62803 32970 7000/ 12090 10290 20160 39110 40051 80071 0335/ 58002
8727/=
62809 32970 72202 10330 20170 80007 10382 56009 87275=
44214 41698 50000 10075 20025 38216 40089 54000 83540=
10193=
44341 32999 00000 10148 21016 38465 40980 54000=
58003 84708 84612=
58012=
58002 6013/ 81620 83075=
57981 58000 82620 81930 83075=
44336 329// 42303 10168 21009 38564 49979 58008 84010=
57845 11450 80201 10194 20188 40097 54000 60091 76066 8672/
333 10239=
58968 32860 70905 10250 20238 30097 40104 58014 8703/=
59358 31950 00802 10259 20241 30088 40099 57012 71010=
59559 32570 23401 10268 20230 30073 40101 55014 82500=
59792 32560 20907 10276 20265 30090 40095 57014 82200=
59997 32562 22601 10288 20280 30046 40060 57008 82200=
59158 32662 30000 10251 20225 30003 40101 57011 83400=
59562 11665 80000 10262 20221 30092 40103 57015 60041 70262
885//=
56199 82818 84358=
48602 11461 73305 10255 20242 30097 40100 69921 79596 86938 333 82710
81917 84625 87275=
48603 32570 71501 10258 20244 30093 40098 82542 333 82630 87078=
48674 31060 72503 10251 20247 30044 40094 71022 83542 333 81700
84364 87077=
48679 32564 50000 10245 20242 30048 40094 81542 333 81625 85080=
85930 11595 83615 10080 20061 40025 52024 60151 76266 886//
333 56899 88730=
63980 32480 41316 10270 20237 40118 84202 919//
333 10299 58007 84819 943// 91133=
10026 20020 70030=
91520 32480 20000 10236 20231 40083 57005 82903
333 56909 82915=
44210 32999 00000 10096 20015 38434 51004=
44217 32998 10000 10053 20053 37862 40178 54000 81040=
44242 329// 60503 10133 20004 39154 49997 52005 86070=
44263 32998 00000 10045 21016 38009 40141 52006=
48601 11462 70307 10270 20250 30096 40100 69901 72162 84942 333 81917
83625 87078=
48615 31468 70000 10269 20249 30083 40089 71322 84942 333 81917 83620
87075=
48620 11460 70000 10246 20237 30093 40102 69931 71396 83948 333 81917
87276=
48647 31566 60000 10261 20242 30071 40096 70522 81542 333 81630
86078=
48657 41564 70000 10266 20253 30070 40088 70522 82531 333 82626
86078=
48665 32466 50000 10256 20231 30083 40093 81542 333 81638 85080=
96413 11465 71408 10242 20230 30068 40094 69951 71322 83932 333 81915
83624 85365=
96421 11465 71308 10235 20228 30058 40094 60031 70262 8457/ 333 84618
87365=
96441 32468 70805 10245 20230 30088 40093 83541 333 83616 87080=
96465 32465 71901 10273 20253 30046 40080 82842 333 82813 83364
87079=
96471 32470 71005 10250 20210 30073 40076 82848 333 81814 84364
87277=
96481 11462 70000 10238 20229 30064 40087 60331 76162 8387/ 333 81817
87468=
96491 11463 80000 10252 20246 30064 40077 69951 76082 85847 333 82710
84640 88276=
33135 32997 01802 10232 20164 40165 57007 333 10291=
33377 32997 00000 10216 20167 40172 57007 333 10276=
38262 426// 83210 10265 20165 40080 52010 885//   333 10358=
38933 329// 03602 10248 20137 49989 53005 333 10384=
WGZK 28184 99197 11212 41498 11118 10285 2026/ 40096 57025 7029/
811// 22253 0//// 20303 3//// 4//// 5//// 6//// 80267 ICE=
KGTY 28184 99534 71345 41598 62723 10078 2004/ 40165 54000 70222
862// 22274 00071 20204 327// 40604 5//// 6//// 80061 ICE=
ELED8 28184 99069 51549 41998 50913 00/// 10280 2024/ 40030 54///
7//// 85070 22213 00300 20803=
SLCH 28183 99497 71395 43298 52608 10142 20120 40093 52006 8514/
22213 04141 20101 34100=
WGKF 28184 99508 11609 43598 81214 10061 2001/ 40144 57010 886//
22254 00040 20302 322// 40703 80039=
SHIP 28184 99359 31512 41/97 12845 10030 2//// 40113 5//// 70100
8//// 222// 00178 20302 3//// 4//// 5////=
SHIP 28184 99359 31512 41/97 12845 10030 2//// 40113 5//// 70100
8//// 22/// 00178 20302 3//// 4//// 5////=
VNVZ 28183 99107 11274 41298 81019 10280 20251 40073 57017 78082
8828/ 22244 00299 80260=
DNMR 28180 99273 71287 41497 80311 10195 20147 40190 56008 70222
888// 22254 00202=
ELXD6 28183 99379 51582 /1/96 81144 00/// 10135 20135 49990 57020
6//// 76222 88/// 22212 0//// 20507 309// 41015 5//// 6//// 80135=
10320 83650=
11003 91109=
10001 85617 91111=
71900 46/// /0108 30253  50000=
71800 46/// /0515 30041  55003=
71403 36/// /3212 10102 20088 30059 40071 51004 333 10104 20080
70008=
85972 32497 80430 10033 20019 40158 52005 884//
333 56199 88618  40 KT=
61202 32970 03604 10385 21007 39523 40054
333 10412 58002=
61223 32960 00408 10400 20073 39771 40059
333 10420 58001=
61226 32960 03604 10413 20046 39766 40047
333 10435 58002=
61230 31958 51012 10415 20099 39788 40046 70610 80002
333 10430 59010 85075=
61257 32960 02804 10415 20139 30004 40055
333 10426 59009=
61265 32960 02004 10370 20163 3//// 4////
333 10393 5////=
61270 31662 53204 10342 20279 39697 40063 71791 82902
333 10375 59008 82940 84075 94957 95837=
61291 32560 11804 10360 20180 39663 40062 81500 9300/
333 10367 58003 81630=
61296 32970 62204 10325 20222 30694 40079 80002
333 10346 58001 86075=
61297 11570 70804 10290 20634 3//// 4//// 71796 82902
333 10343 5//// 82630 81940 85465 94945 95835=
61401 33660 20000 10396 20198 39701 40097 82100
333 10403 58009 82840=
61404 32958 01418 10404 20032 39711 40087
333 10413 59006=
61415 31956 03623 10210 20198 30108 40113 70700
333 10245 59009=
61421 33958 21806 10440 20077 39814 40059 82080
333 10450 59001 82363=
61437 32960 00000 10432 20200 39954 40085
333 10448 59004=
61442 32958 03110 10223 20180 30093 40097
333 10265 58004=
61450 32960 01005 10405 20052 39636 40070
333 10420 58006=
61461 32960 03204 10410  20120 30004 40088
333 10410 59015=
61489 32960 03608 10300 20125 30075 40082
333 10356 59005=
61492 32958 03406 10415 20083 30061 40080
333 10425 58003=
61497 31956 00406 10410 21020 3//// 4////
333 10435 5////=
61498 31956 00604 10435 20025 39919 40045 705//
333 10450 58000=
61499 31940 00806 10417 20025 39810 40053 70500
333 10440 58004=
82098 31796 60504 10304 20256 30062 40079 71522 84960 333
59001=
82145 21597 80000 10262 20241 30042 40084 70362 86240 333
58004 60021=
82178 32697 51402 10292 20250 30030 40073 83231 333
58002=
82181 32597 409806 10300 20129 81340 333=
82184 32698 31802 10315 20296 30102 40120 83200 333
58007=
82191 32598 52703 10316 20247 30073 40079 83240 333
59001=
82246 32597 60902 10302 20276 39914 40113 86700 333
59008=
82263 32598 50504 10329 20277 841400 333=
82280 32498 5//// 10308 20244 30025 40025 83302 333
59003=
82361 32697 31406 10327 20259 30050 40097 82200 333
59005=
82376 32203 10332 20229 30024 40076 83200 333
59005=
82445 32698 70502 10334 20279 30073 40124 333
58017=
82460 32597 21403 10338 20241 30045 40074 82200 333
59011=
82562 32598 43603 10336 20217 39970 40081 84100 333
59017=
82564 32597 60000 10347 20211 82201 333=
82571 32497 31402 10311 20228 40088 82101 333
59010=
82765 32598 40000 10327 20156 39865 40104 82160 333
59007=
59017=
71811 11683 70208 10082 20021 30077 40145 52024 69921 70162 86530
333 10089 20051 55000 20855 70004 90931=
71841 36/// /1408 10162 20037 39788 40179 58014 333 10164 20033
70000=
41150 42964 03213 10320 20212 40008 333 10383
59004=
41184 41958 00000 10296 20214 40002 70600 333 10429 59007=
41194 42960 01302 10306 20228 39989 40001 333 10396 59004=
41196 42960 01303 10286 20219 39962 40001 333 10428 59007=
41216 42960 03603 10290 20262 39996 4000 333 10397 59007=
41217 42960 03502 10295 20260 39973 40002 333 10410 59007=
17290 32970 00000 10228 20183 40122 53002 333 10298
92408=
29023 41598 80403 10154 20123 49980 58016 71798 889//=
43424 32468 32304 10278 20264 30086 40089 83100 333 59007
83818=
43467 32459 3//// 10/// 20/// 30094 40099 82130 333 58002
82818 83360=
43497 32965 4//// 10268 20239 30075 40092 84070 333 58003
84460=
43450 32466 30000 10266 20249 30087 40095 83100 333 58000
70009 83815=
43473 32998 03203 10164 20114 38132 48497 333 58008=
89014 46/// ///// 11102 21266 39484 4//// 57008
333 11099 21127=
71421 46/// ///// 10049 20021 39521 40235 51009=
43421 32998 02303 10265 20217 39981 40083 80000 333 59002=
48601 11462 70304 10270 20250 30096 40100 69901 72162 84942 333 81917
83625 87078=
48615 31468 70000 10269 20249 30083 40089 71322 84942 333 81917 83620
87075=
48620 11460 70000 10246 20237 30093 40102 69931 71396 83948 333 81917
87276=
48647 31566 60000 10261 20242 30071 40096 70522 81542 333 81630
86078=
48657 41564 70000 10266 20253 30070 40088 70522 82531 333 82626
86078=
48665 32466 50000 10256 20231 30083 40093 81542 333 81638 85080=
96075 31457 80502 10243 20237 30093 40103 58001 71792 8692/
333 56009 57902 83916 83617 80965=
96171 31450 50000 10256 20247 30062 40086 51003 70511 83521
333 56000 83616=
96413 11465 71404 10242 20230 30068 40094 69951 71322 83932 333 81915
83624 85365=
96421 11465 71304 10235 20228 30058 40094 60031 70262 8457/ 333 84618
87365=
96441 32468 70803 10245 20230 30088 40093 83541 333 83616 87080=
96471 32470 71003 10250 20210 30073 40076 82848 333 81814 84364
87277=
96491 11463 80000 10252 20246 30064 40077 69951 76082 85847 333 82710
84640 88276=
96633 01456 82902 10250 20244 30076 40083 57006 60064 70596 8492/
333 56009 57900 69907 81922 83618 88460 809//=
96805 01560 73601 10268 20247 30088 40098 56012 69931 72162 83231
333 56000 57801 69937 83820 80860=
91212 32966 00804 10267 20239 30025 40125 56011 91754=
28240 11550 82802 10105 20087 40036 52003 69930 78082 889//   333
10232=
28419 32696 42902 10157 20082 40075 52006 84300   333 10226=
31285 413// 80505 10011 20011 40004 57014 78088 889//=
31561 42698 70602 10113 20089 49921 57009 87500   333 87636=
98526 11465 80401 10254 20249 40064 57014 60171 79596 8397/
333 56999 83918 88357=
98748 31465 70000 10260 20/// 40087 57010 70544 82270 333
56999 82818 87358=