ZCZC 000
SMCI10 BENJ 280600
AAXX 28061
58562 32665 70702 10280 20169 40106 57011 8244/ 333 20197=
58457 31556 70703 10284 20178 30056 40105 57013 70400 872//
333 20201=
58562 32665 70702 10280 20169 40106 57011 8244/ 333 20197=
58457 31556 70703 10284 20178 30056 40105 57013 70400 872//
333 20201=
57494 32968 80402 10246 20171 30075 40103 57010 8807/ 333
20225=
57687 31458 83205 10253 20217 30007 40084 57016 71000 8677/ 333
20241=
52740 16/// /2002 10130 29041 36863 60000
555 1/134 2//00 /////=
58040 32965 72003 10272 20125 30112 40116 57008 80002 333
20156=
58457 31556 70703 10284 20178 30056 40105 57013 70400 872//
333 20201=
58633 31656 80908 10273 20161 30004 40099 57014 70500 8647/
333 20228=
59134 11562 71605 10296 20250 39936 40094 57015 69901
70098 8724/ 333 20230=
59082 11562 73201 10291 20258 30000 40074 57018 60041 79580
8397/ 333 20248=
59117 32580 61802 10343 20230 39964 40065 57031 86240 333
20248=
59211 11561 80000 10277 20238 39863 40063 57020 60021 78060
8647/ 333 20236=
59265 32561 73402 10298 20262 39931 40063 57026 8784/ 333
20250=
59287 32564 81103 10314 20264 30024 40073 57022 889// 333
20242=
59316 11575 72003 10291 20256 30077 40086 57013 69901 79590
86962 333 20264=
59431 11580 70000 10304 20248 39913 40056 57023 69901 70080
83942 333 20250=
59644 32575 71803 10310 20264 30045 40060 57016 82902 333
20264=
59758 32580 72002 10346 20245 30034 40054 57020 86102 333//
20273=
59023 11458 80901 10258 20233 39825 40066 57015 69921 71060
888// 333 20231=
59293 32565 72501 10303 20239 30021 40068 57021 8624/ 333
20257=
59417 11468 70000 10290 20261 39911 40058 57020 60021 78080
8794/ 333 20248=
59501 11580 72205 10288 20257 30078 40094 57014 69901 72580
86902 333 20270=
59663 31480 71403 10306 20266 30041 40068 57022 70090 86942
333 20270=
59838 32580 72007 10330 20270 30048 40062 57014 81102 333//
20272=
59948 11580 61403 10321 20273 30059 40067 57012 69901 70080
86202 333// 20279=
59981 32580 71804 10313 20273 30067 40073 57015 82202 333//
20281=
59985 32580 71603 10332 20284 30059 40064 57017 81102 333//
20276=
59995 52205 10287 20249 30064 40072 57024 84202 333// 20284
66660 30104 32211=
50468 11575 62907 10257 21006 39735 49928 57021 69901 72500
84202 333 20082=
50745 32668 52705 10306 21006 39795 49964 57025 85800 333
20116=
54337 32980 00000 10315 20053 39979 40060 57011 333 20133=
54342 32675 12503 10288 20051 39990 40049 57010 81100 333
20137=
54471 32965 02205 10252 20109 30064 40069 52002 333 20136=
54497 32680 13407 10285 20008 30032 40046 52001 81100 333
20149=
54662 32975 13406 10271 20075 39966 40082 57001 80002 333
20127=
57265 32968 80204 10224 20139 30040 40146 57003 8807/ 333
20198=
57279 11975 70205 10244 20088 40135 57007 69901 70060 8707/
333 20208=
57355 11562 82901 10185 20162 40131 57005 69971 76160 8272/
333 20175=
57399 32960 83605 10243 20182 40108 57011 8807/ 333 20214=
57447 11956 80000 10179 20168 39601 40128 57005 60011 76060
8802/ 333 20174=
57458 32970 82203 10210 20092 40114 57015 8807/ 333 00251
20174=
57461 32967 82701 10229 20168 39965 40121 57006 8807/ 333
20214=
57476 11962 80204 10237 20153 40114 57008 69901 70060 8807/
333 20231=
57562 11873 80203 10237 20127 40103 57008 69901 72160 885//
333// 20225=
57583 32965 70204 10262 20200 40098 57011 8703/ 333 20227=
57584 32960 80205 10254 20202 40098 57007 8807/ 333 20234=
57655 11430 83602 10203 20187 40109 57010 69941 76060 8572/
333 20196=
57662 11858 83602 10228 20165 30066 40106 57009 69901 76060
885// 333 20223=
57671 11760 83603 10229 20200 40095 57011 60041 70060 885//
333// 20216=
57682 32965 72501 10290 20210 40085 57011 8704/ 333// 20212=
57745 11460 80702 10210 20195 39783 40097 57008 60011 72166
8172/ 333 20204=
57766 11440 80201 10228 20218 40087 57014 60021 76060 8672/
333// 20224=
57776 11/00 91104 10180 20180 40096 57011 69921 76064 333
20160=
57799 11458 83401 10246 20228 30002 40083 57014 69921 76060
887// 333 20227=
57853 11430 83602 10221 20211 40087 57007 60061 76066 8772/
333 20211=
57866 11430 83402 10239 20235 39882 40081 57011 60031 76066
885// 333// 20228=
58015 32975 72003 10257 20106 40127 57006 8707/ 333 20170=
58221 32660 80703 10240 20126 30097 40131 57009 885// 333
20185=
58314 32962 80203 10229 20171 30041 40126 57006 8807/ 333
20207=
58519 32975 60402 10306 20205 40092 57009 86040 333// 20215=
58527 32965 60402 10312 20194 30009 40081 57017 86040 333//
20212=
58606 32962 70202 10291 20219 30031 40083 57012 8704/ 333//
20231=
58634 32962 70906 10280 20175 40090 57016 8704/ 333// 20226=
58715 11568 81403 10262 20228 40082 57017 69901 70060 8387/
333// 20222=
58345 32960 70203 10270 20175 40119 57008 8704/ 333 20190=
58556 32665 10202 10294 20160 40105 57016 81100 333 20189=
58569 32960 70902 10246 20189 40117 57006 8703/ 333 20194=
58646 11630 80000 10223 20203 40119 57011 69921 76060 885//
333 20217=
58660 32970 82201 10252 20183 40117 57010 8807/ 333 20213=
58834 11662 40201 10310 20239 40079 57023 69901 70060 82140
333 20241=
59046 11568 72003 10301 20253 40064 57020 69911 70080 8683/
333 20240=
59058 11457 80000 10253 20246 40074 57018 60131 76098 885//
333 20228=
59072 11665 80000 10260 20246 40080 57022 60291 78098 8647/
333 20240=
59087 11561 70000 10267 20243 40078 57014 60041 70098 879//
333 20242=
59096 11575 80000 10244 20217 40082 57012 60021 79598 889//
333 20239=
59209 11460 80000 10237 20215 40065 57010 60011 76086 887//
333 20215=
59254 11560 70000 10285 20263 40066 57019 60031 71798 879//
333 20244=
59278 11680 70403 10263 20249 40069 57022 60091 72998 86963
333 20254=
59456 32580 71803 10347 20242 40056 57020 86202 333 20252=
59493 32580 72201 10322 20241 40076 57017 872// 333 20277=
59632 31575 71803 10309 20255 40061 57011 71790 86962 333
20259=
59647 32568 71803 10298 20272 40061 57014 81902 333 20267=
59658 32470 71104 10318 20272 40057 57024 83902 333 20277=
59673 11580 71804 10316 20264 40074 57020 69901 70080 8594/
333 20264=
59845 32575 71802 10340 20243 40055 57020 83202 333// 20251=
59855 32580 71804 10330 20252 40060 57011 82102 333// 20274=
57957 11420 83201 10233 20230 39887 40078 57015 60321 78086
889// 333 20222=
58144 32970 71802 10271 20103 30102 40124 57008 82042 333
20174=
58543 32975 51802 10287 20179 40101 57018 85040 333 20206=
58138 32970 81402 10243 20100 40132 57002 8807/ 333 20184=
58259 32980 70404 10256 20090 40126 57010 8704/ 333 20185=
58343 32975 70904 10258 20115 40121 57007 8703/ 333 20193=
58358 32561 70403 10268 20184 40112 57007 8654/ 333 20201=
58464 32562 70403 10276 20204 40110 57006 87400 333 20169=
58549 32961 72004 10272 20173 40103 57015 8704/ 333 20225=
58562 32665 70702 10280 20169 40106 57011 8244/ 333 20197=
58665 11640 81801 10235 20196 40113 57009 69901 76060 885//
333 20205=
58667 11650 80902 10220 20197 40125 57010 69901 76000 885//
333 20193=
51468 16/// /2201 10028 29026 36559 60001
555 1/141 2//03 /////=
53513 32975 22504 10276 21105 38948 40086 57020 80002 333//
05305 20115=
53588 32480 61803 10148 21010 37819 57007 83102 333 20057=
53772 32970 70000 10265 20045 39244 40115 57021 80002 333//
20103=
54511 32980 11301 10305 20001 30056 40093 57017 80002 333
20148=
54823 32975 72703 10296 20116 39918 40114 57007 80002 333
20134=
58251 32978 70402 10250 20080 30120 40126 57008 8704/ 333
20171=
58944 11445 80404 10232 20214 40107 57013 69991 76060 885//
333 20231=
58265 32980 70205 10216 20137 30120 40132 57001 87040 333
20177=
58472 32780 80408 10205 20144 30029 40125 54000 885// 333
20182=
58477 32560 31603 10274 20180 30067 40110 57012 83100 333
20177=
58666 11657 80000 10223 20202 30024 40123 57010 69901 78000
885// 333 20190=
58760 11740 81402 10203 20198 40119 57009 60021 78086 885//
333 20195=
58921 11660 73202 10311 20236 39840 40073 57027 69901 70060
8294/ 333 20241=
56146 32780 71402 10144 20056 36738 57017 83402 333 00553
20055=
56172 11680 70000 10159 20052 37347 57026 69911 70060 878//
333 00302 20041=
56294 32965 72205 10239 20110 39541 40115 57022 87040 333
00151 20192=
56444 11570 81102 10132 20096 36814 57007 69961 76064 888//
333 00201 20083=
56492 11760 81804 10211 20164 39730 40124 57021 69901 70060
885// 333 00253 20183=
56571 32670 63201 10218 20154 38354 57021 86800 333 05205
20152=
56651 32680 72002 10199 20128 37606 57009 879// 333 00203
20127=
56691 11358 80401 10125 20118 37758 57014 69971 76066 887//
333 05151 20092=
56739 11473 82201 10196 20176 38324 57006 69961 72580 889//
333 00100 20152=
56778 32575 21603 10240 20155 38072 57021 82200 333 05104
20172=
56951 11580 73602 10226 20180 38467 57009 69901 78080 874//
333// 00100 20176=
56964 32580 71802 10265 20183 38662 40050 57014 83262 333//
00101 20192=
56985 32565 61803 10268 20180 38650 40034 57020 83202 333//
00002 20202=
57328 11515 80000 10167 20164 39726 40129 57006 60121 76066
887// 333 20149=
57411 11465 80701 10177 20148 39769 40131 57010 69901 72166
8577/ 333 20159=
57516 11757 80000 10177 20155 39824 40128 57007 69981 76060
885// 333 00455 20176=
57633 11462 83601 10187 20151 39359 40109 57010 69901 76060
8677/ 333 00358 20178=
57816 11557 83402 10178 20162 38756 40098 57014 60041 72160
885// 333// 00152 20156=
57902 11440 80000 10185 20176 38591 40083 57012 69931 76066
887// 333 00000 20167=
45007 32475 62103 10319 20250 30066 40075 58020 8423/
333  58015 81811 83825 85362 =
58015 32975 72003 10257 20106 40127 57006 8707/ 333 20170=
58314 32962 80203 10229 20171 30041 40126 57006 8807/ 333
20207=
58311 32972 83602 10222 20172 40126 57007 8807/ 333 20205=
58221 32660 80703 10240 20126 30097 40131 57009 885// 333
20185=
20203=
58238 32963 70703 10258 20112 30107 40116 57008 8704/ 333
20203=
58847 11458 82702 10230 20215 30008 40107 57012 60031 76080
885// 333 20224=
58725 11770 80000 10249 20221 39842 40093 57019 69971 70060
885// 333 20224=
50953 32980 03205 10283 20016 39818 49987 57024 333 20084=
56247 11780 80000 10154 20115 37413 52008 60031 78080 889//
333 00760 20147=
56462 11580 71605 10187 20099 37113 57019 69901 70080 879//
333 05104 20107=
58236 32965 81103 10252 20116 40119 57008 8807/ 333 20197=
58531 32980 00702 10294 20168 40089 57022 333 20191=
58319 32960 70206 10251 20192 40111 57008 8707/ 333 20194=
58102 32970 83202 10247 20120 30079 40128 57011 20166=
58122 32980 82202 10269 20105 40128 57008 8807/ 333 20181=
58338 31958 73605 10264 20192 40111 57009 70500 8707/ 333
20194=
58424 32961 73606 10273 20202 30076 40099 57017 8707/ 333
20214=
58215 32960 70703 10244 20159 40129 57007 8707/ 333 20184=
58321 32960 83603 10238 20185 40121 57012 8807/ 333 20199=
58437 32562 80901 10146 20129 38174 57003 885// 333 20102=
58326 11960 80204 10249 20195 40117 57009 69901 70060 8807/
333 20207=
58436 32670 70203 10286 20177 40104 57014 8214/ 333 20169=
52889 32580 71103 10244 20037 38442 40050 57022 81102 333
05202 20139=
53915 11780 81103 10132 20084 38665 40157 57011 69901 76060
885// 333 00258 20115=
52652 32780 73404 10260 20042 38450 40014 57011 81102 333
05101 20110=
56080 32580 72202 10129 21010 37155 57016 81130 333 05107
20022=
56096 32680 21603 10210 20089 38905 40104 57032 81102 333
05303 20114=
57046 80908 6760/ 81603 88360=
57006 11580 70902 10162 20093 40146 57019 69901 70060 878//
333 00155 20103=
53923 32580 81605 10142 20065 40157 57008 8217/ 333 20104=
53463 32580 42204 10239 20036 38938 40116 57022 81101 333//
05105 20097=
00000 36/// ///// 1//// 2//// 39168 4//// 5////
555 1//// 2//// 30131 40001 50010 6//// 7//// 80000 ///// 1/000 2//00
30000=
58150 32980 81402 10260 20124 30114 40122 57006 82047 333
20145=
58362 32975 30403 10245 20158 30114 40124 57001 83030 333
20197=
58321 32960 83603 10238 20185 40121 57012 8807/ 333 20199=
58926 11762 71101 10298 20241 40079 57023 60041 70098 8214/
333 20232=
58241 32780 70902 10257 20089 40133 57004 875// 333 20177=
58820 11662 70000 10276 20238 40077 57020 60021 70060 8384/
333 20223=
53673 32980 62003 10275 20004 40106 57016 80002 333// 20109=
53787 32580 72001 10258 20057 40103 57018 83102 333// 20105=
53898 32968 81603 10311 20125 40113 57011 81037 333// 20198=
54725 32965 80402 10291 20104 40101 57012 80007 333// 20145=
54751 32965 22204 10192 20144 40100 57006 80002 333// 20122=
54916 32962 82204 10264 20100 40124 57012 80007 333// 20134=
58208 11970 80401 10228 20146 40126 57011 69901 76000 8807/
333// 20199=
56079 32780 72703 10072 20007 36712 57016 86802 333 00105
21008=
56144 32680 72005 10176 20061 36857 57018 82462 333 00502
20085=
56152 11780 71402 10098 20036 36335 57007 69911 70080 86442
333 00453 20012=
56167 11680 62001 10185 20077 37074 57030 69911 70060 82140
333 00453 20075=
56173 32680 31603 10071 20013 36678 57010 83100 333 00203
21009=
56182 11680 70000 10120 20032 37208 57013 69901 70060 878//
333 00202 20024=
56193 32780 41601 10234 20104 40102 57021 81140 333 05204
20138=
56196 32980 71602 10232 20112 40109 57021 8704/ 333 00151
20183=
56257 32680 71802 10152 20031 36284 57010 86902 333 00102
20075=
56287 32580 80000 10214 20133 40127 57022 8117/ 333 00152
20158=
56357 32680 62703 10184 20037 36450 57011 85902 333 00004
20090=
56374 32580 80705 10099 20062 37423 57011 884// 333 00051
20061=
56385 11/00 90000 10053 20053 37024 57010 69941 74564 333
05101 20012=
56586 11462 80202 10133 20109 38037 57012 69911 70060 888//
333 05152 20101=
56666 32680 20401 10324 20159 49986 57028 82200 333 05103
20203=
56671 32780 52003 10251 20148 38163 57021 85100 333 05102
20178=
56684 32580 40401 10218 20154 37870 57019 84100 333// 05106
20121=
56748 32580 70000 10231 20167 38314 57012 879// 333 00102
20158=
56751 32678 70903 10242 20134 37994 57005 86240 333 00201
20162=
56763 32680 31102 10311 20174 49995 57026 82202 333 05102
20217=
56768 32680 51803 10265 20149 38185 57018 85200 333 00006
20166=
56786 32580 41606 10234 20171 38081 57019 83202 333 05105
20153=
56838 32680 52502 10288 20190 40058 57015 84260 333// 00101
20217=
56886 11680 22204 10231 20173 38235 57019 69901 70080 82201
333 00003 20163=
56946 11580 60000 10265 20189 40053 57015 69931 71584 85962
333// 00102 20183=
56954 11580 73402 10259 20210 40063 57012 60061 72584 86261
333// 00151 20183=
56959 32780 32902 10310 20217 40034 57027 83900 333 00001
20213=
56966 32780 71404 10338 20219 40011 57028 82268 333 00100
20230=
56969 32580 20000 10308 20221 40049 57023 82100 333 00005
20222=
56977 32580 42501 10285 20191 40041 57019 83102 333// 00102
20205=
56986 11175 70903 10225 20208 40057 57013 69921 70080 874//
333 00151 20186=
57237 11850 80000 10145 20136 40142 57001 60121 76066 885//
333 20127=
57306 11780 80000 10206 20142 40129 57009 69901 70080 8347/
333 20150=
57426 11440 80401 10167 20162 40128 57005 60061 76066 887//
333 00355 20162=
57504 32965 71602 10216 20142 40117 57017 8704/ 333 00353
20187=
57602 31758 81601 10208 20169 40124 57014 71000 885// 333
20195=
57707 11462 80401 10146 20122 38476 57009 69921 72160 887//
333 00052 20134=
57713 11459 80403 10184 20168 40103 57006 69911 76060 885//
333 00155 20180=
57731 11461 83202 10207 20198 40097 57006 69941 76066 887//
333 20203=
57832 11466 83603 10196 20187 40096 57009 69911 76060 887//
333 20194=
57916 11671 70000 10258 20208 40071 57017 69901 70060 875//
333 20219=
57922 32661 80000 10225 20195 40081 57012 885// 333 20184=
57932 11470 70902 10265 20220 40073 57016 69901 76060 875//
333 20220=
59007 11570 70403 10235 20203 40062 57017 60041 70060 878//
333 20178=
58027 32965 82902 10255 20129 30080 40129 57008 8807/ 333
20167=
58659 11650 80000 10237 20199 30086 40120 57013 69911 78080
885// 333 20203=
56294 32965 72205 10239 20110 39541 40115 57022 87040 333
00151 20192=
56492 11760 81804 10211 20164 39730 40124 57021 69901 70060
885// 333 00253 20183=
56571 32670 63201 10218 20154 38354 57021 86800 333 05205
20152=
56651 32680 72002 10199 20128 37606 57009 879// 333 00203
20127=
56778 32575 21603 10240 20155 38072 57021 82200 333 05104
20172=
56951 11580 73602 10226 20180 38467 57009 69901 78080 874//
333// 00100 20176=
57328 11515 80000 10167 20164 39726 40129 57006 60121 76066
887// 333 20149=
57411 11465 80701 10177 20148 39769 40131 57010 69901 72166
8577/ 333 20159=
57516 11757 80000 10177 20155 39824 40128 57007 69981 76060
885// 333 00455 20176=
57816 11557 83402 10178 20162 38756 40098 57014 60041 72160
885// 333// 00152 20156=
50136 32570 72909 10135 21053 39485 49993 57001 879// 333
20022 91119 91527=
50353 32670 70903 10195 21005 39736 49945 57020 87900 333
20081=
50557 32670 32706 10256 20001 39668 49948 57028 83100 333
20064=
50756 32670 12207 10282 21052 39689 49965 57028 81100 333
20080=
50788 32970 33404 10236 20079 39871 49951 57024 80002 333
20109=
50963 32980 02509 10251 20090 39852 49981 57023 333 20054=
50978 32580 63405 10214 20079 39689 49965 57018 81102 333
20100=
54236 32980 02905 10304 21021 39945 40042 57015 333 20135=
58730 11670 71801 10264 20217 40092 57017 69931 70060 878//
333 20224=
58731 11259 83601 10242 20230 40097 57010 60031 72160 885//
333 20225=
58754 11562 80202 10215 20195 40122 57009 69961 76060 885//
333 20215=
58911 11680 70000 10284 20237 40080 57020 69921 70060 8224/
333 20220=
58931 11/03 92205 10184 20178 38359 57014 60101 78064
333 20164=
50527 32570 72909 10221 20045 39296 49988 57016 86932 333//
20097=
53564 32980 22203 10268 20008 39147 40109 57023 80002 333//
05205 20097=
53959 11965 82701 10175 20146 39716 40150 57019 60011 76060
8802/ 333// 20152=
54843 32970 73205 10288 20096 30073 40099 57007 80002 333//
20106=
54909 32972 72204 10272 20121 30063 40124 57010 8703/ 333//
20146=
58362 32975 30403 10245 20158 30114 40124 57001 83030 333
20197=
56193 32780 41601 10234 20104 40102 57021 81140 333 05204
20138=
56196 32980 71602 10232 20112 40109 57021 8704/ 333 00151
20183=
56287 32580 80000 10214 20133 40127 57022 8117/ 333 00152
20158=
56385 11/00 90000 10053 20053 37024 57010 69941 74564 333
05101 20012=
56666 32680 20401 10324 20159 49986 57028 82200 333 05103
20203=
56671 32780 52003 10251 20148 38163 57021 85100 333 05102
20178=
56684 32580 40401 10218 20154 37870 57019 84100 333// 05106
20121=
56751 32678 70903 10242 20134 37994 57005 86240 333 00201
20162=
56786 32580 41606 10234 20171 38081 57019 83202 333 05105
20153=
56886 11680 22204 10231 20173 38235 57019 69901 70080 82201
333 00003 20163=
56977 32580 42501 10285 20191 40041 57019 83102 333// 00102
20205=
57206 11580 70000 10204 20121 40123 57013 69921 72580 874//
333 20146=
57426 11440 80401 10167 20162 40128 57005 60061 76066 887//
333 00355 20162=
57602 31758 81601 10208 20169 40124 57014 71000 885// 333
20195=
57713 11459 80403 10184 20168 40103 57006 69911 76060 885//
333 00155 20180=
58647 11665 80703 10229 20187 40107 57012 69901 70060 885//
333 20219=
58737 11570 60000 10289 20236 40079 57025 69901 70060 86800
333 20234=
58846 11656 80000 10214 20192 40120 57013 60051 78088 885//
333 20206=
58918 11680 72903 10306 20246 40080 57026 69901 72500 8224/
333 20228=
59126 11575 82403 10278 20218 40091 57015 69901 79590 889//
333 20235=
59133 11530 80406 10236 20227 40094 57017 60201 79196
889// 333 20228=
50246 32680 73207 10185 21063 49963 57012 86202 333 20031=
50658 32580 12704 10281 21024 49949 57023 81101 333 20115=
50844 32970 23604 10308 21029 49979 57026 80002 333 20116=
50854 32970 02705 10300 21018 49978 57024 333 20093=
50888 32980 83407 10212 20087 49959 57019 80007 333 20106=
50968 32980 22707 10247 20082 49997 57020 80002 333 20082=
50983 11670 83605 10179 20120 49948 57012 69911 70060 82107
333 20115=
54096 11570 72905 10188 20051 49969 57008 69971 70060 82102
333 20094=
54259 32580 13603 10268 20010 40048 57005 81100 333 20094=
54324 32980 03603 10312 21064 40058 57014 333 20132=
54346 32968 03204 10269 20043 40055 57009 333 20118=
54493 32974 03203 10271 20042 40042 52002 333 20137=
57251 11770 81802 10189 20149 40153 57012 60051 76060 8157/
333 20160=
57378 32962 80203 10230 20174 40123 57006 8807/ 333 20210=
57385 11675 83603 10227 20133 40116 57007 69901 70060 8257/
333 20211=
57545 11557 82201 10188 20170 40118 57004 69931 76060 8772/
333 20185=
57554 11456 80202 10197 20180 40124 57008 69921 76060 885//
333 20188=
57574 32964 83603 10235 20152 40102 57007 8807/ 333 20230=
57598 32762 73403 10301 20209 40083 57019 8653/ 333 20210=
57669 11458 80701 10209 20192 40103 57012 60011 76060 887//
333// 20207=
57774 11458 83603 10235 20217 40086 57008 69941 72160 885//
333 20232=
57793 11857 80702 10234 20208 40095 57009 69901 76060 885//
333// 20227=
57845 11758 83401 10237 20221 40075 57015 69931 76060 885//
333 20212=
57872 11765 80703 10236 20223 40080 57008 60011 72160 885//
333 20232=
57894 11315 80000 10204 20199 40099 57016 60101 76066 887//
333// 20188=
57965 11763 81601 10246 20233 40073 57018 60081 76066 8757/
333// 20224=
57972 11459 80000 10271 20237 39861 40074 57019 69961 76060
887// 333 20229=
58402 32965 80000 10282 20199 40111 57011 8807/ 333 20199=
58407 32962 70402 10277 20196 40094 57016 8703/ 333 20222=
58424 32961 73606 10273 20202 30076 40099 57017 8707/ 333//
20214=
58506 32/62 73402 10229 20171 40105 57010 86140 333// 20154=
58608 32960 83602 10273 20205 40090 57012 8807/ 333 20231=
58626 32968 70903 10290 20210 40085 57013 8704/ 333// 20235=
58813 11561 80000 10262 20233 40077 57016 60011 72580 8746/
333// 20222=
59102 11568 71402 10305 20246 40075 57027 69911 79560 8793/
333// 20225=
333 20185=
52418 32970 82705 10281 21012 38801 40017 57018 85047 333
00101 20190=
53646 32980 71606 10261 20001 38938 40103 57023 80002 333
05205 20096=
52323 32680 71403 10224 21037 38184 57010 81442 333 05251
20095=
57245 11570 80405 10153 20126 39815 40158 57004 60091 76066
8272/ 333 00357 20148=
53845 32570 72505 10238 20064 39056 40119 57018 81102 333
00001 20140=
57127 11558 82201 10150 20141 39559 40152 57009 60041 76166
8672/ 333 20136=
57036 11565 80000 10158 20141 39697 40163 57012 60101 76266
8672/ 333 20140=
52754 32575 62205 10119 20019 36810 57014 86902 333 00004
20008=
56033 11580 72203 10044 20000 36058 57007 69901 72370 87800
333 00202 21014=
52955 32580 70401 10124 20017 36984 57012 85102 333 05103
20032=
52866 32580 51102 10192 20009 37679 57025 81102 333 05304
20058=
52996 32480 71604 10089 20026 37576 57012 86902 333 05154
20033=
52787 32580 71408 10133 21017 37033 57011 82102 333 05104
20024=
52436 32970 73206 10258 20017 38405 40017 57014 80002 333
05102 20104=
50548 32580 42905 10268 21019 49944 57028 84100 333// 20038=
53480 32680 12504 10219 20083 40117 57017 81100 333// 20068=
54102 32980 02206 10242 21037 38977 40080 57014 333// 20075=
50632 11580 62708 10220 21008 39146 49989 57014 69901 70080
82232 333// 20018 91120 91529=
54527 32975 12902 10294 20090 40104 57010 80002 333 20153=
54618 32962 50402 10306 20077 30085 40102 57012 80002 333//
20151=
54218 32980 03203 10288 21051 39423 40066 57017 333// 20106=
54401 32980 02001 10264 20000 39297 40112 57019 333// 20127=
50834 32580 22907 10305 21090 49976 57025 82102 333// 20070=
54602 32980 50902 10307 20051 40106 57016 80001 333// 20173=
54308 32680 10000 10279 21015 40093 57018 81100 333// 20092=
50727 32580 73207 10238 21070 38873 40024 57019 81102 333//
20000=
54423 32980 02701 10277 20014 39656 40099 57008 333// 20096=
53798 32960 70404 10300 20109 30018 40107 57012 80002 333//
20188=
57083 32961 82304 10270 20103 30000 40129 57007 8803/ 333//
20190=
53352 32980 52003 10243 21051 40091 57016 80002 333// 20082=
53764 32580 71804 10280 20025 40093 57020 82102 333// 20115=
53863 32962 72204 10261 20083 40117 57021 80002 333// 20119=
53975 32576 71401 10253 20042 40121 57016 82132 333// 20169=
54436 32980 01802 10292 20052 40083 57011 333// 20105=
54808 32973 73201 10293 20198 40113 57007 80002 333// 20134=
54826 32975 82705 10164 20062 38466 57001 80007 333// 20076=
54836 32578 82203 10271 20072 40111 57013 81107 333// 20118=
54863 32580 72908 10281 20096 40094 57009 81402 333// 20143=
57071 11970 72507 10238 20096 40137 57002 69901 70060 8704/
333// 20187=
47401 41/30 80502 10092 20092 39863 49876 57036 78188 887//=
47412 41465 71203 10163 20140 39833 49863 56031 78082 872//=
47420 41/13 81612 10119 20116 39890 49936 56044 78188 887//=
47426 41/02 81007 10134 20129 39869 49912 56030 75588 886//=
47582 46/// /2208 10177 20153 39930 49954 51001=
47590 42/70 72609 10262 20150 39895 49943 55008 83272=
47600 41465 82409 10188 20159 39979 49995 51009 70282 882//=
47648 41/56 72212 10225 20202 39912 49943 56024 71022 87102=
47662 42/65 72207 10294 20197 39892 49932 56027 81132=
47678 41257 82411 10220 20213 39926 40018 56020 71022 882//=
47740 41/58 22409 10211 20147 39969 40005 56003 71011 81202=
47778 41/60 62706 10234 20191 39924 40009 55005 70282 82232=
47807 42/60 22606 10244 20139 30038 40055 56004 82201=
47827 41/59 72907 10244 20167 30036 40072 56006 70511 83102=
47843 42/70 22805 10224 20129 30047 40077 53001 82230=
47898 42970 72606 10241 20178 39994 40031 56008 82032=
47909 41257 83402 10220 20201 30090 40099 56004 78082 8427/=
47918 42/80 72004 10293 20259 30090 40098 56010 82932=
47936 41/65 83502 10244 20223 30042 40103 58011 78082 8727/=
47945 41/50 72104 10268 20248 30081 40104 56011 71042 876//=
47971 42375 61803 10257 20234 30117 40126 58010 86200=
47991 42/80 70904 10281 20210 30139 40149 51012 81232=
50603 32680 70204 10229 21009 39377 40006 57016 84102 333//
20094=
50774 32670 12505 10261 20081 39677 49962 57023 81102 333
20036=
54094 32570 52502 10240 20063 39696 49976 57013 84202 333
20109=
50949 32968 02906 10289 20001 39846 40004 57016 333// 20106=
54161 32570 12908 10281 20091 39742 40015 57017 81100 333//
20119=
54292 11580 73204 10228 20051 39775 49981 57010 69931 70060
81102 333// 20130=
54374 32672 33605 10240 20030 39644 40027 57002 82101 333//
20130=
50442 32670 52705 10232 21084 49940 57028 83102 333 20041=
54273 32580 62705 10247 20057 40022 57012 81102 333// 20131=
58203 11756 83402 10220 20175 30090 40134 57005 69901 76000
885// 333 20177=
56586 11462 80202 10133 20109 38037 57012 69911 70060 888//
333 05152 20101=
56748 32580 70000 10231 20167 38314 57012 879// 333 00102
20158=
56763 32680 31102 10311 20174 49995 57026 82202 333 05102
20217=
56768 32680 51803 10265 20149 38185 57018 85200 333 00006
20166=
56838 32680 52502 10288 20190 40058 57015 84260 333// 00101
20217=
56946 11580 60000 10265 20189 40053 57015 69931 71584 85962
333// 00102 20183=
56954 11580 73402 10259 20210 40063 57012 60061 72584 86261
333// 00151 20183=
56959 32780 32902 10310 20217 40034 57027 83900 333 00001
20213=
56966 32780 71404 10338 20219 40011 57028 82268 333 00100
20230=
56969 32580 20000 10308 20221 40049 57023 82100 333 00005
20222=
56986 11175 70903 10225 20208 40057 57013 69921 70080 874//
333 00151 20186=
57237 11850 80000 10145 20136 40142 57001 60121 76066 885//
333 20127=
57306 11780 80000 10206 20142 40129 57009 69901 70080 8347/
333 20150=
57504 32965 71602 10216 20142 40117 57017 8704/ 333 00353
20187=
59007 11570 70403 10235 20203 40062 57017 60041 70060 878//
333 20178=
57348 11720 83603 10157 20155 40139 54000 60071 76069 885//
333 20150=
44210 31597 63206 10180 20055 38419 58021 71522 84020=
44229 32599 62703 10157 20004 37846 49966 57018 84402=
44242 32998 70507 10251 20073 39168 49984 57004 80003=
44243 32599 63607 10230 20071 39256 40006 56010 82544=
44263 32598 82706 10060 21016 38006 40425 57003 8892/=
44266 32699 62712 10121 20025 37731 40027 57006 86800 333
91214 555 96108=
44325 32699 62905 10249 20132 38727 49974 57019 86300=
44329 32898 71806 10178 20046 37716 49974 57004 82047=
44348 32697 52307 10274 20023 38633 49995 57013 82180=
44374 32999 31809 10228 21064 38211 49976 57018 81082=
44385 32999 72310 10278 20013 38837 40015 57019 80007=
44386 32999 32507 10283 21074 38966 40023 57015 80008=
47575 41/65 72308 10202 20150 39896 49900 55007 78082 87232=
47585 46/// /2004 10253 20156 39860 49912 55021=
47598 41/18 71903 10194 20163 39941 49947 56013 71042 8623/=
47602 41350 82507 10177 20157 39970 49989 53005 70282 882//=
47618 42/80 61906 10280 20107 39274 49928 55009 86201=
47624 42/75 51403 10287 20193 39805 49930 56026 81232=
47636 42/65 63005 10274 20187 39927 49989 56016 86242=
47655 41957 72409 10233 20193 39926 49979 56018 71084 81032=
47750 41/75 60805 10240 20170 39980 40005 55005 70282 86231=
47755 41/50 12312 10205 20163 30007 40030 58001 71000 81200=
47772 42/70 22506 10261 20146 39913 40006 56007 81102=
47800 42/70 22404 10220 20131 30029 40050 58004 82100=
47815 42/70 32306 10274 20134 30017 40031 58010 83201=
47817 41/56 62905 10219 20164 30033 40074 58004 70522 84202=
47830 42/70 72707 10273 20147 30027 40043 55005 81232=
47837 42/60 72809 10240 20184 30050 40071 57010 8117/=
47891 42/70 12707 10274 20144 30003 40014 56009 81801=
47899 42/65 62612 10219 20185 39803 40015 55006 81132=
47927 42/75 82204 10281 20253 30054 40100 56010 8327/=
54026 32580 42704 10315 21026 39709 40010 57026 81102 333//
20150=
54027 32980 12903 10294 21063 39493 40039 57020 80002 333//
20114=
57259 11570 80000 10169 20145 40156 57009 60041 72166 8177/
333 20152=
57649 11450 80402 10203 20189 40108 57009 69961 76060 8277/
333 20202=
58203 11756 83402 10220 20175 30090 40134 57005 69901 76000
885// 333 20177=
52533 32680 70404 10252 20027 38455 40021 57016 81142 333
05203 20130=
53614 32970 51806 10246 20015 38875 40090 57022 80002 333
05303 20127=
53723 32970 72505 10235 20000 38640 40103 57018 80002 333
05203 20097=
52836 32680 71601 10100 20031 36917 57011 86802 333 00102
20025=
57016 11562 81102 10159 20131 40167 57013 60011 72166 8272/
333 20127=
53705 32970 61610 10244 20038 40078 57023 80002 333 05302
20130=
JNSR    28064 99432 11554
41/90 91616 10107 20107 40151 57027 74544 89///
22274 06098 11804 20202=
53478 32580 13401 10218 20015 40126 57018 81102 333// 20051=
53853 32567 72703 10238 20055 40110 57021 81102 333// 20146=
54518 32965 13402 10305 20050 40106 57008 80002 333// 20161=
54852 32970 22905 10282 20098 40095 57003 80002 333// 20133=
57089 11658 82005 10239 20151 40137 57004 69901 76060 885//
333// 20186=
50564 32570 22906 10260 21001 49935 57022 82200 333 20051=
54115 32680 12505 10260 21037 40068 57016 81100 333// 20101=
54157 32572 12904 10290 21005 40028 57015 81100 333// 20115=
54186 32575 72708 10212 20063 40012 57004 81102 333// 20097=
54377 32580 23403 10254 20044 40040 52005 81101 333// 20137=
54386 11580 70904 10184 20045 40008 52010 69921 70086 87900
333// 20111=
54049 32970 02905 10298 21001 40019 57018 333// 20107=
53068 32980 02705 10282 21077 38994 40056 57028 333// 05204
20094=
53231 31958 71614 10246 21126 38448 57023 70700 80002 333//
05404 20110 91120 91516=
53276 32980 12704 10249 20004 38825 40090 57019 80002 333//
20090=
54135 32980 02504 10302 20005 39825 40031 57021 333// 20101=
54539 32980 03202 10298 20060 30073 40087 57010 333// 20153=
54753 32965 02703 10223 20144 30099 40105 57005 333// 20154=
54857 32975 81802 10240 20131 30019 40107 57010 80007 333//
20150=
57067 11464 82002 10166 20149 39510 40169 57007 60041 76166
8172/ 333// 20141=
57178 11461 83603 10201 20149 39999 40152 52004 69911 76060
8177/ 333// 20200=
57297 32960 80403 10216 20145 39996 40130 57005 8807/ 333//
20192=
56146 32780 71402 10144 20056 36738 57017 83402 333 00553
20055=
56172 11680 70000 10159 20052 37347 57026 69911 70060 878//
333 00302 20041=
56247 11780 80000 10154 20115 37413 52008 60031 78080 889//
333 00760 20147=
56444 11570 81102 10132 20096 36814 57007 69961 76064 888//
333 00201 20083=
56462 11580 71605 10187 20099 37113 57019 69901 70080 879//
333 05104 20107=
56691 11358 80401 10125 20118 37758 57014 69971 76066 887//
333 05151 20092=
56739 11473 82201 10196 20176 38324 57006 69961 72580 889//
333 00100 20152=
56964 32580 71802 10265 20183 38662 40050 57014 83262 333//
00101 20192=
56985 32565 61803 10268 20180 38650 40034 57020 83202 333//
00002 20202=
57633 11462 83601 10187 20151 39359 40109 57010 69901 76060
8677/ 333 00358 20178=
57902 11440 80000 10185 20176 38591 40083 57012 69931 76066
887// 333 00000 20167=
53362 32580 22002 10220 21038 40107 57017 81102 333// 20068=
53664 32678 53202 10261 20062 40107 57018 83102 333// 20094=
53782 32580 71102 10281 20012 40097 57014 81102 333// 20149=
54429 32980 02504 10298 20060 40084 57011 333// 20136=
54623 32980 13602 10286 20065 40098 57007 80002 333 20179=
54736 32978 63604 10288 20091 40099 57009 80002 333// 20154=
54824 32975 70204 10287 20103 40109 57007 80002 333// 20123=
54936 32967 72504 10275 20121 40111 57012 80002 333// 20118=
57077 11564 80000 10161 20130 40164 57009 60041 76166 8572/
333// 20139=
57091 32962 82204 10256 20108 40128 57011 8807/ 333// 20173=
57156 11675 82903 10194 20159 40156 57003 69931 76060 8252/
333// 20170=
57181 11956 82506 10223 20148 40146 57004 60011 76060 8807/
333// 20195=
58102 32970 83202 10247 20120 30079 40128 57011 20166=
58122 32980 82202 10269 20105 40128 57008 8807/ 333 20181=
58215 32960 70703 10244 20159 40129 57007 8707/ 333 20184=
58321 32960 83603 10238 20185 40121 57012 8807/ 333 20199=
58338 31958 73605 10264 20192 40111 57009 70500 8707/ 333
20194=
58437 32562 80901 10146 20129 38174 57003 885// 333 20102=
58531 32980 00702 10294 20168 40089 57022 333 20191=
52713 11680 73602 10113 21024 36930 57009 69901 71480 84902
333 00252 20044=
56046 32580 72202 10072 20014 36288 57008 86802 333 00205
21008=
51886 32780 51803 10157 21062 37119 57021 84102 333 00000
20052=
52602 32680 73206 10133 21031 37284 57013 81108 333 00254
20039=
56065 32680 72504 10088 20001 36647 57010 879// 333 00006
21011=
52737 11680 71801 10110 20031 37095 57013 69961 70060 83842
333 00152 20049=
C6FH5 28064 99200 11503 41598 40908 10300 2025/ 40120 54000 70200
84260 22213 00283 20303 312// 40604 80260=
9MBK8 28064 99284 11265 41396 83311 10235 20188 40109 75052 886//
22213 00250 20302 31714 40505 50605 80205=
3FFJ4 28064 99362 11431 41/97 91837 10220 20206 49970 57010 70222
89/// 90530 22253 00220 1//// 20605 319// 40908 5//// 6//// 80210
/////=
JNZJ 28064 99258 11422 41398 22007 10270 20257 40137 57012 70100
82200 90555 22233 00250 20000 314// 40402 80260=
C6NT7 28064 99129 11281 41498 61215 10300 20260 40078 57015 70211
83343 90555 22244 00289 1//// 20302 310// 40503 5//// 6//// 80270=
JFYD 28064 99122 11301 41398 61619 10250 20243 40074 57007 70311
8546/ 22284 00296 20502 308// 40503 5//// 80245=
4XGT 28063 99289 11244 43497 80000 10252 20240 40128 54000 8861/
22214 04250 20000 3//// 4//// 80248=
JNVU 28064 99116 11403 41498 30614 10300 20260 40080 56020 70200
81131 22273 00300 20201 306// 40302 80270=
C6MJ6 28064 99186 11294 41398 20814 10305 20259 40094 56010 70201
821// 9//// 22284 00300 1//// 20502 309// 40403 5////=
JKCF 28064 99501 11748 41/92 92319 10050 20039 40005 57020 74364
89/// 22264 00040 80045=
JLMB 28064 99256 11274 41396 72212 10245 20238 40106 58007 74242
8762/ 22253 00250 20101 319// 40403 80240=
UHVV 28061 99091 11296 41497 81302 10270 40094 54000 76162 8552/
22273 00310 2//00 31400 40502=
3FRR5 28063 99083 11537 41498 70913 10300 20258 40085 56002 70322
87168 22234 04260 20402 309// 40402 80270=
9KWK 28063 99234 31044 42598 52214 10230 20165 40144 51011 70322
85442 22233 00200 20504 32021 40504 50403 80190=
V7AT5 28063 99300 30523 41497 80419 10205 20182 40165 55015 72522
8357/ 22263 02235 20303 399// 4//09 5//// 80190=
SHIP 28064 99109 31428 41/97 31625 10270 40072 70202 222// 20303
316// 40305=
JNSR 28064 99432 11554 41/90 91616 10107 20107 40151 57027 74544
89/// 22274 06098 11804 20202=
JGQU 28064 99192 11419 41697 51314 10305 20244 40135 57008 70221
85234 22233 00300 20101 313// 40202 5//// 80260=
SHIP 28064 99367 11435 41093 91929 10190 20175 40981 51011 76166
89/// 90545 22233 00180 20505 318// 40606 5//// 80180=
9KWK 28063 99234 31044 42598 32214 10230 20165 40144 51011 70322
85442 22233 00200 20504 32021 40504 50403 80190=
MZEP7 28063 99095 31342 41498 61121 10285 20233 40071 58008 70222
85269 22224 02280 20302 310// 40402 5//// 6//// 80250=
PGWB 28060 99284 31537 41599 22605 10184 20015 40114 57011 70200
82/6/ 22283 02225 20401 319// 41003 80101=
SHIP 28051 99260 70878 46/// /1206 10272 20240 40154 50000 90450
22200 00278 10502 70008
333 91207=
SHIP 28051 99259 70897 46/// /1208 10275 20244 40150 54000 90450
22200 00278 10502 70009
333 91209=
SHIP 28051 99380 71300 46/// /2804 10137 40220 53010 90450 22200
00142 10803 70017
333 91205=
SHIP 28051 99526 71550 46/// /2908 10058 40225 54000 90450 22200
00062 10904 70018
333 91209=
SHIP 28051 99285 70802 46/// /2005 10256 40158 90520 22200 00254
10301 70006
333 91205=
VLST 28064 99394 31453 46/// /2143 10103 20048 39969 49999 52003
22234 85076=
VJDK 28063 99249 11266 41398 82008 10265 20251 40102 54001 75052
85877 22243 00250 20202 320// 40703 5//// 6//// 80255=
SHIP 28061 99272 70904 46/// /1408 10268 40141 57005 90550 22200
00268
333 91209=
SHIP 28051 99285 70802 46/// /1906 10257 40159 54000 90450 22200
00254 10801 70004
333 91207=
SHIP 28051 99259 70936 46/// /1310 10267 20258 40134 52007 90450
22200 00269 10804 70018
333 91211=
SHIP 28051 99301 70888 46/// /2009 10272 20246 40144 50000 90450
22200 00282 10402 70008
333 91210=
54405 32680 12505 10289 21007 40108 57016 81102 333// 20138=
SHIP 28051 99460 71310 46/// /3306 10097 30139 40139 53028 90450
22200 00095 11005 70024
333 91207=
9VBK 28051 99498 70033 41/9/ /2912 10101 20061 40026 52018 7////
22224 04111=
BOAB 28063 99505 71473 41597 52915 10070 2003/ 40180 5//// 70000
83879 22274 0//// 2//// 3//// 4//// 5//// 6//// 80050 ICE=
3ETH9 28064 99458 71366 41698 53417 10090 2006/ 40196 52023 70111
8354/ 22274 00100 80075=
3FWB9 28064 99316 71726 41498 21011 10220 20175 40220 54000 70100
82100 22264 00210 20202 303//=
SHIP 28061 99289 70785 46/// /2007 10264 40170 58008 90550 22200
00265 10401 70007
333 91208=
SHIP 28061 99292 70944 46/// /1808 10268 20240 40136 53018 90550
22200 00273 10703 70016
333 91210=
SHIP 28061 99285 70845 46/// /2304 10261 20235 40145 58012 90550
22200 00269
333 91205=
SHIP 28061 99569 71778 46/// /1507 10032 40216 90550 22200 00036
10905 70024
333 91208=
SHIP 28061 99563 71482 46/// /3005 10079 40120 52003 90550 22200
00074 11402 70011
333 91206=
YJZR9 28063 99132 31580 41499 21413 10284 20235 40088 55000 70200
82200 22243 02284 20301 315// 40702 5//// 80250=
MRGU3 28063 99469 11703 41498 83124 10040 20025 40110 57005 70222
886// 22225 04042 20506 328// 40706 5//// 80034=
VJDK 28063 99249 11266 41398 82008 10265 20251 40102 54001 75052
85877 22243 00250 20202 320// 40703=
C6CN4 28064 99100 31581 46/// /1315 10284 20236 30051 40074 54000
22254 85249=
KGTY 28064 99509 71297 41498 82916 10100 2008/ 40095 51010 70222
888// 22200 00095 20102 328// 40504 5//// 6//// 80089 ICE=
C6LF9 28063 99138 70994 41398 29905 10278 20231 40116 51019 70300
82200 22235 00298 2//// 324// 4//03 5//// 80246=
V7AP7 28064 99375 71311 41497 32708 10150 2012/ 40215 51020 70210
81941 22225 00150 20201 328// 40302 5//// 6//// 80130 ICE=
C6LF8 28063 99063 70868 41997 81815 10259 20244 40103 56017 70222
88700 22274 00294 20302 31800 41002 50000 6//// 80249=
DNKF 28060 99380 71353 41697 32706 10135 20099 40230 51015 70122
832// 22265 00163 20201 3//// 80115=
WRYD 28064 99511 71490 41498 32810 10078 2005/ 40210 57002 70100
81544 22275 00057 20302 310// 40705 5//// 6//// 80067 ICE=
VRVB5 28064 99507 71492 41498 73016 10063 20040 40219 53003 70321
875// 22275 00070 20302 331// 40503 5//// 80053=
KGJB 28064 99452 71448 41498 63410 10089 2004/ 40238 51010 70222
8514/ 22224 00087 20402 304// 40805 5//// 6//// 80067 ICE=
3ETV8 28064 99493 71405 41697 72920 00/// 10070 2006/ 40194 52020=
WBWK 28063 99228 71529 43498 70615 10240 2021/ 40198 54000 874//
22253 20202 306// 40805 80220=
ZMIO 28064 99360 31729 41999 60318 10173 20125 40181 56005 70222
85078 22243 20202 32302 40903 50502 80146=
SHIP 28064 99101 31380 41/96 41520 10280 40081 70202 222// 20204
316// 40404=
WSRL 28064 99264 71489 41698 61204 10230 2019/ 40210 54000 70100
84579 22254 00195 20401 31822 40403 5//// 6//// 80200 ICE=
WNRD 28063 99350 71369 41398 80505 10160 2012/ 40201 51010 70222
88/// 22265 00158 2//// 3//// 4//// 5//// 6//// 80135 ICE=
GOVL 28063 99271 51377 41498 41810 10220 2021/ 40144 52005 71552
839// 22224 00229 20202 332// 40202 5//// 6//// 80213 ICE=
ELXS8 28061 99269 31130 41698 30611 10215 20185 40174 56014 70100
81479 22233 00225 20302 399// 80195=
VNNM 28063 99267 31537 41998 62518 10165 20061 40126 57005 70222
86072 22243 20403 322// 40504 80114=
3FJR6 28064 99205 71586 42/97 30815 10260 40160=
SHIP 28064 99099 31361 41/97 51324 10280 40077 70311 222// 20502
315//=
C6MD8 28063 99092 71503 41498 60610 10260 20222 40123 54005 70211
8427/ 22254 02260 20302 309// 40503 80235=
3EYX9 28064 99131 70935 41698 31007 10285 20244 40112 52009 70211
82339 22235 00290 80255=
4XGU 28063 99308 71690 43498 70618 10195 20145 40215 54000 84242
22264 00224 20203 305// 40905 80165=
WGJF 28063 99174 71021 41398 82918 10260 2023/ 40100 51020 70222
88020 22234 00263 20303 321// 40403 5//// 6//// 80240 ICE=
SHIP 28041 99272 70904 46/// /1306 10268 40146 52004 90350 22200
00268
333 91207=
SHIP 28041 99285 70802 46/// /1906 10257 40161 90420 22200 00254
10801 70004
333 91207=
SHIP 28051 99272 70904 46/// /1406 10268 40142 50000 90450 22200
00268
333 91208=
VLST 28054 99392 31451 46/// /2144 10099 20043 39973 40003 57004
22234 85071=
SHIP 28051 99292 70944 46/// /1711 10269 20243 40127 52009 90450
22200 00274 10803 70014
333 91212=
SHIP 28051 99285 70845 46/// /2305 10266 20238 40150 58007 90450
22200 00269
333 91205=
SHIP 28051 99569 71778 46/// /1608 10035 40220 57012 90450 22200
00036 10804 70022
333 91209=
SHIP 28051 99563 71482 46/// /3005 10079 40119 52003 90450 22200
00075 11702 70011
333 91206=
SHIP 28041 99563 71482 46/// /3005 10082 40118 54000 90350 22200
00075 11402 70011
333 91205=
WGJC 28064 99372 11324 43397 82713 10178 2016/ 40000 54000 886//
22214 00168 20302 31932 40707 50503 80167=
WRYC 28064 99446 11685 41396 83018 10073 2004/ 40150 54000 74122
886// 22225 00035 20204 312// 40706 5//// 6//// 80058 ICE=
WGZK 28064 99216 11237 41498 61908 10292 2026/ 40108 58016 7022/
82209 22253 0//// 20302 307// 40604 5//// 6//// 80269 ICE=
UBXD 28061 99259 11316 42998 42003 10260 40101 57006 82081 22273
00230 20301 31100 40702=
YJQA8 28064 99405 11502 41695 81816 10210 2015/ 40080 54000 70222
884// 22228 00190 20505 318// 40404 5//// 6//// 80170 ICE=
PDHU 28061 99507 11648 41496 83214 10044 20026 40083 52065 70222
887// 22254 00030 20605 31723 40906 50805 80036=
3FTR6 28064 99524 11651 41595 83422 ///// 10090 2007/ 40090 52060
70222 886// 22263 00050 20503 33434 40503 50402 6//// 80080 /////
/////=
3ENI3 28064 99457 11693 41696 82720 10050 2003/ 40150 54000 70222
8861/ 22213 00052 20803 327// 40804 5//// 6//// 80040=
WFLH 28064 99176 11603 41398 60912 10278 2020/ 40127 56012 71681
83361 22265 00289 20202 311// 40605 5//// 6//// 80222 ICE=
ELVS2 28064 99452 11642 43697 73016 ///// 10080 2007/ 40193 54003
70222=
SHIP 28061 99292 70882 46/// /2006 10272 20243 40140 55000 90550
22200 00278 10702 70009
333 91207=
SHIP 28061 99429 70689 46/// /2001 10102 40094 54000 90550 22200
00086 10801 70007
333 91202=
SHIP 28061 99288 70860 46/// /2105 10269 20242 40155 58012 90550
22200 00274 10701 70007
333 91206=
SHIP 28061 99606 71468 46/// /2905 10109 40095 54000 90550 22200
00099 11701 70003
333 91205=
SHIP 28061 99425 71303 46/// /2708 10118 40189 53018 90550 22200
00117 10906 70030
333 91210=
DNES 28064 99432 11617 41/97 73103 10086 20049 40205 51005 71022
8/6// 22225 00082 331// 40504 80068=
DDGY 28060 99343 31697 41497 80311 10178 20158 40140 52009 70222
882// 22224 02182 20603 303// 40605 80165=
ZCBH6 28063 99263 30815 41498 83017 10197 20162 40166 50005 70252
88700 22223 02212 20403 323// 40806 80176=
SHIP 28061 99411 70666 46/// /2703 10102 40092 56008 90550 22200
00090 10702 70010
333 91204=
SHIP 28041 99292 70944 46/// /1709 10269 20243 40125 53009 90350
22200 00274 10703 70013
333 91210=
SHIP 28041 99285 70845 46/// /2204 10266 20235 40156 54000 90350
22200 00270
333 91205=
SHIP 28041 99569 71778 46/// /1608 10035 40223 57011 90350 22200
00036 10804 70021
333 91210=
VLST 28044 99389 31450 46/// /2141 10111 20047 39960 49990 57013
22234 85079=
SHIP 28041 99289 70785 46/// /1907 10265 40181 53004 90350 22200
00269 10801 70006
333 91208=
3FJR6 28064 99205 71586 42/97 30815 10260 40160 7////=
VNGK 28061 99052 11424 41398 51107 10270 20226 40076 57010 72052
854// 22234 00310 20402 311// 40601 5//// 80240=
GQHC 28063 99459 51462 41597 82524 10097 20076 40057 57054 70222
8/5// 22224 04103 2//// 3//// 4//// 5//// 80086=
SHIP 28061 99260 70878 46/// /1305 10271 20240 40149 58007 90550
22200 00278 10502 70008
333 91206=
SHIP 28061 99259 70897 46/// /1308 10274 20242 40148 57004 90550
22200 00278 10402 70009
333 91209=
SHIP 28061 99380 71300 46/// /2804 10136 40226 53014 90550 22200
00141 11404 70018
333 91205=
SHIP 28061 99526 71550 46/// /2907 10059 40227 54000 90550 22200
00062 10604 70018
333 91209=
ELXD4 28064 99036 31454 41098 32909 10295 20269 40073 57009 70200
82240 22273 00309 20401 302// 40502 5//// 80275=
CBGR 28054 99193 31474 46/// /1918 10240 40141=
MYRF 28054 99183 31474 46/// /1722 10221 40128=
AGRF 28054 99160 31458 46/// /1420 10237 40120=
DVRF 28054 99188 31477 46/// /1720 10218 40129=
PFOH 28060 99230 51253 41/98 /2507 10234 20159 40142 52001 7//00
8//// 22213 02240 2//// 399// 80185=
SHIP 28064 99383 31506 41398 72730 10150 20097 49962 54002 75252
87766 22252 00170 20704 326// 40704=
YJQL3 28063 99312 31601 41498 32312 10185 20132 40078 54000 70110
82762 22223 00200 20201 330// 40804 5//// 80155=
YJRK3 28064 99363 31621 4//98 72817 10164 20139 40042 57010 70222
8763/ 22221 00210 2//04 328// 4//08 80150 .....=
SHIP 28064 99358 31515 41/97 23022 10140 2//// 40//3 5//// 70200
8//// 22/// 00172 20201 311// 40202 5////=
SHIP 28041 99411 70666 46/// /2505 10106 40096 58006 90350 22200
00095 10802 70009
333 91205=
SHIP 28041 99292 70882 46/// /1906 10274 20243 40141 54000 90350
22200 00279 10702 70010
333 91207=
SHIP 28041 99429 70689 46/// /3404 10110 40094 51008 90350 22200
00086 10801 70006
333 91204=
SHIP 28041 99288 70860 46/// /2105 10270 20243 40167 51005 90350
22200 00276 10501 70007
333 91206=
SHIP 28041 99259 70897 46/// /1207 10276 20243 40152 51005 90350
22200 00278 10602 70009
333 91209=
SHIP 28041 99526 71550 46/// /2908 10058 40224 54000 90350 22200
00063 10904 70018
333 91210=
SHIP 28041 99606 71468 46/// /2905 10114 40093 57004 90350 22200
00099 10301 70004
333 91206=
SHIP 28041 99425 71303 46/// /2709 10117 40175 53011 90350 22200
00117 10906 70031
333 91210=
SHIP 28041 99380 71300 46/// /2905 10138 40215 53004 90350 22200
00142 10704 70018
333 91206=
PDHW 28060 99434 71489 41599 60103 10080 20024 40264 53008 70311
83240 22225 00100 20201 3//// 80054=
WZJD 28064 99298 71433 41598 70315 10210 2015/ 40225 51012 70311
874// 22215 00178 20201 329// 41004 5//// 6//// 80170 ICE=
ELED8 28064 99089 51568 42699 10818 10280 2024/ 40030 51010 7////
81100 22213 00300 20803 3////=
3ESU8 28064 99015 71607 41498 30812 00/// 10290 2026/ 40095 55005
70211 83141 22233 00277 20202 308// 40303 5//// 6//// 80270=
GZKA 28063 99295 51489 41398 83115 10225 2021/ 40114 57010 71522
867// 22254 00232 20302 3//// 4//// 5//// 6//// 80215 ICE=
SHIP 28061 99285 70802 46/// /1906 10256 40153 58007 90550 22200
00255 10301 70006
333 91207=
SHIP 28061 99259 70936 46/// /1310 10267 20257 40135 51008 90550
22200 00269 10804 70019
333 91211=
SHIP 28061 99301 70888 46/// /2109 10271 20247 40148 55000 90550
22200 00280 10402 70008
333 91211=
SHIP 28061 99460 71310 46/// /3307 10095 30148 40148 51030 90550
22200 00095 10905 70025
333 91209=
ELXD7 28063 99211 31709 41698 31209 10247 20174 40131 53003 70322
83500 22223 00255 20402 30913 40503 50604 80201=
ZMFB 28063 99407 31728 41498 81309 40195 22200 20201 30000 40000=
ZKWS 28063 99262 51658 41/97 /2413 10220 20154 40080 52020 70100
8//// 22212 00238 20301 320// 40703 5//// 80180=
WDZX 28064 99297 11316 41297 82822 10230 2020/ 40085 57020 72842
886// 22284 00230 20606 3//// 4//// 5//// 6//// 80210 ICE=
ELKU8 28064 99071 10774 41398 53119 10290 2026/ 40100 70322 85330
22234 00310=
3FOB4 28064 99505 11773 41/95 /1423 00/// 10050 2003/ 40030 58020
71244 8//// 22263 00040 20704 315// 41005 5//// 6//// 80045=
DQVH 28063 99063 10789 41598 52818 10290 2024/ 40105 54000 76062
85686 22265 00295 29903 328// 40604 5//// 6//// 80255 ICE=
KDBG 28064 99380 71335 41498 80000 10156 2011/ 40238 52010 70221
886// 22225 00144 2//// 3//// 4//// 5//// 6//// 80133 ICE=
KGTZ 28064 99585 71492 41998 02812 10094 2//// 40106 52010 70100
8//// 22274 00074 20302 328// 40302 5//// 6//// ICE=
WRJP 28064 99259 71470 41498 70715 10233 2018/ 40190 53010 70222
875// 22200 0//// 20202 312// 40804 5//// 6//// 80200 ICE=
DATG 28060 99350 71773 41398 71411 10182 20159 40203 52008 72552
87700 22224 00173 20404 319// 40705 80167=
KGTX 28064 99537 71505 41498 83122 10056 2005/ 40180 57011 70222
886// 22224 00065 2//// 3//// 4//// 5//// 6//// 80052 ICE=
DAFE 28060 99070 71188 41297 89902 10256 20234 40102 50016 75022
88/// 22224 00276 2//// 3//// 80240=
JMQY 28064 99449 11694 41398 82823 10085 20065 40157 53007 70222
884// 22225 00040 20302 315// 40504 80075=
SHIP 28064 99114 11118 41498 32108 10335 20277 40075 58023 70200
82232 22214 00295 20402 324// 40703 80290=
JGQU 28064 99191 11419 41697 51314 10305 20244 40135 57008 70221
85234 22233 00300 20101 313// 40202 5//// 80260=
ELJW2 28064 99429 11708 41696 83023 10085 20032 40167 57010 70222
88020 90600 22224 00070 20403 327// 40605 80060=
SHIP 28063 99191 11326 41498 50609 10295 20267 40103 58010 70210
8586/ 22283 00300 20303 308// 40505 5//// 80270=
OBS 28061 99314 11321 42897 72312 10250 40067 58012 8701/ 22213 00250
20604 32000 41004=
JPPT 28064 99344 11708 41398 83012 10180 20148 40205 51005 70322
885// 22264 00180 20402 330// 40804 5//// 80160=
PGDC 28060 99202 11139 41498 71806 10294 20252 40081 56012 70022
84202 22245 00280 20404 3//// 80263=
JRZH 28064 99200 11373 41498 61007 10289 20244 40117 57008 71511
83203 22233 06298 20200 313// 40501 80256=
JPBY 28064 99195 11335 41498 51010 10290 20250 40106 57015 70310
83251 22261 00290 20302 312// 40602 80260=
ELJS7 28064 99494 71330 41598 73226 10090 20071 40146 52020 70322
8733/ 22274 00100 80080=
3ECM7 28064 99544 71659 41598 63605 10070 20038 40271 57006 70322
86961 90555 22223 00100 20202 330// 40203 80055=
SHIP 28051 99289 70785 46/// /2007 10264 40174 90520 22200 00266
10802 70008
333 91208=
SHIP 28051 99606 71468 46/// /2905 10112 40094 90520 22200 00099
11701 70003
333 91205=
MZNM7 28063 99101 10750 41598 72717 10291 20239 40096 50001 70262
82266 22234 02301 20303 324// 40804 5//// 80255=
SHIP 28063 99109 31299 41/96 52212 1029/ 40086 70222 222// 20202
326// 40405 5////=
9VBL 28041 99377 70349 41/9/ /2210 10190 20144 40238 57015 7////
22264 04193=
9VBK 28041 99498 70037 41/9/ /2913 10096 20050 40021 52014 7////
22224 04112=
SHIP 28041 99285 70802 46/// /1806 10257 40161 51006 90350 22200
00255 10801 70004
333 91207=
SHIP 28041 99259 70936 46/// /1209 10269 20256 40135 51017 90350
22200 00268 10804 70020
333 91211=
SHIP 28041 99301 70888 46/// /2008 10273 20248 40144 50000 90350
22200 00282 10302 70008
333 91210=
SHIP 28041 99460 71310 46/// /3307 10097 30130 40130 53026 90350
22200 00095 10905 70026
333 91208=
SHIP 28041 99260 70878 46/// /1106 10274 20239 40158 51007 90350
22200 00279 10502 70008
333 91207=
3FEA4 28064 99282 71620 43797 80810 10245 20245 40187 53039 88440
22274 0624/ 2//02 33201 4//03 5//02 80245=
WTEF 28064 99583 71542 41797 72315 10111 2004/ 40152 53008 70322
85546 22200 00083 20202 3//// 4//// 5//// 6//// 80078 ICE=
3FUX6 28064 99545 71685 41597 71609 10070 20027 40270 56010 75025
854// 22265 00020 328// 40602 80050=
VRUN4 28064 99096 70951 41395 40714 10260 2023/ 40110 52010 70361
84240 22262 00290 20203 330// 40203 5//// 6//// 80240 ICE=
WFDP 28064 99512 71302 41598 73218 10122 2006/ 40104 52019 70222
875// 22200 00106 20304 316// 40609 5//// 6//// 80094 ICE=
DDFO 28060 99281 71334 41497 40409 10185 20136 40230 51020 70322
8456/ 22274 20703 304// 40704 80155=
WAURI 28054 99122 31229 41596 61119 10307 20236 40090 57020 70222
81139 22200 02280 20101 3//// 4//// 5//// 80255=
UAHV 28064 99078 51447 43/97 51215 10278 2023/ 40100 53010 85///
22254 0023/ 20201 80245=
ELXC4 28064 99057 31679 41498 62811 10288 2025/ 40072 55005 72582
8626/ 22243 00300 20301 314// 40803 80260=
VNVG 28061 99092 11272 41498 81007 10261 20249 40067 57023 75252
88500 22243 00301 20202 80253=
SHIP 28061 99285 70802 46/// /2005 10256 40151 90620 22200 00255
10301 70007
333 91206=
ELMQ 28064 99210 31675 41198 00915 10250 20235 40074 55020 70202
80000 22213 00250 20302 30606 40403=
WTEU 28064 99318 71226 41797 53416 10155 2013/ 40157 53044 70220
85200 22252 00167 20405 333// 4//// 5//// 6//// 80140 ICE=
SHIP 28041 99289 70785 46/// /2007 10265 40182 90420 22200 00269
10801 70007
333 91208=
SHIP 28041 99606 71468 46/// /2905 10114 40093 90420 22200 00099
10301 70003
333 91206=
SHIP 28051 99411 70666 46/// /2604 10105 40094 56009 90450 22200
00095 10702 70010
333 91205=
SHIP 28051 99292 70882 46/// /1907 10273 20243 40137 58007 90450
22200 00279 10602 70009
333 91208=
SHIP 28051 99429 70689 46/// /3601 10102 40095 54000 90450 22200
00086 10802 70008
333 91202=
SHIP 28051 99288 70860 46/// /2205 10270 20240 40162 58004 90450
22200 00274 10501 70007
333 91205=
SHIP 28051 99289 70785 46/// /1907 10264 40179 54000 90450 22200
00268 10302 70008
333 91208=
SHIP 28051 99606 71468 46/// /2905 10113 40093 57003 90450 22200
00099 10301 70004
333 91206=
SHIP 28051 99425 71303 46/// /2608 10118 40181 51017 90450 22200
00117 10907 70034
333 91210=
PFAS 28061 99344 11447 41496 81918 10223 20210 40042 57106 76266
886// 22223 00214 20707 318// 40907 80214=
P3YR5 28064 99054 10971 41596 83615 10260 2023/ 40160 54/// 76162
887// 22223 00300 20303 399// 4//// 5//// 6//// 80240 ICE=
9VVP 28064 99481 71679 41698 51612 00/// 10060 2002/ 40270 52005
70210 84/7/ 22225 04060 2//// 3//// 4//// 5//// 6//// 80040 /////=
V2AC6 28063 99354 71297 41298 10108 10154 20132 40230 52009 70122
81100 22224 00180 80141=
3FPS6 28064 99507 71327 41698 53318 10090 2005/ 40130 52030 70222
85462 22273 00100 20504 333// 40504 5//// 6//// 80070 ICE=
ELWG9 28064 99463 71786 41/93 91833 00/// 10085 20074 40070 56010
6//// 74545 8//// 22225 00066 20604 318// 41405 80080=
WTDM 28064 99557 71592 41697 13415 10078 2101/ 40222 53002 70300
81141 22282 00066 20302 318// 40803 5//// 6//// 80040 ICE=
OYDM2 28064 99514 71353 41498 63217 10102 2002/ 40120 52030 70322
86400 22265 00085 2//// 3//// 4//// 5//// 6//// 80065 ICE=
3FYE8 28064 99366 71659 41598 71012 10160 2008/ 40270 70222 87///
22223 00160 20301 301// 40401 5//// 6//// 80120=
3FOA6 28064 99376 71238 41394 83220 10140 2006/ 40190 51010 71144
887// 22283 00140 2//// 3//// 4//// 5//// 6//// 80100 ICE=
ELWR3 28061 99137 71352 41598 60510 10260 20215 40130 52020 70222
86466 22214 04280 20603 305// 40706 80228=
LAON4 28064 99523 11615 41699 20705 10100 2006/ 40135 52025 70110
82181 22262 00095 20303 327// 40202 5//// 6//// 80080 ICE=
3EAD9 28064 99364 11461 41/92 91832 10210 49990 76366=
WCY2098 28064 99162 11518 41499 30611 10247 2//// 40090 55020 70200
83100 22226 0//// 20202 30700 40602 5//// 6//// 80267 ICE=
ELPT3 28064 99448 11537 41/91 91125 10050 2005/ 40120 57025 74544
8//// 22214 00040 20607 80050=
LAMV4 28064 99437 11521 41/90 91627 10110 2009/ 40100 57040 74564
8//// 22253 0//// 2//// 3//// 4//// 5//// 6//// 80100 ICE=
3FSB4 28064 99406 11571 41/91 91617 00/// 10160 2013/ 40180 54000
74444 8//// 22215 00130=
DQVM 28060 99348 11445 41397 81815 10210 20188 40150 52010 76122
887// 22225 00218 20604 318// 41807 80195=
WCX8882 28064 99481 11674 41498 82526 10050 2003/ 40110 56015 70222
886// 22215 0//// 20506 329// 40806 5//// 6//// 80040 ICE=
OXKT2 28064 99416 11586 41092 91516 10120 2112/ 40170 50000 74544
22225 00117 20401 80118=
C6NI7 28064 99535 11782 41/96 81222 10050 40107 75152=
KIRH 28063 99424 11731 41497 83024 10078 2006/ 40175 56008 70222
886// 22215 00068 20304 31315 41210 50809 6//// 80068 ICE=
LAOT4 28064 99448 11608 41698 82206 10060 2//// 40185 56010 70222
8488/ 22213 00060 20402 332// 40503 5//// 6//// 80080 ICE=
53698 32970 71602 10314 20078 40107 57012 80002 333// 20185=
54705 32965 70704 10311 20075 40108 57011 80002 333// 20151=
56079 32780 72703 10072 20007 36712 57016 86802 333 00105
21008=
56144 32680 72005 10176 20061 36857 57018 82462 333 00502
20085=
56152 11780 71402 10098 20036 36335 57007 69911 70080 86442
333 00453 20012=
56167 11680 62001 10185 20077 37074 57030 69911 70060 82140
333 00453 20075=
56173 32680 31603 10071 20013 36678 57010 83100 333 00203
21009=
56182 11680 70000 10120 20032 37208 57013 69901 70060 878//
333 00202 20024=
56257 32680 71802 10152 20031 36284 57010 86902 333 00102
20075=
56357 32680 62703 10184 20037 36452 57010 85902 333 00104
20090=
56374 32580 80705 10099 20062 37423 57011 884// 333 00051
20061=
57707 11462 80401 10146 20122 38476 57009 69921 72160 887//
333 00052 20134=
57731 11461 83202 10207 20198 40097 57006 69941 76066 887//
333 20203=
57832 11466 83603 10196 20187 40096 57009 69911 76060 887//
333 20194=
57916 11671 70000 10258 20208 40071 57017 69901 70060 875//
333 20219=
57922 32661 80000 10225 20195 40081 57012 885// 333 20184=
57932 11470 70902 10265 20220 40073 57016 69901 76060 875//
333 20220=
44219 32598 62305 10194 20072 38499 49983 58016 86300=
44221 32599 72702 10148 20145 38482 40012 58015 85548=
44224 32698 73605 10097 20004 37987 40043 58010 87500=
44254 32598 60503 10205 21007 38916 49991 58014 83274=
44257 32598 71404 10120 20013 38854 49980 56014 84343=
44286 32698 72507 10272 20027 38530 49941 57015 87500=
53083 32680 12208 10258 21095 40057 57021 81102 333// 05106
20042=
53487 32568 42502 10249 20029 40111 57020 81102 333// 20088=
54226 32980 03605 10283 21089 40056 57017 333// 20122=
54311 32980 02703 10263 20023 40082 57017 333// 20085=
54534 32980 02903 10296 20053 40090 57011 333// 20155=
54587 32980 02703 10214 20133 40034 57002 333// 20114=
54715 32970 53202 10296 20133 40105 57016 80002 333// 20125=
54929 32980 72704 10273 20094 40123 57008 80002 333// 20154=
54945 32967 72004 10256 20147 40114 57011 80002 333// 20147=
57193 11768 82002 10229 20145 40140 57003 69901 76060 8557/
333// 20180=
57290 11760 83401 10196 20150 40137 52001 69921 76060 8652/
333// 20190=
53195 32980 12207 10271 21095 40063 57025 80002 333// 20080=
54624 32965 50703 10304 20041 40103 57012 80002 333// 20158=
54774 32962 13209 10221 20127 40087 57003 80002 333// 20131
91120 91529=
58005 32966 82702 10258 20103 40126 57011 8807/ 333// 20156=
51656 32780 12504 10275 20026 39028 40051 57014 81102 333
05103 20094=
51709 32980 71602 10263 20038 38659 40035 57010 80002 333
05103 20134=
51828 32963 03603 10272 20072 38580 40030 57011 333 05104
20180=
51379 32680 42704 10192 20071 40130 57013 84102 333 00353
20093=
51467 32680 10401 10207 21005 38213 57014 81100 333 05203
20086=
51495 32780 23418 10242 20040 40133 57009 81102 333 00259
20146 91126 91536=
51076 31680 73403 10145 20075 39271 40121 57001 70090 879/2
333 00256 20097=
51133 32680 12702 10200 20063 39492 40110 57012 81100 333
05105 20085=
51243 32880 20402 10246 20046 39569 40083 57020 82400 333
00104 20153=
51288 32680 52208 10103 20030 38306 57011 85202 333 05154
20043=
51431 32980 00903 10249 20065 39335 40083 57021 333 05404
20089=
51463 32680 20704 10184 20053 39062 40116 57013 81102 333
00253 20104=
51573 32980 00000 10328 20090 39987 40029 57020 333 00251
20216=
51747 32980 72503 10296 20014 38851 40023 57018 80002 333
05102 20163=
51765 32680 42504 10301 20044 39113 40042 57016 82102 333
00001 20143=
51777 11970 62502 10291 20068 39086 40056 57022 69901 70060
80002 333 00051 20165=
52203 32780 70000 10284 20059 39213 40024 57015 81102 333
00052 20157=
51053 32680 62704 10166 20100 40109 57011 84162 333 00154
20101=
51542 32680 10000 10124 21034 37559 57009 81100 333 05104
21028=
51644 32980 12202 10278 20047 38871 40041 57009 80002 333
05102 20115=
51716 32970 00901 10274 20070 38829 40033 57009 333 05204
20135=
51811 32965 10702 10280 20070 38721 40035 57012 81030 333
05103 20143=
51711 32680 22702 10222 21009 37982 57015 82100 333 05102
20095=
51730 11675 62201 10259 20048 40040 57015 69901 72580 85902
333 05202 20147=
51818 32975 01102 10288 20041 40030 57008 333 00002 20150=
52118 11680 71103 10180 20034 38227 57011 69901 70080 86902
333 00056 20097=
51705 32780 72712 10221 21116 37805 57015 82102 333 05102
20079 91120 91527=
51839 32768 12701 10294 20028 40015 57010 81102 333 05104
20143=
51855 32780 23402 10285 20036 40029 57017 81102 333 05101
20168=
51931 32870 23403 10282 20054 40031 57011 82402 333 00002
20145=
52681 32980 71801 10269 21014 38565 40023 57019 80002 333
05404 20116=
56004 11670 82005 10012 21011 35859 57006 69911 78580 889//
333 00353 21078=
52818 32680 53203 10171 21071 37238 57021 81102 333 00002
20073=
56018 32680 72501 10112 20010 36199 57017 879// 333 00201
20032=
52908 32580 70203 10000 21079 35803 57005 82102 333 00202
21080=
51334 32980 10202 10239 20077 40104 57024 80002 333 00251
20127=
51232 32980 11804 10241 20072 40108 57024 80002 333 00100
20157=
56066 36/// ///// 10088 21056 36631 4//// 57008
555 10020 2//// 3//// 40111 51001 60/// 7//// 80000
9//// ///// 1/020 2//00 30000=
52634 36/// /0000 10047 20015 36773 4//// 57008
555 10000 2//// 30125 41111 51011 60/// 7//// 80000
9//// ///// 1/115 2//00 30000=
50434 32580 22706 10185 21124 39143 49980 57014 82100 333//
21003 91117 91529=
50915 32580 42708 10290 21091 39088 40021 57026 82902 333//
20074=
53149 32980 72204 10267 21087 38743 40072 57018 80001 333//
05203 20114=
53192 32980 02207 10244 21085 38844 40093 57018 333// 20049=
53336 32980 62206 10244 21037 38684 40086 57020 80002 333//
05203 20094=
53391 32980 02504 10218 20014 38497 40105 57017 333// 00105
20076=
53529 32980 41804 10239 21079 38603 40098 57020 80002 333//
05204 20076=
53543 32980 21804 10230 21065 38536 40112 57018 80002 333
20106=
54012 32580 22506 10248 21049 38951 40056 57017 81102 333//
20087=
54208 32980 02706 10217 21010 38734 40114 57010 333// 20038=
54776 32980 13210 10186 20130 30035 40091 57001 80002 333//
20129 91119 91529=
57528 16/// /2000 10156 29756 37563 61430
555 1/136 2//00 30177 12100
11101 10100 10111 01110 1111/
/////
2//// 3//// 6//// ///// ///// 8//// 9//// ///// ///// //004
11101 11111 1011/
11111 110//=
51839 32768 12701 10294 20028 40015 57010 81102 333 05104
20143=
51855 32780 23402 10285 20036 40029 57017 81102 333 05101
20168=
58015 32975 72003 10257 20106 40127 57006 8707/ 333 20170=
58122 32980 82202 10269 20105 40128 57008 8807/ 333 20181=
58215 32960 70703 10244 20159 40129 57007 8707/ 333 20184=
58531 32980 00702 10294 20168 40089 57022 333 20191=
45007 32475 62103 10319 20250 30066 40075 58020 8423/ 333
58015 81811 83825 85362=
45011 42468 61606 10311 20262 40084 57018 85231 333 58016=
57993 11462 82001 10254 20243 39941 40084 57013 60051 76060
885// 333// 20235=
56029 32680 62701 10142 20019 36498 57013 86800 333 00207
20053=
56021 11580 73601 10068 21040 36115 57007 69901 70080 86902
333 00203 21005=
22001   28064 99281 11263
46/// /3407 10212 20174 40114 57004 8////
22200 06249 10702 70011 80187=
21004   28064 99289 11349
46/// ///18 10238 20231 40077 57010 8////
22200 06225 10704 70018 80233=
53593 32780 11402 10246 21030 40119 57016 81102 333// 20118=
58968 11562 73005 10300 20256 30076 40083 57014 60051 72998
873//=
58974 11556 80203 10247 20238 39981 40098 58011 60051 70296
886//=
59358 32565 32605 10316 20265 30073 40084 58017 82201=
59559 32575 62603 10314 20234 30061 40088 57016 81108=
59792 32563 61803 10312 20273 30091 40096 57012 82262=
59997 32565 52503 10325 20295 30040 40052 57027 83201=
59158 11562 42703 10319 20249 39984 40080 57023 69901 70182
84200=
59562 32675 71302 10296 20237 30075 40086 56013 87500=
59567 32270 62506 10284 20256 39728 40093 57014 86400=
47105 42568 62305 10239 20114 39974 40004 52018 83800=
47108 32968 02305 10230 20111 39929 40031 58002=
47115 42568 41802 10223 20176 39743 49989 52010 82530 333
92041=
47135 32675 52707 10206 20100 39756 40034 58001 85500=
47138 32665 42905 10253 20093 30008 40012 58000 84500 333
92023=
47159 32670 22507 10234 20147 39948 40026 50000 82500 333
92033=
47165 32975 03208 10191 20125 30040 40083 58000 333 92033=
47184 32680 13206 10188 20127 30075 40102 58003 81500 333
92034=
47008 42560 73202 10206 20105 39924 49974 52001 85512=
47014 42950 40000 10231 20094 39639 40006 52001 84010=
47016 42570 73205 10185 20043 39192 40018 52010 86903=
47020 42565 62703 10237 20095 39691 40039 52012 84504=
47035 42970 03205 10290 20067 30040 40048 52002=
47041 42770 63607 10251 20094 39981 40006 52023 86030=
47055 42965 82706 10242 20095 39975 40017 52015 8805/=
47058 42566 13206 10272 20023 39991 40034 54000 81500=
47069 42965 03611 10256 20043 39935 40026 54000=
23914 11699 23401 10165 20036 40060 57008 69930 70181 82202
333 20125=
23921 31599 83002 10190 20094 40030 57010 78082 889// 333
20056=
23955 41497 80901 10171 20141 40009 54000 76162 8272/=
24641 41599 73403 10154 20043 40016 57007 72582 86301 333
91113=
28440 32598 72803 10204 20095 40052 57014 83506 333 20117=
28748 32560 22904 10209 20105 40079 58003 81240 333 20112=
29231 42598 71102 10257 20090 40010 57012 85331=
29838 42597 63203 10242 20088 40064 57011 83331=
30372 41698 73606 10083 21027 40011 52011 71522 84942=
30673 41598 92810 10097 21036 49991 53003 78172 889// 333
91018=
30823 42699 80502 10183 21005 40056 58005 83932=
30935 41697 73301 10148 20058 40057 53005 71522 83940=
30965 42699 72707 10197 20009 49999 57006 81102=
31004 41598 81002 10074 20036 49951 52008 78082 86907 333
86924=
31088 41398 71406 10037 20019 40103 54000 70182 86350=
31137 41599 70000 10105 20048 49926 57016 70282 87900=
31300 42599 62202 10168 21038 49952 83331=
31329 42599 82505 10165 20006 49928 56009 889// 333 91111=
31369 42698 60807 10167 20088 40016 57013 82162 333 91012
91114=
31371 42699 33206 10169 21007 49965 57009 83200=
31416 42699 53201 10232 20089 49955 57032 85200=
31510 416// 52404 10257 21007 49914 57027 72582 85900 333
91112=
31594 42698 21803 10263 20078 49926 57036 82900=
31707 42999 33203 10262 20009 49944 57029 80001=
31735 42597 70305 10201 20123 49932 57022 82201=
31866 41495 80509 10071 20068 49919 57026 75352 886//=
31873 41498 80104 10153 20129 49930 56012 78086 8397/=
31909 41458 80000 10099 20097 49879 57028 78186 889//=
31960 42498 83509 10126 20117 49956 52009 885// 333 91018
91118=
32053 41498 81106 10073 20050 40042 56003 70282 82932 333
91011 91119=
32061 41598 81309 10127 20064 49996 57027 78082 8497/ 333
91011 91115=
32098 41296 80906 10059 20052 40014 57027 78082 889// 333
88706=
32150 32150 41397 80107 10048 20043 49911 57049 72582 886//
333 91012 91114=
32165 41/01 91605 10090 20090 49949 57048 76264 333 91111
96045=
3FWM4   28064 99410 11520
41398 81620 10180 20165 40110 57030 70122 885// 90600
22214 00190 20201 31514 40201 80170=
JDSS    28064 99313 11610
41697 60703 10201 20145 40203 57008 70222 82246
22283 00220 20000 335// 40504=
JDSS    28064 99313 11610
41697 60703 10201 20145 40203 57008 70222 82246
22283 00220 20000 335// 40504=
JFOY    28064 99225 11350
41497 31505 10355 20284 40115 57015 70200 83160
22283 00290 20301 304// 41002 80300=
VRVS5   28064 99360 11689
41798 83215 10180 2013/ 40210 54000 70222 8865/
22223 00200 20302 326// 40503 80150=
47003 41580 83204 10214 20126 39961 49965 54000 70262 85571=
47005 42680 73607 10131 20003 38580 52014 84022=
47028 42972 00901 10274 20030 39958 40039 53005=
47031 42570 63409 10158 20061 84502=
47037 42970 13206 10274 20000 39925 40038 52011 81032=
47039 42560 53603 10262 20133 39862 40037 52002 82101=
47046 41969 61802 10212 20177 39972 49994 52029 70262 83032=
47050 42965 00205 10261 20097 39995 40026 52008=
47052 42565 12903 10237 20061 39714 40026 52015 81500=
47060 42970 03205 10239 20118 39993 40047 52002=
47061 42680 83402 10215 20123 39962 40003 52026 885//=
47065 42965 03209 10248 20127 39978 40038 54000=
47067 42565 22907 10251 20099 39908 40018 57006 82500=
47068 42970 03206 10250 20062 30017 40049 52007=
47070 42570 22909 10255 20105 39945 40026 57002 82200=
47075 42580 53205 10212 20120 39623 40021 52007 85500=
98223 31565 63202 10325 20281 40082 58012 70544 83906 333
56999 83920 84080=
98325 31462 33603 10306 20267 40062 58021 70544 83370 333
56999 83916 98308=
98328 11458 63403 10206 20183 38499 40066 58013 69901 74694
84901 333 56999 84912 83079=
98429 11559 63204 10320 20246 40076 57021 6///1 70564 83930
333 56999 81922 82823 84360=
98440 32475 60905 10324 20280 40064 57022 84901 333 56229
81915 84816=
98444 32468 40503 10324 20265 40068 57022 82302 333 56999
81918 84070=
98543 32475 61202 10340 20272 40057 58019 82201 333 56999
82818 85075=
98550 31460 71603 10326 20283 40070 57019 71544 83908 333
56999 83915 87272=
98618 11470 83404 10305 20260 40067 56017 69901 78084 82977
333 56999 81917 82819 85458 88273=
98630 31470 80000 10310 20266 40063 57021 71522 863// 222//
20000 333 56999 86918 88459=
98637 31470 71202 10315 20249 40065 57002 70544 83371 333
56999 83912 85358=
98755 31570 80902 10304 20260 40069 58019 70522 81207 333
56999 81820 88278=
98836 31565 82502 10300 20254 40079 57016 70544 8327/ 333
56999 83820 88362=
02548 36/// ///// 1//// 2//// 38672 40155 57014
555 1//// 2//// 3//// 40001 50000 60/// 7//// 80000
9//// ///// 1/019 2//00 30000=
44207 32999 83605 10125 20041 38234 40017 58013 8807/=
44214 32698 62306 10140 20021 38210 40034 58002 82582=
44231 32699 72301 10223 20038 38593 49953 58021 83330=
44232 32999 70907 10236 20077 38964 49977 57018 87010=
44239 32699 83402 10229 20058 38665 49941 58013 8317/=
44241 32999 70503 10263 20092 39103 49971 57015 85041=
44259 32998 83605 10258 20023 39167 49980 57025 86050=
44272 41595 82006 10150 20023 38121 49962 57007 79593 883//
333 96030 91214=
44277 31599 62712 10132 20084 37758 40016 57003 71791 85740
333 91214=
44282 32699 72707 10213 21082 38197 49954 57018 85210=
44287 31598 72307 10212 20046 38055 49965 57022 70542 85540=
44292 32699 62307 10266 20017 38579 49939 57020 84470 333
91112=
44294 32698 72710 10248 20084 38464 49942 57009 87800=
44298 32599 52714 10280 21064 38611 49942 57013 83207 333
91011 91116 91212=
44304 32599 62712 10299 2//// 38844 49915 58033 83944 333
91114=
44305 32999 32712 10232 20093 38918 49964 57031 80008 333
91218 91124=
44314 32598 52710 10266 21082 39005 49983 57021 86340 333
91014=
44341 32599 62513 10264 21002 38523 49973 58016 82142 333
91015 91119 1219/=
44347 32999 22310 10266 20067 38625 49974 58022 80002 333
91014=
44354 32599 62505 10296 20051 39001 49968 57026 84104=
44358 32998 22507 10286 20073 38992 40013 57030 80004=
44373 32999 32510 10249 20004 38462 49986 57023 82084 333
91012 91214=
28661 12599 32008 10195 20118 40042 58001 60090 83100 333
20094=
28679 11597 82905 10140 20132 40003 54000 69900 78082 889//
333 20117=
28879 11497 82606 10141 20114 40018 52009 60042 70282 889//
333 20129 83713=
28952 12698 23207 10207 20056 40078 52003 69900 82100 333
20121=
29023 42498 81802 10228 20107 40013 57006 82302=
29122 42999 70702 10227 20112 40003 57014 80002=
29807 12597 62307 10174 20113 40010 54000 60080 86300 333
20152=
30230 42599 80000 10110 21019 40109 57006 85931=
30309 42998 21703 10152 21047 40077 57018 80001=
30385 41599 80000 10125 20025 49988 53008 70282 84900=
30650 42999 13202 10152 21067 40025 57008 80001=
30710 42960 81904 10148 20030 40075 58003 86031=
31532 42599 62301 10255 21002 49918 57033 86901=
31829 41596 80416 10075 20072 49923 57032 78082 8592/ 333
91018 91124=
31989 41599 89903 10171 20117 49887 53006 70264 8515/=
35078 32798 62709 10178 20092 40040 52003 85201 333 20102=
35108 32997 72904 10234 20126 40160 52003 80003 333 20139=
35188 11598 72607 10158 20105 40042 57003 60040 87900 333
20121=
35229 32698 32902 10231 20092 40135 53001 81101 333 20089=
35394 11597 82604 10117 20093 40079 53006 60020 78082 889//
333 20136 87921=
35416 32697 23602 10236 20113 81201 333 20148=
35671 12698 33404 10207 20088 40087 58006 69990 83500 333
20167=
35746 12999 23606 10256 20113 40106 52006 69900 80002 333
20178=
35796 32999 61903 10218 20127 40080 57013 80001 333 20126=
36003 11498 82306 10224 20138 40029 57013 69990 70282 889//
333 20144=
36859 32999 01504 10252 20038 40067 58020 333 20099=
36870 32998 10401 10231 20094 40036 57018 80001 333 20113=
38198 32999 20000 10313 20055 80001 333 20183=
38341 32999 63203 10256 20099 40032 57008 80002 333 20120=
44288 32699 62707 10230 20038 38098 49951 52022 86540=
44212 32599 73601 10211 20055 38980 40009 58009 86540=
44218 41698 82305 10173 20039 38486 49996 57004 76602 84820=
44285 32699 72307 10225 20041 38240 49956 57020 83580=
52267 32980 31603 10290 21056 38999 40022 57021 80002 333//
05501 20143=
53502 32980 40702 10280 21069 40057 57026 80002 333// 05403
20108=
55228 32780 42503 10124 21120 36059 57011 84900 333 00201
20007=
55279 32680 33207 10079 21092 35739 57007 82902 333 00103
21009=
55299 11680 72503 10083 20003 35878 57010 69901 79600 879//
333// 00101 21002=
55472 32780 62703 10085 21061 35774 57005 82202 333 00102
21007=
55578 32780 70000 10149 20053 36369 57022 86402 333// 00353
20045=
55591 11780 71102 10153 20044 36532 57012 69901 70080 83202
333 00401 20093=
55664 32880 52706 10151 20001 36011 57015 85200 333// 00152
20033=
55696 70903 10150 20045 36346 57013 69901 72580 87902 333
00251 20000=
55773 11570 71108 10077 20033 36025 57001 69901 78000 87200
333// 00503 20041=
56106 32780 20000 10126 20014 36224 57017 82100 333 00106
20043=
56137 11680 71602 10162 20064 36813 57023 69921 70060 82102
333// 00756 20075=
56312 32580 72701 10161 20077 37072 57020 874// 333 00300
20075=
44217 32698 50000 10095 20058 37843 40106 58010 83243=
44317 32598 32510 10274 20023 38830 49972 58023 84020 333
91214=
22550 11497 82904 10100 20076 40084 52025 60040 70282 885//
333 20084=
22768 12697 82706 10114 20043 40106 52013 69900 889// 333
20100=
22845 32698 83203 10148 20050 40131 52004 85101 333 20077=
26063 32497 71501 10158 20076 40116 57025 87500 333 20087=
26298 32998 61805 10182 20051 40168 58005 83081 333 20086=
26477 11663 81501 10136 20123 40157 57002 60062 72998 883//
333 20102 88941=
26702 11996 30000 10136 20104 40162 54000 60032 71011 83030
333 20105=
26850 32665 21803 10211 20134 40161 53003 82100 333 20159=
26997 32973 01501 10186 20090 40215 52004 333 20103=
27595 32997 63308 10174 20055 40145 51002 80001 333 20126=
27612 32997 02601 10192 20089 40202 58001 333 20090=
27947 32997 00000 10200 20099 40199 52005 333 20131=
27962 32997 43404 10217 20106 40176 52004 80001 333 20134=
33008 32962 00000 10207 20136 40150 52007 333 20166=
34009 32968 00501 10196 20085 40186 58006 333 20138=
34172 32970 42904 10236 20132 40179 50002 80001 333 20191=
34247 32969 00000 10229 20120 40196 52002 333 20105=
34391 32997 33603 10261 20111 40172 57001 80001 333 20133=
37054 12698 60803 10178 20147 40185 52007 60010 86500 333
20141=
VRVY5   28063 99149 11266 41498 81015 10320 20267 40090 54000 70222
885// 22274 00310 20403 308// 40503 80280=
VRWB7   28064 99020 11048 41598 22715 10300 20253 40090 54000 70211
822// 22245 00310 20403 323// 40504 80265=
ZCBO6   28064 99289 30397 43498 42214 10230 20207 40105 54000 /////
8//// 22223 00240 20303 30303 4//// 80220=
44203 32599 71609 10156 20017 38304 49987 57009 87800=
44213 41699 70000 10195 20129 38662 49979 58011 70262 87230=
44215 32698 70505 10149 20055 38310 40000 5808/ 86580=
44225 32598 72908 10142 20034 38170 49997 58018 83330=
44230 32598 71801 10230 20073 38665 49969 57019 83378=
44237 32599 72001 10224 20092 38371 49937 57023 85540=
44256 32599 62905 10214 20093 39199 49978 58027 84212=
44265 32699 62703 10144 20082 38787 40105 58010 86200=
44275 32698 63201 10181 20067 37667 49935 57023 86200=
44302 32699 63605 10255 21025 38971 49970 57012 82243=
44313 32699 83404 10239 21012 39229 49985 57022 8217/=
44336 32999 62709 10270 21007 38595 40977 57030 80003=
23074 42998 21405 10076 21025 40122 57003 80002=
23711 12598 61803 10136 20062 40054 57012 60020 83530 333
20086=
23804 11598 82803 10129 20067 40073 58005 69960 70282 8583/
333 20088 84832=
24125 42999 60106 10073 21014 40108 57002 80001=
24143 42999 63607 10036 21005 40045 57003 86200=
24343 42799 50304 10099 21014 40027 57002 81132=
24738 41599 83403 10108 20051 40052 52002 70282 8693/ 333
85931=
24951 42599 80901 10174 20021 49966 56004 86331=
24959 41598 81303 10115 20085 49987 57001 78082 8693/=
24966 41599 71403 10128 20074 49972 57002 70282 84931=
29313 42498 81505 10246 20081 49990 57014 885// 333 88618=
29612 41498 81207 10155 20100 40009 57014 70282 883// 333
88711=
29698 42698 61002 10205 20080 40053 57016 82242=
30758 42699 23407 10190 21078 40010 57011 81101=
32027 41598 81601 10120 20097 40022 57015 78082 889// 333
88924=
32411 42499 83104 10045 20016 40149 52010 8805/=
35406 32997 00000 10245 20114 40198 52004 333 20147=
38062 32999 63006 10288 20070 80004 333 20181=
38232 32998 10000 10287 20106 40094 52005 80002=
38388 32998 00000 10324 20032 40083 58003 333 20125=
38413 42998 00403 10317 20068 40063 52002 333 20192=
38457 32598 70000 10306 20064 40024 54000 81581 333 20167=
38507 32998 20000 10253 20148 40083 52004 80001 333 20168=
38545 32998 20305 10320 20139 40062 53020 82050 333 20173=
38656 32998 02503 10308 20060 40068 52005 333 20212=
38687 32997 20206 10321 20070 40041 52010 81031 333 20165=
38880 32997 60202 10302 20107 40089 52005 80001 333 20216=
38895 32997 32902 10315 20145 4//// 5//// 80001 333 20213=
38927 32797 70303 10352 20029 40006 53000 87900 333 20200
85950=
38974 32997 03407 10316 20021 40049 52011 333 20231=
20046 32881 72202 11033 21068 40212 54000 8705/ 333 21068=
20069 42476 73604 11049 21073 40210 52004 8653/ 333 86618=
20087 41873 83603 11045 21068 40196 53001 70272 8807/=
20292 42480 70902 10005 21012 40194 54000 875// 333 87610=
20667 11496 80806 11004 21013 40143 57001 60020 71082 885//
333   21042 91108=
20674 42480 70905 11015 21056 40137 57005 875// 333 87612=
20744 32998 30410 11009 21055 40173 52012 83030 333   21026 91116=
20891 42597 23505 10018 21010 40172 57006 82500=
23022 11296 80308 11011 21018 40084 53002 69900 71022 886//
333   21020 88705 91111=
23032 12467 81602 11003 21018 40062 57004 69900 885// 333   21018
88614 91104 80007=
29328 42598 61807 10254 20076 40017 57012 84901=
29348 42597 42503 10268 20092 40029 57010 84200=
29405 41496 81403 10146 20137 49992 57015 78082 8637/
333 86913=
29937 42998 62304 10222 20132 40070 58012 80001=
98135 31470 71402 10315 20273 40088 58015 70544 83202 333
56399 83816 87073=
98232 31570 50405 10321 20269 40094 57019 70544 82301 333
56999 82920 83075=
98329 11475 50901 10306 20255 40066 5/024 60041 71798 83962
333 56999 83918=
48325 32565 60000 10325 20233 39827 40062 85806
333 59003 70002=
48352 32568 30401 10344 20250 39856 40048 80205
333 59003=
48357 32560 60000 10324 20246 39891 40055 83206
333 58003=
48403 32560 32302 10331 20228 39846 40050 82205
333 59010=
48405 32563 32003 10335 20243 39895 40066 82205
333 58016=
48425 32562 41801 10345 20238 30046 40056 83205
333 59005 70026=
48430 32562 40000 10340 20248 30055 40063 82963
333 59005=
48450 32560 32402 10346 20231 30024 40056 82205
333 59011 70100=
48550 32562 42603 10330 20245 30075 40081 82245
333 58002=
48551 32560 62402 10335 20243 30070 40078 85206
333 59003=
48565 32560 62502 10304 20258 30079 40090 82346
333 58002 70091=
48568 32463 20000 10335 20252 30070 40078 81201
333 59003=
48569 32562 52202 10331 20240 30037 40077 83201
333 58000=
96011 32458 71205 10300 20242 30075 40098 57009 84332
333 56000 57803 82818 82619 80860=
96035 01457 72003 10295 20226 30061 40093 57016 69901 70562 85678
333 56000 69907 85618=
96073 32560 70000 10302 20248 30076 40083 57014 83222
333 56000 57801 83820 80860=
96109 31460 70000 10310 20242 30040 40079 56023 85205
333 56000 57845 85813 80817=
96145 32470 31403 10340 20230 30075 40080 56014 82201
333 56400 57843 82817 80859=
96163 32568 22304 10308 20243 30079 40086 57020 82200
333 56000 57802 82820 80858=
96237 32465 70902 10315 20245 30033 40074 57025 84232
333 56000 57802 84817 80858=
96739 31560 41302 10318 20231 30054 40080 57021 70510 82131
333 56000 82820=
22113 11482 80705 10025 20012 40115 51019 69902 72052 886//
333 20015 41998 91008=
22271 31480 70607 10007 21010 40079 52027 70242 87500 333
20004=
22820 32599 72201 10141 20051 40132 51001 82532 333 20076=
22887 11570 72805 10128 20034 40093 52003 69900 70282 8655/
333 20094 86624=
26781 32497 62202 10173 20099 40198 53004 85930 333 20077
85914=
27037 32972 22704 10167 20046 40157 54000 80002 333 20061=
33345 32998 11901 10222 20172 40202 52005 81030 333 20168=
33658 32997 20902 10206 20124 40178 52009 82030 333 20152=
33791 32997 00803 10248 20148 40194 50004 333 20172=
33837 32998 20301 10234 20118 40197 52005 82030 333 20178=
33946 32697 10605 10234 20111 40185 52004 81400 333 20134=
34300 32997 00000 10232 20152 40202 51004 333 20148=
34560 32962 30000 10244 20104 40197 52004 83001 333 20156=
34691 32998 02701 10259 20067 40182 5/008 333 20131=
34866 32998 20601 10255 20125 40192 52004 80001 333 20153=
34880 32997 20202 10235 20119 40185 52009 333 20151=
37472 11598 82803 10199 20150 40172 52012 69900 72882 889//
333 20181=
48327 32665 40000 10315 20226 39703 40049 83205 333 59001
70013=
48331 32565 31501 10323 20255 39831 40055 82341 333 59002
70524=
48353 32565 31802 10335 20226 39783 40063 82201 333 58013=
48356 31562 81001 10312 20245 39866 40058 71721 82966 333
58007=
48375 32560 60000 10309 20246 39835 40055 84946 333 59003
70004=
48378 32562 52002 10338 20243 30005 40056 83805 333 59003=
48381 32564 21803 10335 20243 39839 40055 82100 333 59001=
48407 31559 62103 10333 20233 39919 40059 70521 83246 333
58003=
48431 32562 60000 10341 20241 39848 40054 83205 333 59004=
48432 32562 50000 10332 20236 39893 40056 82206 333 59006=
48455 32565 52902 10332 20247 30059 40063 85261 333 59008
70004=
48456 32560 52304 10337 20247 30051 40064 83805 333 59007
79999=
48480 31560 50000 10330 20253 30065 40069 70222 84805 333
59009 79999=
48500 32568 41503 10310 20267 30060 40066 82245 333 59003
70029=
24266 42699 73503 10061 21018 40079 54000 875// 333 87634=
24329 42599 62903 10102 20027 40074 57005 86900=
24382 42698 82603 10079 21019 40110 57005 84531=
24507 80203 10102 21009 40112 57009 78082 889//=
24671 42699 60401 10149 20050 49990 58016 86801=
24688 41699 71903 10138 21019 40021 54000 71522 85931 333
85939=
24817 42699 73203 10121 21014 40089 58004 86941=
24908 42682 40901 10110 21038 40106 57012 84100=
24944 41699 73005 10139 20051 49989 56001 70292 86901=
29594 42999 82402 10186 21022 40066 57015 80001=
29634 42657 82206 10242 20098 40041 57013 82101=
29676 42699 73101 10202 20071 40048 57016 82201=
30054 41598 72101 10112 20002 40084 57001 70281 85901=
30433 42699 21803 10112 21041 40095 58006 82500=
30469 42699 73405 10097 21071 40017 53002 85942=
30554 42698 43305 10123 21094 40034 58004 84100=
30603 42698 81702 10185 21011 40064 57008 83201=
30612 42699 80902 10184 20009 40072 57008 82207=
30635 42899 31503 10131 20030 40082 58009 82031=
30692 42699 82908 10163 20019 49971 53004 883// 333 91012=
30802 42799 80304 10153 20051 38600 48403 57018 82530=
30925 42899 83506 10193 20065 40032 52002 82031=
35700 32998 00507 10254 20089 40156 52003 333 20130=
35925 32998 60505 10245 20094 40117 52002 86080 333 20213=
36034 42998 81905 10224 20092 40068 57015 85052=
36061 42599 80902 10189 20121 40087 58008 84289=
36982 42699 62603 10052 21090 36510 47060 58010 86100 333
21040=
38353 42998 50401 10254 20137 40008 57015 80004 333 20112=
38392 32998 20304 10332 20056 40081 52007 82060 333 20176=
38613 42999 72101 10284 20082 40034 54000 86042 333 20170=
38696 32999 81102 10273 20099 40017 53006 85073 333 20169=
38750 32597 62608 10229 20183 40112 52013 86500 333 20212=
ZCAA 28064 99060 11267 41298 72109 10280 20250 40085 54000 70222
8746/ 22213 00/// 20401 80260=
DGRF 28064 99463 71433 41398 60110 00099 80048 10074 40240 52020
70322 8329/ 22275 20501=
KGTH 28064 99489 71286 41398 72810 10105 2010/ 40110 52035 7022/
85/// 22234 20302 322// 40806 80010=
VRVY5 28063 99149 11266 41498 81015 10320 20267 40090 54000 70222
885// 22274 00310 20403 308// 40503 80280=
VRWB7 28064 99020 11048 41598 22715 10300 20253 40090 54000 70211
822// 22245 00310 20403 323// 40504 80265=
ZCBO6 28064 99289 30397 43498 42214 10230 20207 40105 54000 /////
8//// 22223 00240 20303 30303 4//// 80220=
ZCB2 28063 99264 30586 42398 70804 10240 20209 40195 51008 70211
87860 22263 00240 20802 321// 40603 80220=
VRVN6 28064 99245 11301 41498 52015 10280 20253 40107 54000 70220
83155 22265 00280 20404 304// 40504 80260=
ELUB5 28063 99030 11082 41398 30902 10340 20286 40186 50010 70100
83261 22213 02300 2//// 3//// 4//// 5//// 6//// 80300=
9VVK 28064 99223 11265 41698 31113 00/// 10300 2025/ 40110 54000
70211 82040 22265 00280 20101 311// 40602 5//// 6//// 80260 /////=
D5BC 28064 99322 11350 41497 82519 10240 2021/ 40030 56005 70222
887// 22260 00212 20402 324// 40604 80220=
WTEJ 28064 99435 71250 41598 52310 10131 2011/ 40180 50003 7012/
83231 22281 00141 20202 326// 40404 5//// 6//// 80123 ICE=
3FHN6 28061 99035 11097 41498 32502 10335 20290 40079 58020 70300
82290 22223 02345 20402 323// 40301 80300=
UAGJ 28064 99381 31492 41497 82732 10090 2009/ 49972 57021 72122
887// 22252 00180 20706 80090=
3FWM4 28064 99410 11520 41398 81620 10180 20165 40110 57030 70122
885// 90600 22214 00190 20201 31514 40201 80170=
JDSS 28064 99313 11610 41697 60703 10201 20145 40203 57008 70222
82246 22283 00220 20000 335// 40504=
JFOY 28064 99225 11350 41497 31505 10355 20284 40115 57015 70200
83160 22283 00290 20301 304// 41002 80300=
VRVS5 28064 99360 11689 41798 83215 10180 2013/ 40210 54000 70222
8865/ 22223 00200 20302 326// 40503 80150=
JMMU 28064 99352 71367 41597 81307 10148 20126 40246 52014 70282
8282/ 22223 02151 80135=
SHIP 28064 99289 11349 46/// ///18 10238 20231 40077 57010 8////
22200 06225 10704 70018 80233=
9KWK 28063 99234 31044 42598 52214 10230 20165 40144 51011 70322
85442 22233 00200 20504 32021 40504 50403 80190=
SHIP 28061 99289 70785 46/// /1907 10264 40166 90620 22200 00265
10801 70007
333 91208=
SHIP 28061 99606 71468 46/// /3005 10107 40095 90620 22200 00099
11701 70003
333 91205=
SHIP 28064 99281 11263 46/// /3407 10212 20174 40114 57004 8////
22200 06249 10702 70011 80187=
9KWH 28063 99118 30942 41398 61309 10280 20251 40092 58010 70322
84398 22274 00260 80260=
VRVN6   28064 99245 11301 41498 52015 10280 20253 40107 54000 70220
83155 22265 00280 20404 304// 40504 80260=
02186 11563 70803 10058 20051 30015 40041 58028 69982 76162
875// 333 20054 31/// 87630=
02226 11688 71603 10075 20049 39520 49965 55005 60042 71462
875// 333 20062 31/// 87633=
02464 46/// /2003 10116 20065 30082 40099 53005 333 20083=
02836 32380 80802 10034 20020 40089 57008 70222 886// 333
10052 20029 30003=
02935 47556 81602 10084 20075 40080 57006 75266 88/// 90550
333 10137 20029=
03005 11470 83510 10076 20045 49941 53024 60062 70262 885//
333 20076 31007 82712 87625 90710 91128=
03772 11363 82906 10073 20061 49941 55003 60152 76566 885//
333 20073 32007 83706 86710 87628 90710 91125 91306 90605
91313=
03917 11040 21701 10054 20043 40001 52010 69902 74011 82801
333 20021 30101 81700=
03953 11575 72704 10099 20060 30001 40037 53006 60042 78082
873// 333 20068 31004 55086 87925 92438=
04018 42585 50108 10047 20022 40089 54000 81146 333 81825
85065=
04077 41250 83606 10019 20006 40104 52001 76166 886//=
04320 32989 11301 11028 21075 30141 40156 52011 80002 333
11010 21051 91214=
04360 32989 60000 11012 21019 30066 40131 56004 83048 333
10055 21012=
06610 35970 83202 10099 20084 39553 40130 57003 8807/ 333
20073 31/// 55038 88362=
07149 01568 62610 10117 20072 39935 40042 53030 60022 70162
84831 333 10159 20108 31/// 69907 70016 83820 83640 91141=
07510 06/// /2506 10149 20141 30059 40131 53011 60052 333
10181 20130 3/012 55079 60027 70050 91127=
07650 32467 71303 10169 20134 30119 40157 53008 81872 333
10225 20150 30010 55091 70010 81813 85360 87073=
07761 32570 51401 10188 20139 30157 40168 50007 85800 333
10204 20172 30017 55060 70000 81820 84621 95060=
08509 32461 32301 10148 20128 30179 40244 56007 83500 333
20137 55122 81712=
10385 32981 61502 10112 20078 30071 40132 58011 80006 333
10149 20072 30005 55055 55310 70009 86276=
10637 32780 72101 10123 20076 39947 40082 56027 82571 333
10165 20096 30007 55062 55300 79999 82650 85360 86363=
10870 12681 41002 10119 20084 39602 40124 56014 69902 70261
81131 333 10123 20095 31008 55017 55310 70008 81838 84075=
16560 31456 33303 10176 20154 30161 40168 53008 71011 83600
90545 333 20156 31015 55000 20529 55300 83710=
17609 32982 11604 10249 20145 30123 40125 52015 80001 333
20190 50921 55135 81075=
12330 11356 71201 10123 20111 30052 40158 58009 69972 71022
8453/ 333 10122 20089 32008 55109 70194=
12375 11357 83502 10142 20133 30041 40169 51004 69942 71098
876// 333 10258 20130 31013 55122 70004 87708=
12843 32975 10802 10204 20138 39980 40142 58002 81080 333
20163 55138=
13272 32980 01407 10248 20138 30028 40141 52011 333 20202
30016 51136=
23256 32999 81103 10089 21002 40069 57004 8807/ 333 20021=
23274 42998 31305 10115 20000 40105 57005 82031=
23330 32998 81102 10153 20077 40023 57008 86031 333 20073=
23383 42999 30202 10062 21054 40137 57003 81031=
23472 42999 60805 10117 21014 40097 57006 80001=
23552 32997 20502 10155 20017 40055 57003 333 20057=
23631 32999 61705 10204 20076 40028 57014 80001 333 20046=
23678 42598 70604 10142 20000 40057 57011 86520=
23734 32598 21801 10194 20059 40034 57001 82200 333 20092=
23849 42596 60405 10182 20109 40014 57006 86500 333 86628=
23884 41584 51604 10144 20065 40053 57010 70282 83201=
23891 42698 61602 10134 20002 40084 57018 86200=
23933 32597 30103 10177 20119 40033 57010 83200 333 20123=
23966 42597 81501 10201 20107 40027 57003 82932=
28275 11599 80303 10165 20121 40014 58005 69950 70282 8433/
333 20136=
28382 11598 73404 10155 20137 49979 57009 60040 70282 87500
333 20135 87630=
28493 11398 81302 10145 20138 49970 57016 60030 78082 889//
333 20140 86707=
28573 11358 83204 10143 20125 49993 53001 60260 76162 8772/
333 20126 87709=
28698 11498 72302 10183 20143 49958 57014 60090 70298 87900
333 20144=
28722 32997 62304 10221 20111 40105 57007 82031 333 20128=
28786 11497 82402 10148 20133 49975 57005 60020 76164 8672/
333 20125 86714=
29253 42999 73202 10250 20062 49994 57039 80001=
29263 41699 70703 10138 20045 40045 58031 70282 82131=
29282 42598 20000 10151 20004 40080 57011 889//=
29430 42598 51802 10257 20118 40033 57013 85200=
35067 11598 6//// 10192 20086 40059 58002 69950 70362 83302=
35121 32998 52603 10233 20125 40139 58003 80002 333 20119=
38763 32998 02308 10289 20150 40077 52003 333 20246=
38911 32998 23103 10344 21036 40019 52015 82032 333 20199=
38987 32999 03101 10308 21033 40046 52019 333 20190=
06011 32581 83207 10046 20014 39932 40000 57002 885// 333
10089 20042 30/// 88621=
06180 12781 71706 10117 20097 30102 40108 57003 69942 81556
333 10123 20084 31008 81656 85361 87270=
07110 01570 42904 10093 20060 39972 40087 53030 60202 70186
83230 333 10126 20080 32006 55026 69907 70296 83826=
08001 11220 82403 10154 20147 30065 40145 53012 60102 75865
8572/ 333 20144 50314 55013 92433=
08221 32660 52003 10142 20056 39507 40180 53002 81531 333
20132 55102=
08306 32470 70000 10156 20138 30170 40176 56002 85831 333
20122 55043=
08495 32980 32305 10188 20119 40194 53007 80002 333 20181
30017 83075=
08589 32470 20505 10204 20163 40140 82500 333 20189 82610=
08594 31459 60206 10210 20159 40137 70622 865// 333 20205
59013 86613=
10338 11782 71303 10114 20049 39994 40065 58038 69902 76011
8352/ 333 10144 20084 31004 55053 55300 70001 83650 87460=
16242 31440 60701 10189 20175 30150 40153 54000 71000 83230
333 20162 83818 84358=
16320 31560 60000 10210 20158 30130 40142 54000 70222 82530
90545 333 20202 30020 55110 22620 55304 82630 86359=
16420 12597 63403 10214 20169 30080 40143 51004 69922 82170
90545 333 20204 31/// 55015 20962 55300 82825 85359=
16597 11560 60307 10211 20177 30052 40137 52017 69902 70161
85501 333 20198 30018 79999 84625 83642=
17060 32960 03605 10200 20160 40170 52008 333 20162 30013=
17128 32970 00000 10147 20088 39100 40165 52008 333 20078
31004 50401 55080 70008=
17170 32670 12703 10152 20061 38331 48494 52015 81100 333
20057 30004 81835 10107=
17200 32670 10902 10210 20117 39178 40113 52011 81100 333
20140 30013 81840=
11518 11482 71204 10111 20074 39705 40137 57022 69902 72162
8157/ 333 20097 31009 70134 81618 87359=
15420 36960 00802 10213 20116 30079 40185 52008 333 20106
30011 91002 91202=
21908 42999 30404 10105 21014 40127 54000 80002=
24982 41599 80000 10072 20065 40085 53013 72582 889//=
25325 42599 20305 10086 21074 40136 52007 82100=
28255 32999 03003 10212 20124 40041 57012 333 20098=
28642 42597 73005 10220 20100 40070 56008 82331 333 20108
83826=
29557 42698 72202 10235 20080 40050 57011 87200=
29846 42597 31603 10208 20129 40072 58005 83500=
30777 42699 32809 10172 21107 49998 57012 83100 333 91115=
31174 41998 00607 10118 20028 40028 57017 70240=
31263 42599 82003 10155 20012 49965 57009 85964=
31624 42999 20000 10278 20013 49920 57024 80001=
31832 41465 83603 10166 20121 49935 57019 70262 8552/=
31913 42999 60506 10205 20093 49948 57017 80003=
36087 42699 53103 10218 20076 40151 58001 82102 333 95000=
36096 42699 60503 10231 20048 49989 58018 85901 333 95000=
36103 42699 73204 10186 20041 40010 57022 87901 333 95000=
36259 41599 62202 10125 20046 38168 48427 58009 71582 85902=
36307 42599 53602 10209 20040 38812 48409 54000 85901 333
85928 95000=
36974 32998 12701 10208 20017 37941 48449 57011 333 20075=
91165 32566 20506 10244 20194 30132 40184 53011 90553 333
10278 20233=
91245 32566 40605 10280 20260 30134 90550=
91285 32666 40000 10233 20194 30169 40181 53013 90553 333
10272 20211=
91334 11472 84953 10289 20262 30081 40084 56010 69981 71682
83371 333 56999 70094=
91348 11474 81306 10278 20243 30037 40089 55005 69951 72582
84271 333 56329 70084=
91356 11474 60407 10282 20246 30076 40083 55000 60041 71682
84275 333 56299 70036 84816=
91366 11474 20707 10287 20239 30073 40082 55003 69901 71581
81271 333 56135 70000=
91376 12474 80704 10278 20248 30084 40088 55005 69951 8/878
90550 333 10300 20261=
91408 11474 61408 10303 20246 30046 40084 56017 69901 70281
84101 333 563/9 70117=
91413 32469 61005 10304 20251 30064 40083 57019 83201 333
562/9 70043=
98526 31570 80000 10309 20257 40052 57028 70242 8327/ 333
56999 83820 88359 98315=
98748 31470 73401 10325 20/// 40057 57026 70544 83908 333
56999 81917 82818 87275=
48820 32598 72701 10310 20267 30036 40044 57021 84208 333
58025 84895 87299=
48826 32598 61403 10322 20296 39914 40039 58018 862// 333
58024 86895=
48838 32598 71402 10310 20270 30055 40061 57012 879// 333
58030 82895 85995=
48839 32998 61808 10303 20268 39988 40051 57012 80008 222//
2//03 333 58022 86299=
48845 32598 70503 10349 20231 30034 40041 57016 82908 333
58013 82995 86299=
48848 32570 60504 10354 20267 30049 40057 57012 82208 333
58022 82895 86299=
48855 32570 70701 10325 20250 30044 40052 57018 81206 333
58010 81895 87299=
48870 32498 32001 10334 20288 30048 40055 57024 81201 333
58005 81895=
48877 32598 60704 10328 20275 30046 40061 57025 82808 333
58002 82895 86299=
48887 32570 61805 10308 20268 30061 40067 57019 82908 333
58009 81895 82996 86299=
48900 32497 62604 10323 20274 30058 40068 57025 83208 333
59002 83894 85299=
48914 32598 72704 10325 20252 30081 40083 57020 86201 333
58004 86895=
48917 32598 72904 10300 20238 30072 40077 57013 81208 222//
00317 2//00 333 58006 81895 87299=
48918 32470 72703 10310 20251 30069 40080 57019 82908 222//
00306 2//01 333 59004 81894 82995 87299=
15614 31997 00000 10180 20115 39497 40174 52005 70200 333
20124 50562 55141=
30393 42599 83003 10082 21033 49935 52011 86901 333 96926=
21802 42999 50903 10019 21018 40181 52002 85030=
30879 41699 27007 10172 20029 49983 57003 70330 82100=
SHIP 28064 99245 11391 41498 52015 10280 20253 40107 54000 70220
83155 22265 00280 20404 304// 40504 80260=
VRRB 28064 99396 31574 41498 72630 10125 20055 40998 58009 71822
877// 22263 00162 20605 328// 40807 80092=
PDLF 28060 99218 30992 41198 22704 10240 20146 40150 57008 70132
82331 22273 00230 20201 32621 40503 80180=
DDAD 28061 99424 11508 41/91 91618 10113 20108 40058 57007 72844
89/// 22225 20304 30000 80110=
PGDM 28060 99074 10726 41598 72605 10302 20232 40100 57010 7////
8217/ 22225 00294 20201 329// 40704 80251=
PCSS 28060 99059 10875 41498 52011 10294 20255 40090 57014 7////
84261 22265 00286 20304 323// 40405 80265=
VWLF 28063 99138 10937 41897 32018 10305 20234 40065 52006 70200
81031 22233 00/// 2////=
PJKP 28064 99232 71165 41797 21604 10200 20161 40125 52020 7010/
82/// 22223 02200 2//// 330// 41508 80175=
V7AG 28063 99050 10862 41398 62319 10275 20246 40108 51030 70301
84271 22223 02290 20406 327// 40506 80255=
A3CA 28063 99048 11278 41298 62410 10285 20249 40043 55010 70322
84593 22263 00320=
DNMR 28060 99305 71269 41597 83209 10175 20175 40200 51010 70222
884// 22254 00193=
3EGR6 28063 99182 11135 41598 62014 10320 20272 40080 54000 703//
83246 22283 00285 20201 320// 40402=
4XGS 28064 99257 11691 43498 40810 10270 20260 40210 54000 7////
821/1 22264 00270 20501 308// 40502 5//// 80250=
VTST 28064 99363 31508 41597 73035 10130 20074 40014 56004 70211
82331 22212=
9KEB 28063 99105 30921 41498 61304 10280 20236 40114 58000 70222
868/3 22233 00300 20402 316// 40502 5//// 80250=
SHIP 28064 99151 31077 41/97 61218 10270 40113 70322 222// 00289
20101 311// 40303=
91353 32472 60502 10294 20257 30064 40069 56010 84270=
48601 31462 72804 10307 20245 30089 40093 70522 82942 333 81917
87078=
48615 31470 70703 10322 20244 30076 40082 70522 84132 333 84818
87074=
48620 31570 72103 10313 20248 30084 40093 70522 84142 333 84820
86078=
48647 11467 73501 10305 20241 30067 40092 69991 70562 81142 333
81818 87078=
48657 31570 72404 10327 20236 30065 40083 70522 84241 333 84820
86078=
48665 31472 72704 10313 20241 30080 40090 70522 83942 333 81916
83821 85080=
96001 32560 72403 10272 20240 39972 40110 56018 84572
333 56000 84620=
96033 11459 70602 10294 20256 30088 40095 52004 69901 70262 83976
333 56000 57902 81920 83817 80980 80860=
96075 11462 61502 10306 20251 30083 40094 57014 69901 70262 84971
333 56000 57902 81917 83818 80965=
96171 32462 63302 10320 20233 30055 40080 57025 85211
333 56000 57801 85816 80850=
96179 11460 51804 10308 20247 30062 40099 57024 69901 70296 83201
333 56000 57803 83817 80850=
96221 31560 42302 10316 20235 30082 40097 57022 84101
333 56409 81818=
96249 32562 60000 10323 20231 30014 40073 57024 83232
333 56000 57801 84820 80863=
96253 32464 62704 10302 20253 30062 40082 57012 83932
333 56000 57900 81915 83080=
96295 32462 40903 10328 20225 30001 40102 51022 82202
333 56000 57801 84815 80861=
96413 31465 73204 10335 20247 30045 40070 71522 85941 333 81915
85826 86080=
96421 32480 72203 10334 20233 30037 40072 87963 333 81915 86818
86080=
96441 32480 73204 10302 20245 30070 40075 84931 333 81915 83816
85365=
96449 32480 72803 10319 20255 30058 40078 84963 333 84814 81915
84365 86080=
96471 31469 82207 10304 20246 30077 40080 71522 83948 333 81815
82917 83364 87277=
96491 11470 70000 10295 20247 30058 40071 69901 72196 8397/ 333
81816 81917 87364=
96581 11460 70000 10329 20245 30081 40088 57018 69901 70262 85132
333 56500 57852 85812 80860=
96633 32560 31604 10306 20246 30064 40071 57026 81101
333 56000 82825=
96645 31460 61803 10316 20267 30049 40081 57021 71792 85932
333 56000 57902 57802 81913 84814 80982 80858=
96655 32459 72601 10312 20252 30067 40095 57023 86572
333 56600 86612=
96685 31458 81703 10286 20245 30056 40083 57021 71622 85871
333 56000 57802 83615 82818 80863=
96791 31560 30000 10332 20237 30021 40082 57024 70510 83201
333 56000 57802 83820 808//=
96797 32462 53603 10323 20255 30077 40081 57018 84901
333 56400 57942 81918 80981 83820 80880=
96801 31460 32504 10300 20230 30101 70511 84231
333 56000 79999 84818=
96805 32565 31004 10318 20248 40074 40094 56023 82111
333 56000 57802 82820 80860=
96839 32558 43304 10314 20221 30078 40083 56020 82241
333 56000 57802 82823 80860=
44352 31995 52714 10285 21017 38815 49917 57032 73231 82101
333 91116=
44291 32598 62706 10281 20027 38615 40058 57019 83230=
28240 32599 70000 10204 20119 40040 57018 83939   333 20065=
28419 32698 62603 10186 20119 40090 57001 82531   333 20098=
31285 42498 80505 10056 20037 40002 57018 886//=
31561 42598 80803 10189 20102 49960 57013 889//   333 86630 82950=
KGJX 28060 99140 70968 41498 20907 10267 2022/ 40108 50002 70191
8//// 22275 00288 80239=
25400 42599 83204 10056 21002 40157 54000 83531=
SHIP 28064 99051 31194 32460 72808 10300 20270 40063 8497/ 222//
00/// 20000  333 56009 81919 83819 87359 80977=
SHIP 28064 99051 31194 32460 72808 10300 20270 40063 8497/ 222//
00/// 20000
333 56009 81919 83819 87359 80977=
AGRF 28054 99160 31458 46/// /1420 10237 40120=
33393 42997 02002 10265 20130 40146 58006=
UIJG 28061 99210 11253 42598 41802 10299 40122 54000 84360 22253
00290 20201=
VNW4455 28063 99097 31228 41498 51705 10285 20229 40086 5//// 71522
83269 22231 02292 20101 316// 40301 80250=
UHRS 28061 99267 11215 41/97 90404 10252 40109 51083 71022 22213
20313=
DNMR 28060 99305 71269 41597 83209 10175 20175 40200 51010 80222
22254 00193=
42435 32996 02303 10354 20187 40033 333 58020 =