ZCZC 000
SMCI10 BENJ 010600
AAXX 01061
57259 32980 20904 10325 20156 40014 57025 80002 333 20155=
57399 32562 71804 10328 20244 40058 57011 84140 333 20197=
57461 32965 71402 10317 20228 39880 40032 57012 87040 333
20220=
57494 32968 70901 10314 20249 30018 40046 57014 8704/ 333
20221=
57687 32680 41404 10321 20250 39976 40052 57016 81142 333
20248=
57766 31665 71605 10300 20227 40057 57013 71700 86942 333
20231=
70200 22200 2//02=
60549 288081 288081 288079 287079 287079 287079=
50442 32670 23204 10221 21016 40107 57015 82100 333 20081=
59087 11568 72205 10317 20248 40083 57013 69901 79500 87942
333 20244=
53782 11530 81101 10194 20155 40100 57003 69901 76060 8272/
333// 20191=
59855 11470 60904 10276 20259 40058 57009 60261 79580 85902
333// 20255=
57127 11561 82901 10201 20181 39469 40045 57009 60031 76060
8272/ 333 20189=
59845 11580 71103 10284 20253 40051 57008 69971 70098 84962
333// 20250=
53975 32962 71604 10285 20162 40035 52001 85032 333// 20216=
53513 32970 60903 10271 20009 38928 40061 57017 80002 333//
00201 20149=
54195 32575 11402 10234 20106 40093 57023 81102 333// 20084=
54041 32670 53602 10272 20129 40090 57010 85100 333// 20142=
54186 32570 11802 10239 20099 40084 57016 81100 333// 20092=
54386 32580 30404 10229 20067 40078 57011 83200 333// 20095=
57602 31959 73402 10294 20209 49988 57021 71000 8703/ 333
20223=
59316 32580 31805 10320 20253 30086 40095 57010 82902 333
20265=
58527 32568 72503 10320 20250 39991 40063 57017 82141 333//
20211=
59948 11563 71803 10293 20261 30043 40051 57007 60081 78080
872// 333// 20260=
58834 32680 12201 10348 20228 40071 57029 81100 333 20233=
59501 32580 42204 10316 20248 30092 40108 57010 84902 333
20276=
59046 11565 80402 10224 20183 40102 57021 69951 70080 888//
333// 20199=
54094 32570 32504 10263 20098 39793 40073 57021 83200 333
20120=
53915 11680 71804 10261 20085 38584 40010 57006 69901 70060
8113/ 333// 00456 20172=
57522 32780 60402 10306 20226 40991 57021 84540 333// 20205=
50527 32970 10203 10225 20005 39430 40130 57005 80002 333//
20098=
58311 32580 61803 10325 20193 40062 57005 82102 333// 20217=
54662 32965 61803 10225 20142 39989 40106 57003 80002 333
20127=
54157 32567 72902 10258 20112 40088 57013 87200 333// 20164=
53463 32580 50000 10271 20037 38911 40071 57010 82102 333//
00402 20128=
57608 31956 00203 10315 20196 49982 57019 71000 333 20222=
54218 32775 73601 10247 20130 39459 40105 57003 85202 333
20142=
57006 11580 60703 10270 20089 40005 57015 69901 70060 83132
333// 00353 20186=
50774 11665 60902 10177 20141 39812 40102 57013 60051 70080
84230 333 20093=
54337 32680 11604 10249 20144 30031 40113 57001 81100 333
20155=
59954 11570 71403 10300 20261 40056 57007 60011 72580 879//
333// 20252=
56067 11580 60000 10142 20075 36513 57021 69901 70060 86900
333 05155 20059=
56151 11580 70401 10150 20078 36602 57020 69901 79598 879//
333 05156 20074=
57669 32680 71402 10335 20239 40038 57014 83240 333// 20210=
57562 11580 82704 10309 20230 40027 57012 69901 79500 8697/
333// 20224=
51133 32680 71103 10230 20061 39443 40050 57009 82432 333//
00255 20131=
56080 32580 80000 10138 20072 37123 57017 8483/ 333// 00157
20078=
89054 31107 80000 11069 21074 40140 54000 74672 886//
333 70399 88703=
89056 31908 00606 11057 21061 40144 54000 74844=
89057 32460 80704 11028 21039 40143 57005 886//
333 72099 88710=
89058 11220 60000 11052 21052 40145 52001 69901 71074 86600=
89059 32960 01104 11070 21100 40152 54002=
91376 32474 80712 10277 20240 30080 40083 53005 8487/ 333 5622/
70460 555 90106=
91413 11469 81109 10302 20252 30051 40070 57010 69931 70282 85232
333 56299 70003 555 90106=
40582 32960 03608 10395 20034 40045 51015 333 20335=
91334 11474 80608 10298 20273 30068 40071 56012 60021 70282 82271
333 56299 70119 555 90106=
58562 32665 60905 10295 20231 40084 57015 81102 333 20217=
58457 31530 30703 10321 20250 30023 40072 57017 71040 82102
333 20217=
52740 16/// /1404 10144 29040 36832 60000
555 1/133 2//00 /////=
57957 11465 72003 10285 20244 39876 40065 57017 60011 78080
879// 333 20240=
59082 32580 32005 10332 20239 39995 40068 57021 82941 333
20268=
59117 32580 52502 10349 20228 39978 40079 57022 85200 333
20246=
59211 32580 21103 10337 20232 39845 40042 57026 82941 333
20249=
59265 11575 42201 10320 20241 39933 40064 57022 60031 70080
84300 333 20254=
59287 31569 72001 10281 20235 30045 40095 57006 70090 879//
333 20256=
59431 11580 72002 10305 20255 39918 40061 57020 60021 71780
879// 333 20250=
59644 31570 71107 10297 20261 30048 40063 57010 71790 87942
333// 20256=
59758 11480 71803 10275 20248 30037 40058 57008 60041 71780
83902 333// 20263=
59023 32580 61804 10316 20229 39809 40047 57026 86140 333
20236=
59293 32570 72202 10341 20229 30032 40078 57020 879// 333
20251=
59417 11580 51602 10299 20235 39914 40061 57020 69981 70080
81942 333 20246=
59663 11480 71406 10304 20261 30050 40077 57012 60041 70098
86202 333 20258=
59981 11580 21606 10304 20262 30062 40068 52001 69941 70080
82200 333// 20256=
58040 31960 60703 10256 20209 30085 40089 57011 70040 80002
333 20179=
58144 32960 81403 10305 20224 30058 40079 57015 80007 333
20207=
58633 32660 72201 10316 20238 39974 40068 57022 879// 333
20223=
58659 32765 71105 10281 20236 30060 40093 57011 8654/ 333
20234=
58847 32663 31106 10336 20249 39983 40080 57022 82240 333
20236=
59058 11580 71402 10317 20253 40060 57024 69901 70080 87202
333 20245=
59072 32580 40702 10336 20235 40066 57020 84202 333 20249=
59096 11580 72003 10323 20225 40087 57011 69901 78000 87402
333 20241=
59209 11580 51403 10295 20198 40044 57021 69901 70080 82500
333 20227=
59254 32575 60402 10318 20254 40059 57020 85940 333 20261=
59278 11580 71406 10317 20240 40079 57009 69901 70098 84962
333 20253=
59456 32580 61805 10338 20229 40066 57015 85902 333 20258=
59493 11580 71403 10327 20247 40084 57016 69901 70080 87202
333 20280=
59632 11580 61403 10324 20244 40061 57014 60041 71798 82942
333 20260=
59647 32580 70705 10304 20267 40057 57013 82942 333// 20271=
59658 11463 71103 10283 20265 40071 57008 60101 78098 879//
333 20249=
59673 31580 71405 10306 20265 40086 57010 70090 86902 333
20256=
50468 32575 53603 10202 20045 39900 40097 57006 85200 333
20096=
50745 32668 23604 10242 20095 39937 40109 57005 82200 333
20134=
54342 11556 70000 10240 20162 30043 40103 57004 69901 72500
872// 333 20167=
54471 11960 43402 10236 20145 30105 40110 57004 69901 70060
80002 333 20164=
54497 32970 61802 10202 20142 30108 40122 57005 86030 333
20146=
58543 31580 63201 10309 20229 40075 57023 71700 82940 333
20226=
58569 31460 71102 10249 20232 40100 57011 70040 8313/ 333
20209=
58646 32565 62202 10343 20238 40071 57029 82202 333 20233=
58660 11562 80401 10271 20238 40094 57013 69991 79500 889//
333 20234=
58944 32465 71804 10300 20252 40094 57014 875// 333 20262=
59985 11580 71605 10300 20266 30051 40056 57001 69911 78080
86940 333// 20258=
53588 32470 70902 10134 20109 37802 57001 871// 333 20099=
53772 11957 80704 10242 20145 39211 40069 57001 69911 72160
8802/ 333// 20205=
54511 32970 71402 10270 20119 30064 40102 57002 83042 333
20180=
54823 31940 80404 10262 20200 39894 40087 52009 70400 8802/
333 20230=
51468 16/// /1900 10016 29055 36546 60151
555 1/141 2//03 /////=
57378 32565 62006 10320 20242 40038 57015 86100 333 20216=
57447 32970 82702 10248 20175 39531 40048 57010 8807/ 333
20171=
57476 32565 72204 10327 20249 40038 57012 8214/ 333 20222=
57598 32575 73402 10343 20259 40057 57022 85130 333 20212=
57655 32562 72203 10309 20241 40045 57016 8114/ 333 20211=
57662 32970 21403 10344 20243 39993 40032 57017 82040 333
20241=
57745 11574 72003 10302 20235 39739 40046 57017 69901 72500
8424/ 333 20221=
57776 11/00 91808 10215 20206 40082 57005 69901 74760 333
20195 91122 91520=
57799 32580 71802 10329 20246 39985 40064 57020 87140 333
20251=
57845 11680 62207 10299 20232 40051 57021 69901 70060 84140
333 20221=
57866 32580 51801 10327 20227 39863 40058 57019 85800 333//
20245=
57972 32666 31404 10336 20229 39853 40063 57019 82140 333
20242=
59102 32580 21604 10333 20212 40082 57018 82202 333 20233=
58556 31670 70000 10323 20246 40075 57022 70040 85142 333
20212=
45007 32580 61506 10318 20235 30081 40090 56009 84202
333  58013 81820 83825 =
58138 32560 41105 10308 20221 40074 57012 84100 333 20207=
58259 31956 72203 10274 20221 40106 52001 71000 8704/ 333
20189=
58358 31930 80904 10279 20239 40080 57012 71040 80007 333
20213=
58464 32965 70905 10260 20225 40088 57012 80002 333 20200=
58549 31664 20402 10336 20235 40061 57027 71700 82900 333
20229=
58665 32465 70702 10263 20240 40091 57014 8744/ 333 20212=
58667 32562 61403 10269 20240 40100 57013 86100 333 20221=
58820 31672 62502 10325 20241 40071 57028 70040 82140 333
20214=
58265 32562 81603 10268 20208 30090 40101 57005 82547 333
20190=
58472 32366 71808 10248 20221 30012 40106 57003 86142 333
20195=
58477 11465 71604 10250 20226 30056 40099 57010 69901 70050
87800 333 20208=
58666 31/02 90000 10241 20235 30001 40099 57013 74740 333
20215=
58725 31680 61401 10314 20242 39830 40078 57027 71700 86940
333 20227=
58760 32561 70903 10255 20233 40095 57014 85202 333 20220=
58921 31680 63204 10350 20228 39838 40069 57027 71700 86902
333 20228=
58027 32661 81404 10296 20215 30024 40072 57008 82107 333
20204=
58238 31556 70000 10303 20225 30061 40070 57011 71000 86102
333 20206=
57251 32965 71802 10314 20202 40012 57023 86032 333 20205=
57355 32970 73201 10298 20198 40022 57017 8703/ 333 20193=
57385 32560 71604 10313 20236 40044 57012 874// 333 20191=
57458 11560 80202 10240 20220 40053 57005 69961 79180 889//
333 00157 20153=
57545 32960 70000 10262 20217 40044 57016 8704/ 333 20195=
57671 32968 41804 10325 20253 40034 57019 84040 333// 20245=
58015 32970 70406 10312 20185 40059 57005 80002 333 20217=
58402 32670 72702 10324 20245 40071 57012 86140 333 20190=
58634 31567 72001 10329 20229 40070 57021 70040 8294/ 333
20221=
52889 32580 70402 10261 20108 38396 49985 57020 81142 333
00154 20174=
56046 32580 60000 10139 20045 36241 57022 86900 333 05300
20036=
52533 32975 81105 10250 20064 38442 49992 57013 83037 333
05151 20155=
56096 11665 82702 10229 20142 38852 40021 57008 69901 76000
885// 333 00558 20190=
52652 32970 73202 10259 20071 38427 49984 57015 82042 333
05151 20152=
58436 32678 62502 10330 20236 40068 57017 86102 333 20196=
58215 32565 71404 10315 20207 40067 57007 81102 333 20185=
58203 32575 61404 10328 20169 30008 40051 57016 81142 333
20179=
58321 32562 51404 10307 20232 40067 57006 82102 333 20224=
58236 31562 62004 10304 20209 40070 57008 70040 86100 333
20212=
58326 32570 61601 10309 20228 40071 57009 82140 333 20218=
58319 32565 72208 10298 20250 40060 57016 86102 333 20186=
58102 32975 71803 10312 20172 30009 40057 57005 8707/ 333
20217=
58122 32580 71403 10322 20190 40064 57013 81102 333 20207=
58314 32970 62703 10330 20222 39972 40055 57010 86040 333
20200=
58338 32970 71801 10323 20228 40067 57016 80002 333 20213=
58424 32966 42205 10317 20250 30041 40063 57016 83042 333
20218=
58221 32662 71104 10314 20212 30038 40071 57009 83102 333
20214=
58437 11/00 92704 10173 20173 38171 57005 69901 76044 333
20140=
59134 32580 61604 10326 20245 39938 40094 57014 81102
333 20254=
58241 32576 40702 10317 20206 40085 57012 82102 333 20199=
58343 31557 61405 10284 20233 40081 57015 71040 86200 333
20201=
50834 11580 72006 10228 20081 40115 52003 69901 79500 87900
333// 20084=
53480 32680 71402 10209 20061 40100 57007 83102 333// 20085=
53673 32960 71403 10256 20141 40066 57012 8703/ 333// 20195=
53787 32965 81404 10276 20118 40035 57012 8801/ 333// 20193=
53898 32570 70207 10265 20196 40089 52004 81102 333// 20221=
54725 11965 70405 10237 20180 40096 52004 69901 70060 8703/
333// 20184=
54751 31959 70705 10200 20155 40100 57006 71000 80002 333//
20137=
54916 32960 51405 10321 20193 40076 57007 80002 333// 20208=
58208 32575 70902 10325 20207 40054 57009 8214/ 333// 20208=
58251 31968 70903 10305 20178 30084 40090 57008 70040 80002
333 20187=
58345 41958 80904 10298 20246 40081 57009 71040 80007 333
20205=
56294 32963 83403 10265 20181 39451 40013 57009 8807/ 333
05253 20235=
56492 32961 00402 10318 20209 39613 49993 57014 333 04022
20223=
56571 32780 61804 10295 20135 38313 57014 86400 333 05402
20224=
56651 11680 72904 10198 20114 37599 57007 69901 78000 879//
333 05252 20151=
56778 11580 62002 10253 20149 38068 57012 69901 79500 86900
333// 05103 20193=
56951 11780 73601 10268 20167 38449 57017 69901 78000 86402
333 05151 20179=
57328 11762 83602 10242 20209 39615 40004 57010 60021 79596
889// 333 20198=
57411 11958 83603 10233 20195 39663 40013 57008 69901 72186
8807/ 333 20211=
57516 31750 73402 10300 20227 39696 49988 57016 71000 875//
333 05501 20226=
57816 32580 31807 10256 20183 38729 40036 57012 83100 333//
00052 20207=
50953 11666 80701 10144 20140 39935 40109 52011 60071 79598
889// 333 20130 91123 91536=
50727 32680 72904 10217 20027 38965 40125 54000 81102 333//
20026=
53564 32980 70402 10295 20028 39098 40040 57011 80002 333//
00351 20137=
53959 32970 80904 10331 20158 39597 40009 57004 8801/ 333//
20257=
54843 32962 71103 10256 20213 30061 40087 57001 8703/ 333//
20162=
54909 32972 70703 10311 20180 30004 40063 57001 80002 333//
20215=
57265 32760 81603 10300 20221 39928 40032 57012 885// 333
20221=
57279 32565 61803 10315 20219 40043 57009 86101 333 20206=
57554 11865 80000 10264 20209 40051 57016 69901 76060 885//
333 20197=
57584 11570 32504 10326 20235 40050 57016 69901 70060 81140
333 20255=
57793 32570 73602 10327 20228 40067 57023 8114/ 333// 20238=
57853 11670 70000 10305 20228 40055 57017 69901 70080 84142
333// 20226=
58506 32/67 72701 10255 20213 40086 57009 878// 333// 20179=
58606 11564 72203 10314 20266 30016 40068 57013 69901 76000
8684/ 333// 20236=
58715 31580 62003 10331 20241 40066 57023 71700 83940 333//
20238=
58813 32580 61803 10334 20236 40066 57016 83140 333// 20225=
58150 31935 81403 10276 20214 30086 40094 57009 71040 80007
333 20180=
50136 32670 53206 10219 21004 39613 40126 57010 82102 333
21019=
50353 32670 63205 10185 20042 39894 40106 57002 86200 333
20085=
50557 32670 13607 10229 20024 39829 40113 57007 81100 333
20112=
50756 11670 60903 10224 20111 39819 40098 57011 69901 70098
86200 333 20127=
50788 32970 23203 10229 20041 30016 40097 57013 80002 333
20107=
50949 32565 32904 10250 20133 39930 40090 57014 83200 333
20146=
50963 11660 70403 10190 20132 39971 40101 57006 69991 71798
87900 333 20154=
50978 32575 53401 10252 20122 39803 40079 57018 85900 333
20117=
54161 32570 72705 10268 20113 39809 40083 57016 87900 333
20164=
54236 32568 40000 10264 20128 39998 40096 57008 84100 333
20144=
54292 32580 10701 10243 20120 39882 40091 57025 81200 333
20113=
54374 32675 60203 10235 20128 39705 40091 57011 86200 333
20131=
58730 32680 51802 10329 20242 40075 57026 84240 333 20231=
58731 32780 52003 10325 20236 40076 57025 84230 333 20220=
58754 32570 61403 10308 20243 40087 57019 81132 333 20230=
58911 32680 72002 10324 20233 40081 57022 8114/ 333 20223=
58931 32280 71804 10246 20171 38370 57014 86202 333 20176=
58647 32580 22203 10349 20226 40068 57026 82102 333 20225=
58737 32680 20000 10331 20242 40071 57033 82140 333 20222=
58846 32668 71101 10302 20236 40086 57021 83902 333 20240=
58918 32680 41404 10334 20228 40089 57009 83202 333 20237=
59126 32680 71204 10343 20240 40088 57018 84202 333 20245=
59133 32965 71805 10279 20255 40089 57015 81032 333
20252=
52418 32780 80000 10279 20051 38769 49994 57010 81107 333
00051 20131=
53646 32678 80702 10282 20029 38893 40026 57005 86507 333
00351 20195=
52323 32680 71403 10263 21030 38171 57018 83102 333 05102
20125=
57036 32963 72902 10308 20147 39572 40013 57005 8703/ 333
20242=
52866 32575 72501 10219 20058 37647 57024 85102 333 05101
20074=
52754 32570 72002 10140 21008 36783 57014 81102 333 05151
20054=
56033 11580 70404 10083 21001 36022 57009 69901 70070 86802
333 05301 20007=
52787 32780 70404 10128 20017 37024 57003 879// 333 00053
20063=
52996 11462 71407 10138 20082 37536 57009 69901 70064 82542
333 00057 20097=
57046 32566 71801 10195 20080 37917 57006 86102 333 00154
20183=
57016 11770 82203 10232 20140 40023 54000 69921 76060 8552/
333 20226=
56065 11680 81102 10099 20064 36614 57013 69921 76060 885//
333 00059 20052=
53923 32980 70000 10266 20066 40009 57008 8703/ 333 20183=
50632 32580 13403 10215 21044 39277 40119 57004 81100 333//
20079=
57083 32960 71004 10306 20202 39929 40055 57005 8703/ 333//
20238=
50548 32980 00204 10238 20034 40113 57008 333// 20113=
54401 32665 71101 10275 20099 39279 40084 57013 82902 333//
20151=
54527 32965 80402 10261 20161 40106 52005 80007 333 20186=
54308 32680 21103 10250 20104 40109 57007 82100 333// 20110=
53798 32960 80205 10240 20168 30001 40090 52001 80007 333//
20207=
54423 32580 31401 10269 20120 39660 40103 57007 83200 333//
20111=
54618 11962 80403 10229 20167 30083 40100 52006 69901 70060
8807/ 333// 20188=
54602 32565 81102 10263 20174 40106 52004 83907 333// 20190=
56193 11662 70000 10255 20156 40021 57012 69901 70060 8344/
333 00054 20184=
56196 32679 20704 10280 20172 40012 57013 81140 333 05301
20226=
56287 11920 80000 10229 20199 40025 57007 69901 71060 8807/
333 05157 20219=
56385 31/75 61602 10143 20117 37002 57005 70040 86240 333
05251 20093=
56666 32680 21102 10350 20160 49951 57022 82100 333 05203
20241=
56671 32780 31604 10275 20139 38154 57015 83100 333 05302
20169=
56684 32580 52704 10251 20127 37848 57015 82130 333// 05201
20173=
56751 32680 41104 10244 20125 37981 57012 84402 333 05151
20164=
56786 11575 71603 10241 20178 38072 57012 69901 71780 87900
333 05102 20178=
56886 32680 62004 10249 20173 38225 57019 86343 333 05102
20182=
56977 31580 71102 10265 20210 40044 57010 71794 879// 333//
00051 20208=
57206 11765 83402 10199 20160 40040 57009 60111 72598 884//
333 20185=
57348 32775 70201 10270 20195 40025 57012 875// 333 20185=
57426 32775 80401 10269 20210 40001 57018 885// 333 05501
20195=
57713 11573 71806 10292 20200 40009 57014 69901 70060 878//
333 05302 20217=
56079 11780 70401 10131 20065 36679 57012 69901 70060 85202
333 05156 20051=
56144 42780 62003 10224 20047 36813 57027 85402 333 05301
20095=
56152 11780 50902 10154 20051 36300 57019 60011 72580 84202
333 05351 20036 93905=
56167 11780 63602 10244 20065 37032 57030 69901 78000 86400
333 05401 20081=
56173 11680 63402 10169 20091 36633 57021 69961 70080 85902
333 05253 20007=
56182 11680 70000 10198 20097 37153 57024 60011 70060 879//
333 05155 20100=
56257 32680 32205 10182 21008 36277 57014 83100 333 05203
20061=
56357 11680 72505 10185 20011 36447 57016 69901 78000 879//
333 05204 20068=
56374 32580 71106 10189 20119 37371 57017 87400 333// 05352
20115=
56586 32680 22505 10282 20109 37987 57010 82140 333// 05303
20170=
56748 32580 32201 10272 20144 38298 57015 82102 333// 05101
20168=
56763 32680 21607 10319 20175 49974 57022 82400 333 05302
20228=
56768 32680 61402 10276 20159 38178 57016 85202 333 05102
20193=
56838 32680 72202 10275 20217 40049 57014 82232 333// 00052
20216=
56946 32680 62002 10295 20177 40017 57020 86402 333// 05100
20195=
56954 11580 52202 10289 20202 40031 57024 60101 70098 82242
333// 00052 20204=
56959 31780 71101 10323 20224 40014 57022 71700 86902 333
05101 20229=
56966 32780 71107 10317 20223 40013 57014 82432 333 05202
20266=
56969 32580 61602 10308 20218 40036 57020 85901 333 05100
20225=
56986 11265 80903 10201 20192 40066 57009 60091 78084 889//
333// 00054 20192=
57237 11970 82001 10255 20187 40014 57018 69901 70060 8807/
333 20165=
57306 11663 83601 10196 20194 40030 57010 60561 78098 8646/
333 20193=
57504 31957 70201 10304 20195 49991 57013 71000 8704/ 333
05400 20241=
57707 32680 61404 10284 20180 38412 57012 86102 333 05301
20199=
57731 32580 41804 10323 20211 40024 57016 83140 333 20207=
57832 11580 61804 10289 20201 40048 57015 69901 70060 84830
333 20198=
57916 32580 60902 10322 20220 40041 57017 86200 333 20233=
57922 11580 41805 10257 20197 40059 57010 60011 70060 84100
333 20202=
57932 11680 62503 10322 20233 40045 57022 69901 70086 84132
333 20226=
59007 11580 61404 10247 20186 40052 57018 69961 70060 86800
333// 20190=
53352 32580 70702 10230 20015 40086 57008 81102 333// 20095=
53593 32780 60702 10264 20049 40081 57006 82102 333// 20132=
53764 11970 71406 10312 20121 40023 54000 69901 70060 80002
333 20192=
53863 31656 80207 10274 20138 40043 57010 70700 82407 333//
20169=
54405 32670 71403 10276 20086 40094 57009 82402 333// 20161=
54808 32970 70403 10308 20227 40069 57001 80002 333// 20212=
54826 32980 81601 10198 20051 38453 57002 80007 333// 20147=
54836 32960 81602 10281 20179 40086 57003 80007 333// 20196=
54863 11562 81406 10179 20164 40105 57006 69941 70098 885//
333// 20151=
57071 32962 70908 10294 20172 40039 57004 80002 333// 20237=
57993 32674 22001 10338 20236 39934 40075 57014 82200 333//
20245=
50246 32680 63205 10200 20016 40123 57003 86100 333 20028=
50658 32580 63204 10242 20047 40095 57007 86100 333 20121=
50844 32662 10204 10268 20071 40094 57010 81100 333 20153=
50854 11570 50201 10239 20132 40088 57015 69901 71796 85900
333 20137=
50888 32980 10204 10241 20037 40088 57013 81032 333 20102=
50968 11570 73404 10243 20139 40087 57012 69901 79500 86902
333 20124=
50983 32670 23201 10233 20060 40091 57012 81102 333 20135=
54096 32570 60904 10206 20125 40091 57012 86902 333 20081=
54259 11672 73202 10241 20131 40103 54000 69901 70080 879//
333 20137=
54273 32580 10402 10236 20109 40090 57014 81102 333 20103=
54324 32765 40902 10257 20141 40103 57004 84100 333// 20151=
54346 32667 82702 10238 20126 40117 54000 885// 333 20156=
54493 32970 72503 10185 20135 40122 52005 86032 333 20137=
47401 42/65 60708 10096 20063 30103 40116 58009 82602=
47412 41/70 73304 10171 20122 30037 40067 53001 70282 82279=
47420 41/50 80607 10065 20059 30043 40090 56007 78088 887//=
47426 41/40 82801 10114 20108 30030 40074 53006 78082 887//=
47582 42/65 72408 10179 20130 30054 40079 53010 872//=
47590 42/80 63207 10244 20130 30002 40051 53004 86230=
47600 41460 52804 10197 20143 30095 40111 53013 70282 84230=
47648 42/65 20903 10193 20160 30028 40060 55001 81172=
47662 41/58 41503 10265 20176 30002 40042 56009 70511 81231=
47678 42480 72604 10244 20211 39987 40079 53004 81202=
47740 42/60 22204 10209 20141 30087 40124 53002 82200=
47778 42/75 72707 10239 20179 39993 40078 55002 81102=
47807 41/57 23405 10241 20181 30105 40122 55000 70511 81101=
47827 42980 51805 10267 20198 30074 40109 55008 80001=
47843 42/75 10702 10226 20162 30088 40118 56006 81101=
47898 42975 22804 10251 20176 30060 40097 57005 80002=
47909 41/80 73402 10269 20223 30124 40132 53008 70286 8227/=
47918 42/81 71805 10301 20247 30106 40114 58011 81102=
47936 42/70 72305 10285 20241 30064 40124 56009 84232=
47945 41/70 62202 10284 20248 30101 40124 56014 70242 81202=
47971 42/82 41902 10273 20244 30136 40145 56004 82109=
47991 41/82 31104 10297 20244 30144 40154 56004 70281 82301=
58362 32965 61106 10246 20219 30086 40096 57006 85032 333//
20203=
58926 32780 72701 10346 20236 40075 57022 83242 333 20229=
59838 11580 73406 10310 20243 30034 40048 57020 69901 71798
86962 333// 20240=
54026 32580 22002 10287 20074 39786 40091 57010 82100 333//
20138=
54027 32680 11103 10265 20037 39549 40101 57006 81102 333//
20103=
58531 31680 70402 10313 20244 40067 57021 71700 8394/ 333
20200=?
58407 32964 70903 10311 20249 40057 57014 8703/ 333 20226=
53614 32980 83403 10258 20065 38833 40030 57023 85037 333
00253 20175=
53723 11975 70904 10278 20040 38587 40008 57019 69901 70080
83032 333 00253 20184=
52955 11580 70000 10139 20075 36951 57007 69951 72580 879//
333 00056 20062=
52836 32780 72902 10139 20000 36883 57012 86502 333 00051
20081=
52713 11970 81102 10055 20025 36915 52008 69961 76060 8802/
333 00363 20049=
53705 11965 70405 10246 20092 40017 57020 69901 70060 86032
333 00257 20180=
56021 11380 72905 10042 20021 36091 57001 60011 78080 879//
333 05251 21001=
47575 41/60 83505 10140 20119 30069 40073 51007 72052 886//=
47585 41270 70303 10124 20108 30003 40058 53004 70252 8727/=
47598 41/20 71902 10166 20139 30056 40062 51009 71022 878//=
47602 41460 83304 10155 20145 30081 40101 53008 78082 882//=
47618 42/75 23505 10237 20136 39370 40042 53004 82200=
47624 41/75 43405 10268 20142 39914 40041 53004 72522 84200=
47636 42/80 12909 10243 20147 30020 40084 53004 81801=
47655 42/80 62511 10243 20168 39996 40049 55006 81202=
47750 41470 60504 10213 20145 30095 40121 53006 70282 86200=
47755 42/62 22504 10214 20168 30107 40130 53004 82200=
47772 42/65 12705 10259 20137 30004 40098 55003 81200=
47800 41/58 20703 10225 20174 30100 40122 58003 70511 82100=
47815 42965 00504 10259 20134 30098 40113 55004=
47817 42/70 12304 10244 20181 30077 40117 56006 81100=
47830 42/82 31005 10257 20207 30090 40107 56005 81032=
47837 41958 72504 10254 20200 30097 40118 56003 71022 80006=
47891 41/75 12603 10284 20143 30089 40100 56010 70280 81100=
47899 42/70 20904 10228 20201 39887 40100 58001 81202=
47927 42/80 72204 10304 20245 30070 40116 58013 82202=
54102 32680 22005 10242 20079 39008 40109 57008 82100 333//
20104=
44229 32599 62003 10211 20002 37894 49976 57011 85303=
44291 32598 42704 10264 21064 38691 40144 58010 84200=
44329 32598 61805 10196 20062 37734 49969 57006 86200=
44338 32899 50000 10254 20073 38438 40020 57004 83088=
44374 32599 61607 10238 21064 38224 49982 58011 86200=
44385 32699 30904 10258 20027 38860 40047 58010 82102=
53478 32580 61105 10238 20007 40077 57016 81102 333// 20072=
53853 32968 71106 10301 20098 40013 57011 8703/ 333// 20205=
54518 32965 80902 10277 20143 40106 52003 80007 333// 20180=
54852 11958 72201 10234 20180 40096 57002 69901 71060 83042
333// 20152=
57089 31640 81404 10302 20189 40051 57009 70400 885// 333//
20211=
53068 32780 40903 10250 20054 39033 40097 57012 84100 333//
00601 20134=
53231 32980 63201 10257 21056 38445 57014 80002 333// 00103
20105=
53276 32680 20905 10225 20062 38837 40104 57008 82102 333//
20116=
54135 32680 73601 10264 20142 39889 40097 57009 87202 333//
20144=
54539 32970 70704 10242 20135 30097 40111 52002 80002 333//
20154=
54753 32762 70403 10217 20163 30098 40104 52005 875// 333//
20154=
54857 11/03 91404 10179 20171 30016 40105 52002 60011 74598
333// 20148=
57067 32972 71102 10281 20160 39401 40030 57004 8704/ 333//
20187=
57178 31940 73202 10272 20222 39894 40044 57011 71000 8703/
333// 20194=
57297 32562 70903 10303 20244 39915 40046 57008 87100 333//
20202=
52681 32978 70906 10278 21025 38559 49999 57015 86032 333
00151 20174=
53845 32668 70703 10317 20103 38974 49998 57016 8116/ 333
00152 20217=
57245 32980 82201 10311 20174 39691 40017 57012 8807/ 333
05100 20206=
52602 32680 83404 10180 21097 37249 57005 81107 333 00051
20066=
52737 11780 80202 10080 20056 37071 52001 60041 76060 885//
333 00162 20077=
56018 11575 82504 10089 20067 36180 52003 60031 79686 889//
333 05252 20045 93904=
53362 32580 70401 10217 20028 40095 57006 83102 333// 20075=
53664 32970 80705 10294 20132 40031 54000 8807/ 333// 20175=
54429 32580 61103 10285 20146 40093 57009 82102 333// 20137=
54623 32962 71105 10228 20161 40107 52004 8703/ 333 20179=
54705 32960 80704 10257 20191 40092 52005 85037 333// 20201=
54736 11658 61404 10220 20185 40098 52008 69901 71080 86400
333// 20180=
54824 31957 73604 10246 20199 40089 52008 71000 80002 333//
20195=
54936 32962 71403 10271 20211 40093 57006 80002 333// 20167=
57077 32970 71103 10297 20092 40031 57006 85042 333// 20164=
57091 32564 71802 10308 20200 40058 57006 82102 333// 20212=
57156 32962 71803 10292 20194 40033 57009 8704/ 333// 20201=
54436 32680 20702 10273 20120 40097 57012 82200 333// 20140=
53698 11958 83201 10224 20166 40111 57001 69901 76060 8802/
333// 20205=
57181 32564 71805 10308 20204 40045 57006 8213/ 333// 20222=
50564 32570 60204 10216 20063 40082 57014 86200 333 20070=
54049 32670 42504 10256 20139 40104 57009 84100 333 20149=
54115 32680 21402 10250 20066 40110 57007 82102 333// 20105=
54377 11670 70702 10226 20142 40107 57008 69941 71780 8393/
333 20134=
56146 32780 62701 10206 20055 36696 57025 86902 333 05300
20067=
56172 32680 12703 10243 20117 37278 57040 81100 333 05252
20109=
56247 32880 72703 10279 20075 37352 57032 86102 333 05301
20129=
56444 11578 80903 10136 20082 36814 57002 69901 78080 881//
333 00053 20084=
56462 32680 70000 10240 20070 37090 57026 87402 333 05301
20108=
56691 32580 51805 10242 20135 37730 57015 85240 333 05201
20163=
56739 32578 72205 10231 20164 38317 57004 879// 333// 00052
20155=
56964 11580 61801 10267 20187 38649 40026 57014 69901 70080
83262 333// 05151 20209=
56985 11580 71803 10259 20180 38653 40039 57009 69911 72580
84963 333 00004 20206=
57633 11567 71602 10283 20212 39296 40034 57015 69901 72500
8314/ 333 05201 20177=
57902 11580 71406 10254 20194 38574 40034 57009 69901 70080
87200 333 05101 20203=
59995 11480 81805 10290 20245 30055 40063 57015 69901 70080
8653/ 20249 66660 29405 31813=
82400 22234 00200 2//04 301// 80135 .....=
11003 70016
333 91203=
11001 70004
333 91206=
58707 22272 0//// 20404 399// 40506 80111=
44219 32998 61804 10258 20025 38515 49969 57011 86200=
44221 32599 62704 10220 20085 38498 49996 58009 82540=
44224 32698 72305 10198 21038 37998 49978 54000 87500=
44242 32698 33601 10289 20149 39222 40027 57021 83100=
44286 32698 42305 10270 20050 38592 40010 58005 84200=
44317 32998 50901 10230 20013 38918 40088 58005 80008=
53083 32680 60903 10241 20050 40106 57010 86200 333// 00706
20090=
53487 32575 61103 10259 20042 40067 57008 82102 333// 20134=
54226 32580 60202 10250 20125 40105 57005 86200 333// 20145=
54311 32580 50903 10243 20105 40102 57004 85200 333// 20106=
54534 32975 71402 10268 20156 40103 54000 82032 333// 20166=
54587 32572 22702 10198 20151 40078 57001 81101 333// 20115=
54715 32968 80406 10248 20171 40092 52002 86037 333 20192=
54929 32960 51104 10282 20202 40087 57013 80002 333// 20182=
54945 31540 70904 10191 20181 40110 57002 71040 875// 333//
20155=
57193 32965 70902 10306 20198 40054 57007 8704/ 333// 20196=
57290 32960 71803 10310 20231 40046 57007 8703/ 333// 20192=
53195 32680 21403 10248 20027 40107 57006 82100 333// 20128=
54624 32964 80903 10224 20150 40110 52009 8807/ 333// 20191=
54774 32962 70903 10192 20151 40110 52004 80002 333// 20151=
58005 32964 82004 10324 20160 40061 57004 80007 333// 20207=
52436 32670 70904 10261 20042 38383 49991 57014 81102 333
05101 20101=
56029 32680 61403 10182 20053 36448 57031 86200 333 05402
20064=
51886 32770 82904 10138 21043 37110 57009 82907 333 00154
20088=
56066 36/// ///// 10097 20032 36599 4//// 57009
555 10010 2//// 3//// 40111 51001 60/// 7//// 80000
9//// ///// 1/020 2//00 30000=
50434 32580 22906 10204 21021 39282 40132 57016 82100 333//
20001=
50915 32580 23605 10262 21051 39166 40107 57005 81202 333//
20087=
53149 32580 70905 10251 20023 38750 40076 57009 81102 333//
00303 20127=
53192 32580 20404 10243 21036 38873 40116 57007 82102 333//
20094=
53336 32980 71103 10257 21009 38672 40061 57009 80002 333//
00203 20134=
53391 32580 60201 10195 20066 38500 40115 57006 85102 333//
00701 20082=
53529 32980 70903 10275 21004 38563 40023 57014 82032 333//
00200 20152=
53543 32980 70904 10234 21044 38509 40066 57002 80002 333
20157=
54012 32580 50000 10217 20048 39010 40128 57006 85900 333//
20081=
54208 32580 40203 10205 20090 38741 40122 57004 84200 333//
20062=
54776 31/01 91804 10147 20143 30055 40112 57002 74700 333//
20128=
52634 36/// /0000 10074 20000 36747 4//// 57008
555 10010 2//// 30125 41111 51011 60/// 7//// 80000
9//// ///// 1/114 2//00 30000=
57528 16/// /2000 10173 29756 37563 61430
555 1/136 2//00 30209 12100
11101 10100 10111 01110 1111/
/////
2//// 3//// 6//// ///// ///// 8//// 9//// ///// ///// //004
11101 11111 1011/
11111 110//=
58013 81820 83825=
45011 41475 61308 10303 20258 40097 57011 70298 84232 333
58009=
56004 32680 62711 10096 21024 35824 57002 86100 333 05303
20002=
48820 32598 60502 10324 20242 30037 40045 57018 85201 333
59008 85895=
48826 11598 31102 10326 20283 39913 40038 58017 69901 70298
83200 333 59008 83895=
48839 32498 71105 10310 20268 39986 40049 56008 878// 222//
2//01 333 59006 82894 86696=
48845 31598 70503 10299 20245 30045 40052 53003 72992 874//
333 59002 86895 83696=
48848 11496 83202 10261 20258 30036 40044 58009 60131 79596
8692/ 333 59010 86894 82995 88499=
48855 11495 81601 10243 20236 30025 40033 59009 60191 79296
8592/ 333 59014 82894 81995 85697 88499 555 20239=
48870 11498 70000 10260 20249 30033 40040 53021 69952 70262
878// 333 01028 20245 3/023 59006 83894 87697=
48877 32598 70000 10253 20237 30047 40052 52020 8581/ 333
01027 20248 3/025 59002 81895 87499=
48887 12570 72904 10252 20231 30050 40056 53015 60032 82848
333 01026 20237 3/024 59001 81895 87299=
48900 41497 62807 10310 20256 30040 40050 57019 70262 868//
333 59015 83894 83696=
48914 11597 82703 10283 20252 30062 40064 57011 60021 76062
888// 333 59012 82895 86696=
48917 11598 73206 10277 20254 30059 40063 57007 69921 70382
878// 222// 00296 2//03 333 59007 82895 87696=
48918 32470 73405 10294 20250 30052 40063 58010 879// 222//
00290 2//01 333 59010 82894 87995=
48920 32598 71404 10261 20253 30053 40053 52023 878// 222//
00290 20302 333 20280 58010 83895 87696=
48803 11560 60000 10297 20249 39942 40051 58017 69941 70362
868// 333 58010 82895 85696=
48808 31570 21401 10322 20224 39771 40040 57023 70241 82201
333 59004 82895=
48823 32498 70000 10325 20267 30039 40042 57016 872// 333
59014 82894 86895=
48830 31570 63403 10311 20245 39755 40046 58020 71792 85901
333 59006 82895 83995=
48840 32598 50903 10320 20249 30040 40046 56017 85200 333
58000 85895=
48852 11460 83203 10275 20251 30019 40029 58016 60121 72998
8672/ 333 59017 86894 88499=
83895 87697=
48916 11598 82905 10291 20250 30021 40071 57005 60101 70382
889// 333 59019 86995 83696=
48802 11460 80000 10207 20191 38388 57009 69901 70262 888//
333 59001 83894 88696=
48810 32484 30902 10329 20236 39846 40042 57024 82201 333
59012 81894=
48831 32470 51402 10326 20244 30006 40042 58017 82201 333
59009 81894=
48838 11598 70903 10302 20262 30054 40060 57007 69941 70382
878// 333 58000 83895 87696=
48846 11497 80000 10281 20251 30052 40055 52006 60031 76062
888// 333 58007 82894 88697=
48863 32598 60902 10306 20249 30017 40026 58008 862// 333
59011 86895=
48866 11498 72704 10227 20192 39197 40067 58017 60011 70262
8671/ 333 59004 86894 87499=
48875 11460 71803 10242 20230 39527 40058 52017 60021 76062
878// 333 59007 84894 87696=
48907 11496 82704 10260 20250 30067 40069 57003 60041 78082
889// 333 59007 83894 88995=
83864 22254 02300 20604 317// 40605 5//// 80246=
82100 22263 00207 20302 322// 40504 5//// 6//// 80165=
57003 75082 887// 22213 00111=
48620 31572 61502 10326 20243 30060 40069 70522 82142 333 82822
86078=
48647 31464 71605 10299 20231 30042 40067 71522 82242 333 82818
87078=
48665 31472 72303 10301 20243 30058 40068 70521 82952 333 81916
84364 86078=
96413 42580 70303 10312 20244 30036 40061 85141 333 85820 85080=
96421 11465 70403 10299 20230 30036 40071 69901 71562 86963 333
81915 85817 85365=
96441 11480 71204 10272 20234 30071 40076 69981 70162 8457/ 333
84615 87365=
96449 12476 70804 10281 20239 30048 40068 60061 8317/ 333 83813
87365=
96471 11475 81003 10265 20243 30078 40081 60191 76166 84947 333
81814 81917 84635 88276=
96491 11465 72706 10303 20246 30061 40074 69941 71582 84948 333
81815 82917 87277=
51087 32680 73202 10257 20035 39139 40033 57007 83462 333
00051 20141=
51156 11775 70403 10184 20041 38642 40050 52005 69901 72500
85902 333 00101 20118=
98135 31475 31404 10310 20255 40105 58008 70544 83200 222//
20302
333 56399 83819=
98325 31460 51902 10346 20242 40064 58019 70544 82372 222//
20000
333 56999 82917=
98328 31460 51803 10244 20206 38510 40062 58010 70544 85301
333 56499 81912 84813=
98329 31475 50704 10330 20244 40068 5/022 70544 82202
333 56999 82818=
98336 32581 33604 10322 20297 40087 58010 82202
333 56199 82820=
98431 31470 50801 10318 20263 40081 58018 70544 81231
333 56999 81818 85080=
98440 32480 40902 10320 20274 40081 57018 83201
333 56299 83816=
98444 11468 40803 10332 20262 40077 57013 69941 70282 82202
333 56999 82818 86070=
98536 31470 50904 10323 20257 40065 57018 70544 82261 222//
20000
333 56299 82818=
98543 32475 50701 10344 20267 40071 58018 82201
333 56999 82818 84075=
98550 11460 70000 10296 20270 40066 58016 60031 72998 82970
222// 20101
333 56999 81915 87357=
98618 31475 73204 10328 20256 40070 58026 71744 84968
333 56999 83917 82819 86275=
98630 11580 60402 10330 20266 40074 58007 69921 70388 82208
222// 2//01
333 56199 82820 86275=
98637 31475 70405 10340 20248 40052 57023 70544 82206
333 56999 82812 86075=
98646 32460 60803 10320 20269 40090 57014 83932
333 56999 83918 84360 85080=
98653 11468 81203 10285 20259 40077 57017 60191 71564 8397/
333 56999 83916 88358=
98741 11470 50401 10315 20268 40077 57014 69901 70544 82208
333 56199 82818 85275=
98747 31470 53504 10320 20254 40047 57019 70544 83902
333 56999 82916 83075=
98753 31468 70902 10327 20252 40048 57027 70544 85938
333 56999 85915 84359 87279=
98755 32575 30902 10326 20271 40066 58013 82201
333 56999 82820 83080=
51334 32680 73602 10274 20067 40046 57016 81102 333 00254
20159=
51705 32780 32508 10201 21030 37770 57019 81102 333// 05200
20094=
51839 32968 40902 10279 20047 49969 57017 80002 333// 05101
20178=
51855 32970 02901 10286 20079 49964 57017 333 00000 20172=
51931 32965 73202 10283 20096 49979 57018 80002 333// 05203
20139=
52424 32780 81103 10304 20050 49975 57012 81107 333 05103
20141=
52446 32770 80906 10284 20058 49981 57019 81107 333 05101
20161=
52447 32970 80906 10279 21009 49984 57014 80007 333 05100
20168=
52576 32980 70905 10270 21028 38409 57014 83032 333// 00152
20216=
52633 32680 81102 10076 21008 36760 57009 889// 333 00258
20004=
52674 32780 70904 10214 20013 37963 57014 83502 333 05152
20075=
52707 32675 73404 10163 21048 37256 57002 879// 333 00256
20115=
52765 32580 70901 10192 21004 37148 57019 81102 333 05100
20051=
52825 32680 70000 10159 21007 37231 57005 875// 333 00156
20119=
52842 11568 83202 10105 20041 36971 57015 69901 76060 8272/
333 00157 20073=
52856 32580 71603 10192 20033 37171 57020 85902 333 05151
20079=
52895 32680 71806 10242 20066 40001 57006 81142 333 00356
20160=
53738 32780 81102 10290 20101 49998 57018 885// 333 20206=
53821 32980 72002 10283 20032 49997 57013 8704/ 333 00255
20196=
53929 32565 72903 10261 20116 40018 57007 8113/ 333 20178=
56034 32580 70202 10097 20026 35905 57019 879// 333 05406
20002=
56093 11580 80704 10157 20105 37656 57008 69901 76000 885//
333 00258 20119=
56125 32680 51102 10200 20032 36480 57031 85200 333 05301
20059=
57106 11461 82901 10158 20146 40070 57004 60141 76260 8372/
333 00363 20157=
57134 32680 83403 10209 20153 40017 57006 8557/ 333 00059
20165=
57144 32980 70000 10267 20151 40031 57010 8703/ 333 20168=
50742 32670 23405 10241 20089 40110 57004 82100 333 20124=
50853 11570 71403 10187 20133 40105 57004 60021 70098 86202
333 20154=
51186 32680 73203 10240 20047 40020 57010 82202 333 05151
20116=
51241 32780 70000 10188 20045 40067 57008 85432 333 00154
20122=
51330 32680 70902 10175 20049 40072 57004 81132 333 00155
20088=
51365 11770 71402 10223 20142 40046 57015 60011 70086 82532
333 00257 20169=
52661 32770 80406 10246 20015 38151 57017 81107 333 00051
20147=
52797 32780 72002 10250 20091 38294 57016 86102 333 00053
20142=
52984 32580 70404 10216 20124 38015 57017 86902 333 00152
20125=
52986 32670 70701 10208 20112 38047 57013 86902 333 00255
20129=
53740 11672 70704 10287 20093 40021 57005 69901 70060 86502
333 20186=
53754 32977 81104 10319 20050 40007 57013 82037 333 20203=
54063 11570 72203 10174 20154 40065 57005 60171 79598 879//
333// 20131=
54326 11780 70000 10225 20146 40107 52002 69901 79580 879//
333 20141=
57034 11964 82903 10277 20138 40010 57007 69901 76060 8807/
333 20218=
57232 32980 82906 10252 20179 40028 57012 8807/ 333 20185=
56188 11757 70000 10245 20182 40016 57008 69901 71080 8144/
333 05252 20209=
56475 32680 21804 10303 20158 38222 57029 82400 333 05403
20162=
56485 32770 11104 10271 20165 49986 57018 81100 333 05401
20166=
56533 11575 81601 10208 20179 38369 57009 60031 78088 889//
333// 00154 20165=
56543 11680 72005 10152 20074 36857 57004 69911 72580 879//
333// 05152 20100=
56565 32580 72207 10231 20085 37450 57013 87900 333 05302
20152=
56741 32680 31802 10239 20142 38159 57012 83202 333// 00000
20178=
56875 11680 62002 10262 20169 38314 57015 69911 72580 86340
333// 05100 20199=
56994 11580 71403 10244 20191 40056 57017 60011 70080 85102
333// 00253 20200=
57313 11640 80701 10194 20185 40033 52002 60251 79598 889//
333 05259 20192=
57432 32980 80000 10309 20209 49998 57017 8807/ 333 20196=
57574 32574 71803 10330 20257 40042 57010 8114/ 333 20245=
57583 32575 71601 10333 20254 40047 57009 8213/ 333 20229=
57649 11470 82702 10277 20246 40044 57013 60021 79500 889//
333 20215=
57682 32680 51807 10326 20240 40061 57012 82140 333// 20210=
57774 32570 72203 10333 20232 40054 57014 83132 333 20233=
50349 32670 63607 10205 21004 40114 57008 86200 333 20029=
50514 32980 22501 10230 21056 40131 57012 80002 333// 20087=
50758 32570 43604 10239 20074 40093 57012 84100 333 20156=
50775 11662 80201 10142 20122 40111 57006 60011 76060 8552/
333 20124=
50862 11665 41602 10188 20140 40105 57008 60071 70098 81202
333 20130=
50877 11670 83603 10175 20131 40106 57006 69901 70060 889//
333 20129=
52645 11780 83203 10061 20028 36803 57012 69921 76000 885//
333 00260 21002=
52657 32680 72903 10155 20020 37234 57019 879// 333 00053
20066=
52868 32680 70404 10212 20069 37695 57023 84902 333 05152
20108=
52876 32670 81103 10224 20108 38113 57019 889// 333 00055
20118=
52943 11580 72501 10121 20059 36785 57009 69901 78080 83902
333 00055 20037=
53942 32960 72004 10286 20085 40007 57008 8703/ 333 20205=
54213 32680 20000 10250 20102 40108 57003 82100 333// 20144=
54285 32570 50000 10238 20086 40117 52013 84902 333// 20051=
56074 11580 71101 10118 20060 36652 57013 69901 70060 878//
333 05155 20069=
57143 32960 71101 10268 20160 40030 57008 8703/ 333 20179=
55248 32780 60000 10114 21066 35921 57010 86202 333 05152
21001=
55294 11680 71603 10058 21002 35734 52005 60021 70080 879//
333// 05101 21001=
55437 32780 31605 10141 20012 36342 57007 83200 333 05201
20027=
55493 11780 62202 10094 20035 36024 57006 60021 79598 86900
333 05200 20041=
55569 32780 30000 10177 21025 36207 57020 83200 333// 05201
20080=
55585 32280 60901 10177 20055 36369 57018 86400 333 05251
20079=
55680 32880 60000 10163 20031 36219 57018 86200 333// 05200
20033=
56202 11680 72906 10115 20012 35870 57010 69901 70080 86240
333// 05200 20026=
56178 32780 22902 10300 20096 37570 57037 82100 333 05402
20144=
56251 32680 61802 10250 20074 36895 57030 86400 333 05301
20075=
56386 31930 82904 10280 20201 40001 57010 71000 8807/ 333
05451 20228=
56459 11880 21605 10268 20088 37591 57019 69901 70080 82400
333 05405 20171=
56548 32580 72704 10196 20126 37676 57008 8724/ 333// 00055
20135=
56664 32580 51104 10339 20136 49966 57026 85400 333// 05403
20213=
56793 11580 51802 10247 20204 38425 57012 69961 72580 85200
333 05152 20194=
56856 32680 61602 10300 20190 40015 57018 86202 333// 05100
20198=
57405 32970 73602 10251 20196 40010 57007 8703/ 333 20216=
57606 11565 71606 10281 20193 40005 57015 69901 70060 878//
333 20218=
57803 32575 71803 10270 20182 40010 57013 87800 333 20200=
57806 32580 51806 10247 20185 40036 57009 85100 333 20201=
57825 11580 61804 10278 20198 40044 57012 69901 70060 86140
333 20224=
57872 32680 31805 10334 20235 40056 57016 81142 333 20245=
57906 32580 72502 10298 20214 40045 57014 87800 333 20206=
57965 11580 72203 10307 20222 40065 57015 69901 72500 874//
333// 20237=
58519 32970 72002 10303 20254 40073 57012 8704/ 333// 20228=
58608 11965 72702 10315 20257 40072 57012 69901 72160 8707/
333// 20241=
58626 32570 22902 10330 20250 40067 57018 81240 333// 20230=
55228 32780 22504 10121 21102 36031 57008 82100 333 05201
20013=
55578 32780 21602 10178 20032 36351 57017 82200 333// 05200
20064=
55664 32880 30000 10156 20018 36003 57014 83100 333// 05202
20021=
55773 11670 61111 10098 20033 36029 54000 69901 70080 86200
333// 05101 20039=
56116 11680 60000 10182 20036 36313 57019 69901 72500 86900
333// 05302 20057=
56137 32680 62007 10233 20000 36755 57027 86200 333// 05302
20080=
55279 11680 23204 10048 20022 35720 52004 60021 78098 82900
333// 05152 20015=
55472 11780 72706 10080 21005 35747 57007 69901 78380 879//
333// 05251 20045=
56106 32680 61405 10154 20016 36185 57021 86900 333 05402
20030=
51477 11670 62703 10198 20104 40045 57011 69901 72580 82462
333 00256 20151=
51633 32780 71601 10234 20082 40015 57007 81432 333 05200
20113=
51701 11580 70000 10056 21023 36622 57005 69901 70080 86402
333 05202 21014=
51720 32580 60402 10247 20041 40005 57014 82902 333 05201
20145=
52101 32880 70403 10216 20029 38295 57008 83102 333 00151
20078=
52974 11575 80401 10181 20092 37487 57014 69901 78080 889//
333 00152 20106=
53519 32965 71403 10292 20009 40022 57018 80002 333 20186=
53602 32680 71404 10262 21049 38376 57012 81102 333// 20201=
53615 32670 72904 10284 20031 40017 57018 81502 333 20164=
53810 11780 71403 10276 20091 49997 57022 69901 70080 85402
333 20188=
53817 32680 70905 10236 20036 38181 57016 81132 333 20152=
53903 32980 71404 10210 20040 38032 57009 8703/ 333 20137=
56043 11580 83405 10080 20068 36453 57011 60041 76066 888//
333 00160 20051=
47105 41558 83403 10178 20128 30105 40135 57000 72052 8552/=
47108 31956 62706 10254 20162 30014 40113 50001 70522 82502=
47115 32550 42001 10204 20152 39865 40120 51007 71000 82520
333 92032=
47135 32965 31101 10279 20129 39821 40094 58003 83030=
47138 32962 50505 10198 20141 30128 40132 57001 80001 333
92023=
47159 32970 00904 10218 20133 30044 40123 55001=
47165 32963 43206 10226 20145 30075 40118 50001 80002 333
92023=
47184 32670 43603 10201 20146 30096 40123 55004 82501 333
92022=
47008 42965 00701 10163 20097 30070 40122 58013=
47014 42650 60000 10227 20167 39696 40067 57009 86550=
47016 42570 53202 10241 20078 39258 40084 57011 85900=
47020 42565 80000 10221 20156 39758 40110 58002 8802/=
47025 42560 21602 10120 20106 30093 40124 53001 82500=
47035 42770 81801 10202 20151 30116 40124 57007 8802/=
47041 42765 81804 10186 20131 30108 40134 52007 8802/=
47055 42965 80503 10166 20126 30102 40145 54000 8805/=
47058 42566 72904 10239 20147 30073 40117 54000 82530=
47069 42960 60000 10215 20157 30012 40106 58002 80002=
23914 32999 71804 10178 20062 40177 52008 83032 333 20142=
23921 32999 20302 10165 20019 40204 54000 82040 333 20042=
23955 42698 60204 10104 20019 40087 52003 86800 333 84634=
24641 42599 22802 10237 21007 40068 57012 82101=
28440 32998 01102 10167 20006 40166 58003 333 20084=
28748 32660 13206 10162 20045 40150 52003 81100 333 20078=
29231 42498 82403 10079 20049 40042 52013 883// 333 87914=
29838 41597 62207 10188 20120 40009 51006 70262 86900 333
86928=
30372 42999 72402 10206 21022 40078 57021 80008=
30673 42699 33601 10218 20032 40097 57016 81104=
30823 42659 22703 10273 20076 40055 57023 82100=
30935 42699 12404 10223 20090 40074 57009 81100=
30965 42999 61003 10229 20000 40119 57012 80002=
31004 42999 20503 10158 21009 40102 58008 80001=
31088 42599 71809 10054 20032 40100 54000 83571=
31137 42699 72702 10136 20023 40057 57005 86930=
31300 41599 63303 10195 20055 40086 50000 78182 88300 333
91011=
31329 41499 80701 10115 20103 40081 58003 70282 889//=
31369 42998 21009 10159 20065 40101 57021 80002 333 91014
91114=
31371 42599 63602 10192 20056 40105 58005 84950=
31388 41596 60000 10138 20104 40097 53012 79598 86900=
31416 42999 12102 10214 20038 40064 57024 80001=
31510 426// 63203 10216 20038 40088 58008 86200=
31594 42698 83205 10212 20097 40069 57019 83231=
31707 41597 82905 10163 20105 40102 57006 78081 8698/=
31735 42597 23002 10196 20074 40084 57017 82200=
31866 42998 50508 10074 20062 40132 58010 80001=
31873 42599 13202 10220 20084 40078 57011 81100=
31909 42599 21402 10137 20056 40124 58007 82109=
31960 42599 31907 10152 20053 54000 81260=
32053 42398 21107 10057 20028 40145 57011 81602 333 91011
91112=
32061 42398 72803 10098 20051 40140 57012 82501=
32098 42398 81405 10053 20036 40165 57008 886// 333 88707=
32150 42998 73505 10096 20045 40137 57007 82051 333 91112=
32165 41340 80704 10049 20042 40116 57006 76362 8872/=
47003 42980 11405 10140 20095 30126 40130 58015 80001=
47005 42680 61801 10159 20086 38582 54000 86200=
47028 41663 80000 10195 20156 30040 40129 52003 70262 885//=
47031 41560 81802 10117 20114 76162 885//=
47037 41967 81801 10224 20148 30001 40117 52001 70262 8805/=
47039 41560 83203 10177 20174 39957 40141 52030 72532 885//=
47046 41950 82304 10152 20119 30120 40143 53015 71021 8803/=
47050 42565 72901 10211 20151 30089 40121 52007 87502=
47060 42960 72709 10181 20139 30065 40120 52007 87033=
47065 42965 53402 10232 20154 30060 40121 54000 85030=
47067 41560 61804 10251 20137 30003 40114 57006 71020 86500=
47068 42570 42704 10216 20152 30085 40142 57001 81130=
47070 42570 12306 10226 20167 30036 40117 57001 81200=
47075 42580 40000 10225 20139 39712 40112 52002 84200=
98223 31570 12902 10331 20267 40080 57009 70544 81200 333
56999 81820=
98429 31562 60903 10334 20222 40082 57012 70544 83831 333
56999 83823 83360 84380=
98836 31565 72402 10324 20254 40059 57026 70544 83271 333
56999 83820 86362=
44207 32599 71403 10232 20050 38266 49999 56017 83203=
44212 32599 73605 10273 20073 38953 49951 58008 84530=
44218 32698 50000 10225 20078 38482 49936 57001 85200=
44231 31299 30000 10201 20053 38647 40033 58003 80004=
44232 32699 30000 10294 20124 39008 40016 57032 83100=
44239 32699 31401 10259 20093 38729 40008 58009 83100=
44241 32699 22303 10290 20080 39166 40038 57017 82200=
44259 41598 70901 10242 20030 39290 40116 58004 70262 84710=
44272 32598 72504 10227 20011 38150 49944 58013 87900=
44282 32699 61405 10250 20025 38252 49990 57013 85803=
44284 32699 61805 10207 21041 37844 49985 58020 84202=
44285 32699 42004 10252 20045 38287 49998 57013 82203=
44287 32599 61805 10030 20064 38103 40000 57009 84202=
44288 32699 32706 10220 20027 38152 40018 57008 83100=
44292 32699 41803 10258 21038 38653 40024 58011 83204=
44294 32698 62704 10246 20084 38536 40049 58007 86200=
44298 32599 31801 10246 20023 38684 40038 58014 83200=
44304 32599 50505 10255 21007 38946 40054 58017 83940=
44305 32599 60000 10257 20110 39012 40082 53013 85840=
44314 32998 61403 10233 20019 39136 40138 57003 82063=
44341 32999 20203 10245 20038 38573 40043 58011 82060=
44347 32699 51405 10262 20074 38668 40036 58007 81181=
44352 32699 20000 10149 20081 38897 40077 58006 82100=
44373 32999 61106 10246 20050 38489 40022 58016 82088=
28661 32699 33409 10139 20048 40142 52004 83100 333 20079=
28679 32699 63306 10128 20030 40101 52006 86400 333 20088=
28879 11599 73407 10134 20073 40080 52005 69970 70382 87900
333 20088 87930=
28952 32698 23608 10160 21022 40139 52008 82100 333 20083=
29023 42598 73604 10099 20023 40051 54000 82230=
29122 42599 63305 10093 20030 40060 51005 83530=
29807 32697 80304 10149 20046 40037 53010 86230 333 20098=
30230 42599 81105 10253 20050 40034 57017 82101=
30309 42998 51503 10236 20082 49997 57011 85030=
30650 42999 41804 10222 21025 40086 57015 80001=
30710 42960 81707 10262 20051 40022 57017 80004=
30844 42599 51002 10240 20051 40054 57013 85200 333 85832=
31532 41599 72303 10213 20036 40055 57015 71791 87900=
31829 42498 50409 10064 20046 40131 57014 81609=
31989 42999 11204 10106 20056 40121 54000 80001=
35078 12798 53409 10148 20068 40060 56002 60020 83860 333
20096=
35108 32997 00301 10225 20114 40166 57002 333 20107=
35188 11698 80000 10118 20074 40059 53008 60010 72582 889//
333 20106=
35229 32998 03403 10220 20076 40135 57006 333 20067=
35416 32997 12902 10232 20056 80001 333 20082=
35671 32598 63207 10170 20051 40065 58006 86900 333 20080=
35746 32698 30107 10213 20071 40121 52002 83100 333 20108=
35796 11598 82106 10185 20130 40025 57010 69930 70282 83907
333 20141=
36003 31497 83303 10142 20115 40029 52001 69980 70282 889//
333 20120=
36177 11597 72202 10192 20114 40015 57004 69940 70282 85301
333 20105=
36428 11597 72510 10225 20135 40026 58002 69910 79598 86950
333 20116 95000=
36859 12599 61401 10209 20090 40062 58011 69900 82274 333
20132=
36870 12697 20902 10238 20051 40020 58004 69910 82173 333
20132=
38198 11999 73004 10231 20064 69930 70282 87040 333 20150=
38341 32699 63606 10233 20058 40040 57001 82402 333 20115=
51232 32680 73603 10279 20051 40055 57010 81132 333 00205
20193=
52818 11765 82903 10157 21030 37222 52001 69901 70060 885//
333 00156 20120=
52908 11967 80407 11015 21034 35779 52004 60021 72277 8802/
333 05156 21029=
51526 11780 30702 10263 20073 40008 57016 69901 70080 82962
333 05100 20166=
55598 32780 63401 10188 20070 36579 57013 86800 333 05251
20084=
55690 11480 72207 10081 20064 36000 57009 69981 70080 872//
333// 05202 20034=
55696 11680 33603 10145 20054 36343 57014 69921 72580 83900
333// 05251 20069=
51437 32680 72002 10144 20072 38101 57011 82402 333 00052
20051=
51642 32770 73602 10286 20046 49989 57010 85902 333 05202
20163=
51495 32780 73408 10284 20027 40082 57011 85402 333 05100
20207 91119 91536=
55591 32780 73205 10196 20030 36497 57017 879// 333 05200
20101=
56312 11680 70402 10197 20102 37057 57020 69911 72580 874//
333 05302 20101=
51288 32680 72906 10205 20003 38277 57009 81462 333 00000
20122=
51068 32680 73601 10254 20080 40043 57005 81462 333 00153
20166=
48657 31475 71803 10337 20230 30042 40060 70522 83241 333 83819
86078=
22550 12497 62703 10140 20070 40164 52016 69990 85301 333 20125
85919=
22583 12784 13601 10229 20144 40115 58001 60030 81200   333 21039=
22768 12597 63503 10178 20128 40154 51007 69910 85830   333 20150
84632=
22845 11498 70202 10123 20085 40166 58014 60090 70282 879// 87900
333 20104 87918=
22887 32570 51603 10252 20134 40141 53001 82101   333 20136=
23205 32984 22302 10233 20148 40109 57013 80001   333 20127=
23219 32998 11704 10190 20032 40155 57010 80002 333 20046=
23418 32970 21304 10209 20059 40157 58005 80001 333 20122=
23711 32598 79901 10178 20137 40171 58007 83530 333 20135=
23804 32999 21801 10273 20156 40140 51001 80001 333 20155-=
27199 32998 02201 10265 20105 40165 58006   333 20142=
27271 32598 21303 10248 20146 40148 58003 82900   333 20153 20154=
27459 32598 82401 10234 20145 40148 50001 83901   333 20182=
27730 32965 61903 10215 20121 40133 52004 85031   333 20174=
22954 12368 80403 10124 20109 40158 57001 60030 887//   333 20112
86714=
23405 32981 50803 10232 20138 40121 54000 82031 333 20148=
23412 32998 61404 10198 20085 40152 57008 82031 333 20104=
23803 32999 01301 10254 20143 40148 58005 333 20116=
27066 32998 01401 10249 20139 40144 58006   333 20135=
27083 32999 02001 10247 20110 40155 58001   333 20112=
27113 11497 80303 10115 20093 40153 58005 69900 70282 883//   333
20109 86710=
27242 32984 30902 10236 20260 40128 58003 60020 80400   333 40357=
27329 11933 71001 10193 20154 40118 57009 60050 72842 82041   333
20129=
27355 12581 61802 10233 20141 40140 53007 69900 86900   333 20200=
27373 32599 12004 10255 20080 40146 58003 81200   333 20137=
27665 32584 30000 10246 20143 40155 52002 83900   333 20175=
27823 32582 81803 10194 20130 40141 52018 83131   333 20160=
28009 32998 00000 10249 20111 40167 52003   333 20101=
28411 32997 03202 10226 20095 40171 58004   333 20103=
22282 11557 61805 10076 20062 40095 53021 60050 71083 82510   333
20042=
22641 12484 82904 10134 20082 40169 51009 60230 82531 333 20099=
22695 32984 21802 10264 20118 40122 58001 82030 333 20118=
22854 12384 50402 10142 20092 40160 58002 69940 85600   333 20116
85708=
22867 12589 20000 10178 20128 40148 58003 60020 81101   333 20146=
22939 11496 83603 10106 20088 40161 58013 60090 79598 883//   333
20104 88916=
22996 32970 02503 10259 20097 40151 58005 333 20163=
27008 11474 82702 10103 20089 40170 58012 69970 72582 889//   333
20081 88919=
27051 32965 60802 10231 20152 40129 57012 80001   333 20162=
27225 33464 80303 10161 20136 40129 58016 885//   333 20130 88619=
27252 31470 71402 10208 20152 40141 52003 71798 87900   333 20152
87919=
27369 32681 21302 10252 20151 40142 53007 82300   333 20161=
27393 32998 00000 10247 20103 40174 58005   333 20138=
27479 32599 21001 10224 20134 40158 54000 81201   333 20194=
27532 32997 61705 10243 20131 40128 58002 82031   333 20166=
27648 32963 11703 10224 20126 40140 57001 80001   333 20170=
27679 32981 21602 10243 20119 40165 54000 82041   333 20138=
31285 41698 82701 10130 20130 40097 53005 72582 885//=
31561 42699 32304 10204 20086 40080 57023 81101=
32010 41997 21407 10134 20025 40134 57011 80001   333 91012 91114=
38413 42998 60305 10278 20037 40087 58009 80001   333 20181=
16138 31940 40705 10190 20146 30213 40223 52010 710// 80008
333 20140 30///=
91165 32966 00211 10239 20194 30118 40170 53008 90553 333 10278
20222 555 90106=
91182 32566 29905 10250 20189 30156 40161 53013 90553 333 10306
20217 555 90106=
91190 32766 20411 10239 20189 30138 40167 53013 90554 333 10300
20200 555 90106=
91212 12566 40813 10306 20239 30005 40103 56011 69901 90554 333
10311 20261 555 90106=
91285 32566 80603 10240 20190 30152 90610 555 90106=
91348 11461 81408 10241 20231 30034 40086 52005 60431 78182 8636/
333 5629/ 70439 555 90106=
91356 11462 80718 10266 20228 30067 40074 55000 69931 78082 84278
333 56299 70279 84816 83363 555 90106=
91366 32474 80810 10280 20239 30071 40080 53003 83877 333 56234
70066 555 90106=
91371 32474 70810 10289 20269 30125 40128 86637 333 56229 86815
83280 70000 555 90106=
91408 32474 81409 10294 20249 30032 40070 56014 83973 333 56299
70005 555 90106=
91765 32466 71217 10271 20216 30100 40103 52015 87400 333 563//
70013 555 90106=
91245 32566 80714 10290 20250 30127 90550 555 90106=
91339 32574 80000 10306 20253 30061 40067 56010 83202 333 561/9
83820 88075 555 90106=
91353 32474 60606 10289 20251 30069 4074 54000 85230 333 5611/
70203 85818 555 90106 91425 32574 40402 10283 20250 30062 40063
56007 81203 333 561/9 70279 81820 83080 555 90106 91434 32574
81001 10294 20241 30068 40071 56007 82201 333 562/9 70000 82819
86081 555 90106=
40001 32970 00102 10272 20102 40063 51006 333 20206 30XXX 51364=
40007 32970 02902 10255 20123 40077 53002 333 20170 30XXX 50864 55///
40025 32965 02601 10262 20159 40103 50001 333 20175 30/// 50///=
40045 32970 03603 10277 20015 40085 52007 333 20213 30/// 50///55125=
40080 32965 00000 10232 20093 39421 40095 51011 333 20118 30///=
40095 32970 00000 10218 20122 39490 40096 50010 333 20157 30/// 50604
55124=
31478 42684 63502 10149 20004 40045 57010 86900=
61017 32960 40418 10302 20061 39697 40087 80002
333 02300 20285 51624 55113 58005 84080=
61024 32960 60806 10280 20057 39534 40076 83082
333 01900 20265 52901 55084 58015 83364 84080=
61036 11960 7//// 10255 20206 39872 40104 69914 70262 85042 90545
333 02312 20253 51421 51234 55105 58039 85364 83080=
61043 32960 52206 10265 20204 39661 40087 80001 90545
333 02500 20262 51201 51124 55080 58021 85080=
61045 31906 7//// 10310 20080 39596 40070 70642 80008 90545
333 02700 20300 51721 51424 55111 58009 87280=
61049 31956 7//// 10295 20088 39763 40075 7052/ 81038 90545
333 02400 20288 51581 51324 55108 58001 81364 87280=
61052 11960 71406 10250 20211 39848 40093 60014 70196 85082
333 02355 20240 51631 55090 58018 85364 83080=
61075 32965 71804 10262 20192 39792 40091 69924 80008 90545
333 02300 20258 51211 50724 55112 58020 87280=
61080 12960 70000 10250 20196 39662 40073 60164 81048 90545
333 02200 20248 50411 55072 58016 81365 87280=
61090 12962 72808 10275 20188 39589 40079 69904 80008 90545
333 20275 51651 52234 55092 58012 87280=
61096 31950 70000 10300 20124 39703 40069 7052/ 80008 90545
333 02800 20280 51771 51284 55112 58005 87280=
61099 12965 7//// 10244 20201 39/// 40/// 60034 87070 90545
333 02256 20224 50534 55113 87464=
44213 32699 53205 10281 20094 38660 49942 58001 85200=
44215 3269863209 10207 20062 38304 49949 51000 86200=
42101 31696 30903 10340 20237 49997 70500 81530 333 59030 81635
82360=
42260 31996 02012 10354 20227 49998 70109 333 59034=
20046 11476 72409 10012 21011 40025 57003 69990 70232 875//
333 21046 87614 91113=
20069 41436 81812 11028 21038 40120 57020 77173 8652/ 333
86612 91116=
20087 42371 82006 11050 21057 40186 57031 886// 333 88708=
20292 42480 70102 11024 21033 40207 57005 87500 333 87613=
20667 32497 72206 11017 21028 40217 58017 87500 333   21069 91108=
20674 42373 70000 11027 21053 40226 58005 875// 333 86707=
20744 31497 81214 10116 20090 40063 57019 78082 8535/ 333   20047
85916 91122=
20891 42497 70405 10020 21017 40138 52009 83530 333 83612=
23022 32997 31707 10092 20027 40172 57012 80001 333   21007 91110=
23032 32968 60807 10022 20003 40209 58014 86030 333   21017 91109
80012=
23256 32499 53506 10020 21011 40180 57003 85300   333 21014 84413=
23330 32998 61902 10080 21002 40219 57008 84031   333 20016=
23552 31997 03205 10087 20009 40149 57003 70731   333 20021=
23631 32999 00703 10102 21002 40218 57003   333 21006=
23734 32998 00303 10128 21014 40201 58006 333 20027=
23849 42796 33507 10095 21017 40136 52002 83100=
23933 32597 50104 10083 20021 40188 52006 85500 333 20052=
28275 32599 83605 10115 20019 40147 52005 83932   333 20060=
28493 32699 70105 10102 20036 40087 52010 87500   333 20073 87637=
28698 12598 63506 10134 20076 40072 52013 69910 83931   333 20089=
23426 32989 00902 10094 20004 40219 57007   333 20004=
28076 32597 60304 10093 20015 40164 52007 86200   333 20059=
28367 32696 10104 10128 20045 40156 57001 81100   333 20069=
28382 32698 70107 10093 20011 40129 52009 87500   333 20050 87633=
28481 32599 70206 10112 20000 40119 52006 87500   333 20054=
28491 32698 73506 10098 20011 40099 52011 87500   333 20067 87643=
28573 32689 63606 10111 20011 40120 52012 85801   333 20070=
28593 32584 73606 10128 20045 40071 53005 87100   333 20072=
28786 11598 82002 10134 20090 40074 52007 60010 70282 84332   333
20093=
28797 11597 83504 10132 20097 40060 51003 69930 72522 86901   333
20098 86922=
28799 32598 83504 10149 20070 40048 54000 86931   333 20080 86921=
44216 32999 10000 10213 20064 38844 49947 58007 80004=
23274 42598 63609 10070 20004 40102 51004 86500   333 86630 91113=
23662 32599 73408 10051 21008 40094 52006 87500   333 20020 91012
91112=
23788 41398 80000 10130 20124 49960 52003 70284 889//=
23986 41256 80303 10104 20100 49993 52016 78082 883//   333 86706
88920 95000=
36087 42699 62701 10235 20076 40125 58002 85902   333 95000=
36096 42699 63302 10296 20023 49939 57005 83531   333 95000=
36103 42699 70000 10266 20081 49957 58016 82902   333 95000=
36259 42599 62902 10172 20034 38151 48401 58005 84901=
36307 41699 71804 10280 20029 38800 48409 58003 70232 84201   333
95000=
42492 31596 22702 10332 20234 40012 70500 82500 333 59035 82620=
42591 32996 03202 10352 20188 40007 333 59053=
42701 32496 23606 10430 20183 39303 49993 82500 333 59025 82618=
42798 31596 10000 10360 20217 40000 70500 81100 333 59017 81825=
42886 32996 10000 10344 20228 40011 81030 333 59009 81360=
42895 32596 60000 10316 20254 40018 83230 333 59002 83620 85360=
42971 32596 42904 10346 20254 40020 81531 333 59002 81620 83075=
23929 32998 02702 10125 20000 40197 52001 333 20062=
28383 32698 83302 10092 20015 40120 52009 888//   333 20054 86643=
28465 32681 43604 10125 20000 40147 52006 84100   333 20057=
28586 32599 73405 10115 20082 40092 52014 87500   333 20073 87624=
28588 32582 70506 10114 20038 40097 52010 87500   333 20075=
28688 32998 80206 10126 20050 40086 52008 8802/   333 20092=
28696 32599 73505 10142 20068 40064 52005 87200   333 20063 87827=
28791 32599 73003 10119 20078 40070 52008 87900   333 20100 87925=
29367 42584 51303 10193 20123 49992 58006 83204=
30253 42998 32001 10238 20019 40084 57031 80001=
48601 31560 72208 10302 20254 30065 40169 70522 82231 333 82820
87078=
48615 31468 70805 10320 20220 30059 40065 70522 84212 333 84814
87074=
87078=
96465 11475 71406 10275 20230 30043 40077 60011 70162 85848 333
83812 83640 87279=
96481 31460 73503 10310 20243 30041 40063 71522 8397/ 333 81817
81918 86364=
82917 87277=
27037 12468 80103 10152 20134 40141 58007 69930 885// 333
20127 87711 znsw=
60402 32970 22404 10188 20167 40204 53004 80002
333 01500 20163 82073 95900=
60580 32960 20000 10262 20098 40160 53002 82031
333 0//00 20245 82360=
60611 32960  00714 10240 20099 40141 55005
333 0//00 20240=
60656 32960 30813 10260 20065 40111 51010 82032
333 02400 20258 82360=
60680 32965 10410 10230 20065 38667 48535 55005 81030
333 01800 20216 81362 95900=
42634 32596 62313 10350 20222 40029 86800 333 59019 83620 84825=
42647 32596 62706 10344 20228 40039 86800 333 56600 59020 83620 83825=
42737 32597 52909 10342 20258 40033 84801 333 56709 59020 82625
83830=
42909 32597 32709 10326 20262 40053 82802 222// 20000 333 59015
81620=
60355 32960 01808 10206 20163 40203 54000
333 0//00 20177 95900=
60550 33970 12302 10193 20032 38724 48574 53003 80001
333 01300 20184 81073 95900=
60555 32970 20204 10261 20148 40175 53010 82030
333 02400 20250 82360=
60560 33970 20000 10172 20036 39000 48562 53010 80002
333 01400 20166 82073 95900=
60602 32965 00000 10365 20012 40117 56006
333 000// 95900=
48010 32556 71801 10300 20254 40031 83170 333 56550 59025=
48019 32558 81401 10270 20240 40062 75022 8567/ 333 56669 58022=
48025 32458 80901 10310 20265 40036 86900 333 56600 59009=
48035 32560 60000 10312 20225 49986 84961 333 56599 59027=
48042 32557 51801 10335 20244 40031 83861 333 56449 59009=
48045 32558 60000 10257 20215 86300 333 56200=
48053 32560 51801 10330 20234 40024 84801 333 564/9 59013=
48060 31556 40000 10292 20215 40004 75099 84900 333 56500 59017=
48071 32566 63202 10314 20281 40036 83336 333 56799 59010=
48077 32560 70000 10330 20275 40045 84930 333 56690 59016=
48078 32550 51801 10304 20250 40047 83331 333 56499 59002=
48080 31561 80000 10295 20259 40042 75055 86770 333 56590 59003=
48108 32596 80000 10290 20248 40076 84237 333 56399 59005 =
48109 32497 72201 10291 20259 40052 85970 333 56590 59013=
48300 32565 30000 10325 20239 39735 40030 82505
333 58003 70220=
48327 32665 42102 10297 20232 39682 40029 84805
333 58001 70036=
48331 32565 20000 10335 20247 39808 40030 82903
333 59005 70003=
48356 32562 50302 10322 20247 39842 40033 82903
333 59012 70032=
48407 01357 80201 10260 20247 39907 40047 60131 76166 8587/
333 59001 60057 70566=
48456 32560 72606 10321 20247 30034 40051 83837
333 58007 70088=
48480 31558 80000 10301 20254 30048 40052 71022 8687/
333 58001 70398=
48565 01460 62406 10291 20250 30061 40072 60011 72162 82246
333 59015 60017 70014=
48303 11565 52701 10310 20238 39594 40025 60011 70162 84846
333 59006 70026=
48328 32565 50000 10319 20238 39760 40028 83545
333 58001 70121=
48330 32465 62601 10322 20241 39850 40031 84933
333 59003 70012=
48354 11568 53201 10322 20239 39830 40027 69901 70162 84205
333 59016 78888=
48379 32561 70000 10323 20249 39894 40023 83836
333 59010 70001=
48400 32562 60000 10323 20257 30002 40042 83546
333 59001 70055=
48462 31558 80000 10317 20258 39991 40045 71022 82276
333 59001 70122=
48475 32560 80000 10308 20236 30041 40052 85877
333 58000 70011=
48062 /2460 81802 10300 20270 40032 85970 333 56590 59013=
48325 11565 60000 10319 20234 39802 40038 69941 70162 83806
333 58010=
51346 32780 43403 10277 20071 40033 57012 82402 333 00152
20181=
48352 32565 50000 10320 20249 39837 40031 84201
333 59012=
48357 32564 70000 10337 20246 39881 40043 83246
333 59006 70013=
48383 32563 80000 10300 20252 39875 40030 85876
333 59010 70365=
48403 32560 81901 10303 20244 39833 40040 83546
333 59011 79994=
48405 11560 80000 10310 20249 39877 40035 60011 70262 85556
333 59015 70035=
48425 32562 72502 10335 20234 30030 40040 86246
333 59002=
48426 32562 70000 10324 20243 30027 40041 83876
333 59001 70038=
48430 32562 60000 10320 20249 30037 40045 83346
333 58003 70011=
48450 32562 62702 10332 20224 30014 40046 82846
333 58005 70006=
48550 32560 83003 10289 20240 30063 40069 81176
333 59009=
48552 31458 83103 10320 20229 30054 40061 71522 84876
333 59009=
48460 32562 72802 10318 20250 30025 40056 84876
333 59001 70195=
48501 01560 72301 10306 20257 30049 40057 60031 70166 83276
333 59007 69917 70951=
48564 01460 82903 10287 20228 30064 40068 69901 76022 85876
333 59008 69905 79999=
48580 32560 83503 10308 20247 30051 40058 86857
333 59012 70004=
48353 32563 61502 10312 20245 39752 40045 82206
333 59012 70165=
48375 32565 63006 10315 20247 39813 40033 85906
333 58003 70009=
48378 32562 62302 10334 20243 39984 40034 83206
333 59008=
48381 32560 73303 10310 20238 39822 40038 85806
333 59012=
48431 32460 80000 10312 20240 39832 40039 84376
333 59006=
48500 01558 83003 10293 20235 30050 40056 69901 76022 8652/
333 58003 69905 70033=
48551 32560 82202 10295 20242 30061 40069 83577
333 59013=
48583 32562 60000 10320 20237 30054 40059 82206
333 59006=
48351 32563 72302 10326 20245 39962 40033 85836
333 59009 70031=
48377 32564 50000 10340 20224 39867 40028 82105
333 58001 79999=
48432 32560 82401 10290 20247 39879 40044 84276
333 59006 70012=
48455 32565 62602 10310 20238 30045 40049 84846
333 59004 70398=
48477 32464 72604 10327 20243 30042 40056 83976
333 59003 70024=
48532 01450 80000 10254 20245 30066 40075 60221 76166 8672/
333 59004 60207 70659=
48567 01562 82504 10308 20267 30043 40060 69971 72522 83976
333 59013 69905 70017=
92023=
92022=
44214 41698 80000 10126 20084 38225 40053 52026 71562 86570=
44277 32699 61806 10183 20074 37778 40011 57007 84550=
44354 32699 61105 10261 20109 39060 40049 58011 86200=
58968 32660 73104 10341 20236 30081 40088 57018 86430=
58974 32565 21507 10303 20270 39987 40102 57015 81230=
59358 32965 32805 10334 20251 30081 40092 57015 80001=
59559 32570 31703 10330 20246 30072 40099 57010 83200=
59792 32563 41403 10320 20267 30094 40099 57007 84200=
59997 12565 81502 10302 20253 30050 40064 57019 69951 82220=
59158 32570 22503 10337 20234 39993 40088 57016 81202=
59562 32580 21802 10317 20258 30088 40099 57011 82100=
59567 11470 62003 10277 20250 39741 40107 57009 69901 70182
84430=
44358 32798 60000 10250 20142 39032 40072 55012 86200=
26063 32997 12502 10133 20067 40198 52004 80001 333 20093=
26298 11496 83601 10083 20074 40178 54000 60102 76362 8272/
333 20082=
26477 32570 63004 10148 20095 40181 52009 84201 333 20079
84522=
26702 31996 02802 10133 20085 40233 52011 71000 333 20055=
26850 11565 83402 10136 20062 40195 52010 69902 70262 81501
333 20117=
26997 11457 83304 10121 20105 40139 52010 69972 71082 889//
333 20118 86915=
27595 32997 00000 10238 20125 40175 50000 333 20125=
27612 32997 62701 10189 20142 40112 54000 86030 333 20147=
27947 32997 41703 10228 20121 40143 54000 82032 333 20145=
27962 32997 00000 10240 20112 40160 51001 333 20141=
33008 11570 73602 10107 20082 40224 52013 60102 72582 87500
333 20099=
34009 32560 82102 10133 20125 40124 52010 885// 333 20129=
34172 32970 19901 10226 20120 40168 51001 81030 333 20159=
34247 32873 71602 10220 20089 40155 52013 8707/ 333 20120=
34391 32997 00902 10258 20081 40160 54000 333 20133=
37018 11398 81304 10199 20184 40152 52009 69930 70282 86801=
37054 12598 62501 10208 20172 40138 52002 60370 84260 333
20147 84623=
44210 32699 82503 10190 20041 38404 54000 8481/=
44217 41598 70000 10115 20115 37845 40089 54000 70262 85823=
44257 41598 61403 10201 20080 38948 40102 57007 72992 86300=
44263 32698 70000 10189 20015 37988 49994 58008 85204=
44266 32699 72005 10193 20071 37742 49979 58006 84206=
44325 32699 51405 10286 20128 38736 49968 58017 85200 333
91212=
44348 32697 51405 10240 20095 38671 40056 58007 85200=
44386 32699 50903 10265 20000 38988 40053 58024 85200=
44203 31598 60000 10248 20030 38331 49962 57019 71522 85860=
44225 41698 60000 10213 20036 38214 49998 58016 70262 85940=
44230 32698 51403 10270 20050 38719 40020 57018 84204=
44237 32599 61805 10247 20098 38429 49991 57012 85240=
44256 32699 41803 10221 20088 39322 40107 58007 83102=
44265 32699 70000 10262 20107 38743 49992 58011 82102=
44275 32698 51807 10146 20017 37712 49971 57006 84201=
44302 32599 60000 10228 20017 39081 40100 58014 85240=
44313 32699 52907 10229 20000 39346 40117 54000 82670=
44336 32999 61805 10257 20021 38648 40038 57014 80008=
23074 42498 33612 10025 21014 40152 58005 83500 333 91117=
24125 42699 80909 10173 20002 40039 57008 82537 333 91114=
24143 41699 60503 10150 20043 40094 58003 70242 85201=
24343 42699 30503 10152 20034 40090 58001 83100=
24738 42999 51905 10248 20021 40055 57015 81031 333 91111=
24951 42699 62702 10193 20038 40094 57017 82109=
24959 42599 63104 10201 21025 40067 57012 85131 333 91111=
24966 41599 63002 10165 20045 40075 57004 70282 82931=
29313 42998 83405 10099 20043 40059 52016 8807/=
29612 42598 83305 10126 20073 40039 52009 883// 333 88921=
29698 42698 51301 10268 20147 49984 57012 82902=
30758 42999 21703 10240 21027 40090 57022 80001=
30949 42699 21401 10241 20059 40081 58019 72800=
35406 32997 00000 10245 20121 40193 52008 333 20142=
38062 32999 32005 10203 20023 83040 333 20136=
38388 32998 62702 10312 21005 40115 52006 80002 333 20176=
38457 32999 60000 10264 20004 40054 52002 82082 333 20141=
38507 32998 61606 10282 20113 40089 53014 83031 333 20246=
38545 32998 20000 10283 20160 40086 58004 82030 333 20166=
38656 32998 01101 10311 20036 40088 52002 333 20206=
38687 32997 63405 10291 20064 40078 52009 86050 333 20139=
38880 22699 20501 10303 20011 40096 52010 82200 333 6990/
20236=
38895 32997 30703 10291 20135 40088 52006 83060 333 20221=
38927 32997 52405 10340 20036 40043 50002 80001 333 20177=
38974 32998 23404 10329 21009 40063 58004 82080 333 20221=
29328 41498 83404 10104 20061 40039 52010 70282 889//   333 86913=
29348 41497 83401 10118 20109 40005 53011 78082 889//   333 85710=
29405 42597 83605 10121 20039 40069 52008 8633/=
29937 42697 62103 10184 20123 40029 52004 84501=
98232 31575 20406 10317 20259 40085 58017 70544 82201 222//
299// 333 56999 82822=
96011 32563 51602 10324 20218 30039 40062 57008 84133
333 56000 57804 84820 80860=
96035 31450 63603 10329 20249 30035 40067 57008 70521 85236
333 56000 57802 85818 80850=
96073 32565 73303 10318 20232 30064 40071 52001 84222
333 56000 57802 83820 80862=
96163 32565 42704 10310 20238 30067 40074 57002 82231
333 56000 57802 82820 80856=
96237 32465 80904 10305 20245 30030 40072 56006 85271
333 56000 57801 85817 80858=
22113 11484 61904 10105 20071 40081 52011 60162 70282 86900
333 20081 91007=
22820 32999 82801 10113 20062 40188 52005 8707/ 333 20064=
26781 32497 60203 10130 20081 40166 52012 85930 333 20094
85918=
33345 32998 72403 10151 20090 40172 52011 87030 333 20118=
33393 11223 83204 10103 20095 40193 52010 69932 75052 886//
333 20098 88704=
33658 11497 82903 10129 20094 40191 52016 69902 70262 8557/
333 20129 85616=
33791 32997 63307 10158 20113 40147 52011 86030 333 20128=
33837 32998 83602 10192 20128 40161 52005 82034 333 20145=
33946 32597 69902 10192 20140 40139 51005 85201 333 20139=
34300 31396 83104 10150 20132 40140 52010 71011 885// 333
20144 86708=
34560 32962 31306 10253 20084 40155 51005 80001 333 20164=
34691 32998 10701 10261 20070 40164 52001 80002 333 20149=
34866 32998 62901 10249 20132 40158 53018 86031 333 20140=
34880 32997 20302 10161 20094 40149 52002 80001 333 20147=
37472 32998 82802 10229 20142 40130 53013 8805/ 333 20173=
70398=
58001 70398=
48008 31557 50000 10290 20208 40053 70195 83970 333 56450
59012=
59017=
24266 41399 72001 10086 20081 40084 52005 72582 87900=
24329 42599 71802 10224 20027 40026 57007 87900=
24382 42798 82502 10067 20029 40095 58010 8657/=
24507 41596 81701 10113 20097 49985 53003 78182 889//=
24688 41699 70403 10113 20055 40039 57006 72582 83930=
24908 41580 81704 10224 20120 49977 57017 70282 85901=
24944 42999 6//// 10224 20002 40085 57020 80001=
29594 42999 52202 10247 20114 49999 58005 82041=
29634 41357 83302 10119 20110 40017 52024 72582 883// 333
84709 84920=
29676 42598 82803 10195 20115 40016 52010 889//=
30054 42598 71605 10247 20051 40045 57017 83901=
30393 42599 20203 10162 21030 40092 57007 82100=
30433 42999 61803 10191 20029 40089 57011 82041=
30469 42999 70901 10224 21014 40081 58038 83086=
30554 42998 82104 10223 20050 40074 57019 80002=
30603 42998 61005 10289 20121 49990 57017 80002=
30612 42999 21107 10261 20084 40015 57021 80001=
30635 42999 13002 10211 20086 40072 57018 80001=
30692 42699 53204 10195 20043 40098 58008 85100=
30802 42799 81804 10260 20009 38617 48427 57016 81231=
30879 42999 00603 10228 20073 40103 57010=
30925 42999 31503 10231 20082 40057 58011 80001=
35700 32998 00604 10251 20137 40139 52007 333 20136=
35925 32998 00000 10283 20090 40142 52006=
36034 41598 82104 10173 20122 40023 54000 70282 83932 333
83930=
36061 42699 80504 10203 20121 40028 58008 85951=
36982 42699 62806 10032 21063 36480 47027 54000 85251 333
21030=
38001 32998 23602 10250 20193 40141 52016 80002 333 20205=
38353 42998 73501 10222 20164 40024 58010 85041=
38392 32998 03402 10292 20099 40106 52013 333 20185=
38613 11698 71802 10231 20128 40048 57005 60020 70282 86902
333 20147=
38696 32999 63402 10269 20068 40048 52011 82072 333 20156=
38750 32997 42903 10253 20187 40095 52005 84030 333 20210=
82533 22252 00230 20404 322// 40608 5//// 6//// 80125=
83920 85630 87357=
10385 32984 61401 10107 20070 30178 40239 53004 80009 333
10179 20058 30002 55095 55310 79999 86178=
10637 32668 71801 10118 20089 30100 40237 53005 85531 333
10172 20083 31006 55041 55304 79999 83644 85650 85363=
17609 32962 01302 10260 20181 30109 40111 51006 333 20192
50851 55134=
12330 31965 41202 10123 20046 30148 40255 51008 70340 80004
333 10143 20031 31001 55033 70059=
12375 11465 63403 10112 20088 30120 40250 52018 60042 70362
85802 333 10112 20089 32009 55074 70084 82810=
12843 35/72 /3504 10139 20068 30062 40229 53016 333 20105=
13272 12970 12904 10143 20112 30106 40224 52019 60012 81030
333 20129 31012 55071 81358=
48806 11560 72003 10260 20217 39303 40050 57013 69901 79598
8693/ 333 59007 81895 86996=
59012 81894=
84270 22284 02200 20302 336// 40603 5//// 80184=
96195 32462 70000 10318 20250 30140 40074 57020 84231
333 56000 57802 84815 80850=
96633 32462 71203 10312 20249 30052 40059 57021 86831
333 56400 57842 85818 80859=
96655 11460 60000 10310 20246 30062 40090 57018 69911 71062 85271
333 56000 57861 81813 85612 80863=
96685 11460 60000 10308 20240 30040 40066 57030 60011 70562 83231
333 56000 57802 83819 80860=
96805 32565 31204 10308 20235 30067 40077 56021 81131
333 56000 57801 81820 80860=
96933 32460 71202 10310 20215 30080 40087 57011 82271
333 56300 57822 82820 86461 80870=
96001 32560 72106 10300 20221 39949 40093 52013 84532
333 56600 84620=
96737 31557 60902 10316 20218 30041 40090 57013 70522 83222
333 56000 57801 83820 80859=
96853 32562 60000 10310 20215 39938 40064 57024 82131
333 56000 57803 82820 84362 80870=
96973 32562 80904 10295 20232 30068 40072 57012 84276
333 56200 57823 84820 80850=
96987 31458 81802 10285 20224 30025 40084 57019 71422 84518
333 56400 84617=
42361 21596 70000 10288 20239 40017 72996 84930 333 59027
6990/ 82625 84830 81935 87360=
42667 32596 52906 10314 20229 39456 40020 82631 333 59027
82620 83360=
42724 32596 42302 10326 20262 40026 84400 333 59014 82620
83825=
42809 31595 41402 10350 20264 40012 70510 84500 333 59014
84320=
42867 32596 53403 10330 20215 40015 82531 333 59021 82620
83360 85075=
59015 81620=
43003 21596 62703 10312 20268 40052 70365 86800 333 59022
6001/ 82620 83825=
43063 32597 62701 10316 20199 39436 40038 84831 333 59024
82628 84830=
43128 32597 42903 10328 20227 39439 40022 82502 333 59026
82620 83070=
43185 32597 52902 10346 20250 30008 40011 82531 333 59037
82620 84070=
43189 32597 62701 10348 20233 30003 40012 82432 333 59015=
43192 31596 72902 10282 20262 40073 70522 84430 333 59019=
43245 31597 42701 10320 20255 30006 40028 70262 82502 333
59045=
43279 32597 62302 10352 20218 30016 40033 84531 333 59029
84620 85075=
43284 53205 10215 20215 39948 40064 72122 83310 333 57950
59018 6009/ 82610 81925 85258=
43295 32497 73203 10256 20203 39058 48476 85431 333 56699
59021 85616 87358=
43321 31496 54952 10320 20217 39617 40050 70522 83963 333
56699 57954 59022 83615 81925 83070=
43371 31597 73203 10300 20249 30014 40086 90392 333 56790
57972 59011 83620 81925 87465=
97014 01430 81203 10248 20237 39972 40065 57013 60111 79596 8592/
333 56402 60097 81917 80980 84819 88460=
97048 31457 73604 10285 20228 30050 40050 57014 72421 84973
333 56000 57941 57843 81919 80980 83620=
97072 32460 63305 10342 20212 39975 40077 58023 83221
333 56000 57801 83818 80859=
97180 31457 70904 10250 20225 30054 40072 57010 71522 85972
333 56000 57902 81918 84619 86460 80960=
51076 11680 70702 10239 20080 39221 40041 57006 69911 70080
81102 333 00052 20143=
62309 32560 42704 10228 20186 40127 53004
84500 333 20200=
62325 32960 03407 10241 20196 40116 53004
333 20207=
62387 32960 00212 10238 20154 40116 51010
333 20193=
62332 32560 30105 10238 20206 40123 51005
83100 333 20222=
62459 31958 03022 10246 20193 40068 53019
70700 333 20223=
60351 32970 20000 10185 20177 40199 53001 80001
333 01200 20145 82070 95900=
60444 32980 00410 10198 20144 39166 48581 53003
333 01800 20190 95900=
50851 55134=
21802 41499 83504 10021 21007 40134 53004 70272 885// 333
88619=
23472 42999 23406 10107 21002 40052 52003 82030 333 91113=
23678 42598 63306 10100 20019 40018 52014 85541=
23884 41567 83502 10073 20062 49995 52026 78082 8592/=
23891 41598 62104 10166 20095 49969 53006 70282 86900=
23966 42597 83202 10088 20019 40040 52005 884//=
25400 42799 20603 10136 20002 40128 57004 82101=
87637=
28722 32998 00502 10221 20085 40174 52002 333 20071=
29253 42599 52701 10165 20073 49998 52008 87900=
29263 42599 71902 10180 20102 49996 52004 85931=
29282 42598 72604 10239 20089 49993 52003 86901=
29430 41397 80102 10106 20097 40008 53015 78082 889// 333
86707=
35067 12598 5//// 10146 20061 40087 52003 69900 85300=
35121 32998 03506 10222 20040 40157 52001 333 20097=
38763 32898 20000 10306 20163 40087 52002 82038 333 20238=
38911 32998 73004 10307 20004 40060 52008 80002 333 20202=
38987 32996 00604 10315 20041 40047 52003 333 20201=
10338 32975 71702 10121 20078 30140 40212 56001 83036 333
10167 20101 30006 55124 55300 70000 83365 87275=
16242 31957 50101 10182 20156 30183 40186 50011 71011 80001
333 20147=
16320 31560 43304 10230 20212 30148 40160 52010 70211 84501
90545 333 20200 30018 55102 22529 55308 84620=
16420 32597 20302 10218 20173 30111 40175 53001 81201 90545
333 20210 30/// 55098 22262 55309 81825=
16597 32962 10102 10217 20187 30098 40184 53014 80001 333
20191 30014 81075=
17060 32960 30000 10210 20171 40135 53001 80001 333 20168
30012 83070=
17128 12970 00000 10156 20094 39070 40128 58004 69912 333
20081 30005 50441 55094 70002=
17170 11670 22703 10156 20078 38330 48494 51009 60052 70192
82100 333 20094 32008 70056 82835 10099=
17200 32970 01202 10214 20134 39179 40118 52006 333 20124
30011 70002=
11518 32962 42303 10110 20084 39829 40266 53011 82041 333
20053 31004 79999 82365=
15420 32560 80501 10159 20106 30045 40152 52015 8532/ 333
20106 31012 91001 91202=
15614 11697 82705 10124 20109 39482 40172 53020 60132 78082
889// 333 20124 50432 55090=
21908 42699 70603 10093 20000 40107 57014 875//=
24982 42699 72903 10161 20032 40056 57002 81231=
25325 42599 60303 10114 21060 40146 54000 86200=
28255 32999 03604 10154 20043 40172 58001 333 20047=
28642 32697 13605 10169 20023 40164 56002 81100 333 20068=
29557 41698 72308 10191 20104 49992 53010 70281 86300 333
84836=
29846 42597 62408 10175 20117 40019 52010 86900 333 86924=
30777 42999 52003 10244 21041 40105 57019 80002=
31174 42999 62304 10153 20046 40086 57013 80009=
31263 42699 73501 10158 20105 39543 40096 57007 86200=
31624 42599 50000 10234 20081 40064 57020 83901=
31832 42599 22701 10231 20109 40077 57014 82500=
31913 42999 21802 10213 20121 40082 57013 80004=
36974 32698 80000 10110 20068 37943 48458 58001 333 10110=
50603 32680 70703 10210 21021 39501 40139 57010 82132 333//
20126=
71120 880// 22214 00158 20201 332// 40403 80135=
41697 31511 10250 20222 40218 52029 70202 8214/ 90600
22223 00250 20301 321// 40804 B/RGDS=
87097 32960 81809 10099 20095 39870 40187 58001 8807/ 333
88365=
87155 32960 32501 10070 20066 30176 40238 50007 80006 333
56006 83270=
87162 32970 81607 10105 20095 30143 40215 50005 83077 333
56060 83460 88270=
87166 31965 21603 10082 20074 30160 40234 51004 71011 80006
333 56005 82270=
87178 32970 01602 10092 20075 30061 40210 57003=
87270 31956 02702 10077 20075 30173 40237 50000 71000=
87289 32965 50000 10102 20085 30142 40227 51005 85070 333
56050 85360=
87374 31958 71404 10092 20082 30160 40255 50004 71022 87070 333
56040 87360=
87393 31962 01804 10094 20075 30170 40237 53003 71010=
87395 32965 42004 10095 20064 30197 40242 53001 84050 333 56060
84360=
87480 31965 61804 10077 20066 30236 40266 51001 70162 86707 333
56040 86360=
87497 11559 41805 10081 20061 30224 40249 50000 69901 71061 81570
333 56450 81620 83360=
87534 31356 70000 10063 20058 30099 40267 57004 71022 87600 333 56300
87709=
87548 31959 00000 10055 20041 30154 40254 55009 71000=
87576 32962 01804 10033 20028 30230 40255 50000=
87582 32960 02007 10080 20053 30248 40254 50000=
87623 31/02 93402 10027 20027 30033 40269 58004 74344=
87645 32965 02304 11016 21024 30038 40255 57007=
87692 32560 72704 10070 20042 30224 40250 57007 87500 333 56600
87630=
87715 11260 80904 10061 20054 39896 40227 57023 69921 70252 8472/ 333
56499 82706 83609 87540=
87750 32970 03210 10020 20010 30154 40257 56013=
87765 32570 61407 10014 21004 39214 48491 57019 82570 333
56660 82625 86360=
61226 31660 71814 10295 20184 39812 40095 71799 82980
333 02900 20295 51800 55076 58046 82940 86365 94941 95831=
61230 32960 61816 10306 20174 39819 40068 86040
333 02100 20301 51752 55090 58007 86365=
61257 32960 26010 10364 20158 30045 40096 82040
333 02400 20315 51224 50084 59012 82365=
61265 32960 41804 10277 20182 3//// 4//// 84040
333 02600 20277 51411 55/// 5//// 84365=
61270 32960 30000 10255 20235 39721 40089 82042
333 02400 20252 50840 55082 58008 82365=
61277 32970 61804 10278 20215 39780 40091 85040
333 02700 20278 50624 55080 58018 86365=
61291 12960 71602 10247 20230 39686 40093 60104 87070 962//
333 01759 20242 58016 87462=
61296 32570 70000 10254 20211 30710 40097 8257/
333 02200 20249 50350 55/// 58013 82630 86365=
61297 12970 50000 10238 20211 3//// 4//// 60134 87070
333 01934 20238 50800 50274 55023 5//// 87365=
87022 32660 80000 10146 20130 39683 40203 51004 885//
333 56999 88640=
87046 32565 80000 10120 20104 39180 48550 51005 886//
333 85720 88630=
87047 32465 80000 10105 20097 38845 48554 50003 886//
333 56099 83710 88625=
87121 11356 80902 10114 20106 39715 40246 50007 69901 75052
8872/ 333 86708 88630 96010=
87129 32570 81803 10126 20079 30007 40246 52004 885// 333 88620=
87217 32765 82306 10125 20069 39712 40213 57009 885//
333 56099 88656=
87222 32770 80204 10130 20091 39673 40202 51001 885//
333 56999 88650=
87257 32965 80000 10088 20084 30146 40252 51005 88078 333 56046=
87311 32665 31806 10096 20041 39534 40233 58009 8557/ 333 56009 85645
84360=
87320 32665 80000 10117 20056 39686 40223 57005 885// 333 56999
88635=
87328 32680 80000 10100 20069 39566 40234 53003 885// 333 88640
95060=
87344 32362 80704 10080 20063 39692 40253 58008 886// 333 56499
83708 85711 94075 94470=
87349 32465 80000 10087 20077 39854 40259 58004 886// 333 56599
88715=
87371 32562 60000 10102 20100 30235 40257 52002 83072
333 56009 83360=
87416 32665 60000 10072 20047 39467 40230 58012 82570=
87418 32665 80000 10076 20059 39418 40241 57016 885// 333 56599
88640=
87436 32670 33603 10047 20034 39393 40228 58007 83500 333 83640=
87448 31260 80503 10068 20067 39671 40255 57008 71022 85670 333
56889 83704 82705=
87453 31250 83602 10078 20069 39745 49249 57007 71022
886// 333 56199 88705=
87506 11465 80205 10034 20017 38613 48532 57012 69961 70252 886// 333
88710 95090=
87509 32570 83604 10062 20048 39365 40240 57012 885// 333 88623=
89062 42/98 13203 11077 21108 30053 40096 58009=
87791 32980 03208 11022 21035 30237 40246 57019=
87803 32980 00506 11002 21016 39230 40161 57012=
87828 32980 03410 10038 20018 30152 40205 57028=
87860 32980 22905 10048 20007 30096 40153 57024 80006 333 56006
82070=
87903 32580 60000 10008 21003 39812 40082 57029 82671 333 56555
82730=
87909 32980 03405 10011 20002 30036 40113 57031=
87925 32980 53608 10018 21010 30046 40070 57036 80006 333 56000
85270=
87938 32980 12704 10026 21023 39990 40060 57024 81070 333 56050
81360=
70026 32566 82107 11006 21006 30208 40214 56010 90553 333 10006
21050 555 90106=
70133 12666 81812 10028 20011 30203 40210 56002 69931 90553 333
10050 21027 555 90106=
70231 32666 40000 10144 20033 30129 40256 55001 90553 333 10167
20072 555 90106=
70261 12766 69903 10144 20056 30087 40258 53001 69901 90553 333
10161 20083 555 90106=
70273 32666 62304 10106 20033 30232 40282 56002 90553 333 10122
20067 555 90106=
70308 32561 81518 10056 20033 30117 40128 58018 90553 333 10067
20039 555 90106=
70316 32266 81424 10067 20050 30189 40227 53001 90553 333 10089
20067 91031 555 90106=
70326 32666 61815 10106 20044 30246 40269 50001 90552 333 10144
20044 555 90106=
70350 32666 82406 10100 20022 30256 40297 90553 333 10139 20039
555 90106=
70361 32666 60000 10094 20061 30259 40276 58003 90553 333 10122
20039 555 90106=
70341 32666 62508 10089 20050 30267 40296 56002 90553 333 10117
20056 555 90106=
70194 35866 82605 10140 20010 30072 90555 333 10160 20080 555
90106=
72201 32966 01110 10278 20233 30168 40175 50002 90553 333 10322
20256 555 90106=
72202 12566 40909 10261 20228 30174 40181 58001 69901 90556 333
10300 20239 555 90106=
72203 32566 40709 10250 20194 30185 40191 50000 90553 333 10294
20250 555 90106=
72205 32966 00405 10217 20206 30164 40201 50001 90553 333 10322
20217 555 90106=
72206 32966 00000 10156 20144 30200 40211 50002 90556 333 10267
20156 555 90106=
72207 32966 00000 10161 20156 30198 40216 58004 90553 333 10294
20156 555 90106=
72208 32962 00000 10189 20183 30201 40215 56011 90556 333 10256
20156 555 90106=
72212 35/// /0000 10189 20161 30190 40204 50004 90553 333 10306
20172 555 90106=
72214 32966 01205 10239 20178 30186 40206 50010 90553 333 10300
20194 555 90106=
72217 32966 00000 10156 20133 30077 40207 58005 90553 333 10283
20156 555 90106=
72218 32966 00605 10150 20122 30159 40211 56006 90553 333 10278
20144 555 90106=
72219 32966 00000 10189 20156 39844 40212 57006 90553 333 10278
20189 555 90106=
72223 32966 00403 10206 20178 30125 40202 51009 90556 333 10306
20200 555 90106=
72226 32966 01003 10206 20139 30135 40205 50002 90553 333 10300
20183 555 90106=
72231 32966 00000 10239 20206 30172 40186 50002 90553 333 10317
20239 555 90106=
72234 32966 00000 10211 20172 30086 40197 50007 90553 333 10306
20189 555 90106=
72235 32966 01605 10233 20189 30071 40188 50006 90554 333 10306
20189 555 90106=
72240 32964 01404 10244 20222 30160 40180 51011 90553 333 10322
20239 555 90106=
72243 32566 41404 10239 20211 30126 40162 51010 90553 333 10322
20222 555 90106=
72248 32762 41103 10228 20200 30075 40168 51012 90556 333 10317
20211 555 90106=
72250 32966 01408 10261 20233 30141 40147 51012 90556 333 10333
20244 555 90106=
72251 32966 01406 10244 20233 30133 51016 90551 555 90106=
72253 32266 21407 10239 20211 39871 40146 51018 90553 333 10317
20239 555 90106=
72254 35966 01410 10250 20217 39933 40145 51016 90553 333 10328
20222 91017 555 90106=
72255 35566 21506 10244 20233 30120 40158 51016 90551 333 10328
20217 555 90106=
72256 32966 01712 10256 20217 39973 40151 51020 90553 333 10317
20228 555 90106=
72259 32966 21614 10272 20211 39948 40144 51013 90553 333 10328
20244 555 90106=
72261 35966 01218 10283 20200 39755 40107 51021 90553 333 10344
20244 91026 555 90106=
72263 32966 01511 10267 20167 39462 40117 51015 90553 333 10333
20228 91018 555 90106=
72265 32966 01607 10261 20139 39143 40094 51012 90553 333 10317
20222 555 90106=
72266 32966 01714 10261 20161 39512 40120 51014 90553 333 10328
20211 555 90106=
72267 32966 02109 10239 20150 39018 40092 51010 90553 333 10317
20206 555 90106=
72270 12966 41306 10239 20100 38783 40061 50013 69901 90551 555
90106=
72274 32966 03105 10289 20083 39192 40062 51023 90555 555 90106=
72278 32966 02904 10328 20061 39668 40044 51018 90556 333 10389
20272 555 90106=
72280 32966 21506 10283 20083 39979 40050 51025 90556 333 10390
20228 555 90106=
72290 32464 80000 10172 20133 30111 40121 50008 90551 333 10200
20167 555 90106=
72295 31459 62707 10167 20150 30076 40112 50006 710// 90550 333
10211 20167 555 90106=
72304 35962 00000 10117 20111 30202 40205 58014 90551 333 10189
20117 555 90106=
72308 32964 02204 10144 20139 30192 40199 56011 90551 333 10178
20139 555 90106=
72310 32966 01904 10156 20128 30126 40208 58005 90556 333 10272
20150 555 90106=
72311 32966 00000 10183 20150 39920 40208 56010 90553 333 10272
20150 555 90106=
72314 32966 00000 10172 20144 39930 40202 58010 90551 333 10278
20167 555 90106=
72317 32961 00000 10178 20156 39880 40203 58008 90554 333 10239
20117 555 90106=
72324 32962 00000 10200 20172 39965 40208 55003 90553 333 10283
20178 555 90106=
72326 32961 00000 10200 20178 39856 40205 55005 90553 555 90106=
72327 32962 22003 10217 20161 39994 40204 53003 90553 333 10278
20183 555 90106=
72334 32964 01608 10256 20178 30078 40179 58002 90553 333 10311
20222 555 90106=
72340 32961 01504 10222 20200 30085 40177 53006 90553 333 10306
20217 555 90106=
72344 32966 01604 10239 20183 39997 40159 51008 90553 333 10311
20211 555 90106=
72351 32966 01512 10267 20183 39770 40124 51017 90553 333 10350
20233 555 90106=
72353 32966 01512 10250 20200 39682 40134 51017 90553 333 10339
20233 555 90106=
72356 32966 01809 10261 20200 39910 40147 51018 90553 333 10317
20239 555 90106=
72363 32966 01908 10233 20144 38895 40089 51013 90553 333 10317
20206 555 90106=
72365 32966 21707 10256 20056 38338 40033 51015 90556 333 10333
20194 555 90106=
72374 35966 02211 10211 21022 38485 40067 51019 90556 333 10339
20139 555 90106=
72384 32966 00103 10189 20044 39929 40105 53010 90556 333 10283
20117 555 90106=
72386 32966 01908 10289 21017 39296 40036 51011 90556 333 10378
20228 555 90106=
72389 32966 03007 10200 20056 39992 40108 53007 90556 333 10300
20139 555 90106=
72394 35966 01703 10100 20078 30027 40118 51004 90551 333 10200
20056 555 90106=
72401 32961 01803 10161 20150 30129 40194 58015 90554 333 10217
20139 555 90106=
72403 32962 40000 10150 20144 30071 40186 56013 90551 333 10217
20111 555 90106=
72407 35966 00000 10117 20106 30172 40194 58008 90554 333 10194
20111 555 90106=
72408 32966 21905 10139 20122 30167 40188 58007 90554 333 10200
20117 555 90106=
72411 32964 00000 10178 20144 39781 40198 56014 90554 333 10233
20106 555 90106=
72412 35962 01704 10178 20161 39333 40196 58007 90551 333 10244
20139 555 90106=
72414 32964 60000 10206 20183 39847 40194 50005 90554 333 10267
20133 555 90106=
72421 32961 62009 10217 20189 39858 40168 58023 90551 333 10278
20189 555 90106=
72422 32962 00000 10211 20178 39844 40197 58007 90554 333 10278
20183 555 90106=
72428 11956 41904 10217 20194 39882 40172 58007 69931 710// 90551
555 90106=
72429 31740 23604 10206 20194 39830 40187 55006 710// 90552 333
10278 20189 555 90106=
72432 32961 00000 10200 20183 30048 40185 58008 90554 333 10289
20189 555 90106=
72434 32966 01809 10244 20189 39963 40154 58005 90553 333 10311
20222 555 90106=
72438 31956 62306 10211 20200 39886 40172 55021 710// 90555 333
10267 20194 555 90106=
72440 32966 01707 10217 20178 39718 40161 53004 90554 333 10300
20211 555 90106=
72445 32966 01810 10233 20194 39836 40151 50003 90554 333 10306
20222 555 90106=
72446 32966 21915 10256 20206 39772 40130 51009 90553 333 10306
20239 555 90106=
72450 32964 01617 10256 20211 39658 40121 50016 90556 333 10328
20228 555 90106=
72451 32966 21617 10228 20111 39209 40083 58000 90556 333 10339
20206 91023 555 90106=
72456 32966 01810 10261 20200 39818 40127 51012 90556 333 10322
20250 555 90106=
72458 35966 01715 10250 20206 39584 40094 50006 90555 333 10328
20206 555 90106=
72464 32966 00109 10172 20100 38501 40057 51016 90554 333 10317
20150 555 90106=
72465 32966 09903 10222 20056 38819 40054 51047 90556 333 10328
20122 555 90106=
72476 32966 00213 10233 21061 38520 40066 51044 90556 333 10333
20200 555 90106=
72486 35966 00411 10100 21078 38105 40134 52014 90553 333 10228
20017 555 90106=
72492 32966 02909 10200 20061 30095 40103 56002 90556 333 10289
20139 555 90106=
72503 32966 61806 10144 20122 30168 40180 56014 90551 333 10172
20117 555 90106=
72508 32966 61707 10139 20122 30097 40169 56016 90551 333 10211
20094 555 90106=
72509 32966 62209 10144 20133 30158 40164 56017 90554 333 10189
20094 555 90106=
72515 32662 62006 10161 20128 39596 40169 58007 90556 333 10211
20111 555 90106=
72518 32966 01608 10178 20106 30055 40161 56005 90551 333 10217
20111 555 90106=
72519 12661 82803 10200 20172 30007 40151 58003 69951 90554 333
10250 20150 555 90106=
72520 12966 82305 10222 20183 39741 40182 50000 69901 8/07/ 90551
333 10267 20139 555 90106=
72524 32961 00000 10206 20189 39893 40170 58011 90551 333 10289
20189 555 90106=
72528 31458 80000 10194 20167 39906 40162 58001 705// 8/5// 90554
333 10244 20172 555 90106=
72530 11002 91807 10156 20156 39931 40176 58009 69951 741// 90556
333 10244 20139 555 90106=
72532 32966 01305 10228 20200 39918 40157 55001 90554 333 10283
20222 555 90106=
72533 32964 00000 10172 20172 39892 40188 53007 90554 333 10261
20172 555 90106=
72537 31340 81005 10194 20189 39938 40175 51002 710// 90554 333
10261 20189 555 90106=
72546 32964 02114 10261 20206 39760 40101 53003 90554 333 10306
20183 555 90106=
72547 15666 61213 10189 20172 39759 40146 50001 69931 90555 555
90106=
72552 31932 00807 10183 20183 39435 40082 58007 710// 90556 333
10244 20161 555 90106=
72556 37348 81004 10183 20172 39546 40091 58003 710// 90554 333
10200 20161 555 90106=
72557 31958 03605 10183 20172 39705 40097 58002 710// 90555 333
10217 20161 555 90106=
72562 31156 80610 10156 20156 39125 40088 58005 710// 90556 333
10183 20139 555 90106=
72564 32966 03212 10144 21061 38123 40113 51030 90556 333 10217
20089 91020 555 90106=
72565 32866 40109 10161 20133 38313 40085 51029 90553 333 10267
20122 555 90106=
72569 32966 00808 10061 20006 38402 40187 51050 90555 555 90106=
72572 32966 03410 10122 21022 38737 40169 50007 90556 333 10200
20094 555 90106=
72576 35966 03215 10089 21094 38329 40163 51027 90556 333 10222
20089 91021 555 90106=
72578 32966 02111 10089 21039 38685 40211 50011 90556 333 10167
20039 555 90106=
72583 35966 00510 10100 21044 38711 40181 50000 90556 333 10194
21016 555 90106=
72591 32966 03406 10206 21011 39987 40109 55003 90555 333 10294
20133 555 90106=
72597 32966 00000 10128 20067 39703 40181 56002 90556 555 90106=
72606 32866 81904 10150 20122 30126 40145 56022 90551 333 10167
20106 555 90106=
72617 12766 81909 10183 20106 30017 40142 56008 69901 90554 333
10228 20150 555 90106=
72635 31948 82609 10178 20161 39890 40180 53003 710// 90556 333
10250 20172 555 90106=
72636 31256 63603 10140 20140 39948 761// 90610 333 96010 555
90106=
72637 31440 80806 10190 20190 39900 710// 90612 555 90106=
72638 37004 80000 10156 20156 39766 40180 56001 730// 90555 333
10206 20133 555 90106=
72640 11648 82006 10139 20139 39921 40173 58009 60061 795// 8/3//
90552 333 96010 555 90106=
72641 11240 61106 10161 20156 39848 40157 56005 60091 795// 90553
333 96010 555 90106=
72644 31258 81113 10170 20160 39645 710// 90606 333 96010 555
90106=
72645 11759 81403 10150 20128 39920 40176 55004 69931 763// 90556
333 10206 20150 96010 555 90106=
72651 32466 80506 10161 20139 39597 40106 58005 90556 333 10189
20128 555 90106=
72654 32566 80214 10156 20083 39665 40124 56002 90555 333 10206
20144 555 90106=
72659 32766 80614 10122 20067 39678 40146 58002 90556 333 10189
20122 555 90106=
72662 32366 83325 10090 20000 39058 90610 333 91034 555 90106=
72666 15466 23505 10044 20017 38840 40216 51037 60011 90556 333
10167 20044 555 90106=
72677 32866 83005 10050 21022 38974 40225 50041 90556 333 10156
20044 555 90106=
72681 32966 02704 10106 20011 39219 40226 51010 90556 333 10178
20028 555 90106=
72683 35966 02304 10033 21011 38782 40233 51006 90553 333 10156
21043 555 90106=
72688 32966 00907 10072 20061 39693 40240 50001 90556 333 10139
20072 555 90106=
72693 12966 03607 10072 20056 30086 40222 56009 69901 90556 333
10172 20067 555 90106=
72694 32966 03608 10100 20083 30156 56007 90556 333 10167 20083
555 90106=
72698 32766 23506 10111 20094 30231 40239 56013 90555 333 10144
20094 555 90106=
72712 12966 09903 10128 20100 39892 40120 56005 69901 90554 333
10211 20111 555 90106=
72745 12966 80507 10133 20067 39662 40178 55007 69901 90555 333
10206 20106 555 90106=
72747 35966 20207 10111 20067 39771 40206 57003 90555 333 10172
20083 555 90106=
72753 12866 80409 10111 20089 39840 40172 56028 60031 90553 333
10189 20083 555 90106=
72764 11766 80711 10089 20078 39571 40169 56010 69981 761// 90552
333 10161 20089 555 90106=
72767 11561 80811 10072 20067 39506 40196 53003 60141 761// 90552
333 10133 20072 555 90106=
72768 11358 81219 10072 20067 39325 40154 56010 60181 761// 90556
333 10083 20067 91026 96010 555 90106=
72772 32666 81803 10039 21006 38895 40294 51010 90556 333 10067
20006 555 90106=
72773 12766 80000 10056 20039 39135 40272 51012 69951 90556 555
90106=
72776 32566 82408 10010 20010 38966 90612 555 90106=
72777 17466 83009 10028 21006 39310 40250 51007 60051 761// 90556
555 90106=
72779 35966 02904 10033 20006 39203 40268 51010 90556 555 90106=
72781 15866 82805 10122 20094 39846 40240 50004 69901 90556 333
10172 20094 555 90106=
72785 12966 01704 10061 20056 39399 40253 50007 69951 90556 333
10139 20044 555 90106=
72793 32666 80000 10117 20089 30088 40254 58004 90556 333 10133
20094 555 90106=
72306 32966 00000 10156 20150 30046 40203 58012 90551 333 10244
20133 555 90106=
72315 32961 00000 10167 20150 39459 40214 58008 90554 333 10256
20122 555 90106=
72402 35966 01806 10122 20117 30196 40196 56012 90554 333 10172
20117 555 90106=
72405 32964 21503 10181 20140 30168 40191 56007 90551 555 90106=
72406 32966 60000 10128 20122 30133 40187 56010 90554 333 10189
20117 555 90106=
72423 32962 62006 10228 20183 30014 40186 58012 90556 333 10289
20200 555 90106=
72425 32961 00000 10211 20194 39895 40191 51004 90551 333 10272
20150 555 90106=
72504 35966 02409 10139 21011 30173 40179 56015 90554 333 10150
20117 555 90106=
72507 32966 02304 10122 20117 30153 40177 56016 90551 333 10183
20100 555 90106=
72513 32961 01003 10139 20128 39835 40171 56010 90554 333 10211
20100 555 90106=
72521 32561 82604 10211 20189 39736 40174 58002 8/57/ 90551 333
10267 20172 555 90106=
72529 31556 82806 10206 20178 39964 40161 53002 705// 8/6// 90554
333 10267 20161 555 90106=
72535 11940 00000 10161 20161 39908 40185 50004 69931 710// 90554
555 90106=
72536 12661 62904 10200 20189 39930 40179 53003 69901 90552 333
10272 20194 555 90106=
72544 32766 61610 10211 20178 39933 40145 50007 90555 555 90106=
72592 32966 03508 10211 20011 39932 40111 56003 90556 333 10289
20128 555 90106=
72605 35966 41903 10156 20106 30030 40155 55014 90551 333 10233
20089 555 90106=
10156 20122 555 90106=
72783 35666 80000 10100 20078 39733 40258 51006 90556 333 10133
20061 555 90106=
72784 32974 01805 10103 20082 39963 40233 52002 333 10168 20090
70122 555 90106=
72791 35666 83611 10122 20078 30238 40247 56013 90556 333 10139
20106 555 90106=
63674 32560 70000 10206 20180 39061 48505 8357/
333 20163 55079 59005 83620 86362
555 10189=
63726 31902 91402 10116 20116 38158 48517 74344 89///
333 20098 55061 58004 89///
555 10116=
63702 31930 71805 10193 20173 70644 82038
333 20146 82362 87280
555 10180=
63602 32575 50905 10240 20183 38633 48/// 81132
333 20198 58002 81820 84075
555 10202=
40009 32970 03501 10263 20199 40162 52004 333 20149 30///=
40016 32970 02903 10258 20126 40082 51015 333 20175 30/// 5//// 55106=
40022 32965 02606 10250 20151 40119 53002 222// 20000 333 20198=
40030 32970 01701 10276 20107 40074 58010 333 20175 30/// 51354
55124=
40039 32970 03601 10254 20107 40080 51006 333 20170 30/// 51024 55125
70000=
40066 32970 00000 10254 20121 40103 53003 333 20202 30/// 50604=
40072 32970 03003 10292 20090 40086 50010 333 20226 30///=
40083 32970 00201 10196 20082 48477 51005 333 20114 30/// 50664=
94103 35/// /0714 10251 3//// 5////=
94147 35/// /1421 10257 30076 40095 57010=
94151 35/// /2213 10238 30109 40129 57007=
94290 35/// /1418 10198 30131 40138 52002=
91502 31575 60205 10302 20250 40073 5//// 71621 8323/
333 56189 82820 86362=
91503 01480 50000 10280 20243 40068 56008 60391 70562 81238
333 56900 60077 81816 84360=
91507 11475 40000 10285 20249 40071 54000 69911 70552 83931
333 56299 82816 81917 83630=
91520 31480 73202 10280 20252 40066 56006 70522 84837
333 56299 82817 84635 85360 87280=
91527 31470 70000 10290 20255 4//// 5//// 71522 83936
333 56199 82817 81917 87280=
91541 01480 40000 10270 20256 40079 52014 60021 72582 84200
333 56200 60027 84818=
94129 35/// /1408 10252 30076 40099 57014=
94210 35/// /0608 10261 30124 40129 57016=
94289 35/// /1317 10222 30119 40128 57003=
94307 35/// /0915 10226 30124 40164 57016=
94371 35/// /1712 10165 30142 40148 57001=
94379 35/// /1712 10177 30127 40136 52004=
97028 31558 73607 10314 20206 30038 40046 57013 71521 84921
333 56000 57902 57802 81920 83820 86460 80960=
97086 01459 72408 10270 20247 30041 40065 56021 69907 72162 83270
333 56000 57000 69907 83617 86460=
97192 01462 72503 10270 20253 30026 40090 57011 60071 71562 85270
333 56200 57823 60077 85617 87460 80857=
97230 32465 51209 10286 20228 30070 40077 57017 83231
333 56000 57802 83819=
97260 32568 41210 10300 20196 30060 40066 57022 83101
333 56000 57804 83820 80860=
97270 31458 41610 10296 20224 30072 40076 56025 70521 84200
333 56000 57802 84815 80859=
97300 32565 52206 10300 20230 30054 40087 57016 83201
333 56400 57841 83820 80858=
97340 32570 20910 10287 20208 30076 40087 57024 82200
333 56200 57827 82820 80856=
97372 31561 30915 10289 20195 39962 40091 56019 70520 82201
333 56000 57800 82820=
97430 31460 70108 10296 20241 30029 40059 57031 71522 84932
333 56300 57903 57802 81915 83818 80980 80860=
61404 32960 02606 10280 20135 39733 40108
333 0//00 20280 52154 55/// 59003=
61442 32958 03605 10230 20160 30076 40080
333 0//00 20220 50784 55096 59012=
96015 32567 62704 10306 20233 30066 40073 5XXXX 83231
333 56000 57804 81820 82620 80861=
96751 32561 62808 10252 20188 39032 48920 85240
333 56600 57861 79999 85820 80880=
96935 32560 71006 10310 20193 30070 40076 57013 82132
333 56000 82820=
96937 32561 71306 10312 20220 30079 40086 57000 82176
333 56000 82820=
65545 12358 80000 10225 20213 39691 40110 60244 886//
333 20218 58003 85706 88613=
65560 11440 6//// 10210 20210 39781 40110 60284 71022 86500
333 20190 58003 86610=
65563 12436 80000 10225 20217 39839 40110 60034 885//
333 20199 58008 88611=
65585 11456 8//// 10240 20234 60184 79596 889//
333 20240 88913 95372=
65594 11456 80000 10235 20235 60314 76162 8527/
333 20215 85813 88360=
97016 01460 82701 10277 20245 30055 40056 57014 60031 72162 86972
333 57902 57801 81917 85818 80984 80860=
97126 32459 62902 10312 20246 39976 40025 57020 83270
333 56000 69907 86618=
97182 31460 70920 10312 20246 40067 57011 71522 84971
333 56000 57900 81918 83819 84460 809//=
97722 32461 71205 10287 20246 30073 40086 57014 8597/
333 56200 57921 57823 81917 83818 80981 80858=
82022 21458 71004 10248 20243 40112 76196 83530 333
58003 60091=
81001 10294 20241 30068 40071 56007 82201 333 562/9 70000 82819
86081 555 90106=
59045=
59021 85616 87358=
61832 31465 70408 10236 20213 40104 70299 83570
333 20230 50475 55101 59001 83615 86361=
63612 31980 10912 10277 20160 40130 70200 80001
333 20247 58011 81077=
63661 42980 00503 10186 20108 48545
333 20110=
63708 32980 30708 10212 20148 48504 70300 81039
333 20163 59005 81358 83076=
63714 31982 00000 10156 20100 4855/ 70100
333 20120 58001=
71472 36/// /3219 10088 30237 40255 53005 333 10092 20083 70000=
67761 32982 00000 10188 20150 39606 48565 333 20110 58017=
67781 31460 10903 10144 20113 38837 48577 70500 81500 333 20090
58024 81615=
67865 32980 01207 10130 20040 38860 48578 333 20063 58020=
67869 32984 01409 10139 20066 3//// 48/// 333 20090 5////=
67877 32970 00603 10121 20097 3//// 48/// 70500 333 20085 5////=
67961 32980 00602 10094 20050 3//// 48/// 333 20048 5////=
71739 32974 03405 10094 20044 39820 40174 52016 333 10242 20093 70008
555 32726 40191=
64400 31430 80802 10222 20219 30093 40113 71022 84840
333 02000 50084 55016 83810 83630=
64450 31440 72002 10228 20219 40095 71011 875//
333 02200 20215 55040 59012 83613 87633=
64458 32360 73002 10223 20219 39705 40100 82102
333 02000 20210 50194 55/// 58014 82808 87080=
64459 32960 60000 10244 20232 39/// 40/// 80002
333 0//00 20202 50134 55/// 5//// 86080=
64460 11/03 90000 10216 20214 39494 40098 61474 74744
333 01829 20205 50094 55/// 58004 89///=
63658 32580 60503 10238 20184 38887 48521 81408
333 20186 55019 58005 81820 86280
555 10202=
63684 32970 31808 10210 20180 38842 48/// 80035
333 20171 58002 81363
555 10190=
63680 32568 71104 10231 20/// 38810 48/// 8393/
333 20190 55029 58004 83820 81923 86362
555 10206=
93305 41395 83624 10152 20089 49878 58020 71799 886//=
67765 32984 01102 10140 20126 38730 48572 333 20100 58017=
67775 31965 01107 10130 20079 38535 48538 70500 333 20105 58015=
67779 31450 70904 10153 20134 39127 48566 70511 875// 333 20123
58023 87615=
67853 32980 00906 10128 20030 39004 48570 333 20045 58013=
67861 32972 01307 10155 20018 38796 48574 333 20119 58022=
67867 32980 01107 10106 20046 38649 48571 333 20041 58018=
67881 31365 11206 10128 20096 38650 48575 70500 81600 333 20060
58022 81708=
67965 32980 01208 10132 20079 38756 48579 333 20095 58016=
67975 32980 00000 10085 20065 39006 48587 333 20020 58024=
67977 32402 80000 10132 20126 39769 48592 74641 885// 333 20090
58050 88610=
67983 31430 10907 10145 20128 38979 48597 74000 81500 333 20087
58031 81702=
67991 32980 00000  10120 20101 39712 48601 333 20095 58044=
82332 42970 50000 10258 20248 40108 85030 333 58000 =
60150 32560 51802 10200 20132 39518 40151 54000 83282
333 20195 82826 83360 83070=
85934 32480 70000 1000' ?6=40074 57034 87500
333   56100 87615=
62420 32960 00105 10236 20139 40128 53007
333 20188=
62435 32960 03407 10282 20075 40100 53014
333 20244=
98531 32580 62905 10326 20273 40066 57015 84260
333 56199 84820=
22422 12980 62602 10146 20073 40137 52013 80001=
17150 31958 00000 10208 20170 40132 57010 71000 333 20126 30012 50904
55127 22538=
42339 31995 02309 10320 40003 70600 333 59031=
36152 32598 72203 10185 20112 40016 57005 87200   333 20115=
21647 42984 00906 11020 21051 40232 54000=
21432 42998 01403 10027 21042 40231 58002=
21824 42470 20405 10008 21003 40136 53001 82500=
21921 42599 10104 10084 20011 40097 57002 81100=
21931 nil=
21946 42984 00907 10021 21036 40208 56003=
25123 42698 20905 10112 21030 40158 57012 82100=
43314 21597 62905 10266 20246 40088 75062 83370 333 57933 59003
6993/=
43329 32597 52503 10332 20237 30033 40046 8487/ 333 59015=
42410 21597 60000 10272 20246 40024 70262 83430 333 59009
6990/ 82620 85360=
42754 32596 32908 10350 20213 39415 40019 83200 333 59023
83825=
42934 32597 62702 10300 20237 40033 84530 333 59018 84630
86360=
43198 21396 80000 10224 20209 39240 40058 72122 8563/ 333
56699 59018 6992/ 84709 83615 87358=
43201 32497 73202 10282 20209 39341 40042 85802 333 56609
59024 84618 86075=
43213 32597 52701 10320 20192 39729 40037 81432 333 59025=
43353 21396 74952 10250 20250 40094 75065 84970 333 56790
57972 57912 59006 6995/ 81710 83614 81925 86458=
43369 32597 62704 10304 20256 40093 82401 333 59010 81620
86075=
43014 21596 70000 10244 20230 39408 40045 76065 83570 333
58024 6002/ 83620 86458=
83248 32470 30000 10220 20215 40128 83200 333 58000=
83378 32970 00000 10176 20133 38977 48536 333 58005=
68262 31920 00000 10042 21012 38795 48608 52020 70400
333 20018 91002 555 10234 91029=
68816 11/02 90410 10107 20103 30137 40188 50003 69944 74744
333 20106 555 10180 20004 91018=
67023 12582 522// 10256 20218 30171 40177 52017 60054 85600
333 0//19 10/// 20220 50384 55/// 81820 84640=
67107 32580 60602 10160 20114 38543 48581 52017 86800
333 00400 10245 20074 50274 55/// 83820 85627=
67131 32982 02202 10270 20236 30191 40196 52023
333 0//00 10271 20170 50504 55///=
67561 31975 01006 10176 20096 48546 70500 333 10269 20109 58007=
67665 32980 01204 10154 20146 48562 333 10261 20170 58011=
67743 32980 00000 10126 20073 48554 333 10266 20067 58014 555 00069
=
67413 32580 31906 10180 20155 40240 52017 83500 333 20163
50//0 55/// 555 10000=
67297 32565 42707 10214 20192 40223 84830 333 20182 50300
55/// 58040 555 10000=
58007=
67461 32984 01010 10160 20116 48543 333 10266 20088 58008=
67581 32982 01611 10202 20102 48574 333 10266 20131 58021=
67633 32982 00903 10144 20076 48548 333 10282 20108 58011=
67641 32982 00000 10089 20077 48533 333 10270 20066 58003=
67663 32980 00703 10165 20081 48557 333 10257 20107 58013=
71900 46/// /2711 39904  56016=
71800 46/// /2216 30169  58019=
64851 32965 70000 10270 20206 39601 40069 85032
333 20257 5//// 55104 58018 85363 87080=
64860 32970 43004 10272 20230 39818 40078 84050
333 02300 20268 50881 55110 58003 84360=
64870 12460 70000 10185 20182 38910 48508 69974 85502
333 01619 20172 50181 55092 58007 85616 87080=
64890 11460 80000 10240 20237 3//// 40105 60994 7424/ 882//
333 20214 58006 88812=
64910 31460 80000 10250 20243 30092 40102 71799 8697/
333 02200 20208 50451 55081 59001 86616 81920 88362 94959 95839=
64971 11470 81804 10255 20248 30070 40088 60364 72996 8397/
333 20250 58000 83613 81940 88363 95336=
71403 36/// /2308 10084 20078 30167 40179 58014 333 10090 20070
70000=
67009 11558 61214 10260 20225 30047 40167 52013 69924 71561 86200
333 020// 10306 20218 50364 55/// 86820=
67012 32582 2//02 10298 20232 30160 40170 52008 82800
333 0//00 10322 20225 50174 55/// 81820=
67019 32482 1//// 10285 20199 30101 40167 51016 81800
333 02100 10329 20230 50594 55/// 81817=
67025 11580 5//// 10253 20211 30077 40178 51018 60014 71500 85800
333 021// 10283 20217 50134 55/// 83820 83640=
67027 11582 71002 10263 20194 30149 40170 51015 69924 70281 8683/
333 01900 10322 20219 50314 55100 82823 85640=
67045 32582 61410 10280 20160 30084 40173 52013 82830
333 01900 10330 20210 50//4 55/// 81820 85360=
67072 11465 62212 10242 20/// 30192 40195 52014 60014 71562 86800
333 02009 10253 20214 50234 55/// 86817 92427=
67073 32582 11204 10260 20211 30159 40185 51017 81200
333 01700 10289 20204 5///4 55/// 81823=
67083 32480 71507 10179 20138 38800 48569 52015 878//
333 01200 20217 50314 55073 84817 86620=
67095 11460 72406 10220 20212 30198 40204 52017 60134 76166 878//
333 01111 10280 20203 50114 55007 84817 87633=
67117 32982 00000 10222 20177 30179 40188 52019
333 01300 10292 20160 50224 55///=
67137 32275 80000 10161 20141 38970 48564 51019 885//
333 00900 10232 20136 50204 55/// 81707 88617=
67143 32582 12606 10240 20222 30210 40217 52019 81800
333 0//00 10267 20190 50//4 55/// 81820 92438=
67152 32982 00000 10166 20102 39280 48571 52018
333 0//00 10280 20130 50454 55///=
67157 11570 61204 10206 20181 30210 40217 52022 60014 72161 86800
333 01811 10262 20175 50314 55/// 82820 84630=
67161 32982 01608 10225 20194 30206 40215 52016
333 01400 10285 20155 50264 55///=
67197 32982 03406 10242 20201 30213 40223 52017
333 01300 10290 20140 50364 55100=
84401 31660 80000 10210 20164 30116 40151 70220 8352/
333   5640/ 58016 83640 85460=
41150 42964 02913 10353 20167 40019 333 20252 30022 59007=
41170 41959 00601 10347 20136 30007 40020 70540 333 20237
59011 555 00221=
41184 412958 03502 10370 20245 40022 70600 333 20270 59009=
41194 42960 09902 10355 20225 30009 40021 333 20284 3//// 59009=
41196 42960 03602 10364 20197 39981 40019 333 20244 30022 59007=
41216 42960 00203 10330 20246 30018 40022 333 10275 30025 59008=
41217 41960 01003 10353 20235 39994 40023 70240 333 20246 30023 59008
=
41246 31558 30706 10339 20274 30018 40023 70555 83500 90611
333 2//// 59013 82625 =
41254 32965 03608 10280 20012 38025 48280 333 20220 59001=
41256 31959 00506 10350 20261 30006 40015 70500
333 20275 59021 =
41268 32960 02411 10365 20262 30009 40024 333 20288 59013=
41288 31957 02411 10310 20270 30011 40033 70500 333 20267 59017=
41314 32962 01913 10336 20199 39557 40070 333
20258 58000 =
41316 32461 72114 10305 20256 30028 40053 87600
333 20290 59007 81712 83618 87625 =
23987 41496 82603 10096 20081 40006 52018 71082 889//=