ZCZC 000
SMCI10 BENJ 140000
AAXX 14001
83708 22233 00294 20505 310// 40605 80242=
83780 22254 00235 20303 3//// 4//// 5//// 6//// 80222 ICE /////=
82100 22224 00211 20301 30931 40903 52003 80178=
86500 22262 00164 20201 333// 40803 5//// 6//// 80138 ICE /////=
54094 32962 02006 10230 20084 39781 40057 57005 333 00201=
54285 32968 20901 10188 20058 40117 57003 80001 333// 00201=
59133 32770 70404 10226 20195 40099 52016 875// 333 00300=
53782 32975 73201 10220 20084 40071 52020 82032 333// 00103
79999=
51628 32970 73201 10147 20096 40111 52014 82032 333// 00355=
57655 32960 50000 10195 20171 40099 52013 85040 333// 05101=
57774 32963 61801 10213 20178 40094 52013 86040 333// 05101=
59317 32962 20000 10260 20212 40093 52009 82040 333 00102=
59673 32566 11401 10264 20237 40091 52014 81100 333 00001=
58944 11460 83603 10209 20186 40106 52017 69951 70060 885//
333 00201 70067=
59134 32775 80000 10244 20190 39941 40100 52014 885// 333
00201=
58754 32675 73601 10216 20183 40120 52011 8257/ 333 05200
79999=
58730 32670 60000 10203 20173 40122 52009 86800 333 05102
70003=
58933 11562 80702 10170 20159 40127 52011 69901 76060 885//
333 00000 70009=
58918 32980 53202 10218 20180 40110 52011 83042 333 00103=
59046 31930 02701 10232 20211 40097 52019 71000 333// 00000=
59632 32960 00000 10253 20233 40090 52018 333// 00001=
59037 32970 73402 10239 20206 39890 40088 52017 80002 333//
00001=
59058 31957 60000 10216 20188 40098 52013 71000 80002 333//
00001=
59647 32960 01602 10268 20236 40088 52018 333// 00001=
59254 32962 50000 10239 20209 40091 52017 81041 333// 00001=
59417 32961 20000 10230 20215 39940 40088 52015 81042 333//
05101=
57780 32965 60000 10224 20155 40098 52012 86030 333// 00001=
51133 32680 70906 10170 21038 39573 40188 52015 84902 333//
00110=
52652 32980 12901 10093 21013 38559 40198 52023 81040 333//
00555 31002 70001=
54237 32962 22207 10195 20123 40066 52009 80002 333 00353=
54326 32975 72504 10230 20144 40044 52006 80002 333 00051=
57972 32960 10000 10226 20192 39886 40100 52010 81040 333//
00000=
53915 11780 80000 10104 20083 38695 40168 52011 60031 76060
885// 333// 00952 70027=
51828 31/15 93202 10222 20065 38629 40069 52023 70600 333//
00651=
50775 32960 52002 10244 20133 49991 57003 80001 333 05102=
54337 32960 12006 10159 20089 30008 40091 52004 81030 333
00353=
57584 32960 61603 10256 20172 40087 52010 80001 333// 05101=
57602 32962 81601 10235 20173 40075 52018 80007 333 05102=
54339 32962 01603 10221 20051 40070 52001 333 00152=
55598 32980 10000 10043 21041 36637 52012 80002 333 05203
31003=
57016 32770 73202 10203 20082 40172 52050 875// 333 00903=
54623 32565 72004 10217 20138 40067 52007 82142 333 00052=
56964 11457 80000 10152 20142 38675 40101 52008 60141 78088
884// 333// 05152 70528=
58311 32970 01802 10223 20144 40092 52009 333// 05201=
59087 31956 70000 10214 20189 40097 52013 71000 80002 333
00052=
59501 31458 22201 10259 20233 30089 40105 52014 71000 82200
333 00101=
59493 31950 70000 10260 20225 40094 52012 71000 80002 333
00101=
59293 32562 71102 10233 20201 30053 40100 52022 8514/ 333
00251=
59072 32965 62901 10221 20196 40104 52020 86040 333 00002=
50873 32965 22210 10252 20112 40003 52005 80001 333 00101
70011=
57378 32962 41403 10243 20166 40089 52010 80002 333 05101=
54454 32964 01603 10169 20106 40101 52005 333 00251=
56096 11780 60000 10173 20116 38948 40130 52034 69901 70060
82502 333// 00501 70026=
54335 32960 11812 10179 20087 40082 52002 80002 333 00301
91117 91518=
57006 32780 83201 10165 20061 40151 52031 885// 333// 00801=
58543 32975 03201 10199 20165 40120 52013 333 05152=
58666 11330 80406 10190 20190 30015 40114 52001 60051 76064
887// 333 05300 70081=
58667 11356 83606 10194 20188 40120 52005 60031 76066 885//
333 05251 70038=
54351 32970 11803 10223 20065 40098 54000 80002 333// 00251=
57127 31957 71802 10187 20166 39528 40104 52023 71000 87032
333 00003=
57669 32962 60000 10177 20155 40104 52011 86040 333// 05100=
57766 31957 60000 10215 20188 40104 52014 71000 86040 333//
00002=
57562 32975 62502 10214 20158 40085 52009 82042 333// 05102=
51431 11680 71403 10143 20112 39418 40173 52004 69911 72580
86902 333// 00400 70034=
53480 32970 82905 10111 20066 40113 52024 8801/ 333// 00457
70001=
59838 32568 71802 10277 20231 30067 40081 52009 81142 333//
00002=
54346 32965 21604 10192 20041 40109 57001 80002 333 00251=
58834 32965 60701 10223 20177 40119 52009 86040 333 00004=
59126 32780 72901 10256 20195 40105 52013 875// 333 00201=
53463 32970 73404 10118 20008 38938 40118 52029 80002 333//
00558 79999=
57447 32962 80000 10190 20169 39592 40111 52012 80007 333
05102=
57608 32965 82202 10226 20160 40086 52024 8807/ 333 05101=
54135 32778 72011 10218 20093 39819 40025 52010 83402 333//
00351=
57682 32963 50000 10200 20162 40099 52011 80002 333// 00001=
53543 32975 73404 10105 21002 38535 40129 52025 80002 333//
00654=
54276 32965 32505 10187 20049 40104 54000 81032 333// 00200=
54171 32975 62009 10225 20046 40062 57001 80001 333// 00301=
54195 32975 02203 10238 20061 40093 52001 333// 00201=
54374 32965 50000 10147 20080 39753 40141 57001 80002 333//
00353=
54273 32980 20000 10200 20063 40091 57001 80002 333// 00352=
54284 32970 62203 10174 20028 40105 57002 80002 333// 00200
30050=
54049 32970 01809 10208 20096 40026 52006 333// 00300=
54292 32970 00000 10227 20091 39887 40092 57002 333// 00206=
54041 32970 72211 10228 20093 49995 52007 80002 333// 00452
91120 91520=
54266 32975 62005 10201 20060 40089 54000 80002 333// 00300=
54186 32970 02006 10198 20031 40082 57003 333// 00201=
54386 32970 50000 10136 20064 40123 57001 80002 333// 00003
30048=
51573 31959 20000 10198 20051 30145 40186 52029 70600 80002
333// 00854=
59855 32570 10000 10248 20226 40087 52009 81100 333// 00000=
57516 31720 73402 10230 20190 39780 40075 52011 71000 875//
333 05102=
57432 31930 00000 10222 20196 40085 52009 71000 333 05101=
54527 32860 71801 10209 20129 40069 52009 875// 333 00053=
57649 32965 30402 10189 20152 40105 52011 83040 333// 05101=
54218 32980 82205 10225 20110 39394 40026 52009 8801/ 333//
00152=
59211 31958 70000 10234 20199 39888 40089 52015 71000 87042
333// 05102=
59453 31950 00000 10250 20227 40093 52016 71000 333// 00002=
59626 31958 10000 10254 20226 40090 52020 71000 80002 333//
00001=
59209 32963 70000 10196 20174 40094 52012 8704/ 333// 05103=
59431 31940 20000 10234 20216 39945 40090 52017 71000 81032
333// 05102=
59644 31557 10402 10259 20237 30072 40087 52018 71000 81100
333// 00000=
59023 31958 72901 10235 20192 39851 40091 52019 71000 8701/
333// 00002=
59265 31920 20000 10232 20208 39959 40092 52013 71000 81042
333// 00001=
59021 31958 70000 10203 20187 40098 52017 71000 8703/ 333//
00001=
59446 32961 10902 10240 20215 40090 52018 80002 333// 00001=
58027 31958 01403 10207 20163 30054 40103 52011 71000 333
05252=
54736 32960 01606 10201 20137 40090 52006 333// 05152=
59316 32760 30701 10264 20208 30089 40098 52012 83500 333
00201=
59663 32962 00000 10264 20234 30063 40090 52012 333 00001=
59298 31959 01603 10251 20226 40092 52015 71000 333 00100=
57996 32968 23601 10219 20165 40101 52013 82040 333 00001=
59117 32962 03601 10235 20197 30001 40104 52016 333 00100=
59096 32968 20000 10211 20151 40105 52014 81042 333 00153=
59845 32965 52002 10246 20213 40087 52009 81042 333// 00001=
54511 11658 81802 10206 20156 30021 40058 52013 69901 76060
885// 333 00051 79999=
58562 11668 61401 10217 20185 40126 52007 60011 70080 84540
333 05302 70012=
58660 11458 83601 10200 20187 40120 52004 60091 76066 887//
333 05301 70193=
58665 11465 73402 10206 20189 40111 52003 60051 70060 878//
333 05301 70143=
58457 31950 02001 10216 20172 30065 40115 52009 71000 333
05303=
58556 11560 72002 10212 20182 40123 52007 69921 70080 81140
333 05202 70009=
58659 11465 80000 10202 20188 30081 40115 52005 60061 78088
885// 333 05251 70080=
58760 11465 83604 10197 20187 40111 52011 60031 76088 885//
333 05200 70050=
57866 32968 22002 10214 20172 39903 40102 52015 82040 333//
00001=
53845 11965 82701 10128 20102 39102 40187 52044 60011 76060
8802/ 333 00801 70104=
78663 32670 41808 10270 20218 39427 40107 57004 84932 333 0682/ 10330
20202 30///
58014 82837 82940 83080=
76577 12570 30000 10228 20163 38047 40109 57012 60041 83500
92340 333   10233 20117 32/// 50370 56500 58013 70055 83624
=
76687 11560 72101 10180 20152 38692 40217 57006 69991 71462
864/1 92340 333   10195 20100 31/// 50200 565/6 58011 79999
82823=
76737 01580 70000 10192 20144 38794 40170 57015 69931 70262
873// 92344 333   10215 20130 30/// 50090 562// 57970 58002
69931 70035 85719 82926 91300=
76640 32552 70403 10280 20203 30166 40178 57008 85401 92340
333   10310 20208 30/// 50181 569/9 58010 79999 81822 84622
=
76741 31560 23606 10272 20220 30152 40182 56006 70544 81130
92329 333   10286 20212 30/// 50680 5689/ 58012 70105 81820
98360=
41170 32962 03208 10309 20152 30029 40042 333 58002=
96315 15465 72104 10242 40091 69904 81968
333 20246 55038 81815 81916 83364 85080=
89054 11105 83016 10005 20002 40208 52002 60024 74454 887//
333 10030 21002 77799 88702 91026=
89056 11004 82715 10002 20001 40219 53005 60024 74444 886//
333 10022 21004 77699 88701=
89057 11260 82707 10006 21001 40211 54002 60024 70254 886//
333 10017 20000 76699 88705=
89058 11/05 92922 10005 20005 40210 52006 69901 76064=
89059 32460 82616 10002 21004 40173 52001 886// 333 10002
21002 77099 88720=
89251 11230 83217 10004 20000 40200 54000 69942 76161 887//
333 10029=
48698 31456 70000 10271 20267 30069 40087 71022 81138 333
20260 59004 81818 85080=
60101 32460 31603 10150 20135 40167 56001 83500
333 83616=
60115 32965 50000 10150 20095 40154 51006 82032
333 82360 84073=
60135 32458 52004 10140 20124 40174 56001 85500
333 82710 84616=
60150 32960 02804 10150 20129 39519 40163 56005=
60156 32460 53204 10132 20109 40183 52002 85500
333 85616=
60230 32960 02804 10170 20096 40171 50009=
60107 32960 00000 10183 20094 40144 58006
333 95300=
60141 32560 43204 10152 20128 39498 40162 51004 84500
333 84630 95400 95800=
60195 32965 0//// 10132 20054 38501 48516 51004
333 95500=
60265 32970 03012 10204 20035 38858 48497 51013=
60318 32560 63012 10175 20100 40165 54000 83202
333 83820 84070=
85223 32584 52015 10170 20074 37490 47119 52019 81531
333 10270 56080 58010 81627 83358 85070=
85201 31465 70905 10063 20026 36307 52017 71322 84331
333 10141 56200 58012 83617 81920 83357 87070=
81405 11560 50706 10264 20237 40130 69921 70386 84802
333 10307 59009 82823 83636=
88889 11380 80504 10025 20007 40339 50007 69901 70182 885// 333
10053 81709 85613 88616=
68994 11497 32721 10133 20094 39996 40022 57002 69921 70250 83500
333 10145 20069 91034 555 20002 91002=
78897 32570 21208 10268 20226 40167 53013 82200
333 01300 10322 2//// 58002 79999 82825=
78583 11470 70308 10270 20241 40155 69901 70186 86832 333
03199 10270 20228 58016 70650 83816 84650 85358=
81415 06/// /0702 10251 20248 40128 60041
333 10320 59012 69947=
76118 32580 62104 10266 20116 38883 49983 57010 84310 92346
333   10330 20162 30/// 5//// 56440 57982 58/// 79999 82930
82830=
76256 32980 12305 10313 20145 30094 40107 57017 80005 92345
333   10354 20190 30/// 51070 56//5 58015 70000 81070=
76390 11430 82402 10160 20133 38251 40140 52002 60064 75844
82771 92340 333   10252 20116 31/// 50430 56131 58016 70059
82720=
76402 31958 33202 10292 20188 30068 40124 57015 70744 80008
92345 333   10324 20154 30/// 50790 56005 58018 70000 83270
=
76458 32568 13004 10268 20202 30113 40124 55003 81200 92345
333   10285 20202 30/// 50511 56100 58020 70000 81828=
76539 31668 60603 10198 20104 38134 40090 57002 70542 84201
92345 333   10232 20098 30/// 50530 56505 56011 70000 84824
=
76612 31662 20000 10273 20067 38449 40071 56016 70544 82300
92358 333   10300 20125 31/// 50710 56800 58013 70241 81840
81940=
76647 32465 70304 10268 20220 30127 40158 52019 8423/ 92350
333   10347 20202 30/// 50501 561// 58022 70000 84814 83358
=
76654 31956 02703 10273 20234 30098 40102 55013 70544 92350
333   10300 20220 30/// 50550 58007 70000=
76665 31568 41504 10227 20102 38112 40087 57015 70300 84200
92350 333   10250 20104 31/// 50380 561// 57812 58013 70185
84827=
76683 01662 83602 10126 20106 37846 40171 51004 60101 75089
83970 92345 333   10222 20108 32/// 50220 56880 58019 70099
83940=
76685 01565 81401 10166 20089 37878 40135 57007 69901 75095
8641/ 92350 333   10205 20110 31/// 50010 5699/ 58015 69907
70097=
76698 01660 80000 10244 20231 30150 40162 52009 60141 71769
84270 92350 333   10317 20220 32/// 50430 56110 58020 60147
70143=
76743 01556 63603 10278 20219 30208 40215 57006 69901 70222
83254 92345 333   10295 20212 30/// 50220 56800 58016 69907
70081=
76762 32580 13603 10266 20141 38728 40072 57016 81200 92330
333   10290 20150 31/// 50630 56700 59019 81830=
76805 32970 02709 10296 20236 30083 40088 57007 92350 333
10328 20234 30/// 50540 59006 70000 91212 91524=
76393 32668 61502 10286 20188 39580 40153 55012 86200 92355
333   10305 20190 31/// 50630 56300 58010 70000 86833=
76471 01680 60906 10195 20114 37703 40071 57017 60057 70192
8630/ 92345 333   10210 20087 31/// 50460 5650/ 58013 60054
70050 86935=
76556 31966 12703 10278 20163 39086 40075 57011 70444 81200
92330 333   10331 20140 30/// 50660 56600 58015 70000 81820
=
88963 32565 82720 10060 21027 30110 40139 53016 885//
333 10084 20016 56699 88630 92427 92850 95060
555 10039 64202 65180=
88968 32565 73221 10024 20003 30209 40224 57001 87500
333 10045 20013 56000 87620 92881 94062
555 10224 64163 65090 D/INV=
89053 11230 62728 10009 20005 30194 40208 57007 69931 75052 85606
333 10055 21004 56606 85705 84263 90977 91142 92445 92881 94070
95090 96010
555 52732 64113 65140=
89055 32965 82306 10033 21024 39868 40112 52008 8807/
333 10051 20014 56079 88360 92881
555 10103 64173 65114=
89066 11125 83210 10030 21042 30080 40089 52017 69941 71022 8671/
333 10072 20010 56009 83703 83705 88460 90665 90942 92425 92850
93094 95060
555 64093 65180=
89532 42/70 70802 11137 21226 39909 49936 58004
86031 333 11123 21166=
91570 36/// /1310 10281 20199 30139 40142 58001
333 20236 58011=
91574 36/// /1410 10276 20159 30162 40168 51005
333 20234 58014=
61442 32958 03311 10205 20168 30129 40133
333 0//00 59006=
68906 32597 83306 10055 21019 30137 40202 57008 885//
333 10090 20045 91008 555 91020=
78384 11460 60510 10262 20247 40149 60461 72992 84343
333 10293 20247 58007 70566 84916 83070 90925=
60155 32456 43204 10178 20147 40170 51005 84200
333 84816=
78866 32580 31008 10265 20220 30169 40173 52011 81101 333 10307 20254
58003 81821 83081=
60185 32960 03603 10170 20144 40176 51006=
60191 32970 02404 10163 20102 40161 52010=
60210 32960 00604 10240 20050 38939 48479 53007=
60220 32458 10404 10162 20141 40179 51004 81600
333 81710=
89642 42980 11614 11120 21205 39794 49849 58014 81031
333 11096 21139 81360 91127=
91925 32480 40908 10299 20228 30043 40100 57019 84200
333 20237 56200 59006 84818
555 10919=
91938 11465 62012 10285 20220 30130 40133 56025 60014 71582 86802
333 20236 56109 58007 81816 84820 85650
555 11220=
91943 36/// ///// 10296 20228 30121 40124 56019
333 20273 58000=
91944 16/// /1216 10296 20231 30143 40149 56021 60034
333 20252 58008
555 1//19=
91948 11470 71010 10233 20212 30079 40182 55003 60694 71592 8687/
333 20210 56299 58017 85813 86359
555 10917=
91954 32582 21112 10248 20165 30197 40200 56013 82200
333 20217 56200 58022 82828
555 11027=
91958 12582 30508 10212 20134 30232 40234 56012 69924 83200
333 20146 56300 58043 83823
555 10521=
60710 32958 30708 10164 20143 30065 40143 58010 80002
333 55132 83070=
60714 32960 30000 10124 20114 30155 40162 58002 81102
333 55132 81820 83070=
60720 32960 00000 10128 20109 30125 40161 58002
333 55130=
60738 32960 21612 10112 20085 38938 48508 58004 80002
333 55126 82070=
60740 32960 10000 10170 20115 30165 40168 50002 80002
333 55128 81070=
60745 32658 10808 10195 20109 39791 40156 50006 81200
333  55126 81833=
60750 32960 01002 10166 20124 30137 40169 52002
333 55130 22762=
13585 42698 83605 10092 20020 39374 40161 54000 885//=
17601 31659 32901 10178 20160 30045 40075 56011 70611 83500 92350
333 83635=
16597 32362 10606 10160 20158 30068 40156 53007 81600
333 81708=
11816 32980 02001 10094 20042 39988 40150 56002
333 55124 =
11826 32980 00101 10061 20039 39955 40156 51001
333 55128 =
11903 32970 00000 10044 20024 39785 40169 51004
333 55128 =
11934 32970 02802 10026 21005 39347 42781 56001
333 55093 =
11968 32980 03301 10053 20026 39880 40163 50001
333 55065 =
11841 32970 01101 10044 20021 39786 40165 52001
333 55139 =
11858 36/// /1603 10087 20054 30007 40157 52002
333 55125 =
11916 46/// /2901 11016 21046 37955 48464 57004 6///1
333 55060 =
11927 35/73 /3601 10056 20026 39901 40164 52003
333 55129 =
11930 46/// /0304 11051 21097 37355 47033 57001 6///1
333 55086 =
11993 36/// /0801 10060 20028 39944 40162 52004
333 55059 =
11855 35/77 /0000 10069 20044 39993 40159 52006
333 55118 =
11867 35/75 /2801 10040 20024 39843 40163 52002
333 55118 =
11880 36/// /0000 10053 20046 39992 40165 52005
333 55117 =
11918 36/// /0802 10014 21000 39346 42777 57002
333 55079 =
11933 36/// /3402 11003 21013 38625 48474 57003
333 55105 =
11938 36/// /0601 10019 21002 39110 42781 57002 =
11976 36/// /0402 10052 20030 39897 40162 52003
333 55039 =
11978 36/// /0201 10059 20044 30027 40157 52001
333 55049 =
12772 32982 02201 10110 20007 39877 40158 58001=
12822 32970 02203 10115 20035 30014 40156 55001=
12843 32981 61901 10089 20041 39993 40162 54000 86030=
12882 32975 71601 10097 20036 30029 40162 51003 8707/=
12925 32980 00000 10032 20001 39997 40172 58002=
12942 32981 02601 10083 21012 39926 40173 54000=
12982 32980 40000 10063 20035 30064 40167 50001 82082=
11036 32978 19901 10077 20055 39918 40148 57005 80001 333 81080=
11010 35/84 /1502 10101 20044 39757 40130 57009=
11120 35/82 /9901 10116 20089 39440 40128 52003=
11150 35/82 /1402 10073 20054 39594 40130 57006=
11240 36/78 /0301 10090 20069 39748 40163 57004=
10004 46/58 /0504 10118 20099 30100 40100 56009
222// 00113
333 55300=
10015 32975 03605 10109 20088 30083 40093 56009
333 30/// 55300=
10020 32972 03505 10089 20072 30061 40097 58009
333 30/// 55/// 22513 55300=
10035 32975 10202 10110 20060 30041 40099 58009 80001
333 30/// 22439 55300 81075=
10055 32975 01502 10108 20088 30084 40094 58008
333 30/// 55300=
10147 32980 61801 10147 20086 30073 40091 57007 80002
333 30/// 55300 86078=
10162 36/60 31701 10144 20066 30010 40091 56010 83///
333 55300 83/71=
10184 32980 02003 10125 20090 30090 40097 56009
333 30/// 55300=
10224 32982 20902 10127 20086 30076 40082 58012 80001
333 30/// 22322 55300 82075=
10270 32970 11601 10120 20105 30045 40099 58011 80001
222// 06168
333 30/// 55300 81076=
10338 32984 71102 10136 20090 30012 40083 57011 80002
333 30/// 55300 87078=
10361 32982 41602 10125 20066 39995 40097 57012 80001
333 30/// 55300 84076=
10384 32986 61602 10148 20077 30048 40106 56009 80002
333 30/// 55300 86076=
10393 32984 51703 10138 20070 39988 40112 56008 82042
333 30/// 55/// 2//// 3//// 553// 2//// 3//// 82366 85072=
10400 32982 41403 10172 20068 30024 40072 58011 80002
333 30/// 55300 84080=
10438 36/60 00101 10118 20073 39822 40098 58007
333 55300=
10469 32981 61703 10130 20055 39941 40102 58007 80002
333 30/// 55300 86073=
10488 32984 61603 10122 20048 39844 40120 56009 80002
333 30/// 55/// 22471 55300 86075=
10548 32985 71702 10098 20050 39576 40111 56003 80002
333 30/// 55144 22822 3//// 4//// 55300 20009 3//// 87030=
10637 32884 60402 10136 20078 39955 40089 58004 81031
333 30/// 55300 81358 86078=
10685 32984 01603 10104 20035 39454 40116 56007
333 30/// 553//=
10738 32984 62501 10132 20075 39640 40096 58004 80001
333 30/// 55300 86075=
10763 32980 41202 10095 20024 39739 40117 56002 80001
333 30/// 55134 22840 3//// 4//// 55300 20000 3//// 84080=
10788 32982 11003 10084 20033 39691 40120 58006 80001
333 30/// 55300 81076=
10852 32982 31702 10115 20035 39549 40106 56007 80001
333 30/// 55300 83076=
10946 32986 61202 10101 20074 39298 40113 58006 80002
333 30/// 55300 86075=
10091 32975 02405 10124 20099 30048 40099 58007
333 30/// 55/// 22503 30000 4//// 55300 20000 30000=
10113 32970 20405 10114 20091 30073 40092 57009 80002
333 30/// 55/// 22527 55300 82075=
10129 32980 30803 10142 20091 30071 40084 58011 80001
222// 20000
333 55300 83075=
10131 32980 20302 10134 20101 30072 40086 57012 80001
333 30/// 55300 82074=
10170 32970 01401 10139 20092 30079 40093 57010
333 30/// 55/// 22419 55300=
10253 36/60 70000 10103 20091 30073 40095 58011 87///
333 55300 87/72=
10280 36/59 82004 10145 20083 30004 40099 56010 88///
333 55300 88/66=
10291 32982 41902 10128 20103 30038 40104 56009 80002
333 30/// 55300 84076=
10305 36/// /0901 10155 20095 30047 40078 58008
333 55300=
10315 32984 51001 10154 20084 30012 40074 58007 80001
333 30/// 55300 85075=
10348 32980 71603 10141 20082 39985 40089 58013 80002
333 30/// 22532 55300 87075=
10385 32984 71502 10121 20067 30046 40106 56008 80006
333 30/// 55300 87276=
10427 32989 31906 10130 20034 39106 48433 58008 80002
333 30/// 55300 83075=
10453 32989 62310 10112 20016 38810 48450 58008 80002
333 31/// 55300 86070 91211=
10474 32984 51002 10129 20055 39977 40103 58008 80008
333 30/// 55/// 22586 55300 20000 85271=
10490 36/59 /1804 10113 20064 39993 40113 56008
333 55129 22438 3//// 4//// 55300 20000 3////=
10499 32983 01802 10109 20067 39835 40119 56009
333 30/// 55300=
54826 32965 11810 10142 20021
38443 52006 80002 333// 05102=
10501 32986 82304 10175 20110 39836 40074 55005 83037
333 30/// 55300 83366 88280=
10513 32986 20901 10160 20078 39955 40072 58010 80001
333 30/// 55300 82076=
10532 12775 20000 10121 20081 39863 40094 58007 81101
333 30/// 55/// 22644 55300 81850=
10544 32988 41708 10110 20004 39057 48452 56007 80001
333 30/// 55300 84076=
10554 32989 21704 10116 20048 39720 40100 57006 80001
333 30/// 55144 22585 3//// 4//// 55300 20006 3//// 82073=
10577 32983 51703 10135 20031 39620 40111 56008 80009
333 30/// 55/// 22662 30648 4//// 55300 20000 30000 85173=
10578 32989 41608 10080 20013 38753 48456 57011 80002
333 30/// 55134 22789 32898 4//// 55300 20000 30000 84070=
10609 32670 41801 10159 20115 39770 40088 53001 82501
333 31/// 22693 55300 82645 84080=
10655 32983 10000 10116 20064 39776 40097 58006 80001
333 30/// 55/// 22745 55300 81079=
10688 32984 00301 10092 20040 39599 40117 58006
333 30/// 55300=
10729 32681 50000 10132 20085 39964 40082 56005 85501
333 30/// 55/// 22739 55300 85633=
10776 32975 02201 10091 20052 39689 40130 58006
333 30/// 55300=
10803 36/59 01601 10180 20102 39753 40099 53004
333 55300=
10836 32989 51303 10128 20033 39252 40094 58008 81032
333 30/// 55300 81360 85075=
10929 32982 30201 10141 20114 39580 40098 55001 81041
333 31/// 55/// 22782 55300 81359 83080=
10961 31/05 62906 11006 21006 37080 47053 58004 74141 865/2
333 3//// 49280 55300 866//=
10962 32982 22305 10144 20041 38998 48464 58007 80002
333 30/// 55300 82073=
10401 70005 333 91104=
11101 36/// /1302 10150 20108 39587 40094=
11022 36/// /2502 10121 20036 39752 40134=
11028 36/// /0000 10070 20060 39796 40139=
11130 36/// /0000 10099 20065 39538 40117=
11157 32980 02302 10076 20043 39383 40144 52002=
11204 46/// /3101 10092 20073 39370 40147=
11231 36783 /9901 10121 20052 39598 40156 54000=
15360 32998 73606 10113 20059 30131 40142 50002 87070 333 92428=
15480 32997 03402 10090 20032 30140 40156 56002 333 92427=
15004 32998 31202 10050 20023 39834 40172 52009 83030=
15020 32997 00000 10038 20022 39956 40155 52003=
15090 32997 62801 10055 20023 30028 40154 52002 82046=
15108 32298 52704 11054 21054 38050 48476 58005 85500
333 43002 92727 95100=
15120 32997 22103 10037 21010 39674 40176 52005 82030=
15150 32997 00000 10040 20022 39927 40161 53002=
15200 32998 00000 10038 20007 30017 40163 52006=
15260 32997 22504 10044 20009 39631 40170 52005 82030=
15280 31/93 83608 11070 21070 37456 47995 52007 74144 883//
333 49025=
15292 32998 00000 10063 20056 39886 40182 52010=
15310 32698 60000 10068 20016 30068 40154 54000 86500=
15346 32997 03201 10060 20044 39880 40170 53003=
15350 32997 63203 10092 20049 30039 40156 57003 86070=
15410 32597 70102 10103 20078 30065 40159 52009 85970=
15420 3//// /3501 10033 20033 30040 40152 54000 333 91001 91201=
15450 32997 60000 10100 20100 39910 40144 53005 86070=
15460 32997 53600 10089 20060 30130 40153 54000 85070=
15470 32997 80000 10102 20098 30033 40158 51001 8807/=
11423 32986 19901 10101 20034 39261 42757 57010 80001
333 55130 81070=
11464 32984 11611 10097 20025 39164 42760 57012 80001
333 55142 81074=
11487 32989 60703 10073 20037 39516 40136 58009 80001
333 55133 86073=
11518 32989 61603 10087 20049 39699 40135 57008 80002
333 55121 86076=
11603 32980 21803 10108 20058 39661 40133 57008 80001
333 55095 82070=
11659 32981 11004 10081 20047 39516 40151 58001 80001
333 55128 81070=
11782 32975 02001 10051 20033 39839 40156 58004
333 55136=
71805 43/// /0606 10056 20055 30163 40192 53013=
40582 43930 /3503 10302 20018 40077 58006 333 00006 =
48008 31250 70000 10197 20190 40103 70152 84970 333 20190 56550
58021=
48025 32556 70000 10220 20205 40081 84870 333 20220 56440 59003=
48035 21456 80000 10168 20135 40076 76066 8692/ 333 20160 56//9
58023=
48037 32457 73601 10222 20205 40073 85870 333 20210 56880 58000=
48042 21556 80000 10220 20205 40061 75055 8597/ 333 20212 56499
58018=
48045 21256 70000 10155 20144 74164 87700 333 20153 56700=
48048 22558 20402 10220 20205 40070 82800 333 20150 56900 58001=
48053 21410 83601 10220 20220 40065 76166 8497/ 333 20214 5689/
58008=
48057 21329 82401 10170 20170 75165 86770 333 20164 56490=
48060 21420 83601 10200 20185 40056 75165 8592/ 333 20172 5656/
59017=
48062 32559 40903 10260 20230 40035 83930 333 20255 56790 58010=
48077 21457 80401 10240 20226 40058 70265 85970 333 20236 56890
58004=
48078 22430 60000 10248 20246 40057 83771 333 20239 56449 59003=
48094 22440 80000 10235 20235 40049 70322 8692/ 333 20192 56999
59013=
48097 21450 81401 10245 20236 40066 71022 85331 333 20232 56499
58003=
48108 21596 60000 10240 20240 40073 71799 83936 333 20220 56439
59009=
48110 22496 40000 10250 20245 40069 83636 333 20245 56799 59017=
12375 14792 15507 05012 07056 10112 11132 14792 15498 71000 72001
73127 74305 75112 76127 77092=
83704 88712=
84705 88358=
86360=
87616=
82825 83645 87656=
60715 31950 00000 10144 20135 30155 40160 58001 71000
333 55128=
60725 32958 22302 10127 20119 39994 40165 51001 80002
333 55110 22838 30215 82070=
60735 32960 30000 10160 20115 30094 40175 51007 80002
333 55120 83070=
60760 32560 31012 10230 20065 30041 40142 52002 83200
333 55126 83830=
60765 32560 31204 10197 20132 30154 40160 51009 81202
333 55125 22846 81820 83073=
60769 32958 21602 10195 20130 30153 40157 58001 80002
333 55125 20734 82070=
57002 70000 81/// 92350=
57001 70000 81/// 92350=
16622 11457 81404 10124 20113 30147 40153 52007 60021 76362 8672/
333 83710 85625 88457 90730 91107 555 40000 47642 44225
50000 50118 60000 60015 60050 70000 77R// 7RY//=
16716 32562 63608 10156 20072 30106 40124 51002 84850 333 81820 84640
86358 555 40000 47612 44215 50000 50114=
16734 32570 30506 10122 20103 30053 40117 51002 81240 333 90730 91110
555 40000 47570 44195 50000 50112=
16682 32560 60000 10136 20125 30111 40130 51002 84550 333 84625 84358
90730 91103 555 40000 47617 44230 50000 50130=
16749 32560 62910 10174 20164 30040 40054 54000 84850 333 82820 83630
90730 91112 555 40000 47564 44230 50000 50168=
16754 32565 43110 10160 20104 30057 40104 58003 84200 333 90730 91114
555 40000 47575 44210 50000 50130=
16650 32570 50507 10134 20031 30130 40134 54000 82150
333 82820 84357 90714 555 40000 47628 44215 50000 50088=
16732 32565 13621 10156 20095 30084 40097 54000 81200 333 90730 91131
555 40000 47591 44180 50000 50124=
16667 32965 03613 10140 20093 30109 40114 51002 333 90730 91124 555
40000 47611 44200 50000 50116=
16710 11358 80000 10090 20027 39339 40091 51001 69931 71062 8462/ 333
81708 84620 88458 90730 91105 555 40000 47034 44220 50000 50062 70000
77Y// 7RY//=
16723 32560 60712 10148 20081 30075 40083 51005 83220 333 83820 86460
90730 91122=
16627 32560 20306 10098 20054 30145 40149 51003 82100 333 90730 91110
555 40000 47638 44210 50000 50078=
16738 32560 40222 10140 20098 39910 40106 51004 82150 333 82820 84358
90730 91128 555 40000 47463 44200 50000 50118=
16746 32560 70000 10144 20122 39934 40115 54000 84250 333
84825 86357 90730 91108 555 40000 47480 44190 50000 50132=
26229 41984 02702 10076 20053 30066 40073 57016 72581=
26313 41997 53002 10068 20051 30073 40079 57008 70381 80004=
26314 41597 82103 10090 20043 30078 40082 57005 78082 889// 333
88925 91111=
26324 42998 80000 10077 20053 30073 40081 58007 889//   333 88922=
26348 41480 81703 10060 20049 39923 40098 57013 76162 8472/=
26406 42565 61903 10113 20075 30071 40077 57014 83950 333 91110=
26422 42997 81902 10099 20056 30064 40085 57009 8805/=
26544 41563 71702 10069 20051 39964 40114 57004 72582 86301   333
84926=
54776 32980 21805 10121 20100 30075 40131 57001 80002
333// 05152=
11406 32975 02902 10096 20044 39546 40123 57007
333 55132=
11457 32986 21803 10073 20009 38856 48463 57010 80001
333 55133 82070=
11520 32982 32601 10094 20050 39770 40132 57006 80002
333 55123 83073=
11636 32981 59901 10073 20043 39471 42768 57004 80001
333 55134 85070=
11679 32970 01301 10078 20013 39671 40157 53001
333 55137=
11723 32981 19901 10100 20046 39852 40147 57003 80001
333 55137 81070=
11766 32985 11202 10093 20031 39273 42773 57006 80001
333 55138 81072=
11774 32980 10901 10049 20034 39876 40151 58003 80001
333 55128 81071=
11787 32981 01304 10051 21029 38652 48473 57006
333 55138=
17280 11670 43003 10108 20097 39312 40083 57017 69941 70298 82130
333 82840 84360=
17022 11556 71203 10096 20082 40131 53003 60041 78088 84270 333
84832 87358 92446=
17038 32670 49903 10130 20120 40091 55002 82130 333 82835 84360 92428=
17050 32670 60102 10109 20064 40156 52004 83230 333
83840 86360=
17060 32960 00204 10114 20058 40138 52003=
17096 11570 73408 10084 20043 38206 48469 56014 69951 78082 84250
333 84825 87357=
17124 11665 72704 10070 20050 39202 40108 50000 60051 72588 84270
333 84835 87360=
17128 11662 73404 10070 20050 38990 40067 51004 60011 78082 85250
333 85835 87359=
17170 32665 61505 10140 20050 38325 48495 57013 83250
333 83835 86359=
17195 32670 51413 10150 20008 38880 48424 51006 83150
333 83835 85360=
17200 32670 42403 10094 20078 39130 40092 57010 84200 333 84840=
17219 32565 70214 10126 20071 40102 51008 83270
333 83830 87360=
17240 11560 72503 10080 20050 38943 40065 51003 69961 78082 84250 333
84830 87360=
17244 11660 70111 10072 20061 38905 48428 53009 60031 78022 85250
333 85835 87359=
17350 11560 71505 10184 20168 40071 57005 69981 70192 82254 333
82825 84360 87070=
17190 11560 82706 10048 20035 38922 48433 54000 60031 78082 8522/ 333
85830 88459=
17210 11670 81604 10190 20071 39090 40084 57012 69901 70262 8452/
333 84633 88459=
17234 11670 70903 10132 20114 40079 52005 60131 72588 84270 333
84836 87360=
17034 32670 72208 10138 20106 40086 52010 84270 333
84835 87359 92438=
17084 11665 82205 10094 20083 39183 40058 50000 60121 78082 8522/ 333
85835 88460=
17090 32665 51601 10112 20078 38650 48432 54000 85500 333
85636=
17098 11665 61903 10043 20033 38189 48486 57011 69961 72582 84250 333
84835 86360=
17160 32670 70000 10114 20089 38930 48428 52007 84250
333 84840 87360=
17184 32970 33406 10116 20078 40100 51005 83030 333
83360=
17260 32670 40000 10136 20102 39282 40069 56005 84200
333 84835=
17290 32670 63605 10166 20136 40063 51003 84260  333
84836 86360 92408=
17370 32965 00501 10196 20165 40076 56006
333 92437=
17115 32660 50315 10100 20052 40137 51003 83230
333 83835 85360=
17248 32675 62907 10140 20068 38880 48414 51004 83550 333
83640 86360=
17330 11670 60000 10183 20173 40067 56001 60271 70192 84201 333
84834 86070=
17024 11550 82407 10100 20081 40113 58001 60031 76166
8552/ 333 85630 88460 92446=
17092 11670 71704 10156 20091 38790 48439 57016 69981 72582 84250
333 84836 87359=
17112 32970 00503 10108 20089 40147 52007 333
92418=
17116 32960 05004 10094 20062 40137 52006=
17188 11665 81102 10064 20048 39031 40078 51001 69941 72186 8652/ 333
86635 88459=
17202 11670 60105 10114 20086 39095 40089 57015 69941 70282 84250
333 84835 86360=
17292 11670 72903 10112 20101 39321 40055 54000 69911 70282 84270 333
84835 87360=
17300 11560 53509 10160 20108 40052 58003 69901 79522 85900
333 81925 84830=
17042 32970 30402 10140 20121 40102 57018 83030 333
83360 92428=
17074 11560 81501 10060 20044 39180 40104 51002 60041
76062 8552/ 333 85630 88458=
17140 11665 70000 10101 20085 38620 48416 51001 60041 70298 87200
333 87835=
17205 11665 72003 10086 20081 38340 48508 56010 69941 78022 85270
333 85835 87359 92416=
17255 32670 70000 10152 20140 39432 40081 58003 84250 333
84835 87360=
17085 11560 73603 10121 20084 40083 52014 60181 79592 85970 333
81930 84833 87360=
17100 32970 01602 10140 20020 39160 40131 57010=
17203 11670 60000 10115 20088 38870 48534 58024 69981 70282 84250 333
84840 86360=
17250 32675 32606 10147 20047 38714 48421 54000 83200
333 83840=
17270 32970 32904 10162 20132 39443 40062 57009 83030 333
83360=
17375 32675 30000 10170 20153 40044 51002 83200 333
83840 92428=
58725 32662 42901 10197 20171 39866 40121 52007 81502 333
00002 79999=
58921 32960 61401 10208 20174 39882 40120 52013 86040 333
00003 79999=
59321 32780 81101 10247 20206 40099 52012 885// 333 00200=
58731 11970 60701 10205 20173 40122 52008 69911 70060 86030
333 05104 70007=
58820 32961 80000 10198 20167 40117 52011 8807/ 333 00001=
58926 32965 70000 10228 20187 40111 52011 8707/ 333 00002=
58847 11672 82502 10214 20197 30013 40113 52014 69901 70060
885// 333 00000 79999=
58931 11080 30000 10151 20151 38355 52010 69931 72854 82132
333 00204 70013=
54534 32970 51102 10214 20127 40083 52015 85030 333// 00051=
54662 32965 01605 10162 20072 30000 40118 52001 333 00052=
57662 31959 61802 10222 20160 30052 40092 52015 71000 86040
333// 05102=
59954 11565 13401 10250 20216 40086 52008 69901 70080 81200
333// 00000 79999=
54602 31959 81603 10203 20162 40056 52008 71000 80007 333//
05100=
53446 32970 13605 10122 21012 40154 52037 80002 333// 00957=
57894 42970 03202 10142 20100 40106 52004=
58626 32970 20901 10244 20183 40107 52011 80002 333// 00001=
58527 32961 03602 10232 20158 30030 40103 52011 333// 05101=
58813 32970 10000 10212 20180 40099 52010 80002 333// 00003=
59849 32577 50901 10233 20203 40093 52009 81102 333// 00002=
59218 31959 70000 10204 20182 40088 52010 71000 82042 333//
05101=
50527 32670 73204 10082 21010 39305 40001 52014 86902 333//
00861=
53588 32470 83224 10094 21118 37779 52005 8272/ 333// 00052
79999 91136 91532=
54808 32973 01804 10206 20170 40083 52012 333 05151=
54843 32970 01807 10196 20145 30076 40102 52003 333// 05152=
54836 32960 00402 10186 20128 40109 52008 333 05151=
58549 11966 60902 10218 20178 40112 52003 69911 70060 86040
333 05251 70003=
59948 32980 21401 10268 20227 30075 40083 52009 80002 333//
00001=
59294 31540 73201 10247 20226 30058 40101 52013 71000 8344/
333 00001=
59664 32665 70000 10262 20239 40095 52013 875// 333 00001=
59456 32970 20000 10250 20217 40094 52016 82040 333 00001=
59082 31958 50000 10220 20185 30024 40099 52015 71000 84042
333 00001=
59754 32965 71402 10254 20229 40086 52012 80002 333 00001=
59271 32960 20000 10230 20206 40095 52019 80002 333 00101=
59658 32466 20902 10268 20232 40092 52016 81140 333 00000=
59287 31530 71402 10259 20236 30049 40099 52016 71000 872//
333// 00001=
57245 31940 80000 10195 20181 39767 40100 52020 71000 80007
333 05104=
53975 31950 71101 10181 20135 40095 52023 71000 82032 333//
00101=
53673 32660 80901 10213 21004 40074 52014 8217/ 333// 00104=
53787 32963 70000 10161 20106 40096 52021 80002 333// 00103=
53478 32965 82706 10146 21014 40083 52014 8802/ 333// 00252=
53959 32970 72703 10244 20114 39673 40094 52021 8707/ 333//
00305=
54863 32980 02005 10174 20107 40128 52002 333// 05100=
54852 32962 01604 10177 20105 40123 52001 333// 05151=
54929 32960 00903 10181 20132 40114 52009 333// 05251=
54725 32965 71803 10216 20135 40073 52004 80001 333// 05251=
54715 32970 71804 10211 20149 40068 52004 80002 333// 05200=
54916 32962 01404 10212 20166 40103 52007 333// 05251=
56080 32970 70000 10043 20016 37193 52011 8703/ 333// 00202
30005 70001=
54102 32680 70202 10114 20041 38948 40043 52019 83502 333//
00462 79999=
51709 11880 32503 10178 20081 38725 40114 52011 69921 70098
83900 333// 00500 70009=
51716 31859 72701 10216 20076 38889 40091 52021 70600 82962
333// 00451=
51818 11857 83606 10208 20079 40097 52032 69901 76000 885//
333// 00701 79999=
54646 31956 71809 10165 20133 40085 52014 710// 83042 333
05151 91117 91516=
58846 11560 81101 10211 20196 40120 52016 69901 76060 885//
333 05100 70039=
58150 32570 21605 10207 20172 30114 40122 52007 82100 333
05301=
58238 31957 01403 10214 20172 30096 40105 52010 71000 333
05201=
58265 32980 01404 10219 20184 30120 40132 52005 333 05302=
58241 32965 01403 10204 20170 40115 52008 333 05201=
58343 31956 01405 10215 20178 40114 52008 71000 333 05301=
57872 32962 20000 10242 20209 40097 52016 80002 333// 00002=
52679 32980 60000 10133 21005 38504 52018 86032 333// 00654
70002=
57071 32965 23204 10238 20153 40080 52020 80002 333// 00003=
53195 11565 83210 10058 20031 40092 52031 69951 76098 8572/
333// 00766 70005=
54012 32680 73601 10100 20036 38936 40034 52017 86502 333//
00563=
50915 11580 73405 10078 20031 39112 40054 52003 60021 78080
87902 333// 00864 70021=
54208 32575 72504 10128 20047 38696 40066 52019 86902 333//
00158 70008=
53192 11580 72202 10106 20055 38816 40059 52014 69901 72580
86902 333// 00461 79999=
54563 32980 01405 10158 20093 40122 52005 333 00153=
54579 32962 01404 10135 20106 40129 52003 333 00100=
59228 32962 70901 10233 20212 40089 52016 80002 333// 00001=
57947 31959 70000 10213 20193 40101 52017 71000 82042 333//
00002=
59065 32960 60000 10226 20190 40093 52014 82032 333// 05101=
52889 11970 81102 10115 20062 38515 40168 57006 69971 70060
8807/ 333 00754 70007=
52418 32980 70407 10100 21100 38900 40168 52020 86042 333
00255 79999=
53821 11980 80000 10114 20092 40162 52006 60041 72160 8807/
333 00852 70037=
52447 32980 70000 10075 21043 40207 52018 80002 333 00558
31001 79999=
52984 32770 82204 10086 20050 38123 52011 885// 333 00754=
56074 32980 00000 10012 21020 36713 52007 333 00001 31038=
56386 31930 80000 10220 20176 40081 52018 71000 80007 333
00003=
58472 11365 81106 10187 20179 30035 40131 52006 69911 72580
885// 333 05351 70001=
58477 11458 80401 10195 20185 30081 40124 52005 60021 76066
887// 333 05251 70016=
58464 32575 11104 10211 20179 40128 52010 81140 333 05301
79999=
58633 32970 00903 10223 20178 30019 40115 52009 333 05100=
58251 32968 01404 10206 20171 30112 40118 52005 333 05300=
58141 32964 01402 10189 20154 30095 40112 52006 333 05251=
58358 31558 11404 10220 20178 40117 52007 71000 81100 333
05301=
58345 32962 00000 10229 20177 40111 52012 333 05201=
58138 32960 01102 10192 20164 40105 52009 333 05200=
58040 32960 01803 10202 20149 30114 40118 52010 333 05101=
57461 32965 83401 10212 20157 39935 40089 52011 80007 333
05101=
53898 32964 72003 10213 20151 40076 52015 80002 333// 05152=
57091 32965 51804 10216 20141 40074 52006 80002 333// 05151=
57193 32968 11601 10211 20154 40081 52013 80002 333// 05100
79999=
58208 32970 11801 10225 20158 40090 52006 80002 333// 05100=
54823 32966 11611 10246 20094 39882 40075 52003 80001 333
05200=
51931 32962 70401 10214 20018 40061 52024 81032 333// 00403=
54471 32960 01607 10199 20097 30086 40103 52006 333 00152=
59758 32976 21402 10264 20230 30066 40087 52011 80002 333//
05100=
57067 32965 72202 10190 20157 39455 40096 52020 82042 333//
00103=
57089 32962 02002 10216 20155 40077 52011 333// 05100 79999=
57290 32962 01803 10245 20147 40077 52010 333// 05200=
58005 32964 01804 10199 20159 40086 52009 333// 05252=
54401 32962 82904 10211 20037 39265 40069 52020 8801/ 333//
00100 79999=
53513 32970 00903 10121 21051 39008 40172 52033 333// 01256=
58606 32963 00702 10241 20183 30053 40106 52012 333// 00001=
57598 32970 00000 10187 20150 40115 52014 333// 00001=
57993 32963 10000 10220 20180 39961 40105 52013 81040 333//
00101=
57799 32965 13601 10213 20188 30020 40101 52012 80001 333//
00000=
58506 32980 30000 10205 20078 40112 52012 80002 333// 00002=
59631 31956 03602 10236 20221 40088 52016 71000 333// 00000=
54857 32965 11604 10162 20120 30040 40130 52009 81030 333//
05100=
54333 31957 01906 10206 20073 40074 54000 70700 333 00200=
54365 32970 71606 10176 20057 40134 52001 80002 333 00100=
54476 32965 11607 10198 20086 40114 52002 80001 333 00153=
54493 32974 01402 10160 20073 40147 54000 333 00100=
54497 32966 11601 10171 20090 30132 40147 54000 80002 333
00001=
54236 32962 22012 10184 20080 39966 40064 52005 81032 333
00301 91120 91518=
54584 32962 20904 10145 20113 40131 54000 80002 333 00000=
59462 32572 20000 10236 20209 40096 52020 81102 333 00001=
58259 32562 11405 10219 20190 40123 52007 81100 333 05302=
54455 32962 02005 10143 20103 40090 52003 333 00254=
54324 32965 01605 10222 20110 40056 52010 333 00253=
54342 32962 31808 10212 20063 30034 40092 57002 80002 333
00252=
54486 32962 11602 10138 20097 40142 57003 81032 333 00152
10216 20104=
53882 32965 73602 10172 20116 40098 52025 8703/ 333// 00200
79999=
53487 31957 82706 10180 21045 40075 52021 70600 8802/ 333//
00251=
53564 32962 83202 10193 21026 39149 40100 52022 8802/ 333//
00551 79999=
53868 31558 80702 10211 20129 40093 52020 70400 8312/ 333//
00202=
53764 32970 83203 10198 20045 40115 52029 8802/ 333// 00405=
53772 31950 72912 10229 21018 39227 40088 52024 70700 87040
333// 00207=
53853 11967 73404 10184 20062 40112 52028 69901 70060 8703/
333// 00405 79999=
53664 32968 81804 10198 21028 40101 52018 8807/ 333// 00403=
57957 32960 60202 10219 20183 39908 40099 52014 85042 333//
00001=
54774 32980 01807 10214 20033 40118 52001 333// 05151 91118
91520=
56357 32680 70000 10023 20004 36498 52010 87400 333 05101
31009 79999=
56038 32680 60000 11020 21051 36161 52005 81402 333 00001
79999=
56251 32980 00000 10014 21019 37011 52012 333 05151 31003=
56374 32780 70000 10087 20051 37459 52008 82402 333 00001
30050=
57606 32565 70000 10169 20124 40107 52013 8164/ 333// 00002=
56691 11466 80000 10099 20086 37787 52013 60031 76066 887//
333// 00151 70025=
57707 32570 82501 10163 20104 38484 52013 8167/ 333// 00002=
57713 32968 70201 10180 20136 40102 52011 8704/ 333// 05101=
57731 32765 70401 10195 20166 40104 52010 875// 333// 05101=
56793 11559 80000 10146 20117 38487 52018 60031 76066 887//
333// 00151 70044=
57803 11558 80000 10166 20146 40106 52011 69961 71060 885//
333// 00003 70006=
57806 11460 82902 10165 20135 40100 52013 69941 76060 887//
333// 00001 70008=
57816 11658 80701 10165 20154 38772 40106 52012 69961 71060
885// 333// 00001 70007=
57825 11760 83601 10192 20158 40106 52016 69901 70060 885//
333// 05101 79999=
57832 11772 82201 10171 20153 40109 52016 69901 76000 885//
333// 05101 79999=
57902 11464 82502 10147 20130 38619 40116 52015 69951 76060
887// 333// 00151 70021=
57906 11462 80000 10216 20188 40091 52017 69901 72100 885//
333// 05102 79999=
57916 11960 70000 10218 20193 40096 52015 69901 76060 8704/
333// 00002 79999=
57922 11965 80000 10193 20165 40106 52018 69901 76060 8807/
333// 00001 79999=
56565 32580 80000 10096 20076 37503 52009 888// 333 05102=
52495 32980 23605 10089 21031 38716 40185 52027 80002 333//
00858=
53502 32962 03605 10124 21023 40165 52021 333// 00957 79999=
52378 32980 20904 10095 21006 40219 52032 80002 333// 01156=
53602 32970 12202 10119 20042 38457 52017 80002 333// 00757
79999=
52576 32980 30000 10106 21115 38531 52020 80002 333// 00655
30002 79999=
52267 32980 10703 10116 21024 39156 40223 52037 80002 333//
01354=
57476 32960 51801 10229 20180 40086 52011 80001 333 05101=
56444 32780 12701 10028 20013 36829 52002 81100 333// 05152
30023 79999=
56533 32580 70000 10127 20115 38412 52012 87400 333// 05100=
56543 32680 80000 10036 20020 36874 52001 884// 333// 05100
30019 79999=
56548 32680 70000 10084 20073 37707 52002 874// 333// 05100
79999=
56586 32470 81101 10128 20077 38058 52011 885// 333// 00100=
56651 11580 80000 10081 20074 37649 52006 69901 70060 8342/
333// 05100 79999=
56664 11570 81402 10146 20134 40157 52008 69901 76060 8372/
333// 05100 79999=
56684 11570 80701 10094 20087 37912 52010 60081 76066 885//
333// 00052 70156=
56741 11/80 70000 10117 20092 38191 52004 69901 70060 8114/
333// 05100 70167=
56748 11580 80000 10114 20107 38344 52006 60051 76066 8572/
333// 00052 70228=
56751 11570 83203 10093 20086 38036 52008 60051 76166 8372/
333// 05151 70359=
56768 11575 83202 10117 20110 38236 52013 60051 76066 885//
333// 00000 70221=
56778 11559 80000 10118 20108 38108 52005 60061 78088 884//
333// 00051 70178=
56786 11550 83403 10111 20100 38114 52003 60061 76166 8172/
333// 00053 70093=
56838 11665 80000 10164 20151 40101 52006 60021 78088 889//
333// 00052 70314=
56856 11461 82902 10140 20131 40136 52009 60071 78188 889//
333// 00051 70332=
56875 11557 80000 10134 20122 38353 52005 60091 76166 8372/
333// 00051 70287=
56886 11456 83603 10128 20121 38286 52007 60111 76066 885//
333// 00051 70171=
56951 11470 80000 10128 20119 38487 52007 60111 76166 8572/
333// 00151 70433=
56954 11462 80000 10162 20157 40102 52013 60171 78088 884//
333// 00053 70348=
56959 11562 80000 10184 20178 40079 52013 60181 78088 884//
333// 00053 70564=
56969 11460 80000 10211 20205 40072 52012 69961 76060 885//
333// 05100 70038=
56977 11556 80000 10165 20155 40094 52009 60141 78088 884//
333// 05152 70173=
56985 11556 83602 10150 20143 38681 40109 52009 60031 78088
884// 333// 00053 70044=
56986 11068 81405 10166 20140 40089 52007 69961 78080 884//
333// 05151 70006=
56994 11461 81401 10173 20164 40094 52006 60031 76060 885//
333// 05151 70032=
59007 11460 80203 10171 20161 40097 52011 69981 70060 885//
333// 00002 70018=
56946 11560 82201 10149 20144 40118 52012 60111 78088 884//
333// 00152 70504=
56146 32780 10000 10051 21025 36794 52015 81102 333 05104
30002=
56247 32980 00000 10066 20010 37468 52013 333 05251 30013=
56462 32680 72903 10049 20024 37174 52010 82402 333 05100
30040 70001=
56167 32980 12901 10039 21011 37152 52014 80002 333 05100
31023=
56144 32980 00000 10037 21036 36925 52010 333 05203 31005=
56257 32980 20000 10004 21033 36331 52008 80002 333 00000
31034=
56152 32980 00000 10009 21013 36374 52005 333 05103=
59981 11580 50903 10295 20247 30070 40076 52015 69901 70080
82202 333// 00002 79999=
59985 32580 10702 10294 20245 30068 40073 52017 81102 333//
00101=
55591 32680 60902 10063 21047 36563 52012 81102 333 05202
31026=
55493 32780 50000 11026 21053 36083 52009 82902 333 05103=
55585 32980 00000 10032 21031 36431 52018 333 05201 31032=
56666 11770 80000 10151 20127 40156 52010 69951 70060 885//
333 00000 70009=
56294 31959 70000 10222 20154 39519 40090 52020 71000 8704/
333 00002=
57405 32965 83201 10227 20164 40079 52016 8807/ 333 05102=
57206 32960 60000 10217 20144 40089 52023 86040 333 00102=
57504 31920 73603 10234 20156 40071 52019 71000 8704/ 333
05101=
52533 32980 32902 10086 21038 38570 40198 52020 80002 333//
00555 31029 70007=
56459 32880 70000 10112 20072 37663 52010 8141/ 333 05202=
56671 11570 81601 10117 20110 38222 52007 60021 76066 8347/
333 05100 70018=
56479 32880 82002 10127 20092 37948 52005 8807/ 333 00002=
57178 31930 02502 10231 20168 39931 40080 52011 71000 333//
05101=
57181 31956 00201 10224 20166 40086 52019 71000 333// 00001=
56178 32980 00902 10113 20014 37707 52014 333 05101=
56172 32980 00000 10044 21001 37393 52015 333 05102 30018=
56079 32980 00000 10018 21013 36738 52009 333 00001 31022
79999=
56173 32980 00000 10016 21006 36702 52011 333 00002 31049
79999=
56182 32980 20000 10054 20007 37247 52011 80002 333 05103
31007=
54751 32965 02009 10197 20099 40102 52002 333// 05151=
54909 32968 71605 10208 20147 30024 40084 52013 80002 333//
05251 79999=
54936 32962 01803 10190 20146 40117 52008 333// 05251=
54753 32965 02207 10196 20092 30102 40108 52007 333// 05151=
54254 32965 62008 10232 20050 40074 54000 80002 333 00351=
58911 32972 22201 10212 20168 40105 52010 82042 333 00102=
50949 32965 22209 10227 20108 39845 40001 52002 80002 333//
00301=
50936 32970 72207 10261 20080 49965 52019 86032 333// 00401=
54142 32965 82014 10207 20069 40043 52006 80007 333// 00300
91118 91520=
54263 32975 21803 10202 20050 40085 57002 80002 333// 00300=
54181 32970 22012 10207 20046 40080 57005 80002 333// 00301=
54377 32965 31801 10140 20071 40148 57003 80002 333// 00151=
54063 32966 02012 10240 20054 49994 52002 333// 00300 91119
91520=
54161 32970 12009 10230 20054 39768 40038 52001 80002 333//
00300 91117 91520=
54363 32670 51804 10187 20044 40123 52001 81502 333// 00200=
54157 32962 62010 10221 20056 40059 52002 80002 333// 00300=
50514 32680 63206 10062 20003 40040 52012 85532 333// 01263
30037=
59303 32968 00701 10247 20200 40102 52018 333 00100=
54945 32564 31402 10177 20148 40128 52011 83500 333// 05100=
58646 11650 60701 10218 20191 40119 52006 60011 71060 86500
333 05201 70089=
58569 11/03 91801 10188 20186 40122 52005 60111 74364 333
05351 70119=
57671 32964 71801 10241 20179 40087 52010 8703/ 333// 05102=
57845 32960 70000 10182 20167 40107 52015 87040 333// 00002=
57874 32962 10000 10238 20195 40097 52015 81040 333// 00002=
57853 32965 70000 10208 20176 40104 52013 87040 333// 05102=
56475 32680 70000 10141 20129 38333 52018 81102 333 05102=
53149 32980 02905 10077 20002 38778 40140 52021 333// 01163
30042 79999=
53336 32970 03406 10085 21049 38724 40153 52016 333// 01161
30036=
53276 32770 43207 10086 20032 38833 40119 52029 82102 333//
00864 79999=
53529 32970 70205 10116 21011 38633 40147 52023 80002 333//
00754 79999=
53352 32980 03204 10076 21002 40142 52013 333// 00861=
53231 32980 10709 10056 21022 38521 52021 80002 333// 01061
30022=
53362 32680 62905 10061 20005 40145 52019 81502 333// 00762
30045 70003=
53068 11980 13407 10080 20021 39033 40125 52025 69931 70080
80002 333// 01163 70004=
53391 32680 72707 10098 20045 38473 40092 52018 86502 333//
00358 70001=
53083 11680 73608 10048 20018 40082 52017 60031 70098 879//
333// 00765 70043=
57426 31956 80000 10216 20185 40080 52008 71000 80007 333
05101=
57522 32940 70000 10214 20178 40087 52009 71000 8701/ 333
05101=
57633 32967 70000 10175 20152 39357 40107 52006 8704/ 333
05101=
57348 32970 70202 10200 20163 40097 52012 8704/ 333 00000=
57144 32980 00000 10164 20149 40114 52026 333 00104=
57037 11980 83604 10194 20094 40128 52039 69991 70098 8807/
333 00504 70009=
53646 32970 82202 10180 21003 38959 40122 52015 8802/ 333
00601 91117 91527=
53738 11680 72001 10107 20088 40166 52002 60051 72160 8553/
333 00851 70069=
57034 32762 72703 10220 20106 40142 52051 875// 333 00706
79999=
57143 32960 72703 10182 20158 40112 52024 8703/ 333 00205=
53754 11765 83404 10150 20038 40155 52049 69911 76000 8252/
333 00752 70001 91122 91532=
57106 11965 72706 10222 20100 40109 52037 69901 70060 8703/
333 00306 79999=
53740 11963 82004 10164 20009 40130 52016 69901 70060 8801/
333 00701 79999 91117 91534=
57036 32762 82702 10207 20156 39678 40130 52050 8357/ 333
00601=
53929 32770 73605 10142 20060 40164 52040 875// 333 00901
79999=
53942 11662 83406 10134 20079 40156 52039 69911 70080 885//
333 00701 70030=
56485 32980 80000 10177 20136 40103 52020 81047 333 00002=
50838 32678 72705 10243 20051 49965 52026 82102 333// 00401=
57265 32961 82201 10211 20169 39978 40083 52017 80007 333
05151=
57965 32962 10000 10231 20184 40100 52015 81040 333// 00002=
57306 32962 60000 10211 20164 40087 52018 80002 333 00001=
56196 31957 30000 10213 20156 40085 52016 71000 80002 333
00002=
57574 32966 61801 10235 20203 40086 52009 80002 333// 05101=
59278 31956 23602 10255 20224 40092 52017 71000 80002 333
00002=
57687 32965 70000 10235 20167 30018 40095 52012 86042 333//
05102=
57932 11364 60000 10209 20192 40101 52015 69901 72100 82630
333// 05102 79999=
57399 32962 13602 10211 20153 40100 52010 80001 333 05100=
57083 31959 63002 10245 20168 39953 40081 52017 71000 80002
333// 00002=
57297 32960 11401 10252 20158 39956 40087 52009 80002 333//
05102=
53986 32961 72202 10218 20157 40076 52017 80002 333// 00051=
57051 11960 82204 10231 20145 40110 52024 69901 72500 8802/
333// 00204 79999=
57328 31957 70402 10211 20173 39695 40085 52013 71000 80002
333 05102=
59242 31956 00000 10254 20207 40088 52015 71000 333// 00003=
54606 32962 72003 10203 20151 40056 52009 8703/ 333// 05153=
57458 32975 80000 10167 20132 40116 52009 8807/ 333 00003=
58362 32575 21404 10220 20186 30114 40124 52002 82100 333//
05301=
50442 32670 80204 10165 20040 49938 52011 82507 333 00052=
58467 11962 21103 10223 20187 40116 52006 69901 70060 82030
333 05302 79999=
50758 32970 21807 10229 20098 49975 57001 80002 333 00001=
50658 31956 82007 10217 20120 49933 57009 70600 80007 333
05201=
54096 32970 02507 10239 20097 40066 52002 333 00202=
50468 32968 73605 10160 20048 39749 49940 52024 80002 333
00056=
50774 32960 42008 10245 20120 39710 49988 52006 80002 333
00003 91118 91522=
50844 32762 72207 10271 20088 49947 52016 85502 333 00205
91117 91520=
50656 32974 72507 10231 20119 49949 52003 80002 333 05103=
50853 32965 72012 10247 20094 49991 54000 80002 333 00102
91117 91518=
50888 32980 42006 10256 20101 40027 54000 80002 333 00201=
50963 32960 02209 10248 20120 39906 40032 57007 333 00202=
50756 32960 71808 10234 20102 39708 49979 52008 80002 333
00002=
50136 32970 73404 10075 21018 39505 40015 57003 85032 333
00758 30016=
50983 32970 32002 10196 20118 40053 57001 80002 333 00200=
50877 32965 02216 10249 20101 40012 57008 333 00101 91126
91522=
50349 32970 73604 10099 21005 49969 52001 80002 333 00356=
50353 32767 73404 10122 20022 39752 49958 52006 82902 333
00358=
50246 32680 83405 10089 21022 49984 52002 82207 333 00658
30035 79999=
50745 32762 72704 10243 20086 39770 49935 52017 81502 333
00205=
50968 32970 02211 10242 20084 40035 57007 333 00202=
50742 32963 62504 10243 20110 49922 52007 80002 333 00003=
50978 32980 12207 10241 20105 39776 40046 52005 80002 333
00202=
50862 32960 31809 10239 20107 40002 52003 80001 333 00101=
50557 32968 71806 10238 20106 39646 49919 52006 80002 333
05203=
50788 31665 82003 10239 20128 39929 40008 52005 70090 885//
333 00151 70002=
50950 32965 82011 10239 20092 49987 52002 80007 333 00200
91118 91520=
50564 32962 62211 10227 20118 49928 52010 80002 333 05201=
50854 32965 72011 10229 20090 49965 52002 80002 333 00200
91119 91520=
53923 11980 83603 10098 20075 40169 52029 69921 76060 8807/
333// 00954 70043=
57745 32963 70000 10186 20158 39788 40102 52012 8707/ 333//
05100=
57077 32966 02901 10186 20135 40097 52014 333// 00102=
57156 32980 02904 10208 20148 40083 52014 333// 05102=
53614 32965 11804 10162 20071 38910 40137 52013 81032 333
00851=
53519 32962 73604 10161 21024 40141 52018 82032 333 00800
79999=
53723 32965 12204 10138 20065 38670 40144 52013 80002 333
00953 79999=
53615 32970 12006 10152 20076 40137 52012 81032 333 00853
79999=
53903 11680 71801 10078 20050 38109 52002 60021 70060 875//
333 00552 70022=
53705 11970 21805 10136 20090 40159 52010 60021 70060 81042
333 00954 70016=
53810 11975 71403 10121 20089 40164 57001 60041 70060 8703/
333 00854 70046=
53806 11980 73402 10102 20063 38168 57005 60041 70060 8703/
333 00759 70057=
53817 11680 71803 10089 20059 38269 57006 60021 72166 875//
333 00855 70020=
56571 32770 83601 10153 20110 38406 52008 888// 333 05201=
54871 32980 02004 10154 20121 40136 57003 333// 05251=
57355 32965 70000 10198 20161 40099 52015 8704/ 333 00001=
56125 32980 12501 11002 21049 36584 52010 80002 333 05101=
56151 32980 00000 10010 21022 36687 52006 333 05102 31046=
52713 32680 70000 10049 21067 36960 52010 83502 333 00151
31040=
56067 32980 00000 10004 21024 36586 52007 333 00002=
52856 32980 71103 10094 20007 37246 52013 80002 333 00201
30022=
50953 32970 02008 10239 20063 39839 40004 57004 333 00201=
53698 32961 70000 10220 20168 40062 52015 80002 333// 00152=
57279 32966 11102 10248 20163 40091 52016 80001 333 05101=
57494 32968 21103 10255 20166 30065 40093 52012 82040 333
05100=
52633 32980 10000 11029 21074 36800 52011 80002 333 00356=
52707 32975 22501 10056 21014 37299 52001 80002 333 00154
31004=
54624 32964 71804 10222 20116 40074 52005 80002 333// 05151=
54423 11770 80000 10216 20137 39628 40063 52012 69901 76000
885// 333// 05102 79999=
53593 32761 82701 10186 20076 40066 52013 884// 333// 00000
70036=
51811 11862 73601 10181 20098 38795 40121 52026 69901 72580
82962 333// 00700 79999=
52424 32980 70704 10119 21127 40183 52023 83042 333 00553
30029=
52895 11780 73602 10114 20086 40187 52008 69971 70060 875//
333 00853 70028=
56093 32580 80406 10083 20030 37739 52023 885// 333 00401
30037 70004=
52674 32980 22503 10078 21028 38054 52015 80002 333 00455
30000 79999=
52546 32980 22702 10100 21017 40177 52024 80002 333 00554
31037 70015=
52797 11980 62002 10115 20044 38398 52016 69901 70060 86040
333 00658 70037=
52661 32980 21101 10090 21046 38271 52018 81042 333 00453
31003 79999=
52983 11970 81603 10089 20049 38152 57006 69901 70060 8803/
333 00653 70004=
52986 32765 80000 10085 20047 38160 52023 885// 333 00751
79999=
52436 32980 60902 10093 21040 38515 40188 52015 81032 333
00451 31008 70001=
52681 32980 22702 10102 21080 38669 40181 52022 81042 333
00757 30016 79999=
54259 32975 62204 10218 20046 40095 57003 80002 333 00251=
52943 32580 70401 10053 21040 36842 52009 82802 333 00152
31013=
52657 32580 21403 10013 21037 37311 52009 82500 333 00456
31047 70009=
56018 32980 02001 11019 21037 36249 52007 333 05101 31041
70001=
56034 11680 70000 11032 21044 35980 52003 69921 70070 875//
333 00000 70023 92501=
56004 32980 22703 11055 21073 35904 52005 80002 333 00000
79999=
56137 32980 00202 10039 21030 36867 52013 333// 05203 31002=
56116 32980 00000 10026 21044 36399 52009 333// 05102 31036=
56223 32980 01405 10015 21066 36590 52021 333// 05102 31026=
56331 32980 00000 11004 21043 36459 52013 333// 05100 31046=
56188 32970 62903 10226 20112 40085 52019 86040 333 00001=
56287 32980 72003 10213 20153 40096 52017 83042 333 00002=
56385 32680 71604 10091 20028 37051 52009 82502 333 00100=
53863 32961 82703 10189 20081 40116 52034 8807/ 333// 00302=
53663 32662 82703 10154 21097 40094 52015 889// 333// 00300=
53963 32960 70902 10200 20120 40098 52025 86032 333// 00201=
50603 32680 73608 10079 21036 39400 40046 52007 85202 333//
01361=
50425 32980 73203 10093 21010 49988 52011 86032 333// 00660=
50548 32580 73402 10223 20070 49926 52008 82102 333// 05105=
50434 32680 73204 10090 21004 39140 49958 52007 85502 333//
00359=
50632 32980 72703 10119 20030 39136 49960 52008 83032 333//
00258 79999=
55696 32980 03202 10008 21021 36393 52012 333 05100 31034=
55690 32980 00000 11034 21063 36030 52003 333 00055=
56307 42980 00000 10023 21040 36893 52013 333 05101 31019=
55681 42680 10000 11008 21108 35958 52008 81140 333 05101=
58647 11662 70000 10204 20183 40125 52006 69951 72160 875//
333 05100 70064=
58321 32960 01602 10227 20182 40099 52011 333// 05200=
58424 32961 12201 10240 20182 30077 40100 52013 80002 333//
05101=
58221 31957 00901 10217 20165 30068 40102 52011 71000 333//
05200=
58326 32960 00702 10211 20172 40101 54000 333// 05201=
58236 32962 01101 10211 20164 40104 52009 333// 05201=
58203 32965 01403 10216 20173 30046 40090 52012 333// 05101=
58531 32965 00000 10199 20161 40111 52009 333// 05202=
58122 32975 01103 10200 20157 40099 52010 333// 05251=
58102 32965 01604 10208 20152 30038 40087 52012 333// 05152=
58015 32968 01404 10215 20163 40095 52009 333// 05200=
58437 32980 03404 10147 20056 38168 52013 333// 00002=
58314 32970 00000 10196 20146 30013 40098 52008 333// 05201=
58436 32970 01102 10211 20161 40109 52012 333// 05203=
58215 31957 01603 10214 20175 40104 52007 71000 333// 05200=
58319 32965 02002 10208 20142 40102 52011 333// 05100=
58338 32965 01402 10224 20170 40103 52012 333// 05202=
51356 32970 20000 10099 20002 40219 52007 80002 333 00352=
54525 13/// ///// 69902 333// 79999=
52765 32680 63401 10017 21001 37226 52006 86500 333 00453
31029 70010=
56029 32980 33202 10009 21041 36558 52008 80002 333 05101
31049=
52876 11670 71401 10093 20044 38227 52006 69901 70080 879//
333 00754 79999=
52836 32980 70701 10068 21041 36944 52004 80002 333 00051
30010 79999=
52825 32680 62902 10085 21008 37292 52007 82502 333 00152
30024=
54311 11560 81602 10185 20125 40042 52010 69911 70060 85507
333// 05102 70001=
54824 32562 12007 10244 20100 40091 52007 81100 333// 05151=
57385 32960 61603 10242 20152 40090 52011 80002 333 05100=
57554 31957 50000 10189 20165 40106 52006 71000 85040 333//
05103=
58407 32961 21102 10234 20160 40099 52013 80002 333 05100=
54518 11560 82202 10209 20133 40063 52001 69901 79800 8497/
333// 05152 79999=
57583 32965 00701 10249 20171 40095 52012 333 05101=
57411 31930 70000 10228 20171 39728 40077 52014 71000 80002
333 05102=
50948 32965 72207 10226 20113 40008 52009 80008 333// 00401
91117 91518=
53798 31957 62002 10217 20160 39976 40065 52016 70400 80002
333// 00051=
54308 11662 81103 10188 20124 40055 52004 69901 70080 82507
333// 05102 79999=
58402 32962 00901 10195 20158 40112 52010 333 05101=
52996 11580 70204 10043 20024 37609 52006 69911 70060 8454/
333 00458 30042 70007=
52787 32770 73604 11010 21104 37076 52006 86502 333 00856
31044 70076 92502=
52446 32980 70901 10131 21083 40192 52024 80002 333 00752
31019=
52323 32980 62003 10046 21110 38299 52024 82042 333 00751
31001=
57251 32965 50201 10201 20167 40085 52017 80002 333 00002=
57896 32980 22701 10211 20149 40102 52013 82030 333// 00000=
58519 32962 20403 10235 20167 40107 52007 80002 333// 00001=
54226 32975 61805 10230 20113 40034 52006 80002 333// 00253=
54027 11675 72201 10219 20060 39461 49999 52009 69901 78000
87202 333// 00357 79999=
54115 11670 72503 10191 20087 40008 52003 69901 70060 82502
333// 00256 79999=
50727 32580 82904 10053 20033 38875 40031 52008 885// 333//
00768 79999=
50834 32580 72005 10163 20044 49972 52018 86802 333// 00353=
54213 11980 82202 10218 20080 40010 52004 69901 76000 8802/
333// 00257 79999=
57232 32980 30000 10187 20176 40119 52015 83030 333 00005=
57046 11464 72709 10097 20060 37966 52024 69901 70098 8213/
333 00455 79999=
57545 31957 70000 10193 20163 40110 52010 71000 80002 333
05101=
56312 32980=
56227 32980 00000 10022 20004 37353 52025 333 05101 30014=
56434 32680 20402 10109 20043 37694 52014 82100 333 00003=
56317 42980 03601 10036 20028 37168 52018 333 05103 30012=
56739 11475 80000 10113 20108 38320 52007 60041 76060 8272/
333// 00052 70277=
54618 32962 71805 10219 20127 30045 40062 52010 8703/ 333//
05151=
53399 32675 82903 10109 20066 40093 52021 8252/ 333// 00259
79999=
51705 32780 22904 10111 20001 37871 52009 82902 333// 00354
79999=
57259 32965 70000 10185 20150 40101 52014 80008 333 00051=
52866 32670 72501 10088 20033 37741 52011 875// 333 00551
79999=
56043 32680 70000 11006 21016 36506 52004 85502 333 00003
79999=
52908 32980 02503 11054 21087 35839 52006 333 00051 79999=
52955 32780 71402 10038 21027 37012 52004 82502 333 00151
31005=
52818 32770 62201 10092 21007 37274 52001 82502 333 00151
30012 70001=
56492 31958 80000 10222 20183 39698 40083 52020 71000 8801/
333 00000=
57237 31958 00000 10176 20148 40108 52013 71000 333 00001=
57313 31957 70000 10202 20170 40085 52013 71000 80002 333
05101=
58737 11758 73201 10206 20185 40127 52011 69951 71060 875//
333 00003 70005=
56046 31/08 90000 11020 21025 36328 52006 74700 333 00001
70001=
56065 32680 70000 11026 21040 36675 52009 85508 333 00151
79999=
52833 32680 20203 10064 21046 37123 52008 82102 333 00153
30000 79999=
52974 32980 70000 10081 20035 37572 52014 80008 333 00452
30015 70011=
59478 32962 01802 10256 20233 40095 52015 333 00001=
51076 32980 10404 10132 21053 39393 40242 52021 80002 333
00607 30000=
51243 32980 63403 10142 21047 39695 40222 52015 80002 333
00403=
51288 32980 00904 10078 21239 38414 52017 333 00705 31018=
51463 32778 12003 10112 21038 39153 40217 52007 81402 333
00300=
51334 32980 70000 10143 20037 40211 52021 80002 333 00502=
51379 32980 11604 10095 21010 40230 52017 80002 333 00303
30027=
51241 32980 62003 10121 21043 40202 52008 80002 333 00205
30045=
51346 32980 31403 10171 21033 40210 52017 80002 333 00405=
58715 32980 11604 10229 20176 40105 52010 80002 333// 00001=
58634 32961 30702 10230 20176 40113 52012 82040 333// 05101=
59102 32564 30000 10200 20161 40104 52010 81132 333// 00100=
57483 32968 71601 10257 20168 30054 40095 52013 80002 333
05103=
55299 32880 20000 11024 21064 35919 52008 82400 333 05103=
55279 32880 71801 11003 21061 35773 52007 82402 333 05105
31025=
56106 32980 00000 11019 21049 36279 52009 333 05100=
55472 32780 70402 10016 21064 35807 52011 86202 333 05105
31030=
55294 32780 20000 11032 21144 35791 52011 81402 333 05101=
56202 32980 10000 11023 21069 35929 52010 80002 333 05102=
56763 11575 80000 10144 20134 40143 52009 60091 78088 884//
333// 05151 70295=
54405 32660 71602 10194 20133 40067 52019 874// 333// 00100=
54436 32680 72503 10201 20116 40072 52003 82502 333// 00052=
58608 32564 10000 10228 20187 40105 52012 81100 333// 00000=
54429 31756 71801 10224 20135 40076 52011 71000 875// 333//
00000 79999=
55569 32980 01803 10057 21059 36266 52010 333// 05303 30020=
55655 32980 60000 10022 21023 36515 52004 80002 333// 00055
31009=
55680 32880 11402 10020 21053 36273 52009 81400 333// 05105
31025=
55773 32970 00000 11040 21053 36052 52004 333// 00056=
55664 32980 00000 11003 21069 36050 52007 333// 05203=
55572 42780 20000 10046 21054 36293 52009 81102 333// 05202
30002=
55578 32980 10000 10022 21030 36405 52012 80002 333// 05302
31012=
54705 32960 72005 10212 20140 40068 52015 80002 333// 00052=
56021 32980 10000 11031 21059 36143 52004 80002 333 05101
70002=
52602 32980 70000 10019 21098 37303 52006 80002 333 00153
31035=
51886 32975 61401 10044 21056 37154 52010 82042 333 00153
30009=
52868 32975 70703 10112 20039 37792 52016 80002 333 00401
79999=
52645 32970 80000 11028 21073 36846 52007 8802/ 333 00355
31045 70035 92501=
52737 32980 20000 10062 21052 37118 52011 81042 333 00151
31020 79999=
56193 32975 03603 10176 20121 40113 52022 333 00102=
51087 32980 10000 10091 21027 39320 40256 52027 80002 333
00704 30014=
51156 32980 20201 10092 21057 38794 40248 52011 80002 333
00606 31006=
51656 32780 70703 10206 21002 39115 40140 52024 85902 333
00302=
51777 32970 60704 10142 21059 39131 40118 52016 80002 333
00455=
52203 32980 11402 10130 21052 39352 40194 52032 80002 333
00854=
51542 32680 70201 10030 20019 37622 52006 82402 333 00251
30005 70007=
51068 32980 61401 10099 20012 40239 52015 80002 333 00551
30000=
51186 32980 00000 10072 21065 40262 52020 333 00903 31045=
51330 32975 21401 10093 21008 40214 52011 82032 333 00401
30031=
51437 11780 70000 10076 20060 38196 54000 69911 70080 82402
333 00352 70035=
51477 32980 10203 10090 21051 40221 52018 80002 333 00553
30018=
51642 11770 70903 10202 20022 40121 52024 69901 72580 879//
333 00352 79999=
51720 32580 70000 10171 20106 40106 52010 86962 333 00356
79999=
52101 32980 02906 10060 21160 38429 52014 333 00652 31016=
51232 32980 21805 10180 21018 40215 52007 82032 333 00303=
51839 31858 70000 10193 20019 40069 52048 70600 83502 333
00551=
51855 32970 70000 10154 21020 40096 52022 80002 333 00351=
52313 32980 70708 10087 21170 38471 52023 82042 333 00552
30030=
51059 32980 32002 10134 21137 40196 52007 80002 333 00007
30014=
51644 11670 70403 10206 20047 38949 40125 52033 69901 78000
879// 333 00500 79999=
51765 32780 70703 10182 21052 39197 40135 52021 875// 333
00300=
51053 32980 50904 10136 21036 40225 52015 80002 333 00309
30034=
51467 32980 60000 10126 20016 38299 52010 80002 333 00300
79999=
51495 32980 13404 10154 21099 40291 52027 81030 333 00600=
51730 32670 70401 10194 20066 40085 52015 85902 333 00353
79999=
52118 32980 00000 10050 21094 38347 52025 333 00954 31030=
51365 32980 11801 10081 21018 40229 52015 81032 333 00352
30030=
51367 32980 10000 10122 21015 40201 52008 80002 333 00201
30036=
51526 32780 71106 10160 21111 40175 52022 86962 333 00600=
51633 11680 70401 10170 20088 40134 52032 69921 78080 86962
333 00500 70002=
51567 32780 60703 10167 20045 40152 52023 85902 333 00302=
52754 32980 13405 10006 21058 36834 52002 80002 333 00154
31046=
56033 32680 10000 10004 21014 36086 52003 81502 333 00003
79999=
51711 32980 52502 10119 20011 38038 52007 80002 333 00252
70001=
51368 43980 20402 10125 21006 40217 52007 80002 333 00201
30050=
51701 11575 20000 11006 21046 36698 52001 69961 70080 81102
333 00151 70016 92501=
51804 32580 12001 10064 21069 37030 52010 81400 333 05203
31033=
54449 32762 31803 10165 20121 40096 52006 83500 333// 00152=
67237 32570 12308 10198 20173 40182 81100
333 59009=
81100 22283 00280 20602 3//// 80242=
76055 32980 00904 10300 20162 30072 40091 57022 92335 333
10305 20220 30/// 50790 58025 70000=
76342 32562 30402 10318 20115 39465 40139 57015 70122 83200
92340 333   10340 20192 30/// 50740 56100 58001 70000 83820
=
76423 01560 71602 10202 20104 38173 40106 55003 60035 75122
87400 92340 333   10282 20110 32/// 50490 56900 58015 70054
87420=
76491 32556 70000 10259 20189 39791 40194 57002 82240 92345
333   10325 20175 31/// 50430 56400 59001 70007 82820 84633
=
76644 01560 80503 10264 20197 30157 40169 57006 60011 70252
83066 92355 333   10305 20233 31/// 50520 56/11 58020 60011
70010=
76675 31575 71404 10118 20178 37390 40126 56001 70522 85364
92354 333   10174 20072 30/// 50380 56999 58014 70096 82926
83626=
76750 11560 80903 10251 20230 30153 40163 52001 69941 70362
82120 92350 333   10315 20125 31/// 50160 56160 58012 70013
82820=
76843 31564 13110 10248 20177 39537 40179 57007 70411 81200
92349 333   10297 20215 30/// 50660 569// 58011 70000 81830
=
76848 01465 50705 10190 20150 38388 40128 55003 60021 70165
85400 92342 333   10240 20145 31/// 50240 56100 58007 60017
70023=
76903 31675 22501 10318 20228 30012 40144 54011 72204 82200
92345 333   10368 20252 30/// 50595 56100 59012 70000 82833
=
76113 32580 22406 10352 20147 39628 40057 5//// 822// 92340
333   10374 20206 30/// 50580 562// 59009 70000 82830=
76243 32475 31402 10334 20240 39934 40214 57015 83200 92336
333   10360 20195 30/// 50680 56300 58008 70000 83820=
76305 32970 11402 10320 20122 30102 40109 57023 81040 92330
333   10340 20180 30/// 56050 58014 70000 81358 90801=
76405 32880 43602 10304 20175 30095 40116 57016 84070 92348
333   10350 20145 30/// 50840 56050 58016 70000 84358=
76499 31558 10000 10278 20203 30153 40185 57008 70544 81300
92345 333   10315 20182 30/// 50530 56500 58013 70000 81920
=
76585 01610 70000 10232 20224 30012 40165 55013 60261 79796
8397/ 92330 333   10320 20181 32/// 50700 54116 5616/ 59003
60261 70255 83937 84358=
60020 32565 13503 10189 20123 30151 40196 51008 81500
333 924/7=
60030 32565 10206 10190 20142 30150 40206 51012 81800
333 924/7=
82145 22214 00183 20201 301// 41703 80178=
65338 43960 82204 10265 20252 39929 40116 8807/
333 59010 88461=
81401 06/// /0604 10253 20248 40130 69981
333 10300 59009 69927=
71866 36964 02713 10295 20046 39415 49999 55012 333 10313 20143
70000=
71867 11674 71524 10185 20044 39730 40054 58028 69901 70162
81571 333 10205 20091 79999 90931=
71868 36964 01009 10211 20097 39601 40027 58042 333 10237 20046
70000=
71869 31774 71721 10272 20111 39490 49992 58017 71522 83221
333 10275 20065 79999=
71870 36964 02910 10267 20018 39100 40024 56014 333 10297 20148
70000=
71871 32774 63112 10222 20035 39261 40034 51004 83172 333 10245 20129
70000=
71872 32983 82609 10253 20024 39213 40032 55001 85072 333 10305 20136
70000=
71874 16964 02723 10223 21019 38997 40044 55000 69951 333 10275
20133 70020=
71876 32974 63517 10250 20037 39378 40013 51008 82072 333
10300 20132 70000=
71878 32774 70608 10196 20044 39013 40045 58004 82271 333 10216 20078
70000=
71879 36964 02902 10208 20019 39268 40039 58005 333 10225 20136
70000=
71880 32982 72115 10199 20000 39019 40084 50003 81071 333 10230 20118
70000=
71881 36764 32103 10170 20013 38988 40048 58007 333 10186 20105
70000=
71882 36864 32003 10213 20044 39562 40081 58020 333 10218 20097
70010=
71887 32883 62206 10216 20018 39662 40069 55017 81171 333 10234 20105
70000=
71889 32774 31810 10224 20033 39668 40072 57023 83102 333 10245 20113
70010=
71891 36964 01824 10184 20008 39830 40101 58006 333 10196 20128
70910=
71892 32683 81605 10149 20073 30144 40149 58013 81572 333 10164 20106
70000=
71725 17864 33204 10096 20019 39798 40213 51004 69951 7//4/ 333
10129 21027 70005=
71726 46/64 /3401 10086 20002 39668 40204 55001 333 10121 21016=
71727 32980 22203 10117 21038 39992 40188 55001 80001 333
10138 20030 70068=
71728 32686 11404 10107 21021 39969 40189 55000 81100 333 10137 20016
70000=
71730 11674 73204 10082 20061 39804 40229 51016 60021 78082
87200 333 10164 20014 70016 90926=
71731 11674 62703 10105 20012 39766 40215 50002 69901 72581
83501 333 10156 20008 79999 90910=
71733 36964 02108 10096 20030 39979 40216 56010 333 10154 20042
70000=
71735 11574 42804 10116 20025 39914 40213 56003 69901 70198
84800 333 10143 21022 70004 90965=
71738 11674 20000 10107 20046 39869 40222 50003 60011 70161
82500 333 10124 21026 70014 90921=
71749 36964 02206 10158 21003 39966 40210 58004 333 10188 21020
70000=
71799 31583 81207 10131 20085 30126 40149 58009 71422 86877
333 10149 20086 79999=
71801 31/02 90806 10014 20001 30047 40222 53010 74522 333 10059 20011
70080=
71803 32574 71007 10067 20041 30036 40223 51008 86530 333
10128 20041 79999=
71807 36/// /0706 10084 20053  333 10131 20080 70000=
71808 36564 80918 10067 20041 30162 40208 53006 333 10086 20044
70005=
71809 32474 80508 10081 20046 30177 40204 53004 885// 333 10090 20038
79999=
71810 46/64 /0000 10057 20056 30097 40160 50000 333 10067 20056=
71811 32174 72302 10059 20041 30097 40165 51004 87500 333 10079 20049
70048=
71813 17164 81210 10056 20048 30165 40178 53007 60011 7//4/ 333
10073 20056 70020=
71814 46/// /0302 10063 20063 30183 40193 53003 333 10082 20048=
71815 32574 80000 10095 20081 30153 40185 53008 885// 333
10185 20076 70000=
71893 32780 81312 10132 20075 30107 40138 58010 8257/ 333
10144 20067 79999=
71896 31789 81803 10134 21044 39281 40098 56018 71422 86510
333 10145 20037 70008=
71897 32474 81416 10090 20059 30089 40121 58019 8282/ 333 10098
20053
70036=
71898 36564 31712 10090 20039 30053 40096 58016 333 10100 20043
70000=
71899 11574 81016 10092 20048 30004 40054 57018 69921 78022 8322/
333
10010 20030 70064 90910=
71905 11448 82608 11025 21032 30188 40201 52003 69901 78577 885//
333 11008 21043 41997 70010 90983=
71907 37364 83210 11017 21034 30141 40174 51003 745// 333 11006
21039 70005=
71909 17214 80000 10003 21013 30094 40137 56016 69951 7454/ 333
10025 21047 70010=
71910 37564 83611 11061 21085 30118 40184 56013 745// 333 11057
21115 70000=
71911 46964 00907 11058 30211 40268 58004 333 11041 21066=
71912 32874 71211 10177 20000 39989 40169 57019 87010 333
10188 21004 70000=
71913 36964 31217 10046 21039 30153 40190 56021 333 10082 21021
70005=
71915 32974 63513 11060 21083 30152 40237 57012 80001 333
11033 21140 70000=
71917 32586 12703 11124 21150 30342 40356 53003 81642 333
11103 21191 79999=
71922 11674 80405 10171 20140 39553 40005 55010 60011 79511 85371
333 10235 20039 70014 90910=
71924 11774 71123 11103 21136 30216 40307 58004 69901 73672
83530 333 11096 21148 42028 79999 90933=
71925 11258 81315 11002 21012 30172 40208 57009 69901 77177
887// 333 10001 21067 44053 70002 90927=
71926 11280 81109 11016 21042 30205 40229 57007 69901 77172
885// 333 11001 21026 44042 70006 90937=
71928 36/64 /2703 10190 21007 38922 40043 58005 333 10197 20092
70000=
68032 42960 11410 10178 20078 48572 58004 81080=
71930 32974 22505 10188 21006 39149 40051 58012 82170 333 10189 20084
79999=
71931 36/64 /3509 10199 21027 39387 40048 50000 333 10210 20130
70000=
71932 17964 02816 10203 21100 39587 40025 51006 69951 7//4/ 333
10216 20089 70020=
71933 17964 01010 10119 20080 39728 40009 56007 60051 7//4/ 333
10134 20075 70085=
71936 11459 80913 10056 20018 39753 40006 56025 60005 76162 887//
333 10125 20041 70054 90942=
71940 32882 12713 10148 21074 39284 40071 56007 81101 333 10159 20066
79999=
71943 32774 22324 10113 21100 39237 40056 56006 82101 333 10118 20051
70014=
71944 36864 32307 10119 21067 39279 40100 58011 333 10125 21013
70085=
71945 11374 73605 10050 20036 39550 40010 51016 60061 76176 87700
333 10097 20025 70136 90973=
71946 11456 83609 10072 20064 39777 49984 58011 60151 76165
885// 333 10125 20052 70146 90973=
71948 46264 60000 11047 30030 40143 51012 333 11043 21060=
71949 46/64 /3506 10127 21090 39184 40036=
71950 32782 83403 10109 21047 39478 40100 57013 71422 881//
333 10118 21014 70000=
71951 31580 81811 10096 20016 39855 40120 57015 71522 8487/
333 10108 20015 70004=
71957 36964 01403 10039 21071 30045 40133 56007 333 10045 21083
70000=
71958 17/64 /2510 10051 21001 39136 40064 58001 69951 7//4/ 333
10051 21005 70085=
71964 32986 60107 10122 21076 39193 40030 57006 82071 333 10130 21006
70000=
71966 36/// /0902 10134 21112 333 10141 21039 70000=
71968 461// 83208 11069 30079 40144 56001 333 11066 21136=
71397 11369 81805 10116 20102 30103 40137 52009 60021 78082
885// 333 10188 20110 70018 90926=
71398 36/64 /1302 10133 20105 30101 40150 51011 333 10175 20103
70008=
71410 36/// /3611 10106 20095 30121 40149 53007 333 10149 20093
70000=
71411 36/12 /0605 10067 20065 30136 40146 53004 333 10078 20057
70000=
71412 36/// ///09 10067 20050 30138 40151 53010 333 10079 20026
70000=
71430 36/64 /2506 10081 20058 30125 40222 56009 333 10116 20030
70002=
71432 36/// /2105 10139 20043 30133 40230 56012 333 10163 20069
70000=
71435 36/// /1201 10176 21013  333 10192 21020 70002=
71436 36/64 /3302 10100 20001 39871 40230 54000 333 10163 20000
70000=
71441 36/// /1416 10242 20105 39801 40100 56024 333 10258 20098
70000=
71474 36964 32308 10149 21052 38882 40088 56008 333 10177 20049
70000=
71538 32774 22109 10152 20024 30003 40233 57009 81130 333
10182 20036 70000=
71600 36008 80709 10046 20046 30150 40156 53007 333 10097 20044
70000=
71601 11/02 90905 10063 20063 30089 40152 53007 69901 75142
333 10090 20061 70004 90931=
71607 17/// /3306 10091 20091 30127 40159 53008 60101 7//4/ 333
10154 20091 70102=
71609 11362 83206 10116 20093 30013 40145 53011 69961 76152 885//
333 10141 20099 70006 90921=
71610 36964 03102 10096 21026 39895 40190 55000 333 10139 20042
70025=
71621 32674 22408 10116 21004 30110 40216 58009 81101 333
10148 20008 70000=
71623 32974 52302 10128 20007 39898 40235 57007 81071 333 10168 21011
70000=
71624 32974 61706 10138 21021 30012 40223 56011 85071 333
10165 20028 70000=
71625 36764 63607 10130 20025 30045 40205 53005 333 10181 21041
70005=
71627 36964 33206 10136 21004 30143 40187 55000 333 10171 20028
70015=
71628 31782 42809 10162 21017 30059 40198 55005 71411 83270
333 10182 20023 70000=
71630 32874 53005 10112 21011 39884 40228 55002 81072 333
10151 21024 70000=
71631 36/64 /3103 10112 21011 39728 40228 58004 333 10146 21007
70000=
71632 46/64 ///// 39982  56008=
71633 32674 52205 10117 20000 39957 40229 57012 82501 333
10142 21006 70000=
71700 11566 83411 10100 20073 30125 40150 52008 69931 78022 885//
333 10137 20099 70003 90910=
71705 11258 80210 10085 20083 30056 40142 50008 60041 78022
887// 333 10135 20085 70070 90931=
71706 32569 83409 10121 20107 30085 40145 53007 885// 333 10176 20097
79999=
71707 11/10 90707 10051 20044 30089 40165 55001 69921 75155
333 10096 20050 70002 90973=
71709 32574 51211 10062 20049 30143 40156 52005 82571 333 10110 20060
79999=
71711 11574 82906 10091 20062 30114 40164 50007 69921 72522 885//
333 10120 20069 70012 90920=
71715 46/64 /2402 10082 21025 30008 40190 51007 333 10112 20046=
71718 32983 72607 10091 20003 30117 40182 52008 82072 333 10125 20052
70106=
71719 36/// /0308 10054 20052 30148 40154 53008 333 10073 20053
70000=
71816 32574 71907 10114 20082 30109 40170 52010 86570 333
10150 20053 70000=
71817 36464 81306 10034 20000 30216 40231 53005 333 10075 20028
70000=
71818 32574 61510 10090 20043 30183 40201 53011 86500 333
10149 20048 79999=
71821 36864 33507 10097 21082 39869 40214 51009 333 10129 21059
70005=
71822 36964 03107 10085 21099 39725 40199 53006 333 10121 21060
70005=
71825 32674 70105 10049 20006 39517 40185 51015 87500 333 10091 20020
70138=
71827 11474 72810 11019 21054 39967 40215 55000 69901 78588 87800
333 10004 21037 70002 90983=
71828 36564 62905 10035 21009 39551 40190 53016 333 10056 20011
70185=
71831 11574 13508 10120 21066 39936 40215 53006 69901 70181
81200 333 10149 20028 70002 90960=
71832 46/64 /3604 10126 21029 39899 40223 53002 333 10146 20025=
71834 32774 10106 10156 21015 39790 40215 55002 81400 333
10172 20007 70008=
71836 36964 00607 10037 21069 30221 40233 51007 333 10092 21066
70000=
71842 32774 81205 10189 20008 39714 40185 58015 81177 333 10204 20018
70000=
71845 32774 30604 10183 21028 39729 40197 58012 81101 333
10198 20040 70000=
71850 32974 71207 10214 20047 39672 40156 58018 87080 333 10226 20081
70000=
71852 36964 01512 10240 20114 39815 40099 58029 333 10258 20111
70000=
71854 32774 81308 10192 20022 39702 40166 56015 83570 333
10214 20011 70000=
71855 36964 01221 10213 20123 39689 40050 58029 333 10249 20109
70000=
71856 17964 01308 10204 20106 39831 40107 58028 69951 7//4/ 333
10234 20084 70005=
71861 17964 02612 10274 20098 39320 40016 55018 69951 7//4/ 333
10310 20094 70005=
71862 32574 62916 10305 20073 39355 40025 53001 81101 333
10341 20114 70000=
71863 36964 32914 10297 20054 39355 40022 58001 333 10312 20128
70000=
71114 36864 82910 10157 20075 30089 40136 56011 333 10177 20107
70025=
71120 32974 23112 10227 20008 39403 40035 52010 81101 333
10236 20134 70000=
71123 11974 50502 10197 20028 39213 40045 58005 69901 71582
82231 333 10224 20087 79999 90920=
71125 32674 63112 10243 20040 39457 40018 51008 82201 333
10274 20099 70000=
71129 31874 82312 10266 20023 39221 40011 56009 71622 81181
333 10283 20134 79999=
71130 32974 81719 10258 20090 39568 40008 57020 80001 333
10271 20038 70000=
71138 32874 70815 10259 20113 39437 40018 58029 81281 333
10270 20090 70000=
71140 32974 71514 10254 20097 39578 40060 58028 82031 333 10273 20090
70000=
71141 32774 81306 10193 20032 39849 40121 58025 8251/ 333
10214 20051 70000=
71148 36/// /1522 10246 20098 39536 40096 56023 333 10265 20102
70000=
71182 17564 63406 10049 20021 39637 40172 51012 60031 7434/ 333
10098 20049 70036=
71185 36664 61312 10113 20079 30161 40184 51007 333 10158 20102
70000=
71187 36964 03206 10098 21009 30153 40180 51011 333 10142 20058
70170=
71188 11462 80000 10084 20083 30116 40157 51007 60021 75165
885// 333 10091 20073 70020 90937=
71043 32783 80000 10073 21072 30020 40113 56006 8457/ 333 10080 21039
70000=
71045 36/// /1305 10073 20016 39192 40032 56003 333 10094 20028
70000=
71050 36/64 /2404 10114 21090  333 10130 21040 70000=
71066 32874 42110 10133 21117 39596 40002 52004 84071 333 10161 20075
70000=
71068 32774 12418 10153 21110 39374 40047 57010 81100 333 10162 20088
70000=
71069 36864 33309 10147 21010 39364 40049 56010 333 10156 20077
70000=
71078 11874 81312 10173 20037 39641 40071 58034 69901 70162
83077 333 10193 20030 79999 90921=
71079 32874 81309 10176 20031 39858 40130 57023 87077 333 10193 20006
79999=
71081 36964 00000 11106 21127 30266 40277 56012 333 11075 21164
70000=
71082 36064 63004 11156 21167 30331 40373 51005 333 11113 21156
70000=
71083 11566 81312 11026 21036 30206 40244 57010 69921 77182 885//
333 11019 21065 48010 70002 90942=
71090 36964 03606 11127 21142 30302 40338 58001 333 11076 21196
70000=
71091 460// /0518 11091 30047 40260 58017 333 11073 21168=
71092 46908 00931 11120 39572 40250 55016 333 11109 21138=
71094 460// /0122 11129 39300 40217 58014 333 11113 21138=
71095 36964 01804 11162 21194 30245 40320 56008 333 11123 21210
70000=
71101 37464 81431 10087 20062 30049 40057 56024 743// 333 10097
20018 70015=
71104 32774 82808 10151 21070 38998 40082 57016 8457/ 333 10164 20049
70000=
71108 32682 82606 10157 20072 30080 40150 57012 83175 333 10169 20102
70006=
71109 32580 80807 10115 20041 30089 40115 58027 8727/ 333 10122 20041
70002=
71851 36/// /1313 10226 20114 39759 40084 58031 333 10236 20098
70012=
71873 36/64 /3609 10194 20057 39133 40049 50000 333 10245 20106
70000=
71875 17964 02534 10200 21037 38731 40061 58004 69951 7454/ 333
10233 20101 70010=
71826 36/// /1015 11022 21068 30149 40178 56018 333 11011 21049
70000=
71846 36/64 /0505 10133 21040 39905 40215 56009 333 10141 20006
70000=
10215 20050 70000=
71434 36/// /0708 10043 21063 30179 40246 53001 333 10069 21060
70000=
71702 36/// /3507 10091 20067 30127 40153 51013 333 10160 20090
70000=
71717 11466 80308 10100 20079 30119 40159 53015 69901 78022
885// 333 10126 20090 70002 90910=
71732 36/// /1704 10085 20062 333 10167 21010 70000=
71197 17006 81017 10072 20071 30140 40189 53004 69951 7434/ 333
10085 20066 70010=
70194=
71261 36/// /2303 10119 20032 39972 40232 58011 333 10145 21003
70002=
10156 20012 70000=
71265 17964 01809 10103 20032 30130 40224 56017 69951 7//4/ 333
10119 20047 70005=
71629 17964 02410 10128 21005 39988 40221 55003 69951 7//4/ 333
10173 21017 70005=
71952 36/// /2207 10116 21046 39264 40109 56008 333 10138 21047
70000=
10205 20046 70002=
71473 36/// /2208 10139 20102 30117 40147 58013 333 10160 20104
70000=
71075 17/// /1208 10117 20049 69921 7//4/ 333 10173 20030 70002=
71096 460// /0512 11130 39531 40282 58017 333 11097 21131=
71201 36/// ///// 10157 333 10165 20111 70000=
71103 36964 03503 10160 20022 39433 40080 56025 333 10172 20027
70000=
71107 36/// /1626 10075 39961 40073 58024 333 70000=
71115 36/// /3005 10223 20014 39504 40066 58026 333 10227 20082
70014=
71121 36864 32807 10212 20013 39248 40040 58006 333 10228 20104
70000=
71143 36/// /1119 10139 20112 39765 40073 58015 333 10146 20095
70000=
33815 42998 00000 10070 21000 39932 40151 52003 555   10002=
89009 41/01 90417 11535 36807 56005 73973
333 11535 21567 89/05=
78397 11470 43516 10286 20229 30122 40138 69901 72482 83802 333 01200
10327 20256 58011 83818 90921=
78388 11460 70000 10263 20236 40145 60031 78081 87803
333 02209 10309 20248 58008 86818 90931=
94120 46/// /1306 10267 20226 30102 40137=
94122 46/// /0405 10282 20242 30125 40134=
94150 46/// /0710 10285 20212 30082 40143=
94203 46/// /1308 10224 20174 30128 40139=
94212 46/// /0000 10226 20122 39661 40140=
94216 46/// /0000 10262 20187 30091 40142=
94238 46/// /0206 10241 20034 39723 40153=
94268 46/// /0609 10271 20269 30145 40160=
94283 46/// /1210 10273 20169 30160 40171=
94287 46/// /1708 10261 20167 30171 40180=
94294 46/// /1107 10272 20132 30183 40193=
94296 35/// /1516 10251 30145 40155 52007=
94298 35/// /1414 10248 30167 40173 52010=
94299 46/// /1318 10266 20190 30155 40166=
94300 46/// /1209 10147 20105 30185 40195=
94302 46/// /1809 10154 20013 30173 40179=
94312 46/// /1215 10218 20010 30141 40151=
94317 46/// /1905 10114 20051 39577 40171=
94319 46/// /1415 10168 20024 39827 40164=
94326 46/// /3307 10236 20009 39520 40150=
94332 46/// /0901 10244 20081 39767 40158=
94346 46/// /0113 10248 20121 39955 40180=
94367 46/// /2008 10236 20156 30153 40191=
94374 46/// /1404 10233 20153 30184 40201=
94393 35/// /1409 10244 30161 40171 52005=
94394 35/// /1008 10249 30174 40182 52008=
94403 46/// /1303 10121 20102 30167 40208=
94429 46/// /1904 10094 20087 39726 40199=
94430 46/// /1608 10105 20084 39587 40183=
94461 46/// /1907 10145 20048 39475 40159=
94482 46/// /0414 10214 21035 30098 40154=
94510 46/// /0409 10212 20024 39849 40205=
94515 46/// /0904 10198 20041 39856 40213=
94552 46/// /1305 10196 20082 39734 40210=
94578 46/// /1707 10211 20102 30194 40205=
94584 46/// /1821 10207 20159 30079 40190=
94601 46/// /1911 10160 20083 30198 40215=
94610 46/// /1805 10131 20114 30192 40217=
94637 46/// /2607 10080 20067 39737 40170=
94638 46/// /1917 10148 20098 30105 40137=
94647 46/// /3310 10098 20055 39999 40120=
94651 46/// /3313 10119 20071 30057 40134=
94653 46/// /3610 10112 20084 30118 40137=
94659 46/// /3610 10221 21008 39945 40143=
94672 46/// /0211 10221 20074 30139 40144=
94693 46/// /0109 10208 20036 30117 40180=
94703 46/// /0505 10227 20048 30081 4////=
94710 46/// /3506 10222 20052 39951 40211=
94729 46/// /0000 10099 20070 39368 40236=
94750 46/// /3004 10162 20103 30086 40218=
94767 46/// /3106 10178 20105 30212 40218=
94776 46/// /3108 10160 20099 30213 40223=
94791 46/// /2305 10196 20098 30211 40218=
94802 46/// /1905 10135 20084 30114 40197=
94804 46/// /0118 10176 20156 30077 40115=
94821 46/// /3410 10154 20078 30088 40172=
94842 46/// /0608 10155 20091 30084 40184=
94850 46/// /0717 10160 20107 30143 40189=
94865 46/// /0104 10131 20096 30172 40197=
94893 46/// /0316 10146 2//// 30085 40202=
94907 46/// /3301 10116 20081 30207 40217=
94910 46/// /0707 10153 20072 39961 40217=
94926 46/// /0000 10125 20059 39546 40230=
94954 46/// /0611 10150 20113 30094 40206=
94956 46/// /1508 10117 20095 30181 40208=
94968 46/// /0000 10122 20107 30005 40221=
94975 46/// /3406 10130 20081 30172 40206=
94983 46/// /2909 10152 20112 30179 40204=
94995 46/// /2115 10190 20142 30165 40173=
94996 46/// /1807 10169 20157 30029 40158=
94998 46/// /3422 10057 20056 39949 49959=
95719 46/// /1005 10143 20083 39887 40225=
96995 46/// /1210 10234 20227 39817 40111=
96996 41480 40912 10263 20232 30096 40100 53010 70200 81102
333 20259=
89564 41782 71527 11087 21161 39870 49891 52011 70222 875//
333 21100=
89571 41515 81411 11084 21120 39839 49869 56001 77172 885//
333 21085=
89611 41930 70607 11084 21103 39825 49880 54000 77777 8707/=
45007 32459 10701 10270 20224 30085 40094 53014 81100
333  20250 58006 70000 81818 =
94974 35/// /1110 10122 30181 40204 52011=
95288 35/// /1316 1//// 30150 40165 52014=
95872 46/// /0406=
91554 02575 60608 10280 20244 40098 58003 69954 86800
333 20248 563// 58010 69954 82820 86640=
91555 01465 71303 10275 20245 40098 58007 60254 72582 878//
333 20230 563// 58006 60254 81710 85818 87638=
91557 01470 61606 10251 20229 40122 58005 60114 72588 86800
333 20211 563// 58013 60114 82715 86820=
91565 32580 11008 10265 20216 40140 58009 81100
333 20202 563// 58001 81825=
91631 31498 70710 10298 20258 4//// 71422 82278 333
20261 56199=
91643 31599 73204 10300 20251 40095 58008 70222 83108 333
20250 561/9 83820 88280=
91636 11497 80000 10264 20251 4//// 60031 78028 3437/ 333
20243 5689/=
85406 35960 01703 10169 20129 40155 53011
333 10215=
85418 32965 01907 10159 20122 40159 53005
333 10192=
85432 32984 01808 10134 21053 37770 48475 53010
333 10226=
85442 32975 01606 10141 20099 40164 54001
333 10184=
85469 41570 30709 10227 20167 40238 57005 70182 83200
333 56200 83820=
85470 32960 72609 10132 20091 40149 54003 87030
333 10186 56060 87360=
85488 32965 53104 10117 20089 40169 53007 85030
333 10141 56000 85363=
85574 31956 21404 10100 20044 40175 53010 70522 82030
333 10162 56060 82366=
85585 11597 42605 10122 20113 40129 57010 60031 7258/ 84200
333 10158 56600 84820=
85682 11258 83601 10094 20088 40167 58007 60071 76166 8807/
333 10137 56019 88505=
85743 11557 89902 10090 20081 40179 58004 69981 70554 8352/
333 10103 56779 83620 88457=
85782 11460 73204 10094 20088 40184 58001 69941 72582 8481/
333 10112 56769 83815 84630 85460 =
85799 32760 63306 10103 20069 40192 54002 86500
333 10128 56700 86650=
85864 32680 22804 10062 21005 40250 51010 82800
333 10112 56600 82840=
85874 32680 21509 10029 21013 39630 40263 53003 82100
333 10089 56600 82843=
85930 32997 01316 10064 20040 40220 52018
333 10076=
85934 32480 81704 10053 20049 40275 52005 62005 70242 886//
333 10054 56499 88612=
85972 32997 00406 10064 20043 40266 54003
333 10080=
78894 36/// /1106 10266 20229 30108 40167 51010
333 10317 20255 58000=
78988 32470 50815 10281 20254 30108 40117 52016 84201
333 10333 20273 58001 84817 84081=
78982 32480 50720 10278 20249 30105 40110 52020 81201
333 10325 20270 59002 81818 85081=
42909 62349 289071 287073 286074 286075 284073 283067=
10317 20255 58000=
86011 32770 50000 10180 20137 40219 55003 85070 333 10215=
86033 32470 82302 10188 20121 40179 54000 886// 333 10208=
86086 32970 01802 10170 20137 40222 52027 333 10210=
86097 32970 01903 10128 20071 40232 55005 333 10178=
86134 32970 01804 10138 20123 40210 53018 333 10207=
86210 32970 02312 10138 20083 40209 52016 333 10214=
86218 32870 71805 10144 20097 40247 52009 87070 333 10194=
86233 32970 01809 10132 20092 40229 51008 333 10186=
86248 32970 01805 10136 20101 40223 53017 333 10196=
86255 32970 01806 10102 20080 40258 54000 333 10185=
86260 32970 00000 10100 20060 40236 52004 333 10170=
86268 32970 00000 10150 20110 40209 53016 333 10190=
86285 32970 00000 10110 20070 40237 51004 333 10186=
78792 32440 80000 10254 20236 30107 40122 52029 79566 8492/
333 10312 20248 32/// 560// 58027 81915 83815 86258=
78793 11365 82706 10260 20247 30081 40112 52013 60271 72998 81617
333 10312 20230 32/// 565// 58020 70268 81707 84460 88280=
86330 32998 01609 10076 20026 40267 55000
333 10150 20069=
86460 32598 11804 10074 20030 40270 53006 81400
333 10137 20062=
86560 32598 72012 10121 20001 40282 53008 84450
333 10138 20097=
86565 32497 62304 10096 20046 40250 51006 86400
333 10143 20086=
86580 32497 52010 10114 20047 40264 51002 85400
333 10132 20104=
71739 11474 12905 10110 20016 39852 40213 56008 60071 70188 81420
333 10115 21006 70066 90937=
71802 36/// ///// 10092 20075 30127 40187 51014 333 70006=
71934 11774 81512 10112 20081 39746 49995 57013 69961 70166
8257/ 333 10120 20079 70010 90932=
71935 11574 70708 10102 20056 39753 49954 56016 69941 70362
83102 333 10114 20038 70052 90962=
91753 11481 73312 10296 20256 40085 58008 60074 70281 84842
333 20250 58008 81810 83816 85360=
91754 12581 72704 10305 20266 40086 58010 60054 86840
333 20240 59002 82820 84640=
91577 32581 21814 10259 20156 40149 58003 82800
333 20177 562// 58014 81826=
91579 36/// /1410 10266 20150 40142 58004
333 20221=
91582 02670 61808 10245 20170 40143 58004 69944 86200
333 20131 56400 58015 69927 86833=
91583 32675 10406 10263 20171 40145 58006 81200
333 20175 58011 81840=
91587 36/// /1608 10255 20169 30097 40146 58004=
91590 32580 42206 10259 20134 40148 58009 84200
333 20147 56000 58008 84830=
91592 32680 31806 10240 20160 40151 58003 83200
333 20197 56400 58009 83840=
91945 16/// ///// 1//// 2//// 30155 40158 56019 60024 333 2////
58008=
78906 32580 11006 10278 20196 30150 40155 81201
333 10331 20250 58000 81820=
71122 36/// /2408 10141 20008 38522 40083 53005 333 10170 20069
70048=
71196 36002 8//// 10023 30198 40235 53008 333 10087 20023 70040=
71200 36/// /2503 10115 20079 333 10138 20093 70000=
71877 32986 72809 10222 21006 38819 40041 56002 82171 333
10238 20121 70000=
71883 17/// /2103 10181 20025 39287 40084 56012 69981 7//4/ 333
10193 20069 70026=
57793 32965 10000 10198 20138 40107 52011 80002 333// 00051=
47101 32963 73401 10135 20062 30076 40167 55001 80004 333 20082
30024=
47105 32670 72507 10248 21049 30091 40120 53001 82506 333 20211
30025=
47108 32965 50702 10188 20029 30053 40155 52003 80002 333 20134
30021=
47115 32960 62007 10186 20075 39874 40129 53004 80002 333 20153
30023 92043=
47133 32963 71403 10197 20072 30078 40157 55003 80002 333 20123
30026=
47138 32970 72309 10202 20055 30150 40153 52006 87020 333 20186
30026 92033=
47159 32965 71803 10206 20095 30080 40161 53007 80007 333 20169
30026 40131 92022=
47165 32972 61606 10184 20080 30113 40156 50002 86040 333 20146
3/026 92022=
47168 32965 83603 10173 20110 30085 40163 53003 8802/ 333 20153
30025 92022=
47184 32980 83202 10189 20099 30129 40156 55005 8802/ 333 20157
30023 92022=
33135 42997 03003 10030 21005 39963 40143 52004=
33317 42999 00302 10059 21014 39815 40152 52006=
33345 42974 02401 10050 21009 39941 40147 52003=
33393 42960 00000 10036 20021 39760 40155 52005=
33506 42997 02701 10042 20008 39931 40128 52007=
33587 42664 30000 10033 20009 39888 40154 52003 83500=
33631 42997 31101 10083 20036 30010 40152 54000 83030=
33658 42997 00000 10057 20038 39850 40149 54000=
33663 41995 00000 10007 21001 30061 40160 52003 71000=
33711 42960 32802 10046 20018 39929 40140 52006 83030=
33791 42997 80204 10080 20030 39976 40128 52007 8805/=
33837 42582 83403 10092 20032 30098 40149 51002 8533/=
33910 42598 83202 10088 20068 30087 40105 52002 8536/=
33924 42568 60206 10103 20071 30109 40121 51001 82931=
33946 42659 73602 10080 20068 40110 56001 87500 333 87640=
34300 42997 03002 10040 20020 39925 40117 52006=
34504 41996 33604 10050 20030 39939 40117 52006 71000 80001=
34519 42960 73605 10074 20045 39821 40092 52007 87030=
34601 42997 03203 10033 20026 40114 51003=
16080 32960 00805 10158 20113 30011 40133 51005=
16153 32897 30308 10162 20151 39882 40142 50002 83030 92345 333
83358 555 0////=
16105 32964 03302 10151 20114 30147 40153 51003=
16191 36/// /2101 10112 20075 30135 40153 54000=
16158 32462 21701 10150 20135 30140 40147 53002 82100 92345 333
82814=
16242 32964 00000 10128 20098 30130 40133 54002 555 0////=
16310 32998 00209 10144 20047 39905 40124 50001 92345 555 0////=
16261 32965 03009 10096 20070 30075 40148 51001 92345 333 55300
95090=
16320 32960 03110 10166 20127 30125 40137 52004 92345 555 0////=
16560 32966 03105 10160 20131 30141 40147 58008 92345=
51468 16/// /3100 11038 29052 36621 60001
555 1/122 2//00 /////=
16066 32960 00703 10151 20132 39880 40129
52005=
16084 32960 00000 10134 20118 39971 40136 52009 92345=
16120 32465 71107 10183 20157 30136 40139 55001 86260
333 86818 97070 555 0200/=
16090 32670 30707 10153 20146 30064 40145 53006 83200 92345 333
83840=
16170 32860 11303 10156 20127 30098 40143 51003 81030
333 81357=
16206 32968 00208 10124 20112 30138 40147 58002 92345=
16289 32960 00103 10136 20088 30061 40147 51001=
16405 32960 01506 10156 20113 30127 40167 50005=
16460 32965 02901 10133 20087 30139 40159 51004
333 95090=
16362 32960 20604 10123 20095 30125 40143 50001 82030
333 82359=
16008 32970 00000 10078 20074 38518 48478 51008 92345=
16020 36/// /0000 10157 20098 39853 40137 51009=
16110 32598 50000 10158 20108 30130 40154 51001 82170 92345 333
82830 83358 555 0////=
16134 32975 02808 10052 20000 37839 48509 50001 92345 333 41008
92855=
16149 32980 01005 10150 20106 30126 40141 54000 92345=
16230 32960 02203 10089 20082 30146 40159 53001=
16252 32962 00000 10098 20065 39226 42786 51003 92345=
16270 32960 02606 10111 20056 30093 40146 51003=
16325 32998 02611 10120 20068 30122 40136 51004 92345 333 98070
555 0100/=
16360 32997 03614 10152 20117 39994 40127 51003 92345 555 0////=
16480 32597 30805 10168 20150 30090 40151 51011 83500 92345 333
83620 555 0////=
16520 32970 00000 10124 20109 30124 40152 57012=
16522 32998 00905 10140 20130 39910 40152 57009 92342 555 0////=
16550 32998 02903 10194 20073 39969 40145 58001 92345 555 0////=
16061 32670 60000 10176 20146 39308 42763 54000 82280 92345 333
82840 84356=
16114 32865 30000 10180 20159 39487 42775 52003 83050 92345 333
83356=
16022 31/00 90000 10042 20042 37856 48485 58001 74540 92345 333
44086 89/00 92855=
16033 32965 30000 10080 20057 38775 48487 51006 80001 92345=
16088 32960 00505 10139 20092 30026 40142 51001 92345=
16108 32960 01005 10121 20114 30132 40153 50004=
57004 70086 88/// 92351
555 793// 80488 0/002=
12205 32960 02101 10095 20091 30095 40103 57009 71111=
12465 32770 11601 10087 20067 39906 40137 58003 81500=
12560 32965 00000 10052 20043 39810 40157 57005 =
12695 36/// /9903 10070 20038 39816 40156 54000 69911=
12120 32998 52103 10109 20085 30088 40095 57008 85030=
12250 32997 00000 10100 20085 30030 40118 57007 =
12295 32970 00000 10024 20007 39946 40134 58005 =
12330 32962 32002 10119 20077 30014 40120 57006 80002=
12424 32999 01701 10095 20059 39982 40133 58010 =
12105 32997 51701 10121 20081 30059 40100 57010 80006=
12135 32998 32003 10112 20090 30094 40097 57009 83030=
12195 32970 00000 10042 20014 39899 40128 57006 =
12235 32997 02102 10113 20085 39904 40110 57009 =
12270 32597 32101 10088 20060 39944 40124 57004 83500=
12300 32965 02103 10124 20091 30025 40113 57006 =
12360 32998 11701 10089 20071 39994 40126 58003 81030=
12385 32997 01301 10047 20031 39946 40137 58003 =
12435 32960 02002 10118 20076 39962 40131 56005 =
12495 32998 02201 10055 20033 39854 40147 58001 =
12510 32999 51811 10040 20008 38347 48466 57011 80006 =
12520 32970 22601 10054 20041 39719 40154 58004 80002=
12570 32998 00000 10043 20036 39833 40153 58002 =
12595 36/// /2301 10028 20015 39878 40153 54000 69941=
47090 32970 70902 10191 20027 30099 40119 52006 82032 333 20175
30028 92011=
47095 32970 60000 10136 20032 39978 40161 55004 80007 333 20074
30021=
30028=
47100 32968 62713 10162 21040 39184 40127 52003 80002 333 20110
30016=
47106 32665 72901 10244 21031 30082 40124 53001 85530 333 20183
30029=
47112 32962 72902 10196 20095 30076 40155 53001 85041 333 20149
30021 92022=
47114 32973 60000 10146 20051 39988 40165 56001 80002 333 20092
30026=
47119 32961 61403 10185 20022 30118 40158 55002 80001 333 20115
3/026=
47121 32962 50000 10116 20067 39891 40172 52002 84032 333 20067
30021=
47129 32967 63202 10208 20042 30134 40163 53001 83031 333 20111
30030=
47130 32970 82707 10252 21040 30072 40128 53003 8801/ 333 20189
30032 92013=
47131 32960 63401 10164 20084 30092 40160 56003 83032 333 20126
30025=
47135 32670 60000 10178 20051 39872 40156 55002 86500 333 20109
30027=
47136 32965 72901 10159 20067 39992 40158 53001 83032 333 20099
30021=
47140 32965 60904 10183 20073 30124 40159 52004 80001 333 20141
30028 92011=
47143 32968 72501 10205 20077 30092 40159 53002 80002 333 20164
30031=
47146 32975 32702 10199 20042 30095 40160 53002 83030 333 20131
30026=
47152 32970 82901 10201 20061 30122 40160 50007 8801/ 333 20147
30032=
47155 32965 81604 10187 20085 30161 40166 53007 8801/ 333 20147
30022 92011=
47156 32962 63202 10191 20078 30076 40161 52003 80002 333 20138
3/027=
47162 32965 61801 10187 20119 30127 40165 53003 84022 333 20146
3/023 92021=
47170 32975 50504 10172 20141 30124 40164 54000 85030 333 20124
30180 92022=
47185 32670 71412 10209 20131 30067 40149 53002 82530 333 30028
92034=
47189 32670 80903 10211 20128 30099 40159 55000 8452/ 333 20165
30022 92033=
47192 32666 70202 10165 20108 30138 40164 53002 83502 333 20116
30020=
54587 32980 10000 10188 20110
40087 52003 80001 333// 00100=
26038 42597 32303 10042 20030 30013 40059 57007 81505   555 10002=
26045 42998 32004 10073 20033 30052 40056 57007 83030   555 10008=
26058 41598 81402 10070 20045 40061 57013 70262 8555/=
26135 42997 02502 10058 20053 39987 40067 57015   555 10003=
26231 42997 02503 10070 20054 30068 40077 57006   555 11005=
26242 42597 72103 10070 20052 39991 40076 52013 82530   555 11007=
26115 42997 72902 10055 20046 30066 40080 57004 81042   555 10003=
13160 32997 00000 10049 20029 30051 40167 54000=
13262 32998 00000 10058 20041 30031 40190 54000=
13272 32970 01902 10071 20048 30044 40169 52001 =
13285 32998 00701 10042 20030 30077 40172 52007=
13289 32497 72902 10037 21020 48/// 52/// 87500=
13363 32970 00000 10036 20023 48469 54000=
13376 32998 02201 10048 20035 39917 40182 51003=
13388 32998 20701 10048 20029 39928 40177 52004 82030=
13462 32970 03604 10128 20000 30113 40156 52006=
13489 32998 00302 10058 20035 39655 40178 52003=
12160 32998 01902 10105 20084 30054 40106 58003 =
12210 36/// /0000 10092 20072 30042 40105 57011 69961=
12230 32965 12202 10102 20075 30025 40114 57006 80002=
12399 31996 00000 10033 20019 39970 40141 54000 71000 =
12418 32997 11502 10090 20072 30012 40125 57007 80004=
12469 32997 01401 10068 20058 39912 40143 57003 =
12488 32998 01701 10037 20030 39984 40140 57003 =
12540 32997 02401 10076 20060 39899 40150 58005 =
12566 32984 00000 10076 20049 39865 40154 57003 =
12625 32984 01701 10026 20012 39168 42785 55003 =
12690 32997 01002 10039 20030 39654 40168 52002 =
12115 32997 02006 10134 20075 30083 40096 57009 =
12125 16/// /1401 10111 20071 30051 40099 57008 60011=
12200 32965 02001 10123 20116 30092 40099 57011 =
12215 36/// /0000 10088 20074 39941 40118 57011=
12272 32970 22102 10090 20066 39949 40115 57008 82030=
12280 32970 12002 10098 20042 39959 40119 57008 80001=
12285 36/// /0000 10049 20033 30011 40127 57005=
12345 11570 72303 10137 20091 39984 40125 58006 69991 72581 879//=
12415 32998 71802 10099 20070 39978 40129 57008 80008=
12455 32970 01803 10106 20071 39896 40138 58005 =
12497 32970 02402 10036 20022 39924 40146 56001 =
12500 32998 00000 10064 20060 39725 40141 58008 =
12530 32997 01801 10085 20063 39944 40142 58005 =
12580 32970 02401 10029 20015 39909 40158 51003 =
12600 32980 00000 10066 20047 39673 40155 57005 =
12650 32982 00502 11009 21030 37974 48478 55004 =
12660 32960 00000 10048 20037 39805 40166 54000 =
84270=
43555 21480 62711 10286 20240 40087 70382 83208 333 59006
6990/ 83818 86277=
43577 32480 12008 10274 20248 40097 81101 333 59002 81819=
43599 32480 39905 10272 20243 40097 82201 333 59003 82818=
26247 41497 80000 10068 20061 30000 40081 57022 70282 883//   555
12007=
41883 32956 00000 10260 20240 30018 40038 333 58006 70000=
41891 32457 50000 10255 20225 30005 40045 83830 333 56990 58002 70000
83615=
41907 31956 00000 10234 20220 30023 40041 70500 333 58005 70000=
41923 32950 20000 10260 20240 30037 40047 81031 333 56099 58010
81360=
41936 31930 00000 10248 20240 40032 71000 333 58000 70000=
41950 32930 00000 10246 20240 30034 40038 333 58000 70000=
41978 31440 40000 10251 20238 40044 70522 82530 333 56990 58011 70000
82615 83360=
41992 32350 70000 10248 20250 300364 0040 70222 82620 333 56999 58019
70000 82708 83614 86458 81930=
15502 31998 00000 10064 20046 40154 51003 70110=
15525 31597 80000 10097 20085 40166 51002 70222 8557/=
15535 31998 80000 10110 20073 40150 58001 70222 8805/ 555 88359=
15614 31696 60000 10082 20067 39459 40161 52003 71022 86800 555 95050
=
15615 31998 50000 11076 21086 37075 47008 58001 70142 84071 555 95120
=
15627 31/91 93206 11048 21054 37586 47015 54000 74944 333 44999 555
92717 95190=
15640 31698 80000 10088 20067 40154 54000 70222 885// 555 95000=
15712 31697 80000 10117 20095 40150 51006 70222 889// 555 95090=
15730 31698 50000 10089 20064 40154 54000 70122 82550 555 95000=
48300 01406 80000 10241 20232 39749 40053 60074 76162 8652/
333 20224 59011 60077 70074=
48327 01558 81603 10246 20228 39696 40051 69904 76022 85576
333 20241 59009 69905 79999=
48331 11558 80000 10241 20232 39837 40067 60024 71062 8777/
333 20220 59004 70017=
48353 01550 80000 10238 20228 39779 40068 60124 76062 8587/
333 20230 59004 69905 70115=
48356 31958 21203 10260 20223 39877 40073 71000 81031
333 20250 59005=
48378 12560 50303 10257 20232 30006 40058 60694 83846
333 20225 59006 70690=
48381 31557 61407 10265 20231 39848 40070 71510 84545
333 20255 59007=
48407 11560 81507 10250 20231 39930 40071 69934 70262 83877
333 20238 58002=
48456 12560 41806 10284 20255 30047 40062 69934 81141
333 20262 59019 70003=
48480 01458 70000 10265 20258 30062 40066 60034 72122 85976
333 20258 59003 69905 70026=
48500 01559 80000 10273 20252 30063 40069 69944 76022 8652/
333 20265 58002 69945 70004=
48551 31558 51803 10248 20236 30067 40075 71021 81346
333 20245 59006=
48565 12560 62709 10291 20247 30062 40066 69904 81236
333 20285 59005 79999=
48569 32560 30000 10254 20244 30038 40078 81101
333 20244 59004=
48583 32560 40000 10258 20245 30080 40085 81105
333 20245 59003=
41244 36/// /0104 10273 20079 39701 40054
333 0E029 59010=
41246 32960 02508 10320 20012 30001 40006
333 59019=
41256 32960 02806 10314 20035 30004 40013
333 59017=
41258 36/// /2810 10371 20134 30001 40007
333 0E/// 59000=
41262 36/// /1706 10307 20064 39837 40039
333 0E032 59016=
41288 32960 02224 10279 20252 30014 40036 333  59008=
41304 36/// /1416 10243 20228 39742 40060
333 0E024 59007=
41312 36/// /2802 10273 20239 30030 40071
333 0E/// 58003=
41314 32960 01716 10242 20206 39570 40084 333
59005=
41316 32565 21201 10280 20244 30043 40069 82500
333 58002 82625=
11414 32980 01101 10082 20033 39415 42754 57010
333 55123
555 371// 50122 60123 70122 80110=
11438 32984 02702 10076 20051 39754 40149 56006
333 55119
555 384//=
11502 36/// /1403 10126 20029 39678 40123 57010
333 55137
555 352// 50129 60135 70136 80113 90095=
11538 32984 01403 10109 20037 39536 40132 58005
333 55125
555 11504 361// 50152 60156 70134 80110=
11628 32970 00000 10081 20038 39512 40142 57005
333 55141
555 374//=
11643 36/// /0000 10044 20031 39196 42773 57007
333 55100
555 11905 391// 50116 60122 70121=
11683 36/// /1706 10075 20020 39282 42769 58007
333 55131
555 11706 368//=
11693 32975 09901 10098 20024 39669 40146 58001
333 55123
555 360// 50127 60140 70149 80136 90113=
11710 36/// /1502 10097 20022 39537 40147 57008
333 55129
555 360// 50126 60128 70137 80121=
10708 31781 72402 10159 20106 39723 40095 50003 70292 81502
333 30/// 55/// 2779 55300 81550 87075=
26554 41560 62103 10071 20048 39949 40110 57006 70282 84530
555 11007=
26666 42960 62002 10047 21016 39908 40122 58003 86030   555
10004=
26850 42970 00000 10029 20005 39867 40142 58003   555 10001=
26863 42960 32402 10006 21011 39895 40135 53001 80002 555
11001=
26941 42960 02101 10055 20000 39903 40140 54000   555 11004=
26951 42962 00000 10026 20008 39939 40140 53004   555 11001=
33008 42970 00000 10057 20041 39957 40136 54000 555 10003=
33019 42960 01202 10067 20006 39975 40149 52014   555 12007=
33036 42960 01001 10026 21004 39912 40145 52002   555 11002=
33041 42970 52901 10022 20006 39986 40142 52003 85030   555 11003=
16648 11558 80000 10122 20114 30058 40147 51002 69981 76165 888//
333 83830 88635 90730 91105 555 40000 47574 44210 50000
50118 60000 60003 60130 70000 77RY/ 7RDY/=
16643 32560 70000 10142 20131 30129 40134 52005 84250 333
84820 87358 90730 91106 555 40000 47630 44230 50000 50136=
16684 32560 60212 10154 20093 30087 40113 51011
83250 333 83825 85358 90730 91114 555 40000 47598 44230
50000 50122=
48303 11560 80000 10232 20223 39618 40061 60454 70262 8557/
333 20226 59010 70451=
48328 11556 80000 10242 20235 39783 40060 60094 71022 85576
333 20235 59003 70091=
48330 11557 40000 10242 20236 39880 40066 60244 71021 82535
333 20239 59001 70244=
48351 11567 60000 10248 20238 39988 40062 60244 70196 84836
333 20240 59003 70237=
48354 11556 40000 10272 20229 39859 40060 69914 71062 81536
333 20254 59002 70001=
48376 01562 60000 10250 20236 39924 40068 69904 70262 82536
333 20245 59014 69906 79999=
48377 12560 80000 10244 20234 39899 40064 60014 85536
333 20239 59005 70010=
48379 01460 60000 10252 20243 39917 40049 60024 70166 82736
333 20251 59009 60027 70018=
48400 11557 70000 10250 20246 30023 40063 60274 71022 86535
333 20242 58001 70272=
48432 11558 80000 10262 20249 39900 40069 60074 71062 83846
333 20250 59004 70072=
48462 32960 50000 10275 20248 30014 40069 83036
333 20264 59002=
48475 31562 50000 10273 20235 30055 40066 71520 83846
333 20265 59004=
48477 32564 60000 10287 20265 30050 40064 81936
333 20259 59002=
48517 01457 80000 10250 20243 30070 40076 60174 79522 8497/
333 20248 59002 60055 70171=
48567 31558 30000 10258 20246 30058 40075 71021 82251
333 20235 59002=
33088 42997 30000 10043 20018 39956 40148 54000 83030=
33177 42968 00000 10048 20028 39914 40152 52004=
33246 42969 02701 10019 21015 39981 40138 52005=
33261 32997 00000 10028 20010 39944 40128 52003=
33275 42997 03002 10037 21003 39899 40123 52005=
33301 42997 71702 10056 20007 39869 40152 52003 87030=
33325 42997 03301 10018 20010 39877 40155 52004=
33377 42967 03302 10036 21002 39943 40138 51001 555 10002=
33415 42997 10000 10044 20019 39753 40154 52006 81030=
33429 42997 00000 10047 20014 39735 40161 52002=
33466 42965 02501 10017 20001 39954 40144 51003=
33526 42660 50000 10052 20030 39813 40154 52002 85500 333 85633=
33562 42997 02402 10033 20001 39789 40151 54000=
33614 42966 83505 10089 20043 40124 52004 8807/=
33761 42966 73301 10053 20029 39924 40147 52005 87030=
33889 42998 02903 10058 20013 30112 40149 54000=
33902 42997 83202 10083 20056 30056 40122 51003 8807/=
33983 42497 73405 10117 20078 30034 40093 54200 8653/ 333 86619=
33990 41561 83401 10113 20107 30012 40097 58001 72582 889//=
34415 42997 03601 10047 20037 30013 40110 52010=
34712 42697 83305 10108 20084 30005 40089 53007 885//
333 88647=
26645 42597 62202 10058 21005 39865 40123 57007 82502   555 10007=
26659 42597 52301 10048 21012 39915 40128 54000 85500   333 85633
555 10005=
26763 42665 61401 10007 20001 39904 40135 52001 82501   555 10001=
26825 42960 00000 10049 20022 39956 40121 58007   555 10004=
26832 42960 00000 10024 20003 39942 40137 58001   555 10005=
26887 42962 02701 10025 21008 39924 40131 52006   555 11001=
26961 42960 00000 11010 21019 39947 40144 54000   555 11///=
33027 42965 00000 11006 21015 39980 40152 52004   555 10100=
40100 32958 01701 10182 20141 40088 57011 900//
333 924/6=
40356 31958 52114 10260 20060 39123 48477 70700 85010 333 59012
85460 555 04410 50026=
40360 31954 53505 10216 20100 39503 40053 70610 85070 333 58005
85360=
40362 32962 01208 10230 20010 39559 40048 333 59024=
40373 32960 00604 10250 21030 39653 40043 333 59013=
40375 32660 41304 10244 20040 39220 40040 84400 333 59009 84640=
40400 32960 00304 10260 20150 30014 40041 333 59018=
40405 32960 00808 10270 21010 39334 40024 333 59015=
40416 32960 03608 10280 20220 30012 40032 333 58002=
40430 32960 00000 10260 21090 39350 40030 333 59017=
40437 32960 01104 10284 20040 39388 40041 333 59002=
40438 32960 01305 10290 20070 39393 40052 333 59004=
40439 32960 00000 10259 20120 30020 40032 333 59033=
41024 32960 00000 10230 20160 30014 40033 333 59028=
41030 32960 10000 10290 20170 39760 40025 81030 333 59025 81360=
41036 32960 02102 10215 20100 38531 48482 333 59009 555 04410 50023=
41112 32960 00000 10178 20106 37930 48482 333 59008 555 04410
50030=
41114 32960 00000 10190 20133 37969 48481 333 59003 555 04410
50013=
41128 32960 00000 10230 20020 38764 48483 333
58000 555 04410 50016=
41136 32960 00000 10278 20060 39255 40019 333 58001=
41140 32960 03404 10290 20250 30023 40031 333 59017=
34523 42497 73002 10097 20043 30015 40089 52008 86570=
38750 42997 00000 10177 20162 40127 40100 54000 555   10017=
38763 42997 11802 10248 20106 39981 40082 57003 555   10020=
38974 429// 02501 102323 20062 39764 40079 52005 555   10020=
38895 42997 00802 10233 20040 39824 40099 53001 555   10019=
38987 429// 001301 10188 20009 39390 40099 52006 555   10015=
38774 425// 02202 10284 20104 39919 40100 53007 555   10023=
38886 429// 00401 10226 20128 39865 40079 58004 555   10019=
38545 42996 03602 10185 20109 39883 40107 57004 555   10017=
38687 42996 03602 10185 20109 39883 40107 57004 555   10017=
38911 42998 03302 10208 20067 3+9816 40095 53002 555   10017=
38806 42997 00502 10223 20107 39852 40096 57002 555   10016=
38388 42998 00000 10205 20030 30015 40082 57010 555   18015=
40706 32960 10303 10144 20058 38647 40102 57010 80001 92345 333=
40718 32960 00000 10200 20190 30125 40094 54000 92350 333=
40732 32560 62102 10190 20177 30112 40092 53009 8257, 92350 333
8263  8646 =
40800 32960 02703 10190 21042 38444 40049 55001 92350 333=
40811 32960 03003 10282 20040 30033 40059 58005 92350 333=
40841 32960 03603 10170 21026 38248 40043 54000 92350 333=
40848 32960 00000 10184 20030 38506 40048 58004 92350 333=
40856 329 01802 10196 21040 38608 40025 55001 92350=
40875 31950 00000 10274 20217 39998 40010 56003 70500 92350
333=
47401 12/70 02121 10172 20073 30086 40099 51005 69902
333 20112=
47412 32/80 21206 10223 20073 30101 40131 58003 81531
333 20129=
47420 32/70 11606 10183 20071 30084 40129 58004 81500
333 20052=
47426 32/75 12910 10187 20045 30122 40165 58003 81030
333 20122=
47582 32986 71309 10206 20058 30158 40183 58006 80002
333 20101=
47590 32980 21703 10212 20081 30136 40187 58002 80001
333 20130=
47600 32980 32113 10257 20053 30160 40176 55000 80002
333 20121=
47648 32965 22013 10210 20164 30175 40207 50004 80001
333 20169=
47662 31956 61202 10219 20135 30159 40201 50000 70511 80002
333 20171=
47678 32/70 70403 10224 20164 30123 40216 51006 82202
333 20148=
47740 32981 72109 10222 20076 30135 40172 51005 81032
333 20106=
47778 32/70 80505 10202 20143 30118 40206 51010 8287/
333 20166=
47807 32/70 71304 10222 20113 30157 40174 50006 81102
333 20179=
47827 32/70 80903 10220 20149 30140 40176 50011 8117/
333 20199=
47843 32960 70603 10200 20161 30140 40171 51003 8707/
333 20150=
47898 32/65 80210 10201 20162 30155 40193 51011 8117/
333 20192=
47909 11360 81202 10204 20172 30127 40136 58004 60172 76166 8672/
333 20204=
47918 32375 62704 10268 20233 30062 40070 51029 83831
333 20246=
47936 11/50 81229 10233 20217 39984 40045 58033 60522 78186 8727/
333 20223=
47945 11/60 71118 10243 20218 30095 40118 58010 69902 78082 8327/
333 20226=
47971 11/65 80610 10221 20183 30177 40186 50009 60132 72582 882//
333 20199=
47991 32/80 72105 10287 20225 30151 40161 50001 82232
333 20250=
47407 32970 01806 10214 20049 30002 40136 58010
333 20088=
47409 32975 00803 10221 20059 30071 40121 58002
333 20158=
47418 32975 01908 10151 20053 30084 40131 58004
333 20076=
47421 32/70 41509 10213 20048 30091 40135 55003 82032
333 20136=
47430 32/80 12307 10206 20042 30106 40157 58007 81031
333 20103=
47570 32/83 10502 10181 20060 39950 40199 58009 81101
333 20086=
47575 32/84 12412 10246 20008 30155 40159 57008 81100
333 20125=
47585 32/75 10401 10194 20040 30118 40173 57004 81600
333 20104=
47598 32950 12106 10188 20141 30194 40200 50003 80001
333 20117=
47602 32980 11906 10245 20063 30159 40178 58002 80001
333 20144=
47605 32975 52406 10248 20091 30143 40181 53001 80002
333 20147=
47618 32970 70802 10179 20052 39495 40192 58006 81032
333 20092=
47624 31950 21206 10208 20114 30068 40200 50005 70500 80001
333 20138=
47636 32/60 72004 10213 20130 30145 40210 52004 82201
333 20146=
47655 31/58 70505 10192 20134 30160 40215 51009 71011 84131
333 20140=
47663 32/70 81003 10196 20103 30179 40211 51008 8112/
333 20130=
47675 32/75 72108 10214 20150 30121 40214 52006 81102
333 20152=
47741 32975 70901 10224 20115 30148 40173 51001 80002
333 20119=
47746 32975 71707 10246 20090 30158 40176 58001 80002
333 20120=
47750 32980 62506 10226 20101 30167 40193 58001 81031
333 20115=
47755 32/65 72702 10204 20121 30152 40176 53007 81532
333 20119=
47772 32960 80102 10220 20099 30102 40198 50007 82037
333 20166=
47800 32/80 71409 10213 20152 30147 40169 51006 81102
333 20143=
47815 32970 71001 10202 20124 30169 40184 50007 8707/
333 20162=
47817 32/70 70603 10215 20137 30138 40179 51013 8117/
333 20182=
47830 32/70 82801 10204 20166 30167 40184 50012 8127/
333 20173=
47837 11/80 81404 10223 20172 30153 40174 51013 69902 76122 8187/
333 20198=
47887 32/75 71402 10219 20091 30148 40187 50007 81132
333 20165=
47891 32/65 70601 10192 20127 30186 40198 53007 81102
333 20144=
47899 32/80 80309 10182 20137 39982 40201 51011 8157/
333 20176=
47927 11/65 82908 10249 20226 30009 40055 51084 60502 72186 8622/
333 20238=
36911 42999 03002 10180 20068 39224 40138 54000 555 10014=
36982 42698 72001 11028 21032 36560 47125 54000 82549=
38353 42998 21901 10170 20086 39296 40154 53003 82040=
38178 429// 00804 10211 20086 39854 40123 57003   555 10018=
38264 35998 21305 10239 20081 30019 40106 57002 80001   333 00016
555 10018=
38396 42996 00902 10173 20112 40120 54000   333 00012   555 10014=
38403 429// 00000 10213 20078 30008 40122 58005   555 10018=
38457 42999 00501 10166 20089 39569 40128 54000   555 10016=
38462 42999 00000 10112 20038 38778 48524 52004   555 11006=
38579 329// 00000 10162 20084 39719 40120 52002   333 00013   555
10013=
38583 42997 00501 10161 20134 39818 40186 53005   333 00011   555
10014=
38611 42997 70104 10203 20106 39582 40122 54000 80003   333 00019
555 10019=
38618 41998 41401 10201 20102 39465 40116 53012 70298 82041   333
00017   555 10017=
38683 42997 30000 10192 20067 39848 40111 57002   333 00013   555
10014=
38696 32999 01802 10171 20093 39306 40122 53006   333 00006   555
10013=
38812 42997 03003 10212 20118 40095 58002   555 10020=
38927 32997 00000 10178 20076 39727 40086 53002   333 52014   555
10016=
30372 32799 70903 10022 21061 39271 40118 57005 82570   333 21016
42003 55000=
30554 32698 80000 10026 21007 39048 40106 57007 85531   333 20005=
30635 32599 82802 10030 20006 39598 40157 57002 8397/   333 20024=
30673 11599 83406 10010 21022 39315 40063 57002 60052 70282 888//
333 21003 42006 55100=
30692 32999 53602 10079 21009 39543 49990 57004 86050   333 20040
55///=
30758 11599 73105 10056 21008 39312 40099 54000 69902 70282 86930
333 20039 55025=
30802 32698 82704 10060 21057 38719 48512 53003 84331   333 20024
55070 91116=
30823 12699 72703 10057 21007 39560 40177 57001 69932 8792/   333
20031 55138=
30879 32599 73603 10053 21015 39292 40019 52001 8657/   333 20044
55107=
30935 32699 70501 10038 21031 39266 40180 58003 82440   333 20012
55060=
30949 32699 22903 10052 21030 39068 40124 52003 82100   333 20027
55076=
31168 32698 82303 10033 21008 30101 40112 52001 885//   333 20029
41011 55007=
31300 32599 70508 10085 21005 39691 49964 58003 85331 333 20075
91016 91116=
31369 32998 81104 10068 20001 30022 40105 54000 83032 333 20024=
31416 32999 73602 10095 21044 39994 40082 58004 80001   333 20036
55110 10017 7000/=
31484 32999 81402 10113 21036 38797 40056 58011 80001   333 20073=
31510 329// 82802 10162 20102 39781 49933 53019 8807/ 333 20140=
31735 32997 71602 10234 20094 39930 40011 57003 83031 333 20145=
17600 31450 62408 10189 20165 30059 40075 56009 71011 86800
333 82615 85820=
17609 31958 11907 10182 20162 30070 40072 55006 80002
333 81075=
28867 42598 32002 10145 20070 39847 40099 53007 82201   555 10011=
28952 42998 02702 10140 20076 39929 40114 52010   555 1/012=
34691 42998 60000 10134 20095 30099 40087 5/033 86030   555 1/012=
35108 42997 81301 10127 20095 40098 57008 88004=
35217 42997 72502 10122 20065 40112 57005 80005   555 10009=
35229 42997 50000 10073 20059 39874 40139 53002 85030   555 10006=
35302 429// 00000 10134 20073 40109 54000   555 10012=
35394 42997 00000 10069 21007 39515 40174 58002   555 10002=
35406 42997 51403 10117 20046 40125 57012 85030   555 10010=
35416 42997 20000 10085 20059 80001   555 10007=
35497 42998 60000 10108 20015 39412 40177 54000 80002   555 10007=
35532 42998 71407 10113 20059 39664 40135 58005 80003   555 10009=
35671 42998 81103 10151 20038 39753 40159 54000 8807/ 555 10013=
35700 42598 20605 10160 20074 30098 40072 57008 82900   555 10013=
35796 42999 60405 10111 20006 39751 40168 53007 81041 555 10008=
36152 42998 61303 10046 20010 30003 40188 57005 80008   555 10004=
36177 42998 50801 10060 20039 39946 40186 57007 80001   555 11005=
36397 42999 60000 10095 20048 39656 40198 53001 82041   555 10008=
36428 42999 60502 10054 20035 39728 40217 53002 80001   333 95000
555 10005=
36535 42999 20000 10058 20026 39599 40215 58011 82030   555 11003=
36639 42699 80907 10134 20048 39610 40184 52009 8553/   555 11012=
36821 42998 20000 10110 20074 40152 52007 80002 555 91105=
36859 41599 60000 10152 20126 30444 40182 54000 72582 83961   555
11013=
36864 42699 20000 10116 20074 40200 53049 82100   555 91109=
36870 42598 61301 10148 20064 39191 40151 54000 86100 333 86830
555 11009 91111=
38196 42998 82703 10193 20058 40140 54000 80002=
38198 42999 70402 10206 20086 82042   555 10016=
38222 42997 00000 10121 20104 39618 40153 53003   555 10009=
38328 42999 01103 10150 20043 40140 53001=
38334 42999 11203 10154 20050 39237 40151 53002 80001   555 10011=
38341 42999 11901 10152 20076 39403 40148 53003 80001   555 10011
91111=
38439 42998 03602 10188 20093 39808 40126 53003   555 10016=
86262 22283 00310 20202 305// 40403 5//// 80270=
54092=
41598 20305 10230 20186 40232 52008 70101 82200
22264 00180 20201 331// 40404 80200=
10402 70012=
62120 14004 99564 10021 46498 /0304 10085 20062 40121 57005 22200
80073=
62103 14004 99499 70029 46/97 /2505 10109 20086 40121 54000 22200
00110 10801 70007 555 05111 07251 10023 11045 12409 13410 14806
15556 17075 18000 19000 35070 36027 70001 72470 73137 74019 75433
76401 80094=
62301 14003 99523 70045 46/// /2004 10105 20096 40104 22200 00108
10401=
15549 18008 19008 22235 23031 35062 36063 50045 51136 52005 53001
70001 71999 72453 73131 74022 75453 76900 80102 05392 07160 10037
11058 12435 13437 14697 15549 18008 19008 22235 23031 35062 36063
50045 51136 52005 53001 70001 71999 72453 73132 74012 75453 76900
80070=
11035 12400 13403 14999 15552 18002 19008 22225 23105 35056 36053
50051 51368 52005 53089 70002 71966 72107 73129 74500 75190 76950
77000=
11127 12400 13413 14902 15549 18007 19021 22235 23023 35058 36086
50057 51007 52009 53542 70001 71999 73133 74012 75431 76900 80088=
80091=
48820 32998 10902 10266 20230 30075 40083 52013 80001 333
00027 20254 3/021 59005 81099=
48826 31796 23401 10262 20244 39952 40081 53017 71011 82500
333 00028 20243 3/024 58001 82697=
48839 32997 10000 10257 20241 30020 40084 53013 80001 222//
2//00 333 00/// 20244 58008 81099=
48848 12565 70000 10247 20237 30075 40083 53005 69912 878//
333 00027 20236 3/024 59002 82895 87697=
48855 11570 72501 10248 20234 30074 40082 51013 60102 70262
82848 333 01027 20236 3/025 58007 81895 83499 87299=
48900 11496 80301 10250 20248 30065 40075 52013 60022 70262
8382/ 333 20244 59003 81894 83696 87499=
48914 41698 70000 10265 20256 30076 40078 53007 60142 70286
879// 333 02027 20250 3/025 59012 87696=
48917 11498 83205 10293 20259 30064 40069 52007 60012 70382
879// 222// 00295 2//02 333 01/// 20267 3//// 59016 83894
82995 87696=
48918 11470 72701 10286 20255 30072 40083 53015 69922 70382
8391/ 222// 00283 2//01 333 01027 20275 3/026 58001 81894
82995 87499=
48803 11460 83205 10213 20184 39979 40092 52011 69922 70262
888// 333 00021 20210 3/021 59002 84894 88696=
48808 32470 70000 10215 20204 39813 40093 52016 878// 333
00028 20203 3/021 59004 83894 87696=
48823 31996 20000 10262 20231 30079 40082 51018 71000 82040
333 00029 20247 3/024 58001 82399=
48830 31940 20000 10222 20212 39792 40095 52016 71011 80001
333 00025 20207 3/020 58000 82099=
48852 11560 71401 10246 20220 30069 40079 52009 69942 70282
878// 333 01026 20235 3/024 59002 82895 87697=
48916 32598 62304 10291 20251 30022 40068 53003 8223/ 333
01/// 20281 3//// 59006 82895 86399=
48919 32598 72307 10291 20244 30062 40084 52011 875// 22200
2//03 333 20277 59011 83895 86696=
48802 11460 80000 10144 20140 38408 53008 60042 76162 888//
333 01016 20143 3/016 58002 86894 88696=
48810 31440 70000 10220 20214 39891 40095 53014 71022 878//
333 00026 20219 3/023 59005 82894 87696=
48831 32470 20000 10247 20227 30041 40078 52015 82800 333
00026 20239 3/024 59003 81894=
48838 32998 03401 10252 20233 30085 40091 52015 333 00028
20228 3/021 58003=
48863 11498 83601 10242 20230 30063 40074 52010 60262 70262
888// 333 01026 20237 3/025 58001 85894 88696=
48907 32598 70000 10280 20257 30074 40076 53012 878// 333
01/// 20274 3//// 59003 83895 87696=
82400 22200 06073 10604 70019=
81202 22261 00281 20101 314// 40705 80232=
81408 22243 20402 319// 40604 5//// 80210=
50618 11980 73207 10062 20003 40042 52001 69901 70080 86032
333// 01266 79999=
50639 32980 72905 10199 20052 49948 52024 83032 333// 00352=
55228 32780 20000 10040 21091 36081 52006 82100 333 00002
31032=
55437 32980 20203 10038 21002 36383 52008 80002 333 05151
70009=
55248 32780 40000 11009 21118 35975 52002 81142 333 00001=
71894 36/// ///// 10118 30135 40144 58020 333 10135 20080 70000=
71906 11474 62608 10009 21045 30132 40182 52022 69941 70175 86500
333 10026 21005 41997 70076 90953=
61641 32458 43408 10214 20197 30115 40148 84500
333 0//00 58003 84613=
71051 46/// /0705 11038 21060 30027 40141 56003 333 11028 21095=
71603 11258 80104 10113 20109 30075 40127 51003 60011 76162
887// 333 10132 20080 70012 90926=
61968 36/// /1602 10268 20213 30120 40125
333 59014=
61970 36/// /1708 10265 20234 30139 40150
333 59010=
61972 36/// /1412 10240 20197 30179 40194
333 59017=
61976 11465 31414 10252 20196 40142 69921 725// 83800
333 59012 82818 924/7=
61980 32565 21212 10232 20153 40163 82800
333 59009 81820 924/7=
67005 36/// /1608 10270 20215 40135
333 59011=
68240 42960 02604 10110 20081 48580 56003=
91772 11498 80610 10280 20249 40095 69934 70228 8587/
333 20252 5619/=
91776 11499 60910 10277 20247 40104 60444 70122 8317/ 92330
333 20231 5629/=
91784 11498 70308 10258 20247 40098 60094 72522 8487/
333 20235 5619/ 82817 83640 87362=
91785 11599 70511 10282 2024/ 60084 70228 877//
333 20232 561//=
91786 11598 70403 10277 2025/ 40103 60084 70222 8573/ 92330
333 20250 5619/=
91792 11398 70210 10261 20245 40111 58012 60034 78082 8377/
333 20214 5689/ 83707 87462=
85586 32960 21202 10051 20042 40184 54002 81031
333 10140 56066 81363=
45011 32458 22007 10256 20234 40098 52012 82100
333 20244  58001=
65306 32960 52202 10284 20236 39764 40087 80002
333 59008 85076=
65319 33960 52204 10261 20226 39594 40102 80002
333 59010 85076=
65330 32960 51802 10261 20232 39675 40108 80002
333 59007 85076=
65335 33960 5//// 10258 20238 39879 40103 80002
333 59013 85076=
65344 31460 72212 10287 20240 30101 40111 71322 81932
333 59011 81612 81923 86076 94943 95813=
91487 31499 31106 10309 2026/ 40093 70120 82201 333 20245 562/9=
91490 31599 21104 10309 2025/ 40078 70200 81101 333 20259 562/9=
91601 31499 30907 10320 2026/ 4//// 70200 82101 333 20260 562/9=
91610 11498 41109 10311 20254 40092 58008 60021 71581 83202 333 20254
5
6
2
/
9
=
91623 31499 30818 10316 2025/ 4//// 70200 82108 333 20250 562/9=
91629 31499 51012 10320 2025/ 40097 70301 83201 333 20264 562/9=
91701 31599 10915 10316 2025/ 40081 70200 81100 333 20268 562//=
65361 32960 70000 10230 20230 39675 40111 80002
333 59024 87076=
65376 31960 72804 10250 20236 39652 40109 70292 80002
333 59020 87076=
65387 32460 72404 10280 20252 30088 40116 83202
333 59004 83810 87073=
89022 42598 80508 11171 21192 39906 49946 58030 885//
333 11168 21282 88620=
71443 17/64 /0811 10166 20077  69941 7//4/ 333 70004=
83377 21597 72310 10193 20172 38894 40144 71069 86720 333
10273 29074 55059 58016 60051=
83378 41570 60905 10208 20183 39004 48565 70252 83231
333 10293 58033=
83362 31465 81806 10210 20168 40194 70522 8652/ 333
10244 58029=
83766 32997 00000 10156 20145 39531 40194 51005
333 10210 29090 55035=
83767 32997 00000 10160 20138 39572 40213 53006
333 10205 29084 55058=
83768 32970 02102 10158 20148 39540 40200 51008 333
10190=
83811 32697 20902 10128 20115 39287 40187 51001 82060
333 10206 29085 55035=
83813 32597 20000 10116 20113 39082 40189 53008 82200
333 10181 29092 55010=
83836 32497 11803 10105 20041 39200 40187 51014 81100
333 10194 29064 55079=
83840 31158 71205 10119 20110 39174 40206 53013 71042
87600 333 10144=
83844 32597 82702 10176 20159 30203 40210 52007 8572/
333 10191 29084 55000=
83872 31595 42702 10132 20129 30148 40231 53015 71022 84400
333 10236 29084 55080=
83881 31996 01403 10100 20083 39939 40254 51010 71000
333 10180 29081 55080=
83883 32997 00000 10090 20075 39440 40223 52010
333 10154 29087 55031=
83887 32997 01406 10084 20038 39154 40230 52013
333 10136 29076 55049=
83899 32570 12210 10161 2//// 30221 40221 53019 81500 333
10205=
83907 32997 01404 10096 20065 39884 40282 53010
333 10176 29079 55051=
83912 32997 01804 10084 20050 39719 40287 52010
333 10/// 29081 55033=
83914 31596 32305 10086 20055 39450 40262 52010 71021 83600
333 10138 29080 55036=
83919 31496 60000 10046 20039 39042 40256 52008 71021 86500
333 10118 29088 55030=
83927 32997 01802 10090 20073 30139 40223 52007
333 10166 29084 55093=
83936 31996 32302 10094 20073 30142 40270 52012 71041 83030
333 10168 29080 55049=
83948 32597 21815 10132 20065 30192 40231 51014 82601
333 10196 29067 55///=
83953 32997 01802 10059 20028 39875 40268 51021
333 10168 29073 55085=
83964 32997 01802 10068 20036 39748 40264 52008
333 10143 29078 55078=
83971 32670 32007 10120 2//// 30249 40249 52017
83500 333 10175=
83980 32997 02302 10077 20038 39975 40272 52011
333 10121 29076 55090=
83995 32997 02302 10100 20088 30236 40240 54000
333 10150 29087 55094=
83997 32997 02304 10091 20052 30214 40259 51008
333 10151 29074 55082=
83612 32570 61504 10172 20099 39551 40188 51007 82530
333 10198=
83721 32570 71408 10157 20138 39441 40194 50015 87500
333 10209=
83722 31968 00000 10166 20150 39478 40169 53009 71011
333 10202=
83827 32970 01806 10128 20096 39938 40225 53015 333
10194=
83649 21470 60000 10230 20213 40178 51032 70262 82551
333 10314 69967=
83248 32470 21006 10269 20230 40154 82200 333 10292 59004=
83349 32570 50506 10260 20246 40144 83201 333 10304
58000=
82392 32996 03601 10248 20234 30022 40124 333 10320 29081 55102
58001=
82398 32570 31208 10280 20238 40126 83500 333
10318 59002=
82480 32995 01801 10252 20231 39939 40121 333 10326 29075 55104
59010=
82493 32995 00905 10261 20237 30113 40127 333 10325 29071 55102
59017=
82579 32970 00000 10272 20250 40117 333 10334 59006=
82583 32996 01804 10248 20211 39789 40126 333 10333 29069 55103
59008=
82599 32570 21305 10270 20256 40145 82200 333 10310 59004=
82683 32994 00000 10255 20202 39676 40126 333 10332 29061 55104
59009=
82686 32998 02302 10252 20223 39883 40129 333 10344 29070 55091
58003=
82693 32994 00906 10272 20188 39882 40135 333 10359 29051 55110
58002=
82780 32696 30902 10296 20196 39886 40136 82100 333 10363 29050 55104
59010=
82789 32994 00506 10236 20149 39018 40116 333 10296 29058 55105
59006=
82791 32595 50908 10284 20188 39847 40130 85200 333 10363 29048 55107
59005=
82795 32594 50904 10227 20199 39543 40160 84200 333 10303 29072 55093
59003=
82798 32596 61406 10276 20238 30145 40166 86200 333 10306 29077 55094
59002=
82886 32594 03605 10287 20190 39718 40096 333 10353 29053 55104
59004=
82893 32793 70917 10208 20196 39230 40126 87500 333 10293 29081 55092
59009=
82899 32570 31106 10290 20237 40147 83200 333 10336 59004=
82900 32595 20904 10269 20226 30130 40139 83200 333 10305 29076 55082
59004=
82975 32593 42705 10302 20210 39742 40120 84200 333 10356 29061 55084
59003=
82983 32995 00903 10300 20178 39692 40101 333 10356 29050 55106
59016=
82193 21570 30703 10268 20262 40116 70162 81101 333
10338 59014 69921=
82022 32570 41502 10292 20234 40105 81130 333 10342
59008=
82824 21250 80000 10230 20230 40118 76096 8452/ 333
10308 58015 60151=
71131 36/64 /2918 10229 20045 38855 40061 50004 333 70000=
71076 46/// /0711 10129 20049 39640 40021 56035=
71077 36/// /3210 10189 20028 39517 40027 333 10228 20109 70000=
80001 01570 70602 10275 20260 30125 40126 60011 72022 84206
333 10307 20270 57851 58006 60017 84820 83070=
80002 32570 80602 10282 20244 83106
333 10310 20264 83823 86070=
80009 31560 53504 10298 20247 30067 40072 70511 82806
333 10344 560/0 57002 82820 85270=
80022 01465 70802 10227 20236 30085 40087 69941 70522 82471
333 10314 56990 58017 69947 82615 85457=
80028 31460 60404 10273 20269 30078 40095 70511 86600
333 10344 561// 58012 86715=
80094 01462 73202 10217 20199 38806 60012 71362 85870
333 10264 5699/ 58001 60017 85817 83360=
80097 11568 81504 10274 20218 39747 40093 69907 75022 82278
333 10338 56246 57826 58007 82820 84358=
80112 31470 50000 10181 20141 37907 70522 83306
333 10234 560/0 57992 58002 83917 83070=
80210 01463 80702 10198 20185 38633 60141 70565 83870
333 10272 5699/ 58025 60037 83812 83358=
80214 31560 50000 10242 20211 70522 81131
333 10312 56000 81827 83070=
80222 41568 50804 10146 20116 37530 70552 83835
333 10193 56399 58001 83623=
80259 31460 63503 10244 20182 39042 70522 82830
333 10297 5615/ 58017 82817 85360=
80315 32566 20000 10293 20221 39565 40048 81850
333 10339 5604/ 58001 81830=
80398 32566 30000 10260 20244 30013 40108 82830
333 10320 5611/ 58008 82820=
83264 329// 00000 10251 20221 3//// 4//// 80000 333 10323
5////=
83309 31992 01806 10200 20176 39859 40188 71041 80000 333
10266 58025=
58011=
83358 325// 82706 10206 20182 39756 40160 885// 333 10270
58009=
83361 32595 81806 10202 20176 30003 40212 855// 333 10238
58028=
83405 319// 00000 10190 20166 30035 40170 71044 333 10257
58032=
83552 313// 60000 10183 20156 30020 40202 71022 86500 333
10209 29083 55003 58018=
83565 21/94 92302 10177 20173 39700 40180 70265 89/// 333
10232 29097 55000 59038 60021=
83618 3259/ 82302 10196 20083 39844 40222 5//// 70302 885//
333 10224 29062 55///=
83623 32996 00000 10178 20158 39579 40165 54006 333 10230
29090 55///=
83630 31191 82308 10167 20165 39061 40177 53012 74342 887//
333 10210 29096 55002=
83676 32994 02702 10170 20157 39568 40214 52008 333 10227
29091 55///=
29068 55071=
83716 32497 70000 10186 20143 39679 40178 53010 87500 333
10214 29077 55037=
83726 32593 52303 10160 20149 39211 41021 85030 333 10214
29090 55019=
83773 32297 82302 10156 20148 39192 40086 53010 885// 333
10187 29091 55013=
83821 21493 80000 10172 20169 30209 40214 51025 70252 887//
333 10192 29096 55000 69921=
71938 11574 80000 10016 20016 30107 40136 51002 69901 76162
886// 333 10035 21072 42012 79999 90917=
61415 32960 03614 10178 20147 30158 40163
333 0//00 58001=
61990 41470 31408 10220 20172 40168 70181 83800
333 59002=
61995 41470 11207 10186 20164 39680 70181 81200
333 59006=
61988 41470 51509 10234 20180 40135 70281 85800
333 59014=
61974 42570 21804 10246 20207 40111 82200
333 59016=
82863 21495 20000 10276 20252 39899 40108 71350 82300 333 10342
29081 55099 59011 69901=
83064 31698 40000 10269 20237 39846 40114 71322 84200 333 10338
29076 55055 58000=
83228 32797 60000 10268 20237 39852 40131 86900 333 10345 29054
55099 58008=
83235 31698 30000 10256 20221 39458 40120 74492 83100 333 10334
29072 55091 58002=
83332 32696 80504 10234 20189 39219 40117 885// 333 10310 29072
55056 58003=
83368 21697 20902 10234 20211 39780 40146 70362 82200 333 10313
29077 55009 58022 60021=
83374 32996 01408 10235 20191 39579 40149 333 10304 29069 5////
58020=
83376 32598 22702 10221 20182 39304 40118 82200 333 10322 29069
55081 58020=
83423 31697 51802 10222 20178 39343 40164 70541 83230 333 10269
29072 55/// 58029=
83470 32698 30000 10188 20175 3//// 4//// 83500 333 10/// 29089
55005 5////=
83522 32997 01802 10203 20180 39307 40165 333 10/// 29081 55013
58029=
83526 32597 51402 10202 20166 39212 40153 85100 333 10241 29076
55014 58022=
83550 214// 8//// 10230 20225 30131 40161 70269 885// 333
10329 29088 55045 58013 60501=
83695 326// 80000 10214 20195 30041 40180 5//// 885// 333
10240 29087 55003=
83718 325// 8//// 10190 20185 39596 40174 52212 70222 88700
333 10226 29092 55011=
83738 32/// 83209 10200 20183 39662 40165 52004 887// 333
10248 29085 55022=
76225 32660 60503 10246 20090 38600 40114 53011 86230 92350
333   10280 20153 30/// 56550 58007 84720 82340=
76382 32480 40402 10290 20146 38894 40088 57004 84200 90000
333   10318 20195 30/// 51061 56600 58018 79999 81812=
76845 32460 50000 10155 20132 37955 40145 54000 85700 92355
333   10190 20120 32/// 50260 56100 58004 70046 83730 82713
=
76593 32360 60504 10252 20209 30159 40175 57010 82570 92400
333   10270 20234 30/// 50460 5611/ 58018 70000 82620 82350
82450=
76726 01258 80102 10212 20166 38398 40099 57007 69921 72055
874// 333   10260 20150 31/// 50320 567// 58024 69927 70038
87606=
89050 21/04 93113 10000 20000 40216 52006 74584 333
60022=
89512 42984 11624 11126 21263 39745 49897 57008 80001=
89592 31660 81224 11086 21086 49868 57004 73632 885//=
89606 42971 62710 11593 21642 36294 47667 57010 80008
333 21620=
91652 36/// /2506 10281 20246 40101=
91659 11598 81405 10275 2025/ 40088 58011 60041 70282 8587/
333 20251 5629/ 82828 85650 88462=
91660 16/// /2006 10258 20246 40098 69945=
91676 16/// /2707 10276 20242 40092 60015=
91680 11599 70000 10284 20219 40101 58009 69924 70222 8587/
333 20225 5699/ 83825 85650=
91683 31599 70000 10276 20246 40105 58008 70122 8687/
333 20230 5699/ 85824 83650 86463=
91691 36/// /1504 10286 20277 40089=
91693 31598 71407 10289 2024/ 40111 58006 70222 878//
333 20226 563// 85824 84645=
91697 36/// /1608 10266 20245 40097=
91699 36/// /2308 10260 20252 40101=
38565 329// 00000 10165 20061 40126 57010   555 10012=
38413 42998 10702 10216 20047 39763 40140 54000 80001   555 10017=
48601 11560 73603 10269 20253 30081 40085 60044 70522 81242 333
20255 50240 59014 81820 87078=
48647 31460 70402 10270 20256 30056 40081 70522 82942 333 20260
50210 59010 81917 87078=
48657 11059 70000 10250 20241 30074 40092 69904 71082 83541 333
20240 50320 59004 81700 86079=
48665 31060 70000 10252 20249 30077 40087 71021 83942 333 20246
50240 59004 82700 81917 83364 86078=
96413 12075 70000 10242 20233 30078 40104 69974 81548 333 20230
50270 58008 81701 87278=
96421 12380 71405 10257 20243 30068 40104 60234 82541 333 20240
50630 55067 58007 81709 85365=
96441 31430 71106 10264 20247 30095 40100 70522 81131 333 20250
50430 55070 59002 81816 87080=
96449 32480 61608 10283 20249 30074 40094 81141 333 20250 50270
59005 81814 85080=
96465 32480 71503 10282 20257 30056 40090 81842 333 20260 50300
55018 59002 81815 83364 87080=
96471 12480 71205 10278 20225 30082 40085 60024 81842 333 20242
50430 59008 81815 83364 86078=
96481 32462 60000 10267 20243 30079 40102 82841 333 20242 50490
55067 58003 81817 86080=
96491 11470 72003 10264 20252 30089 40102 60414 70562 82842 333
20249 50510 55089 58010 81816 86080=
12550 36/// /9901 10080 20048 39796 40151 57005=
30433 32699 70702 10043 21008 39564 40141 57003 82531   333 21001
55016=
43418 32998 12307 10274 20242 39966 40054 80001 333 59007 81080=
43421 32498 12304 10264 20251 39967 40069 81100 333 59015 81818=
43424 32468 32307 10288 20260 30066 40069 83900 333 59018 83818
81920=
43436 32998 00000 10279 20255 30047 40050 333 59008=
43450 32466 52314 10288 20254 30065 40073 85101 333 59006 70074
85816=
43467 32459 2//// 10/// 20/// 30068 40073 82100 333 59010 82817=
43473 32998 02703 10150 20144 38131 48498 333 58001=
43497 32976 12308 10274 20257 30054 40071 80001 333 59001 81080=
40155 31559 40000 10182 20150 30036 40086 58011 71000 81220=
40180 31960 02102 10194 20138 30084 40088 57010 71044=
40199 31/30 /0209 10259 20128 30065 40068 51006 70542=
48310 11557 70000 10233 20230 39608 40056 60214 71060 83876
333 20221 58003 70206=
48325 01258 80000 10240 20228 39815 40058 60084 71062 886//
333 20235 59012 60085 70084=
48329 12560 80000 10250 20235 39719 40055 60024 84836
333 20237 59017 70017=
48352 32560 60000 10265 20236 39869 40066 84506
333 20261 59008=
48357 31556 70000 10257 20221 39907 40075 71021 82536
333 20246 59008=
48380 12560 80000 10250 20247 39979 40073 60024 84576
333 20246 59003 70017=
48403 01560 60000 10263 20247 39858 40066 69914 70362 83546
333 20259 59011 69916 70001=
48421 31559 30000 10237 20224 39959 40073 71000 82505
333 20233 59006=
48425 32960 62001 10270 20233 30052 40062 86031
333 20259 58008=
48426 32562 30000 10266 20250 30042 40055 82545
333 20264 59011=
48430 12560 50903 10268 20254 30049 40057 60044 82535
333 20248 59004 70044=
48450 32560 60000 10270 20227 30033 40066 82546
333 20258 58000=
48459 32562 20000 10293 20247 30058 40060 81131
333 20281 59008=
48465 12561 62202 10281 20231 30058 40062 69904 82846
333 20264 59009 79999=
48550 31559 60000 10277 20238 30069 40074 71022 81146
333 20260 59004=
48552 32560 40000 10256 20240 30065 40071 81145
333 20247 59003=
48566 32560 52811 10295 20267 30072 40080 82845
333 20245 59005=
48568 32461 91802 10266 20241 30066 40073 81131
333 20264 59004=
48315 11550 80000 10240 20236 39802 40071 60044 71022 84576
333 20235 59004 70043=
48413 11957 70000 10267 20253 39978 40058 69914 71022 83076
333 20264 59013 70001=
48416 01558 80000 10262 20248 39920 40067 60044 71091 84963
333 20260 59005 60047 70037=
48418 32960 30000 10262 20252 39998 40054 82052
333 20254 59006=
48460 32560 30000 10292 20231 30033 40064 81576
333 20282 59006=
48461 32562 60000 10283 20240 39990 40059 84836
333 2//// 59007=
48478 31559 60000 10290 20255 30061 40066 71022 82546
333 20280 59006=
48501 01460 80000 10253 20241 30067 40075 60434 72162 86877
333 20243 59004 60347 70430=
48561 01460 20000 10268 20255 30073 40077 69994 72110 81945
333 20259 59005 69995 70009=
48564 32560 40000 10283 20250 30069 40073 82245
333 20278 59003=
48570 11557 50000 10262 20252 30063 40070 69984 71000 81145
333 20246 59012 70008=
48580 31558 60000 10257 20241 30069 40076 71022 81146
333 20249 59005=
28978 42998 32301 10084 20021 39663 40138 57002 82041   555 10007=
28984 42599 60000 10125 20009 39672 40138 54000 86900   555 10010=
35173 42996 31802 10132 20009 39775 40136 57004 83070   555 10011=
41859 31940 00000 10255 20250 40039 70500 333 20252 59005 70000=
40703 32660 70000 10146 20092 38899 40112 58009 87300 92350 333
82935 86640=
40712 32660 30000 10146 20065 38675 40092 56014 83400 92350 333
83640=
40729 32960 30902 10100 20035 38352 0109 53001  0002 9+345
333 83 70=
40743 3296+ 00604 10250 21017 39016 40071 53003 92350 333=
40762 32965 00000 10162 21021 38547 40063 58003 92350 333=
40768 32960 01902 10120 20034 38271 40099 57007 92350 333 =
40769 32960 20000 10152 20017 38311 40083 55003 80001 92350
333 82070=
40785 32965 30000 10222 20116 39019 40058 51001 80001 92350 333
83070=
40809 32965 00000 10162 20003 38508 40055 53003 92350 333=
40821 32960 00403 10220 21009 38763 40049 53003 92350 333=
40831 32960 00000 10254 20080 30058 40066 57009 92350 333=
91366 12574 70812 10302 20235 30110 40114 58005 69904 81101 333
20267 562/6 58005 555 91400=
40102 36/// /2403 10097 20072 39076 48465 56010 900//=
23914 41940 80901 10100 20095 39731 49976 56003 76164 8807/=
23921 41471 83403 10057 20050 39906 40021 57010 72582 889//=
23955 32998 62303 10124 20032 30002 40061 57005 80001   333 20110
55081=
23966 32997 22001 10057 20028 39969 40090 57010 80001   333 20012
55064=
28255 42999 22205 10130 20086 39908 40030 53005 80001=
28440 42598 32505 10126 20045 39728 40058 52010 83500=
28661 42699 32304 10149 20081 39988 40076 53008 82301=
28722 42997 62001 10099 20076 39968 40093 53002 86031=
28748 42960 02504 10096 20056 39877 40108 52015=
29231 32998 02201 10127 20041 30042 40132 54000   333 20126 55103=
29313 32998 12204 10123 20019 30024 40140 57001 80002   333 20101
55129=
29612 32998 61502 10088 20035 30029 40175 53002 80004
333 20086 55144=
29634 32957 51702 10105 20040 39988 40202 57003 80001
333 20090=
29838 32997 20000 10053 20034 39995 40223 57007 82031   333 20040
55127=
36061 32999 20000 10027 21003 39839 40244 53001 80001   333 21005
55138=
23909 41296 83003 10048 20046 39751 49991 53006 78082 883//=
28116 41697 82704 10053 20044 39790 40015 52035 72582 889//=
28419 42597 82104 10100 20080 39940 40063 52006 8632/   333 85622=
28621 42998 62104 10114 20081 39862 40083 51003 84031=
29023 32998 82003 10114 20040 30005 40097 57002 80001   333 20086
55052=
29122 32999 02104 10129 20021 30042 40113 58009   333 20126=
29328 32998 22103 10110 20025 30036 40169 54000 80001   333 20106
55118=
29348 32997 62502 10138 20053 30030 40168 54000 80001   333 20128=
29405 32997 31903 10125 20009 30003 40142 57010 81041
333 20114 55145=
29418 32998 21804 10105 20029 30010 40163 57003 80001
333 20083 55138=
29430 32998 02201 10103 20034 30017 40186 58001   333 20102 55136=
29524 42984 61803 10113 20019 30023 40178 57001 80002   333 20107=
29605 32998 62103 10124 20010 30021 40156 57006 80001
333 20115 55134=
29631 32997 41903 10102 20068 30018 40196 57002 80002
333 20100=
29706 32999 51604 10093 20041 30031 40172 57003 80001
333 20078=
29736 32997 80000 10032 20022 39980 40228 54000 80001
333 20020=
29937 32997 00000 10073 21005 39988 40203 57002   333 20070=
36034 32998 80000 10044 21010 39929 40200 57002 80002   333 20043=
16641 11560 50000 10164 20120 30115 40120 51005 69911 70262 84850
333 82825 83635 85357 90730 91110 555 40000 47618 44215 50000 50140
60000 65555 60015 70000 77/// 7R///=
28216 42698 82705 10057 20036 39752 40025 52018 76162 885//=
28321 42584 82705 10073 20053 39846 40044 52029 885//=
28428 42578 82303 10101 20080 39889 40066 52010 85505=
28451 41598 22303 10122 20097 39899 40049 52013 70292 82050=
28537 42997 11802 10092 20067 39685 40087 52005 81040=
28541 41984 02201 10102 20065 39611 40082 52011 70281=
28615 42573 72104 10124 20084 39923 40071 52008 8597/=
28642 42997 22504 10111 20050 40091 52019 80001=
29557 32998 22106 10136 20016 39946 40199 54001 80001
333 20124 55113=
29625 32998 22002 10094 20020 30027 40198 53001 80001
333 20090=
29642 32960 81303 10074 20027 39903 40221 56001 80001   333 20063=
29813 32999 81402 10101 20024 39996 40191 57001 80001
333 20100=
29822 31996 00000 10054 20022 30049 40209 54000 71000   333 20046
55147=
29846 32997 22001 10462 20039 39848 40227 56003 80001   333 20045=
29915 32999 51502 10084 20011 30039 40193 57005 80001   333 20084=
36020   333 20055=
38262 429// 41402 10175 20077 30030 40107 57002 84050   555 10015=
30385 32999 70000 10067 21079 39972 40070 57013 80002   333 20007
55000=
30469 31699 80000 10020 20020 39360 40094 57005 72842 84442   333
21000 55000=
30650 32599 83602 10026 21013 39034 40114 57003 86901   333 20005
86995=
30664 32699 83404 10019 21025 39136 40095 58009 889//   333 20012
55029=
30781 32599 80303 10043 21004 39615 40067 52013 889//   333 20037=
30844 32599 62706 10040 21009 39202 40147 58003 86500   333 20019
86630=
30925 32699 82103 10047 21026 39250 40193 58002 86532   333 31001
55127=
31371 32699 83605 10112 20023 39731 49979 52011 83137 333 20086
55137=
31388 31996 50502 10150 20030 39703 49944 57001 70511 82042   333
20095 55141=
31478 32984 00904 10139 20015 38978 49982 57004   333 20095=
31655 32999 00504 10126 20053 39989 40029 52003   333 20111=
31754 32999 50000 10210 20085 39576 40031 58012 80001   333 20003=
30965 12699 73509 10042 21016 39275 40073 52007 60012 83342   333
20025 55117=
36974 42798 60902 10079 20074 38013 48547 56002 85902=
38345 42998 00901 10111 20067 38810 48515 58003 555 10007=
16415 36/// ///// 1//// 2//// 30114 4//// 52001 333 55000 2////
555 2//// 3//// 4//// 5//// 60000 1/127 20110 31110 411// 50010
60000 7////=
21432 32498 60805 11090 21124 30198 40208 52014 86500 333
21121 48028 55177 86617=
21824 11458 83203 11059 21070 30184 40193 52014 69982 77173
885// 333 21077 48006 55000 88611=
21946 11296 80310 11081 21104 30001 40080 52023 60010 77173
886// 333 21085 49045 55019 88706=
25123 12498 71801 11014 21062 39930 49962 52014 69940 82532
333 21060 43004 55000=
25173 42999 61002 11027 21035 30011 40015 52013 82031   333 91105=
31054 32999 82801 10039 21094 39853 40134 57003 80007   333 21047
55101=
25563 42599 71217 10012 21020 39921 49997 58004 82581   333 91120=
25551 41596 81403 10010 20010 39907 49937 53002 77187 85570=
26898 41959 03002 10025 21011 39845 40112 71011=
26997 41961 03102 10028 20001 39910 40131 52008=
27595 41697 22005 10106 20092 39907 40044 52002 70186 81530=
27612 412// 83302 10032 20027 39881 40073 58002 76162 8872/=
27703 41564 83104 10040 20028 39830 40076 58002 70282 8453/=
27707 42966 03203 10028 20004 39807 40100 54000=
27719 41397 82402 10042 20035 39820 40068 53001 76166 8872/   333
87708=
27786 41997 22102 10096 20088 39902 40057 53008 70281 82030=
27906 42997 03003 10006 20003 39861 40104 52006=
27928 41458 82903 10047 20030 39870 40074 52007 71062 875//   333
87619=
27947 42697 72505 10070 20055 39891 40047 52013 86530 333
86633=
27962 42997 60000 10065 20056 40048 51001 86030=
27983 42965 32103 10121 20105 39943 40066 54000 82031=
28711 41597 82103 10107 20093 39724 40083 53009 76162 885// 333 83630=
28807 41995 70000 10118 20114 30033 40082 57005 71082 87030
333 91112=
34009 42997 03103 10023 20015 39804 40109 52003=
34123 42575 82703 10057 20028 39891 40073 52007 885//   333 88625=
34152 42970 03202 10082 20059 39871 40062 53014=
34172 41960 82102 10113 20107 39880 40066 55006 70282 8807/=
34186 42978 71503 10127 20085 39949 40081 58002 85031=
34247 42571 73303 10080 20038 39967 40079 52011 87500   333 87623=
34336 42598 73002 10089 20051 39990 40091 52012 84330=
34391 32997 41601 10122 20109 30052 40082 58005 80002=
35121 42977 30901 10102 20064 39985 40127 52004 80001=
22113 42584 81702 10044 20027 39983 40045 57004 885//   333 91002=
22217 41396 82701 10031 20026 30010 40040 57003 78082 889//   333
86707 91003=
22235 42681 71002 10026 21030 39876 40069 57007 87500   333 91003=
22349 42599 80603 10021 21007 30084 40096 56002 8655/   333 91004=
22408 42499 70000 10045 20035 39897 40044 57005 875//   333 87611=
22602 42476 61702 10042 20025 39821 40042 58003 86900=
22721 42499 80000 10031 21004 39976 40076 57004 8395/=
22802 42984 60000 10025 20017 30052 40075 57008 86030=
22820 42584 32202 10023 21040 39947 40086 57004 83500=
26059 41597 81502 10067 20044 30043 40066 57014 78081 999//=
26063 41597 81902 10085 20021 30071 40078 57012 70282 885//=
26094 42981 00000 11024 21027 30018 40095 58006=
26258 41467 81802 10065 20058 30030 40085 57017 70282 889//   333
88918=
26298 42597 70000 10043 20012 39873 40101 58001 87500=
26477 42970 00000 10054 20016 39976 40103 57006=
26585 42497 80000 10044 20002 39843 40115 52001 883//=
26702 41996 21601 10091 20062 30075 40101 57006 71000 80001=
26781 42997 03301 11000 21018 39827 40122 52002=
27402 42997 73101 10049 20027 39907 40085 54000 8703/=
22028 42581 61702 10024 20008 30034 40070 53009 84930 333
91002 91111=
22106 42598 81001 10034 20011 39962 40040 58005 889//   333 84922
91002=
22127 41397 71403 10005 20005 39860 40061 58008 78582 86900   333
85709 91004=
22324 41499 81204 10019 20019 30002 40051 57010 72582 889//   333
91006=
22621 42998 82103 10058 20010 39931 40069 56001 85076=
22831 42998 00000 11026 21046 30029 40089 57006=
22892 42998 71706 10078 20043 30051 40067 57007 87030=
26275 42998 62001 10043 20006 30069 40099 57009 82031=
26389 42997 52301 10032 20000 39839 40102 57003 80001=
26882 42982 20000 10006 21023 39839 40117 58008 82030=
25703 32799 73602 11009 21139 39773 40034 52002 82330   333 21050
55034=
25913 32999 12702 10011 21057 39867 40011 52003 81200   333 20000
44003 55112=
25954 11598 82604 10014 21015 39891 49895 58001 60050 78582 8697/
333 21006 43016 55000=
31088 32999 33603 10052 21066 30051 40058 51003 82051   333 21003
47015 55145=
31829 32997 20503 10051 20034 30033 40065 52001 80002   333 20023=
31873 32998 82303 10208 20089 39934 40054 53014 86077   333 20184=
31909 32999 80000 10132 20062 39990 40063 52002 81039   333 20046
55124=
31960 31997 21903 10140 20077 39867 40089 53002 70400 80008   333
20090 55116=
32053 32998 60103 10042 20000 30058 40100 52003 80001   333 21006
41998=
32061 31497 83203 10060 20051 30056 40093 55000 70254 889//   333
20024 85919=
32098 32998 21602 10071 20041 30082 40092 51002 80001   333 20031=
32150 31997 01305 10161 20065 30071 40099 57011 70240   333 20043=
32165 32999 02002 10085 20034 30076 40136 54000   333 20051=
32215 32972 61502 10065 21012 40072 52018 82018   333 20004 42003=
32389 32699 52708 10090 21014 39930 49965 53001 82130   333 20038
55009 91012 91114=
32583 32999 72909 10093 21012 39972 40001 51001 80001   333 20054
91012 91113=
32618 32698 22905 10053 20007 39937 49959 52010 81101   333 20019
41998 55000=
16098 32960 00000 10124 20121 30094 40145 51002 92345=
40250 31958 83505 10200 20099 39311 40058 57005 70622 80008 333
84070 84270=
40265 32960 53104 10166 20110 39335 40090 54002 80002 333 85070=
40296 31958 60000 10274 20157 40126 54000 70622 84022 333 84460=
40310 32960 30000 10214 20055 38898 48469 57004 83030 333 83360=
40255 32960 00000 10168 20132 39393 40081 57009=
40260 31920 53110 10210 20108 39328 40071 51002 70700 80004 333
85070=
40270 31/02 90000 10176 20129 39210 40064 57004 70600=
40272 31930 53405 10180 20103 39264 40054 57017 70622 80001 333
85070=
40340 31905 03416 10256 20208 40053 52004 73033=
31329 32999 20702 10106 20006 39367 49993 58013 80001 333 20024
55127=
28049 31//4 /2103 10083 20081 39855 40055 40012 57002 74542=
28144 41424 80000 10099 20095 39868 40017 57001 72511 85337=
28319 41499 82607 10092 20068 39896 40054 52013 70262 885//=
28334 41599 72305 10119 20071 39754 40042 52011 70182 87300   333
87920=
28434 42998 32303 10110 20080 39822 40067 52012 80001=
28552 42997 02503 10136 21076 39969 40075 52018=
28825 42997 21801 10088 20076 39951 40118 52007 80001=
29111 32999 12204 10123 20027 30018 40101 57007 80001   333 20123=
29209 32998 12003 10125 20009 39999 40119 57010 80002   333 20121=
29602 32999 11604 10103 20042 30029 40164 57004 80001
333 20089=
29636 32998 61302 10088 20035 39996 40207 54000 80001
333 20078=
29654 32999 50601 10079 21007 39635 40228 57004 80001   333 20058
42998=
29712 32998 01704 10104 20035 30061 40199 57007
333 20057=
29724 32999 20000 10097 20018 30007 40207 57001 80001
333 20070=
29726 32998 20000 10057 20022 30047 40213 57002 80001
333 20042=
29814 32999 81402 10112 20038 30049 40190 56001 80005
333 20093=
29827 32997 20000 10063 20056 30046 40203 58012 80001   333 20060=
29923 32999 10000 10020 20004 39938 40210 57005 80001   333 20020
55144=
29939 32998 10702 10082 21002 39843 40118 57002 80001   333 20049=
35026 41995 00000 10042 20033 39536 40162 52007 71000=
35037 42999 03103 10089 20067 39730 40138 52010=
36021 32999 01601 10043 20018 30018 40196 57003   333 20041=
36022 32998 80302 10044 20002 39945 40201 56003 80001   333 20018=
36038 32998 60000 10027 20003 39780 40217 53002 80001   333 20019
55137=
36058 32999 00904 10022 20000 39743 40260 53005   333 20022 55130=
29274 11982 60902 10045 20045 40177 58015 69942 70162 80009   333
20029=
29363 11999 72104 10080 20062 40102 57023 60022 70282 82031   333
20057=
29467 32998 32405 10133 21002 40183 57002 81039   333 20118=
29477 12898 72301 10104 20065 40177 57008 69992 86031   333 20080=
29576 32698 62303 10112 20015 40186 57011 81231   333 21087=
29587 11598 70000 10080 20058 40198 58004 69962 70262 85742   333
20073=
29756 32999 01501 10102 20004 40243 57001   333 20065 55104=
29962 32999 20000 10073 21002 40248 58005 80001   333 21003=
30157 32998 81401 10026 21033 39854 40131 57010 82042   333 21008=
30439 32599 70401 10030 20009 39592 40156 53001 87900   333 20011=
30537 32598 82705 10055 21019 39585 40142 57009 889//   333 20048
55046=
30713 11498 82603 10040 20030 39553 40187 54000 60012 78082 8597/
333 20020 85914=
26446 41444 82001 10062 20046 39918 40109 57009 78182 889//   333
88916=
48375 11558 70000 10248 20235 39826 40051 69934 71011 84536
333 20240 59012 70003=
48431 12560 50000 10262 20237 39854 40066 69944 83835
333 20257 59006 70004=
38656 42998 00000 10240 20057 39985 40087 57003 555   10020=
38392 42997 21003 10199 20071 30017 40115 58001 80002 555
11017=
38647 429// 230000 10223 20103 30045 40086 57003 80001 555
10019=
38880 42999 02702 10204 20105 39849 40090 55000 555   10018=
48455 32563 30000 10286 20231 30059 40064 81245
333 20265 59004=
48383 32560 70000 10259 20226 39912 40070 83536
333 20250 58003=
48405 31556 50000 10258 20232 39902 40065 71010 82536
333 20252 59002=
21802 11499 82603 11111 21131 30190 40214 52006 69902 70272 885//
333 21150 44038 55095 88610=
24125 32999 81003 11021 21122 39905 40183 52010 80001   333 21049
43019 55177=
24266 32599 83205 11026 21087 39993 40167 52011 86901   333 21061
55028=
24343 32699 23403 11032 21110 30074 40192 52008 81501   333 21090
42001 55077=
24382 11598 83106 11030 21084 39842 40089 52009 69900 78582 8597/
333 21041 55108=
24639 32999 01101 10043 21028 30019 40167 52004   333 21048 55146=
24641 32999 03401 10050 21061 30033 40171 52005   333 21053 55138=
24652 32999 03107 10000 21061 30037 40158 52001   333 21049 91011
91112=
24656 32999 02202 10021 21130 30041 40141 52007   333 21041=
24688 11699 73206 11033 21145 39185 40081 52011 69960 70283 87900
333 21047 47003 55136 91010=
24724 32999 61103 10005 21092 39631 40149 54000 80001   333 21046
44094 55161=
24738 42999 00000 10015 21063 39984 40061 58001   333 21055 55155=
24768 32999 23304 10005 21101 39906 40134 52007 80001   333 21041=
24923 32999 80601 10025 21065 39845 40143 57006 80001   333 21058=
24951 32999 20000 10007 21088 30021 40170 58005 80001   333 21031=
24959 32999 03305 10034 21083 30020 40145 52004   333 21044 55114
91010 91110=
24966 32999 22904 10023 21087 39918 40129 58005 80001   333 21036
55158=
25400 11598 83007 11025 21067 39977 40031 52002 69900 78582 8697/
333 21047 55116 86920 91113=
30054 32998 73601 11001 21031 39904 40141 57006 80001   333 21028
41998 55156=
30393 11426 80405 11008 21027 39082 40102 57010 60032 78682 889//
333 21021 43003 88910=
31004 32999 80503 10016 21084 39326 40142 53002 86037   333 21021
55032=
43019 55177=
41998 55156=
28679 42999 71803 10120 20050 39935 40105 57002 82031   555 10009=
28766 42598 32001 10129 20102 39909 40088 57002 83500   555 10010=
28879 42997 81905 10157 20059 39847 40117 57004 8807/   555 10013=
28966 42598 72502 10125 20076 39847 40116 52004 87500   333 87695
555 10010=
29807 42997 01502 10103 20023 30056 40170 57004   555 10008=
35067 42998 50000 10131 20076 39855 40117 53004 85070   555 10010=
35078 42998 51702 10111 20030 39769 40130 57004 81082   555 10007=
35085 42999 61802 10096 20011 39694 40152 53001 86030   555 10007=
35188 42998 61402 10092 21012 39741 40159 53004 82031   555 10007=
35746 42998 10000 10160 20122 30045 40121 53011 80001   555 10014=
35849 42598 42001 10160 20113 30040 40121 52005 82302   555 10014=
35925 429// 21401 10165 20103 39978 40073 57005 82040   555 11014=
35953 42999 20000 10162 20133 30008 40129 52002 80002   555 10012=
35969 425// 809// 10198 20051 39984 40147 54000 83941   555 10017=
36003 42999 01601 10085 20029 30028 40178 57008   555 10006=
38001 42997 20000 10194 20166 30091 40053 57011 82030   555 10017=
38062 42998 30000 10190 20071 83040   555 10016=
38069 42997 51002 10188 20090 85050=
38232 42998 00000 10205 20067 30001 40092 52003   555 10017=
34560 41497 80000 10119 20106 39925 40085 53008 78082 8437/ 333
84916=
34824 42597 63201 10129 20094 30076 40082 57001 86400=
34858 41558 60000 10142 20118 39970 40073 53008 71022 8337/=
34880 41996 50502 10139 20121 40066 57008 80001=
37018 41598 81405 10162 20145 30020 40068 58001 78098 889// 333
88920=
37054 42698 42703 10103 20089 39696 40071 52005 82530=
37472 41518 82703 10142 20138 30062 40040 52004 71022 886//=
30493 11960 70402 11009 21009 39050 40070 57007 60132 77187 8707/
333 21017 44019 55000=
34240 42970 82706 10081 20056 39935 40068 52007 86031=
34357 41498 80000 10126 20103 39916 40069 53001 72582 883// 333 88910=
34363 42998 82503 10144 20089 39928 40069 58001 8807/=
34545 41698 70000 10119 20110 39969 40076 57002 72582 875//   333
87650=
34579 42979 50000 10121 20078 30037 40078 57008 80002=
34655 32597 80101 10126 20117 30036 40083 53003 70292 83530=
34759 41497 82402 10130 20117 39952 40078 53005 78081 889//=
34838 41597 80501 10121 20113 39988 40081 54000 78082 889// 333 88920
88920=
34929 41236 83402 10119 20115 30041 40082 56002 78082 889//   333
86703=
34954 42598 70000 10138 20127 39909 40075 53003 875//   333 87627=
37031 41597 82901 10145 20128 39894 40082 52003 70382 889// 333 88920=
37085 41992 00000 10138 20129 30087 40062 58002 74641=
37145 41/93 92702 10118 20118 39901 40063 52010 74741=
37171 41796 70802 10147 20138 40072 58011 71382 87900=
37228 42997 52902 10124 20073 39261 40062 52004 85070=
23226 42278 82205 11010 21026 39923 40138 52006 885//
333 86704=
23606 42962 80305 10011 21049 39908 40079 57009 80001=
23701 42899 80203 10018 21051 39951 40080 57005 83045=
26167 41959 82203 10057 20045 39980 40091 57012 76162 8802/=
27857 42997 72102 10083 20077 39868 40026 58010 8705/=
28909 42999 72203 10122 20094 39997 40092 58004 87030=
37061 41956 20000 10117 20107 39905 40066 52002 71000 82030=
84200 22253 00270 20402 30000 40000 50000 6//// 80230=
81200 22213 02280 80260=
54539 32670 72203 10192 20133 30074 40088 52013 874// 333//
00051=
54026 11680 72905 10216 20044 39698 49996 52021 69901 78000
86902 333// 00557 79999=
54134 32670 62009 10244 20114 40007 52011 82102 333// 00353=
91520=
58001=
91843 31599 51011 10266 20207 40172 56011 70222 84101 333 20236 562/9
84824 85080=
83698 32/// 60000 10214 20204 30156 40170 50225 8608/ 333
10240 29094 55///=
67027 32980 01404 10230 20172 30128 40149 58007
333 0//00=
67083 32570 70606 10139 20123 38780 48551 57012 875//
333 0//00 87620=
67095 32475 42606 10200 20187 30172 40179 57011 84800
333 0//00 82817 83633=
61223 32960 33206 10285 20008 39786 40079 80002
333 0//00 58001 83075=
61226 32960 50000 10322 20051 39777 40058 80002
333 58007 85075=
61230 32960 00000 10327 20146 39815 40072
333 0//00 58005=
61233 32960 33602 10338 20078 3//// 4//// 80002
333 0//00 5//// 83075=
61240 32965 30000 10326 20104 39750 40060 80002
333 0//00 58000 83075=
61257 32960 33004 10337 20139 3//// 40097 80002
333 0//00 59002 83075=
61265 32965 50000 10316 20100 3//// 4//// 80002
333 0//00 5//// 85075=
61270 32965 52404 10355 20149 39719 40078 85040
333 0//00 59010 85365=
61291 32965 32010 10326 20195 39684 40080 83042 962//
333 0//00 59002 83362=
61293 32970 42212 10321 20212 39679 40076 80002
333 0//00 59002 84075=
61296 32970 62206 10307 20225 39708 40087 80002
333 0//00 59006 86075=
61297 32970 32208 10295 20223 3//// 4//// 80002
333 0//00 5//// 83075=
71865 36/64 /1214 10238 20129 39373 40029 333 10238 20088 70000=
61996 11665 7//// 10153 20137 40077 69901 760// 85500
333 59070 87640 92447=
61998 11460 62837 10023 20002 39668 49703 56056 69981 78086 86300
333 59251 83816 83920 91154=
63740 32470 21806 10156 20146 48508 81530
333 59012 81616=
71135 46/64 /2713 10283 20039 39013 40049 56004=
71858 17/64 /1209 10137 20048 39823 40099 58026 69921 7//4/ 333
70002=
48602 11564 60603 10263 20250 30083 40066 69904 70522 81132 333
20250 59031 81824 86078=
48603 32480 70000 10261 20253 30073 40078 82942 333 20253 50510
59011 81917 87078=
48618 31568 72003 10261 20251 30081 40088 70522 81532 333 20250
50400 59009 81624 84364 85075=
48625 31564 70000 10266 20260 30041 40086 71022 82542 333 20255
50360 59001 82628 87078=
48632 32/68 70101 10165 20162 38458 82132 333 20163 817// 87078=
48674 11058 72405 10244 20241 30041 40091 60024 71022 82832 333
20237 50250 59006 81700 87077=
48679 31564 50000 10241 20237 30045 40092 71022 81542 333 20241
50350 58000 81624 85080=
82979 32993 00000 10271 20194 39665 40121 333 10350 29055 55105
59009=
82986 32995 01413 10283 20210 39840 40123 333 10354 29058 55103
59006=
83090 32995 01406 10269 20197 39612 40127 333 10341 29060 55097
59007=
83096 32694 10906 10271 20241 30142 40149 81100 333 10297 29081
55098 59010=
83097 32994 01405 10259 20238 30116 40139 333 10334 29078 55095
58010=
83179 32992 03202 10260 20184 39660 40106 333 10353 29053 55106
59008=
83182 32593 21407 10269 20129 39303 40131 81201 333 10340 29047
55098 59003=
83186 32998 00909 10261 20164 39593 40126 333 10335 29058 55088
59002=
83190 329// 00906 10248 20221 39740 40154 333 10333 29067 55081
59006=
83195 32993 00906 10245 20223 39911 40146 333 10314 29074 55091
59007=
83229 329// 00501 10259 20237 30089 40149 333 10294 29082 55063
58002=
83236 32597 60000 10258 20217 39627 40113 86600 333 10354 29069
55086 59005=
83242 32995 00000 10240 20189 39642 40133 333 10332 29067 55094
58001=
83244 32994 00901 10244 20166 39839 40122 333 10328 29056 55084
59010=
83288 32995 02703 10291 20218 39642 40150 333 10371 29056 55102
58020=
83344 32992 00503 10227 20188 39153 40145 333 10314 29065 55099
59006=
83398 32594 53602 10251 20236 30144 40149 83540 333 10300 29083
55082 59003=
83408 21594 82305 10263 20209 39618 40114 70362 85903 333 10350
29064 55067 58006 69921=
82287 32595 20903 10249 20241 30068 40094 82100 333 10318 29085 55105
59011=
82784 32995 00000 10232 20198 39668 40135 333 10338 29068 55094
59007=
82882 32993 00000 10278 20248 39676 40087 333 10340 29073 55105
59008=
63705 31570 73203 10210 20196 38847 48502 70329 8497/
333 59008 84620 81922 87362
555 10200=
82024 32996 00904 10282 20262 30010 40091 333 10332
29089 55094 59017=
82042 32398 50000 10258 20255 86400 333 10335 29098
55087=
82106 32597 60000 10264 20248 39984 40082 86400 333
10355 29084 55070 58004=
82113 21396 82302 10246 20241 70381 888// 333 10329
29095 55037 60111=
82212 31598 50000 10272 20269 30043 40106 71322 85900
333 10334 29094 55079 58015=
82240 21995 00502 10276 20248 30098 40132 70280 333
10320 29085 55087 59005 69961=
82317 31396 30000 10288 20264 71300 82902 333 10340
29083 55080=
82326 21393 80906 10270 20243 3//// 4//// 72966 887//
333 10330 29084 55070 5//// 60031=
82331 21696 50000 10262 20250 30054 40136 70398 85020
333 10324 29082 55050 58000 60021=
82336 31597 61406 10264 20250 71322 853// 333 10322
29878 55039=
82533 31495 30000 10250 20247 30060 40116 71300 83300
333 10287 29096 55003 58000=
82610 21595 80000 10235 20226 70366 887// 333 10322
29092 55000 60061=
82704 21596 81402 10232 20229 39885 40080 72066 885//
333 10286 29097 55000 58034 60041=
82723 21396 61802 10226 20218 30050 40132 70266 86700
333 10308 29091 55051 58023 60151=
68174 36/// /1804 10076 20066 38868 48583 52058
333 10202 20068 91005 555 91028=
68242 36/// /0000 10098 20079 38821 48589 57006
333 10215 20096 91000 555 91028=
68262 32970 00604 10138 20093 38800 48605 57010
333 10248 20115 91006 555 91030=
68263 32970 00000 10087 20056 38577 48598 57009
333 10219 20087 91003 555 91030=
68350 36/// /3606 10110 20099 38745 48586 57008
333 1//// 20098 91009 555 91028=
68368 32982 03606 10087 20053 38390 48592 57010
555 91030=
68372 36/// /0000 10038 20037 38555 48614 57010
333 10208 20038 91003 555 91032=
68424 36/// /3408 10140 20080 39289 48579 57004
333 10280 20133 91008 555 91026=
68438 36/// /0000 10090 20075 38913 48588 57006
333 10245 20090 91001 555 91028=
68442 32/// /0000 10065 20042 38752 48596 57004
555 91029=
68461 36/// /0000 10050 20035 38418 48608 57004
333 10224 20050 91001 555 91031=
68512 32982 03606 10176 20082 39092 48578 57005
333 10257 20174 91008 555 91025=
68588 32970 03504 10183 20159 30222 40238 57009
555 91023=
68618 36/// /1106 10103 20065 39134 48571 57007
333 10260 20103 91008 555 91026=
68714 36/// /0000 10150 20100 30164 40201 57011
333 10302 20146 91003 555 91020=
68816 32982 00103 10180 20085 30142 40192 56007
555 91019=
68828 32/// /3504 10218 20058 39969 40193 57009
555 91020=
68842 32982 02806 10129 20064 30128 40203 57007
555 91020=
68858 32/// /3304 10159 20125 30072 40220 57007
555 91022=
93004 16/// /2125 10161 20122 40102 52001 60124=
93023 16/// /2110 10178 20123 40094 57002 60194=
93196 16/// /3014 10192 20156 40048 57009 60064=
93305 41599 32620 10160 20110 40077 58004 70200 83200=
93334 16/// /2604 10094 20080 39124 57005 60024=
93404 16498 /2811 10156 20119 40058 57004 60064=
93498 36/// /3021 10175 20099 40033 57005=
93527 36/// /2820 10175 20109 40051 57005=
93597 36/// /2015 10164 20111 40035 52006=
93615 16/// /0104 10146 20121 40062 52002 60064=
93678 36298 /2018 10117 20102 40051 52014=
93709 16/// /0000 10132 20107 40066 52004 60194=
93831 36798 /2205 10107 20049 40059 52004=
93896 31699 42728 10122 20066 40032 54000 70300 844//
333 84635=
93947 16/// /2016 10065 20065 49954 52005 60024=
93994 16/// /2805 10233 20195 40093 57004 69924=
64450 32960 62602 10255 20235 39747 40095 86030
333 0//00 58011 86363=
64459 11656 80000 10241 20230 39/// 40/// 60221 79596 8192/
333 0//61 5//// 81933 88462 94946 95876=
71400 36/64 ///// 10111 20075 30084 40213 53009 333 10143 20051
70007=
71472 36/// /1613 10074 30034 40051 58023 333 10081 20056 70000=
83783 32597 21804 10150 20129 39507 40192 53012 82200
333 10222 29086 55078=
82425 31395 81805 10270 20252 30064 40120 71320 887//
333 10334 29085 55050 59002=
82917 31350 72008 10211 20211 40147 71022 85631 333 10237 58038=
71194 36/61 ///// 10087 20075 30175 40190 53006 333 10106 20080
70000=
82586 32994 00504 10274 20217 39867 40103 333 10348 29061 55106
59006=
82689 32994 03203 10244 20197 39855 40118 333 10350 29075 55105
59002=
24988 32999 12501 10045 21098 39821 40062 52001 80001   333 21028
43016=
25378 41497 72003 10012 21030 30039 40072 51003 70272 87550   333
85638=
31174 11999 83602 10049 20027 30119 40130 52007 60020 70282 8807/
333 20018 41001 55000=
31263 32599 80704 10079 21012 39489 40037 57007 86904   333 20041=
31866 32998 00503 10063 20040 30053 40058 51001   333 20039=
31959 31997 81102 10098 20056 30020 40061 51001 70422 85204   333
20050 65127=
31989 32999 82401 10114 20058 30030 40082 50003 80007   333 20069=
32027 32499 72901 10028 20011 30094 40103 58003 88132   333 10008
41000=
32076 32598 73602 10027 20006 30093 40103 52004 87500   333 21013
44035=
32509 32999 52704 10119 20027 39949 49981 51007 83031   333 20037
42998 55033=
32594 31498 83202 10024 20014 30041 40076 52019 70242 883//   333
20002 42998 55///=
17237 11660 83202 10090 20080 40085 52007 60141 76366 8552/ 333
85638 88459=
35376 42998 60000 10095 20015 39772 40145 58004 86500   555 10006=
48532 01550 82103 10258 20246 30070 40079 60124 76062 8587/
333 20252 59002 60097 70125=
42027 21696 80901 10150 20116 38421 48506 70296 8452/ 333 58042 6995/
=
42101 32996 01404 10280 20208 49999 333 59005=
42111 22696 10242 20187 39275 40020 83530
333 58000 6990/ 83635 85360 =
42131 32996 02303 10320 20206 49992 333 58006=
42165 31996 02303 10300 20161 49993 70644 333 59006=
42182 31995 01604 10308 20195 49999 70500 333 58003=
42189 31595 50000 10254 20195 40017 70520 85400 333 59006 82830
83630=
42361 31996 00000 10318 20204 40002 70600 333 58001=
47058 32966 81101 10166 20067 30114 40159 54000 83032 333 20119=
47008 32560 30000 10198 20119 30040 40092 52011 83500 333 20121=
47014 32950 60000 10141 20106 39734 40116 58006 80001 333 20092=
47016 32970 70000 10143 20067 39312 40145 52011 80002 333 20076=
47020 32965 30000 10148 20089 39801 40163 58002 80001 333 20102=
47025 32968 40901 10162 20077 30071 40099 52033 80002 333 20105=
47035 32970 01802 10162 20097 30150 40158 52008 333 20110=
47041 31960 60702 10226 20050 30074 40099 58001 70540 80002
333 20150=
47055 32965 82301 10226 20030 30082 40125 58004 80006 333 20172=
47069 32965 60902 10168 20081 30068 40164 53012 80002 333 20123=
42314 32996 10000 10234 20200 40044 81030 333 59005 81360=
42410 31596 10000 10244 20229 40036 70500 81100 333 58000 81825=
42415 32596 20000 10230 20212 40035 81130 333 58001 81825=
42724 31995 50000 10244 20235 40046 70500 85030 333 58005 85360=
42809 31995 00000 10258 20246 40036 70500 333 58009=
42895 32596 33602 10274 20248 40030 82201 333 58012 82620 83075=
42971 31996 60000 10272 20228 40023 70522 84031 333 58013 84360=
23274 32998 69901 11083 21115 30127 40167 56002 83031   333 21121
47092 55162=
23678 11556 81302 11002 21014 30080 40138 57016 69952 78582 889//
333 21002 43017=
23884 11567 80000 10002 21004 30070 40143 57024 60042 78582 889//
333 21002 43010 55026=
23891 12698 82802 10022 21057 39840 40166 52004 69902 8391/   333
20016 42010 55015=
24507 11596 83001 10011 20003 39889 40120 52008 69962 71062 885//
333 20007 55013 88623=
24908 12581 83001 10035 20012 39813 40132 52012 60022 86931   333
20024 41998 55106 86921=
29263 32999 71201 10070 20046 30047 40144 57021 80007   333 20053
55052=
29282 32598 80000 10024 20022 30019 40185 52011 889//   333 20012
55045=
29570 32599 62206 10128 20013 39840 40168 58018 82901   333 20120=
29698 11596 83005 10065 20054 39713 40209 52006 60022 78182 86902
333 20060 55055=
29862 32998 01801 10060 20003 39929 40243 53005   333 20010 55090=
30521 11498 82701 10036 20036 39651 40170 53006 60022 78082 889//
333 20010 55097 85710 88916=
23973 11599 70000 10026 20005 30071 40132 57025 69902 70282 87900
333 20009=
23975 32999 02605 10052 21000 30012 40118 57031   333 20048 55130=
23987 11599 61003 10018 21023 30061 40134 57021 60012 70282 86900
333 20018 41001 55072=
29253 32999 82302 10100 20036 39963 40128 57020 83036   333 20043=
29471 11596 60000 10089 20074 39950 40168 57014 69962 71082 82930
333 20080=
29481 11599 72302 10086 20077 39945 40173 58010 60052 70282 87300
333 20075 12008 7005/=
29553 32872 52503 10118 21009 39832 40180 57001 82031   333 20110
55111=
29562 32998 22403 10106 20048 39792 40189 53001 80002   333 21101=
29581 11598 71502 10078 20074 39943 40191 58004 60032 78082 8595/
333 20065=
29594 11599 82702 10079 20055 39822 40193 54000 60052 72582 8392/
333 20066 55034=
29653 32697 71001 10059 20022 39751 40222 58005 84501   333 20044=
29675 32898 80000 10031 20002 39650 40232 54000 8805/   333 20026=
29676 32598 80000 10102 20019 39787 40192 53009 889//   333 20101=
29766 32999 21201 10063 21002 39903 40249 53007 80001   333 20025
55077=
29864 32999 03205 10044 20005 39609 40246 53001   333 20024=
29869 32999 20301 10050 20015 39884 40249 57002 80001   333 20008=
29956 32999 01701 10008 21018 38708 40268 53001   333 21016 55112=
30504 11598 72703 10057 20041 39583 40211 52013 60022 70182 82332
333 20047 55063=
30603 11598 83104 10070 20043 39646 40197 52011 60012 70282 82907
333 20070=
30612 11599 83107 10069 20036 39671 40184 52006 69972 70262 85937
333 20025 55085=
30622 11698 80000 10012 20009 39540 40171 56003 60022 70381 8392/
333 20005 42997=
43466 30498 32703 10289 20257 30068 40076 83101 333 59007 70035
83818=
42559 32996 52303 10310 20120 49998 82032 333 59007 82360
85070=
42667 32996 02920 10300 20161 39450 40016 333 58003=
42675 31596 11802 10314 20095 40007 70540 81500 333 58004
81630=
42779 32996 11403 10256 20169 39336 40017 81030 333 58001
81360=
42867 22996 23205 10330 20178 40006 82030 333 58008 6990/
82360=
42874 32996 52301 10284 20173 40011 81031 333 58019 81360
85075=
42934 22596 52307 10286 20197 40026 82530 333 58004 6014/
82630 83360=
43041 22596 51402 10246 20175 39425 40032 82531 333 58019
6001/ 82625 85360=
30499 11598 83603 10016 21000 39415 40049 58013 69962 70282 889//
333 20013=
30683 32699 83402 10064 20022 40024 58003 83557   333 20031=
30695 32999 83405 10100 21002 39679 49992 56001 82034   333 20051=
31253 11599 80703 10067 20015 39589 40023 57004 69942 70272 87900
333 20057 55049=
31295 32599 80302 10089 20046 39549 49983 54000 8233/ 333 20052=
31348 32999 00000 10051 21059 39912 40099 52010   333 21022=
31418 32999 00703 10107 20034 39847 40087 58008   333 20032=
31442 31997 83005 10128 20038 39606 49932 50001 70422 80001 333
20098 91110=
31445 31996 53003 10141 20064 39695 49927 52010 70511 85030 333
20125=
31474 32997 00501 10215 20048 39530 49961 58010   333 20064=
31587 32997 11805 10248 21111 39806 49935 52011 80001 333 20176=
31632 32998 00000 10176 20058 40023 54000   333 20098=
31713 31995 80702 10177 20117 39910 40003 52002 71011 86031   333
20121=
30455 32699 73108 10026 21068 38838 48416 57008 85432   333 20002=
30542 32599 60000 10060 21019 39455 40125 50000 84902   333 21001=
30549 32599 62702 11023 21055 38607 48406 57003 86900   333 21039=
30669=
30726 11996 81903 10011 20003 39624 40189 57002 60022 77376 8802/
333 20011=
30731 32999 82306 10033 21008 39576 40166 54000 8801/   333 20013=
30739 32699 82504 10042 21010 39356 40149 58003 83572   333 20023=
30741 11597 83202 11008 21030 38566 48453 53009 69902 78782 882//
333 21012=
30745 11699 32704 10015 21020 39019 40138 58003 69932 70181 82270
333 20008 55000=
30811 11998 80000 10014 20009 39365 40235 53004 69962 72362 8802/
333 21006 55061=
30822 11597 82807 10022 20012 39626 40197 57003 60022 78088 889//
333 20022=
30824 11596 82704 10038 20033 39634 40207 53004 60032 76186 8872/
333 20019=
30829 32999 81802 10046 21002 39522 40191 58002 8804/   333 20003=
30838 32598 82404 10030 21015 39217 40173 57001 86903   333 20018=
30846 32699 72505 10040 21047 39247 40126 52002 69902 70182 83533
333 20029=
30967 32599 83204 10058 20004 39296 40026 52009 8397/   333 20025=
31825 32999 22301 10185 20034 39863 40055 58011 80001   333 20047=
31845 32999 80000 10144 20098 39907 40059 51005 8653/   333 20060=
31878 32698 81601 10220 20078 39943 40056 54000 8245/   333 20178=
31915 32998 00000 10237 20126 39815 40051 58004   333 20126=
31917 32998 00000 10194 20110 39945 40072 51001   333 20108=
31921 32998 02202 10232 20146 39966 40055 50001   333 20122=
31969 32998 02502 10148 20086 30042 40088 57003   333 20101=
31981 32999 82503 10202 20084 39839 40055 58004 80001   333 20111=
31987 32999 00000 10192 20080 39943 40084 58003   333 20099=
32069 32399 83403 10068 20047 30084 40089 54000 886//   333 20017=
29456 32999 52103 10133 20023 40177 57003 80001   333 20133=
30862 12999 80705 10044 21023 39370 40078 52004 69902 86061   333
20010=
47003 32980 01408 10109 20085 30111 40115 52024 333 20099=
47005 32980 72301 10148 20040 38607 52001 80002 333 20087=
47022 32975 83603 10188 20038 38827 58004 80002 333 20080=
47028 32968 03601 10135 20106 30066 40158 53004 333 20089=
47031 32970 70000 10091 20043 38923 58007 80002 333 20030=
47037 32970 20000 10152 20094 30040 40158 53005 80002 333 20089=
47039 32960 20000 10126 20093 39989 40174 57013 80001 333 20077=
47046 32969 21802 10152 20076 30076 40099 53009 82030 333 20130=
47050 31556 20501 10146 20100 30117 40150 57004 71040 80002
333 20095=
47052 32965 80000 10137 20078 39832 40168 57007 80002 333 20068=
47060 32960 80903 10156 20078 30098 40154 53003 88030 333 20136=
47061 32980 60502 10219 20038 30082 40123 52004 86030 333 20172=
47065 32965 81401 10173 20073 30103 40165 58001 8803/ 333 20116=
47068 32970 80902 10168 20100 30120 40154 52002 80002 333 20114=
47070 32970 80000 10148 20065 30084 40168 53003 80007 333 20096=
47075 32575 70000 10133 20038 39757 40172 52005 85502 333 20062=
23472 32998 70701 11026 21091 30096 40144 57012 80001   333 21070
48111 55137=
30764 32999 83202 10048 21040 39313 40076 58005 86039   333 21007=
30957 32699 73308 10052 21026 39252 40113 52008 83942   333 20043=
26141 42497 82503 10053 20031 40064 57011 885//   333 88618=
42647 31996 02305 10282 20229 40054 70500 333 58007=
42737 32496 22305 10264 20255 40047 82600 333 59004 82710=
42840 32596 32303 10274 20242 40058 83500 333 58003 83622=
43003 31595 30000 10280 20243 40071 70510 83800 333 58001 83620=
43063 32996 02705 10234 20199 39456 40076 333 58002=
43110 32596 53601 10268 20227 40081 85500 333 59001 85620=
43192 32996 33603 10268 20236 40073 80002 333 59005=
24856 32999 03304 10032 21072 30007 40151 52002   333 21088 55141=
30686 32998 83405 10072 21012 39670 40022 58004 87072   333 20050=
30777 12598 83602 10035 20006 39440 40068 51003 60022 887//   333
20029 55103=
30961 31699 83306 10050 21033 39322 40074 53009 70232 885//   333
20038=
30978 32599 83207 10088 20009 39382 40023 52015 8235/   333 20021
88622=
31513 31996 83407 10175 20110 39715 49919 53009 70522 80001 333
20169=
31832 32598 81805 10199 20067 39949 40027 58006 8532/   333 20187=
24982 32999 03302 10030 21106 39576 40057 51003   333 21076 43043=
31913 32999 52701 10255 20112 39945 40045 52005 80004   333 20150=
31939 32998 81801 10198 20102 39782 40080 51003 80009   333 20107=
32121 32998 02108 10103 20062 30064 40086 52003   333 20020 91011
91112=
32128 32998 22106 10128 20058 30046 40099 51003 80003   333 20073
41998 91012 91114=
98653 31470 21502 10290 20251 40115 52016 70544 81201
333 20250 56999 58016 81818=
98741 31460 20000 10261 20246 40090 52008 70544 82200
333 20210 56999 58000 82818=
98747 11470 20000 10246 20237 40111 52021 60024 70544 82201
333 20227 56999 58024 70022 82818=
98755 31470 21202 10281 20259 40114 53023 70500 82903
333 20240 56999 58015 81920=
98836 31565 30301 10280 20246 40111 52017 70544 81201
333 20252 56999 58010 81820=
43128 21596 80505 10318 20221 39439 40024 76062 8592/ 333 57912 58004
6990/ 84620 81930 86458=
43185 31596 41406 10300 20243 30029 40032 70511 84400 333
58038 82825=
43189 32996 72303 10286 20231 30024 40033 84432 333 58030=
43198 32996 22303 10204 20179 39252 40078 80001 333 59001 82075=
43201 32597 32708 10216 20195 39351 40071 81532 333 58009 81620=
43213 32996 32504 10290 20202 39729 40040 83030 333 58002=
43233 32996 12316 10222 20207 39258 40062 80001 333 58001=
43237 32596 22710 10260 20199 39674 40064 82500 333 58000
82630=
43245 32596 62706 10324 20228 39996 40018 85530 333 58006=
43279 32996 01803 10294 20236 30009 40026 333 59007=
43295 32596 42505 10224 20194 39063 48475 81530 333 58000 81622
83360=
43314 32596 10903 10276 20250 40074 81100 333 59007=
43321 31496 40000 10252 20228 39616 40058 70522 81501 333
59009 81615 83070=
43329 32996 22002 10278 20237 30017 40030 80001 333 59002=
43344 31996 22510 10282 20220 39952 40051 70500 80001 333 59005
82075=
43353 32496 39902 10272 20264 40084 82801 333 56709 58002 81616
83075=
43369 32596 40000 10284 20262 40080 83401 333 58001 82620=
43371 32996 33402 10264 20250 30004 40077 81031 333 59008
81358 83075=
30971 32699 83603 10036 20021 39104 40045 52007 885//   333 20021
11004 31003 50186 53011 7000/=
29551 32997 52205 10134 20115 30022 40190 54000 82031
333 20108=
40394 32962 00000 10320 20300 38975 48475 333 59029 555 04410 50046=
41530 11696 72716 10320 20155 49978 70599 6990/ 83330 333 56990
58005=
59004 60087=
41620 329// 00000 10265 20017 38515 48420 333 59011=
41624 329// 00502 10310 20188 39769 49959 333 59003=
41640 31995 00000 10307 20217 39753 49990 70500 333 58005=
41660 319// 00000 10183 21033 38348 48440 70500 333 59015=
41675 319// 01808 10325 20176 39818 49953 70500 333 59019=
41756 329// 02302 10285 20264 39925 49985 333 59017=
41764 329// 02114 10275 20239 39952 40000 333 59005=
41780 325// 52710 10290 20255 39984 40011 85600 333 56900
59016 85720=
42103 32996 01402 10278 20195 40002 333 58001=
43181 32596 60905 10300 20240 30018 40045 83502 333 58044=
43221 21596 60506 10326 20271 30017 40030 70362 84431 333
58024 6001/=
43311 32596 30000 10290 20259 40079 83800 333 58004 83620=
43360 32997 23203 10286 20224 39904  40050 80001 333 59010=
31285 32699 80204 10062 20011 40099 57006 82489   333 20040=
31561 32998 00205 10121 20006 40062 58006 20076 91110=
32010 32997 71502 10043 20009 40111 58006 87030   333 20016 42998=
22522 41699 81902 10064 20046 30045 40054 57005 72162 885//   333
88643=
22550 42997 21002 10012 21026 30096 40106 53001 82030=
22583 42985 60000 11013 21050 30036 40017 54000 80002=
22768 42997 10000 11004 21022 30031 40088 58002 80001=
22845 42698 70000 10008 21015 39936 40093 58004 87500=
22887 42978 29901 11003 21037 30001 40072 52004 80001=
23205 42498 80802 11023 21045 30135 40150 57004 885//   333 88618=
23219 42498 83603 11011 21018 30032 40138 53006 886// 333 88714=
23418 42970 50203 11019 21042 30045 40119 56002 85030=
23711 41467 80403 10037 20008 39985 40056 57011 78082 8697/ 333
86919=
23804 42498 80102 10044 21014 39906 40051 53004 8657/ 333 86617=
27037 42598 83502 10043 20015 39925 40085 57003 8295/=
27199 41998 83501 10028 20023 40060 54000 70262 885//=
27271 41996 33401 10008 20005 39910 40065 54000 71011 82031=
27459 80804 10059 20057 39842 40033 57002 75162 886//   333 88705=
27730 41468 83003 10034 20027 40033 58007 78082 839//   333 88912=
22676 42882 13102 11013 21035 30022 40101 58004 81040=
22837 42884 10000 11004 21028 30030 40101 57001 81040=
22954 42998 53501 10028 21024 39842 40090 57001 85040=
23405 42980 40303 11010 21039 30029 40129 57005 80001=
23412 42498 80204 11012 21029 30038 40135 57002 883//=
23803 41597 83302 10021 20008 39848 40025 56012 78022 889// 333 88923=
27066 42998 22801 11018 21044 39894 40174 52006 80002=
27083 42599 60000 10033 20028 39837 40057 54000 86500   333 86625=
27113 42997 60000 10023 20013 39944 40090 58001 86030=
27242 42899 80000 10041 20021 39945 40072 54000 8805/=
27329 41467 83502 10037 20030 39937 40061 57005 78182 889//   333
85713=
27355 42561 83604 10044 20029 39889 40050 57005 8802/=
27373 42599 80403 10036 20026 39848 40063 58001 885//   333 88620=
27665 41997 01501 10064 20060 39767 40031 53003 70282=
27823 41459 28902 10047 20033 39803 40057 52018 71062 887//   333
88716 11004=
28009 41398 82903 10022 20019 39827 40036 52017 70262 886//   333
88709=
28411 42397 82103 10074 20061 39869 40061 52011 8665/   333 86607=
22438 42971 70000 10028 20015 30036 40057 57009 86074=
22446 42480 61207 10030 21062 39997 40092 56002 83562=
22563 42984 20501 11026 21026 30072 40111 58002 80001=
22641 42784 71202 10050 21022 30068 40084 57002 87500   333 87656=
22778 42986 10502 10003 21063 30008 40081 52003 81030=
22854 42984 03501 11023 21046 39807 40098 58002=
22867 42989 00000 11013 21028 39973 40087 58002=
22996 41970 73001 10029 20021 39866 40053 52001 70262 87020=
27051 42560 23103 10006 21037 39916 40082 52002 82500=
27225 43596 83404 10066 20014 39954 40082 57002 885//   333 88620=
27252 41997 60000 10031 20026 39880 40064 54000 71022 8607/=
27369 41498 80703 10041 20026 39917 40053 53001 70251 886//   333
88716=
27393 41596 80000 10041 20034 39893 40060 52001 70282 889//=
27479 41465 80503 10068 20059 39907 40037 57002 78082 889//   333
88911=
27532 41296 83404 10042 20032 39826 40036 57008 78082 8637/   333
85706=
27679 42965 31802 10062 20036 39826 40045 52008 83070=
28214 41499 82606 10041 20039 39838 40046 52020 70282 889//   333
88916=
24962 32999 23004 10030 20003 39961 40142 58002 80001   333 21036
55158=
24944 32999 50301 10053 21060 39871 40152 51001 80001   333 21051
55153=
62306 32560 32706 10168 20139 40116 56004 83500=
62318 32560 32906 10180 20131 40100 56007 83800=
62337 32960 40000 10180 20153 40096 56009 80004=
62366 32960 00205 10187 20133 40100 58012=
62393 32960 02910 10203 20040 40093 58006=
62405 31913 62608 10264 20118 40063 58010 70622 86010=
62414 31920 03608 10279 20033 40055 55008 70500=
62417 32960 03501 10188 20106 40108 51001=
62440 32960 03306 10186 20134 40098 58010=
62463 31910 63414 10267 20160 40052 58006 70722 80008=
62465 32960 43204 10278 20177 40055 55018 80004=
56966 11562 80000 10182 20177 40109 52011 60171 76166 8172/
333// 00051 70361=
70200 84100 22274 00237 20000 335// 40303 5//// 6//// 80170=
48845 32798 72501 10251 20232 30074 40081 52013 82548 333
00026 20246 3/023 59002 82697 87299=
48870 11497 80000 10260 20242 30066 40073 53014 60122 76062
888// 333 01027 20255 3/025 58005 83894 88696=
48877 32798 70000 10270 20249 30069 40074 52015 86801 333
01027 20259 3/026 58000 81895 86697=
48887 32570 82905 10264 20232 30062 40068 52012 888// 333
00027 20256 3/025 59003 83895 88697=
48920 12598 62507 10282 20249 360063 40063 53004 69922 83208
222// 00282 20201 333 20270 58000 82895 81995 85299=
48806 12470 80000 10224 20196 39330 40091 52011 69932 888//
333 00023 20216 3/022 59006 81894 88696=
48840 32998 00000 10251 20242 30079 40085 52017 333 00028
20244 3/024 58001=
48846 32998 70000 10256 20225 30087 40090 52026 81038 333
00027 20243 3/024 58006 86299=
58968 11557 83202 10242 20232 30069 40076 51015 60042 75065
885//=
58974 31/10 /3102 10236 20214 39964 40082 52015 74532=
59158 11556 83503 10255 20238 39981 40079 51017 60052 72162
887//=
59358 31558 21903 10296 20250 30066 40077 51016 71010 82200=
59559 32565 52903 10288 20238 30052 40079 51015 85100=
59562 32575 23601 10285 20234 30063 40074 51016 82100=
59567 32362 62609 10249 20233 39715 40084 51018 86500=
59792 32563 30506 10272 20230 30087 40092 52014 83200=
59997 11562 82005 10268 20253 30052 40066 51007 60022 72122
82220=
20046 55124=
98223 11460 82003 10266 20253 40100 52028 69964 70584 8487/
333 20260 56599 58036 70006 84819 88460=
44214 32998 00000 10018 21130 38634 40305 52015 333 21017=
44231 32999 62708 10058 21059 38782 40260 52014 82043 333
20017 55091=
44259 32698 73207 10066 21018 39243 40114 52010 86540 333
20054=
44277 32999 00000 11002 21068 37893 40261 52009 333 21077
55///=
44288 32999 03205 10017 21063 38215 40262 52010 333 21018=
44292 32699 60000 10014 21061 38707 40228 51009 84480 333
21010 55086=
44304 32599 43207 10050 21105 38965 40153 52010 82283 333
21006=
44354 32999 53407 10076 21019 39090 40155 53026 84044 333
20059=
44373 32999 23204 10043 21032 38580 40255 52017 80002 333
20009 55059=
20069=
64860 32965 40000 10285 20247 39821 40084 80002
333 0//00 58008 84080=
64910 11460 60000 10262 20245 30095 40105 69931 72162 86300
333 0//51 58001 86616 81920 94949 95815=
64210 32965 00000 1024+ 20236 29094 39755 40102
333 58008=
87078 32970 00000 10138 20104 30089 40244 52013 333 10215 20100=
87097 32970 01808 10121 20106 39917 40240 52015 333 10190 20091=
87155 32960 01403 10100 20073 30206 40269 52011 333 10177 20100=
87162 32970 01805 10123 20088 30181 40252 52009 333 10186 20119=
87166 32970 01404 10094 20064 30194 40270 52012 333 10185 20094=
87178 32970 01805 10113 20048 30104 40255 52009 333 10177 20103=
87270 32965 01402 10098 20077 30208 40273 52009 333 10167 20098=
87289 32970 00000 10083 20040 30180 40265 51001 333 10158 20083=
87374 32965 01802 10072 20029 30190 40286 51008 333 10152 20069=
87393 32965 00000 10082 20056 30212 40278 53004 333 10166 20082=
87497 32965 40000 10082 20041 30261 40287 50001 80006 333 10145
20068 56006 84270=
87534 32960 30000 10077 20052 30113 40282 51004 83070 333 10140 20070
56010 83360=
87563 32565 41802 10078 20056 30254 40300 53007 84400 333 10134 20022
56400 84625=
87576 32760 72302 10098 20055 30272 40296 52012 87400 333 10138 20048
56400 87650=
87582 32960 72005 10118 20027 30290 40297 52012 87070 333 10140
20075 56060 87360=
87593 32560 82306 10082 20046 30168 40296 53009 885// 333 10134
20044 56599 88625=
87623 32982 30506 10054 20025 30054 40290 54000 80002
333 10138 20054 56006 83070=
87645 32565 21406 10049 20024 30081 40298 52007 82500
333 10112 20049 56500 82628=
87692 11458 52306 10076 20063 30278 40304 52011 69941 71082 85500
333 10119 20070 56500 85612=
87715 32570 80909 10090 20060 39930 40260 51005 8452/ 333 10110 20078
56189 84625 86556=
87750 32965 41106 10071 20041 30200 40304 58004 84070 333 10124
20016 56030 84360=
87765 11360 81109 10040 20016 39258 48529 52008 69901 71522 885//
333 10054 20035 56299 88609=
70026 32164 81007 11078 21089 30147 40152 53002 92353 333 11078
21106 4/023 555 91400=
70133 32766 43405 10017 21017 30092 40096 51001 92353 333 21033
4/036 555 91400=
70231 32966 63210 10128 20017 39908 40036 58013 92350 333 10128
21005 555 91400=
70261 32766 69904 10139 21033 39877 40044 56015 92353 333 10139
20011 555 91400=
70273 32966 49904 10144 20000 39976 40025 56005 92353 333 20033
555 91400=
70308 31959 00717 10050 20017 39992 40004 51009 705// 92353 333
20022 555 91400=
70316 12566 61215 10072 20000 39942 49979 51010 69901 92353 333
10078 20033 91019 555 91400=
70350 32566 40809 10089 20033 39986 40027 58006 92353 333 10089
20044 555 91400=
70361 32666 61510 10089 20011 30056 40073 52002 92353 333 10100
20006 555 91400=
70398 11466 81413 10083 20044 30054 40095 58013 69901 761// 92353
333 20061 91020 555 91400=
78526 32966 01605 10278 20239 30132 40153 51012 92354 333 10311
20244 555 91400=
78318 31561 70405 10250 20204 30176 40180 53002 70522 81202 333
10292 20218 30/// 56909 58010 81820 87073=
78325 31957 80303 10244 20170 30119 40177 53003 70522 80008 333
10281 20221 30/// 56909 58008 86280=
78333 11/10 70201 10246 20233 30158 40164 53010 69931 71398 879//
333 10292 20208 31/// 56999 57953 58003 70003 818// 87631 819//=
78338 31558 70503 10247 20200 30164 40177 53012 70522 82272 333
10280 20235 30/// 56199 58009 82822 83357 85071 555 10502=
78349 01410 80104 10241 20230 30058 40170 52021 69951 78098 889//
333 10279 20222 31/// 56899 57983 58006 69927 70007 85817 84920
555 13603=
78360 11568 62801 10276 20247 30142 40153 58017 69961 70182 86900
333 10294 20231 31/// 56900 57915 58008 70025 82820 84630 819//
92011=
78369 31464 60702 10265 20241 30133 40145 53004 70522 83962 333
10270 20252 31/// 56999 57970 59005 82818 84070 819// 92012=
72201 32966 00207 10244 20183 30175 40184 53006 92353 333 10278
20217 555 91400=
72202 32966 60810 10250 20156 30178 40181 53004 92356 333 10289
20183 555 91400=
72203 32966 41009 10244 20172 30172 40178 56005 92353 333 10294
20167 555 91400=
72205 12666 63403 10256 20200 30140 40176 53000 60071 92353 333
10322 20150 555 91400=
72206 32966 03604 10267 20144 30163 40171 53006 92356 333 10306
20156 555 91400=
72207 32961 21205 10233 20194 30168 40184 51013 92353 333 10306
20172 555 91400=
72208 32966 01206 10211 20150 30170 40187 53009 92356 333 10261
20161 555 91400=
72211 32766 43307 10267 20144 30168 40181 53004 92353 333 10317
20200 555 91400=
72212 35/// /2709 10267 20072 30160 40175 53004 92353 333 10328
20167 555 91400=
72214 32966 03607 10289 20128 30158 40179 53003 92353 333 10311
20167 555 91400=
72217 32966 03105 10250 20061 30057 40186 53001 92353 333 10283
20156 555 91400=
72218 32966 02805 10244 20117 30128 40180 53002 92353 333 10278
20144 555 91400=
72219 32966 23214 10222 20028 39831 40200 53006 92353 333 10261
20128 555 91400=
72223 32966 00106 10278 20106 30122 40200 53001 92356 333 10311
20167 555 91400=
72226 32966 00206 10256 20094 30131 40204 55001 92353 333 10283
20161 555 91400=
72231 32766 20204 10283 20167 30185 40199 56006 92353 333 10300
20189 555 91400=
72234 32966 03404 10250 20122 30103 40212 55005 92353 333 10272
20133 555 91400=
72235 32966 03603 10261 20144 30095 40214 56005 92354 333 10278
20139 555 91400=
72240 32966 00508 10283 20183 30187 40207 56007 92353 333 10300
20161 555 91400=
72243 32766 41707 10272 20189 30163 40201 56007 92353 333 10300
20172 555 91400=
72248 32966 00905 10272 20150 30115 40209 56005 92356 333 10300
20172 555 91400=
72250 32966 01010 10272 20178 30185 40190 56009 92356 333 10306
20189 555 91400=
72251 32966 01112 10267 20183 30177 40195 56009 92351 333 10283
20161 555 91400=
72253 32766 41309 10272 20178 39905 40182 56013 92353 333 10289
20178 555 91400=
72254 35966 01109 10272 20183 39973 40189 56011 92353 333 10294
20172 555 91400=
72255 15966 01310 10267 20178 30164 40200 56010 69901 92351 333
10289 20178 555 91400=
72256 32766 82606 10250 20194 30017 40198 55006 92351 333 10300
20172 555 91400=
72261 35966 01311 10311 20128 39801 40157 56017 92353 333 10322
20200 555 91400=
72263 12766 60206 10250 20172 39514 40184 58011 69901 92353 333
10278 20150 555 91400=
72265 12966 01416 10256 20100 39189 40165 56015 69901 92353 333
10278 20139 555 91400=
72266 32966 01314 10261 20156 39563 40185 56013 92352 333 10278
20133 555 91400=
72267 32866 41308 10250 20111 39065 40164 56018 92353 333 10267
20128 555 91400=
10261 20144 555 91400=
72270 32866 69905 10289 20072 38817 40107 56016 92351 333 10294
20183 555 91400=
72274 12666 41209 10311 20072 39214 40097 58019 69931 92355 333
10328 20194 555 91400=
72278 32966 62107 10361 20072 39694 40072 56025 92356 333 10383
20267 555 91400=
72280 32966 22011 10367 20056 30009 40080 56023 8/001 92356 333
10378 20206 555 91400=
72290 32566 62812 10183 20133 30158 40169 56011 92351 333 10194
20156 555 91400=
72295 32566 42615 10183 20128 30124 40162 58017 92350 333 10194
20144 555 91400=
72304 35962 00507 10156 20094 30189 40192 53009 92351 333 10200
20156 555 91400=
72308 32766 20106 10178 20089 30182 40187 51006 92351 333 10200
20150 555 91400=
72310 32966 02904 10250 20094 30099 40180 51003 92356 333 10272
20178 555 91400=
72311 32966 02605 10244 20044 39897 40185 55000 92353 333 10278
20139 555 91400=
72312 32966 03506 10222 21033 39852 40186 53007 92355 333 10267
20144 555 91400=
72314 32966 03607 10217 20028 39913 40185 53004 92351 333 10261
20144 555 91400=
72317 32966 03504 10200 21011 39870 40194 53004 92354 333 10228
20117 555 91400=
72324 32966 03308 10222 20050 39965 40213 53001 92353 333 10250
20128 555 91400=
72326 32966 00507 10206 20022 39860 40214 53001 92353 333 10233
20117 555 91400=
72327 32964 60306 10211 20044 30010 40223 56008 92353 333 10233
20106 555 91400=
72334 32966 80405 10244 20089 30118 40221 57006 92353 333 10267
20144 555 91400=
72340 32966 41506 10278 20106 30126 40219 56010 92353 333 10280
20128 555 91400=
72344 32966 01204 10283 20161 30037 40201 56014 92353 333 10294
20133 555 91400=
72351 35966 01410 10267 20172 39819 40183 56014 92352 333 10289
20167 555 91400=
72353 32766 41510 10261 20161 39731 40191 56014 92352 333 10289
20144 555 91400=
72356 32966 22010 10283 20178 39950 40188 56014 92353 333 10300
20150 555 91400=
72363 32866 21914 10250 20094 38946 40168 56015 92353 333 10261
20128 555 91400=
72365 32866 82816 10217 20089 38405 40146 55003 92356 333 10250
20133 91021 555 91400=
72374 15966 29903 10250 20089 38512 40121 56011 60021 92356 333
10267 20133 555 91400=
72384 32966 03111 10289 20122 39953 40127 56016 92356 333 10294
20139 555 91400=
72386 11766 63515 10289 20072 39343 40096 56019 69901 795// 92356
333 10322 20189 555 91400=
72389 32766 43407 10283 20067 30015 40134 56021 92356 333 10289
20139 555 91400=
72394 32566 23014 10172 20106 30088 40177 56013 92351 333 10194
20122 555 91400=
72401 32966 03607 10172 20044 30136 40199 53005 92354 333 10211
20111 555 91400=
72403 32966 23408 10189 21022 30078 40194 51003 92351 333 10217
20100 555 91400=
72407 32966 01605 10144 20100 30148 40172 53016 92354 333 10222
20122 555 91400=
72408 32966 43416 10194 21050 30157 40180 53013 92354 333 10222
20128 91021 555 91400=
72411 32966 03106 10172 21044 39781 40203 53012 92354 333 10233
20106 555 91400=
72412 35966 03206 10128 20011 39336 40231 53003 92351 333 10167
20056 555 91400=
72414 32966 00000 10161 21006 39873 40231 55002 92354 333 10194
20056 555 91400=
72421 32966 03603 10178 20050 39910 40229 56009 92351 333 10194
20061 555 91400=
72422 32966 00000 10183 21017 39871 40232 58010 92354 333 10200
20067 555 91400=
72428 32966 00105 10167 20011 39935 40235 57006 92351 333 10178
20056 555 91400=
72432 32966 20000 10194 20044 30084 40225 56011 92354 333 10244
20056 555 91400=
72434 32966 81410 10206 20072 30010 40213 56019 92353 333 10211
20100 555 91400=
72438 32966 20000 10194 20028 39932 40225 56013 92355 333 10206
20033 555 91400=
72440 32966 01904 10244 20161 39754 40208 56008 92354 333 10267
20094 555 91400=
72445 12966 21005 10172 20150 39886 40213 55012 60051 92354 333
10206 20106 555 91400=
72446 32766 41711 10272 20183 39805 40169 56010 92353 333 10289
20144 555 91400=
72450 32766 41915 10278 20150 39700 40170 56012 92356 333 10300
20144 555 91400=
72451 32966 01818 10272 20122 39256 40146 56013 92356 333 10294
20156 555 91400=
72456 32966 02111 10294 20167 39851 40164 56007 92356 333 10306
20139 555 91400=
72458 35966 02012 10283 20150 39623 40141 56010 92355 333 10306
20161 555 91400=
72464 32966 00911 10283 20039 38533 40096 56016 92354 333 10306
20078 555 91400=
72465 32966 02120 10300 20083 38865 40104 56012 92356 333 10317
20139 91025 555 91400=
72476 12966 02512 10217 20072 38552 40125 52000 69901 92356 333
20161 555 91400=
72486 35966 02118 10178 21028 38099 40126 58004 92353 333 10217
20111 91022 555 91400=
72488 32866 22818 10250 20000 38642 40108 55011 92356 333 10261
20150 91026 555 91400=
72492 32966 03109 10244 20111 30142 40151 56015 92356 333 10256
20122 555 91400=
72494 32566 42518 10144 20089 30180 40187 58008 92356 333 10161
20111 91024 555 91400=
72503 32866 60312 10178 20011 30155 40166 53011 92351 333 10200
20128 91019 555 91400=
72508 32866 43507 10144 21050 30097 40168 53017 92351 333 10194
20106 555 91400=
72509 32666 60905 10133 20094 30158 40165 53010 92354 333 10167
20117 555 91400=
72515 32966 03109 10089 21011 39635 40225 53009 92356 333 10139
20039 555 91400=
72518 32966 00206 10133 21006 30082 40191 53013 92351 333 10172
20083 555 91400=
72519 32966 23007 10111 20000 30077 40224 55000 92354 333 10144
20039 555 91400=
72520 32966 03313 10144 21033 39786 40240 53002 92351 333 10178
20022 555 91400=
72524 32866 29903 10139 21011 39966 40252 58009 92351 333 10150
20006 555 91400=
72528 32966 22310 10111 20022 39969 40234 58006 8/001 92354 333
10150 20033 555 91400=
72530 32966 40708 10178 21011 39977 40226 56011 92356 333 10200
20028 555 91400=
72532 32766 82106 10178 20094 39977 40225 55013 92354 333 10194
20067 555 91400=
72533 32966 03504 10183 20011 39932 40233 56012 92354 333 10206
20022 555 91400=
72537 32966 21807 10156 20044 39991 40234 56010 92354 333 10189
20039 555 91400=
72546 12466 21411 10161 20133 39826 40173 58020 60031 92354 333
10167 20111 555 91400=
72547 32766 61708 10161 20078 39828 40222 56010 92355 333 10178
20078 555 91400=
72552 32966 01916 10311 20122 39470 40116 56009 92356 333 10333
20178 91022 555 91400=
72556 35966 02308 10328 20106 39562 40102 56011 92354 333 10339
20150 555 91400=
72557 32966 01118 10261 20178 39731 40122 57015 92355 333 10289
20133 555 91400=
72562 32961 01606 10283 20133 39146 40104 56013 92356 333 10300
20106 555 91400=
72564 32966 01811 10228 20017 38128 40116 58005 92356 333 10272
20089 555 91400=
72569 32966 02612 10289 20083 38338 40074 56017 92355 333 10306
20067 555 91400=
72572 32766 61811 10222 20050 38713 40131 58009 92356 333 10261
20156 555 91400=
72576 35966 03024 10272 20011 38275 40081 55010 92356 333 10300
20094 91027 555 91400=
72578 12966 82615 10217 20072 38623 40120 55008 69901 92356 333
10283 20094 555 91400=
72583 35966 22515 10239 20056 38667 40115 56013 92356 333 10261
20128 91020 555 91400=
72591 32666 21511 10250 20106 30014 40134 58019 92355 333 10256
20111 555 91400=
72594 35966 03010 10128 20094 30167 40194 58009 92353 333 20050
555 91400=
72597 32966 02914 10250 20022 39651 40123 58013 92356 333 91019
555 91400=
72606 35966 80608 10133 20050 30146 40166 53010 92351 333 10150
20100 555 91400=
72617 32766 20603 10122 20017 30068 40193 56006 92354 333 10144
20061 555 91400=
72635 32766 42807 10161 20022 39940 40236 56009 92356 333 10183
20017 555 91400=
72636 32966 01905 10139 21011 30002 40237 56015 92355 333 10156
20000 555 91400=
72637 32866 42607 10161 20033 39946 40230 57012 92353 333 10183
20006 555 91400=
72638 15966 62807 10150 20033 39802 40226 56008 69901 92355 333
10167 21016 555 91400=
72640 32966 61709 10156 20017 39970 40223 58012 8/006 92352 333
10189 20039 555 91400=
72641 32966 02105 10189 20072 39905 40217 56010 92353 333 10200
20056 555 91400=
72644 32566 81713 10167 20122 39720 40199 58008 92354 333 10189
20089 91018 555 91400=
72645 12866 61805 10178 20094 39950 40209 56010 69901 92356 333
10200 20056 555 91400=
72651 32966 01111 10261 20167 39610 40118 58017 92356 333 10272
20100 91018 555 91400=
72654 32966 01414 10272 20178 39642 40099 58021 92355 333 10278
20117 91019 555 91400=
72658 32666 81913 10200 20122 39879 40182 58007 92353 333 10228
20100 555 91400=
72659 32966 01620 10267 20133 39639 40100 56015 92356 333 10283
20078 555 91400=
72662 32966 02016 10300 20072 38990 40071 55003 92355 333 10333
20094 555 91400=
72666 32966 41207 10278 20050 38725 40056 56014 92356 333 10339
20083 555 91400=
72677 32866 42416 10306 20017 38846 40046 55006 92356 333 10333
20144 91024 555 91400=
72681 32966 49903 10244 20044 39122 40101 58014 92356 333 10261
20183 555 91400=
72683 35966 02416 10250 21061 38692 40099 56009 92353 333 10261
20072 91020 555 91400=
72688 32966 02807 10189 20083 39576 40111 57013 92356 333 10200
20106 555 91400=
72693 32966 02609 10189 20083 30019 40156 55004 92356 333 10211
20067 555 91400=
72694 32766 62211 10194 20100 30072 40145 58013 92356 333 10200
20100 555 91400=
72698 32766 60504 10194 20072 30137 40145 58016 92355 333 10200
20117 555 91400=
72712 35866 83309 10106 20000 39935 40169 53006 92354 333 10128
20061 555 91400=
72745 32966 01111 10167 20072 39669 40187 56008 92355 333 10211
20072 555 91400=
72747 35966 00807 10222 20067 39732 40161 56018 92355 333 10239
20033 555 91400=
72753 32966 01518 10261 20100 39787 40112 56023 92353 333 10283
20089 91025 555 91400=
72764 32966 01617 10289 20161 39477 40059 58019 92352 333 10306
20106 91022 555 91400=
72767 32966 02915 10322 20072 39369 40029 55001 92352 333 10350
20072 91020 555 91400=
72768 32966 02907 10322 20039 39236 40031 57018 92356 333 10333
20122 555 91400=
72772 12966 23210 10267 20061 38754 40085 53008 69901 92356 333
10317 20100 555 91400=
72773 12966 80103 10183 20061 39014 40118 56015 69901 92356 333
10228 20128 555 91400=
72777 35966 03016 10317 20044 39141 40036 57010 92356 333 10333
20094 91023 555 91400=
72779 35966 22611 10222 20044 39063 40088 50000 92356 333 10256
20122 91017 555 91400=
72781 32966 01104 10217 20044 39719 40105 56016 92356 333 10228
20083 555 91400=
72793 32566 82205 10161 20078 39978 40143 58018 92356 333 10172
20094 555 91400=
72797 35466 62006 10117 20089 30078 40152 58009 92353 333 10144
20083 555 91400=
89062 42697 63327 10023 21030 30057 40099 51013 86500 333 10041
20002 86630 91234=
87016 11350 80000 10128 20119 39819 40242 52025 69911 75052 887// 333
10132 20121 83708 88710=
87022 32560 80000 10134 20123 39718 40242 52016 885// 333 10161 20124
88620=
87046 32565 80504 10102 20087 39194 48554 51015 886//
333 10147 20093 56499 84710 88620=
87047 32365 80706 10086 20076 38857 48561 52012 886// 333 10109 20084
56099 84708 88620=
87121 11115 82304 10096 20088 39726 40261 52012 60031
75355 8772/ 333 10102 20090 56449 84703 81704 88525
96010=
87129 21260 81405 10115 20108 30024 40265 52009 69921 72055 887//
333 10116 20098 56499 84706 84708=
87217 11560 82306 10110 20097 39726 40237 52011 69901
75052 885// 333 10121 2//// 56599 84730 85635=
87222 32670 81404 10120 20081 39682 40219 53015 885// 333 10180
20081 56099 83640 85658=
87257 32965 00000 10088 20071 30168 40278 52013 333 10174 20066=
87311 32665 81606 10106 20060 39534 40238 52009 8657/ 333 10138
20086 56009 86635 88550=
87320 32570 80908 10103 20067 39706 40255 52013 885// 333 10125 20077
56999 88625=
87328 32580 80000 10098 20086 39591 40263 52019 885// 333 10125 20084
88630 95090=
87344 31562 80202 10094 20069 39710 40280 51008 71022 885// 333
10126 20045 56099 85620 83625 94460=
87349 32970 53603 10106 20071 39873 40284 52008 85070 333 10128 20034
56070 85360=
87416 12565 80000 10095 20078 39465 40232 57002 60011 886//
333 10102 20073=
87418 11558 80000 1081 20075 39406 40235 54000 69941 71065 887//
333 10089 20063 56499 88730=
87467 32970 00902 10083 20040 30143 40282 53008 333 10145 20081=
87506 32470 80000 10036 20008 38622 48541 51003 887//
333 10052 20010 56099 88712 95090=
87509 11458 81602 10079 20071 39363 40246 54000 69931 71055 8467/
333 10090 20055 84712=
83334 21494 72304 10206 20194 3//// 4//// 71096 85540
333 10310 5//// 60081=
83383 31595 41408 10254 20202 3//// 4//// 71311 84300
333 10345 5////=
83384 215// 71801 10228 20212 39582 40160 70362 85370
333 10362 58028 60111=
83386 32598 61803 10244 20215 39612 40156 8337/ 333 10334 58019=
83388 324// 31804 10250 20198 39449 40117 83200 333 10340 59001=
83437 21/97 92304 10214 20193 39431 40148 70265
333 10292 58021 60271=
83442 21595 83202 10224 20217 39807 40153 75162 888//
333 10338 58023 60051=
83479 325// 30000 10234 20181 39372 40165 83400 333 10301 58017=
83483 32796 42302 10225 20194 39568 40155 84060 333 10295 58026=
83488 215// 83202 10185 20173 39144 40152 70262 885//
333 10254 58011 60021=
83492 21/96 90000 10204 20194 39774 40159 70262
333 10310 58020 60081=
83514 21497 81802 10188 20178 39480 40190 70252 889//
333 10233 58030 69911=
83531 327// 60000 10190 20155 39104 40152 82042 333 10257 58021=
83538 329// 81802 10173 20141 38767 40200 888// 333 10216 58009=
83543 32997 00000 10204 20182 39992 40166 333 10290 58037=
83570 32595 61401 10198 20172 39386 40164 85210 333 10258 58027=
83577 218// 80504 10194 20168 39317 40176 70262 8174 39376 40153
51014 333 10240=
83579 32596 82704 10176 20159 39016 40149 88800 333 10223 58018=
83582 32597 30000 10185 20179 39390 40162 53016 83400 333 10230=
83587 32697 22701 10197 20154 39152 40161 82500 333 10239 58024=
83592 325// 50000 10188 20185 39468 40153 83240 333 10252 58013=
83595 215// 83202 10210 20202 30084 40170 70362 888//
333 10272 58017 69961=
83642 32992 00000 10180 20174 39376 40153 51014 333 10240=
83683 316// 62702 10178 20161 39183 40145 52012 71022 85620
333 10230=
83687 32696 72303  39128 40189 51012 8671/ 333 10214=
83692 32597 81812 10160 20160 39122 40174 52010 85560 333 10222=
70341 32966 02607 10122 21039 30004 40030 56004 92353 333 10122
20022 555 91400=
61902 32470 71110 10256 20203 40147 878// 59012 82818 85825=
87791 30580 30907 10050 20020 30301 40310 54000 83500
333 10115 20031 56600 83630=
87803 12480 80210 10048 20020 39293 40224 51007 69901 887// 333
10065 20029 56099 82715 88630=
87828 32580 30704 10064 20050 30248 40302 52004 81572
333 10122 21004 56000 81620=
87860 11580 72703 10074 20056 30226 40284 50000 69921 70181 83870
333 10112 20000 56460 81820 83635 85360=
87909 31101 50000 10051 20051 30216 40294 58001 74144 85600 333
10100 20004 56100 85702=
87925 31430 50000 10004 21002 30252 40275 54000 71042 85600 333
10034 21002 56000 85715=
87938 32980 00907 10030 20009 30197 40269 58004
333 10046 20008=
72306 32964 00303 10189 20094 30036 40197 51005 92351 333 10228
20144 555 91400=
72315 32966 03610 10183 20006 39446 40207 53007 92354 333 10217
20106 555 91400=
72402 35966 03107 10167 20017 30179 40179 53007 92354 333 10206
20128 555 91400=
72405 32966 43109 10194 21017 30168 40192 51006 92351 333 10222
20117 555 91400=
72406 32966 23508 10183 21056 30133 40189 53009 92354 333 10222
20106 555 91400=
72423 32966 20406 10206 20061 30044 40223 57011 92356 333 10222
20089 555 91400=
72425 12966 00304 10167 20089 39925 40229 56005 69901 92351 333
10194 20072 555 91400=
72429 32966 03604 10172 20022 39873 40236 56009 92354 333 10183
20050 555 91400=
72504 32966 03612 10167 21061 30163 40168 52018 92354 333 10206
20117 91022 555 91400=
72507 32866 60310 10144 20028 30139 40162 53015 92351 333 10194
20122 555 91400=
72513 32966 03510 10139 21028 39855 40198 53010 92354 333 10172
20072 555 91400=
72521 32966 23504 10122 21022 39791 40244 58001 8/001 92351 333
10167 20017 555 91400=
72529 32966 42705 10133 20006 30024 40227 56009 8/043 92354 333
10150 20039 555 91400=
72535 32966 03307 10167 20033 39954 40237 56006 92354 333 10194
20011 555 91400=
72536 32966 01703 10167 20006 39977 40231 56012 92352 333 10183
20033 555 91400=
72544 32666 81908 10172 20089 30003 40219 56011 92355 333 10183
20083 555 91400=
72592 32966 01808 10256 20072 39952 40132 58015 92356 333 10261
20128 555 91400=
72605 35966 43406 10133 21011 30043 40172 53013 92351 333 10161
20089 555 91400=
72783 32966 02908 10217 20106 39600 40107 58009 92356 333 10233
20167 555 91400=
72785 32766 82210 10178 20050 39282 40112 58016 92356 333 10189
20106 555 91400=
72791 35466 22315 10133 20100 30150 40159 56009 92356 333 10150
20100 91019 555 91400=
94151 35/// /0507 10286 30128 40148 52015=
94290 35/// /1211 10259 30169 40176 52012=
94462 46/// /1812 10180 20090 39581 40147=
94129 35/// /0805 10290 30109 40132 52018=
94307 35/// /1128 10232 30112 40152 52020=
94371 35/// /0916 10250 30179 40185 52008=
94379 35/// /1512 10243 30174 40183 52003=
96009 11456 70000 10240 20234 30051 40084 5//// 69904 70262 83922
333 20236 50490 55077 56000 57903 59011 81915 82615 80956=
96011 32560 60000 10240 20234 30047 40070 5//// 82532
333 20236 50570 55070 56000 59004 82623=
96035 32460 70000 10248 20241 30042 40074 55000 83976
333 20248 50350 55050 56000 57902 59011 81918 82618 80956=
96073 31558 70000 10237 20226 30084 40091 51018 70522 83522
333 20228 50450 55/// 56000 58006 83623=
96091 32460 70000 10248 20242 30077 40100 51009 81518
333 20240 55084 56000 58004 81613 85460=
96109 31456 50000 10253 20244 30041 40080 51005 70522 82032
333 20250 50420 55058 56000 59001 82362 84082=
96145 11464 61303 10270 20247 30079 5//// 69934 70522 84810
333 20254 50460 55032 56400 57843 59005 81616 83817 86460 80859=
96163 32562 50000 10232 20223 30083 40089 52005 81521
333 20229 50/// 55/// 56000 59007 82623=
96179 32960 70000 10249 20242 30048 40045 52007 83228
333 20200 50/// 55098 56000 57802 82817 80850=
96249 11559 50000 10244 20241 30035 40094 52012 60384 70521 82131
333 20230 55021 56000 57801 58006 82820 80863=
96509 01458 80000 10254 20242 30090 40097 52008 60054 70262 8322/
333 20232 50460 55067 56009 57801 58004 68817 83815=
96633 01457 80000 10241 20234 30108 40116 52022 60134 76196 8592/
333 20233 50390 55029 55508 51875 56009 57900 58010 60137 82910
80980 83616 88459=
96749 11520 81803 10252 20252 30087 40101 51008 60484 71096 8352/
333 20237 56009 58007 83623 88460=
96839 11558 50000 10250 20228 30105 40110 52013 60094 70521 82501
333 20240 50511 55096 56000 58009 82623=
97120 32462 50304 10278 20237 30078 40111 51015 81236
333 20246 50430 55104 56000 57803 58031 81818 83080 80860=
97230 32560 43402 10238 20208 30102 40109 56011 82231
333 20217 50690 55108 56000 57802 58008 82820 80858=
97260 32970 20000 10239 20197 40105 40112 52018 80001
333 20214 50590 55103 56000 58016 82080=
97270 31458 20000 10224 20209 30111 40115 51011 70500 82101
333 20212 50540 55090 56000 58006 82813=
97300 32565 12504 10273 20230 30092 40125 52014 81101
333 20235 50600 55097 56000 58013 81820=
97340 32570 10000 10240 20205 30114 40125 52017 81201
333 20220 50410 55089 56000 57807 58011 81820 80857=
97372 32967 10000 10265 20221 39988 40127 52005 80001
333 20209 50670 55083 56000 58010 81080=
97502 12462 41404 10280 20257 30113 40119 52015 60014 82101
333 20242 55072 56000 57804 58002 82815 80857=
97560 32465 51303 10290 20253 30098 40114 51014 82242
333 20235 50/// 55047 56000 57805 58007 82818 85280 80850=
97580 12460 80000 10258 20246 30124 40131 51010 60134 70262 81107
333 20226 50/// 55/// 56000 57803 58026 81814 80840=
97686 12460 40000 10190 20160 38389 40121 52010 69904 85864
333 20154 50540 55042 56000 57802 58016 84810 86360 80860=
97690 31462 70000 10262 20253 30014 40115 52012 70522 85868
333 20236 55010 56000 57800 58016 82814 84620 87279 80860=
97760 32468 31105 10302 20241 30094 40104 52004 82101
333 20252 55101 56000 57800 82815 80858=
97796 31462 61502 10282 20238 30095 40133 57015 70522 84862
333 20232 55068 56000 57802 58020 82916 86362 80870=
97876 32360 61313 10262 20229 30118 40151 51013 85143
333 20236 55038 56300 58/// 85809=
97980 32965 40908 10272 20202 10133 20136 52009 80042
333 20214 50430 55095 56000 58023 81360 84080=
96001 32558 72310 10276 20229 39941 40085 5//// 83232
333 20240 50570 55080 56000 57802 59002 83820 80860=
96015 32560 50703 10240 20229 30071 40077 5//// 82231
333 20236 50550 55083 55508 50870 56000 57808 58001 82820 80860=
96033 11457 70000 10252 20242 30063 40069 52001 60714 70562 82936
333 20244 50274 55068 56000 57902 59012 81920 82617 80980=
96075 11457 60000 10231 20229 30077 40087 55015 69901 70522 84821
333 20154 55075 56000 57804 59019 81815 83620 80850=
96087 31559 40000 10256 20247 30053 40085 70511 81521
333 20228 50710 55070 56000 59008 81620=
96171 11408 60000 10242 20239 30061 40085 52015 60034 74242 83522
333 20230 50270 55051 56000 58004 83616=
96505 11420 80000 10204 20195 39080 48090 60014 71042 86231
333 20198 5500/ 56009 58005 86813=
96525 12460 70000 10246 20236 30101 40108 60284 84531
333 20236 50120 55061 56000 58010 84613=
96607 01450 80000 10232 20226 30121 40135 52023 60084 76196 8792/
333 20220 50450 55057 56009 57980 58010 60067 82920 86618=
96737 31557 60000 10240 20232 30072 40121 52014 70522 83231
333 20230 50430 55062 56000 57802 58018 83820 80860=
96797 31458 60000 10256 20233 30098 40102 52012 70521 84931
333 20244 50600 55/// 57902 57801 58006 81918 80981 83820 80880=
96837 11557 71202 10250 20216 30101 40105 51008 60034 70562 83231
333 20241 50770 55100 57800 58006 82823=
96947 31958 50000 10198 20184 39526 40142 52013 70511 84031
333 20182 56000 58007 84360=
96987 32563 50000 10266 20211 30065 40124 53021 81508
333 20225 50551 55090 56000 58020 81620 85280=
97240 31956 30000 10236 20198 30095 40115 52015 70510 80001
333 20210 50560 55097 56000 58008 83074=
97310 32568 30000 10272 20230 30101 40112 5//// 83201
333 20232 50440 55078 56000 57803 58013 83820 80825=
97320 31568 10000 10272 20237 30107 40124 5//// 70511 81101
333 20208 50/// 55011 56000 58012 81820=
97378 32570 10000 10272 20243 39968 49969 54104
333 20204 50/// 55074 56000 58022 81820=
91502 01465 82716 10275 20236 40119 50002 61004 71582 84917
333 20230 56699 5//// 69987 82814 82915 85461=
91503 01265 80000 10280 20244 40103 52012 60214 76166 8692/
333 20245 56599 58020 60097 82907 81915 83625 87460=
91517 01365 80000 10250 20243 40094 53006 60044 76152 8282/
333 20244 56000 58011 60017 81708 88461=
91507 31475 80000 10296 20256 40105 52002 71522 82916
333 20244 56999 58007 82816 81918 85364=
91527 01470 80000 10283 20260 4//// 5//// 69944 71595 85967
333 20239 56999 5//// 60947 81816 81917 85629 87281=
91541 12480 70000 10/// 20/// 40089 52001 60094 83998
333 20/// 56299 58007 82816 81917 84360 87280=
83574 218// 82302 10184 20178 39572 40198 58043 72006 88010
333 10240 60021=
63820 11480 42010 10233 20223 40122 60021 70181 84200
333 59013 84817=
62309 31558 62303 10156 20136 40095 56005 71021 82550=
62325 32960 02704 10183 20134 40113 56006=
62332 32560 22908 10190 20147 40100 58012 82100=
62387 32960 00106 10208 20115 40101 57002=
62459 31940 83108 10250 20175 40054 58017 8802/=
64700 32962 22004 10313 20213 39735 40058 80002 92355
333 0//00 59003 82075=
64750 31762 71010 10274 20214 39681 40069 71322 81972 92355
333 0//00 59002 81950 87365 82075 95833=
82332 41570 41704 10270 20250 40117 70191 81101 10315
58004=
71900 46/// /0000 10089 30147 40160 51009 333 10115 20027=
71714 36/// ///// 10116 21023 30095 40186 53002 333 10155 20055=
71060 36/// ///// 10161 21040 38544 40066 58001 333 10166 20056
70000=
41571 11696 71320 20106 49990 60021 70522 83330 333 56990
58003=
41594 319// 00000 10340 20225 49958 70600 333 59014=
41718 329// 02303 10305 20233 39882 49980 333 59006=
41744 329// 00000 10285 21019 48426 333 59007=
41506 129// 03607 10211 20029 48461 60022 333 59009=
41697 329// 00000 10336 20227 39825 49972 333 59007=
41700 319// 02308 10315 20203 39846 49968 70500 333 59008=
41725 329// 01807 10275 20239 39898 49974 333 59006=
41759 319// 00000 10275 20275 39993 49999 74200 333 59019=
44462 41003 80000 10180 20177 38239 48453 79547 888// 333 58000=
44478 42558 60000 10272 20241 39953 40035 86500 333 59002=
38613 42998 20102 10167 20090 39283 40145 58001 80004 555
10014=
29894 11697 81202 10034 20002 39161 40247 53011 60022 70282 889//
333 20032 55068=
65578 32560 72808 10284 20249 30111 40120 87500
333 59009 87620=
31439 32599 80604 10073 21007 30055 40097 52001 86577   333 20052=
91165 32966 00612 10267 20156 30138 40190 58010 92353 333 10278
20228 555 91400=
91182 12966 00711 10289 20150 30173 40178 58014 69901 92353 333
10289 20222 555 91400=
91190 32766 20619 10272 20167 30148 40177 58018 92354 333 10278
20211 91027 555 91400=
91212 12566 40713 10311 20250 30038 40121 50007 69901 92354 333
10317 20267 555 91400=
91285 12666 81208 10244 20183 30176 40187 56012 69901 92353 333
10261 20200 555 91400=
91334 12474 80808 10294 20257 30105 40108 57002 60174 81171 333
20233 56299 58002 70165 555 91400=
91348 11474 81206 10276 20241 30073 40125 50003 60074 72582 85371
333 20250 56129 58014 70074 555 91400=
91356 11362 80904 10257 20240 30104 40110 50003 60104 76082 86278
333 20244 56199 58010 70102 86807 555 91400=
91376 11474 80809 10273 20251 30103 40107 58007 69904 70280 84871
333 20273 56229 58000 555 91400=
91408 32474 81403 10294 20249 30086 40124 51017 82871 333 20256
56523 58010 555 91400=
91413 11469 71007 10301 20253 30097 40116 52014 60024 70282 82271
333 20222 56299 58007 70018 555 91400=
91765 11469 80704 10279 20252 30095 40098 57020 60334 8542/ 333
20250 5621/ 58001 70325 555 91400=
10328 20194 555 91400=
20087 31875 70709 11104 21132 30248 40259 52014 73632 86031
333 21108 44026 55043 91113=
20292 31480 80707 11118 21138 30227 40247 52009 73632 875//
333 21123 48/// 87613=
20674 11364 82004 11114 21127 30109 40170 52002 69922 77172
886// 333 21108 48054 55000 88709=
20891 32997 10304 11147 21174 30155 40200 52006 80001 333
21166 42/// 55198=
23022 41497 80305 11067 21075 30117 40179 52006 70232 885//
333 88611 91106=
23032 42568 53106 11102 21146 30128 40161 52010 82532 333
91109=
23256 41399 81104 11038 21038 30094 40128 52001 70282 885//   333
86707=
23330 42598 50503 11003 21027 30106 40125 52010 84301=
23552 41496 80601 10003 20003 30063 40097 57005 77176 885//=
23631 42998 80104 10023 21005 30060 40101 57001 82039=
23734 41497 80303 10032 20027 39981 40070 57002 76162 8772/   333
87714=
23849 42996 60604 10039 20028 40053 57005 80001=
23933 42597 70702 10067 20056 39989 40046 57016 83501=
28064 42999 51802 10122 20038 39932 40019 57008 83041=
28275 42599 81302 10121 20059 39990 40048 57009 8635/=
28493 42999 21402 10110 20041 30026 40114 57012 80002=
28698 42998 61402 10129 20004 39982 40129 57008 80001=
23929 42580 80502 10092 20076 40016 54000 83932=
28383 42998 21503 10134 20025 40082 57035 80009=
28465 41580 21504 10150 20113 40056 57009 70280 82901=
28586 42999 51302 10133 20023 40105 57007 80001=
28588 42982 51804 10126 20038 40104 57007 85042=
28688 42698 61803 10124 20023 40109 57003 82501=
28696 42999 21702 10117 20002 40149 57010 80001=
28791 42999 21903 10108 20013 40128 57006 80001=
29367 12984 42303 10138 20034 39961 40176 53007 69902 84080   333
20093=
29789 32799 80000 10036 20023 39089 40247 52003 8691/   333 20026
55051=
30117 11260 83003 10029 20011 39671 40161 52014 60032 72582 889//
333 20029 55075 88919=
30253 32698 71801 10012 21033 39794 40139 57002 82331   333 21023=
23426 42989 83102 10001 21014 30099 40123 54000 80001=
23625 42999 70602 10049 21014 30067 40100 57002 87070=
28076 42697 61501 10118 20048 39973 40041 57012 84541=
28367 42599 82101 10140 20065 39928 40049 52005 86231=
28382 42998 10902 10100 20041 30001 40068 57010 81030=
28481 42997 61803 10124 20045 39998 40091 57003 80001=
28573 42989 81903 10124 20050 39991 40090 53002 85031=
28593 42984 52505 10129 20027 30033 40126 57007 80001=
28598 42998 21904 10133 21014 30045 40142 52005 80001=
28786 42998 61603 10107 20002 39974 40124 57011 80002=
28797 42997 21604 10104 20025 39987 40139 57005 80001=
28799 42998 61601 10111 20019 30018 40156 57011 80001=
23788 32898 80000 11001 21025 30083 40162 58006 8802/   333 21013
43036=
23867 42999 83402 10101 20038 30000 40069 57002 82031=
23986 11404 90000 11014 21019 40179 57001 60022 78286 883//   333
21012 42025=
29149 32998 32703 10133 20041 30006 40132 57002 80001   333 20079
55012=
29203   333 20127=
29745 32998 31602 10084 20027 39953 40229 53009 80001
333 20065 55146=
36096 42998 00000 10045 21078 40265 52009=
36103 32999 60000 11046 21059 40331 54000   333 21057=
36231 32999 00000 11004 21041 39284 40294 52013   333 21027=
36259 32999 00000 11013 21050 38314 48581 52010   333 21055 55145=
32408 32999 22505 10068 21040 39926 49963 52010 82030   333 21013
42056 55010=
85460 555 04410 50026=
28491 42998 11702 10128 20038 39983 40087 57012 80001=
91245 32566 40809 10300 20230 30154 92350 555 91400=
91339 11474 80803 10289 20243 30098 40104 52007 60094 70282 8637/
333 20228 56294 86918 88362 555 91400=
91353 32474 60506 10311 20259 30094 40099 51010 85230 333 20217
5611/ 58006 85818 555 91400 91425 11474 82205 10261 20239 30103
40104 51005 60054 70282 882// 333 20254 56899 58004 70053 88818
555 91400 91434 11474 83205 10272 20249 30126 40129 5//// 60234
70282 882// 333 20189 56799 58001 70226 88817 555 91400=
40420 32960 00000 10273 20080 39851 40045 333 58006=
40001 32570 72201 10215 20090 40061 58015 84570 333 84626 87460=
40007 32965 31301 10136 20112 40061 58001 83030 333 83360=
40045 31556 72702 10236 20122 40072 53011 70500 83550 333 83630
87360=
40061 31950 62804 10186 20134 40057 55004 70722 83058 333 83360
85270=
40080 32565 11703 10160 20097 39392 40065 55000 81100 333 81826=
40095 32970 00000 10174 20113 39465 40071 57009=
43150 21597 62703 10260 20215 39936 40010 70296 82531 333 58007
6021/ 82620 83360 85075=
62420 32960 00000 10183 20104 40113 50001=
62432 32960 03201 10200 20182 40090 58008=
62435 32960 03406 10250 20065 40076 58012=
62455 32960 03210 10216 20157 40087 53001=
42123 31995 02703 10318 20132 49986 70600 333 59004=
42435  32996 02305 10270 20226 40033 333 59005=
42542 32996 00000 10284 20152 39464 40024 333 58001=
21982 42282 80804 11016 21040 30035 40041 52009 82610   333 91106=
25399 41498 20000 11002 21025 30096 40099 42002 70241 81601   333
91102=
61036 32960 7//// 10328 20208 39847 50076 80008 92345
333 58014 87280=
61043 32960 72410 10340 20183 39620 40041 80008
333 58007 87280=
61045 32960 7//// 10320 20194 39573 40049 80008 92345
333 58004 87280=
61052 32960 51612 10324 20203 39821 40065 80002
333 0//00 59005 85080=
61075 32970 72202 10335 20188 39762 40057 80008
333 59020 87280=
61080 31760 70000 10320 20159 39646 40047 71322 81908
333 58014 81940 87280 94942 95832=
61096 32960 70000 10320 20184 39687 40050 80008 92345
333 59004 87280=
61099 31960 7//// 10308 20201 39/// 4//// 80008
333 5//// 87280=
98336 11475 80000 10272 20262 40091 53008 60464 70544 81277
333 20230 56999 58037 70460 81815 88275=
98531 32480 20703 10280 20254 40102 52016 81201
333 20252 56199 58026 81815=
98753 31468 30402 10280 20237 40106 52023 70544 82231
333 20240 56999 58013 82816=