ZCZC 000
SMCI10 BENJ 011200
AAXX 01121
59647 32570 42203 10274 20254 40061 52009 81902=
58457 11361 80000 10244 20232 30047 40096 52029 60051 79598
889//=
58562 31564 81402 10255 20230 40095 52018 71790 889//=
52740 16/// /3104 10067 29091 36840 60010
555 1/133 2//00 /////=
57265 11757 80702 10294 20235 39917 40020 52005 69901 76060
885//=
57447 11962 82701 10228 20204 39521 40039 52005 69911 70060
8807/=
57461 11777 81602 10277 20232 39871 40024 52010 69901 72560
8647/=
57662 11661 80902 10270 20249 39994 40033 52009 60051 72998
889//=
57687 32980 71803 10307 20239 39971 40047 52016 8704/=
57766 11675 71602 10292 20237 40055 52016 69901 70098 82442=
57845 32680 32006 10277 20224 40050 52014 82302=
57853 32680 20000 10287 20231 40048 52017 81140=
58027 32961 80904 10279 20219 30023 40071 52008 80007=
58040 31920 80404 10194 20189 30083 40087 54000 71000 8802/=
58144 32963 80902 10263 20192 30057 40078 52003 80007=
58633 11660 82905 10257 20223 39998 40093 52021 69941 79598
889//=
58659 31740 71402 10254 20240 30069 40102 52012 71000 875//=
58847 32663 81405 10285 20253 39999 40096 52026 889//=
59134 32570 61804 10272 20244 39946 40103 52020 81902=
59082 11670 72002 10264 20232 30016 40090 52012 69901 70098
84442 333 91117 91520=
59211 32580 51404 10305 20226 39835 40033 52012 81962=
59265 11575 71103 10282 20235 39943 40075 52017 69951 70098
879//=
59287 32565 61603 10288 20250 30046 40095 52018 84402 =
59644 11570 71107 10277 20262 30042 40057 52004 60101 70098
82943=
59293 32968 72503 10301 20217 30044 40091 52021 8704/=
59417 11575 71101 10270 20253 39902 40049 57001 60151 70098
81942=
59501 32580 61802 10290 20250 30094 40110 52017 81102=
59838 11580 70702 10263 20249 30033 40047 52006 60271 72598
8246/ 333// 91120 91522=
59948 11570 71102 10284 20253 30040 40048 52007 60091 70080
86202=
58251 32965 70903 10233 20212 30085 40091 52012 80002=
59117 11680 52203 10300 20239 39991 40093 52027 60011 70098
82402=
59316 32975 31803 10285 20256 30091 40100 52018 80002=
59663 11465 71103 10289 20255 30050 40077 52013 69911 71380
86902=
58345 31950 71103 10264 20232 40080 52008 71000 80002=
58543 11680 72203 10245 20230 40101 52022 69971 76098 875//=
58569 11/08 90903 10229 20229 40098 52006 69901 76064=
58646 11665 80401 10264 20235 40094 52010 69951 70098 885//=
58660 11657 80000 10261 20244 40098 52005 60021 71098 885//=
58834 11668 70000 10257 20235 40097 52020 60031 72998 8294/
333 91118 91518=
58944 32965 62203 10272 20251 40101 52017 80002=
59046 11580 61802 10299 20233 40063 52011 69901 71798 83931=
59058 11470 70000 10248 20236 40077 52009 60101 79198 874//=
59072 11680 73401 10259 20237 40084 52016 60221 70098 81442=
59087 11563 71801 10263 20243 40094 52016 69951 70098 82162=
59096 11670 80000 10272 20224 40093 52017 60011 70098 884//=
59209 11572 62502 10268 20205 40040 52013 69901 72500 82142=
59278 11573 70702 10285 20256 40081 52015 69941 70080 84963=
59456 11575 72202 10270 20250 40072 52011 69971 72580 86903=
59493 32578 71103 10295 20247 40089 52013 81102=
59632 11570 70903 10282 20258 40056 52005 60031 70098 82902=
59658 32472 71104 10276 20256 40068 52005 85402=
59673 11478 71402 10286 20258 40084 52013 69961 70080 879//=
59845 31570 71104 10269 20239 40052 52012 70090 81402=
59855 11470 71402 10274 20264 40057 52007 60091 72598 86202=
50468 11675 22901 10166 20047 39916 40113 52014 69901 70080
82400=
50745 32964 20702 10231 20071 39944 40116 52012 80002=
54337 32960 52003 10211 20131 30043 40126 52021 85030=
54342 11650 72001 10233 20163 30055 40115 52013 69901 70480
82502=
54471 32960 62201 10213 20147 30113 40118 52013 80002=
54497 32965 32503 10181 20156 30118 40132 52016 80002=
54662 32362 71802 10152 20138 30007 40125 52009 82602=
53513 32970 70703 10251 20024 38915 40049 57004 80002 333//
00200=
53588 31/02 90905 10104 20102 37804 52006 74540=
54218 32780 50902 10229 20111 39466 40113 52010 82102=
54401 32765 21103 10240 20105 39289 40099 52013 81402=
54511 32962 21402 10227 20158 30071 40109 52010 80002=
59981 11580 61402 10269 20258 30063 40069 52013 60041 78080
85902=
59985 11580 51605 10279 20259 30049 40054 52014 69951 70080
83202=
51468 16/// /2000 10038 29046 36550 60071
555 1/133 2//00 /////=
58150 31928 81404 10214 20197 30085 40093 52007 71000 80007=
45007 11475 71303 10301 20246 30082 40091 53017 69902
70382 84202  333  10339 58022 79999 81814 83825 86080 =
58265 31558 81406 10231 20208 30095 40106 52014 71000 885//=
58472 32462 81408 10220 20212 30005 40099 52006 8617/=
58477 11214 81104 10232 20228 30061 40104 52016 69901 75000
886//=
58666 31630 81104 10235 20234 30002 40100 52002 71040 885//=
58725 31575 71403 10267 20214 39847 40096 52019 71790 879//=
58760 31450 81802 10238 20232 40102 52007 71000 889//=
58921 11675 72503 10283 20220 39853 40086 52019 69901 70098
879//=
59431 11580 71401 10276 20254 39914 40057 52002 60021 70098
879//=
57957 11458 82202 10255 20239 39880 40070 52021 60091 79598
889//=
57259 11568 80902 10260 20221 40027 52017 69981 76060 8277/=
57476 11962 81802 10261 20251 40033 52002 60261 70098
8807/=
57494 11562 83201 10275 20257 30013 40041 52011 60021 79598
889//=
57584 11962 81604 10312 20232 40043 52011 69901 76060 8807/=
57598 31670 81401 10291 20232 40067 52027 72990 889//=
57745 11577 32003 10297 20217 39727 40034 52010 69901 70080
81102=
57776 11/00 91412 10208 20205 40070 52007 69921 78040 333
91121 91516=
57793 11568 70000 10265 20239 40071 52019 60061 72998 879//=
57799 11778 82702 10268 20245 39988 40068 52022 69901 70098
885//=
57866 32580 21605 10291 20206 39861 40057 52014 82100=
57972 11961 71403 10282 20216 39869 40080 52021 69911 72198
8704/=
58102 32870 81102 10299 20180 30008 40056 52013 885//=
58203 32970 70903 10300 20198 30006 40049 52010 85042=
58221 32962 51104 10293 20220 30039 40072 52009 85040=
58314 11965 80000 10265 20241 39969 40053 52002 69991 70098
8807/=
58321 32660 81604 10297 20246 40061 52011 8757/=
58338 11668 82003 10255 20232 40073 52018 69911 78098 889//=
58424 11963 82202 10297 20264 30043 40065 52020 69901 70060
8807/=
58437 11/00 92208 10169 20166 38181 52016 69901 76098=
58506 11275 71606 10217 20196 40085 52016 69901 72560 879//=
58527 11670 80901 10276 20231 30010 40082 52031 69901 79190
8747/=
58606 11663 80401 10260 20232 30017 40069 52026 69971 79596
889//=
58715 31580 70000 10291 20240 40073 52021 71390 8294/=
59102 11562 60000 10260 20240 40095 52014 69981 70098 82130=
58926 11975 73201 10242 20230 40096 52024 60101 72998 8704/=
357078 004086 356080 357068 004076 007091=
57025 70222 886// 22274 00034 20403 80034=
57297 11460 82005 10252 20232 39916 40048 52014 60361 78098
889// 333// 91121 91511=
52533 32970 83601 10232 20077 38424 49988 57002 85037 333//
05152=
54094 11558 70702 10165 20143 39833 40117 52028 60081 78098
879// 333 93906=
58931 31/00 91607 10194 20194 38377 52012 71794=
53614 32980 73403 10244 20102 38815 40015 57003 86032 333
00151=
56964 11470 80000 10214 20186 38635 40028 52011 69971 78098
889// 333// 00155=
58311 11567 71602 10284 20240 40058 52014 69901 76060 875//=
53543 32780 70404 10232 21044 38497 40047 52001 81402=
54534 32965 21602 10225 20167 40112 52009 80002=
53480 32680 41101 10206 20057 40093 52002 82402=
54102 32680 21602 10224 20093 39013 40114 52013 82400=
58238 31930 71601 10273 20231 30063 40072 52014 71000 8704/=
53898 32963 83604 10238 20192 40093 52008 8802/=
51628 32780 73202 10246 20131 49993 57004 82962 333 05151=
54857 31/01 91407 10157 20155 30017 40107 52002 74544=
54346 11965 00903 10192 20150 40127 52014 69901 70060=
58667 31320 82702 10232 20229 40109 52009 71000 886//=
58549 31775 80901 10264 20226 40090 52018 70090 8757/=
51467 11680 70000 10180 20071 38182 57015 69941 70098 82402
333// 00154=
59298 32675 71402 10291 20249 40093 52020 82962=
59664 11470 71405 10290 20253 40070 52009 69901 70080 83102=
57996 11675 82503 10250 20236 40088 52025 60021 72598 884//=
59478 11576 61602 10283 20246 40090 52018 69941 70080 82102=
59317 32565 71802 10289 20254 40101 52013 81102=
59271 11565 70000 10264 20248 40083 52014 69911 70098 81442=
59462 31572 71602 10298 20233 40074 52013 70090 879//=
54808 32970 70404 10251 20209 40078 52014 80002=
54823 31940 80903 10250 20205 39890 40083 52006 70400 8802/=
57993 11980 72703 10294 20211 39937 40078 52019 69921 70080
81042=
59758 11475 71402 10270 20249 30040 40061 52010 60081 70098
82202=
53845 11670 70701 10276 20137 38972 40002 52002 69901 70098
879// 333 00354=
54236 31670 71803 10240 20151 30011 40109 52016 70090 85502=
54493 32970 00000 10169 20134 40130 52010=
56374 11580 71103 10165 20124 37368 52007 69901 70098 874//
333// 05201=
54208 32680 21603 10180 20097 38745 40121 52007 81402=
53192 32580 40403 10218 21040 38879 40122 52012 82902=
50915 32980 63603 10224 21037 39180 40121 52014 80002=
54012 32980 22001 10198 20109 39010 40126 52006 80002=
54423 32978 20000 10228 20137 39670 40114 52013 80002=
54027 32680 21601 10239 20087 39551 40103 52011 82102=
50834 32980 22202 10195 20094 40121 52009 80002=
50727 32980 11601 10123 20034 38977 40138 52009 80002=
54115 32680 20000 10231 20097 40112 52011 82400=
54226 32980 20000 10215 20149 40121 52018 80002=
54026 32680 60402 10237 20096 39802 40108 52020 82402=
54292 31575 70702 10194 20098 39897 40106 52019 71300 82902=
54263 11570 80205 10188 20137 40117 52021 69911 79500 889//=
54377 11665 42502 10175 20148 40137 52019 69901 70098 84400=
54273 11570 70407 10218 20135 40112 52024 69901 78000 879//=
54049 32970 21102 10210 20133 40119 52017 80002=
50949 11665 70000 10202 20170 39958 40119 52018 69901 70098
85402=
54266 31570 62202 10199 20130 40117 52015 71300 86900=
54181 11665 70000 10178 20144 40119 52016 60081 70098 874//=
54386 11570 80203 10142 20117 40130 52025 69971 78098 889//=
57178 31750 70402 10288 20224 39885 40034 52009 70500 8243/=
57193 32665 80401 10289 20182 40049 52006 885//=
50774 11660 70202 10133 20113 39819 40110 52011 69901 78098
879//=
54618 11962 80702 10208 20156 30082 40099 52001 69901 70060
8807/=
54705 32962 73403 10232 20167 40096 52002 80002=
54449 32960 60701 10186 20166 40117 52008 80002=
54518 32962 80902 10229 20137 40111 52009 80007=
59023 11580 70902 10273 20240 39807 40046 52015 60031 70098
82141=
53463 32980 70903 10249 20045 38898 40053 57001 80002 333//
00202=
53352 32980 70703 10221 20024 40074 52001 80002=
53231 32980 71106 10230 21038 38438 52008 80002 333// 00002=
53276 32680 10904 10213 20062 38834 40094 52005 81402=
53149 32980 20906 10231 20018 38744 40071 52001 80002 333//
00202=
53068 32780 11403 10245 21002 39032 40096 52006 81400 333//
00504=
53529 32980 71103 10255 20015 38555 40019 52004 82032 333//
00100=
53336 32980 70702 10249 21015 38659 40036 54000 80002 333//
00103=
53391 32680 30902 10185 20062 38502 40108 52005 82402 333//
00504=
53083 32680 30703 10198 20015 40114 52011 82402 333// 00604=
54646 32575 81803 10170 20153 40119 52010 889//=
56096 11675 80000 10217 20120 38852 40027 52011 69901 70060
885// 333// 00555=
54945 31/00 90905 10166 20164 40113 52005 74740=
56684 32580 12502 10248 20109 37831 52002 81100 333// 05102=
56977 11580 71401 10235 20203 40038 57001 69991 70098 85902
333// 00152=
56533 11580 70000 10192 20172 38345 57002 69991 70080 87900
333// 00153=
59007 32580 60000 10246 20191 40038 52006 84432=
56954 11580 83403 10234 20183 40041 52028 69911 71798 86963
333// 00256=
56969 11680 70000 10231 20218 40044 54000 60011 70098 874//
333// 00256=
56875 31680 21802 10254 20170 38300 52008 70090 82402 333//
00000=
56778 11580 11804 10228 20158 38052 54000 60011 70080 81440
333// 00000=
56946 32680 60000 10287 20203 49997 52007 81202 333// 00000=
56651 11680 30000 10201 20118 37585 52004 69901 70080 83400
333// 00000=
56966 32780 71406 10307 20213 49984 52011 81902 333// 00101=
56838 32680 22002 10292 20214 40008 57002 82402 333// 00002=
56751 32678 21805 10232 20131 37953 54000 82402 333// 00000=
56768 32980 01801 10257 20159 38162 52006 333// 00000=
56786 32580 21606 10211 20169 38060 57001 81242 333// 00051=
56994 32580 71104 10245 20189 40045 52012 874// 333// 00102=
56886 11680 52004 10225 20166 38216 57001 69941 70098 81102
333// 00100=
56986 11265 61403 10209 20196 40052 52011 60031 70080 85402
333// 00151=
56748 32680 20000 10242 20144 38283 52007 81440 333// 00000=
56985 32580 61802 10234 20178 38644 40035 52013 81962 333//
00151=
56951 11780 71804 10262 20167 38431 52008 69901 70080 874//
333// 00000=
52707 32675 72904 10176 21048 37246 52001 82402 333 00151=
53821 32980 71803 10271 20067 49987 52005 87040 333 00253=
52418 32968 80000 10262 20140 38762 49991 52006 83047 333
00001=
52889 11980 81402 10231 20114 38391 49989 52006 69901 76060
8807/ 333 00255=
52652 11968 80902 10243 20048 38426 49992 52013 69901 76060
8807/ 333 00101=
52984 11770 80000 10170 20141 38009 52007 69931 76086 885//
333 00052=
52986 11670 10181 20122 38040 52004 69901 70080 879// 333
00152=
53923 32980 72202 10236 20062 40008 52002 8703/=
57405 11765 83404 10235 20192 40003 52015 69901 78000 884//=
56188 31756 82901 10231 20180 40009 52009 71000 8147/ 333
00053=
57411 11459 83402 10213 20196 39652 40003 52005 60031 79500
889//=
56492 31830 83405 10278 20200 39601 49983 52010 71000 885//
333 05151=
56193 32764 80000 10218 20141 40031 52011 8247/ 333 00253=
56666 32680 51601 10341 20118 49912 57002 85400 333 05203=
56459 11880 62504 10238 20096 37582 52004 69931 70080 86100
333 05101=
56475 31680 70202 10230 20163 38229 52032 71790 879// 333
00051=
56671 32780 12203 10267 20122 38126 54000 81442 333 05102=
57583 32970 80000 10302 20266 40045 52016 8807/=
58236 32961 21603 10282 20224 40065 52012 80002=
58215 32662 71103 10304 20209 40054 52002 86542=
58326 32960 81405 10298 20238 40072 52019 8807/=
58436 11678 81801 10247 20234 40086 52031 60021 79598 889//=
58319 11970 83203 10258 20239 40063 52010 69901 70098 8807/=
58015 32965 70706 10284 20216 40057 52006 80002=
58208 11668 81403 10283 20233 40046 52012 69901 76096 8457/=
52267 32980 71105 10304 21048 38975 49988 52003 80002 333//
00101=
52378 32980 80910 10294 21138 40007 52002 80007 333// 00100=
53502 31959 70707 10284 21049 40005 52003 70700 82032 333//
00100=
52495 32980 70404 10258 21009 38603 40006 57003 80002 333//
00100=
53602 32680 71405 10247 21025 38368 57002 83502=
52576 32980 81106 10265 21061 38398 52003 8802/ 333// 00151=
58665 11540 80901 10245 20239 40094 52007 69901 71080 8747/=
58647 11666 80000 10267 20238 40094 52027 69931 79198 885//=
58464 31565 81404 10238 20225 40098 52019 71700 8297/=
54929 32960 81403 10252 20208 40090 52010 8802/=
54863 32960 71405 10167 20162 40114 57001 80002=
54916 32960 81402 10260 20191 40081 52010 80007=
54751 31958 71107 10161 20149 40110 57001 71000 8703/=
54725 32962 80704 10206 20185 40097 52006 80007=
50548 32980 00000 10181 20062 40112 52006=
50434 32980 20000 10118 20017 39288 40143 52013 80002=
50632 32980 10000 10150 20023 39280 40128 52005 80002=
50603 32680 60000 10210 21043 39498 40133 52005 81132=
53564 32980 70403 10274 20077 39088 40026 57001 82032 333//
00201=
53853 32963 80904 10244 20133 40034 52018 8802/=
53959 32965 70905 10288 20181 39602 40018 52011 8703/=
53673 32960 81404 10217 20140 40080 52010 8807/=
53787 11562 80701 10215 20117 40072 52023 69951 70098 889//=
54311 32580 20000 10209 20124 40116 52012 81202=
54624 11764 80403 10207 20153 40111 52011 69901 70060 885//=
53798 32960 73602 10232 20171 30010 40100 52006 80002=
51705 11780 71804 10193 20009 37756 52011 69901 71798 879//
333// 05300=
51839 32975 60401 10293 20030 49942 57002 80002 333// 05406=
57071 32961 80708 10263 20183 40052 52018 8802/=
57083 32960 70705 10262 20198 39941 40069 52019 8703/=
56959 11762 80000 10247 20230 40022 52003 69961 72598 889//
333// 00254=
56586 32680 10000 10270 20105 37971 52004 81442 333// 05102=
54776 31/00 91604 10138 20138 30066 40123 52001 74544=
58362 11665 81104 10236 20221 30086 40096 52005 69901 76000
885//=
57144 11675 70402 10219 20184 40035 52010 69901 70060 8253/=
57037 32962 73402 10275 20150 40000 52012 8703/ 333 00454=
53738 32680 71103 10264 20117 49986 52001 875//=
57036 32963 82202 10262 20141 39563 40007 52007 8807/=
57046 32571 71803 10164 20059 37908 54000 8113/ 333 00255=
56385 11/00 93402 10100 20100 36990 52008 69911 76064 333
05251=
55578 32780 50000 10203 20063 36313 57011 85200 333// 05202=
55773 32670 21604 10089 20018 36017 57002 82100 333// 05103=
55664 32880 12706 10174 20003 35984 52002 81100 333// 05102=
55680 32880 12005 10171 20019 36197 52001 81100 333// 05101=
55572 32780 30000 10193 20030 36195 57009 83200 333// 05202=
55655 11580 21608 10099 20028 36470 57008 69901 72580 82400
333// 00001=
55569 32780 12205 10207 21065 36174 57009 81100 333// 05202=
57143 32960 71104 10252 20150 40033 52012 8703/=
56196 32980 80904 10240 20156 40019 52020 8807/ 333 00252=
54308 32980 72701 10203 20128 40121 52014 80002=
59133 32662 72504 10261 20255 40100 52020 875//=
59321 32580 52003 10276 20259 40105 52019 81142=
54436 11970 70000 10218 20161 40120 52017 69901 70080 80002=
54715 32966 70405 10221 20180 40096 54000 87030=
54753 32960 70703 10210 20155 30100 40106 57007 80002=
57504 32761 80704 10264 20200 49985 52014 885// 333 00053=
59754 11472 71103 10266 20252 40058 52005 60131 72598 879//=
54259 11670 62901 10185 20140 40127 52015 60011 70098 86500=
50948 32670 41403 10213 20146 40112 52016 84500=
54374 32662 72001 10183 20129 39740 40130 52026 879//=
50936 32670 70902 10230 20097 40108 52013 82502=
54606 11962 70401 10216 20181 40102 52010 69901 70060 8703/=
53646 32980 70904 10271 20034 38881 40020 57001 80002 333
00351=
51818 32964 31402 10300 20028 49937 57019 80002 333 05403=
56357 32680 62002 10155 20022 36442 52006 86400 333 00001=
56152 32680 61803 10157 20016 36282 52005 85902 333 05204=
56144 11780 50000 10166 20096 36790 57002 69951 70098 82442
333 05251=
57313 11780 80000 10200 20194 40014 57005 60091 78098 8547/
333 00156=
56146 11780 30000 10194 20035 36685 52008 69901 70080 83900
333 05204 91118 91522=
56247 32880 72703 10279 20075 37352 57032 86102 333 05301
20129=
56462 11580 61403 10164 20114 37102 52017 69961 70098 86400
333 05100=
56257 11680 22203 10160 20011 36269 52008 69901 70080 82100
333 05103=
57251 11765 81602 10278 20207 40033 52025 69901 76060 8157/=
57279 11665 81407 10230 20221 40050 52022 60031 79500 889//=
57355 11770 82503 10246 20207 40027 52016 60031 70098 8657/=
57385 11560 80903 10240 20233 40042 52013 60171 79598 889//=
57458 11458 83402 10230 20224 40046 52010 60031 78080 889//
333 00151=
58407 31761 80904 10294 20252 40046 52010 71300 8297/=
57134 11680 80000 10178 20138 40022 52005 69941 72160 8657/
333 00256=
52447 32980 80904 10275 20010 49977 57002 8807/ 333 05100=
52446 32770 80903 10270 20025 49980 52003 889// 333 00002=
56093 11575 81803 10144 20116 37646 54000 69951 70060 885//
333 00253=
57106 11975 80000 10167 20151 40060 52005 69991 70060 8807/
333 00459=
52633 11670 80203 10038 21005 36750 54000 60041 78080 889//
333 05151=
56067 11475 82903 10096 20081 36510 52006 60031 79598 889//
333 05153=
52765 11680 81102 10094 20072 37162 52023 60041 78098 889//
333 00157=
52681 32975 70905 10266 20017 38544 49991 52001 8703/ 333
00151=
57245 11660 80903 10221 20214 39702 40033 52025 60081 79598
889// 333 00458=
52323 32780 71106 10247 21032 38164 52005 82402 333 00002=
52836 32780 80000 10100 20007 36890 52012 8152/ 333 00256=
56046 11675 80000 10053 20040 36255 52026 60171 78098 889//
333 05152 93906=
52866 11670 80402 10138 20102 37649 52017 69961 78080 889//
333 00056=
52996 32475 71607 10138 20063 37533 52009 82442 333 00254=
52787 11780 82002 10090 20057 37021 52004 69961 72580 889//
333 00054=
52436 32970 80902 10239 20029 38376 49988 52008 85037 333
00001=
53487 32965 71404 10231 20106 40070 52009 80002=
53772 11656 80906 10199 20157 39222 40091 52023 69931 71098
889//=
53664 32570 41404 10257 20117 40036 52001 84100=
59849 11572 71602 10261 20241 40059 52009 60091 70098 83102=
58556 11662 80000 10238 20232 40091 57005 60611 72598 8296/=
57290 32760 81805 10284 20220 40041 52011 8457/=
56172 32980 40000 10215 20130 37258 52007 83032 333 05351=
57237 11760 80901 10183 20170 40042 52010 60281 79598 889//=
57432 32965 70000 10284 20240 49982 52002 8703/=
57633 32675 70000 10263 20217 39284 40021 52008 87400 333
05102=
57426 32768 60702 10268 20219 49985 52004 86400 333 05251=
56137 11680 52003 10225 20006 36754 52011 69901 70080 85400
333// 00001=
56116 11680 50000 10169 20009 36304 52005 69911 70080 82440
333// 05101=
56223 32680 22706 10157 20021 36508 52010 82100 333// 05101=
56331 32680 61405 10142 20023 36400 52007 86902 333// 00051=
78583 32475 21103 10265 20246 40134 82402 333 01307
10313 20255 58012  70001 82816=
91648 31599 21626 10275 20248 40104 58008 70200 82100 333 10310
564//=
91631 11599 30803 10263 20253 40097 60021 70182 83200 91148 333 10307
5
6
2
/
/
=
91636 11498 80910 10275 20254 4//// 60041 71489 8137/ 333 10290
5629/=
91643 11498 81018 10264 20251 40088 50001 60081 78088 8437/ 333 10307
5
6
2
9
/
84917 88460=
89054 31960 30000 11082 21090 40123 57004 70142 80005
333 11047 21094=
89056 31980 30000 11062 21066 40127 57010 70340 80001
333 11050 21067 40997 55000 72005 83070=
89057 32660 60906 11049 21063 40129 57008 86030
333 11025 21049 42005 55000 72020 86345=
89058 32962 02502 11080 21080 40128 57011=
89059 32560 71104 11016 21044 40142 57005 87600
333 11014 21076 43023 55010 72000 87730=
89251 32962 00612 11049 21079 40110 57020
333 21070=
78897 11575 50908 10276 20212 40180 51008 69901 70386 84202
333 012/5 10316 20245 58002 79999 84821 83076=
60096 31325 60210 10196 20175 40152 51003 71022 86600
333 86706=
60101 32956 32807 10251 20190 40178 53009 80002
333 83073=
60115 32675 63610 10333 20167 40151 58002 81282
333 81840 86073=
60135 32456 23006 10260 20182 40170 51002 82500
333 82616=
60150 32560 33006 10315 20138 39532 40141 50000 82202
333 82830 83070=
60156 32960 00204 10310 20128 40162 58004=
60230 32960 33004 10370 20018 40126 58008 80002
333 83070=
60060 31312 42414 10192 20169 40155 52023 71044 83602
333 83710 95300=
60105 32958 23208 10285 20219 40168 50001 82030
333 83360=
60107 32560 53208 10236 20201 40185 52002 85800
333 82816 84626 95310=
60141 32660 43208 10320 20127 39514 40143 51004 82202
333 82833 83073 95400 95800=
60195 32675 6//// 10297 20093 38553 48571 58008 83202
333 83833 85073 95500=
60210 32670 42013 10330 20117 39032 48589 58007 82232
333 82830=
60265 32665 31812 10335 20032 38942 48597 52001 81282
333 81840=
60318 32458 61008 10245 20190 40194 51008 86200
333 82710 85820=
60340 32460 60214 10238 20211 40185 52004 86200
333 83816 84820=
88963 32965 00000 11101 21132 30120 40150 57011
333 11061 21115 92407 95000
555 64222 65083=
88968 11465 81422 11055 21073 30053 40068 52019 60014 70232 885//
333 11055 21074 42002 56499 88615 90107 92427 92851 94060
555 6000/ 64087 65220 DIEBEL/SE=
89034 32960 01824 11099 21170 39662 49990 57019
333 11070 21112
555 6000/ 64032 65045
89053 32962 00512 11064 21091 30116 40130 57011
333 11054 21084 92417 92840 95000
555 64050 65218=
89055 32965 30208 11126 21145 39896 40157 57004 80006
333 11104 21130 56000 83270 92702 92843
555 10134 60131 64210 65070 67134 72026 89174=
89066 32970 00000 11078 21113 30069 40068 57009
333 11071 21112 92407 92840 95000
555 6000/ 64085 65015=
81405 11360 61802 10264 20242 40130 60044 70386 84232
333 20231 59006 83808 85080=
78858 11470 70310 10247 20225 30125 40181 69922 78082
333 10290 20245 58006 70006 83818 87645=
61901 32481 81/14 10187 20128 40195 888// 333 58002 82818 88630=
61902 32586 51218 10290 20166 40162 81101 333 58009 81827 85081=
88889 11582 72910 10001 21004 40132 57006 69904 70275 875// 333
21008 3/102 41998 87626=
89564 41/00 91355 11084 21089 39885 49906 52024 73933
333 11076=
89571 41465 60415 11078 21135 39962 49992 56003 70122 81620
333 11047=
89573 32970 80931 11065 21145 39975 49998 54000 8807/=
89611 41/00 90930 11052 21063 39727 49781 56007 73933
333 10008=
33815 42598 83302 10189 20088 39964 40175 52001 885// 555
19034=
48698 01458 80000 10256 20246 30043 40061 60104 72998 84978 333
10317 50270 55041 00897 21191 30832 60107 70099 82915 86466=
63980 42482 61308 10283 20228 40104 82239 919//
333 59004 82818 86075 94312 91119=
78388 32578 70907 10260 20223 40151 87800 333 01200 10335 20217
58004 85820 87630=
81408 16/// /1702 10264 20248 40128 60164
333 20228 59007=
81415 16/// /0000 10256 20235 40134 60164
333 20226 59004=
60155 32956 00404 10251 20194 40165 58002=
60127 32570 60000 10346 20148 39594 40146 57008 82902
333 81826 81933 85073=
91570 36/// /1304 10224 20221 30108 40111 50000
333 10233=
91574 36/// /1608 10207 20134 30125 40131 50001
333 10234=
91598 06/// /1324 10155 30098 40130 50005 69961
333 10184 69947=
89642 41530 80904 11129 21159 39981 40037 58001 77377 885//
333 11090 21129 88626=
76342 32940 00000 10248 20160 39425 40094 52004 91135 333
10354 20244 30024 58007 70000=
76402 32950 00000 10153 20142 30045 40105 57006 91145 333
10298 20136 30012 55080 22034 59010 70000=
76405 32940 01503 10178 20151 30072 40092 57008 91145 333
10370 20160 30016 59017 70000=
76412 31960 01402 10235 20210 30098 40138 54001 91142 333
10355 20220 30/// 58003 70000=
76423 32565 40000 10154 20132 38169 40097 52007 83430 91155
333   10300 20140 30013 58013 83640 81358=
76571 11554 80000 10164 20149 38158 40091 5//// 60041 75152
887// 91130 333   10260 20156 32015 561// 58017 70120 88633
=
76640 32120 80901 10240 20232 30115 40145 57005 8802/ 91135
333   080// 10356 20230 30/// 59001 70000 88556=
76685 32550 40000 10130 20120 37866 40061 57003 82601 91155
333   10248 20128 30009 56909 58001 70000 82624=
76687 32962 53401 10166 20156 38648 40135 53001 80001 91130
333   10264 20165 31013 56//7 58007 70004 85073=
76726 01460 60000 10180 20180 38395 40091 52004 60029 74044
86400 91140 333   10260 20167 32016 56100 58005 60029 70018
87602=
76737 32980 40000 10136 20133 38777 40137 56002 80001 91147
333   10260 20135 30011 56005 58011 70074 84080 91300=
76775 01565 80303 10178 20169 38500 40141 57005 69951 70544
8555/ 91145 333   10288 20170 30016 5699/ 59006 69951 70048
85627=
76843 32565 80000 10222 20209 39537 40176 53005 8552/ 91150
333   0/199 10315 20220 30021 58018 70002 85633 83458=
68994 12698 72610 10030 21044 30074 40101 52019 69921 87500
222// 00110 20000 300// 40000
333 10040 20012 91024 555 20002 91010=
76305 32970 10000 10230 20193 30068 40078 5//// 81030 91140
333   0/050 10330 20227 30/// 59001 70000 81358 90800=
76556 01360 80000 10208 20202 39085 40076 54000 60231 75255
8422/ 91130 333   10310 20200 31019 5636/ 58007 60231 70233
84710=
81006 91135 333   10242 20118 30010 56//1 57281 58004 70002
81277=
76675 01460 81703 10113 20093 37379 40072 51001 69901 70566
8447/ 91150 333   10204 20109 32009 5699/ 58003 69901 70194
84620=
76741 31540 83601 10252 20241 30096 40116 50001 70544 8522/
91140 333   0019/ 10298 20250 30/// 58011 79999 84820 81927
83454=
76805 32965 43402 10242 20226 30107 40107 57004 8224/ 91135
333   10340 20240 30023 58005 70182 82350 82836=
76848 32470 70000 10158 20148 38380 40005 53003 87500 91140
333   10240 20155 31/// 56100 58007 70179 87610=
76903 31770 80000 10243 20213 39998 40128 54000 70422 83450
91145 333   10310 20235 30023 56290 58013 70003 83650 85358
=
13585 42698 73606 10181 20095 39422 40186 51003 87800=
13598 42698 83605 10131 20085 48515 52010 885// 333 91109 91334=
53782 11957 83401 10182 20140 40114 52009 69901 71066 80007=
53863 11958 80208 10208 20167 40070 52028 69901 76000 8807/=
53975 32960 70904 10246 20168 40056 52014 82032=
53478 32675 70904 10224 20032 40073 52005 82402=
54836 32960 80403 10241
20200 40089 52002 80007=
17601 32666 12208 10276 20170 40099 57010 81200 333 81840=
11036 32784 10304 10187 20025 30034 40258 57010 81801 333 81850=
11010 32580 39901 10182 20067 39885 40252 57013 81140 333 81830
83367=
11120 32786 11002 10212 20088 39543 40215 56019 81100 333 81850=
11150 32684 29902 10199 20069 39721 40240 57010 82241 333 81845=
11240 32788 11903 10202 20069 39843 40246 58010 81201 333 81850=
11816 32782 30503 10199 20028 30097 40255 57010 83100
333 83850 =
11826 32784 13503 10193 20047 30061 40254 57005 81101
333 81850 =
11903 32780 23506 10189 20023 39870 40238 58004 82200
333 82850 =
11934 32782 40508 10138 20015 39436 42864 51004 84200
333 84850 =
11968 32780 63607 10147 20050 39978 40254 51008 83130
333 83850 85360 =
11841 32780 20303 10170 20033 39884 40250 57003 82100
333 82850 =
11858 32686 13404 10208 20071 30106 40252 58002 81100
333 81846 =
11916 31/09 93507 11001 21004 38040 48548 52019 74344
333 89/00 91123 =
11927 32782 61201 10187 20048 39983 40236 52002 86200
333 86856 =
11930 31/00 93407 11037 21040 37428 47115 51013 74944
333 89/00 91120 93598 =
11993 32580 83303 10129 20076 30042 40256 52011 885//
333 84626 88643 =
11855 32782 13307 10187 20034 30091 40252 58004 81100
333 81850 =
11867 32780 20703 10183 20045 39944 40251 57004 82201
333 82850 =
11880 32775 30302 10207 20047 30074 40239 58002 83200
333 83850 =
11918 32684 51301 10137 20054 39446 42876 53002 85200
333 85840 =
11933 11684 30402 10106 20001 38713 48564 51006 69901 70288 83460
333 83833 =
11938 32670 50506 10131 20043 39195 42855 51008 84260
333 84833 =
11976 11575 83406 10135 20082 39996 40256 52005 69901 70282 888//
333 83826 88640 =
11978 32682 63606 10158 20095 30128 40255 52007 85830
333 83846 =
54843 31950 80703 10217
20203 30065 40091 57002 71000
80007=
12772 32682 50304 10180 20053 39964 40241 50003 85200 333 85840=
12822 36/// /3603 10192 20036 30115 40254 58005=
12843 32683 53002 10197 20044 30074 40238 58002 85200 333 85843=
12882 32682 50206 10172 20080 30107 40238 52009 85200 333 85843=
12925 32786 13604 10197 20055 30084 40251 58008 81100 333 81850=
12942 32675 23606 10185 20074 30009 40249 50000 82200 333 82833=
12982 32670 63604 10196 20079 30138 40237 50003 83460 333 83640=
10004 46/56 ///11 10132 20124 30164 40164 57007
222// 00126
333 55300 91116 91212=
10015 11657 81706 10140 20111 30165 40175 55005 69901 72162 8257/
333 553// 82636 88460=
10020 32762 81807 10149 20105 30139 40174 56007 8257/
333 55300 2//// 82650 87360=
10035 32770 71905 10179 20062 30130 40187 56012 8657/
333 55302 86650=
10055 32675 71504 10185 20090 30184 40194 57010 83202
333 55308 83840 87080=
10147 32680 72206 10191 20080 30175 40193 56011 8383/
333 55300 83845 87360=
10162 32775 72206 10195 20087 30115 40195 56013 84238
333 55304 84850 85280=
10184 32788 62004 10200 20068 30203 40210 56014 83201
333 55308 83856 83073=
10224 32670 72207 10186 20103 30185 40191 57008 8121/
333 55301 81838 87460=
10270 32782 72104 10200 20084 30166 40219 56011 8623/
222// 06170
333 55306 86850 83661=
10338 32680 71906 10187 20089 30126 40196 58009 8513/
333 55304 85838 87360=
10361 32775 62106 10207 20064 30117 40217 56011 84232
333 55306 84850=
10384 32782 72104 10201 20063 30162 40220 56013 83232
333 55306 83856 83364=
10393 32781 72204 10202 20064 30105 40228 58013 83244
333 55309 22834 31174 83856 84364=
10400 32682 72207 10204 20115 30149 40197 56006 87800
333 55303 84835 86656=
10438 32683 71803 10178 20089 39943 40216 56005 8323/
333 55302 83836 87360=
10469 32582 42005 10198 20060 30066 40225 57010 83230
333 55307 83830 84360=
10488 32782 71604 10195 20045 39959 40231 58012 8223/
333 55301 82850 87363=
10548 32580 72006 10167 20087 39695 40222 57005 84238
333 55304 84830 83360 86275=
10637 32681 62106 10204 20111 30092 40225 57009 86232
333 55308 86836=
10685 32686 72003 10158 20069 39578 40234 55004 82232
333 553// 82840 86080=
10738 32686 53002 10191 20101 39770 40222 58006 84831
333 55300 82840 83656=
10763 32681 71503 10190 20092 39862 40231 58008 86832
333 55307 22529 84840 83657=
10788 32580 61402 10179 20103 39820 40239 58010 83131
333 55308 83830 83363=
10852 32684 53303 10189 20101 39683 40233 56007 84231
333 55308 84845=
10946 32689 12603 10186 20086 39423 40222 58004 81100
333 55310 81840=
10091 32581 61303 10160 20104 30164 40214 57010 83206
333 55310 22559 30837 83825 86273=
10113 11658 81906 10155 20106 30152 40171 56008 69901 72162 875//
333 55300 83637 85650=
10129 11568 82008 10182 20102 30171 40183 56007 69901 70362 878//
222// 2//01
333 55300 83825 86650=
10131 32568 81906 10179 20098 30168 40182 55007 8287/
333 55300 81825 87360=
10170 42582 61904 10200 20069 30183 40197 56012 85208
333 55307 85826 86280=
10280 32780 62007 10190 20078 30116 40211 58014 84231
333 55308 84856=
10291 32781 71905 10198 20062 30156 40221 56015 84236
333 55306 84856 84280=
10305 11568 82205 10172 20115 30164 40195 55001 69901 76022 8482/
333 55300 84824 84650 87460=
10315 31675 82204 10180 20105 30136 40198 55003 72122 878//
333 55300 83833 86637=
10348 32682 62105 10194 20093 30104 40207 57012 81131
333 55307 81840 83362=
10385 32784 71805 10209 20072 30164 40223 58013 83271
333 55308 83850 83465=
10427 32585 72107 10138 20077 39222 48543 51002 86232
333 55306 86826 91113=
10453 32581 72012 10096 20054 38901 48534 56005 8483/
333 55301 83820 84626 85359 91117 91212=
10474 32782 71905 10203 20079 30096 40221 58012 8327/
333 55306 22373 83850 87362=
10490 32782 71905 10200 20075 30112 40230 57013 8123/
333 553// 22081 81850 87361=
10499 32681 82004 10179 20080 39956 40236 58010 81137
333 55310 81842 83363 88281=
10501 11684 72105 10214 20115 39957 40195 56005 69901 70262 81171
333 55308 81840 87360=
10513 32684 62105 10213 20111 30087 40203 56007 83831
333 55308 82840 84362=
10532 32682 62004 10207 20104 39987 40214 58009 83201
333 55305 83840 85077=
10544 32584 52207 10149 20079 39167 48563 54000 83131
333 55305 83826 83360 91113=
10554 32584 72106 10175 20069 39842 40219 57006 8583/
333 55304 22169 82820 83650 87360=
10577 32782 82304 10175 20062 39737 40226 58010 8425/
333 55301 21713 31590 84850 87361=
10578 32480 61705 10109 20052 38862 48561 56003 86200
333 55305 22646 31404 86815=
10609 32675 52310 10195 20110 39900 40219 54000 84230
333 84835 =
10655 32684 72305 10203 20092 39908 40223 57005 8584/
333 55306 84840 84656 85363=
10688 32680 72102 10171 20079 39726 40236 57007 8227/
333 55305 82840 86365=
10708 32681 62205 10193 20116 39854 40225 56003 85230
333 55305 85835=
10729 32684 51904 10220 20129 30108 40225 56012 83131
333 55308 83835=
10776 31675 51702 10181 20111 39813 40245 58010 70242 83232
333 55308 83836 83080=
10803 32785 12404 10220 20105 39884 40230 58005 81131
333 55310 81850=
10836 32588 42801 10160 20089 39379 40223 58002 83231
333 55306 83828=
10929 32580 20801 10193 20128 39716 40230 58009 82200
333 55310 82820=
10962 32689 42803 10169 20087 39123 48585 58001 84200
333 55310 84840=
54909 32968 80702 10270 20209 30007 40066 52011 8807/=
54826 32962 80907 10157 20132
38450 57004 85047=
41170 32964 00807 10361 20155 39984 49997 333 59019=
57067 32960 80401 10252 20192
39396 40032 52002 8807/=
11101 32575 13402 10165 20133 39725 40236 57002 81101 333 81830=
11022 36/// /0602 10178 20013 39871 40250 333 55310=
11028 32683 21202 10181 20054 39918 40252 57012 82200 333 55310
82842=
11146 32/50 23009 11013 21110 37023 47137 52011 81501
333 818// 95155=
11157 32786 39903 10197 20048 39476 40212 58016 83200 333 83856=
11204 36/// /1206 10221 20079 39440 40187 333 55310=
11231 32789 29902 10193 20066 39690 40239 57013 82201 333 82856=
10253 12675 72105 10198 20098 30183 40204 58014 69901 83232
333 55303 83845 86359=
11423 32586 72504 10160 20068 39377 42864 57007 85801
333 85830 83070 9514/=
11464 32575 72006 10195 20066 39278 42864 57006 83270
333 83821 87357=
11487 31781 61402 10175 20027 39636 40240 57011 70241 83441
333 83850=
11518 32782 61503 10181 20053 39817 40243 57013 82241
333 82850 83365=
11603 32781 61803 10178 20057 39775 40241 58010 81130
333 81850 85361=
11659 32682 32502 10168 20056 39628 40250 58008 82241
333 82843=
11782 32783 40303 10170 20053 39960 40268 58003 83242
333 83850=
17600 32570 12709 10263 20211 30088 40104 57008 81100
333 81830 92427=
17609 32662 11813 10297 20162 30096 40098 58008 81100
333 81840=
44416 32680 32904 10320 20232 39225 49954 83100 333 10324 59029=
44438 32558 20000 10332 2//// 39850 49971 82100 333 10345 59024=
44454 21565 52703 10258 20192 38570 48409 70198 84330 333 10275
59015 69908=
44477 32062 72605 10240 20196 38717 48431 82202 333 10267 59007=
57001 70000 83/// 91150=
48008 22550 40000 10314 20237 40026 83930 333 10328 56480 58011=
48010 22550 72201 10310 20254 40000 83972 333 10320 56566 58007=
48019 32556 10000 10313 20254 40013 80001 333 10320 56006 58000=
48025 32458 51801 10324 20265 49990 82370 333 10336 56560 59003=
48035 32560 62201 10300 20267 49972 70299 83961 333 10335 56599
59010=
48037 32557 42301 10350 20240 49985 81170 333 10365 56490 59008=
48042 32556 51801 10340 20257 49992 83961 333 10360 58003=
48045 21458 70000 10217 20185 70196 87700 333 10283 56900=
48053 32556 71802 10237 20237 40003 71799 83956 333 10350 56459
59012=
48060 21440 80000 10252 20219 40009 70295 8497/ 333 10310 5656/
58022=
48062 32560 82304 10306 20270 40002 85970 333 10322 56590 59010=
48071 32560 53202 10300 20253 40065 83830 333 10323 56590 58036=
48077 21456 82301 10284 20250 40016 75065 85920 333 10327 56459
59001=
48078 21430 71801 10270 20250 40028 75055 8597/ 333 10317 56499
58017=
48080 21560 80000 10273 20256 40017 70255 83870 333 10316 58014
59014=
48097 32457 61803 10280 20250 40038 83331 333 10295 56499 58002=
48109 21497 62301 10264 20246 40028 70266 84970 333 10291 56590
59019=
48110 22496 80000 10270 20256 40051 70255 84377 333 10290 56699
59011=
48112 21496 82701 10239 20239 40062 75065 8677/ 333 10275 56659/
58000=
60715 32960 43316 10305 20136 30190 40195 58007 80002
333 50641 84070=
60735 32970 23606 10330 20096 30114 40191 58005 80002
333 50821 82070=
60760 32960 31410 10333 20126 30071 40175 58001 80002
333 51321 83070=
60765 32960 30504 10275 20172 30198 40204 58003 80002
333 50661 83073=
60769 32962 20308 10282 20171 30190 40195 58003 80002
333 50641 82070=
60775 32975 30710 10306 20096 39847 40185 57004 80002
333 50831 83070=
26038 42598 42805 10160 20032 30153 40198 52002 83303   555 10033=
26058 42498 63103 10152 20047 40208 53005 85301=
26115 42998 02305 10112 20081 30193 40207 51004   555 10031=
26135 41496 63204 10107 20071 30128 40207 52006 78081 86900   333
87912 91114   555 11013=
26141 41498 53605 10139 20046 40202 53005 78981 859//   333 85710
93203=
26231 42598 22005 10152 20096 30215 40224 52011 82200   555 10042=
17022 32670 40405 10206 20176 40142 58006 84200 333
84834 92428=
17038 32670 20507 10201 20173 40160 58008 82200 333 82835 92428=
17050 11558 70108 10188 20164 40152 50002 60021 78082
84270 333 84830 87358=
17060 11660 60120 10206 20179 40133 55000 69901 78022 83270
333 83840 86360=
17096 32570 40910 10196 20040 38231 48485 57007 84100 333
84830 10092=
17124 32665 40703 10266 20129 39232 40104 57016 83202
333 83840 84070=
17128 32670 42007 10242 20102 39047 40094 57018 84200 333 84835=
17170 32670 32504 10184 20056 38327 48485 57003 83100
333 83835 10103=
17195 32670 31604 10230 20070 38957 48507 57014 83100
333 83840 10118=
17219 32565 43608 10321 20132 40101 57015 84100
333 84830=
17244 32670 21204 10262 20060 38970 48494 57012 82100 333 82840 10089=
17280 32670 10305 10296 20101 39316 40062 57013 81100
333 81840=
17350 32960 02006 10326 20137 40082 57021=
17026 32670 70402 10210 20146 40158 54000 84270 333
84835 87360 92428=
17034 32970 03404 10202 20155 40145 58010 333 92428=
17070 32665 42204 10252 20159 39272 40101 57015 83201
333 83840 84070=
17084 32670 50701 10230 20097 39252 40147 57016 85200
333 85835=
17090 32665 32504 10222 20090 38710 48493 57012 83100
333 83840 10113=
17098 32670 60000 10178 20081 38206 48491 57005 86200
333 86835 10111=
17150 31560 70206 10275 20121 40099 57021 71711 85930
333 81925 84835 85360=
17160 32670 32902 10242 20099 39004 48505 57016 83100
333 83840 10109=
17184 32670 32004 10320 20172 40096 57018 82101 333
82840 83070=
17190 32670 41004 10247 20138 39000 48493 57014 84200
333 84835 10117=
17210 32675 20701 10292 20123 39079 40046 57008 82100
333 82840=
17234 32970 42704 10327 20110 40092 57021 84030 333
84360=
17260 32970 03004 10306 20133 39294 40062 57016=
17290 32970 02005 10315 20185 40104 57012 333 92428=
17370 32965 03204 10290 20184 40092 57012 333 92427=
17024 32665 72101 10197 20166 40149 50000 83470 333
83635 87460 92427=
17056 11560 71304 10188 20176 40144 52007 60071 79586
85970 333 81927 84830 87360 92417=
17067 32670 61303 10182 20178 40133 57012 82230
333 82840 85360 92408=
17092 32670 32902 10230 20090 38834 48482 57013 83200
333 83840 10090=
17112 11665 70204 10190 20188 40155 52018 60041 72582 85270
333 85835 87360 92417=
17115 11556 73617 10193 20128 40128 53006 69931 79581 87970
333 82927 85830 87359 91030=
17116 32665 63412 10282 20136 40112 56010 83250
333 83835 86360=
17188 32670 32705 10260 20104 39090 40100 57012 83200
333 83840=
17202 32670 21804 10284 20086 39110 40090 57010 82100
333 82835=
17248 32975 00702 10254 20099 38950 48490 57016 333
10091=
17292 32670 22007 10300 20130 39375 40085 57009 82200
333 82840=
17330 32970 02004 10288 20182 40097 57008=
17042 32970 22905 10230 20158 40163 58007 82030 333
82360 92428=
17074 32670 43403 10230 20112 39210 40109 57020 84200
333 84834=
17085 32670 22102 10274 20081 40113 57022 82100 333
82840=
17100 32670 53601 10260 20019 39140 40101 56012 83130
333 83840 85360=
17140 32665 32403 10222 20075 38698 48496 57014 83100
333 83840 10103=
83840 84360 92437=
17203 32670 23403 10265 20104 38842 48520 58008 82100
333 82840 10115=
17205 32680 30703 10200 20105 38330 48491 54000 83200 333 83840
92418 10098=
17237 32670 20401 10306 20149 40095 57019 82100 333
82840=
17250 32675 21104 10237 20093 38791 48498 57014 82100
333 82840 10110=
17255 32970 00000 10308 20050 39446 40076 57016=
17270 32970 02905 10322 20110 39460 40062 57020=
17275 32980 00205 10270 20067 38948 48500 57004 333
10085=
17375 32675 11807 10302 20132 40104 54000 81100 333
81840 92428=
82704 88706=
11130 36/// /0103 10210 20099 39654 40217 333 55310=
12205 32570 51905 10202 20063 30213 40221 57015 84202
333 91111=
12465 32670 33602 10165 20030 30027 40254 58002 82201=
12560 316// 53201 10178 20040 39924 40260 58004 7//// 85200=
12695 11470 73004 10121 20088 39914 40252 51007 69961 70286 879//=
26215 42698 22405 10144 20054 30207 40212 52006 82200   555 10029=
12120 32598 43602 10162 20056 30231 40238 58005 82239=
12250 32698 22602 10181 21010 30162 40248 57008 81201=
12330 32770 62404 10187 20046 30139 40244 58013 84232=
12375 32770 49902 10170 20059 30124 40252 57002 84200=
12424 32799 52603 10191 20057 30103 40251 58008 83261=
12100 32470 61802 10206 20053 30219 40225 57012 86300=
12105 32598 61802 10181 20098 30186 40226 57014 86200=
12135 32598 40503 10163 20091 30243 40246 54000 83201=
12235 32598 52103 10164 20038 30037 40242 57008 85200=
12270 32698 22302 10170 20042 30070 40247 58003 82100=
12300 32670 62303 10207 20070 30144 40231 57014 85501=
12360 32698 23202 10160 20018 30121 40252 58004 81201=
12385 32698 52703 10154 20060 30057 40243 58002 85300=
12400 32784 71602 10191 20057 30010 40238 58009 8225/=
12435 31670 42702 10177 20078 30087 40254 58007 70311 84200=
12495 32598 63002 10149 20080 39961 40248 50005 86200=
12510 32199 72705 10061 20010 38442 48557 58003 85338=
12520 31699 51401 10165 20045 39831 40254 57008 70141 83232=
12570 11698 60202 10164 20041 39941 40251 58003 69901 70182 86300=
12575 32697 63402 10157 20073 30009 40259 50001 84260=
12595 11597 63202 10148 20106 39988 40243 51008 69911 70162 85930=
26242 42598 63003 10173 20022 30125 40208 54000 85330   555 11031=
33317 41588 83603 10126 20094 39876 40206 52002 70282 8357/=
33393 41497 83405 10110 20090 39851 40239 52016 78085 883/
333 85912=
33506 42698 70204 10184 20131 39962 40149 54000 85130=
33587 42997 83602 10195 20061 39918 40168 52001 8803/=
33711 42698 83204 10194 20092 39957 40157 54000 86101=
33910 42598 62502 10253 20164 30103 40120 57005 86300=
33946 42959 01604 10138 20106 39918 40095 58007=
34300 42497 73203 10212 20150 39955 40134 58002 87500=
34519 41660 70904 10189 20160 39865 40126 53003 72992 85900=
34601 42797 73408 10240 20158 40122 57007 84131=
11172 32775 50000 10166 20031 54000 85100 333 85850=
12160 32599 61903 10174 20076 30193 40244 57006 85201=
12210 32598 62103 10198 20029 30160 40226 56011 85208=
12230 32780 51904 10185 20026 30153 40241 57012 83252=
12310 32662 51903 10208 20078 30201 40230 56015 84341=
12399 32698 22906 10170 20057 30071 40235 51003 82200=
12418 32798 62002 10189 20051 30132 40243 57013 83236=
12469 32798 32803 10168 20025 30027 40253 58003 82201=
12488 32597 53402 10165 20091 30097 40248 58003 85200=
12540 32698 33002 10172 20069 30017 40262 58004 83200=
12566 32784 43203 10161 20034 39976 40259 58002 84200=
12625 11580 53401 10106 20045 39268 42873 55000 69901 70182 85200=
12690 11597 83103 10106 20087 39752 40259 51010 69901 78082 889//=
12115 32598 30604 10160 20083 30219 40232 58010
81238=
12200 32580 42003 10197 20045 30210 40216 57015 82202=
12272 32670 53602 10159 20039 30083 40247 58003 85200=
12280 32670 30102 10165 20042 30085 40243 58002 83200=
12285 36/// /9902 10179 20042 30132 40244 57002 60031=
12345 32870 23202 10171 20006 30112 40253 58006 81102=
12415 32599 52103 10187 20075 30097 40245 58010 82286=
12455 32670 40102 10173 20043 30016 40255 58005 84200=
12497 11570 43405 10163 20078 30022 40236 50000 69901 70381 84300=
12500 32698 70902 10181 20050 39837 40241 58010 84338=
12530 32698 32002 10180 20051 30062 40256 58005 83200=
12550 32570 43501 10173 20025 39905 40254 58002 83201=
12585 32698 53603 10136 20094 39996 40259 50004 85200=
12600 32582 42802 10159 20071 39790 40262 58001 84200=
12650 31/01 70105 11001 21001 38061 48564 51013 74144 872//=
12660 32670 40201 10146 20079 39910 40262 50001 84200=
91324 32474 80906 10267 20244 30088 40090 83201 333 10317 562/9
58000 83818 88075 555 90112=
91339 32474 80404 10278 20248 30088 40094 51010 84240 333 10317
5619/ 58000 84818 88363 555 90112=
11406 32670 72203 10178 20061 39688 40234 57007 8527/
333 85840 87360=
11457 32684 62403 10137 20048 38968 48577 57003 86240
333 86836=
11520 32672 71403 10179 20038 39888 40245 57013 81232
333 81846 85360=
11541 32770 41503 10185 20063 39738 40244 57013 84100
333 84850=
11636 32688 39902 10161 20041 39585 42876 58010 83101
333 83845=
11679 32788 32502 10190 20057 39779 40251 58005 82202
333 82850=
11723 32781 49902 10191 20062 39968 40257 57005 83101
333 83850=
11766 32686 49902 10141 20014 39385 42876 50000 84202
333 84836=
11774 32786 33602 10181 20044 39993 40258 57002 82202
333 82850=
11787 31486 33503 10087 20030 38756 48575 52007 70241 83200
333 83813=
62405 01121 99303 10042 41296 82111 10129 20112 40160 57003 70265
887// 22200 00114 20604 3//// 4//// 5//// 80119=
81100 22265 00026 20402 301// 41109 5//// 6//// 80044 ICE /////=
82100 22213 02245 20303 310// 40404 80208=
70200 81/9/ 22200 00133 20504 332// 40905 5//// 6//// 80111 ICE
/////=
54405 32963 30704 10237 20117 40108 52011 81032=
57348 32770 80903 10260 20201 40017 52004 885//=
53593 32962 71606 10217 20097 40098 52012 80002=
57328 11980 10406 10229 20187 39609 49998 52004 60021 70098
81040=
57306 11970 83602 10204 20182 40019 52005 69921 70086 8807/=
54096 11558 80000 10156 20132 40111 52016 60021 79598 889//=
50353 11670 60902 10166 20083 39902 40114 52014 69931 78080
85930=
50756 32970 21801 10198 20120 39836 40118 52018 82060=
50983 11670 72901 10199 20099 40100 52012 69901 78000 8593/=
50953 11968 31401 10172 20144 39944 40116 52008 60031 70098
80001=
54871 31/02 92201 10152 20152 40120 57003 74740=
58813 31580 30000 10302 20227 40067 52018 71300 82903=
54539 32770 70902 10183 20147 30103 40117 52006 83502=
54161 11570 50000 10192 20121 39835 40112 52012 69911 70080
85802=
54429 32960 72501 10247 20174 40108 52007 80002=
56182 11580 80000 10142 20113 37158 52013 60051 79598 889//
333 00255 93902=
56079 11480 60405 10106 20071 36669 52007 69901 70080 82942
333 00154=
56173 11880 70403 10111 20088 36620 52007 60011 78098 879//
333 00155=
53723 32965 70705 10258 20043 38572 49997 57002 86032 333
00151=
52754 11570 80403 10068 20045 36783 52008 69991 78080 889//
333 00056=
56033 11580 70205 10062 20016 36017 52003 69931 70098 85902
333 05201=
52955 11680 70000 10136 20064 36935 57006 69911 70080 879//
333 05201=
52674 32770 81105 10200 20030 37955 52002 885// 333 00051=
52424 32780 80000 10252 20150 49984 52006 81407 333 00000=
52895 32780 81602 10254 20065 49981 57003 87402 333 00152=
52842 11568 83404 10094 20037 36966 52010 69901 76060 8172/
333 00257=
52825 32680 72701 10143 20010 37230 52009 875// 333 00457=
56034 11675 73405 10070 20017 35914 52004 60021 78080 879//
333 05152=
56125 11780 73602 10114 20052 36500 52040 60031 78098 879//
333 00001 93906=
52856 11580 81404 10148 20054 37169 52002 69901 72580 889//
333 00053=
53705 32965 60406 10248 20068 49993 57002 82032 333 00151=
56065 11675 81104 10088 20063 36607 52004 69901 76060 885//
333 05201=
56018 11580 80901 10086 20054 36180 52004 69991 72598 889//
333 00051=
56763 32680 11803 10317 20155 49946 52002 81400 333// 05102=
56739 11580 42503 10220 20155 38291 57004 69931 70080 83402
333// 00001=
56021 11680 82906 10064 20018 36085 52004 69931 78080 889//
333 00053=
56386 31840 83603 10256 20186 49994 52010 71000 885// 333
00054=
53663 32580 71104 10229 20042 40044 52002 85102=
53764 32970 80904 10263 20137 40028 52009 8802/=
53868 31658 70904 10291 20147 40032 52032 70400 85902=
58531 11580 82002 10242 20233 40096 52019 60171 79598 889//=
56294 32965 80203 10263 20178 39439 40002 52009 8807/ 333
00052=
56167 11780 61601 10216 20072 37015 52002 69951 70080 86900
333 05302=
51076 32680 72902 10225 20044 39208 40031 57002 83462 333
00153=
53399 32680 21104 10186 20072 40112 52010 82400=
82400=
51709 32880 73402 10274 20051 38585 49960 57011 82962 333//
05502=
53915 32780 72002 10227 20080 38579 40019 52009 875// 333//
00455=
56080 11680 83403 10111 20076 37118 52002 69901 78086 889//
333// 05202=
57516 32961 73404 10283 20219 39674 49966 52007 8704/ 333
05201=
80001=
50136 32970 11803 10135 20052 39609 40116 52005 81032=
50788 11565 70000 10166 20119 30013 40094 52001 69901 72580
87200=
51133 32680 71103 10250 20016 39416 40023 57010 84962 333//
05303=
57127 11561 80000 10202 20185 39466 40043 52005 69991 76060
8177/=
52737 11580 80901 10078 20048 37068 57003 60061 72166 8672/
333 00462=
53929 32965 72202 10219 20104 40018 52003 8703/=
52602 32680 70703 10158 21032 37253 52005 81102 333 00151=
51886 11775 80403 10139 21034 37104 52007 69901 71480 889//
333 00153=
56029 11680 70202 10101 20051 36468 52003 69981 70098 879//
333 00054 91120 91534=
53698 11956 83201 10217 20180 40109 52004 69911 71060 8802/=
57378 11665 81103 10263 20237 40037 52013 69971 78098 889//=
54428 33/// ///// 333// 71000=
54529 33/// ///// 333// 71000=
54645 33/// ///// 333// 71105=
53810 32980 71403 10277 20083 49982 52001 8703/=
61600 32460 42810 10260 20218 30111 40116 84500
333 0//00 58003 84613=
61627 32960 22204 10335 20210 30082 40105 80002
333 0//00 58010 82073=
61630 32960 02410 10365 20196 30083 40102
333 58012=
61641 32458 52804 10268 20205 30090 40123 85500
333 0//00 58001 85613=
61679 32962 42806 10310 20231 30117 40125 80002
333 0//00 59001 84073=
61687 32958 02206 10346 20212 30054 40110
333 0//00 58012=
61695 32960 32408 10330 20233 30095 40121 80002
333 0//00 59003 83073=
78970 11460 70908 10272 20250 30129 40154 60021 71582 84862
333 02299 10321 20250 58005 70159 833818 87078 90915=
68906 11196 82821 10146 20138 39897 49961 57035 60071 76165 8272/
222// 00131 20000 304// 40204
333 10148 20081 60035 91028 555 20066 90996=
91925 06/// /0910 10262 20231 30046 40104 58014 69961
333 10312 59004 69927
555 1//21=
91938 01570 82112 10244 20225 30100 40103 58011 60011 70286 8487/
333 10288 56599 58017 69927 83820 87460
555 11917=
91943 36/// /0106 10266 20237 30112 40115 58006
333 10301 58004
555 1//14=
91954 16/// /2716 10215 20149 30061 40064 57005 69921
333 10250 58022
555 1//29=
91958 36/// /3214 10223 20156 30026 40028 56013
333 10238 58008 91133
555 1//33=
96315 15470 71501 10274 20235 40082 60032 81878
333 10300 81816 87364=
60714 32575 43314 10270 20150 30199 40206 58004 81102
333 50751 81820 84070=
60720 32960 23410 10270 20141 30163 40198 52002 80002
333 50831 82070=
60728 32965 23614 10297 20136 30189 40193 57004 80002
333 50601 82070 92417=
60734 32970 13306 10302 20099 39697 40187 57007 80002
333 50741 81070=
60738 32570 23206 10242 20063 39000 48587 52002 81102
333 50871 81823=
60740 32965 10108 10271 20171 30195 40198 58003 80002
333 50751 81070=
60745 32960 00908 10322 20119 39834 40184 58005
333 51011=
60748 32962 03604 10314 20078 39788 40184 58002
333 50581=
60750 32960 30912 10298 20157 30164 40195 57004 80002
333 50661 83070=
60764 32965 30710 10334 20194 30160 40209 58005 80002
333 51071 83070=
60770 32965 43606 10311 20125 30062 40195 58006 80002
333 50891 84073=
60780 32965 50906 10346 20088 39899 40185 58003 80002
333 51241 85070=
78866 01570 61115 10270 20222 30185 40189 52004 69901 72511 86471 333
10304 20256 58003 69907 79999 84821 83640=
61612 32960 02406 10332 20203 30106 40114
333 0//00 58004=
61666 32962 02606 10325 20215 30105 40115
333 0//00 58005=
61697 32960 03610 10/// 20241 30118 40132
333 0//00 59014=
61698 32960 61806 10315 20261 30109 40120 86030
333 0//00 58009 86363=
63705 32580 71809 10245 20192 38845 48502 84906
333 59010 83622 81925 85280
555 10207=
60020 32972 62004 10236 20158 30127 40172 51002 80006
333 92417=
60030 32560 20318 10230 20186 30105 40159 53004 82501
333 92436=
60040 32960 51705 10235 20219 30143 40168 50000 80001
333 92427=
60338 32460 80707 10226 20195 30124 40188 52010 887//
333 92426=
91554 32581 13002 10235 20227 40099 53004 81100
333 10310 567// 58019 81825=
91555  01465 62105 10244 20226 40099 5/// 60021 725/2 84932
333 10298 56499 58017 69921 82818 82920 83640 85076=
91557 02570 70000 10240 20233 40113 55001 69901 878//
333 10300 562// 58017 69901 81715 85818 87640=
81401 12160 82504 10252 20243 40135 60444 887//
333 20234 58001 82702 88806=
76122 32962 80000 10174 20048 38523 40048 5//// 81047 91147
333   10335 20172 30/// 56099 58011 70000 81358 87270=
76225 32560 20000 10182 20146 38585 40070 51001 82400 91145
333   10338 20182 31/// 56700 58018 70035 82620=
76323 32460 10000 10164 20134 38273 40077 52006 81400 91150
333   10278 20160 30/// 56600 58017 70050 81610=
76471 32470 80902 10139 20131 37701 40058 5//// 8473/ 91140
333   10230 20103 31009 5611/ 58003 70006 84703 84356=
76491 32456 10000 10248 20202 39744 40134 56001 81200 91151
333   016// 10380 20242 30024 58006 70000 81815=
76539 31558 70801 10164 20147 38123 40040 52001 70544 876//
91145 333   10280 20140 30013 565// 58004 70000 87724=
76644 32960 01102 10239 20232 30142 40152 51012 91155 333
10384 20235 30023 58017 70000=
76656 01870 80000 10165 20162 38511 40093 52006 60021 76062
8802/ 91155 333   10310 20150 32014 5609/ 58007 70018 88458
=
76665 31456 72502 10160 20149 38110 40096 5//// 70222 83720
91155 333   10258 20157 32015 56300 57736 58009 70174 83716
84557=
76220 32880 70000 10140 20098 38154 40078 5//// 87070 91140
333   10316 20140 30/// 56090 58010 70000 87357=
76593 32960 00902 10262 20229 30142 40158 57010 91150 333
10305 20234 30020 58017 70000 92011=
76662 32660 80000 10176 20167 38450 40090 54000 884// 91145
333   10296 20154 32014 562// 58002 70026 88633=
71918 460// /3513 11106 39786 40209 53001 333 11088 21116=
71629 32974 73504 10147 20094 39951 40180 51022 87070 333
10224 20119 70000=
71450 16/// /0713 10063 20063 39520 40236 53013 60021 333 10138 20063
70024=
71490 36/// /0000 11122 21129 39992 40312 53002 333 11082 21139
70000=
71194 17/32 ///// 10076 20048 30109 40122 56013 69961 7//4/ 333
10111 20069 70006=
71197 17161 82205 10083 20058 30071 40120 56014 60021 7//4/ 333
10099 20057 70025=
71802 36/// ///// 10094 20085 40139 333 70000=
71819 11258 82420 10074 20044 39994 40028 55005 60023 75186 887//
333 10155 20074 70021 90999 555 32529 40191=
71826 36/// /0813 10016 21052 30030 40059 58004 333 10071 20002
70000=
71846 36/64 /3105 10028 21016 39932 40246 53018 333 10085 20025
70000=
71725 36964 03207 10109 20049 39794 40201 51025 333 10235 20056
70010=
71726 36/64 /3602 10109 20033 39647 40172 51016 333 10192 20085
70018=
71727 11580 22716 10125 20053 39952 40145 52028 69941 70198
82100 333 10188 20123 70062 90950=
71728 32682 33112 10119 20040 39942 40159 52033 83100 333 10197 20109
55054 70006=
71730 32974 70504 10108 20064 39794 40210 52028 86072 333
10249 20079 55111 70000=
71731 33/// /0604 10145 20064 39763 40204 53027 333 10221
20085 55088 79999=
71733 36964 03402 10124 20082 39971 40205 51016 333 10230 20100
70005=
71735 32974 43605 10120 20042 39921 40214 51031 81054 333
10270 20086 70000 555 32723 40220=
71739 32974 23605 10089 20027 39869 40226 52025 81031 333 10242 20059
70000=
71749 36964 80809 10117 20041 39978 40220 53010 333 10221 20101
70005=
71799 32680 82904 10099 20067 30204 40227 58013 86530 333
10160 20099 55041 70000=
71801 32474 82313 10119 20084 39984 40155 56007 83577 333 10188 20070
55119 70000=
71803 11469 82210 10089 20064 39915 40098 58018 69941 78082
8657/ 333 10203 20060 55115 70004 90916=
71807 36/// /2014 10079 20065 30138 40154 5/014 333 10109 70000=
71808 17020 82607 10048 20046 39988 40034 56007 60021 7//4/ 333
10091 20046 70100=
71809 11474 82218 10112 20090 30050 40077 55010 60021 72522 885//
333 10210 20095 70020 90962=
71810 36/64 /2504 10099 20077 39984 40046 58007 333 10162 20069
70020=
71811 11783 12920 10148 20081 39980 40047 58002 69901 70281 81270
333 10134 20069 55039 21100 70022 90930=
71813 36002 82606 10072 20072 30033 40046 58002 333 10164 20068
70020=
71814 36/// /2209 10080 20075  333 10084 20055 70000=
71815 11266 82415 10094 20082 30067 40098 57008 60011 70262
885// 333 10153 20085 55113 70014 90932=
71261 36/// /1301 10136 20105 39946 40203 51014 333 10196 20112
70000=
71265 36964 02404 10148 20102 30103 40195 51026 333 10229 20120
70050=
10235 20129 70012=
71952 36/// ///// 11011 21011 39385 40232 51009 333 10210 21012
70000=
71967 36/// ///// 10047 20046 39320 40290 53004 333 10144 20047
70000=
71851 36/// /1008 10080 20064 39875 40208 56005 333 10128 20070
70000=
71852 36664 60808 10090 20042 39914 40205 58003 333 10153 20058
70000=
71873 36/64 /3205 10022 20001 39320 40274 53003 333 10103 21001
70000=
71875 36964 02908 11019 21040 38885 40287 53003 333 10085 21029
70000=
71893 11380 73106 10094 20082 30199 40230 56012 69961 70382
87800 333 10158 20091 55093 70026 90941=
71894 36/// ///// 10060 30228 40237 58012 333 10157 20056 70000=
71896 32889 20000 10037 20026 39414 40236 53004 82070 333 10211 20030
55123 70000=
71897 32574 80000 10098 20085 30211 40243 58005 8157/ 333 10175
20093
70000=
71898 36464 81804 10100 20079 30196 40240 56001 333 10158 20081
70000=
71899 32474 63207 10095 20060 30198 40248 57006 8175/ 333 10150
20055
79999=
71905 11256 82813 10002 21006 30115 40128 53013 69921 77153 887//
333 10158 20000 55083 70034 90977=
71906 32674 62710 10086 20015 39947 49993 58005 81551 333 10088 20032
55/// 70000=
71907 17256 83216 10009 21004 30016 40048 53015 60021 7414/ 333
10076 20002 70025=
71909 36664 60711 10024 21032 39977 40019 54000 333 10018 21002
70000=
71910 36364 33308 11003 21020 39969 40032 53008 333 10026 21014
70005=
71911 46064 /3603 11101 30173 40230 58001 333 11068 21133=
71912 33574 22005 10019 21003 30045 40228 57006 82500 333
10068 21031 79999=
71917 11486 73511 11041 21072 30202 40216 58004 69901 70271
82571 333 11030 21057 42006 55112 01010 22549 79999 90939=
71922 32974 20000 10026 21002 39778 40243 57003 80001 333 10150 21010
70000=
71924 32466 83311 11084 21107 30151 40241 56002 885// 333
11053 21112 42025 55066 10300 22541 79999=
71925 11469 83406 11105 21127 30263 40300 58002 69901 78588
885// 333 11078 21106 42029 55106 23525 79999 90983=
71926 32580 53320 11098 21121 30215 40239 52010 82504 333
11021 21112 42029 55126 00394 23033 70000=
71928 36/64 /0000 11021 21036 39096 40266 53001 333 10127 21021=
71103 36006 80000 10032 20032 39591 40248 51009 333 10217 20029
70005=
71115 36/// /1107 10059 20041 333 10192 20055 70000=
71121 36964 02404 10018 21016 39430 40254 53001 333 10158 21010
70000=
71127 46064 /2507 10005 21026 39520 40254 56005 333 10159 21032=
71143 36/// /0809 10090 20044 39915 40229 53003 333 10118 20089
70000=
63682 32584 41806 10279 20/// 38809 48/// 83900
333 59009 83820 81927
555 10222=
60710 32565 23006 10256 20144 30135 40216 27001 81202
333 50781 81820=
60723 32965 33109 10300 20099 30035 40214 58004 80002
333 50591 83070=
64387 32670 41604 10265 20129 38502 48496 83230
333 59009 83840 1017.7=
78397 11460 82702 10245 20245 30156 40168 60111 76366 8182/
333 0120/ 10329 20239 58024 81816 88459 90936=
94120 46/// /1306 10197 20025 30102 40138=
94150 46/// /1512 10222 20135 30075 40136=
94203 46/// /1109 10193 20010 30148 40159=
94207 35/// /1016 1//// 30145 40156 52027=
94212 46/// /0806 10131 21039 39693 40179=
94216 46/// /1505 10174 20007 30117 40168=
94238 46/// /1208 10128 21025 39772 40210=
94268 46/// /1706 10138 20036 30135 40150=
94287 46/// /1208 10136 20080 30162 40171=
94294 46/// /1806 10122 20040 30173 40183=
94298 35/// /1813 10209 30144 40150 52008=
94299 46/// /1616 10226 20140 30133 40144=
94300 46/// /1507 10169 20136 30182 40192=
94302 46/// /2705 10152 20074 30179 40185=
94312 46/// /0000 10150 20113 30163 40173=
94317 46/// /1502 10083 20006 39602 40211=
94319 46/// /1506 10128 20021 39863 40205=
94326 46/// /0000 10044 20011 39600 40242=
94332 46/// /1805 10109 21028 39806 40204=
94346 46/// /1804 10084 20007 39978 40207=
94363 46/// /0000 10080 21002 39954 40178=
94367 46/// /2008 10119 20044 30138 40176=
94374 46/// /2303 10094 20014 30158 40175=
94394 35/// /2409 10173 30135 40143 52006=
94403 46/// /1408 10142 20097 30195 40237=
94429 46/// /0102 10145 20004 39743 40223=
94430 46/// /0905 10145 20005 39615 40221=
94461 46/// /0908 10094 21041 39538 40234=
94462 46/// /1004 10081 20010 39665 40244=
94510 46/// /2206 10121 20040 39839 40200=
94515 46/// /2106 10094 20044 39827 40189=
94552 46/// /2510 10093 20034 39683 40163=
94578 46/// /2607 10084 20033 30130 40141=
94584 46/// /2512 10116 20026 30038 40150=
94601 46/// /2416 10168 20087 30226 40243=
94610 46/// /0404 10092 20070 30223 40248=
94637 46/// /2002 10111 20010 39795 40235=
94638 46/// /2705 10096 20073 30205 40238=
94647 46/// /0307 10104 20058 30130 40253=
94651 46/// /0808 10068 20043 30187 40266=
94653 46/// /1205 10060 20037 30251 40270=
94659 46/// /1707 10125 20050 30059 40261=
94672 46/// /1803 10117 20071 30255 40260=
94693 46/// /2405 10089 20047 30172 40236=
94703 46/// /2506 10084 20066 30081 4////=
94729 46/// /2703 10050 20022 39283 40153=
94767 46/// /2714 10108 20021 30106 40112=
94776 46/// /2816 10102 20036 30114 40124=
94791 46/// /3203 10065 20057 30105 40112=
94802 46/// /3206 10108 20103 30149 40232=
94804 46/// /1707 10130 20062 30223 40262=
94821 46/// /2505 10077 20072 30160 40244=
94842 46/// /2016 10116 20084 30118 40219=
94850 46/// /1809 10114 20077 30166 40213=
94865 46/// /2507 10095 20080 30183 40208=
94907 46/// /2508 10092 20068 30169 40179=
94910 46/// /3302 10066 20045 39903 40161=
94926 46/// /3106 10063 20011 39458 40144=
94954 46/// /1818 10089 20035 30091 40203=
94956 46/// /1408 10057 20048 30175 40202=
94968 46/// /1317 10054 20022 39968 40185=
94975 46/// /2108 10083 20040 30165 40199=
94983 46/// /1835 10094 20058 30125 40150=
94995 46/// /2423 10162 20106 30055 40063=
94996 41482 12610 10175 20127 39956 40085 52007 70200 81100
333 10196=
95711 46/// /2307 10078 20061 39889 40201=
95719 46/// /2506 10085 20058 39834 40175=
96995 46/// /1212 10252 20221 39796 40090=
96996 45/// /1019 10273 20217 30089 40093 52012
333 10291=
94934 37/// /2515 10096 30093 40117 52017 7//44=
94974 35/// /1412 10077 30178 40201 52016=
95288 35/// /1715 10226 30131 40146 52011=
95872 46/// /2220=
89002 42898 80804 11187 21218 39886 49939 57017 8801/
333 11184 21270=
78988 31465 71014 10295 20253 30145 40154 52013 70622 83202
333 10329 20281 58017 83818 87081=
78982 31465 70919 10287 20243 30143 40148 52011 70622 82232
333 10320 20277 58015 82818 86081=
78990 32475 61017 10287 20232 30149 40156 52012 701// 83231
333 10320 20275 58018 70004 83818 86081=
78962 11465 50907 10282 20239 30152 40160 69921 70581 85802
333 02209 10308 20255 58006 70002 84818 90954=
78894 36/// /1008 10272 20215 30127 40186 50007
333 10298 20259 55011 58006=
78384 32460 50611 10277 20244 40154 83202 333 10304 20263 58016 83818
84070=
67665 42680 41113 10233 20125 48558 84400 333 59002
84630=
65352 11960 80802 10288 20224 39941 40117 69951 70396 8805/
333 59003 88363=
65361 32470 71402 10280 20222 39675 40114 81132
333 59001 81816 87076=
65376 32460 70806 10284 20211 39655 40114 84202
333 58013 84813 87076=
65387 11458 71806 10254 20245 30093 40121 60051 71796 8497/
333 58013 83810 87360 82920 94975 95875=
60351 32980 20408 10279 20181 40203 58003 80002
333 82070 95900=
60425 32970 01504 10366 20038 40172 57014
333 95900=
60430 32565 11210 10324 20117 40174 50003 81200
333 81830 95900=
60444 32575 22206 10296 20109 39171 48590 51001 82200
333 82830 95900=
60468 32570 30312 10292 20111 39274 48581 58001 82902
333 0//00 81930 95900=
60515 32660 20808 10355 20099 40180 58011 82200
333 0//00 82840 95900=
60518 32456 60000 10239 20218 40163 50000 84601 222// 20000
333 0//00 84710 83073 91806 95900=
60581 32965 20000 10385 20113 40166 58008 82030
333  0//00 82360 =
50527 32970 10000 10200 20041 39428 40127 52006 80002=
26247 42598 62702 10178 20027 30132 40211 58003 85303   555 10034=
91353 11472 80607 10244 20229 30084 40089 51014 60221 78182 882//
333   10322 56199 58000 70274 88816 555   90112
91425 32574 20405 20272 20242 30092 40093 51007 82200
333   10328 561// 58005 82819 555   90112
91434 32474 31001 10278 20239 30107 40110 51017 83200
333   10311 562// 58007 83818 555   90112=
47101 32660 52502 10211 20166 30029 40117 52018 85500 333 10278
30020 55054 22413=
47105 11558 61405 10155 20134 30113 40144 53004 69902 71022 85502
333 10203 30017 55010 21220 79999=
47108 11562 62508 10200 20137 30026 40127 51012 69932 70282 86500
333 10263 31020 55045 21777 70003=
47115 31515 42502 10148 20135 39884 40144 52011 71021 84500 333
10204 30019 55001 92041=
47133 32961 52007 10202 20136 30045 40123 52018 69902 80001 333
10270 30022 55098 22369=
47138 32662 70204 10173 20141 30146 40150 52011 69902 85502 333
10229 31019 55070 22297 92022=
47159 32962 70707 10162 20144 30065 40147 52016 80002 333 10221
30016 55096 22641 92022=
47165 32962 81606 10196 20140 30083 40126 57006 8801/ 333 10245
31019 55097 22406 92022=
47168 31940 80703 10170 20150 30067 40145 52023 71022 8802/ 333
10228 31018 55055 92012=
47184 32970 43400 10179 20134 30113 40140 50014 69902 80001 333
10208 30018 20585=
47090 11658 31102 10136 20119 30123 40143 58002 69912 83500 333
10167 31014 55019 70001 92021=
47095 32665 80902 10201 20159 39944 40122 52014 8252/ 333 10258
30020=
47100 31450 40000 10102 20078 39185 40154 52011 71042 84500 333
10149 31013 55032 21410=
47106 11656 80203 10146 20130 30105 40149 52007 8452/ 333 10180
30018 55041=
47112 32565 12504 10172 20151 30050 40130 52010 81500 333 10239
30020 22235 92022=
47114 32665 61401 10216 20153 39947 40118 52015 83501 333 10282
30020 55094 22422=
47119 32963 52703 10188 20138 30092 40131 52014 82501 333 10266
30020 55086 22337=
47121 32665 30500 10204 20155 39846 40117 52015 82530 333 10288
30020=
47129 32963 70203 10156 20130 30111 40141 52013 80001 333 10239
30015 55096 22299=
47130 32965 53401 10151 20137 30093 40151 52012 80001 333 10196
30018 55041 92021=
47131 32962 43203 10195 20137 30057 40123 52017 84001 333 10263
30021 55097 22307=
47135 32665 53605 10199 20144 39840 40122 52017 85500 333 10293
31020 55091 22432=
47136 32965 60905 10185 20134 39971 40135 52027 86030 333 10298
31020 55103 22434=
47140 32963 82710 10176 20133 30098 40133 52012 8801/ 333 10236
31017 55089 92011=
47143 31958 61409 10193 20144 30066 40132 52027 71022 80002 333
10276 30019 22075=
47146 31958 71603 10198 20147 30068 40132 52014 71022 80008 333
10281 31022 55090 22197=
47152 32960 70703 10172 20138 30108 40147 52017 84031 333 10228
30017=
47155 32962 61804 10178 20137 30140 40144 52018 80002 333 10224
31017 55101 92011=
47156 32965 32005 10207 20149 30043 40127 53012 80001 333 10286
31020 55089 21909=
47162 32961 60703 10176 20145 30107 40145 51020 80002 333 10239
31019 92021=
47170 32965 61404 10174 20143 30094 40134 52022 82530 333 10257
30018 55034 92022=
47185 32660 61811 10169 20158 30048 40132 52014 82501 333 10196
31018 55074 20001 92023=
47189 32570 42504 10184 20164 30077 40137 52013 84500 333 10235
31019 55011=
47192 31958 72304 10206 20166 30112 40138 52022 71022 80002 333
10279 31020 55066 21993=
26045 41598 61602 10133 20075 30205 40209 52003 79598 86930   555
11027=
26229 42499 12104 10143 20062 30211 40218 52005 80200=
26314 42598 12304 10129 20075 30225 40228 52006 81200=
26324 32598 70703 10143 20070 30209 40216 52004 87200=
26348 42599 32703 10176 21014 30035 40204 57004 83100=
26406 42570 52203 10143 20089 30224 40233 52006 82201=
26422 41797 61202 10132 20084 30193 40224 53005 72581 86200
333 86850=
26446 42698 62704 10148 20045 30021 40209 52001 84230=
26544 42665 52804 10176 21009 30066 40213 52003 83101=
17200 32670 21304 10274 20150 39152 40081 57014 82100 333 82840=
13272 32670 53206 10194 20114 30118 40235 51008 85200 333 85840=
13376 32699 53405 10193 20081 39986 40240 54000 85800=
13462 32670 13610 10272 20088 30147 40190 54000 81100 333 81840=
83630=
60725 32970 23008 10307 20132 30037 40198 58012 80002
333 50971 82070=
12295 32670 33002 10175 20059 30055 40236 58005 82230=
12185 32570 42902 10165 20061 30111 40243 58001 84200=
12195 32670 52502 10174 20047 30014 40235 58001 85200=
36911 42697 81002 10148 20114 39149 40065 53018 78082 889//
555 11017=
38345 41796 82701 10155 20106 38712 48424 53015 71798 889//
555 10017=
38353 41596 81701 10090 20115 39130 40031 53004 60282 889//=
38613 41698 81203 10197 20124 39221 40067 53012 72998 889//
555 11020=
41859 32456 41301 10315 20300 39958 49997 82430 333 10327 56990 59005
70104 82615 84362=
41883 32456 40000 10320 20260 39963 49983 83830 333 10350 56660 59009
70014 83615 84362=
41891 32456 60907 10285 20255 49999 8434/ 333 10304 56999 59006 70357
83616 81930 84365=
41907 32458 40000 10324 20270 39963 49981 83301 333 10360 56709 70000
82615 84080 81930=
41923 32450 20000 10330 20240 39982 49992 82400 333 10348 56900 59009
79999 82618=
41943 32460 40000 10296 20260 30011 40020 82530 333 10335 56990 58004
70000 82616 84362=
41950 32450 71804 10304 20240 39989 49996 83510 333 10344 56990 59012
70020 83616 86460=
41978 32456 62303 10310 20270 40004 81440 333 10336 56490 59008 70000
81615 84360=
33088 42597 53101 10161 20098 30021 40206 54000 85200=
33261 42566 83202 10157 20117 39988 40164 52003 88500=
33275 42597 83203 10157 20126 39942 40157 54000 8337/=
33301 41597 73003 10137 20098 39942 40217 51004 70282 83130=
33377 42697 63103 10173 20122 39977 40163 52002 86200 555 10037=
33415 42497 73405 10122 20090 39821 40212 52012 70282 86330 333
86918=
33466 42698 63602 10190 20100 39984 40163 58002 84102=
33526 41460 83008 10111 20089 39893 40229 52014 78082 883//
333 86712=
33562 41596 83002 10126 20113 39837 40190 52016 78098 8395/=
33614 42598 73005 10187 20128 40143 58003 85531=
33889 41598 83206 10192 20134 30133 40168 52006 78082 889//=
33902 42598 73602 10223 20123 30076 40139 30076 40139 58008 86901=
33983 42697 51706 10224 20158 30078 40135 58007 82101=
34415 41575 60000 10217 20195 30043 40133 53001 71798 86300=
34523 41498 71003 10237 20159 30070 40141 57002 70362
85370=
34712 42572 52107 10218 20180 30038 40118 58011 82101=
54587 32465 70000 10153
20138 40093 52014 81602=
71805 32357 82210 10079 20068 30116 40144 56011 8667/
333 10125 20058 86708 88357=
28679 42699 63106 10132 20002 39946 40116 52011 85430   555 10019=
28766 42699 73606 10143 20000 39943 40123 52009 86101   555 10027=
28966 41598 60506 10156 20025 39825 40092 54000 70282 86300   333
86995   555 11028=
35671 41598 70105 10129 20089 39673 40078 53009 70282 86941   555
11021=
36821 41598 72902 10243 20111 40022 53006 71798 85902   333 85927=
36864 41698 82907 10206 20061 40024 53004 71798 889//=
36870 41598 81302 10192 20110 39087 40020 53006 70298 889//   333
88930   555 11021=
38222 42598 63405 10248 20068 39530 40037 53004 86900   333 83069
555 10038=
38341 42598 82910 10217 20086 39318 40040 53013 8694/   333 91118
555 10027=
38343 42698 62508 10202 20084 40037 53008 71692 86900=
12125 32598 62902 10173 20059 30186 40235 57006 86300=
12580 31560 73205 10147 20106 30015 40256 51009 70152 878//=
26554 42570 73303 10167 20041 30049 40206 52002 84231   555
11023=
26666 41760 73503 10172 20065 39988 40195 52008 70282 83105
555 10023=
26850 41570 73602 10172 20034 39935 40198 52002 70262 83210   555
10025=
26863 42560 70105 10178 20055 39964 40190 52007 84230   333
84826   555 11025=
26941 41550 80804 10111 20105 39993 40226 52016 78082 883// 555 11015=
26951 41570 73204 10134 20086 30014 40208 58002 72562 87900   555
11016=
33008 42670 23305 10170 20029 30059 40232 52001 82100 555 11026=
33019 41960 70102 10162 20085 30041 40210 52004 70282 8705/ 555 12025=
33036 42970 63103 10165 20088 39969 40191 54000 86050   555 10029=
33041 42565 73404 10181 20089 30033 40182 52002 85330   333 85926
555 11028=
15004 32570 43204 10180 20073 39873 40196 54000 84300=
15020 32562 73205 10164 20117 30007 40198 52008 84370=
15090 11560 82902 10183 20094 30071 40194 51003 69901 70366 8687/=
15108 01/01 92702 10050 20050 38122 48530 52011 69921 78044
333 69927 96045=
15120 32570 53205 10152 20068 39728 40212 50007 85200=
15150 32565 63604 10188 20113 39962 40185 54000 83370=
15200 32570 33607 10201 20056 30083 40221 51009 83200=
15260 11562 73202 10164 20122 39683 40198 52002 69921 70282 83370
333 95080=
15280 01/05 83408 10003 20003 37546 47076 52009 60011 74184 883//
333 41998 69957=
15292 32565 73204 10177 20114 39936 40220 58001 87900 333 95090=
15310 01570 83405 10176 20141 30098 40181 51009 69901 7212/ 8357/
333 69907=
15346 32662 73205 10202 20086 39905 40182 52010 83370   333 95090=
15350 32560 80206 10167 20118 30074 40190 52011 885//=
15360 32562 80504 10196 20135 30159 40170 52006 8327/ 333 92417
222// 00190 20000 92417=
15410 32660 42907 10228 20137 30092 40184 52005 84200=
15420 01560 80501 10170 20126 30079 40186 52016 60021 78082 8537/
333 60017 91002 91201=
15450 11560 73606 10204 20183 39958 40186 51010 69961 70382 84970=
15460 01460 80202 10184 20131 30160 40184 52010 60011 76162 8472/
333 69927=
15470 01560 80502 10153 20137 30066 40189 52017 60031 78082 8437/
333 60027=
15480 01560 82302 10192 20179 30159 40174 51005 69921 78022 889//
222 00188 2////  333 69927 92417=
58122 32970 81102 10295 20210 40065 52009 8807/=
57006 32575 70903 10220 20107 40022 52010 878// 333 00355=
26645 42570 52603 10170 21002 39960 40210 52002 83201   555 11032=
26659 42565 33204 10183 20027 39996 40201 52003 83201   555 10033=
26763 42565 73304 10180 20050 39969 40187 52006 87900   333 87926
555 11030=
26825 42660 53004 10153 20034 40235 51002 82130   555 10027=
26832 42665 32804 10175 20045 30029 40215 54000 83100   555 11034=
26887 42570 60208 10177 20078 39978 40176 54000 84201   333 91110
555 11024=
26961 41560 72604 10132 20095 30011 40198 52006 78082 87300   333
87932   555 11///=
33027 41565 70304 10163 20082 30045 40207 51002 70282 82270   555
11027=
11414 32780 79902 10159 20051 39533 42864 56007 85270
333 85850 85360
555 348// 50139 60129 70122 80123=
11438 32570 71605 10186 20061 39853 40237 57011 872//
333 87830
555 344//=
11502 32682 71704 10172 20055 39796 40239 57013 83230
333 83847 86364
555 346// 50183 60153 70136 80135 90127=
11628 32665 51702 10169 20020 39629 40247 58006 84230
333 84840
555 337//=
11643 32580 32005 10135 20034 39296 42863 55006 83200
333 83827
555 351// 50168 60143 70115=
11683 32682 69902 10143 20041 39395 42872 57005 85202
333 85843
555 350//=
11693 32780 59902 10169 20025 39782 40259 57009 84202
333 84850
555 338//=
11698 32784 29902 10182 20012 39859 40256 57009 82100
333 82856
555 332// 50234 60204 7//// 8//// 9////=
11710 32684 59901 10151 20030 39651 40260 57005 85100
333 85840
555 344// 50191 60175 70137 80133=
38149 32998 00107 10278 20107 30046 40116 52002   555 10053=
38178 42998 03406 10250 20041 39828 40093 57004   555 10039=
38264 35998 03606 10295 20093 30023 40108 54000   555 10051=
38396 42997 20204 10302 20053 40107 54000 82060   555 10052=
38403 42697 50203 10300 20102 39985 40095 53022 86100   555 10050=
38457 42599 73201 10272 20040 39516 40055 52007 86380   555 10037=
38462 42699 70000 10144 20050 38722 48475 53035 86950   555 11017=
38565 32698 23304 10283 20118 40064 53008 82200   555 10045=
38579 32998 53402 10291 20051 39675 40057 53010 85070   555 10044=
38583 42597 81601 10291 20149 39767 40060 53002 83901   555 10042=
38611 42697 71906 10240 20121 39531 40060 52017 85980   333 83359
555 10027=
38618 41598 81802 10194 20134 39422 40071 52030 72582 889//   555
10210=
38683 42997 13406 10310 20015 39826 40078 54000 80001   555 10048=
38696 32599 72703 10277 20059 39274 40060 53011 83270   555 10043=
38812 42997 33405 10303 20113 40062 54000 80001   555 10055=
38927 32797 52504 10351 20023 39687 40025 57012 85930   333 82950=
60360 32665 30310 10269 20130 40210 58002 81202
333 0//00 81833 83073 95900=
60390 32560 10416 10295 20188 40197 51001 81200
333 81826 95900=
60402 32460 20606 10258 20183 40207 51003 81202
333 81816 95910=
60419 32570 23508 10300 20117 40189 58005 82901
333 81826 81940 95900=
60475 32675 30000 10275 20093 39280 48580 57004 82202
333 82846 95900=
60490 32765 23612 10288 20183 40171 58004 81201
333 81850 95900=
60525 32670 21312 10355 20122 40179 58007 82900
333 0//00 81933 95900=
60531 32575 43610 10315 20177 40167 58006 81202
333 0//00 81826 83073 95900=
60566 32965 01304 10357 20111 40177 50000=
60571 32970 22008 10352 20007 39286 48593 50000 80002
333 0//00 82073 95900=
60580 32960 10000 10375 20127 40165 58005 80001
333 0//00 81073=
60590 32965 01214 10368 20077 40165 58011=
60611 32760 20407 10336 20092 40140 58007 82200
333 0//00 82850=
60656 32960 31306 10397 20079 40119 51002 80002
333 0//00 83073=
60670 32782 23304 10330 20074 39075 48548 58013 82200
333 82850 95900=
56571 32780 52003 10299 20128 38292 52005 85400 333 05102=
40360 32960 03006 10348 21010 39507 40060 333 58012=
40361 32960 00206 10390 20030 39307 40018 333 58004=
40362 32962 00607 10410 20060 39530 40010 333 59016=
40373 32960 00000 10435 21020 39615 40000 333 59017=
40394 32960 03608 10394 21040 38957 48467 333 58012 555 04410
59992=
40400 32960 03014 10294 20250 30021 40048 333 58002=
40405 32960 03410 10438 21050 39290 49969 333 59010=
40416 32960 00218 10410 20100 30971 40990 333 59018=
40430 32960 02705 10410 21080 39335 40004 333 58010=
40437 32960 00906 10438 21080 39351 49997 333 58001=
40438 32960 00000 10425 21020 39358 40011 333 59013=
40439 32960 02622 10380 20230 30018 40030 333 58005=
41024 32960 12914 10360 20210 30024 40043 81030 333 58003 81360=
41030 32960 03304 10445 20160 39760 40012 333 58000=
41036 32960 02702 10350 21070 38530 48482 333 58006 555 04410
50007=
41055 32560 10511 10350 21040 38330 48469 6993/ 81100 333 58000
81830 555 04410 59995=
41084 32960 00308 10394 21100 38800 48473 333 59001 555 04410
59990=
41112 32560 20610 10304 21033 37919 48462 82200 333 59002 82825
555 04410 59990=
41128 32960 00107 10370 21050 38746 48463 333
59011 555 04410 59999=
41136 32960 00306 10410 21050 39231 49998 333 59007=
41140 32960 02410 10360 20270 30017 40025 333 59007=
48300 32565 70000 10300 20235 39718 40015 84576
333 10350 59002 70220=
48327 32565 70000 10301 20228 39654 40001 85905
333 10322 59007=
48331 32565 20000 10313 20263 39787 40011 82903
333 10354 59004 70003=
48378 32560 70000 10316 20251 39963 40015 84946
333 10350 59004=
48407 11559 80000 10260 20247 39894 40033 60182 71062 83476
333 10264 58014 70618=
48456 32560 52110 10308 20254 30020 40024 82846
333 10332 59016=
48480 31450 80000 10272 20240 30032 40037 71022 8687/
333 10315 59006 70276=
48565 01460 72403 10270 20244 30050 40061 60052 70266 82256
333 10315 58001 60017 70050=
48569 32460 80000 10272 20240 30017 40057 83876
333 10315 58000 70036=
40356 32960 02408 10350 20010 39133 48485 333 58005
555 04410 50044=
60355 32965 13604 10243 20195 40209 58003 80001
333 81073 95900=
60445 32980 10000 10275 20100 39051 48583 50000 80002
333 81073 95900=
60511 32570 10000 10325 20010 39099 48569 58004 81100
333 81826 95900=
60535 32770 13208 10303 20076 38883 48568 50000 81100
333 81850 95900=
60549 32960 20000 10318 20116 38915 48569 58006 82001
333 00/00 82073 95900=
60550 32780 12702 10316 20010 38729 48581 58004 81100
333 81850 95900=
60555 32970 00000 10365 20138 40182 50001
333 0//00=
60559 32960 31112 10350 20161 40174 56007 82202
333 82850=
60602 32975 20000 10368 20070 40147 58001 80002
333 0//00 82074 95900=
60607 32760 31218 10390 2//// 40151 58006 81502
333 0//00 81856 83075=
60620 32960 20916 10410 2//// 40109 58006 80002
333 0//00 82075=
60640 32960 13504 10355 20079 40126 58009 81030
333 0//00 81360=
48328 32563 50000 10315 20251 39737 40005 82546
333 10345 59007 70121=
48330 32565 50000 10312 20256 39831 40011 81146
333 10339 58000 70012=
48354 32565 80000 10310 20255 39809 40007 81946
333 10337 59005 78888=
48376 32565 32407 10305 20224 39878 40018 82943
333 10347 59004=
48379 11560 70000 10281 20257 39881 40011 60012 70262 83836
333 10331 58001 70011=
48400 32560 60000 10316 20266 39981 40021 82546
333 10345 59003=
48462 01457 83407 10260 20234 39988 40044 69902 79522 85973
333 10327 59006 69905 70011=
48475 32560 60000 10288 20223 30023 40035 83546
333 10319 59007=
48567 11560 80000 10263 20253 30039 40057 60032 70362 82247
333 10320 58003 70040=
58730 11670 70201 10245 20220 40096 52017 69901 70098 879//=
58731 11775 70201 10245 20233 40095 52020 69941 78098 8296/=
58754 31962 41602 10267 20232 40104 52022 70090 84030=
58911 31780 73602 10268 20212 40095 52025 72990 87902=
57206 11780 80000 10212 20151 40030 52009 69901 70080 884//=
57602 31858 83401 10278 20217 49979 52013 71000 885//=
57713 32675 51804 10289 20190 49991 52005 82462 333 05102=
85930=
50557 32970 00000 10188 20044 39829 40113 52004=
50963 11760 42203 10145 20132 39987 40117 52010 69921 70098
84500=
50978 11565 72705 10160 20137 39839 40118 52023 60041 78098
879//=
40706 32660 21805 10268 20012 38615 40061 56005 82300 91145 333
82935=
40732 31562 63212 10250 20162 30138 40118 52017 71721 83970 91150 333
81930 82633 86360=
40745 32960 11108 10308 20080 38968 40027 56005 91150 333
40745 32960 11108 10308 20080 38968 40027 56005 80001 91150 333
81070=
40754 31650 12712 10320 20040 38747 40000 55002 70700 81400 91155 333
81640=
40766 32960 02709 10324 20000 38637 40034 57013 91150 333=
40800 32960 03005 10334 21023 38399 49984 57021 91150 333=
40811 32960 03005 10444 20010 39978 40004 57017 91150 333=
40841 32960 03605 10356 21040 38190 49955 57017 91150 333=
40848 31957 03007 10350 20035 38460 49975 57013 70700 91150 333=
41240 32960 00304 10330 20268 39980 49983 333 59022=
41244 36/// /1610 10437 20038 39650 40001
333 0E029 59000  =
41246 32660 31008 10339 20264 39978 49983 83900
333 59028 82830 81935 =
41254 32567 63005 10285 20100 38008 48292 86800 333 59006 86620=
41256 32660 10509 10367 20236 39974 49983 81100
333 59029 81830 =
41262 36/// /9902 10454 20097 39778 49958
333 0E032 59000  =
41268 32960 03510 10375 20258 39978 49993 333 59021=
41288 31957 01612 10334 20274 39974 49996 70600 333 59017=
41312 36/// /2008 10292 20255 39984 40024
333 0E/// 59011  =
41314 32662 21609 10383 20197 39515 40027 82500 333
59017 82630=
41316 32561 42216 10309 20255 39994 40019 84500
333 59014 81620 84625 =
40703 32660 40306 10252 20087 38873 40071 57011 83330 91145
333 81935 82840 84360=
40712 32660 40303 10254 20066 38649 40068 56004 84800 91150
333 81835 83640=
40729 11660 53307 10176 20079 38336 40116 53013 69961 72998 85900
91145 333 82935 83840=
40736 32560 72806 10252 20202 30142 40115 53021 83470 91150 333
83630 87359=
40743 32662 21102 10362 21002 38946 49987 57020 82300 91150 333
81935 81840=
40762 32665 20000 102 10314 20084 38486 49980 57013 82400 91150 3333
82640=
40768 32660 22506 10272 20037 38222 40038 57016 82100 91150 333
82840=
40769 32662 22506 10296 21007 38257 40010 57014 82100 91150 333
82840=
40785 32965 02702 10362 21002 38982 49994 56015 91150 333=
40809 32665 32502 10366 20049 38422 49932 560)7EEE 56017 83200 91150
333 83845=
40831 32960 03307 10452 20034 30006 40014 57016 91150 333=
47401 11256 80812 10072 20068 30108 40122 52004 69902 75122 886//
333 10103=
47412 12/65 73306 10133 20114 30056 40087 51013 69902 86032
333 10213=
47420 11/50 80510 10059 20055 30042 40089 53001 60282 78188 887//
333 10076=
47426 11/60 82907 10109 20101 30043 40087 53012 60052 78082 887//
333 10158=
47582 32/65 82311 10156 20116 30092 40117 53020 882//
333 10215=
47590 32975 23503 10190 20106 30043 40094 53026 82030
333 10257=
47600 11/50 22301 10144 20129 30124 40141 53017 69902 71011 82200
333 10203=
47648 32/65 80509 10169 20153 30066 40099 51028 888//
333 10204=
47662 11/28 80110 10204 20172 30057 40099 53042 60042 78282 882//
333 10276=
47678 32470 42308 10209 20199 30013 40106 52017 82202
333 10252=
47740 32/65 22903 10156 20140 30108 40145 53015 81102
333 10222=
47778 12975 30403 10215 20169 30033 40119 53027 69902 80001
333 10250=
47807 31/57 70801 10207 20171 30122 40139 50011 71011 872//
333 10251=
47827 32970 63206 10220 20186 30103 40139 51019 80002
333 10292=
47843 42/75 73203 10204 20174 30109 40140 53015 8523/
333 10237=
47898 32965 03106 10247 20145 30089 40127 53025
333 10260=
47909 11970 81602 10245 20218 30127 40136 53019 69902 70282 8807/
333 10272=
47918 32/70 71506 10281 20251 30112 40120 51011 81101
333 10316=
47936 32/70 61704 10264 20241 30066 40126 55001 82101
333 10297=
47945 31/58 61003 10254 20245 30119 40142 53003 71022 82202
333 10294=
47971 32980 02501 10248 20236 30148 40157 51010
333 10285=
47991 11/80 21111 10275 20239 30160 40170 51008 69902 72581 82200
333 10306=
47407 32970 33503 10123 20078 39946 40084 51016 80002
333 10226=
47409 11/58 82907 10068 20056 30050 40102 53003 60272 78088 8627/
333 10118=
47418 11/58 70214 10074 20063 30044 40089 53005 60242 78088 877//
333 10101=
47421 32/60 73204 10121 20112 30053 40098 53014 876//
333 10213=
47430 32/65 73502 10132 20116 30041 40093 53014 81632
333 10171=
47570 11/65 83404 10161 20125 39877 40126 53020 69902 72522 882//
333 10219=
47575 11/58 73001 10138 20120 30095 40099 53015 69902 71052 8265/
333 10167=
47585 11/60 62401 10121 20110 30034 40090 53018 69902 70185 86600
333 10153=
47598 11/50 61903 10168 20141 30091 40097 53021 69952 71082 86200
333 10232=
47602 11/65 73310 10161 20132 30112 40132 53017 60012 70282 872//
333 10176=
47605 11/58 32504 10174 20147 30105 40144 53012 69902 71011 83200
333 10201=
47618 32965 20204 10160 20110 39419 40115 53032 80002
333 10243=
47624 12/70 13307 10204 20105 39972 40103 53035 69902 81230
333 10285=
47636 32/70 23007 10197 20129 30060 40125 53026 81202
333 10259=
47655 32965 32818 10209 20134 30028 40082 53030 80002
333 10259=
47663 32965 22603 10203 20165 30087 40118 53024 80001
333 10278=
47675 32970 10609 10220 20176 39983 40074 53023 81001
333 10259=
47741 31/58 70703 10181 20159 30121 40147 53015 71011 83202
333 10237=
47746 32/60 62303 10188 20149 30130 40148 53013 86200
333 10229=
47750 12/60 72401 10167 20149 30122 40148 53016 69902 85202
333 10231=
47755 31/58 70504 10193 20169 30123 40147 53017 71011 872//
333 10225=
47772 32965 00207 10213 20142 30037 40133 51025
333 10280=
47800 12/60 83102 10192 20170 30123 40145 53015 69902 882//
333 10232=
47815 32965 72004 10222 20153 30120 40135 52019 80002
333 10271=
47817 32965 72103 10202 20180 30100 40141 53018 82032
333 10252=
47830 31/50 40202 10233 20208 30113 40130 51018 71000 82601
333 10269=
47837 32/60 12906 10223 20200 30114 40135 52012 81100
333 10263=
47887 32965 01204 10214 20162 30093 40132 51018
333 10251=
47891 12970 10903 10225 20138 30118 40129 53025 69902 80001
333 10289=
47899 32970 22007 10201 20193 39916 40132 51020 80002
333 10234=
47927 32/80 21605 10267 20251 30079 40126 51011 81102
333 10310=
12215 36/// /1804 10184 20013 30067 40240 57011=
40250 32970 00000 10334 20113 39317 40062 57019=
40265 32960 01304 10328 20089 39330 40083 57014=
40296 32965 00000 10356 20153 40100 57029=
40310 32960 01610 10330 20101 38912 48487 57007=
40255 32960 02804 10302 20097 39413 40095 57006=
40260 32960 02906 10346 20176 39328 40059 57017=
40270 31956 02706 10314 20099 39222 40069 57011 70500=
40272 32960 03110 10320 20144 39219 40074 57014=
40340 31957 00116 10360 20186 40045 57023 70700=
54527 32960 70702 10210 20151 40109 52001 82042=
54602 11759 81402 10247 20193 40105 52003 69901 71098 85507=
82141=
50246 32680 13201 10146 20048 40119 52008 81100=
50658 32980 13402 10200 20030 40113 52018 80001=
50844 32962 00903 10222 20107 40114 52011=
50854 11770 22201 10183 20156 40117 52013 60021 70098 82502
333 93905=
50888 11580 82704 10187 20097 40099 52012 69901 72160 8272/=
50968 11965 52501 10154 20140 40124 52006 60141 70098 80002=
54324 32665 81402 10242 20148 40110 52012 88911=
59254 11580 70000 10263 20246 40070 52017 60211 78098 879//
333 91119 91518=
10215=
57554 11462 81102 10255 20236 40037 52007 60011 72586 8697/=
57816 32580 61805 10246 20182 38714 40021 52009 84832 333
00001=
44229 32599 60504 10203 21014 37888 40000 53001 84270 333
10225=
44291 32598 21804 10260 21027 38675 40126 56002 81470 333
10283=
44317 32998 60704 10195 20029 38920 40100 53007 85031 333
10145=
44329 32598 50000 10190 20061 37717 49968 57005 87500 333
10204=
44338 32699 40905 10243 20074 38427 40014 52009 82580 333
10274=
44374 32599 71405 10243 21071 38211 49970 54000 83202 333
10264=
44385 32999 30000 10261 20011 38849 40035 53005 80003 333
10279=
41598 41013 10290 20257 40152 52009 70200 842//
22283 00300 2//// 309// 4//// 80265=
54135 32980 20901 10252 20128 39900 40108 52016 80002=
56444 11680 20000 10122 20076 36796 52001 69901 70080 82100
333 00052=
56691 11580 21404 10202 20141 37721 52002 69991 70098 81402
333 05101=
57902 11575 71404 10230 20190 38564 40028 52009 69901 70060
8554/ 333 00101=
50564 32970 20000 10160 20060 40112 52021 80002=
54157 11562 71802 10229 20138 40110 52015 69901 70098 878//=
54186 31670 73404 10174 20105 40114 52025 70090 81402=
57707 32580 61403 10246 20176 38403 52005 82102 333 05101=
57731 32580 21802 10298 20204 40009 52004 82800=
57832 32580 22002 10282 20199 40032 52010 81102=
57916 32580 21602 10295 20193 40027 52014 82800=
57922 32570 51607 10244 20198 40048 52006 85200=
57932 32680 62003 10300 20227 40038 52016 85502=
57399 11658 83602 10285 20259 40057 52018 69931 79598 889//=
57655 11575 60401 10300 20241 40032 52008 69901 70080 81142=
87178 22274 00260 20302 314// 40503 80238=
84531 22223=
44216 32699 71106 10252 20067 38832 49948 53001 84240 333
10306=
44242 32998 60000 10293 20038 39201 40005 57004 84048 333
10309=
44243 32999 20901 10271 20045 39304 40039 54000 80004 333
10305=
44254 32998 22303 10195 20046 39008 40072 53013 82060 333
10240=
44257 12998 20000 10186 20061 38939 40094 54001 69902 82060
333 10230=
44266 32999 82708 10181 20032 37736 49988 54000 8802/ 333
10210=
44325 32999 62002 10298 20121 38719 49940 57002 84074 333
10315=
44348 32997 40000 10232 20092 38673 40061 53011 84070 333
10252=
44386 32699 11105 10257 21002 38982 40042 58002 81100 333
10285=
59995 32470 82206 10275 20232 30058 40066 57001 8392/
66660 28405 42014=
56066 36/// ///// 10084 20040 36592 4//// 52008
555 10020 2//// 3//// 40111 51001 60/// 7//// 80000
9//// ///// 1/020 2//00 30000=
52908 11580 60204 10014 21034 35781 52010 69901 70080 85902
333 00100=
52818 32765 72503 10162 21038 37215 52005 875// 333 00354=
56004 32680 73408 10064 21046 35832 52012 83902 333 00103
91118 91532=
52713 11580 72702 10056 20030 36906 52001 69981 72166 82502
333 00361=
52634 16/// /0000 10032 20007 36741 4//// 52004 60011
555 10010 2//// 30125 41111 51011 60/// 7//// 80000
9//// ///// 1/113 2//00 30000=
50442 32968 10000 10179 20037 40118 52015 80002=
57528 16/// /2100 10131 29756 37563 61430
555 1/145 2//12 30211 12100
11101 10101 00010 10110 1011/
/////
2//// 3//// 6//// ///// ///// 8//// 9//// ///// ///// //004
11101 11111 1011/
11111 110//=
84202 333 10339 58022 79999 81814 83825 86080=
45011 12475 61307 10282 20257 40096 52011 69982 84231 333
10305 58018=
48820 11597 71401 10271 20250 30034 40042 53014 60032 79598
879// 333 01027 10338 58016 70026 83895 87995=
48826 31597 71801 10278 20264 39907 40034 53002 71792 879//
333 00029 10329 58013 70094 83895 87997=
48839 32598 70803 10280 20264 39974 40037 51008 83908 222//
2//01 333 00/// 10322 58004 70000 83995 84299=
48845 11498 81801 10272 20255 30032 40039 52013 69932 70262
888// 333 01028 10315 58008 70003 83894 88697=
48848 11497 82702 10265 20256 30019 40027 53002 60142 76096
888// 333 01027 10275 59009 70152 86894 88697=
48855 11597 81401 10256 20244 30026 40034 52008 60252 70262
8482/ 333 01026 10259 58001 70215 81895 84697 88499=
48900 11496 82304 10243 20238 30046 40056 52021 60082 71362
8592/ 333 10317 59003 83894 82994 85499 555 20228=
48914 11597 82703 10242 20235 30067 40069 52024 60162 78086
889// 333 02025 10306 58012 70405 86895 82995=
48917 11497 82706 10264 20244 30047 40052 52006 60072 78082
889// 222// 00290 2//02 333 01/// 10291 59001 70302 84894
88995=
48918 11497 72904 10282 20240 30049 40060 53010 69902 76062
8391/ 222// 00284 2//01 333 01026 10296 59001 70067 81894
82995 87499=
48803 12497 60000 10281 20255 39921 40031 53011 69942 869//
333 01027 10314 58017 71056 82894 86996=
48808 32498 71405 10285 20228 39770 40043 53015 879// 333
00027 10331 58015 70000 82894 81995 87696=
48823 11497 70000 10272 20262 30033 40036 52001 69902 70298
878// 333 00029 10327 58013 79999 83894 87696 555 20266=
48830 11698 70000 10262 20252 39748 40045 55005 60012 70298
82408 333 01027 10314 58013 70014 82696 87299=
48840 32598 70903 10289 20261 30033 40039 53005 878// 333
00030 10329 58005 70000 83895 87697=
48852 11598 80000 10269 20258 30012 40022 53004 60142 70262
8612/ 333 01027 10278 59012 70223 86895 88499=
48916 11697 82702 10248 20235 30011 40061 53003 60152 76186
885// 333 01/// 10301 58000 70165 88696=
48838 12598 70901 10290 20262 30047 40053 53007 69942 878//
333 00028 10309 58023 70051 83895 87696=
48846 11498 80000 10268 20259 30038 40041 53012 60082 70286
888// 333 01028 10298 58010 70082 83894 88697=
48863 32498 70000 10269 20251 30022 40031 53011 86808 333
01028 10317 58011 70418 82894 85696 86299=
48866 12598 72702 10217 20214 39195 40065 53010 60012 878//
333 01022 10237 58006 70111 86895 87697=
48875 11498 81402 10226 20219 39552 40056 53002 60202 70286
888// 333 01024 10272 58000 70232 82494 88696=
48907 11598 82705 10280 20243 30053 40055 52013 60042 70382
888// 333 01/// 10300 58000 70113 83895 88696=
80403 12475 80905 10272 20235 30119 40138 60054 8123/ 333
20260 30/// 50354 55033 21862 5699/ 58010 81816 87356 1014=
80407 32470 80502 10274 20202 30038 40113 82500 333 20263
30/// 50464 55073 21286 56900 58008 82616 83280 1011=
80410 12470 80704 10222 20210 39456 40138 60124 837// 333
20205 31/// 50304 55041 21654 569// 58013 83716 85356 1016=
80413 12470 10901 10232 20201 39642 40130 60054 81500 333
20215 31/// 50204 55030 21403 56900 58003 81616 1015=
80415 12470 50000 10262 20233 30085 40139 69904 855// 333
20244 30/// 50144 55011 21277 569// 58011 85616 1014=
80419 32370 81102 10218 20186 30113 40122 8482/ 333 20209
30/// 50334 55056 21399 5699/ 58006 84810 84458 1012=
80421 32460 70805 10269 20229 30125 40147 82805 333 20250
30/// 50574 55064 21587 56290 59016 82816 85277 1014=
80428 12468 81602 10232 20224 329959 40145 60134 887// 333
30/// 20223 31/// 50174 55016 21137 569// 58024 84710 84617
1017=
80435 12470 43602 10256 20211 30066 40142 60024 80003 333
20245 30/// 50744 55062 21105 56009 58010 1014=
80438 11575 80701 10177 20156 38525 48522 69944 70255 8152/
333 20173 30/// 50154 55018 21782 5699/ 58003 81630 88460
1020=
80444 12370 40502 10254 20233 30079 40132 60044 84500 333
20233 30/// 50344 55057 21562 56200 59003 84610 1012=
80447 12565 80907 10250 20166 39678 40097 60034 8552/ 333
20227 30/// 50474 55016 21126 5699/ 58019 85620 85459 1015=
80457 11365 80000 10262 20258 30073 40159 60504 75066 885//
333 20233 32/// 50174 55028 21830 569// 58036 88610 1015=
83470
22273 02304 20406 325// 40810 5//// 6//// 80268=
80416 32470 70902 10211 20187 39241 48627 82605 333 20203
30/// 50234 55008 21654 56909 58013 82616 85280 1021=
80420 32970 40704 10269 20222 30122 40128 80008 333 20250
30/// 50744 55024 22153 56009 58007 1014=
80425 32470 70603 10274 20211 30083 40119 8251/ 333 20260
30/// 50224 55050 21521 5699/ 58006 82613 85460 1011=
80427 12468 82701 10230 20223 39900 40157 60034 8477/ 333
20222 31/// 50264 55030 21240 5699/ 58022 84717 86457 1016=
80431 12470 60000 10234 20207 39641 40119 60034 8342/ 333
20199 30/// 50184 55020 21139 5699/ 58027 83620 83357=
80475 11459 80000 10192 20163 39795 40170 60044 75085 887//
333 20200 31/// 5//// 55000 20525 569// 58023 88717 1017=
84570 22234 00289 20302 315// 40503 80246=
10401 70007 333 91206 555 11059 22061=
86500 333 10263 31020 55045 21777 70003=
47008 32570 40000 10109 20068 30079 40128 52005 81530 333
10171=
47014 12540 62301 10184 20151 39715 40092 52006 69902 86500
333 10250=
47016 11570 80000 10155 20133 39308 40143 52034 60022 70282
885// 333 10250=
47020 12965 30000 10185 20132 39778 40135 52011 69902 83030
333 10241=
47025 31/09 90501 10114 20114 30091 40119 57001 74344 333
10164=
47035 32970 82302 10197 20159 30121 40129 52012 80004 333
10229=
47041 11760 50000 10152 20134 30106 40132 53003 69912 71064
85030 333 10212=
47055 32965 80000 10157 20137 30099 40142 54000 80001 333
10182=
47058 32966 83203 10201 20138 30084 40128 52008 87030 333
10259=
47069 32665 80000 10190 20154 30027 40122 52013 885// 333
10220=
23914 42999 52303 10228 20121 39923 40162 57007 80002=
23921 42999 20902 10212 20011 30065 40176 57008 80001=
23955 32598 33605 10139 20015 30034 40092 52002 83800 333
10145=
24641 32999 71001 10207 20004 39935 40064 53001 82031 333
10253=
28440 42998 03603 10206 21012 39830 40155 54000=
28748 42660 10506 10194 20009 39921 40145 57001 81100=
29231 11397 81101 10077 20058 39976 40068 52007 69902 75152
886// 333 10087 88707=
29838 11597 70000 10164 20126 39819 40034 53009 60012 70282
85330 333 10207=
30372 32999 73502 10186 21030 39277 40075 53001 81046 333
10220=
30673 32699 80000 10167 20055 39388 40099 53002 82401 333
10236=
30823 32998 31603 10275 20050 39464 40025 57006 80002 333
10301=
30935 32999 00601 10243 20099 39208 40049 57002 333 10255=
30965 32699 72503 10195 20011 39359 40119 53005 82302 333
10241=
31004 32999 31301 10149 20000 39327 40103 53003 80001 333
10179=
31088 32498 81607 10046 20031 30109 40116 52008 886// 333
88710 91113=
31137 32699 30401 10080 20036 39124 40103 52019 83900 333
10157=
31300 11599 62001 10144 20093 39830 40100 53012 60022 70281
83930 333 10200=
31329 12499 80701 10104 20094 39454 40085 53003 60022 889//
333 10156=
31369 32998 01107 10130 20081 30022 40103 53007 333 10167
91114=
31371 32699 20000 10151 20067 39861 40108 53008 82400 333
10218=
31388 11599 30000 10110 20097 39857 40105 53006 60032 70298
83900 333 10185=
31416 32599 70801 10135 20095 39978 40064 55000 82901 333
10221=
31510 119// 13401 10169 20050 39950 40105 52011 69902 70282
80001 333 10225=
31707 11598 80000 10142 20140 30013 40100 53001 60020 70282
82331 333 10221=
31735 32997 31602 10157 20090 39997 40080 53002 82030 333
10206=
31873 32599 82501 10164 20097 39969 40087 52012 82931 333
10229=
31909 32598 10000 10071 20048 30067 40143 52015 81500 333
10159=
31960 32598 41708 10080 20053 39903 40131 51008 81505 333
10176=
32053 32297 61304 10022 20014 30098 40140 54000 86600 333
10075 86703 91110=
32061 32999 31201 10061 20037 30100 40138 53003 81041 333
10112=
32098 32384 81903 10027 20017 30165 40175 52007 886// 333
10080 88708=
32150 32396 80204 10024 20014 30115 40145 52005 886// 333
10116 91112=
32165 11394 80506 10045 20043 30055 40115 53001 60250 76562
8872/ 333 10058 91111=
58968 32665 63202 10296 20223 30096 40103 53015 82430=
58974 31550 21611 10262 20257 39993 40110 53012 71000 81430=
59358 32562 42902 10295 20255 30096 40107 53018 82101=
59559 32565 61102 10284 20247 30083 40111 53018 85400=
59792 32560 20904 10288 20259 30090 40095 52011 82200=
59997 32562 61903 10274 20227 30060 40074 52013 82220=
59158 32965 02401 10290 20224 30009 40106 53018=
59562 32670 52301 10292 20242 30101 40112 52019 85500=
59567 12470 11304 10256 20233 39752 40121 53016 69902 81100=
47003 32980 21401 10121 20098 30121 40135 52002 80002 333
10157=
47005 11680 71801 10107 20090 38600 52014 69902 70282 87300
333 10179=
47028 12664 40000 10167 20160 30036 40125 51006 60012 84500
333 10208=
47037 12967 70000 10195 20156 30003 40120 53003 69912 87030
333 10234=
47039 12560 00000 10173 20168 39958 40140 52009 60042 333
10251=
47050 32965 02501 10199 20177 30091 40123 52016 333 10256=
47052 12965 31401 10186 20154 39806 40126 52021 69902 80002
333 10232=
47060 32960 82703 10177 20153 30072 40128 52008 88030 333
10225=
47061 12680 11401 10147 20130 30095 40137 57003 69902 81500
333 10173=
47065 32565 73203 10188 20156 30068 40130 53008 87500 333
10249=
47067 32565 71802 10201 20151 30009 40122 52005 87500 333
10269=
47068 32570 82702 10171 20143 30094 40127 52009 85502 333
10237=
47070 32970 72702 10182 20150 30047 40130 52007 87050 333
10245=
98325 11460 20000 10290 20256 40078 51019 69901 70594 82201
333 10350 56999 58002 82817=
98429 32560 51005 10295 20214 40089 52013 82201 333 10333
56999 58003 82825 85080=
98440 31475 30903 10293 20264 40086 53009 71301 82901 333
10323 56999 58001 81915=
98444 32468 20401 10292 20261 40085 52016 82200 333 10332
56999 59002 82818=
98630 32570 60000 10306 20264 40079 53006 83208 222// 20000
333 10334 56999 59004 83820 86275=
98637 31470 60403 10300 20254 40067 52020 70242 83201 333
10340 56999 59002 82812 83075=
98836 31565 80000 10283 20253 40075 53016 70544 82207 333
10324 56999 59010 82820 88281=
44207 32599 70000 10207 20027 38265 40001 53001 82286 333
10255=
44212 32599 70000 10238 20071 38965 49973 56005 87500 333
10286=
44231 32699 62305 10253 20009 38631 49986 56002 82482 333
10282=
44232 32999 20503 10246 20038 38997 40018 54000 80001 333
10310=
44239 32999 61103 10263 20002 38710 49984 54000 84081 333
10282=
44241 32999 30000 10270 20074 39147 40023 57003 80001 333
10311=
44277 32699 72704 10179 20074 37769 49985 53002 86550 333
10217=
44282 32699 61105 10223 21022 38242 49996 53003 85803 333
10260 91212 44237 32999 60000 10230 20095 38424 49990 53002
84043 333 10227=
44284 32599 61802 10199 21036 37846 40006 53002 86500 333
10222=
44285 32699 20000 10221 20046 38278 40004 54000 82200 333
10260=
44287 32599 50000 10223 20050 38090 49995 57002 82540 333
10240=
44288 32999 21803 10211 20030 38141 40018 57002 80001 333
10234=
44292 32699 32803 10261 21030 38643 40013 55001 81271 333
10277=
44298 32599 21801 10243 21009 38680 40042 54004 82200 333
10260=
44304 11599 60000 10203 20089 38951 40078 57008 69912 70298
86902 333 10266=
44305 11598 82603 10204 20122 39032 40118 58002 69932 72162
85540 333 10269=
44341 32999 21408 10238 20036 38562 40031 54001 82070 333
10256=
44347 32999 20903 10256 20073 38757 40025 54000 80003 333
10274=
44354 32599 50000 10258 20097 39050 40038 56002 82530 333
10278=
44358 32798 50000 10238 20109 39036 40056 58014 85200 333
10264=
44373 32599 41404 10247 20029 38478 40010 53001 82140 333
10261=
28661 42699 20408 10169 20025 30054 40143 54000 82100=
28879 41597 63507 10133 20082 39817 40088 52003 78082 86900
333 86929=
28952 42698 13605 10186 21064 39954 40137 53003 81100=
29023 32598 33503 10141 20029 39973 40064 52011 82402 333
10145=
29122 32999 23304 10132 20040 30001 40071 51003 82030 333
10133=
29807 42597 70404 10164 20067 39936 40046 54000 86230=
30230 32599 81603 10266 20084 39716 40005 57013 82101 333
10280=
30309 42698 81602 10264 20135 39445 40013 53003 82907 333
10291=
30650 32999 80000 10218 20015 39060 40069 57001 80001 333
10243=
30710 42960 81706 10223 20070 39437 40003 56006 82051 333
10280=
30844 32999 00901 10247 20076 39164 40035 57001 333 10269=
31532 11596 80503 10104 20095 39774 40097 52012 60040 78198
889// 333 10233=
31829 32598 32701 10042 20030 30101 40133 53002 83500 333
10070=
35078 41799 70209 10139 20043 39715 40071 52010 70298 87800
333 84650=
35108 42997 00401 10268 20081 40166 54000=
35188 41598 83504 10120 20086 39645 40055 53007 70282 8692/=
35229 42998 03202 10250 20041 39878 40128 54000=
35416 42697 23402 10262 20065 82200=
35746 41996 12510 10252 20048 30036 40109 57003 73130 80002
333 91115=
35796 41598 62106 10168 20104 39620 40023 53005 70298 82232
333 91120=
36003 41598 73604 10148 20111 39892 40035 52003 70182 86930=
36177 41597 72501 10198 20129 39778 40002 57002 72582 87300=
36428 72505 10187 20112 39573 40032 53015 70298 85901 333
95000=
36859 42599 83601 10254 20092 39303 60005 57015 8297/=
38198 42999 23005 10244 20009 82040=
42348 32996 02705 10400 20174 49946 333 10402 59015=
42361 22696 52301 10400 20246 49942 82101 333 10403 59027
6990/ 82840 83075=
42369 22996 22702 10358 20239 49953 80001 333 10363 59025
6001/ 82070=
42452 32596 22503 10406 20166 49951 82500 333 10413 59013=
42647 32596 52702 10396 20213 49983 84850 333 10401 56690
59022 82625 83830=
42667 62910 10331 20211 39410 49962 83231 333 10370 58027
83830 83360=
42737 32597 43209 10374 20231 49985 84801 333 10394 59019
82625 83830=
42779 32597 42701 10342 20181 39303 49961 82430 333 10361
59026 82830 83360=
42809 31595 51803 10330 20245 49982 70520 82301 333 10363
57973 59013 81820 81930 84070=
42867 32597 30000 10380 20203 49962 81231 333 10381 59035
81830 83075=
42909 32597 52706 10318 20265 40017 84501 222// 21401 333
10382 56600 59018 84620=
43003 22496 82703 10306 20252 40015 8692/ 333 10332 59026
6001/ 81714 83618 81925 88458=
43014 21596 60000 10324 20225 39365 49983 70262 85830 333
10324 59008 6002/ 83620 83825 85360=
43063 21597 72702 10264 20208 39403 40013 70296 84831 333
10346 59022 6990/ 82628 83830 84356=
43117 21596 61801 10286 20247 49998 76165 84331 333 10321
57990 59024 6004/=
43128 32597 43203 10346 20215 39401 49978 83901 333 10355
57972 59020 82620 83825 81930=
43185 32597 71802 10332 20280 39979 49982 83308 333 10382
57972 59011 82825 81925 86270=
43192 31596 72703 10286 20249 40035 70522 84432 333 10298
59022=
43279 31597 80000 10328 20236 39992 40009 71322 84907 333
10377 57962 59005 83620 81925 88075=
43284 21496 80000 10266 20243 39932 40047 75196 8472/ 333
10304 59018 6996/ 83710 83620 88458=
43295 21496 84951 10244 20221 39027 48445 76365 85332 333
10302 56799 59016 6005/ 82615 83822 81928 85359=
43321 31496 72308 10274 20217 39592 40030 70522 84970 333
10336 57981 57971 59018 83615 81925 86460=
43371 21596 83202 10262 20245 39989 40062 70396 8182/ 333
10307 56799 59004 6002/ 81620 88455=
44272 11698 71805 10220 20051 38137 40092 53012 69912 70283
82466 333 10233=
44294 32698 61805 10231 20051 38522 40024 54000 86200 333
10268=
98223 31570 10000 10289 20260 40084 53012 70544 81100 333
10346 56999 59007 81820=
98328 31458 31402 10206 20186 38515 40075 53012 74444 83201
333 10266 56299 58003 83813=
98618 31568 20000 10285 20247 40078 53008 70544 82201 333
10337 56999 58002 82820=
98755 32575 70000 10290 20264 40082 52016 82208 333 10326
56999 58003 82820 88279=
26063 42497 23103 10161 20036 30194 40201 58001 82200=
26298 41597 63602 10123 20067 39964 40188 52006 70262 83281=
26477 41570 83504 10146 20078 30071 40195 52011 70298 885//
333 88624=
26702 42697 53002 10164 20048 30218 40244 52002 85200=
26997 42464 80103 10141 20103 39954 40167 52010 889// 333
86916=
27595 42997 01502 10269 20085 30040 40172 54000=
27612 41597 63501 10179 20137 39957 40140 52014 70298 83401=
27947 42697 61807 10273 20099 39994 40141 54000 84302=
27962 42797 40000 10280 20070 40149 57008 82201=
34009 42568 72902 10176 20131 39840 40139 54000 86501=
34172 42770 59902 10270 20088 39980 40158 57008 82131=
34247 42477 71602 10278 20064 30037 40141 57005 84250 333
82914=
34391 32997 02302 10295 20077 30125 40153 57005 333 10046=
37054 42698 60802 10254 20130 39765 40122 57008 84260=
44210 32699 73209 10189 20068 38393 56007 84860 333 10205=
44217 12698 62303 10144 20106 37841 40071 56001 69902 83843
333 10160=
44219 32698 83603 10250 20027 38493 49936 58002 70292 851//
333 10285=
44221 32599 52602 10223 21096 38480 49972 56005 83540 333
10245=
44224 32698 61805 10193 21007 37912 49974 54000 86204 333
10211=
44263 32998 62702 10171 20036 38987 40010 53005 83044 333
10205=
44286 32698 30000 10261 20032 38583 40003 54000 83100 333
10285=
44203 32699 60000 10204 20021 38331 49991 57007 83562 333
10250=
44213 32697 63208 10226 20111 38663 49965 53014 86010 333
10289 91212=
44215 32698 73403 10187 20080 38308 49974 50003 87500 333
10219=
44225 31597 82704 10192 21032 38210 40011 54000 69932 71532
882// 333 10237=
44230 32598 63602 10260 20038 38717 40024 54000 82383 333
10292=
44237 32999 60000 10230 20095 38424 49990 53002 84043 333
10227=
44275 32698 72707 10182 20025 37708 49981 54000 87500 333
10213=
44302 32999 40000 10205 20067 39081 40108 54001 84040 333
10233=
44336 32999 21402 10260 20000 38641 40027 53009 80003 333
10285=
23074 32498 70310 10021 21007 30135 40159 58002 87500 333
10031 87613 91118=
24125 32599 80507 10154 21005 39789 40046 53008 8495/ 333
10182 91113=
24143 32999 60000 10156 20058 30050 40096 52001 85203 333
10170=
24343 32999 40202 10157 20021 39979 40089 58001 80001 333
10163=
24738 32999 61501 10230 20081 39880 40042 57004 82031 333
10264=
24951 32999 22701 10160 20019 39943 40084 56002 80001 333
10212=
24959 32599 20301 10179 20011 39953 40072 52013 81531 333
10225=
24966 12999 22301 10141 20067 39873 40074 53005 60040 82031
333 10180=
29313 42598 83503 10096 20034 39966 40083 52012 8455/ 333
10108=
29612 32598 83605 10128 20066 39919 40061 52010 885// 333
10132=
29698 11598 83004 10214 20158 39538 49999 53022 60022 72998
86902 333 10291=
30758 32999 21204 10238 20006 39332 40073 57001 80001 333
10262=
30949 32699 22101 10225 20053 39078 40069 53004 82400 333
10250=
32027 32999 61803 10079 20070 30116 40124 53001 80002 333
10112=
35406 42997 00701 10271 20070 40190 58004=
38062 42699 22506 10235 20023 82100=
38232 42998 10202 10314 20021 30026 40115 56003 80002=
38388 42998 33202 10335 21003 30034 40104 54000 83030=
38413 42698 23510 10277 20029 39832 40099 52006 82100=
38507 41698 80305 10271 20119 30006 40101 52004 70282 8397/=
38545 42598 23002 10297 20146 39925 40085 53001 82100=
38656 42998 00000 10346 20018 39980 40087 56001=
38687 42997 03405 10309 20025 39858 40072 58004=
38880 42699 40402 10339 20025 39727 40071 57016 82280=
38895 42997 40204 10326 20139 39817 40079 58005 82003=
38974 42998 00505 10346 20013 39744 40046 57005=
98135 31570 30903 10288 20261 40106 53008 70544 83200 333
10323 56299 58013 83819=
98232 31570 20906 10280 20254 40081 53007 70544 82200 333
10350 56999 58000 82820=
98329 31470 20902 10269 20241 40099 5/039 70544 81201 333
10334 56999 58019 81818=
98653 11456 81203 10266 20256 40091 52016 60111 76186 8492/
333 10315 56999 58006 84915 88457=
20046 42478 72104 10007 21016 39999 40026 58003 875// 333
87618 91113=
20069 11346 81910 11012 21017 30078 40091 57011 69982 73673
886// 333 11011 88707 91115=
20087 31273 81908 11036 21044 30145 40155 57030 73632 886//
333 11034 88706=
20667 42497 72108 11001 21016 30179 40187 57014 87500 333   91109=
20674 32475 72203 11019 21043 30160 40220 57002 875// 333
11018 87610=
20744 41498 61509 10115 20080 30040 40057 57002 86500 333   86618
91120=
20891 32497 50206 10009 21027 30118 40160 52018 82530 333
11023=
23022 42997 21709 10124 20038 30096 40153 57013 80001 333   91112=
23032 42968 30807 10054 20011 30161 40193 57010 83030 333   91110=
29328 12498 83404 10096 20050 39939 40072 52019 69902 889//   333
10118 86915=
29348 11497 83001 10103 20093 39906 40043 52019 69992 78082 889//
333 10130 85713=
29405 32697 40106 10120 20017 39952 40091 52004 82430
333 10135=
29937 31597 62403 10190 20126 39818 40019 54000 71722 86400   333
10210 86630=
22113 42484 52505 10150 20036 30043 40103 52010 85900 333
91009 91114=
22820 42499 72802 10153 20038 30048 40181 57002 82520=
26781 42497 70303 10160 20081 39897 40177 52008 86930=
33345 42698 70905 10188 20071 39977 40174 52002 86131=
33791 42597 63306 10207 20124 39994 40139 58007 82130=
34560 42962 61503 10282 20074 39995 40149 57004 86031=
34691 42998 13203 10313 20051 30156 40144 5/011 80002=
34866 42998 51204 10305 20094 40143 57013 86031=
34880 42997 52402 10301 20089 40146 58003 80001=
37472 42998 50802 10229 20177 30157 40135 58004 85030=
59001=
48325 01530 60000 10283 20238 39789 40027 69902 71062 83806
333 10333 59003 69906 70010=
48352 31564 60000 10315 20254 39817 40010 71322 84903
333 10345 59005=
48403 32560 82602 10270 20241 39818 40025 84546
333 10312 59009=
48405 01560 80000 10246 20237 39857 40019 60132 72196 8657/
333 10316 59012 60067 70156=
48425 11562 72102 10310 20228 30016 40026 69912 70282 84976
333 10348 59007 70001=
48426 12560 80000 10308 20225 30009 40022 60062 84576
333 10336 59012 70062=
48430 31558 80000 10305 20257 30019 40027 71022 84976
333 10342 59011 70008=
48450 32562 50000 10302 20216 39997 40029 81546
333 10347 59008=
48459 32564 31901 10303 20238 30027 40030 82106
333 10335 59004 70061=
48550 01460 80000 10259 20248 30046 40051 60032 70362 84876
333 10295 58001 60037 70030=
48551 01557 80000 10255 20242 30051 40059 60062 71066 84577
333 10305 58004 60047 70061=
48583 01558 80000 10280 20237 30052 40058 69902 71096 83206
333 10335 59003 69907=
96073 31457 70000 10288 20244 30057 40064 51015 70522 83972
333 10320 56000 57901 59013 83913 80958=
96607 11457 80000 10254 20239 30078 40093 52003 60131 70296 8592/
333 10330 56009 57970 58006 82918 85616 809//=
96739 31556 70000 10281 20236 30011 40060 52010 70522 83531
333 10328 56000 59002 83620=
96747 31558 40000 10282 20229 40063 70521 81101
333 10322 56000 59010 81820 85080=
96925 11465 80802 10269 20235 30074 40081 52010 69921 70262 83272
333 10289 56200 57820 58001 83817 80860=
43189 32597 71603 10326 20274 39975 49984 83932 333 10374
57962 58983 59015=
43245 32597 83215 10346 20254 39974 49996 82531 333 10350
59022=
59004 70003=
48353 01450 81302 10259 20225 39740 40026 69952 79592 86976
333 10335 58012 69955 70170=
48356 01420 80000 10242 20236 39985 40045 60232 79596 8397/
333 10333 58024 60236 70261=
48375 32565 63003 10276 20240 39797 40020 84946 333 10335
58001 70009=
48381 32560 81302 10275 20246 39798 40018 82176 333 10325
59020=
48431 31558 82602 10290 20238 39818 40027 71022 84376 333
10328 59007=
48432 31558 80000 10283 20250 39861 40027 71022 83576 333
10302 59004 70012=
48455 32562 52401 10302 20240 30024 40029 83846 333 10324
59007 70394=
48500 11565 82401 10273 20229 30035 40041 69902 70362 8657/
333 10302 58006 79999=
58011=
56499 58017=
24266 11699 72502 10114 20061 39930 40095 52007 60030 70282
83550 333 10108=
24329 32599 70901 10183 20017 39760 40032 52002 87800 333
10229=
24507 11598 83601 10094 20071 39794 40015 52023 60062 70282
889// 333 10138=
24688 11699 82002 10086 20064 39213 40068 52015 60010 76086
8742/ 333 10153=
24908 12580 72202 10229 20092 39688 49982 53005 69902 83931
333 10245=
24944 32999 50702 10206 20046 39801 40066 56008 80009 333
10253=
29594 32599 71202 10218 20135 39666 40012 53012 83983 333
10273=
29634 11357 83504 10122 20105 39836 40044 52011 60092 78082
883// 333 10125 84709 84916=
29676 31699 80000 10210 20149 39628 40009 54000 70292 82506
333 10214=
30054 42998 73601 10196 20077 39817 40035 57003 84088 333
10269=
30393 32999 13402 10155 21044 39128 40094 52004 80001 333
10178=
30433 32999 40000 10159 20041 39527 40078 57006 82031 333
10212=
30469 32999 70000 10186 21007 39382 40074 57015 83042 333
10248=
30554 32998 50000 10197 20029 39072 40067 54000 83042 333
10251=
30603 32998 80803 10292 20097 39473 49972 54000 80002 333
10315=
30612 32999 51204 10241 20089 29513 49993 57006 80002 333
10304=
30635 32999 00601 10189 20068 39529 40052 57010 333 10229=
30692 32999 00000 10138 20040 35634 40097 53004 333 10220=
30802 32799 73402 10226 20002 38612 48415 53013 84530 333
10276 91119=
30879 32999 80000 10168 20080 39409 40114 53003 80003 333
10240=
30925 32899 50602 10252 20090 39159 40023 57004 81032 333
10274=
35700 42698 21303 10277 20077 30170 40144 52001 82100=
35925 42998 00000 10279 20102 30042 40143 58002=
36034 12598 83304 10191 20129 39754 40006 53001 69922 85932
333 10216 83932=
36061 11699 80000 10176 20143 39659 40034 54000 69992 70298
85951 333 10214=
36982 42598 72702 10019 21018 36470 47005 54000 70266 85950=
38001 42997 23404 10255 20217 30168 40141 54000 80002=
38392 42998 13302 10302 20077 30014 40108 50008 80002=
38750 42997 52806 10258 20198 30126 40100 53005 80001=
96237 32457 81802 10265 20238 30023 40064 53004 85272
333 10314 56000 57802 58003 85817 80858=
16641 32470 33310 10294 20156 30134 40140 58004 81201 333 81820 83068
90730 91126 555 40000 47634 44235 50000 50210=
47046 32969 22702 10145 20127 30116 40139 53005 82030 333
10168=
16560 32580 63204 10302 20126 30188 40194 58001 81102 91145
333 55310 81830=
41530 31696 30503 10395 20120 49926 70600 83400 333 10410
56900 59025=
41571 31696 22304 10383 20153 49936 70600 82400 333 10395
56900 59019=
41640 31995 10000 10400 20183 39707 49935 70500 81030 333
10408 59027=
41660 32697 23110 10361 21078 38319 48392 81400 333 10380
56900 59003=
41675 31996 01804 10410 20207 39808 49938 70500 333 10425
59016=
42410 22597 13603 10286 20249 49988 81200 333 10303 59014
6990/ 81825=
42492 31996 00000 10436 20224 49969 333 10356 59013=
42675 31597 61801 10360 20202 49952 72992 86900 333 10398
59022 82625 83830 81935=
42754 32596 33203 10374 20186 39364 49958 83100 333 10383
59027 83825=
42886 32596 51802 10366 20225 49965 82430 333 10392 59005
81620 85360=
42895 32996 41402 10314 20252 49983 80001 333 10340 59025
84075=
42934 32697 43201 10350 20219 49978 81230 333 10356 59015
81825 83360=
42971 32596 31604 10330 20251 49988 81401 333 10366 59029
81620=
43198 21497 82507 10254 20201 39213 40021 72996 8587/ 333
10306 56699 59022 6990/ 83710 83615 88458=
43201 21497 82700 10232 20205 39314 40026 76092 8497/ 333
10302 5669/ 57912 59017 6001/ 84618 81922 86358=
43213 32597 64951 10365 20192 39676 49977 81832 333 10369
59027=
43329 32597 62003 10332 20231 39998 40011 82560 222// 20401
333 10342 59017=
43353 21496 82702 10260 20240 40071 70365 8432/ 333 10284
56799 57930 59003 6001/ 83615 81925 88458=
43369 21596 72702 10300 20249 40063 70262 85470 333 10321
59014 6998/ 84620 87458=
21802 12599 80202 10015 21005 30117 40140 52003 69902 885//
333 10025 88620=
23256 42999 00104 10065 21006 30147 40180 54000=
23274 32598 63511 10060 20009 30076 40114 52010 86500 333
10078 86632 91114=
23330 42998 21702 10127 20004 30180 40198 57014 80001=
23383 32699 70204 10055 21012 39726 40063 53016 87500 333
10067=
23472 32999 23406 10106 21025 30027 40073 52011 80001 333
10121 91112=
23552 41997 03404 10110 21012 30124 40157 52003 70730=
23631 42999 01203 10145 21002 30160 40199 57013=
23678 32598 63004 10130 20030 39986 40041 52012 83570 333
10132=
23734 42998 12403 10168 20025 30102 40188 57006 81001=
23849 42996 13507 10137 20009 40142 52005 81030=
23884 11568 82801 10089 20074 39962 40032 52015 60022 78082
8692/ 333 10105=
23891 11598 80000 10152 20098 39696 40001 52018 60012 72582
889// 333 10179=
23933 42997 00104 10139 20000 30124 40180 54000=
23966 32597 83202 10123 20030 39936 40055 52008 82470 333
10123=
25400 32999 30702 10106 20027 30083 40135 53007 83030 333
10154=
28275 42599 10205 10141 20029 30093 40151 52003 81100=
28493 42699 73604 10098 20030 30020 40108 52012 87500 333
87636=
28573 42689 60207 10127 20002 30032 40131 52005 86800 333
91113=
28698 42598 70105 10138 20058 39939 40084 52012 86230=
28722 42998 22904 10253 20059 30045 40166 57003 80001=
28786 41598 70504 10114 20081 39938 40088 52012 72522 85370=
29253 11899 83201 10146 20076 39852 40013 52012 69902 70262
8802/ 333 10164=
29263 11599 70201 10168 20130 39914 40007 52008 69932 70282
84931 333 10196=
29282 11598 72702 10226 20118 39853 40004 58002 69902 70282
83901 333 10251=
29430 11498 80102 10099 20081 39885 40051 52021 60062 70282
889// 333 10112 88914=
35067 42598 6//// 10164 20015 39832 40090 53005 84360=
35121 42998 00205 10264 20045 30013 40148 57003=
38763 42698 60704 10362 20085 39977 40072 57008 82286=
38911 42998 53204 10333 20011 39778 40044 57009 83072=
38954 42899 80000 10156 20105 37934 48480 58006 8692/ 10023=
38987 42996 60206 10349 20021 39345 40012 57012 86080=
40375 32960 00202 10368 20040 39213 40032 333 58005=
41196 32960 03306 10352 20236 39951 49988 333 59010=
41216 32960 03407 10360 20229 39989 49993 333 59011=
27271 41597 72303 10245 20152 30001 40145 53002 71791 83901=
27707 41445 83603 10115 20110 39874 40159 52010 76165 8872/   333
87712=
28711 42998 00000 10254 20078 39818 40163 57005=
42634 32596 42710 10352 20214 49995 84500 333 10374 59022
84625=
42840 32696 32302 10342 20261 40032 82201 333 59026 82835=
16242 32565 32604 10262 20149 30201 40204 52007 83101 333
83823=
16320 32960 53309 10258 20146 30173 40185 52011 80004 91145
333 55310=
16420 32597 30505 10266 20158 30120 40183 51002 81201 91145
333 55310 81830=
16716 32565 50703 10288 20164 30105 40122 50001 83202 333
83825 83070 90730 91114=
16734 32565 23204 10230 20199 30073 40134 54000 81204 333
90730 91120=
21908 32599 70303 10099 21009 30029 40104 53004 875// 333
10104=
24982 32699 72001 10075 20027 39621 40096 52018 85931 333
10176=
25325 32599 20402 10091 21057 30008 40163 52007 82400 333
10133=
28255 42999 00403 10180 20009 30044 40166 57003=
28642 42997 03509 10198 20017 40150 54000=
29557 11598 62203 10168 20125 39764 40009 52003 69902 72522
86300 333 10205=
29822 11497 83503 10143 20113 39877 40029 52010 60012 70282
889// 333 10180 88919=
29846 32597 72202 10206 20107 39666 40016 53001 83930 333
10210=
30777 32999 50000 10198 21027 39509 40105 54000 80002 333
10249=
31174 32999 60000 10062 20036 30085 40096 53012 86039 333
10169=
31263 /2599 50000 10096 20084 39549 40095 52009 83460 333
10179=
31624 31598 82401 10156 20097 40083 53021 78082 889// 333
10243=
36087 32699 60401 10257 20088 40109 57003 82802 333 10274
95000=
36096 32699 73005 10251 20059 49958 53018 85932 333 10321
91112=
36103 31699 72903 10238 20093 49972 53010 70292 86902 333
10274 95000 50159=
36231 11599 70000 10180 20088 40029 57006 60062 70298 82571
333 10180=
36259 32599 82704 10165 20023 38144 48391 53004 84902 333
10187=
36307 32699 73204 10252 20036 38791 48399 56001 84501 333
10292 84657 95000=
36974 41698 82701 10084 20076 37929 48454 53013 78082 889//=
53882 31958 81403 10213 20130 40074 52022 70500 8802/=
96179 01460 81803 10280 20245 30022 40058 53004 69931 70292 86217
333 10316 56400 57843 59010 69937 86817 80860=
96221 11560 70000 10266 20242 30064 40079 52008 70296 84472
333 10304 56099 58005 84622=
96253 01456 80000 10254 20239 30305 40055 52024 69901 79596 8592/
333 10306 56009 57900 59004 69907 82915 88460=
96295 11458 80000 10270 20243 39984 40088 56010 69901 70562 8652/
333 10320 56009 57600 58000 86612 806//=
96581 01458 70000 10256 20250 30061 40068 51002 69901 70296 85170
333 10315 56500 57852 58000 69907 85813 80860=
96171 11457 70000 10264 20243 30021 40045 51013 69971 71662 85522
333 10326 56000 59013 85615=
59022 82625 83830 81935=
59027 83825=
11018 87610=
21432 32998 01405 11008 21033 30219 40229 54000 333 10040=
21647 32984 00806 11043 21062 30207 40235 53005 333 11017=
21824 32470 10205 10013 20005 30136 40145 52007 81500 333
10013=
21946 32984 00805 11008 21046 30141 40219 52009 333 10024=
21982 42582 62202 11031 21048 30215 40221 52013 86500 333
86500 333 86628 91107=
25123 32998 00906 10047 21049 30142 40178 52001 333 10121=
25173 42498 63204 11024 21057 30233 40237 52007 86500 333
86616 91106=
25551 41597 80705 10037 20003 30125 40155 52003 76162 8552/=
25563 41470 80510 10014 21003 30063 40140 53001 76162 885//
333 91112=
25594 41470 80407 10015 20001 30149 40170 50005 76062 885//
333 91112=
25621 11599 31701 11001 21036 39327 40154 51011 69930 70261
81531 333 10075=
25913 32499 72703 10027 20017 30013 40158 52011 84501 333
10074=
25954 11497 83508 10038 20007 30047 40051 52008 69900 78082
889// 333 10088 83712 91012 91113=
32618 11598 73512 10041 20026 30047 40070 52006 60020 70282
87900 333 10031 91013 91114=
10249=
67561 42780 31206 10245 20086 48529 83100 333 59001 83856=
67743 42980 01010 10261 20053 48537 333 58004=
61223 31915 12214 10380 20197 '3809 40096 70930 81040
333 0//00 58028 81365=
61226 32960 72206 10340 20182 39805 40090 85070
333 58027 87365=
61230 32960 42814 10394 20168 39827 40084 83042
333 58007 83365=
61240 31956 61816 10330 20170 30775 40089 7079/ 86072
333 58018 86362=
61257 32970 03010 10390 20169 30056 40107
333 0//00 58015=
61265 11960 51014 10364 20167 3//// 4//// 69901 72161 85070
333 0//11 5//// 85365=
61270 32962 12202 10354 20306 39727 40093 80002
333 0//00 59002 81075=
61272 32965 72204 10348 20194 39784 40100 87070
333 0//00 59006 87365=
61277 32970 60000 10352 20206 39792 40102 80002
333 0//00 59004 81075=
61291 32960 32008 10316 20226 39687 40091 80002 980//
333 0//00 59010 83080=
61296 32970 71406 10317 20212 30717 40102 84072
333 0//00 58008 84365 84075=
61297 32975 21806 10310 20208 3//// 4//// 81042
333 0//00 5//// 81365=
82893 21798 80903 10224 20212 39237 40138 70255 885// 333 20193
58003 69940=
78792 22460 10000 10247 20213 30109 40119 52009 81200 333 010// 10274
20220 31/// 59003 70407 81818=
78795 32465 40000 10218 20210 30004 40104 52001 82101 333 10296 20216
31/// 560// 58001 70009 82808 82080=
37735 42698 60904 10243 20172 39774 40126 57013 86210 555   10049=
17300 32570 11810 10288 20162 40093 58006 81200 333 81830=
43221 32597 51602 10356 20233 39968 49981 82431 333 10380 59018=
41150 32962 03211 10359 20212 40000 333 59019=
41184 32960 03309 10414 20227 49998 333 59004=
41194 32960 03215 10334 20235 39981 49993 333 58011=
41217 32960 03415 10379 20173 39962 49991 333 59014=
59017 82630=
43309 22497 50000 10280 20252 40021 85320 333 10280 59023 6001/=
43382 22595 40203 10264 20258 40061 83320 333 10286 59003 6019/=
48601 31562 70000 10282 20244 30061 40065 70522 82842 333 10319 81822
87077=
48615 31468 72901 10297 20251 30056 40062 71322 8397/ 333 10332 81917
83620 88469=
48620 31564 70000 10290 20248 30056 40065 70522 82548 333 10343 82634
87276=
48647 31559 70802 10290 20250 30037 40062 70522 81542 333 10334 81630
87078=
48665 31660 70901 10274 20257 30050 40060 70522 81548 333 10305 81636
84363 86278=
96413 31465 71101 10264 20241 30046 40072 71322 84942 333 10313 81915
84623 87080=
96421 32465 70305 10271 20238 30045 40089 8347/ 333 10319 83616
87365=
96441 32468 70000 10268 20240 30084 40089 82531 333 10290 82616
86365=
96449 32468 60000 10267 20243 30063 40083 81531 333 10297 81615
85365=
96465 32465 80000 10273 20236 30050 40084 82837 333 10290 82812 86363
88278=
96471 11470 71204 10262 20244 30080 40083 69901 70162 81848 333 10290
81815 87278=
96481 11462 70000 10256 20238 30055 40078 69921 70296 8487/ 333 10314
81817 83627 87364=
96491 32465 70000 10270 20244 30065 40078 82842 333 10311 81817
87078=
44404 32581 33202 10237 20177 4//// 83200 333 10246 5////=
44424 32670 62308 10228 20154 4//// 84510 333 10245 5////=
44434 21265 60000 10242 20211 39099 48427 70209 83330 333 10294
59012 60058=
44462 22260 60000 10234 20193 38185 48393 86800 333 10286 58002
69908=
44474 32362 40901 10218 20121 38187 48409 84400 333 10237 59005=
44478 32565 30902 10326 20234 39898 49980 83200 333 10345 59004=
96035 01458 70000 10252 20240 30034 40066 52021 60121 72196 86978
333 10330 56000 57902 58004 60127 81918 85618 80956=
96109 01456 83203 10254 20235 30011 40058 51022 60021 79599 8697/
333 10344 56709 57970 59003 60027 83915 83612 809//=
96195 31459 80000 10274 20254 30032 40068 70522 84621
333 10328 57604 84615 80640=
96249 32458 70000 10266 20239 30000 40059 52008 84932
333 10306 56000 57901 57801 59008 81917 83820 80981=
96633 01557 83202 10261 20247 30072 40079 53016 60061 70596 83521
333 10332 56000 58005 69907 83620 86480=
96655 01458 31202 10258 20249 30060 40088 55020 69941 70162 82031
333 10329 56600 69947 58007 81362=
96685 01457 70000 10246 20237 30061 40088 57022 60084 72162 85972
333 10312 56000 57904 59001 60057 81920 85815 80980=
96805 32560 41005 10276 20232 30068 40078 51014 83211
333 56200 57801 58000 83820 80860=
96839 32558 51203 10282 20214 30063 40068 51006 81541
333 10314 56000 59012 81623=
96933 32960 11002 10282 20223 30073 40079 52005 81011
333 10321 56000 59011 81460=
96737 31457 70000 10280 20236 30036 40085 52012 70521 84571
333 10324 56000 59002 84618=
96755 31456 50000 10265 20221 40080 70521 82521
333 10313 56000 58002 82618 84462=
96783 32558 20000 10240 20195 39195 48791 52012 81501
333 10293 56000 57600 58000 81628 81080 80680=
96791 31458 70000 10280 20233 30012 40072 52007 70521 83521
333 10335 56000 59005 83618=
96797 31458 80000 10289 20239 30061 40064 52004 71522 8697/
333 10327 56209 57920 57820 58003 82918 80981 85820 80880=
96837 32558 61202 10278 20216 30063 40065 53004 82532
333 10314 56000 57600 58000 82623=
96973 32558 61003 10275 20234 30070 40074 52011 82276
333 10299 56200 57823 58006 82820 80850=
96987 31457 82303 10265 20228 30031 40090 52021 71522 8692/
333 10300 56409 57941 59001 82917 85615 88457 80980=
48870 11498 71803 10284 20269 30032 40039 53014 60042 72581
879// 333 01029 10332 58021 70046 83894 81995 86696 96013=
48877 11595 82302 10261 20240 30053 40058 53021 60012 78182
889// 333 01027 10300 58021 70013 83995 88696=
48887 31598 82702 10262 20237 30048 40054 53019 71392 8492/
333 00028 10327 59001 70032 81895 81996 83697 88499=
98431 31456 40000 10287 20246 40084 51012 70141 82230
333 10330 56999 59002 82818 84360=
98536 31465 50902 10292 20250 40079 53018 70142 83361
333 10323 56299 59003 83918=
98741 31468 70000 10294 20251 40089 52011 70242 82208
333 10318 56999 58000 82818 87275=
98753 31465 70000 10276 20248 40078 52025 70544 82278
333 10328 56999 58002 82816 83359 87279=
97014 01558 60000 10242 20236 39988 40081 60401 72196 83521
333 10296 56000 58000 69907 83620=
97048 31460 20000 10254 20239 30050 40074 52019 71321 81931
333 10318 56000 57907 58011 81917 80980=
97072 31458 60103 10280 20230 39999 40101 53023 71322 84971
333 10350 56000 57901 57801 59004 81918 83818=
97180 11458 40000 10244 20237 30063 40081 52018 60071 70162 81531
333 10314 56000 58011 81619=
97230 32460 61105 10274 20223 30081 40088 52015 83271
333 10290 56200 57822 59018 83819=
97260 32560 70000 10255 20212 30079 40086 52018 85531
333 10306 56000 58000 85618=
97340 32560 20000 10235 20212 30102 40113 52001 81231
333 10294 56000 57808 58005 81820 80858=
97372 32560 72603 10253 20219 30074 40106 52019 81231
333 10303 56000 57804 58009 81820 85360 80856=
97430 32560 62401 10256 20278 30050 40080 57020 84232
333 10302 56300 57832 58005 83820 80860=
97600 01440 80000 10240 20237 30087 40092 51004 60111 72162 8222/
333 10300 56009 57802 58001 60057 83812 88458 80856=
42071 31696 42903 10304 20161 49940 70611 82402 333 10406
59030 83070=
42101 31695 83202 10366 20225 49945 70522 333 10389 59028
82635 86465=
42131 31695 32901 10408 20190 49935 70600 83100 333 10422
59023=
42165 31996 02303 10416 20178 49938 70644 333 10422 58023=
42182 21595 61801 10260 20237 49956 72996 84330 333 10382
59016 6018/ 83630 81935 86360 91059 91945 99956=
42189 21996 00000 10342 20233 49954 70500 333 10351 59026
6002/=
42314 21496 70204 10264 20247 40017 70562 83330 333 10282
57940 58007 6002/ 83618 81925 86360=
42328 31995 02307 10404 20234 49944 70700 333 10412 59018=
42339 31995 52303 10398 20180 49954 70600 82031 333 10403
59019 82360 83075=
42591 32996 33202 10368 20194 49968 80001 333 10380 59014
83075=
42701 32496 43603 10344 20165 39268 49953 84400 333 10367
59019 82618 83825=
42798 31496 60902 10334 20227 49968 71799 85330 333 10398
57920 59013 81930 86360=
43041 21596 83202 10234 20220 39406 40013 79596 8392/ 333
10363 59015 6009/ 83625 81930 88458=
43086 32597 30000 10372 20228 39802 49970 82802 333 10386
59024=
43110 21497 82703 10282 20245 40038 76062 8477/ 333 10295
59021 6001/ 82710 84618 86456=
43314 21597 82902 10252 20240 40063 76065 8477/ 222// 21001
333 10302 59005 6014/=
43333 21596 72706 10278 20248 40029 70262 84431 333 10298
59001 6003/ 83620 85358=
91165 12466 80307 10233 20200 30111 40162 58019 69901 91153
333 20233=
91245 32566 40906 10270 20250 30147 91150 333 91018=
91285 32766 82502 10222 20178 30145 40157 58018 91153=
91334 11474 80904 10261 20240 30091 40094 50010 60101 72582
83271 333 10301 56224 58016 70218=
91348 11466 81204 10248 20234 30058 40110 50005 60051 78082
8627/ 333 10311 5629/ 58016 70488=
91356 11466 80000 10266 20244 30079 40086 52007 69901 70282
86278 333 10289 56299 58000 70036 86810=
91366 11574 80710 10268 20235 30091 40101 50000 69901 70282
82102 333 10296 562/4 58011 70010=
91376 32474 80806 10278 20238 30103 40107 50002 83806 333
10294 562/9 58021 70216=
91413 11469 71003 10277 20247 30069 40088 51012 60011 70282
85271 333 10317 56299 58003 70013=
98526 32570 63201 10287 20264 40075 53004 82208 333 10328
56999 59008 82820 86275=
98748 31465 82201 10280 20/// 40067 52010 70544 8391/ 333
10341 56999 59005 82917 88458=
42724 32596 50000 10314 20258 49993 81201 333 10346 59009
81825 85070=
41515 32797 62302 10323 20000 48412 82270 333 10355 59017=
41560 32697 51803 10308 20032 38408 48412 84830 333 10328
59015=
41594 31696 20903 10410 20166 49937 70500 82400 333 10420
56900 59019=
41624 32997 00000 10422 20108 39745 49927 333 10435 59015=
41710 32697 41803 10437 20009 39288 49886 84500 333 10472
56900 59022 84640=
41712 31996 40503 10445 20166 39032 48412 70500 84030 333
10455 56090 59031 84360=
41715 32997 01302 10445 20273 39867 49926 333 10445 59014=
41718 32997 00000 10425 20219 39835 49929 333 10430 59011=
41744 32997 22304 10405 21033 48380 82030 333 10410 56090
59021 82360=
41749 32996 01805 10455 20248 49943 333 10460 59019=
41756 32697 22303 10315 20260 39926 49989 82200 333 10335
56900 59025 82834=
41768 32996 02311 10380 20240 39960 49966 333 10400 59020=
41780 32697 22707 10325 20248 39968 49995 82500 333 10343
56900 59020 82630=
40180 32960 03007 10275 20200 30040 40086 57009=
41114 32560 10906 10316 20033 37955 48464 81200 333 59005
81825=
98427 32475 43404 10268 20247 40079 53002 82260
333 10315 56999 59001 82818 88357=
40718 11560 52402 10228 20183 30161 40130 50002 69941 72581
82370 91150 333 82925 85359=
40739 32665 20507 10272 20080 38604 40015 58007 82900 91150
333 82935=
70273 32766 60000 10078 20056 30235 40286 50000 91153 333 10122
20072 70003 555 90112=
70326 32766 81803 10072 20039 30257 40276 58000 91152 333 10144
20072 555 90112=
72223 32966 00403 10206 20183 30129 40208 53015 91156 333 10306
20183 555 90112=
72235 32864 81403 10217 20200 30085 40203 53014 91154 333 10322
20189 555 90112=
72240 31948 00803 10228 20217 30167 40188 53010 710// 91153 333
10328 20217 555 90112=
72251 32962 01502 10228 20228 30133 40150 53007 91151 333 10328
20228 555 90112=
72253 32466 61403 10228 20217 39881 40156 53015 91153 333 10333
20228 555 90112=
72261 35466 81206 10244 20206 39774 40127 53011 91153 333 10361
20244 91016 555 90112=
72389 32966 00000 10144 20067 39985 40102 50000 91156 333 10300
20144 555 90112=
72414 32966 60000 10211 20183 39866 40214 53019 91154 333 10283
20194 555 90112=
72428 31924 40000 10220 20200 39909 710// 91201 333 10306 555
90112=
72438 31956 21704 10211 20194 39916 40202 51014 710// 91155 333
10289 20189 555 90112=
51243 32880 71805 10290 20027 39495 49999 57007 85902 333
00003=
51288 32680 73605 10133 20046 38280 52008 86962 333 00158=
51431 32780 71403 10247 20084 39282 40027 57009 82402 333
05404=
51463 32780 73405 10227 20071 38998 40025 52002 86902 333
00154=
51542 11680 70906 10088 20027 37528 57001 69931 70080 81432
333 00053=
51644 32980 70000 10260 20116 38810 49981 57006 83032 333
05151=
51495 32680 72205 10310 21001 40061 52002 81102 333 05104=
51656 32772 70403 10267 20069 38979 49988 57003 879// 333
00051=
51716 32968 20000 10301 20079 38760 49944 57009 82062 333//
05301=
51828 31959 61402 10287 20027 38507 49947 57005 70600 81032
333// 05402=
51931 32968 73202 10272 20122 49967 52003 81032 333// 05403=
51855 32968 70000 10293 20053 49943 57002 80002 333 05201=
51777 32970 10904 10318 20041 39002 49959 57002 80002 333
05101=
52203 32780 70000 10275 20112 39177 49990 57002 83102 333
00051=
51053 11680 71602 10245 20079 40031 57006 69901 70080 82962
333 00252=
51087 32680 70000 10258 20020 39131 40026 57004 81162 333
00153=
51156 11770 72705 10209 20018 38623 40027 57007 69901 70080
83962 333 05103=
71043 31693 83003 10109 20033 30151 40243 53014 71622 86571
333 10184 20102 55118 01010 22303 70000=
71078 31874 42704 10079 21018 39781 40218 56004 71411 84070
333 10125 20055 55147 70000=
71600 46008 91403 10113 20109 30146 40152 56020 333 10125
20090=
71624 32974 73504 10152 20072 39990 40198 53027 83071 333
10242 20128 55030 70012=
71863 17448 80605 10060 20053 39528 40223 51012 60141 74344
333 10145 20059 70160=
71913 37564 33305 11032 21077 30199 40236 53004 745// 333
10007 21035 70035=
82571 333 11030 21057 42006 55112 01010 22549 79999 90939=
71940 32982 10202 10044 21057 39433 40231 56001 80001 333
10202 20022 70000=
71957 36008 81004 11026 21027 30184 40272 51001 333 10083
21026 70000=
72206 32966 00000 10183 20178 30196 40208 53009 91156 333
10272 20150=
72208 32961 03202 10183 20183 30204 40219 51017 91156 333
10278 20150=
72211 31948 00702 10228 20206 30188 40203 53012 710// 91153
333 10333 20211 96004=
72231 32866 21002 10233 20200 30182 40195 53012 91153 333
10328 20211=
72248 31948 01102 10220 20210 30088 710// 91203 333 10328=
72250 32966 01304 10250 20233 30138 40145 53006 91156 333
10339 20250=
72259 32866 41704 10244 20217 39964 40162 53016 91153 333
10344 20239=
72265 32966 01607 10228 20172 39146 40103 53009 91153 333
10333 20228=
72270 32966 41405 10217 20150 38796 40073 53008 91151 333
10344 20217 91018=
72274 32966 01103 10233 20083 39202 40076 53008 91155 333
10383 20233=
72290 32462 84952 10172 20133 30104 40115 55002 91151 333
10200 20167=
72304 35961 02902 10178 20156 30209 40212 51015 91151 333
10189 20106=
72326 31948 00000 10189 20172 39876 40226 53027 710// 91153
333 10278 20172=
72353 32961 41606 10222 20200 39692 40145 53013 91153 333
10356 20217=
72363 32966 01906 10206 20156 38907 40103 53007 91153 333
10339 20206=
72365 32966 21004 10183 20067 38367 40075 53023 91156 333
10356 20183=
72386 32966 00304 10250 21011 39327 40067 53018 91156 333
10383 20250=
72405 32964 62003 10189 20150 30165 40190 53010 91151 333
10228=
72440 32962 01504 10206 20183 39731 40175 53016 91154 333
10311 20194=
72451 32966 01808 10217 20150 39218 40098 53013 91156 333
10344 20206=
72532 31958 01804 10206 20183 39928 40170 52006 710// 91154
333 10283 20194 70023=
72537 31420 80000 10194 20178 39954 40194 51014 710// 91154
333 10283 20189 70089=
72597 32966 00000 10067 20050 39684 40160 56010 91156=
72654 31458 83305 10120 20120 39678 761// 91205 333 10211
96010=
71082 36664 80000 11049 21084 30173 40214 58001 333 11045
21089 70000=
71120 32974 30000 10021 21016 39598 40254 55001 81071 333
10166 20008 55150 70000=
71627 36340 32503 10165 20158 30110 40153 53025 333 10209
20145 70000=
71816 32574 72408 10109 20065 39934 49993 58005 86570 333
10186 20080 55032 70015=
71821 36964 03206 10079 20020 39862 40203 51029 333 10217
20064 70010=
71836 36664 82905 10061 20036 30194 40205 53029 333 10183
20024 70020=
71915 32474 83510 11018 21055 30016 40098 58001 81571 333
10020 21023 42007 55108 22562 70000=
11021 21112 42029 55126 00394 23033 70000=
71934 32974 50000 10003 21036 30025 40283 53005 81031 333
10186 21025 55119 22243 79999=
71938 32574 20000 11118 21137 30255 40285 50000 81510 333
11045 21121 42006 55127 79999=
71945 32983 71702 10078 20050 39777 40242 51003 81071 333
10193 20066 55120 70000=
72226 32966 01002 10194 20167 30145 40217 53023 91153 333
10311 20156=
72308 32961 02504 10183 20167 30192 40198 51005 91151 333
10189 20133=
72334 32962 01803 10228 20172 30101 40201 53019 91153 333
10322 20211=
72374 35966 02103 10117 21028 38500 40097 51014 91156 333
10350 20106=
72476 32966 00802 10139 21056 38549 40112 53015 91156 333
10356 20128=
72486 35966 01304 10028 21078 38119 40162 53009 91153 333
10233 20017=
72488 32966 02702 10067 21089 38669 40154 56003 91156 333
10222 20067=
72520 32961 40000 10217 20189 39757 40199 53024 8/008 91151
333 10278 20194=
72547 31658 41206 10189 20178 39769 40153 58002 710// 91155
333 10233 20183 70183=
72562 12466 63204 10139 20128 39181 40148 53029 69901 91156
333 10211 20133=
72645 31464 80000 10140 20130 39920 761// 91212 333 10206=
72662 12966 03506 10061 20017 39095 40217 51017 69901 91155
333 10283 70043=
72681 32966 01502 10033 20011 39212 40219 56003 91156 333
10178 20033=
72764 12666 82503 10089 20083 39584 40187 55000 60031 91152
333 10161 20083 70048=
72773 32466 80000 10044 20039 39138 40277 51001 91156 333
10111 20033 70081=
72793 32366 80205 10090 20080 30052 91212 333 10139=
43233 21497 72303 10260 20210 39220 40012 71765 85931 333
10318 57914 59012 6990/=
70026 11564 81205 10000 20000 30167 40172 58031 69981 761//
91153 333 10006 21006 70008=
70231 32766 40000 10072 20056 30143 40270 51005 91153 333
10167 20072=
70261 32866 40503 10061 20050 30101 40273 52005 91153 333
10161 20061 70010=
70308 17440 81511 10050 20039 30087 40099 58015 69931 710//
91153 333 10067 20050 70003=
70316 32466 81313 10067 20044 30172 40209 58015 91153 333
10106 20056 91034=
70350 32966 02903 10022 20006 30260 40299 58003 91153 333
10139 20022=
70361 32966 40000 10011 20011 30256 40272 55003 91153 333
10128 20011=
71051 46/// /1901 11078 21079 30186 40298 55001 333 11065
21084=
71081 36964 03508 11112 21129 30137 40148 56003 333 11013
21126 70000=
71090 36964 03306 11069 21070 30119 40154 56008 333 11043
21090 70005=
71145 32974 61701 10045 20044 39958 40252 56006 80005 333
10103 21010 79999=
71603 31169 62505 10113 20110 30101 40153 58004 70142 85501
333 10152 20102 55116 70000=
71709 13580 42307 10127 20099 30081 40094 58005 60032 82501
333 10141 20094 55093 70028 909//=
71825 11232 82905 10008 20002 39379 40037 53014 60081 76882
887// 333 10109 20008 70198 90952 93103=
72394 35964 00000 10072 20061 30024 40112 53003 91151 333
10222 20072=
84710=
58016 83818 84070=
78526 31559 81204 10260 20230 30163 761// 91145 333 10317=
70133 11566 81705 10022 20017 30210 40217 51005 60021 761//
91153 333 10050 20022 70015=
70398 32966 04952 10089 20083 30195 40238 51003 91153 333
10211 20089=
72203 32566 40804 10261 20200 30192 40198 51018 91153 333
10294 20244=
72278 32966 20000 10267 20089 39687 40063 51013 91156 333 10394
20261 555 90112=
72327 32961 00000 10211 20167 30007 40217 53020 91153 333 10294
20178 555 90112=
72344 31959 00000 10217 20194 30010 40173 53016 710// 91153 333
10328 20200 555 90112=
72445 32962 01605 10206 20183 39853 40172 51018 91154 333 10317
20194 555 90112=
72465 32266 20105 10150 20139 38880 40115 53041 91156 333 10350
20150 555 90112=
72503 31858 42402 10183 20122 30161 40173 51007 705// 91151 333
10200 20144 555 90112=
72518 32566 81803 10172 20122 30059 40166 53016 91151 333 10233
20161 555 90112=
72528 32662 83303 10183 20128 39932 40192 51028 8/57/ 91154 333
10250 20183 555 90112=
72572 32966 01604 10089 21006 38755 40190 53011 91156 333 10206
20067 555 90112=
72576 35966 00804 10033 21011 38355 40202 53016 91156 333 10272
20028 555 90112=
72578 32966 01202 10006 21033 38691 40226 53004 91156 333 10172
20006 555 90112=
72583 35966 00506 10067 21033 38708 40175 55000 91156 333 10200
20061 555 90112=
72606 32866 80302 10172 20128 30126 40143 51011 91151 333 10172
20139 555 90112=
72693 32466 83606 10089 20072 30049 40185 57016 91156 333 10178
20067 555 90112=
71472 36/// /3604 10079 30232 40250 56002 333 10092 20079 70000=
22583 nil=
22768 nil=
22887 nil=
23205 nil=
23219 nil=
23418 nil=
23711 nil=
23804 nil=
10007 21035 70035=
10328 20211=
10193 20066 55120 70000=
10161 20061 70010=
64870 32465 72206 10270 20206 38905 48496 85202
333 0//00 58008 85623 87080=
64910 11460 70000 10232 20223 30098 40108 60162 79596 87900
333 0//33 58011 87616 81920 94979 95839=
71900 46/// /2814 39938  51016=
71800 46/// /2215 30134  56020=
71403 36/// /2209 10085 20079 30129 40141 56016 333 10090 20080
70000=
71433 17/// ///// 10072 20072 39989 40220 50002 69921 7//4/ 333
10093 20037 70002=
89014 46/// ///// 11205 21263 39312 4//// 57013
333 11182 21207=
22954 nil=
23405 nil=
23412 nil=
23803 nil=
27066 nil=
27113 nil=
22854 nil=
27051 nil=
23226 nil=
23606 nil=
22282 nil=
22695 nil=
22867 nil=
22939 nil=
22996 nil=
27008 nil=
37228 41597 81903 10192 20153 39335 40121 57002 71792 889//=
91434 32474 31001 10278 20239 30107 40110 51017 83200=
91610 31599 11006 10273 20253 40097 51003 70200 81100=
57914 59012 6990/=
85365=
87078=
96935 32560 51204 10278 20222 30072 40079 52009 81531
333 10312 56000 58010 81620=
91503 31480 40000 10250 20243 40100 51013 70510 81266
333 10298 55/// 56900 58015 81816 84280=
91507 31460 20704 10245 20230 40110 52019 70510 82900
333 10315 56900 5//// 81814 81915=
91520 31480 60000 10240 20237 40093 51009 70522 83937
333 10316 56999 58013 82815 81916 84360 86280=
91527 31470 50000 10240 20233 4//// 5//// 71522 81836
333 10322 56999 5//// 81814 85280=
91577 06/// /1506 10196 20191 40122 50002 60061
333 10211 55000 20357 58000 60027=
91582 06/// /0504 10204 20192 40121 56008 60101
333 10211 55000 20311 58009 60077=
91592 01456 80000 10188 20186 40127 51008 60111 76066 888//
333 10209 55000 20421 56699 58002 60057 85816 86633=

5
6
2
/
/
=
91650 11599 41203 10271 2025/ 40110 51003 69911 70208 82800
333 10306 562// 84820=
91659 11598 41304 10247 2022/ 40126 54000 69901 72510 84800
333 10291 569// 83825=
91680 31698 23403 10205 20184 40131 58005 70200 82800
333 10293 569// 82830=
91683 31598 20000 10205 20197 40138 58003 70200 82800
333 10295 569// 81820=
91691 36/// /0403 10226 20226 40143=
91699 36/// /0711 10243 20201 40153=
91754 36/// /0706 10261 2//// 40117 52001
333 10291 55052 2//// 58013=
91811 11498 70907 10235 2025/ 40095 69951 72511 878// 333 10309
562//=
91843 31497 51702 10241 20095 40135 54003 71520 858// 333 10239 564//

8
4
8
1
8

8
5640=
43237 32597 62703 10338 20177 39591 4//// 83908 333 10347
56609 57982 59031 82620 81925 85272=
43344 32597 62704 10344 20215 39913 40015 84938 333 10352
57941 59021 81620 82930 86270=
82640=
44214 12698 72504 10200 20040 38187 49968 56004 69902 84210
333 10210=
44265 32699 72705 10220 20105 38742 40010 53007 82442 333
20277=
44218 32698 70000 10222 20075 38476 49956 53002 85270 333
10263=
94151 35/// /2215 10223 30130 40150 52011=
94290 35/// /1316 10196 30155 40162 52008=
28240 42999 13205 10201 20034 39865 40168 54000 80001=
28419 42998 20000 10260 20088 30044 40162 57004 80002=
31285 /26// 81809 10112 20097 40102 53004 60020 885//   333 10163=
31561 32999 12002 10155 20082 40073 55002 81030   333 10208=
43181 32597 63202 10376 20219 39949 49975 83802 333 10387 59012=
61024 32960 61209 10414 20069 39533 40071 81082
333 0//00 58002 81364 86280=
61421 32958 00404 10225 20058 39844 40087
333 0//00 59009=
61442 32958 00703 10399 20056 30092 40096
333 0//00 59014=
62002 32962 63603 10255 20104 39495 48584 54000 80001 333 86070=
62010 32960 33505 10295 20149 40191 56005 83040 333 83360=
62019 32560 43603 10235 201804 0172 54000 81504 333 81625 84070=
62306 32960 03206 10253 20166 40129 58008=
62318 32960 03306 10258 20174 40118 57008=
62366 32960 00206 10328 20132 40094 58021=
62414 32960 01103 10396 20104 40050 58019=
62420 32960 00105 10338 20081 40100 57020=
62641 31960 00507 10325 20120 30012 40059 70700 333 58004=
62660 32970 73201 10420 20050 39/// 40/// 80007 333
56009 58/// 87275=
62680 31965 03103 10440 20070 39649 40016 70600 333 59012=
62721 32770 73602 10410 20100 39671 40031 81347 333
56579 57981 58013 81950 82856 83365 87275=
62772 32970 72604 10384 20166 39630 40041 80007 333
56009 58009 87275=
62781 32970 71802 10390 20130 39438 40037 80007 333
56009 58003 87275=
62805 32770 71802 10385 20165 39507 3 40007 9 81147 333
56299 59003 81856 82365 87275=
62840 32770 73002 10365 20175 39629 40054 82247 333
56319 59035 82856 82365 87275=
62880 32770 72002 10355 20220 39572 40057 84207 333
56309 59013 84850 87275=
63674 32680 20905 10315 20158 39025 48494 82232
333 59012 82832
555 10210=
64600 31475 71005 10242 20194 39464 40112 71792 879//
333 0//00 58029 85616 81933 94946 95836=
64601 32580 71609 10255 20206 38996 48510 82202
333 0//00 58011 82825 87080 94909 95839=
64650 11475 72802 10293 20224 39676 40080 69961 70396 8137/
333 0//15 58009 81816 87365 81940 94964 95834=
64656 32580 5//// 10332 20222 39526 40068 85200
333 0//00 58001 85830 94939 95879=
64659 32580 50801 10310 20226 39358 40058 85200
333 0//00 59001 85830 94939 95879=
65306 32960 72202 10278 20215 39769 40097 86032
333 58003 86363 83076=
65578 11460 72602 10284 20260 30107 40116 60051 72196 85802
333 58003 83813 84620 86076=
65592 11460 7//// 10279 20236 30111 40124 60011 70396 87200
333 59002 87813=
60185 32970 00204 10336 20074 40151 53002=
61052 32965 52405 10356 20169 39851 40092 80002
333 0//00 58017 85080=
61075 32965 72603 10345 20181 39792 40093 80008 91148
333 58017 87280=
61090 31958 70804 10387 20194 39582 40068 70522 80008 91145
333 58005 87280=
62007 32960 32302 10248 20213 40191 52004 80002 333 83070=
62016 32562 53506 10242 20212 40172 56005 81930 333 81925 84360=
62600 32970 03402 10380 20120 39864 40064 333 58002=
62640 31965 03104 10430 20090 39657 40030 70600 333 59002=
62650 32970 03404 10400 20110 39807 40061 333 58007=
62751 32770 72001 10396 20210 39603 40037 83147 333
56969 58003 83856 82365 87275=
62752 32770 51802 10380 20180 39392 40032 83204 333
56706 58070 83850 82075=
62762 32770 71802 10380 20208 39570 40023 82107 333
56609 58003 82856 87275=
62770 31968 72301 10380 20100 39202 40046 70622 80007 333
56009 58002 87275=
62771 32970 72204 10370 20170 39413 40024 80007 333
56009 58002 87275=
62795 32770 73502 10400 20160 39532 40032 85207 333
56909 57891 59014 85856 87275=
62810 32970 72301 10335 20195 39527 40073 87070 333
56090 59018 87365=
96001 01450 82304 10254 20231 39927 40071 51004 60091 76166 8652/
333 10306 56609 60087 59006 86617=
63602 32580 50904 10290 20183 38604 48/// 84202
333 59008 84825
555 10205=
63702 32575 71406 10280 20148 81108
333 81820 87280
555 10195=
64700 32665 32204 10392 20189 39735 40060 82202 91155
333 0//00 58003 82840 83075 94925=
64706 32665 53007 10353 20207 4//// 82022 940//
333 0//00 59003 82840 85075 94912=
64750 32765 70000 10375 20187 39673 40070 81132 91155
333 0//00 59002 81840 85365 94907=
64754 32662 62803 10392 20203 4//// 86200 940//
333 5//// 86840 94919=
64758 32665 43405 10394 20188 4//// 83232 940//
333 0//00 5//// 83840 81365 82075 94919=
65319 32960 7//// 10257 20203 39590 40099 8703/
333 59001 87361=
65330 32570 72002 10302 20221 39657 40091 81132
333 59012 81823 85361 94919 95839=
65335 11960 7//// 10260 20214 39875 40100 60051 70196 80006
333 59002 87276=
65344 11458 72802 10230 20212 30090 40100 60141 79596 8297/
333 59005 82613 81926 87361 94946 95876=
65528 32560 6//// 10280 20206 39648 40116 82230
333 59001 82620 86360=
65555 32560 82004 10274 20232 39696 40133 882//
333 58009 88820=
65557 32460 70000 10273 20237 39882 40120 87200
333 59007 87813=
65562 32460 7//// 10290 20251 87200
333 87613=
65599 11460 7//// 10267 20243 30043 40117 60021 70396 86970
333 59001 86913 85360 95332=