ZCZC 000
SMCI10 BENJ 031800
AAXX 03181
52740 16/// /2204 10050 29056 36882 60000
555 1/132 2//00 /////=
57265 11760 82502 10193 20188 30004 40111 57007 69901 72160
885// 333 10221=
57279 32962 73402 10192 20174 40105 57007 8707/ 333 10223=
57399 32762 83603 10212 20190 40073 57005 8552/ 333 10306=
57447 11660 80202 10211 20206 39551 40069 57011 60241 79598
889// 333 10252=
57494 32463 82902 10223 20201 30044 40072 57007 8577/ 333
10330=
57655 11970 80404 10235 20200 40069 52002 69901 70060 8807/
333 10347=
57662 11761 83402 10212 20201 30048 40088 57006 60031 76060
885// 333 10351=
57745 32967 00000 10252 20232 39747 40052 57003 333 10329=
57766 32975 00000 10267 20226 40058 57001 333// 10340=
57793 32975 02201 10257 20237 40048 57007 333// 10344=
58606 11470 80403 10264 20232 39997 40049 57003 69901 76000
887// 333// 10343=
58813 32980 02002 10260 20219 40051 57006 333// 10351=
59102 32961 00000 10232 20220 40076 57005 333 10345=
57957 32966 00000 10256 20240 39882 40070 57006 333 10329=
59082 32962 02201 10269 20234 39995 40068 57007 333 10343=
59117 32975 00000 10281 20241 39976 40076 57004 333 10368=
59211 32970 00000 10262 20246 39871 40069 57003 333 10340=
59265 31958 02501 10264 20241 39944 40075 57007 71000 333
10355=
59287 32562 20000 10279 20254 30034 40083 57010 82100 333
10344=
59316 32970 02702 10276 20239 30067 40076 57015 333 10328=
59431 32974 00000 10253 20240 39940 40083 57006 333 10324=
59644 32970 01603 10273 20256 30067 40082 57008 333 10322=
59758 32470 10000 10269 20253 30063 40083 57007 81100 333//
10338=
59023 32965 00902 10265 20239 39827 40064 57004 333 10329=
59293 32565 42202 10273 20247 30031 40077 57003 82102 333
10354=
59417 32975 02202 10251 20229 39938 40085 57007 333 10341=
59501 32570 12502 10278 20244 30075 40091 57013 81100 333
10325=
59663 32465 13202 10274 20257 30055 40082 57010 81100 333
10325=
59838 32580 12901 10284 20249 30070 40084 57010 81100 333//
10331=
59948 32568 10000 10277 20256 30077 40085 57005 81100 333//
10323=
59981 32580 30902 10279 20255 30072 40078 57015 81202 333//
10316=
59985 11575 71103 10279 20263 30073 40078 57007 69901 72998
85902 333// 10335=
58027 11962 00000 10194 20180 30041 40090 57012 69901 70060
333 10236=
58040 32960 23401 10178 20170 30084 40088 57007 80002 333
10195=
58633 11580 82502 10264 20240 39937 40030 57002 69951 72998
889// 333 10342=
58659 31958 03601 10260 20249 30002 40035 57006 71000 333
10324=
58847 32675 10000 10272 20239 39958 40053 57009 81500 333
10387=
58144 11963 80203 10184 20181 30055 40077 57002 69941 76060
8802/ 333 10213=
59046 32970 02003 10290 20237 40072 57004 333 10345=
59072 32975 02701 10256 20234 40068 57013 333 10367=
59087 32560 20000 10256 20240 40078 57008 81102 333 10334=
59096 32970 02201 10243 20218 40076 57008 333 10352=
59254 32970 02203 10287 20235 40075 57006 333 10343=
59278 32970 02002 10272 20243 40076 57008 333 10346=
59456 32570 71801 10266 20246 40089 57007 874// 333 10351=
59493 32575 10000 10281 20244 40080 57008 81400 333 10340=
59632 32570 60000 10267 20256 40080 57010 86100 333 10330=
59647 32565 10402 10276 20255 40081 57009 81100 333 10316=
59658 32467 11802 10278 20257 40084 57009 81100 333 10322=
59673 32580 11601 10264 20251 40082 57011 81100 333 10325=
59845 31570 21102 10256 20236 40082 57004 71300 81902 333//
10338=
59855 32570 20000 10271 20258 40081 57007 82100 333// 10321=
58150 11556 60404 10184 20173 30067 40075 57002 69901 71060
86500 333 10198=
58251 11558 80403 10186 20181 30053 40059 52004 60031 76066
885// 333 10233=
58345 11950 83201 10210 20204 40048 57008 60171 72598 8807/
333 10286=
58543 11670 82702 10248 20238 40041 57011 60111 72998 885//
333 10336=
58556 32960 70203 10258 20232 40032 57003 8707/ 333 10340=
58569 31568 73403 10244 20231 40027 57003 71300 8193/ 333
10309=
58646 32962 00000 10263 20239 40035 57010 333 10371=
58660 32670 80000 10270 20240 40028 57007 885// 333 10378=
58834 32968 01401 10258 20230 40058 57007 333 10363=
58926 32965 00701 10240 20215 40076 52001 333 01378=
58944 32465 62205 10267 20249 40067 57009 86500 333 10323=
53513 32770 71102 10141 20127 38958 40123 57002 875// 333//
05151 10163=
54218 32980 02201 10175 20092 39445 40083 57002 333// 10306=
54511 32960 20000 10204 20150 30053 40090 57008 80002 333
10300=
59209 11964 02502 10223 20202 40083 57010 69901 70080 333
10285=
51468 16/// /0500 11003 29089 36588 60001
555 1/124 2//00 /////=
50468 32975 62505 10226 20032 39810 49999 57013 80002 333
10323=
50745 32965 12004 10229 20082 39860 40027 57017 80002 333
10335=
50774 32960 53602 10106 20092 39777 40062 57004 80002 333
10280=
50953 32975 02503 10228 20064 39901 40068 57002 333 10318=
54337 32960 00000 10187 20127 30010 40091 57003 333 10306=
54342 32960 00702 10174 20145 30027 40086 57001 333 10303=
54471 32962 02002 10202 20183 30079 40084 52001 333 10294=
54497 32960 00401 10174 20130 30069 40083 57003 333 10309=
54662 32962 53203 10196 20141 39974 40089 57002 80002 333
10289=
57259 32975 80702 10193 20167 40105 57009 8807/ 333 10231=
57378 32960 83405 10199 20178 40096 57005 8807/ 333 10232=
57461 11466 82001 10207 20196 39937 40093 57002 69981 72166
8672/ 333 10261=
57476 11962 83604 10211 20184 40088 57007
69911 70098 8807/ 333 10283=
57584 11460 80204 10220 20214 40078 57002 69961 79560 889//
333 10332=
57598 11660 80201 10254 20234 40055 57005 69911 78098 885//
333// 10364=
57776 32980 62211 10204 20198 40068 57008 85042 333 10251
91121 91520=
57799 32970 20000 10281 20235 39971 40050 57004 82040 333//
10352=
57845 32962 00000 10246 20224 40068 52002 333 10289=
57853 32980 00000 10246 20229 40060 57005 333// 10330=
57866 32975 01802 10269 20224 39864 40058 57009 333// 10345=
57972 32962 00000 10268 20230 39852 40061 57010 333 10349=
58102 31950 03602 10197 20192 30038 40087 57008 71000 333
10230=
58221 11661 80204 10194 20188 30045 40079 57007 60021 70060
885// 333 10226=
58321 11358 83403 10203 20197 40069 57002 60011 76060 887//
333 10265=
58424 11770 20404 10224 20206 30035 40057 57008 60191 70098
82500 333 10340=
58437 11/00 92907 10150 20150 38127 57015 60331 74598 333
10183 91118 91529=
58506 11/00 92001 10184 20184 40058 57011 60071 79594 333//
10272=
58527 11561 80000 10258 20248 39974 40045 57010 60111 71398
8797/ 333// 10333=
58715 32980 01604 10280 20220 40045 57013 333// 10349=
58265 11465 80706 10195 20190 30032 40043 52002 60131 76098
8672/ 333 10223=
58472 11462 81602 10215 20213 39935 40028 57005 60131 79598
889// 333 10280=
58477 11461 81802 10233 20223 39981 40023 57001 60071 79500
889// 333 10309=
58666 32965 32015 10230 20227 39930 40027 57018 80002 333
10261 91120 91522=
58725 32965 02901 10234 20228 39813 40058 57011 333 10355=
58760 32966 02206 10239 20233 40035 57005 333 10284=
58921 32976 02202 10249 20215 39837 40068 57004 333 10362=
52787 32970 02902 10047 20025 37059 57008 333 00151 10138=
56065 32980 00000 10073 20035 36667 52003 333 00103 10193=
57006 11765 70901 10178 20154 40073 57011 60021 70098 875//
333 00251 10276=
52889 32970 73602 10217 20081 38452 40034 52001 8703/ 333
00201 10320=
52418 32965 00406 10244 20039 38753 49952 57003 333 05507
10346=
57127 32965 20403 10230 20190 39496 40066 57012 82030 333
10286=
56046 32980 00000 10048 20012 36312 52004 333 00100 10165=
52836 32980 01101 10119 21056 36897 57009 333 05301 10228=
56080 32780 70000 10127 20060 37173 57003 875// 333 00103
10224=
52533 32980 01403 10172 20077 38481 40053 52005 333 05206
10253=
53915 32770 80902 10154 20137 38624 40087 57011 885// 333
00151 10214=
56096 32780 50401 10259 20163 38874 40019 57001 83502 333
00205 10340=
52652 32980 01602 10163 20077 38480 40061 52003 333 05106
10271=
56146 32880 20000 10083 20074 36778 57002 82400 333 00151
10212=
56172 32780 70000 10117 20091 37373 52001 875// 333 00200
10257=
56247 11880 80000 10147 20136 37442 57001 60051 78080 889//
333 00455 10295=
56294 32965 60000 10273 20210 39487 40044 52003 86040 333
00304 10335=
56444 32680 70000 10125 20065 36835 52003 871// 333 00104
10214=
56462 32580 83201 10120 20103 37170 57003 884// 333 00352
10248=
56492 11740 80000 10244 20227 39661 40041 57003 60011 72198
885// 333 00352 10334=
56571 11665 82001 10182 20170 38393 52010 60251 79598 889//
333 00658 10325=
56651 11680 70000 10174 20144 37631 52002 69901 71780 879//
333 00100 10255=
56691 32465 51802 10184 20145 30772 57001 85500 333 00201
10257=
56739 11473 80000 10192 20183 38332 54000 60081 70098 889//
333 00151 10275=
56951 11470 70000 10205 20176 38480 52001 69901 78000 879//
333 00102 10261=
56964 31568 70000 10206 20194 38676 40067 57001 71300 879//
333 00100 10266=
56985 11570 81802 10206 20194 38683 40082 57001 60021 78080
884// 333 00151 10269=
57328 31930 00402 10214 20211 39660 40052 57003 71000 333
10251=
57411 31956 00000 10229 20222 39698 40049 57004 71000 333
10269=
57516 32861 83402 10254 20231 39746 40038 57002 885// 333
00451 10318=
57633 11765 80000 10248 20226 39306 40033 57007 69901 71380
885// 333 00101 10313=
57816 32570 52004 10223 20192 38750 40055 57002 85800 333
00100 10284=
57902 32680 21404 10214 20176 38599 40059 52002 82500 333
00101 10274=
50632 32970 00000 10088 20045 39209 40039 57020 333// 10297=
53463 32970 70000 10157 20095 38940 40115 57011 8701/ 333//
00053 10241=
53772 11960 83401 10163 20130 39236 40117 57015 69941 70060
8802/ 333// 10190=
54823 31957 70000 10208 20162 39901 40096 57005 71000 80002
333 10261=
57083 31858 70000 10200 20176 39977 40107 57012 71000 875//
333// 10231=
58203 11556 83403 10201 20190 30037 40081 57010 69911 71060
885// 333 10225=
58338 11458 83203 10212 20207 40050 57007 60061 76098 887//
333 10316=
58457 11356 83202 10244 20237 39986 40034 57013 60221 78098
884// 333 10356=
58562 11560 83202 10243 20231 40028 52005 60031 79180 889//
333 10345=
58238 11350 80202 10202 20196 30040 40049 57010 60021 76086
8572/ 333 10255=
57687 32765 82904 10243 20222 39988 40064 57005 885// 333
10351=
56079 32980 00000 10070 20050 36726 57006 333 00151 10178=
56144 32780 50000 10112 20064 36898 54000 84502 333 00003
10194=
56152 32980 10000 10052 20039 36365 57001 80002 333 00151
10158=
56167 11780 60000 10108 20098 37129 57008 60021 70080 86400
333 00353 10253=
56173 32980 00000 10054 20046 36692 57006 333 00153 10164=
56182 32980 00000 10099 20081 37229 57004 333 00252 10218=
56193 32975 00000 10195 20178 40062 57005 333 00451 10342=
56196 32968 70000 10266 20213 40044 52004 8704/ 333 00402
10354=
56257 32680 80000 10078 20057 36334 57004 889// 333 00253
10184=
56287 11465 82702 10224 20209 40058 52004 60041 76060 885//
333 00300 10337=
56357 32680 72902 10096 20065 36501 57001 874// 333 00200
10208=
56374 11480 80000 10131 20123 37449 57004 69911 78000 884//
333// 00351 10205=
56385 11/01 91402 10109 20109 37053 57004 69961 76064 333
00300 10166=
56586 31665 60000 10195 20166 38035 52001 71300 86900 333
00352 10298=
56666 32780 11103 10273 20172 40005 52006 81400 333 00100
10363=
56671 32780 70000 10206 20165 38196 52002 874// 333 00200
10286=
56684 32580 12002 10186 20139 37892 52007 81100 333 00351
10267=
56748 32580 30000 10213 20174 38325 57002 83400 333 00101
10289=
56751 32680 10000 10187 20158 38006 52001 81100 333 00101
10271=
56763 32680 31802 10257 20184 40036 52009 83400 333 00202
10326=
56768 32680 71601 10198 20171 38217 52003 879// 333 00100
10261=
56786 32580 62002 10200 20163 38106 52006 86400 333 00101
10270=
56838 11668 30701 10226 20213 40064 54000 60031 70098 83400
333 00151 10318=
56886 32775 72003 10203 20165 38258 52003 874// 333 00102
10269=
56946 32570 80701 10214 20207 40062 52002 884// 333 00101
10301=
56954 31557 11401 10212 20202 40072 52002 71300 81900 333
00101 10273=
56959 11770 80902 10242 20235 40054 52004 69921 71798 889//
333 00101 10325=
56966 32775 71105 10277 20212 40054 52006 874// 333 00101
10344=
56969 11660 80000 10240 20236 40070 52006 60051 70098 884//
333 00101 10313=
56977 31575 60000 10212 20200 40075 57002 71300 86900 333
00101 10277=
56986 11360 81404 10192 20178 40090 57003 69981 78080 884//
333 00100 10215=
57237 32968 00000 10214 20178 40060 57008 333 10276=
57306 32965 00000 10240 20228 40050 57002 333 10296=
57348 11768 70202 10205 20197 40067 57010 69921 70098 875//
333 10258=
57426 31759 80000 10211 20206 40058 57004 71000 884// 333
00655 10262=
57504 32963 70203 10271 20229 40032 57002 8704/ 333 00300
10347=
57602 31950 62201 10270 20239 40034 54000 71000 86040 333
10337=
57707 11458 80000 10212 20199 38458 57005 69941 71060 886//
333 00352 10312=
57713 32670 71802 10267 20196 40027 52004 87500 333 00100
10332=
57731 32775 80000 10273 20221 40037 52005 885// 333 10348=
57832 32975 00000 10227 20217 40051 52004 333 10326=
57916 32971 00000 10247 20224 40061 57001 333 10335=
57922 32670 71803 10232 20198 40069 54000 875// 333 10284=
57932 32675 70000 10248 20234 40064 52001 87500 333 10342=
59007 32970 01801 10220 20171 40068 57007 333 10277=
50548 32980 00000 10105 20072 40029 57015 333// 10330=
50834 11980 02704 10164 20075 40037 57009 69901 70080 333//
10337=
53480 32980 70000 10148 20052 40107 57005 80002 333// 10229=
53673 11960 83201 10150 20129 40128 57009 69931 70060 8802/
333// 10194=
53787 32770 60000 10147 20115 40115 57011 86500 333// 10174=
53898 11961 83201 10202 20148 40108 57014 69901 70060 8807/
333// 10236=
54602 32760 80000 10216 20178 40098 57010 82507 333// 10267=
54725 32662 70901 10180 20162 40099 54000 875// 333// 10263=
54751 31958 73202 10153 20141 40093 57003 71000 80002 333//
10252=
54916 32662 83201 10208 20194 40095 57008 885// 333// 10273=
58208 11362 83602 10199 20194 40076 57011 69951 70060 8177/
333// 10241=
50527 32970 01602 10172 20065 39338 40016 57007 333// 10317=
50727 32580 11603 10147 20035 38932 40051 57005 81502 333//
10300=
53564 11968 80901 10148 20122 39151 40123 57007 69941 76060
8802/ 333// 05152 10184=
53959 32960 80000 10173 20168 39673 40109 57018 8807/ 333//
10185=
54102 32980 02002 10175 20080 38999 40081 57004 333// 10286=
54843 32962 02901 10150 20145 30063 40089 57003 333// 10260=
54909 32964 80201 10191 20181 30035 40095 57008 8807/ 333//
10252=
58362 11558 80000 10220 20219 30026 40036 57010 60291 76098
8772/ 333 10255=
58730 32970 10201 10243 20222 40054 57007 80002 333 10348=
58731 32975 00000 10244 20229 40047 57009 333 10340=
58754 32960 00000 10253 20234 40048 57005 333 10348=
58911 32970 00000 10223 20213 40074 57004 333 10336=
58931 32980 02508 10178 20156 38350 57009 333 10264=
50136 32970 80000 10112 20093 39495 49983 57005 83037 333
10322=
50353 32970 60000 10210 20072 39775 49976 57012 80002 333
10328=
50557 32970 21803 10159 20032 39755 40031 57015 80002 333
10326=
50756 32970 02202 10187 20082 39777 40050 57011 333 10321=
50788 32970 51402 10150 20105 39992 40072 57005 80002 333
10246=
50963 32980 00000 10129 20104 39946 40074 52003 333 10315=
50978 32977 10000 10130 20095 39811 40088 57002 80002 333
10254=
54236 32980 00000 10148 20107 39990 40088 57004 333 10307=
10270=
57206 32980 00000 10244 20218 40039 57007 333 10347=
45007 32580 21201 10284 20229 30071 40080 56010 82100
333  59020 82820 =
53646 32970 80903 10150 20128 38930 40115 57007 8802/ 333
05100 10156=
52323 32980 21403 10157 21030 38202 52001 80002 333 05103
10276=
52681 32980 01802 10165 20087 38605 40077 57009 333 00101
10243=
53614 32870 33403 10153 20140 38866 40094 57008 81532 333
05102 10200=
53723 11770 73201 10149 20134 38613 40071 57003 69901 70098
83402 333 05102 10227=
52955 32980 00000 10061 21019 36992 57001 333 00001 10233=
56033 32980 00202 10040 21040 36080 57003 333 00000 10150=
52754 32980 00203 10056 21016 36826 52005 333 00101 10196=
52866 32980 00000 10122 20081 37705 52008 333 00100 10282=
56029 32980 00000 10084 20051 36523 52004 333 05200 10213=
52436 32980 01405 10201 20032 38406 40000 57001 333 05308
10285=
52996 32980 72202 10132 20083 37576 57008 81042 333 00202
10215=
53705 32965 00902 10153 20133 40083 52001 333 00100 10270=
56021 32980 10703 10067 21020 36124 57002 80002 333 05102
10167=
53923 11570 81803 10132 20129 40107 57009 69901 75000 886//
333 10184=
54308 32980 00000 10150 20096 40109 52006 333// 10293=
54527 32960 20000 10199 20166 40099 57002 80002 333 10270=
53798 11760 70000 10208 20153 30010 40100 57013 69901 70060
875// 333// 10240=
54423 32970 00000 10176 20133 39660 40098 57002 333// 10304=
54618 32961 80901 10198 20145 30087 40104 54000 8807/ 333//
10271=
53588 32970 80904 10080 20016 37804 57009 8802/ 333 10101=
54401 32965 23402 10197 20089 39298 40103 57008 80002 333//
10289=
10261=
53352 32980 31404 10124 20057 40116 57003 80002 333// 10220=
53593 32970 60000 10178 20074 40105 57004 80002 333// 10262=
53863 32961 83602 10153 20138 40124 57011 8807/ 333// 10175=
53975 31950 70000 10165 20143 40113 57013 71000 8703/ 333//
10177=
54436 32970 40000 10180 20158 40100 57006 80002 333// 10298=
54808 11959 83202 10194 20183 40099 57007 69901 72160 8807/
333// 10241=
54826 31970 50906 10125 20096 38443 57009 70040 80002 333//
10156=
54836 32960 02502 10178 20153 40092 57015 333// 10258=
54863 32970 72702 10171 20140 40091 57006 80002 333// 10261=
57071 11965 80000 10186 20173 40106 57013 69901 70060 8802/
333// 10202=
57554 11558 80706 10207 20207 40084 52020 60311 79580 889//
333 10310=
57993 32976 00000 10279 20225 39921 40061 57008 333// 10357=
58314 11660 80201 10201 20192 39988 40072 57012 69921 76060
885// 333 10305=
59134 32980 02202 10261 20247 39924 40080 57011 333 10335=
50246 32968 82201 10125 20075 49983 57009 8802/ 333 10341=
50658 32980 00000 10165 20065 40035 57014 333 10326=
50844 32962 02006 10233 20077 40038 57012 333 10344=
50854 32970 02004 10211 20083 40051 57011 333 10330=
50888 32980 51802 10155 20087 40081 57003 85030 333 10243=
50968 32970 01803 10137 20126 40077 54000 333 10297=
50983 32970 20000 10118 20099 40089 57003 82032 333 10234=
54096 32970 03402 10094 20084 40097 54000 333 10241=
54259 32970 00000 10120 20097 40107 52001 333 10294=
54324 32965 00000 10200 20136 40087 57005 333 10310=
54346 32965 00902 10141 20107 40098 57002 333 10300=
54493 32974 00000 10140 20096 40093 57001 333 10293=
47401 41/70 70704 10081 20072 30079 40092 55004 70282 876//=
47412 41/15 73203 10116 20114 30032 40063 56008 75155 876//=
47420 41/05 90802 10085 20082 30025 40072 56015 78064=
47426 41/60 81005 10106 20100 30013 40057 56015 78182 887//=
47582 42/65 82204 10147 20109 30038 40063 56012 8357/=
47590 42960 01501 10147 20120 39985 40036 56015=
47600 41/60 71701 10144 20123 30067 40084 55002 702// 876//=
47648 41/58 83505 10170 20160 39991 40023 56014 72186 8687/=
47662 41/60 73505 10199 20149 39988 40029 56016 70282 8527/=
47678 41465 83005 10191 20184 39929 40022 55002 72162 8772/=
47740 41/50 73602 10123 20110 30059 40097 55004 71022 87200=
47778 41/60 72805 10196 20164 39966 40053 58007 70262 8253/=
47807 41/65 80102 10192 20170 30048 40065 58019 70262 8227/=
47827 41/58 80102 10199 20180 30012 40048 58024 7816/ 882//=
47843 41460 80303 10189 20170 30018 40049 56020 76166 8272/=
47898 41/60 83604 10182 20165 30029 40067 56010 7258/ 8227/=
47909 42/80 22001 10254 20221 30052 40060 56017 82100=
47918 42/80 42007 10279 20249 30065 40073 56019 84200=
47936 42/70 62105 10261 20241 30016 40076 56008 86200=
47945 42/70 12003 10250 20245 30062 40085 56016 81100=
47971 42/70 62102 10257 20239 30080 40089 56018 86200=
47991 42/75 21603 10261 20230 30120 40130 55004 82201=
53845 11963 82501 10165 20138 39040 40113 57008 69971 70060
8807/ 333 00002 10180=
57036 11965 80401 10177 20166 39650 40112 57020 69901 70060
8802/ 333 10190=
57245 32775 70402 10216 20193 39751 40084 57010 875// 333
00401 10271=
52713 32980 73202 10165 21085 36903 57005 80002 333 05406
10228=
57046 31964 02503 10096 20092 37931 57015 72840 333 00251
10127=
57016 32962 80902 10172 20159 40103 57005 8807/ 333 10205=
47575 42/60 72002 10128 20102 30055 40059 58008 875//=
47585 41/20 80402 10119 20114 39994 40049 56013 75184 886//=
47598 41/12 80202 10154 20144 30027 40033 56010 71082 886//=
47602 42/70 70402 10140 20119 30053 40073 56008 875//=
47618 41/60 10301 10109 20090 39371 40078 53001 70281 81600=
47624 42980 13304 10163 20112 39912 40044 55010 80001=
47636 42960 73303 10184 20158 39989 40054 55000 80001=
47655 41/56 22803 10180 20158 39978 40032 56011 71011 82600=
47750 42/62 72602 10168 20139 30060 40086 58001 872//=
47755 41962 80801 10180 20163 30062 40086 56004 702// 8807/=
47772 42/60 63403 10193 20128 39977 40073 53001 81108=
47800 42460 73503 10182 20151 30057 40079 58013 872//=
47815 41/57 80501 10181 20170 30058 40073 56015 71022 8267/=
47817 41/65 80501 10190 20173 30007 40048 58023 76162 8807/=
47830 41/50 83501 10185 20177 30053 40070 58010 78082 882//=
47837 41/65 80804 10209 20190 30026 40047 58025 78082 882//=
47891 41/59 81101 10197 20167 30066 40078 55001 71022 8527/=
47899 41965 83204 10190 20141 39849 40064 58007 70262 8807/=
47927 42/80 62005 10268 20246 30028 40074 56017 86200=
50603 32980 10000 10183 20062 39404 40019 57007 80002 333//
10335=
54026 32980 22503 10240 20071 39752 40049 57009 80002 333//
10339=
54027 32980 03201 10179 20050 39524 40068 57003 333// 10334=
22282 00220 2//// 3//// 4//// 80170=
54094 32660 50702 10159 20119 39800 40078 52003 8550XP333
10291=
50949 32965 02204 10216 20097 39916 40073 57005 333// 10311=
54161 32970 02203 10187 20084 39812 40084 57002 333// 10305=
54292 32970 00000 10129 20086 39886 40093 52004 333// 10300=
54374 32962 03602 10104 20073 39730 40116 52003 333// 10283=
50442 32970 60000 10109 20072 40017 57007 80002 333 10336=
54273 32970 00000 10138 20114 40092 57004 333// 10292=
44210 32999 40000 10111 21019 38490 54000 84040=
44216 32999 40000 10188 21009 38913 40061 51008 84080=
44217 32698 80000 10050 20032 37918 40228 51006 8857/=
44219 32998 00000 10178 21024 38575 40082 54000=
44221 32999 00000 10090 20017 38550 40130 58001=
44254 329// 22302 10182 21009 38954 40033 54001 80001=
44257 329// 13203 10142 21025 38906 40081 52004 80001=
44263 32998 40000 10126 20000 38036 40104 54000 80008=
44266 329// 50000 10120 20058 37782 40092 54000 83040=
44291 32998 00000 10131 21019 38690 40143 51007=
44317 32998 02705 10196 20059 38889 40064 58001=
44338 32899 20000 10164 20067 38450 40085 52003 82040=
44348 429// 00000 10163 20121 38673 40097 54001=
44374 32999 01806 10156 20070 38249 40072 51006=
44385 32999 32307 10168 20090 38865 40086 58005 84040=
53068 32980 02503 10168 20066 39037 40096 52003 333// 00054
10292=
53231 32780 71402 10132 20109 38463 57003 875// 333// 05100
10162=
53276 32980 02502 10139 20074 38848 40109 52002 333// 10267=
54135 32980 02003 10196 20089 39879 40084 57002 333// 10323=
54753 32965 00902 10188 20145 30084 40090 57004 333// 10272=
54857 32960 00202 10169 20152 30004 40093 77003 333// 10218=
57067 32965 80000 10167 20160 39465 40119 57010 8807/ 333//
10185=
57178 11962 80000 10191 20173 39947 40100 57013 69901 70060
8807/ 333// 10206=
57297 11940 83604 10187 20177 39955 40090 57012 60021 71080
8807/ 333// 10228=
56004 11980 41605 10059 20034 35864 57006 69991 70080 80002
333 05304 10160 91118 91522=
52602 32980 80000 10182 21051 37252 52002 8802/ 333 05410
10252=
51886 32975 70704 10168 20012 37099 52002 80002 333 05505
10248=
52737 32980 20401 10153 21021 37076 57005 80002 333 05203
10229=
53764 32965 80000 10153 20122 40113 57016 8802/ 333// 10174=
56778 32570 72501 10198 20168 38107 52006 87400 333// 00201
10240=
53698 32961 82701 10223 20161 40101 57010 8807/ 333// 10261=
54405 32968 20000 10199 20106 40101 57005 80002 333// 10300=
54539 32965 02501 10192 20169 30085 40099 57006 333// 10272=
50564 32970 00000 10130 20069 40022 57013 333 10320=
54115 32980 02502 10162 20079 40076 57009 333// 10307=
54157 32962 00000 10160 20116 40090 57002 333// 10303=
54186 32970 00000 10125 20086 40090 57002 333// 10274=
54377 32965 00901 10133 20103 40107 52002 333// 10307=
54386 32970 00704 10080 20052 40115 52005 333// 10258=
83813 22213 00190 2//// 3//// 4////=
81100 22243 02200 20402 325// 40805 5//// 80160=
53083 32980 02702 10165 20046 40082 57006 333// 05302 10283=
53487 32762 70000 10161 20094 40103 57006 85502 333// 10252=
54226 32980 00000 10170 20102 40088 57006 333// 10305=
54311 32980 00000 10149 20081 40101 54000 333// 10281=
54534 32960 02701 10197 20155 40096 57008 333// 10301=
54715 32970 53602 10208 20179 40098 57006 80002 333 10261=
54929 11940 00000 10190 20184 40096 57009 69901 71060 333//
10240=
54945 32962 00402 10164 20159 40098 57003 333// 10192=
57193 11960 03402 10185 20172 40096 57011 69001 70060 333//
10214=
57290 32960 63402 10183 20165 40091 57009 86040 333// 10213=
56018 32680 20000 10094 20044 36222 57002 82500 333 05204
10184=
52908 11677 51403 10036 20015 35806 57011 69911 70080 83902
333 05304 10132=
52818 32775 80902 10194 21046 37197 52003 885// 333 05604
10266=
56066 36/// ///// 10059 21003 36651 4//// 57002
555 10050 2//// 3//// 40111 51001 60/// 7//// 80000
9//// ///// 1/019 2//00 30000=
44224 32998 40000 10060 21024 38048 40152 52006 80004=
44229 41999 60000 10064 20062 37946 40178 54000 70262 84044=
44286 329// 32003 10200 20035 38601 40058 52014 83040=
44329 329// 00000 10134 20077 37758 40069 51006=
44386 329// 20000 10150 20109 39001 40108 52001 82040=
50434 32980 10000 10071 20045 39211 40034 57010 80002 333//
10293=
50915 32980 02203 10200 20020 39142 40056 57002 333// 10330=
53149 32980 32701 10144 20069 38767 40103 52001 80002 333//
00154 10248=
53192 32980 00000 10151 20039 38869 40098 57003 333// 10279=
53336 32670 71801 10134 20098 38693 40110 57005 875// 333//
00052 10184=
53391 32980 02502 10133 20068 38509 40108 57001 333// 05251
10230=
53529 32970 80000 10134 20129 38590 40109 57010 8802/ 333//
05101 10138=
53543 11978 81403 10104 20097 38523 40136 57009 69941 76060
8802/ 333 10127=
54012 32980 00000 10135 20086 38991 40086 57002 333// 10291=
54208 32980 00000 10112 20075 38746 40111 57001 333// 10246=
54776 32962 42703 10183 20126 30032 40088 57002 82042 333//
10200=
52634 36/// /0000 10066 21014 36776 4//// 54000
555 10050 2//// 30123 41111 51011 60/// 7//// 80000
9//// ///// 1/112 2//00 30000=
57528 16/// /2000 10171 29756 37563 61430
555 1/144 2//07 30229 12100
11101 10101 00010 10110 1011/
/////
2//// 3//// 6//// ///// ///// 8//// 9//// ///// ///// //004
11101 11111 1011/
11111 110//=
45011 42475 11802 10267 20246 40087 57010 81200 333 59022=
10184=
47105 32960 22002 10144 20100 30062 40093 57005 80002=
47108 32962 20501 10212 20163 39983 40083 57003 80001=
47115 31958 02001 10154 20091 39831 40090 57012 71011 333
92031=
47135 31658 51102 10160 20138 39806 40091 57010 71022 86500=
47138 32962 73402 10164 20138 30093 40096 57012 87500 333
92022=
47159 31656 80504 10172 20153 30001 40081 57015 71022 8252/
333 92022=
47165 31540 81801 10198 20181 30026 40069 57015 71022 8352/
333 92022=
47184 41558 80904 10177 20162 30040 40066 57011 71022 8452/=
47008 42575 10000 10149 20103 30042 40092 52008 81500=
47014 42950 00000 10131 20122 39712 40094 52002=
47016 42970 03601 10094 20056 39296 40128 52005=
47020 42565 00000 10137 20087 39961 40123 52001=
47035 42970 00506 10183 20122 30077 40085 52001=
47041 42970 00505 10156 20142 30070 40096 58011=
47055 42965 00000 10148 20129 30058 40102 58012=
47058 42966 20902 10204 20128 30042 40087 54000 80007=
47069 41556 11403 10212 20160 39998 40092 52015 71000 81500=
23914 12699 62901 10122 20074 40128 51007 60030 81405 333
10239=
23921 /1599 83202 10145 20127 40083 53009 60080 70298 889//
333 10269=
23955 41784 73202 10142 20034 40062 57007 76162 86530 333
86656=
24641 42999 03502 10099 20034 40122 52011=
28440 31596 72703 10172 20142 40110 52006 79598 87900 333
10288=
28748 12968 33602 10205 20127 40125 53008 69900 83040 333
10292=
29231 41496 82002 10097 20095 40052 57001 78182 883//=
29838 41597 80000 10115 20067 40118 57013 72598 883//=
30372 42784 70000 10080 20067 40092 52002 86930=
30673 42699 83203 10183 20103 40016 53025 82851=
30823 42984 63405 10226 20071 40035 52023 80002=
30935 42999 22902 10138 20073 40052 52008 80001=
30965 41684 80606 10217 20082 40014 57002 71322 8437/=
31004 41599 83002 10111 20093 40028 58003 70282 82937=
31088 42498 80000 10046 20039 40130 54000 886// 333 88710=
31300 41584 80000 10170 20132 49962 57015 72582 8497/=
31329 41597 80000 10084 20080 40044 57008 78082 889//=
31369 42698 60604 10076 20058 40074 58007 82402=
31416 42599 81801 10116 20098 40044 57008 82531=
31510 429// 80000 10229 20113 49999 57015 8801/=
31707 42998 80000 10124 20094 40069 57006 80001=
31735 42997 71801 10117 20096 40071 56005 84031=
31873 42998 23002 10093 20082 49984 55000 81041=
31909 41598 80000 10083 20078 40103 58007 70252 8652/=
31960 42998 01705 10110 20074 40092 58007=
32053 41196 60901 10017 20012 40098 58005 71011 86600 333
86703=
32061 41298 21101 10039 20039 40094 57010 70241 81600=
32098 42998 40201 10040 20033 40115 53001 84030=
32150 42996 80102 10061 20042 40106 54000 8805/=
32165 41396 80201 10056 20054 40083 57017 75153 886//=
59058 32970 00000 10244 20232 40075 57008 333// 10333=
47003 42980 00000 10130 20115 30089 40093 58001=
47005 42980 00000 10096 20030 38597 52003=
47037 42970 03602 10188 20103 39997 40088 53002=
47039 42960 00000 10155 20146 39928 40111 52004=
47046 41940 00000 10134 20128 30070 40093 57012 71010=
47052 42965 00000 10142 20114 39783 40109 57002=
47060 42960 00000 10182 20150 30037 40092 54000=
47065 42965 00000 10193 20151 30028 40089 52001=
47067 42965 30000 10175 20126 39975 40089 52005 83030=
47068 42970 80000 10170 20140 30052 40085 54000 80002=
47070 42970 20000 10201 20164 30008 40090 54000 82030=
47075 42940 00000 10147 20120 39694 40105 52003=
98223 31565 10000 10260 20254 40070 57021 70544 81100 333
56999 81820=
98325 11458 21401 10250 20248 40075 58006 69901 70544 81201
333 56999 81817=
98328 31460 53602 10174 20168 38510 40069 58005 74044 84201
333 56999 84812=
98440 11468 62702 10269 20259 40074 57016 69901 71792 83230
333 56299 81816 86358=
98444 11465 60701 10270 20260 40082 57011 60021 78082 84260
333 56999 84818 84359=
98543 31460 50000 10281 20260 40081 58017 71322 82901 333
56999 82915 84075=
98550 31460 43601 10264 20251 40080 58010 70544 81241 222//
20101 333 56999 81818 83075=
98618 31468 42701 10255 20242 40074 58006 71344 82901 333
56999 81918 82820 83075=
98637 11465 40000 10265 20226 40075 58004 69921 71382 82270
333 56999 82812 83358=
98836 11460 80000 10260 20247 40076 58017 69901 78084 8227/
333 56999 82818 88462=
44212 32999 80000 10143 21014 39052 40110 51005 88071=
44214 32698 63203 10107 21017 38271 40128 54000 83540=
44218 329// 83203 10184 20024 38544 40045 52006 8702/=
44232 329// 20000 10179 20092 39036 40088 54000 82040=
44239 326// 23203 10150 20065 38734 40060 51008 82100 333
91114=
44272 32998 30000 10092 20086 38204 40102 54000 83040=
44277 329// 30000 10075 20041 37824 40139 58002 83050=
44282 31999 10000 10125 20068 38287 40126 51003 70230 80004=
44284 329// 00000 10103 20017 37866 40118 54000=
44285 32699 30000 10136 20086 38316 40105 51009 83300=
44287 325// 30000 10151 20055 38114 40070 52007 83500=
44288 32699 53205 10167 20088 38170 40078 53015 87500=
44292 32999 00901 10163 20000 38655 40087 51006=
44294 329// 31403 10162 20056 38525 40069 54000 83040=
44298 328// 61602 10168 21007 38683 40078 54005 86060=
44304 329// 32304 10156 20025 38929 40071 54000 81042=
44305 32999 02306 10182 20062 39003 40092 54000=
44341 32999 40000 10154 20034 38566 40092 54000 82042=
44347 32999 00000 10164 20081 38668 40087 52006=
44352 32999 02705 10178 20080 38884 40084 54000=
44354 329// 50000 10184 20098 39057 40078 51003 85040=
44358 32998 02702 10156 20113 39031 40106 51004=
44373 32999 21606 10176 20080 38499 40070 58005 82040=
28661 11660 81102 10152 20145 40120 52010 60200 70298 83331
333 10262=
28679 326// 20402 10111 20019 40130 52012 81501 333 10231=
28879 119// 51203 10123 20068 40130 52026 60050 70198 85030
333 10214=
28952 12598 22703 10208 20125 40124 57001 60040 82900 333
10265=
29023 41496 83202 10108 20106 40035 57014 71082 889//=
29122 41496 82503 10100 20092 40046 57016 76186 8802/ 333
88518=
29807 12997 02702 10080 20058 40065 53010 60030 333 10188=
30230 42698 80000 10120 20109 40085 52003 83031=
30309 41296 82806 10142 20112 40079 52011 70282 889// 333
84705 84918=
30385 42584 70000 10130 20107 40026 52005 87900=
30650 42984 20000 10076 20025 40081 52013 82040=
30710 41760 82403 10171 20158 40087 53017 78098 8397/=
30844 49999 00000 10092 20059 40079 52006 70400=
31532 42584 80000 10099 20078 40055 57009 87907=
31829 41/93 92404 10066 20062 40091 57016 74544=
35078 11770 62606 10153 20129 40119 52008 69930 72598 83902
333 10243=
35108 32997 81501 10236 40164 57004 86044 333 10310=
35188 114// 82804 10147 20123 40108 54000 69950 71382 889//
333 10218=
35229 32997 00000 10207 20140 40175 53003 333 10302=
35394 11997 61805 10146 20056 40124 57023 69900 70282 86030
333 10183=
35416 32997 50000 10203 20139 80001 333 10310=
35671 32998 00000 10151 21027 40201 57006 333 10252=
35796 32984 02606 10168 20086 40208 58001 333 10187=
36003 11660 22805 10127 20114 40049 57031 60010 70181 82500
333 10175=
36177 126// 71905 10166 20029 40123 57018 69900 85530 333
10197=
36428 127// 70000 10106 20097 40178 52006 60020 84501 333
10176 95090=
36859 32599 52801 10124 20058 40239 52020 82941 333 10200=
36870 12667 11301 10107 20058 40241 52007 60030 81900 333
10191=
38198 329// 00903 10198 20012 333 10264=
38341 32997 02701 10123 20030 40230 52004 333 10216=
58968 31650 83001 10281 20245 30058 40065 55005 71022 885//=
59358 31558 21602 10273 20256 30066 40077 57018 71010 82100=
59559 32575 23401 10262 20237 30048 40076 57022 82100=
59792 32560 20901 10274 20261 30066 40070 57022 82200=
59997 32562 40401 10267 20251 30055 40069 58013 82200=
59158 32562 61802 10277 20244 39979 40076 57012 86400=
59562 32665 62601 10269 20227 30058 40069 57024 86500=
98755 32575 20000 10257 20248 40075 58013 81201 333 56999
81820=
22550 11597 81705 10139 20078 40051 57022 69900 72582 8637/
333 10189 86731=
22583 12684 70702 10151 20055 40101 56004 69990 87500 333
10192=
22768 11497 81903 10122 20106 40090 56004 69900 78082 8697/
333 10210 86912=
22845 11498 72105 10139 20121 40064 57009 69990 70282 84931
333 10164=
26063 12997 02704 10119 20050 40108 52013 69992 333 10173
91112=
26298 12597 32302 10151 20122 40117 53002 69942 82901 333
10185 91112=
26477 11570 72702 10172 20148 40131 54000 60112 70198 85301
333 10203 85928 91112=
26702 32997 63001 10142 20034 40195 58003 80001 333 10178=
26850 32670 23201 10228 20121 40154 57003 81101 333 10254=
26997 32970 20000 10184 20111 40186 54000 80001 333 10224=
27595 32597 53403 10165 20138 40167 53009 85900 333 10228
85927=
27612 32697 61601 10199 20086 40158 57008 86500 333 10229=
27947 32997 00000 10164 20132 40185 53001 80002 333 10211=
27962 11697 23403 10182 20155 40160 55002 69940 70198 82230
333 10235=
33008 32670 52201 10252 20122 40179 57002 83130 333 10280=
34009 32968 23601 10171 20076 40179 53001 80001 333 10211=
34172 11760 83005 10223 20143 40155 52008 69900 71798 8537/
333 10288=
34247 32974 50502 10208 20141 40162 53004 80001 333 20284=
34391 32997 73601 10255 20125 40156 57001 87070 333 10340=
37054 32698 62403 10220 20168 40079 57001 86500 333 10284=
44231 326// 40000 10112 20084 38692 40126 51009 82203=
44259 32998 33203 10211 21057 39214 40038 57003 83040=
44213 32999 41804 10121 20051 38738 40111 52014 83040=
44215 32698 72703 10134 20006 38391 40108 52011 87500=
44225 32998 00902 10074 20053 38273 40170 51007=
44237 32999 20000 10133 20082 38467 40109 52002 82043=
44265 329// 80000 10183 20074 38794 40056 53013 8802/=
44275 3289/ 20000 10091 20091 37735 40091 57005 82040=
44302 329// 02704 10189 20040 39022 40043 54001=
44336 32999 00000 10172 20032 38644 40073 54000=
23074 42998 10904 10071 20032 40125 57012 81030=
23711 12598 22702 10088 20071 40133 52003 60030 82400 333
10238=
23804 12999 21901 10134 20089 40120 57002 69900 81031 333
10195=
24143 42999 43603 10073 20032 40156 52006 80001=
24343 42999 60107 10089 20004 40138 52010 82042 333 91011
91112=
24738 42699 60202 10132 20090 40120 52011 83930=
24951 41999 70000 10111 20099 40060 52005 70262 83032=
24959 42599 80000 10088 20064 40059 52009 83531=
24966 41699 80101 10109 20103 40048 51001 78082 85931=
29313 42998 80101 10101 20080 40074 52003 86075=
29612 41598 80504 10098 20082 40046 57006 70282 883// 333
88923=
29698 42597 52104 10130 20084 40129 52024 82902=
30758 41984 20000 10139 20078 40033 52004 70291 80001=
30949 42999 20000 10117 20041 40056 52005 80001=
35406 32997 20000 10239 20053 40196 52015 80001 333 10334=
38062 32997 00000 10204 20013 333 10260=
38232 32998 00903 10246 21036 40175 53005 333 10327=
38388 32998 00501 10240 21057 40180 53001 333 10316=
38413 32998 00804 10217 21033 40203 53005 333 10272=
38457 32998 00901 10165 20050 40187 52002 333 10262=
38507 32996 01103 10239 20110 40126 53001 333 10356=
38545 32998 00302 10190 20080 40180 53004 333 10285=
38656 32998 00902 10268 20017 40161 53004 333 10336=
38880 329// 01503 10262 21022 40153 53003 333 10329=
38895 32997 03602 10229 20036 40166 53002 333 10319=
38927 32997 02001 10217 20089 40118 53005 333 10335=
38974 329// 00503 10232 21014 40137 53009 333 10340=
70200 22282 02011 20301 335// 40804 80056=
48820 32998 01602 10270 20253 30080 40088 58003 333 58010=
48826 32597 22502 10259 20254 39954 40083 58003 82100 333
58013 82895=
48839 32498 23403 10275 20249 30018 40082 58006 82100 333
58009 82894=
48845 32798 70902 10267 20253 30076 40083 57001 875// 333
58018 87697=
48848 32498 81103 10274 20255 30069 40077 58008 888// 333
58013 85895 88697=
48855 32598 71601 10272 20256 30071 40079 50001 878// 333
58010 86895 84697=
48870 32498 20000 10280 20259 30075 40082 56002 82100 333
58006 82894=
48877 32798 60000 10268 20244 30075 40080 58001 865// 333
58000 86697=
48887 32798 62903 10260 20241 30078 40084 58004 865// 333
59001 86697=
48900 32497 52202 10264 20252 30075 40085 57003 85800 333
58002 83894 83696=
48914 11498 80000 10242 20232 30086 40088 57015 60071 70286
888// 333 58004 82894 88696=
48917 11596 80000 10235 20226 30074 40079 58012 60161 87088
8492/ 222// 00276 333 58003 84895 81995 88499=
48918 11498 73402 10259 20245 30077 40088 58008 69911 72162
878// 222// 00276 2//// 333 58001 84894 87696=
48920 32598 60202 10276 20253 30049 40049 58002 82208 333
58001 82895 86299=
48803 11497 80000 10261 20258 39972 40083 54000 60051 72586
884// 333 58002 83894 88696=
48806 32498 60000 10235 20214 39331 40087 58002 868// 333
58006 82894 85696=
48808 31996 00000 10237 20234 39814 40092 50001 71011 333
58006=
48823 32997 00000 10263 20257 30075 40078 58004 333 58011=
48830 32998 00000 10221 20217 39793 40096 58006 333 59007=
48840 32798 60000 10267 20256 30083 40089 58001 865// 333
58015 86697=
48852 31598 10000 10256 20234 30059 40069 58001 71300 81900
333 58008 81995=
48810 31995 00000 10239 20236 39892 40094 58002 71000 333
58009=
48831 32998 00000 10257 20251 30046 40083 58001 333 58009
48802 11/91 90000 10182 20182 38411 57007 60071 74564 333
58008 96021=
48838 32998 00000 10260 20253 30079 40085 58004 333 58001=
48846 32798 60000 10265 20254 30074 40077 58004 865// 333
58005 86697=
48863 32998 00000 10260 20247 30072 40081 58001 333 58006=
48866 31598 10000 10203 20202 39234 40115 58003 71300 81900
333 58006 81995=
48875 32498 61402 10223 20212 39558 40092 50003 868// 333
58009 82894 84696=
48907 11598 82506 10248 20224 30082 40084 58008 60051 56062
888// 333 58005 83895 88696=
80403 32480 70208 10320 20245 30123 40142 82206 333 30///
56909 59019 82816 85075 1014=
80407 32470 21101 10339 20226 30029 40104 82100 333 30///
56900 59014 82816 1010=
80410 32470 80907 10296 20199 39434 40107 85218 333 30///
56909 59016 85816 1014=
80413 32470 81804 10298 20210 39622 40107 8252/ 333 30///
5699/ 59008 85616 83456 1013=
80415 32570 40902 10306 10248 30079 40133 84500 333 30///
56900 59002 84620 1013=
80419 32370 63604 10284 20195 30095 40108 8227/ 333 30///
5699/ 59003 83220 83358 1010=
80421 32464 70809 10303 20236 30121 40145 8287/ 333 30///
5629/ 59006 82816 854581014=
80428 32570 61103 10308 20216 39926 40109 83151 333 30///
56999 59010 83620 1014=
80435 11470 70604 10272 20209 30059 40135 60011 71769 872//
333 31/// 562// 58001 87813 81913 1014=
80438 32575 82306 10248 20143 38515 48512 82107 333 30///
56909 59012 82827 88280 1019=
80444 11360 70202 10264 20246 30056 40109 60051 72028 879//
333 32/// 569// 59006 81910 86810 1010=
80447 32565 61808 10314 20176 39669 40088 8252/ 333 30///
5699/ 59012 82623 84460 1014=
80457 32370 81401 10320 20134 30083 40119 8492/ 333 30///
5699/ 59016 83610 85460 81910 1011=
80001
22245 0//// 20200 305// 40401 8////=
22212 00245 2//// 3//// 4//// 5////=
82100 22254 00163 20303 328// 41005 80123=
96995 46/// /0805 10247 20236 39790 40084=
96996 45/// /1206 10267 20238 30082 40086 57005=
48405 32561 30000 10257 20240 39902 40064 82505
333 58017 70050=
48601 32562 70000 10260 20246 30063 40067 81532 333 81625 83364
87077=
48615 32566 80000 10266 20246 30074 40080 83527 333 83620 83469
88270=
48647 31563 70000 10258 20232 30046 40071 70522 81542 333 81630
87078=
48657 31060 73301 10254 20253 30062 40080 70522 82538 333 81700
83622 86276=
48665 31464 70702 10255 20245 30066 40076 71322 81942 333 81916
86078=
96413 32565 70000 10240 20231 30062 40088 83531 333 83622 85365=
96421 32465 71301 10241 20237 30051 40087 83531 333 83617 86365=
96441 11256 83004 10245 20237 30086 40091 60251 76562 8552/ 333
81705 84616 88464=
96449 11460 70000 10248 20243 30060 40080 60081 72162 8457/ 333
84614 87365=
96471 11468 81905 10259 20238 30076 40079 60011 71362 84947 333
82814 81917 83635 88276=
96491 32465 70000 10255 20247 30065 40078 82802 333 81816 87078=
58013 82895=
58009 82894=
58010 86895 84697=
58006 82894=
59001 86697=
58002 83894 83696=
51156 11770 72703 10086 20053 38729 40173 52013 69901 72100
875// 333 00451 10175=
51232 11780 82504 10157 20092 40227 52008 69901 76060 885//
333 01055 10222 91118 91532=
51711 32780 52502 10117 21032 38011 52013 82502 333 00253
10176=
10177=
10156=
51334 11780 70000 10146 20096 40215 57002 69991 72160 81532
333 00952 10240=
51818 11860 82005 10149 20089 40112 52014 69931 72163 8352/
333// 00656 10243=
52378 32780 30902 10167 20105 40086 52002 83900 333// 00051
10272=
53502 32670 70202 10149 20135 40101 57006 83502 333// 00151
10203=
51053 32680 72506 10153 20075 40170 52011 85462 333 00502
10212=
51542 11858 80909 11011 21015 37618 52010 60061 77176 8802/
333// 00554 10142=
10215=
51431 11780 70702 10105 20077 39475 40244 52011 69911 70080
83402 333 01053 10215=
52203 32980 20201 10233 20091 39190 49989 52009 80002 333
05152 10342=
51730 32975 82201 10173 20108 40067 52010 8802/ 333 00300
10243=
51243 11880 73602 10136 20092 39661 40186 52018 69941 78080
874// 333 00755 10239=
51288 32880 72901 10116 21050 38340 52012 86038 333 00201
10212=
55299 32880 10000 10054 20012 35890 57003 81400 333 05202
10155=
55591 32680 22503 10181 20027 36526 52018 81102 333 00105
10251=
51379 32780 72709 10165 20082 40154 52035 874// 333 00102
10260=
51495 32980 13420 10245 20054 40104 52016 80002 333 05104
10354 91127 91536=
51087 32680 72706 10170 21027 39210 40118 52003 86962 333
00102 10255=
52118 32980 10000 10132 20052 38250 52006 80002 333 00053
10226=
51076 32680 73205 10165 21001 39296 40130 52001 82902 333
00204 10217=
48354 31558 10000 10260 20246 39857 40060 71010 81501
333 58022 70017=
48379 01550 80000 10249 20243 39916 40048 60263 72166 84876
333 58017 60087 70274 =
48400 11560 50000 10260 20246 30010 40050 60053 70162 82546
333 58008 70201=
48475 32564 40000 10263 20228 30037 40048 81235
333 58002=
48477 01558 82203 10283 20251 30042 40056 69903 76082 83876
333 58009 69907 79999=
48532 11558 80000 10233 20227 30046 40056 60713 71062 85876
333 59008 70796=
48567 31557 60000 10241 20239 30047 40065 71022 81136
333 59016 70402=
48460 01560 82703 10280 20236 30028 40059 60113 70296 82576
333 58011 69907 70114=
48501 01430 80603 10230 20227 30068 40076 60923 76166 885//
333 58010 60247 71465=
48580 31558 80000 10244 20230 30058 40065 71022 83847
333 59009 70157=
63894 12580 51804 10247 20209 30100 40160 60212 8423/ 91750
333 0//29 10294 55300 58012 84820 85358=
58001 82895 86299=
58015 86697=
91650 11598 20000 10279 2024/ 40113 53003 69901 70228 82800
333 569// 81825=
91659 31698 20000 10240 2021/ 40126 53005 70300 82800
333 569// 81830=
91670 36/// /0404 10262 20248 40126=
91680 31698 60000 10240 20210 40130 53006 70300 868//
333 569// 83830 85650=
91683 31598 20000 10210 20207 40138 53009 70200 82800
333 569// 81824=
91699 36/// /0115 10250 20232 40134=
64504 32465 8//// 10256 20236 30088 40113 8557/
333 10/// 58001 85613 88460=
64507 32460 7//// 10255 20224 3//// 40/// 875//
333 10280 5//// 84613 86530
64545 NIL=
64501 32465 42104 10250 20228 30100 40110 84800
333  10280 59005 82811 83633 94939 95839 =
48802 11/91 90000 10182 20182 38411 57007 60071 74564 333
58008 96021=
58005 86697=
89816 46/// ///// 11248 38338 4//// 5////=
82863 32698 21402 10334 20209 39908 40177 82200 333 58010=
83064 32798 20904 10347 20160 39850 40118 81101 333 58007=
83228 32799 20910 10340 20177 39855 40/// 80001 333 58012=
83235 32698 41804 10324 20171 39456 40123 84200 333 58014=
83332 32697 60910 10298 20144 39219 40116 83220 333 58020=
83368 32699 30902 10340 20124 39770 40129 82204 333 58019=
83374 32998 30506 10333 20099 39560 40126 80001 333 58012=
83376 31997 61406 10307 20095 39294 40109 70542 80004 333 58018=
83423 31697 40504 10314 20136 39319 40135 7034/ 84100 333 58015=
83470 32797 80906 10302 20097 70540 83108 333=
83522 32698 40904 10275 20141 39303 83202 333 58016=
83526 32598 30503 10292 20138 39216 40150 83100 333 58018=
82400 21470 31609 10280 20222 40127 83100 333 58009 60021=
82899 21570 72114 10280 20222 40149 70361 85230 333 58017 69961=
82026 32570 40308 10300 20224 40108 84200 333 58004=
85041 31458 83603 10236 20212 39880 40198 57011 70422 8452/
333 56199 58008 84612 88457=
85043 32484 70000 10270 20221 39972 40131 57013 84530
333 56000 59003 84615 86358=
85104 32484 63606 10290 20221 39994 40152 57018 83530
333 56800 58010 83617 85358=
85114 32484 62706 10295 20202 39982 40149 57018 84504
333 56700 58002 84616 86070=
85123 32584 73308 10272 20190 39973 40138 57017 83550
333 56700 58003 83620 86357=
85154 32584 63405 10272 20211 39960 40140 57020 82130
333 56780 59010 82820 84358=
85140 32484 73205 10254 20215 39880 40151 57022 83550
333 56770 58000 83616 87357=
85141 11484 73206 10255 20220 39950 40188 57020 60011 70262 86530
333 56770 59012 82610 84615 86357=
85152 32584 73206 10266 20212 39902 40129 57013 84130
333 56770 59013 84820 87357=
85201 32984 02608 10116 21076 36302 57014
333 58020=
85230 32984 02207 10126 21050 36270 57020
333 58012=
85242 32984 00000 10106 21088 36556 57011
333 58044=
71945 32783 21805 10181 20090 39743 40204 57003 81501 333 10187 20065
70000=
83695 32697 40000 10258 20161 30090 40229 5//// 84300=
68174 31958 10910 10119 20060 38837 48564 52021 70500 81080
333 10207 20117 91011 555 91024=
68242 32580 20406 10118 21007 38777 48557 52014 82400
333 10207 20117 91007 555 91023=
68262 32970 41804 10138 20049 38767 48578 52021 80004
333 10216 20129 91012 555 91026=
68263 32658 42013 10109 20046 38544 48567 52021 84400
333 10196 20108 91014 555 91026=
68350 36/// /0604 10126 20081 38723 48570 52032
333 10224 20124 91009 555 91025=
68368 32670 72112 10080 20044 38363 48567 51023 81270
333 10177 555 91026=
68372 36/// /1206 10071 20048 38530 48592 52030
333 10177 20070 91010 555 91029=
68424 32982 01504 10123 21002 39272 48566 52011
333 10205 20122 91004 555 91024=
68438 31974 02106 10089 21053 38886 48576 52016 70500
333 10180 20088 91007 555 91025=
68442 32982 00708 10104 21031 38726 48574 52024
333 10183 555 91026=
68461 11360 81115 10072 20062 38392 48581 52013 69962 78026 8397/
333 10166 20071 69925 91018 555 20006 91028=
68512 32982 00508 10134 20043 39084 48565 52013
333 10175 20134 91010 555 91024=
68588 32570 52309 10192 20136 30249 40265 51023 85500
333 10233 555 91026=
68618 32980 10000 10088 20032 39132 48577 52012 80001
333 10187 20088 91000 555 91026=
68668 36/// /2504 10093 20064 3//// 48/// 52020
333 10160 20091 91004 555=
68714 31210 31806 10122 20119 30212 40250 52009 74044 83600
333 10190 20121 91008 555 91024=
68752 36/// /0206 10108 2//// 39591 48606 52023
333 10183 20106 91006 555 91028=
68816 11/03 91703 10128 20122 30202 40253 51008 69922 74540 89///
333 10188 555 91025=
68828 32970 00000 10117 20105 30031 40265 52015
333 10181 555 91026=
68842 32980 02804 10125 20116 30191 40266 51012
333 10193 555 91026=
68858 32980 02907 10135 20120 30132 40282 51021
333 10197 555 91028=
89050 41395 80426 10006 20000 49821 58033 77172 8802/
333   88506=
89512 32980 81242 11105 21251 49841 53009 81031 333 11097
91131=
89592 41908 81042 11095 21095 49873 52008 77573 8802/=
89606 41912 31312 11510 21516 36368 47616 52018 77671
80008=
85196 11580 73204 10238 20217 39571 40139 57017 69981 72522 85230
333 56770 58004 85820 87357=
85207 32480 73404 10252 20224 39672 40148 57018 86920
333 56890 58006 86817 82927 87457=
85247 32480 73608 10260 20203 39820 40145 57023 85530
333 56700 58004 85615 87357=
85289 11570 80000 10222 20203 39986 40142 57014 60031 76022 8653/
333 56119 59012 86627 88357=
85315 32984 02710 10234 20152 39220 40122 57030
333 58006=
85245 32470 53320 00032 10252 20198 39638 40120 57022 85200
333 56700 58002 85817=
85223 32984 00000 10210 20010 37502 47133 57036
333 58032=
85345 32584 30000 10238 20155 39653 40128 57024 83100
333 56000 58033 83825=
85364 32984 03608 10250 21048 38110 48444 57035
333 58022=
85365 32484 80000 10180 21031 39400 40141 57020 885//
333 56099 58018 88617=
83377 31697 51410 10263 20091 38890 40145 70544 84108 333 58015=
83442 32597 71404 10268 20161 39832 40177 81372 333 58041=
83538 32598 61404 10221 20120 38771 40201 86200 333 58015=
88963 11325 83602 11020 21029 39845 49874 56009 69921 77172 886// 333
56099 88707 90062 92407 92803 95080=
88968 32465 83224 11024 21039 30034 40049 57031 885// 333
56799 88615 92427 92851 94060 D/NW =
89034 32970 01822 11142 21234 39686 40020 57008 =
89053 11358 73240 10030 21014 39810 49824 53004 60051 72372 87700 333
56700 87708 90120 90922 91152 92446 92801 94070 95070 96010 =
89055 11105 80505 11052 21059 39624 49870 57033 60051 77374 886// 333
56999 88703 92703 92800 95142 96042=
65545 32960 30000 10286 20224 39877 40071 80002
333 10310 59008 83076=
65560 32460 2//// 10288 20246 39794 40104 82200
333 10305 59002 82815=
65563 32460 12204 10298 20231 39852 40091 81202
333 10301 59007 81813=
65585 32460 5//// 10271 20250 82930
333 10297 82913 85360 95378=
65594 32460 72020 10272 20242 86230
333 10292 86813 87360=
68994 31494 80000 10063 20056 30091 40118 52008 74024 886//
333 10096 20059 91004 555 91001=
93004 16/// /2317 10117 20083 49993 52004 60011=
93023 16/// /2604 10099 20084 49988 52012 69981=
93196 16/// /2921 10147 20113 49913 57021 60041=
93305 41/98 92425 10122 20077 49903 54000=
93334 16/// /0000 10066 20057 38964 57003 60061=
93404 16/98 99901 10105 20092 49890 57016 60071=
93498 16/// /0205 10108 20094 49887 57027 60061=
93527 16/// ///11 10089 20082 49898 52006 60181=
93597 16/// /2135 10085 20072 49865 57043 60071=
93615 36/// /1507 10088 20044 49947 57009=
93678 16/96 92024 10075 20073 49953 57006 60221=
93709 36/// /1411 10091 20012 49959 57009=
93831 36498 /0603 10028 20012 40024 57005=
93896 11498 82316 10075 20069 49986 56012 69971 76026 886//
333 88612=
93947 16/// /1311 10034 20012 40094 57005 60011=
93994 36/// /2605 10202 20182 40082 52003=
83552 21398 80904 10227 20205 39970 40193 72166 885// 333 58011
69961=
83565 32697 21404 10306 20155 39672 40138 82100 333 58005=
83618 32699 61802 10274 20167 39808 40186 5//// 86020=
83623 32996 60000 10302 20121 39551 40121 58026 85250=
83630 32997 40906 10260 20145 39061 40174 57023 80030=
83704 21898 82704 10206 20166 39646 40063 53001 70302 88500 333
60062=
83714 32596 62702 10170 20145 3//// 4//// 5//// 84205=
83726 31993 50906 10249 20139 39218 40191 56019 70544 80001=
83773 316// 81406 10218 20124 39211 40010 58016 7//28 86500=
83821 32498 60908 10216 20163 30230 40235 5//// 70211 86400=
83577 31597 70902 10300 20157 39309 40162 70422 83261 333 58011=
81405 01460 50812 10295 20227 40122 69981 70286 84930
333 58003 69967 81916 83821
555 10299 20230=
63708 31580 32007 10215 20166 48485 70192 81931
333 10295 58017 81923=
63714 39282 01405 10191 20080 48495
333 10273 58006=
63740 31580 11009 10187 20108 48510 70111 81530
333 59001 81620=
63799 11580 71810 10258 20227 40141 60142 70322 8427/
333 10292 58006 84824 85359=
63820 12580 52006 10250 20214 40147 60012 81230
333 10285 58005 81821 85358=
63612 31980 20505 10316 20121 40073 70300 80001
333 10359 58004=
63641 32980 01320 10222 20114
333 10261=
63661 11580 50904 10190 20119 48532 69902 82971
333 10269 58013 81922 84076=
63671 32582 11509 10299 20180 81500
333 10343 81626=
63695 32980 01604 10190 20110
333 10254=
63723 32982 01820 10267 20198 40125
333 10336 58009=
63766 32982 01406 10213 20154 48527
333 10303 58007=
71043 11480 82812 10040 20025 30188 40281 51014 60021 70187 86570
333 10144 20005 70052 90933=
71628 32682 12813 10201 20045 30062 40200 58012 81100 333
10201 20080 70000=
64600 32960 40000 10238 20212 39446 40093 84030
333 10284 58004 84365=
64601 11560 31804 10225 20197 38991 48502 69902 71796 83900
6
333 10275 58012 83620 82933 94942 95832=
64610 31660 13202 10260 20208 39563 40073 71392 81963
333 10336 58007 81940 94946 95836=
64650 32960 12202 10270 20226 39677 40085 81030
333 10315 55062 58006 81365=
64655 12960 0//// 10230 20218 39447 40090 69902
333 10274 58017=
64656 11660 3//// 10250 20233 39537 40087 69902 71311 81960
333 10290 58008 81940 83365 94944 95834=
64659 11960 00000 10225 20214 39392 40106 60192 70191
333 10254 58034=
64660 31660 10000 10258 20232 39551 40074 71311 81900
333 10290 58005 81940 94943 95833=
64661 12960 2//// 10240 20227 39427 40086 60132 82030
333 10285 58017 82365=
83248 32470 31812 10286 20225 40173 83200 333 58019=
82579 32570 21504 10332 20230 40138 84200 333 58010=
71825 11569 73203 10051 20003 39415 40079 56012 69921 78087 87800
333 10059 21029 70002 90917=
34560 32962 71406 10247 20090 40144 52011 87030 333 10300=
34824 32997 83601 10256 20194 40097 57006 80001   333 10292=
34858 32962 81403 10257 20105 40099 53014 8807/   333 10330=
34866 32998 60905 10250 20085 40122 54000 86031   333 10346=
34880 32997 70902 10224 20152 40152 54000 82032=
37472 32675 71205 10207 20169 40089 55017 82540   333 10223=
34357 32998 60302 10273 20126 40142 53007 86030 333 10310=
34363 32998 80000 10269 20090 40146 57004 8807/ 333 10319=
34545 32998 30504 10265 20103 40113 53001 80002   333 10327=
34579 32979 31303 10244 20070 40161 53010 80001   333 10338=
34655 32697 70902 10273 20084 40110 53008 82530 333 10333=
34759 32598 60905 10256 20084 40111 53017 83091   333 10332=
34838 32997 50201 10238 20188 40097 54000 80009   333 10297=
34929 31659 70000 10225 20212 40096 57002 78098 83940   333 10296=
34954 42998 80000 10230 20172 40086 55005 8801/   333 10304=
37031 31597 81905 10225 20190 40109 53017 79598 8696/   333 10286
86920=
37145 32998 61101 10249 20195 40082 53002 86070 333 10325=
37171 11496 73003 10206 20192 40098 53015 69940 70381 87500 333
10237 87613=
37228 32998 81704 10241 20109 40067 58005 8805/ 333 10285=
28049 114// 81403 10158 20156 40081 57001 60040 78098 889//   333
10260=
28319 31498 73001 10180 20152 40135 52003 72522 85950   333 10274=
28334 11584 22302 10156 20036 40115 53012 69902 72998 82202   333
10264=
28434 11598 73001 10191 20133 40118 53005 69910 70298 87900   333
10304=
28552 11598 62801 10150 20139 40117 58009 60050 70298 86300   333
10255=
29111 41597 82901 10121 20067 40069 57011 78086 8592/=
29209 42598 70000 10074 20056 40085 54000 86405=
29602 41565 80208 10091 20087 40036 57002 78082 889//=
29636 42598 71702 10100 20073 40105 54000 87500=
29654 42999 21501 10060 20046 40138 52002 82040=
29712 41498 80804 10097 20087 40039 57019 72582 889//
333 88917=
29724 41597 81104 10106 20077 40057 57028 70282 8635/=
29726 42598 81303 10106 20079 40087 57017 883//
333 88921=
29814 41499 83101 10084 20076 40034 57013 70298 883//
333 85918=
29827 41597 81805 10118 20112 40069 58035 78082 889//   333 82689=
29923 41596 81704 10112 20068 40106 57017 78182 889//   333 88922=
29939 41597 62302 10109 20059 40138 58014 70282 86300=
36021 414// 82105 10117 20089 40051 57048 78082 889//   333 85713=
36022 41497 81808 10119 20071 40080 58029 78082 889//   333 85710=
36038 42598 81803 10123 20071 40133 58019 889//   333 88920=
36058 41699 73001 10095 20090 40177 58007 70282 87900=
23226 31458 80403 10084 20080 40058 57001 78082 8693/ 333
10212 86914=
23606 12962 20000 10091 20046 40125 58002 60100 82030 333 10127=
26167 12671 43003 10150 20053 40125 52013 69902 84200   333 10196
91111=
27857 32997 20000 10174 20120 40187 53008 80001   333 10195=
28909 32499 62502 10226 20145 40151 57001 82263   333 10300=
37061 32582 71002 10243 20144 40093 53006 82531   333 10313=
29068 425// 41402 10122 20103 40059 52002 84800=
29274 41984 70602 10111 20085 40098 52011 70398 80009=
29363 41497 71905 10124 20088 40095 52018 70282 82301=
29456 425// 72302 10099 20085 40110 52003 82901=
29467 41698 51703 10099 20062 40133 52017 70282 82531   333 91113=
29477 42800 72605 10130 20065 40118 52022 8707/=
29576 42897 82203 10125 20081 40127 52018 83037=
29587 415// 80000 10118 20114 40136 52014 76098 8672/=
29756 42984 21901 10089 20038 40170 52008 80002=
29962 42882 62203 10117 20056 40176 51009 86030=
30157 42397 81801 10092 20092 40108 52012 886//   333 88707=
30320 42997 89901 10138 20113 40066 58002 86031=
30537 429// 73001 10135 20071 40089 52009 80005=
21802 42999 31502 11011 21017 40194 54000 82032=
24266 42699 70102 10099 20053 40128 52011 87900=
24329 42999 20000 10086 20062 40161 52002 80001=
24639 42999 10102 10108 20070 40139 52014 81030=
24656 42999 10000 10055 20041 40061 52004 81031=
24688 42699 73201 10028 20020 40110 52004 83530=
24724 42999 00403 10092 20059 40153 52009=
24768 41599 82802 10120 20104 40067 52007 70262 8652/=
24923 42699 69901 10099 20062 40127 52016 83530   333 83640=
30054 42998 10000 10099 20090 40062 54000 80001=
30393 41296 80203 10103 20102 40016 57004 78182 889// 333
84705 84912=
30493 41599 83602 10106 20106 40005 53003 72582 889//=
37085 41996 70905 10227 20102 40105 54000 70232 80001   333 10305=
25325 42599 10000 10094 21007 40122 52004 81100=
25378 12698 71802 10055 20020 40246 54000 69902 87500   333 20040
84645=
31174 42398 80105 10036 20023 40080 58006 8852/=
31263 41597 80911 10125 20115 39493 40030 58002 78098 889//=
31489 42599 30000 10074 20071 40061 57004 83900=
31959 41/93 92401 10072 20070 40097 58006 74544=
32076 41498 82501 10026 20026 40105 57007 70280 885//=
32594 41499 81802 10020 20012 40119 53001 70242 82632=
38345 32998 00000 10110 20043 38889 48580 52012 333 10203=
40703 32560 30000 10234 20102 38869 40050 52018 83300 91748 333
55111 81930 82635=
40712 32660 20000 10206 20113 38644 40030 53008 82400 91745 333
55130 21747 82635=
21982 11480 80000 11032 21046 40260 57008 886//   333 21046 42998
55000 88707 91104=
25173 32298 61305 10012 21010 40231 57003 82601   333 21018 33068
91108=
24988 42498 80000 10042 20032 40130 54000 886//=
47101 32970 03202 10160 20128 30004 40094 53002=
47112 31959 21102 10219 20173 30005 40083 53000 71011 80001
333 92011=
47131 31630 80201 10189 20174 30018 40084 57004 71022 8351/=
47143 31958 81103 10170 20142 30025 40091 57011 71022 8452/=
47146 31530 80202 10205 20186 30013 40076 57010 71022 8252/=
47152 31530 70201 10170 20142 30051 40090 57015 71022 87500=
47156 31556 80503 10198 20177 39987 40072 57015 71022 8452/=
47168 31656 40202 10181 20137 39999 40076 57014 84500 333 92022=
47189 41465 80504 10195 20179 39993 40052 57017 76066 8572/
333 92011=
16622 32670 21610 10238 20096 30180 40186 56005 82400 333 10276 90730
91117 555 10000 40210 30000 10300 20300 30300 40286 50250 40000 47672
44260 50000 50160=
16682 32460 13508 10220 20165 30163 40181 55000 81100
333 10276 90730 91108 555 10000 40196 30000 10312 20306 30300 40288
50257 60230 40000 47663 44280 50000 50186=
16716 32970 00112 10234 20045 30164 40182 53002 333 10270
90730 91129 555 10000 40220 40000 47662 44265 50000 50144=
16734 32565 12910 10204 20165 30117 40178 54000 81200
333 10270 90730 91118 555 10000 40204 40000 47623 44235
50000 50180=
16743 32980 00616 10200 20071 39984 40181 51004 333 10230 90730 91134
555 10000 30230 40000 47522 44225 50000 50134=
16749 32570 10000 10248 20205 30079 40093 52006 81100 333 10268 90730
91110 555 10000 40232 40000 47597 44255 50000 50220=
16754 32565 23215 10204 20135 30113 40159 53003 81240 333 10226 90730
91120 555 10000 40202 40000 47621 44240 50000 50164=
16650 32870 23505 10218 20102 30182 40186 51005 82030
333 10246 90713 555 10000 40216 30000 20290 30298 40272
50242 60226 40000 47671 44250 50000 50154=
16732 32965 03521 10196 20145 30145 40157 53007 222// 00180 333 10204
90730 91130 555 10000 40188 40000 47641 44220 50000 50166=
16614 32970 00506 10198 20079 39430 40186 53003 333 10248 90730
91110=
16627 32560 10000 10220 20109 30186 40190 53006 81100 333 10262 90730
91118 555 10000 40214 30000 10252 20262 30250 4//// 50224 60206 40000
47674 44250 50000 50158=
16667 32975 00310 10212 20144 30171 40177 53011 333 10252 90730 91120
555 10000 40190 30000 1//// 20282 30284 4//// 5//// 6//// 40000 47663
44240 50000 50172=
16675 32965 10908 10220 20113 30170 40190 54000 81040 333 10280
90730 91114 555 10000 40194 30000 10270 20280 30270 40260 50237
60205 40000 47664 44250 50000 50160=
16710 32564 10310 10136 20004 39432 40193 53002 81200 333 10172 90730
91117 555 10000 40046 30000 10266 20244 30252 40236 50220 60200 40000
47107 44240 50000 50078=
16723 32965 00220 10224 20070 30134 40142 52020 333 10266 90730
91130=
16738 32960 03626 10192 20080 39974 40166 51006 333 10236
90730 91138=
56034 32980 10000 10010 21016 35969 57002 80002 333 05100
10144=
52825 32980 00903 10149 21031 37222 57006 333 05501 10264=
42111 31696 41401 10264 20233 39256 49995 70292 82530 333
58000 82635 83360=
42131 32996 00502 10322 20195 49971 333 59028=
42182 31995 21404 10330 20251 49980 70592 80001 333 59004 82070=
42189 31995 01402 10308 20257 49991 70500 333 58001=
42361 31996 00000 10346 20254 49979 70600 333 58004=
42369 31996  30904 10298 20253 40992 70510 83030 333 50905=
42379 32996 00000 10300 20249 49988 333 59023=
38264 35998 00303 10188 21002 40200 52001   333 10278=
23274 42998 20904 10119 20046 40108 57010 80001=
23383 42999 30000 10091 20013 40139 58014 80001=
23472 42599 70604 10151 20050 40082 57014 81501=
23678 41556 80403 10148 20146 40041 57007 78182 889//=
23884 415// 51101 10114 20109 40048 52010 70282 84501=
24507 429// 21801 10149 20032 40135 52005 80001=
24908 42980 80604 10192 20071 40072 58003 82037=
29263 41974 71702 10126 20099 40079 52003 70292 82052=
29282 42584 82101 10156 20136 40076 52006 889//=
29570 42596 52502 10121 20055 40134 52027 82901=
29862 42684 61501 10130 20061 40157 52009 82530=
30521 425// 80000 10164 20149 40065 52016 889//   333 88930=
23973 41599 70000 10115 20110 40046 52003 70282 87500=
29253 415// 81403 10115 20093 40061 52015 70282 889//=
29471 425// 82405 10135 20067 40117 52024 889//   333 88922 91112=
29481 41597 81801 10130 20130 40096 52009 76198 8672/=
29553 42977 02302 10092 20080 40117 52007=
29562 41584 02303 10096 20056 40138 5//// 70281=
29581 41498 81603 10120 20109 40131 52013 78098 8692/=
29594 42599 62805 10104 20085 40124 52030 83961=
29653 42997 02303 10080 20036 40150 52021=
29675 42898 00000 10068 20051 40156 52021=
29676 41698 20000 10107 20071 40134 52010 70198 82500=
29759 41584 60000 10055 20046 40164 51005 70282 82904=
29766 42699 32402 10088 20068 40160 51010 83500=
29864 42884 60000 10096 20061 40161 52007 86040   333 95095=
29869 42975 20000 10094 20080 40121 53011 80001=
29956 41684 71902 10100 20065 40175 54000 78022 87900   333 95090=
30504 42997 22501 10114 20100 40120 52016 82030=
30603 41997 33101 10132 20121 40106 52013 70281 83030=
30612 415// 52602 10147 20147 40095 52016 70282 82931=
30622 416// 80103 10175 20146 40079 52033 78082 8592/=
30499 41599 62601 10142 20122 49978 58019 70298 86900=
30683 11682 80000 10172 20152 49974 57006 69902 71882 889//   333
10323=
30695 41998 80000 10160 20120 49976 56007 70291 8807/=
31253 41599 80903 10123 20120 40007 52001 70298 889//=
31295 415// 80101 10174 20111 49968 58007 70282 8233/ 333 91122=
31348 425// 82901 10062 20059 40071 57005 82507=
31418 42599 82701 10111 20109 40053 57007 81502=
31442 429// 82003 10168 20100 49972 57021 86031=
31445 42984 80000 10127 20098 49993 57015 80002=
31474 42698 81601 10092 20062 40055 58013 8352/=
31534 42699 53601 10088 20064 40053 52009 85500=
31587 42981 80000 10111 20086 40029 57011 80001=
31632 42998 60000 10055 20031 40083 57002 86030=
31725 42998 60000 10122 20099 40069 57004 83042=
31801 41/93 93601 10085 20077 40095 53001 74542=
30455 429// 03004 10079 20042 38866 48450 52010=
30549 428// 80000 10051 20037 38642 48438 52008 8607/=
30726 429// 80502 10084 20062 40104 52035 82371=
30731 41599 62301 10079 20064 40077 52019 71310 82952=
30739 429// 52403 10166 20056 40045 52007 83042=
30745 42999 12502 10095 20056 40073 54000 80002=
30764 41998 23601 10096 20094 40033 52004 70281 80003=
30822 42998 72306 10176 20113 40079 52020 86032=
30824 42698 81802 10174 20115 40074 52004 883//=
30829 42984 83604 10233 20095 40036 52032 86011=
30846 42999 20000 10140 20073 40040 52006 80001=
30859 41699 83202 10142 20080 40024 54000 71398 83901=
30862 42784 63002 10153 20119 49995 55002 83360=
30957 42984 02202 10136 20068 40041 52006=
30975 42598 21801 10153 20074 40024 58012 81930=
31878 41656 20000 10103 20097 40088 52003 71000 82500=
31915 42998 02802 10110 20106 40092 57012=
31921 42982 12602 10154 20109 40086 57001 81040=
31969 42998 00801 10139 20105 40091 57003=
31981 42999 02501 10093 20085 40083 50000=
31987 42999 02101 10104 20070 40099 54000=
32069 42999 21203 10067 20058 40096 58009 82030=
42314 31596 10000 10278 20240 40016 70500 8143/ 333 59013 81620=
42398 32596 19903 10278 20234 40017 81130 333 5699/ 59016 81830=
42410 32596 20000 10280 20257 40011 70510 81530 333 59018 81620=
42415 31996 10000 10276 20259 40011 70500 81030 333 59014 81360=
42492 31996 33603 10980 20247 40003 70500 80001 333 59008 83075=
42701 21496 60000 10250 20221 39299 40010 70592 83331 333 59004 6044/
83618 81930 83360 85075=
42798 31595 50000 10296 20251 49998 70522 83430 333 59010 82620 83825
85360=
42809 31495 61802 10274 20264 40008 70521 84530 333 59002 84615
84360=
42886 21996 20000 10272 20223 40006 70162 80001 333 59004 6990/
82075=
42895 32596 30000 10294 20260 40004 82530 333 59014 82620 83360=
42971 32596 30000 10290 20259 40004 81531 333 59018 81620=
43333 21495 82306 10258 20249 40021 76066 8542/ 333 5669/ 59012
6006/ 82618 83820 88457 91037 91936 99926=
24856 42598 70101 10109 20086 40060 53009 87500   333 87625=
30686 42999 83601 10139 20091 49988 57002 8807/=
30777 42998 71202 10171 20071 40012 55002 87070=
30961 41694 61205 10221 20082 49998 57006 71392 8394/=
30971 42984 62803 10136 20061 40043 53009 83041=
30978 42984 40000 10182 20076 40050 57012 84030=
24982 42297 82001 10037 20037 40129 52004 886//=
32121 42997 11801 10060 20029 40104 57006 80001=
32128 42599 71501 10086 20064 40097 56006 87500=
41314 32660 11706 10327 20180 39529 40042 81500 333 10436 58006
81630=
35217 32297 41802 10181 20148 40194 54000 84200   333 10312=
35969 329// 00000 10188 21002 40225 52001   333 10270=
42559 32597 50502 10330 20199 4////  81532 333 58/// 81620
83360 85070=
42667 21596 53408 10280 20232 39417 49986 70296 83530 333 59019
6013/ 83625 83360=
42675 32996 20000 10336 20194 49968 82030 333 59020 82360=
42754 21596 72710 10232 20220 39393 40019 79596 85930 333 59023
6041/ 83620 82825 82930 86360=
42779 32596 11802 10294 20200 39322 49992 81500 333 59009
81620=
42867 21596 70000 10300 20220 40086 79596 84930 333 59021
6998/ 83625 81930 85360=
42874 31596 52303 10325 20221 49981 71322 82334 333 59010 81625
81930 84075=
43041 21596 81402 10230 20218 39405 40015 70296 8452/ 333
59011 6004/ 84625 88458=
28978 11598 80000 10132 20119 40124 53016 60020 71398 84903   333
10212=
35173 11598 82702 10143 20131 40125 53010 60020 71398 889//   333
10227=
38069 32998 03301 10155 20038   333 10255=
35849 32998 00000 10168 20085 40212 57003   333 10273=
42634 32996 22710 10300 20240 40008 80001 333 59018 82075=
42647 31596 22306 10334 20243 40003 70400 82500 333 56600 59012
82620=
42737 32896 42908 10300 20249 40015 82031 333 59011 82358 83075=
42909 32596 22908 10296 20273 40024 82500 333 56700 59007 82620=
43003 21495 80000 10290 20268 40032 79522 8592/ 333 59011 6001/
82714 83618 81925 88458=
43014 32596 70000 10222 20216 39389 40029 79502 87300 333 59014
83620 83825 82930=
43063 21596 72701 10237 20229 39417 40034 70296 85701 333 59006
6041/ 82724 84628=
43110 21496 63603 10264 20245 40038 76052 83570 333 59012 6002/
83618 85456=
43117 22596 72303 10284 20268 40007 82401 333 59032 6998/=
24944 42599 80000 10133 20117 40078 52012 8393/=
25400 42999 81202 10102 20032 40093 54000 8803/=
98135 31575 31403 10280 20259 40076 58019 70544 83200
333 56399 83820=
98232 31570 21802 10272 20250 40065 58026 70244 82200
333 56999 82820=
98329 31470 20401 10250 20243 40077 5/016 70544 81201
333 56999 81818=
98336 32475 33601 10248 20240 40077 57016 82201
333 56999 82815=
98431 31458 80601 10280 20254 40090 58008 71792 8397/
333 56999 82916 88459=
98531 11462 70000 10276 20255 40070 58004 69901 78022 83970
333 56999 82916 83618 87359=
98536 11460 81301 10250 20238 40074 58013 60791 71796 8397/
333 56999 83915 88357=
98646 11560 21402 10278 20261 40095 57008 69931 70282 82200
333 56999 82820=
98747 31470 32202 10250 20234 40067 56007 71344 81344
333 56999 81917 82618 83075=
11101 10101 00010 10110 1011/
/////
2//// 3//// 6//// ///// ///// 8//// 9//// ///// ///// //004
11101 11111 1011/
11111 110//=
98753 31468 40000 10251 20236 40070 58013 70544 81231
333 56999 81816 83079=
43128 31596 40000 10292 20251 39410 49996 71322 83301 333 57993
59027 82620 81930 83070=
43185 31496 50000 10282 20251 30008 40011 71322 83308 333
57942 59008 81620 82825 81925=
43213 32596 72706 10296 20216 39700 40009 84878 333 59019=
43279 21596 62705 10284 20231  30000 40017 70252 84501
333 56609 59020 6990/ 84620 85075=
43314 21596 70203 10252 20225 40067 70252 83470 333 59007 6992/=
43353  32496 40000 10260 20240 40068 84800 333 56700 59012 83616=
43371 21596 63204 10258 20246 39989 40062 70365 85870 333 56790
59010 6001/ 84620 85355=
35953 329// 00000 10195 21005 40220 54000   333 10263=
33377 32997 030702 10181 0219 100 40200 53004 333 100221=
48698 11464 70000 10275 20252 30049 40067 69901 70562 81138 333
79999 81818 86366=
48327 01540 80903 10237 20233 39703 40058 60453 79599 8692/
333 58016 60347 70447=
48331 12560 60000 10260 20252 39833 40061 69973 83856
333 58014 70017=
48353 11560 30000 10248 20236 39777 40065 60173 70161 81505
333 58018 70232=
48356 12562 50000 10275 20246 39873 40077 60043 85500
333 58020 70038=
48375 01540 80000 10256 20248 39803 40028 60113 76022 85576
333 59005 69965 70207=
48378 01458 80000 10258 20252 30001 40053 60313 76062 8787/
333 58015 69935 70309=
48381 01558 51202 10252 20246 39847 40069 60023 71062 82506
333 58018 60025 70021=
48431 11558 70000 10247 20238 39849 40062 60073 71022 85576
333 58014 70065=
48456 01458 81503 10245 20238 30044 40058 60293 76166 84977
333 58004 60147 70319=
48480 01410 80000 10237 20234 30060 40064 61973 76166 8682/
333 58017 60727 72098=
48500 11560 80000 10254 20226 30050 40056 60093 70252 8677/
333 58004 70090=
48551 01540 80000 10242 20236 30059 40067 60073 76166 85877
333 59002 60016 70092=
48565 01560 70000 10260 20250 30049 40060 60113 72122 82246
333 59005 69915 70138=
48569 11460 80000 10250 20240 30027 40067 60193 70262 84876
333 59010 70202=
48583 31557 60000 10245 20230 30067 40073 71022 82206
333 58003 70004=
48325 31210 60000 10252 20242 39802 40043 71022 82606
333 58001 70043=
48383 32562 60000 10272 20240 39902 40059 82536
333 58009 70033=
48403 32560 60000 10260 20238 39856 40065 83546
333 58017 70144=
48425 01560 70000 10255 20245 30039 40049 60013 70162 86406
333 58010 60017 70023=
48430 31557 80902 10259 20242 30051 40059 71022 84577
333 58018 70438=
48450 11560 80000 10256 20246 30015 40048 60063 70262 85576
333 58004 70064=
48550 01558 80000 10261 20236 30057 40062 60033 76022 81576
333 59001 69905 70029=
48552 01460 60000 10251 20243 30056 40062 60083 70162 82146
333 58000 69946 70106=
80002 22224 00229 20201 307// 40603 80178=
58008 96021=
97014 32560 50000 10240 20233 39982 40075 56010 82811
333 56000 57803 81825 80860=
97072 01457 70000 10250 20242 30001 40103 56005 60021 72162 83271
333 56000 57801 60027 82818 80861=
97900 01458 81308 10256 20220 30086 40117 54000 60021 70262 8582/
333 56209 57821 60027 84615 88458 80873=
42348 31595 30904 10300 20193 49991 70600 333 58002 82630=
42452 21596 81405 10320 20199 49987 79596 333 58010 60021=
59012 82620=
57942 59008 81620 82825 81925=
43189 21596 50000 10276 20241 39988 49997 70292 82432 333
59022 6008/=
43245 32596 60000 10316 20253 39983 40004 82531 333 59019=
56790 59010 6001/ 84620 85355=
44203 329// 00000 10060 20024 38368 40155 52012=
44230 329// 20000 10149 20095 38756 40124 52006 82040=
44256 32999 72705 10201 20093 39223 40005 57009 85038=
44313 32999 30000 10171 20055 39272 40097 58004 83040=
44207 329// 12701 10044 20024 38315 40182 53015 80002=
44241 329// 01803 10228 20061 39149 40035 52010=
44314 32998 02707 10205 21037 39062 40060 57004=
22113 11484 70806 10145 20027 40022 57009 69902 78082 86860
333 10182 91009 91113=
22271 31982 21007 10098 20064 40091 57005 70700 82030 333
10155=
22820 12599 42405 10138 20062 40043 53006 69932 82530 333
10168 91111=
22887 32570 81602 10150 20076 40110 57009 82531 333 10214=
26781 32497 62101 10180 20114 40155 57011 82901 333 10228=
33345 32998 30000 10198 20073 40203 56002 80001 333 10238=
33393 32997 00000 10231 20122 40193 57006 333 10250=
33658 32997 00202 10218 20081 40202 56002 333 10246=
33791 32997 00306 10204 20132 40174 53002 333 10228=
33837 32998 03402 10214 20120 40173 53001 333 10251=
33946 11550 80305 10194 20170 40125 58004 69902 72998 86303
333 10231 83720=
34300 32997 00303 10184 29131 40185 53005 333 10206=
34691 32998 61802 10264 20088 40164 5/009 80002 333 10358=
58020 70038=
43233 32396 72308 10236 20203 39237 40036 82701 333 56609
59006=
43284 21494 80000 10226 20217 39955 40072 75165 8472/ 333
59002 6047/ 83710 83615 88458=
43295 21395 82502 10212 20200 39044 48437 76065 8672/ 333
5669/ 59005 6015/ 83708 83614 85458=
27037 11566 81803 10132 20115 40110 57012 69910 78082 889//
333 10193 8892/=
29634 42757 61504 10112 20065 40091 57007 86500 333 86650=
84705 84912=
30433 42999 83602 10176 20082 40068 52003 80001=
30469 429// 10000 10027 20006 40085 52046 80001=
30554 429// 20000 10075 20067 40090 52015 80001=
30635 429// 21101 10140 20120 40055 58002 80001=
30692 41998 80000 10144 20131 49975 57001 70292 8805/=
30802 42999 01903 10084 20073 38674 48468 52015=
30879 42999 20000 10154 20098 40014 58010 80002=
30925 429// 13604 10231 20094 40014 57012 80004=
35700 32998 61101 10258 20067 40168 57004 83071 333 10315=
35925 329// 31803 10229 20051 40203 53005 80001 333 10320=
36034 42598 81810 10161 20029 40098 57024 889// 333 85931=
36982 129// 01902 11047 21099 36530 47081 54000 69992 333
10017=
38001 32997 01606 10272 20115 40147 57002 333 10331=
38353 429// 01401 10128 20062 40213 52002 80000 333 10200=
38392 32997 00303 10206 20030 40202 53002 333 10292=
38613 429// 02003 10174 20106 40203 52017 333 10250=
38696 329// 01402 10168 21009 40168 53001 333 10245=
38750 32997 02704 10248 20187 40108 54000 333 10285=
44242 329// 00000 10184 20046 39178 40015 57006=
44243 329// 10000 10166 20020 39291 40031 52010 80001=
20046 12978 33304 11043 21070 40099 52016 69900 83030 333
11021=
20069 41234 83005 10000 21003 40078 53004 71074 886// 333
88706=
20087 41242 82305 11005 21008 40074 58016 71022 886// 333
88704=
20292 42374 82507 11005 21008 40112 57010 886// 333 88709=
20667 11294 80305 10004 20001 40096 53016 60030 74064 886//
333   10015 91107=
20674 41980 71910 10033 21008 40065 58017 8703/ 333 91113=
20744 31396 63304 10008 20005 40133 52004 72842 86600 333   10026
86707 91105=
20891 42997 51303 10060 21006 40155 57013 82031=
23022 11195 83602 10004 20001 40113 54000 60050 71082 886//
333   10012 88702 91104=
23032 11360 83008 10005 21001 40074 52001 60040 76162 8872/
333   10084 87709 91110=
29328 42998 61702 10065 20058 40073 57001 86030=
29348 41997 62303 10081 20070 40088 51004 70282 86070=
29405 42997 20201 10066 20052 40074 53003 82030=
29937 42597 62102 10138 20073 40108 57020 86500   333 86630=
96035 31450 60000 10254 20248 30034 40066 57012 70522 84936
333 56000 57902 81918 83618 80957=
96073 31456 70000 10248 20235 30062 40069 56010 71322 83922
333 56000 57902 83915 80959=
96109 31457 61903 10244 20230 30027 40066 52002 71321 83931
333 56400 57941 81925 82617 80965=
96145 32467 70000 10263 20239 30070 40075 56003 84520
333 56800 57/// 84617 86460=
96237 32556 52301 10247 20237 30032 40074 56003 83231
333 56000 57801 83820 80858=
11028 21077=
10063 20016=
10385 32881 50603 10242 20119 30121 40179 56013 81482 333
10265 20179 55307 81657 85080=
10637 32782 40303 10288 20144 30019 40148 55006 81963 333
10313 20183 55310 81856 81956 83078 96413 96414=
16560 32970 01706 10230 20197 30172 40178 56011 91745 333
10270 55310=
17609 32560 12903 10243 20170 30071 40073 53015 81800 333
10271 81825=
12330 32970 43403 10232 20089 30088 40191 56007 80001 333
10253 20175=
12375 32980 13304 10236 20157 30061 40185 54000 80001 333
10274 20185=
12843 32983 12202 10254 20060 30039 40200 55004 81082 333
10279=
13272 32980 00102 10251 20120 30083 40197 58004 333 10274=
23256 32999 03502 10112 20027 40100 57014 333 10148=
23330 32698 70701 10140 20076 40045 57015 82531 333 10199=
23552 32997 23202 10135 20038 40094 57010 80002 333 10187=
23631 32998 71505 10173 20041 40049 57013 87050 333 10216=
23849 42996 29901 10096 20056 40102 57005 80001=
23933 32997 01501 10099 20053 40107 57008 333 10171=
23966 41397 82301 10111 20107 40025 57009 70282 889//=
28275 32999 81301 10102 20046 40117 52001 80002 333 10192=
28382 32997 00000 10088 20050 40117 52005 333 10183=
28493 12999 03303 10096 20051 40091 53013 60010 333 10148=
28573 12980 10501 10085 20055 40126 52008 69970 80001 333
10195=
28698 11984 03102 10096 20036 40089 52009 69940 70281 333
10154=
28722 31664 70000 10180 20149 40144 53007 72998 86501 333
10300=
28786 12999 00302 10097 20030 40117 52018 69930 333 10198
91113=
29430 42998 20000 10090 20077 40089 52006 82040=
35121 32979 52103 10218 20135 40168 54000 82032 333 10301=
38763 32997 00904 10270 20036 40110 57006 333 10355=
38911 32997 03404 10222 20061 40127 53002 333 10326=
38987 329// 00202 10233 21019 40132 53011 333 10315=
10338 32762 70802 10224 20136 30102 40171 55013 82538 333
10237 20141 55301 82656 83360 87275=
16242 32967 02501 10234 20180 30188 40191 56005 333 10278=
16320 32960 00301 10248 20151 30173 40185 56005 91745 333
10260 55310=
16420 32998 01903 10246 20104 30124 40187 55002 91745 333
10260 55305=
17060 32660 53606 10182 20124 40176 55000 82130 333 10224
82835 84360=
17128 12670 70203 10146 20075 39037 40103 51010 69912 84250
333 10168 84840 87360=
17170 32670 31404 10210 20031 38316 48480 55000 83100 333
10234 83835 10047=
17200 32670 22303 10214 20104 39091 40021 52011 82100 333
10304 82840=
11518 32889 11002 10252 20134 39755 40167 56010 81441 333
10290 81657=
15420 32960 00000 10195 20088 30079 40185 54000 333 10270
30040 91001 91201=
28255 11459 81501 10154 20142 40090 58011 60020 78098 883//
333 10239 88916=
28642 11697 72605 10201 20121 40120 53002 69900 70282 84330
333 10284=
29557 42998 11806 10092 20050 40125 52005 81030=
29822 41597 82704 10110 20092 40982 57024 70282 899// 333
88919=
29846 42697 81803 10098 20065 40142 51002 8255/=
36096 42698 22504 10143 20032 40116 52019 82500 333 95090=
36103 42999 00000 10012 20007 40225 51006=
36307 42999 30903 10151 20000 38883 48477 52015 80002=
36974 329// 10902 10068 21002 38024 48560 52014 80002 333
10156=
91165 32566 60103 10240 20190 30132 91804=
91245 32566 40906 10260 20260 30134 91750=
91285 32666 20000 10244 20178 30169 40183 51014 91753 333
10244 20194=
91334 11474 84952 10280 20248 30078 40081 56008 69901 70282
83271 333 56229 70140=
91348 11474 81303 10267 20233 30037 40089 57007 60081 72582
85231 333 56399 70574=
91366 32474 60605 10268 20249 30076 40085 56005 86800 333
562// 70010=
91413 11469 81103 10267 20253 30059 40078 57008 60121 72582
84372 333 56299 70300=
51133 11680 62501 10123 20090 39584 40209 52004 60021 70080
86400 333// 00600 10201=
51463 32770 83408 10122 20088 39135 40200 52029 889// 333
00753 10199=
51644 32670 33203 10185 20078 38872 40044 54000 81902 333
00102 10264=
51656 32780 70903 10266 20038 39012 40013 52018 83402 333//
00009 10298=
51709 32880 52702 10179 21019 38711 40110 52023 82460 333//
00653 10252=
51716 32970 72201 10196 20093 38854 40080 52004 80002 333//
00453 10250=
51828 11860 82903 10164 20088 38628 40108 52025 69901 78080
8692/ 333// 00757 10255=
51931 31958 82702 10184 20098 40076 52008 70630 8802/ 333//
00556 10272=
51855 31950 83203 10243 20053 49986 52014 70600 80007 333//
05101 10303=
51777 32965 80000 10261 20080 39026 49979 52021 8802/ 333//
05301 10343=
51839 31/20 92902 10203 20057 40058 52026 70630 333// 00453
10302 91121 91522=
52267 32980 01103 10198 20085 39038 40064 52011 333// 00000
10319=
55472 11780 31105 10075 21002 35773 57004 69901 70080 83200
333// 05101 10171=
55279 32880 12014 10065 21007 35735 52005 81402 333 05304
10137 91119 91520=
55578 32980 01402 10127 20014 36391 52016 333 00200 10236=
55664 32980 00000 10093 20005 36044 52011 333 00151 10197=
55696 32680 20402 10108 20028 36390 52008 82400 333 00101
10198=
55773 32470 61104 10049 20034 36067 52006 85402 333 00101
10138=
56312 32680 82002 10157 20080 37104 52010 884// 333 00004
10243=
56106 32780 20000 10093 20026 36237 52002 82400 333 05201
10186=
56137 32780 20000 10103 20066 36842 52003 82400 333// 00051
10223=
98526 11568 80000 10265 20259 40069 57014 60081 71796 82977
333 56999 82920 86359 88275=
98748 31740 12201 10259 20/// 40069 58006 70544 81200 333
56999 81818=
91408 32974 10000 10261 20254 30051 40089 56007 80001 333
56//9 70122=
59995 32475 43403 10280 20245 30066 40074 57007 82202 333XX 10299=
48620 31562 70000 10252 20239 30063 40072 70522 82545 333 82634
83276 86078=
87078=
96033 31440 80000 10270 20250 30051 40060 57012 70522 84876
333 56000 57902 81920 84617 80980=
96171 31530 60000 10252 20242 30042 40067 56003 70522 83521
333 56000 83620=
96221 32958 20000 10250 20241 30078 40093 58001 70511 80001
333 56099 82080=
96249 31456 80000 10236 20235 30024 40083 52003 71322 86938
333 56800 57981 57881 81917 85817 80981=
96581 32458 70000 10240 20237 30084 40091 52010 85170
333 56600 57862 85813 80860=
96797 11457 80000 10236 20231 30077 40081 56006 69901 71562 8697/
333 56409 57940 82917 90981 85818 80880=
28240 11599 82502 10175 20138 40094 52003 69900 78082 889// 333
10281=
28419 11696 63001 10208 20127 40126 53006 69900 70298 83331   333
10280=
31285 424// 80502 10032 20024 40099 52005 886//=
31561 42698 60701 10109 20102 40059 57006 82530=