ZCZC 000
SMCI10 BENJ 020000
AAXX 02001
53972 70090=
53974 70030=
53979 70050=
53995 70050=
57074 70010=
57077 70010=
57081 70020=
57156 70010=
57169 70030=
57171 70110=
57173 70120=
57175 70030=
57176 70010=
57178 70080=
57179 70130=
57181 70040=
57183 70220=
57184 70100=
57185 70060=
57186 70280=
57187 70100=
57188 70090=
57189 70250=
57192 70030=
57194 70190=
57195 70010=
57196 70030=
57197 70350=
57198 70050=
57271 71010=
57273 70190=
57274 70160=
57281 70240=
57285 70780=
57290 70200=
57292 71030=
57293 70390=
57294 70310=
57295 70350=
57296 70340=
57297 71740=
57298 70580=
57299 70660=
57396 70250=
58100 70020=
58104 70030=
58111 70180=
58205 70210=
58207 70560=
58208 70330=
58301 70330=
57265 11620 83201 10216 20208 39949 40053 52005 60021 72180
885// 333 00152 70626=
57378 32462 83404 10234 20219 40059 52021 8777/ 333 00151
70008=
57399 11959 80000 10248 20238 40057 52010 69911 72198 8807/
333 05101 70176=
57476 32965 72205 10271 20244 40047 52013 8704/ 333 00003 70255=
57494 32965 70000 10280 20231 30019 40047 52010 86042 333
05102 70030=
57766 32675 71401 10266 20228 40077 52013 85840 333// 00101
79999=
57972 32965 41402 10293 20223 39885 40096 52017 84040 333
00200 70001=
52740 16/// /3302 10062 29083 36857 60000
555 1/132 2//02 /////=
57957 32564 73201 10251 20238 39905 40095 52014 878// 333//
00200 70105=
59082 32565 61803 10276 20236 30034 40108 52014 81142 333
00251 79999=
59117 32961 10000 10269 20237 30018 40120 52014 81040 333
00200 70012=
59265 11340 73401 10260 20249 39970 40103 52017 60021 71060
8754/ 333 00253 70052=
59287 32561 51402 10287 20258 30063 40113 52012 84202 333
00200=
59316 32568 73601 10289 20260 30110 40119 52016 86242 333
00200=
59644 32580 51406 10286 20254 30067 40082 52016 83942 333//
00203 70098=
59758 32475 31402 10288 20257 30060 40081 52011 81201 333//
00302 70112=
58144 31940 70902 10233 20213 30066 40087 52002 71000 8704/
333 00000=
58633 31456 70000 10249 20234 30001 40096 52007 71000 8344/
333 00000 70034=
58659 31757 70000 10262 20240 30081 40114 52008 71000 875//
333 00100=
58847 31558 41801 10276 20248 30022 40120 52018 71000 82542
333 00201=
59134 32572 72702 10268 20251 39967 40125 52015 81102
333 00251=
59431 32580 71402 10274 20243 39941 40084 52011 84142 333//
00100 70036=
59023 11465 80000 10260 20244 39840 40079 52018 69951 76060
885// 333 00101 70038=
59293 32570 60701 10279 20236 30067 40114 52013 83142 333
00200=
59417 32568 81401 10265 20248 39930 40078 52012 888// 333
00101 70156=
59501 32580 40903 10294 20244 30108 40124 52014 84200 333
00200=
59663 11468 41404 10289 20255 30069 40096 52012 60021 70080
84201 333 00202 70118=
59838 11580 31103 10291 20240 30059 40073 52012 69901 78000
83400 333// 00202 70271=
59948 11575 61102 10286 20252 30070 40078 52017 69911 78080
83202 333// 00300 70187=
59981 32580 21604 10289 20252 30079 40085 52012 82200 333//
00300 70046=
58543 11460 80000 10237 20231 40105 52013 60011 76060 8377/
333 00001 70019=
58569 11/02 92206 10235 20235 40107 52015 60021 74764 333
00001 70019=
58646 11660 80000 10246 20234 40115 52012 69901 70080 8257/
333 00151 70127=
58660 11960 72501 10258 20230 40108 52005 60051 70098 8704/
333 00002 70077=
58834 31440 70401 10249 20230 40124 52014 71000 8564/ 333
00201 70029=
58926 31611 80000 10240 20234 40129 52014 72840 885// 333
00252 70101=
58944 32464 72203 10274 20250 40118 52011 871/2 333 00101=
59046 11580 51802 10281 20238 40091 52016 69941 70080 82131
333 00200 70004=
59058 32570 71101 10268 20250 40099 52015 81142 333 00201
70096=
59072 32675 63601 10264 20241 40105 52017 84442 333 00252
70224=
59087 32561 72001 10258 20242 40111 52010 87142 333 00252
70005=
59096 32570 71401 10258 20230 40114 52011 82102 333 00251
70013=
59209 11466 72703 10234 20212 40072 52012 69991 72580 872//
333 00100 70009=
59254 32562 80402 10262 20248 40096 52016 889// 333 00253
70215=
59278 32568 60703 10282 20254 40104 52014 85202 333 00251
70004=
59456 32571 21802 10282 20238 40095 52011 82202 333 00200
70007=
59493 32578 21101 10290 20243 40101 52005 82201 333 00100
79999=
59632 32567 70904 10277 20254 40081 52013 8724/ 333 00102
70072=
59647 32580 40906 10282 20255 40077 52016 82942 333// 00100
70055=
59658 11467 31402 10279 20255 40087 52010 60061 70080 83100
333 00202 70158=
59673 32580 51405 10290 20255 40101 52013 85200 333 00203
70007=
59845 32580 61404 10274 20235 40072 52011 81902 333// 00251
70007=
50468 32975 03204 10188 20065 39925 40121 52002 333 00204
30049 79999=
50745 32666 12503 10234 20091 39969 40140 52004 81102 333
00405=
54337 31958 00000 10205 20149 30071 40153 52005 70400 333
00504=
54342 31956 02002 10209 20156 30096 40156 52007 70400 333
00602 79999=
54471 32960 01802 10194 20157 30151 40156 52008 333 00602
79999=
54497 31920 10401 10180 ?X149 30143 40157 52006 71040 80002
333 00502=
54662 31340 11402 10162 20136 30034 40153 52006 71040 81600
333 00651=
51468 16/// /2400 10025 29054 36554 60001
555 1/124 2//00 /////=
53513 32970 70702 10193 20077 38929 40061 52001 80002 333//
05102=
54218 32975 00000 10191 20125 39503 40150 52008 333// 00502=
54401 32970 20000 10204 20123 39328 40140 52004 80002 333//
00401=
54511 32960 70702 10223 20147 30107 40145 52007 8706/ 333
00500=
54823 31911 63203 10223 20190 39907 40102 52002 71000 86030
333 00455=
58138 11562 80702 10227 20210 40083 52007 60121 76066 8357/
333 00151 70117=
58259 11940 80902 10230 20224 40101 52001 60011 76000 8802/
333 00002 70014=
58343 11415 81405 10231 20225 40094 52007 60111 76198 8772/
333 00001 70109=
58358 11620 80000 10236 20226 40104 52020 69911 79560 8297/
333 00101 70001=
58464 11520 81403 10236 20230 40100 52006 69911 76080 8657/
333 00001 70069=
58549 11775 71601 10252 20222 40098 52013 69901 72160 8554/
333 00000 79999=
58665 11930 71802 10261 20245 40105 52009 69901 71060 8704/
333 00102 79999=
58667 11/01 92003 10231 20231 40120 52012 69901 75254 333
00151 79999=
59211 11660 71402 10270 20246 39875 40074 52017 69901 70080
8244/ 333 00101 79999=
58472 11130 71809 10230 20229 30006 40100 57004 69931 72864
8664/ 333 05100 70003=
58477 11230 71403 10243 20234 30059 40102 52013 60011 71084
8264/ 333 05102 70015=
58666 31/00 92007 10237 20237 30015 40113 52007 74544 333
00101=
58760 11/02 91801 10240 20239 40116 52016 69911 76064 333
00100 70001=
57259 11567 80000 10211 20199 40053 52006 60011 76060 8272/
333 00103 70281=
57279 11975 70901 10232 20226 40057 52014 60171 70098 8707/
333 00101 70740=
57447 31930 80000 10214 20208 39530 40047 52009 71000 8807/
333 05101 70010=
57554 31/01 90000 10229 20228 40058 52011 74544 333 05101
70010=
57584 32980 61806 10281 20226 40064 52014 86040 333 00001
79999=
57662 32968 71101 10277 20247 30013 40052 52010 8704/ 333
00101 70054=
57745 32572 22701 10267 20231 39758 40064 52015 81140 333
00103 79999=
57776 32/80 52015 10193 20187 40094 52017 84102 333 00152
70013 91135 91520=
57799 32975 21803 10280 20229 30016 40096 52019 82040 333
00203 79999=
57845 11868 31804 10252 20224 40073 52011 69911 70060 83500
333 00101 70001=
57853 32680 50000 10266 20228 40070 52008 84840 333 00002
79999=
58102 11470 80903 10224 20212 30018 40066 52004 60011 76060
885// 333 00151 70014=
58221 11457 80903 10215 20206 30046 40080 52004 60181 76098
8272/ 333 00052 70327=
58314 11960 81402 10243 20233 39976 40059 52002 60111 76098
8807/ 333 05202 70219=
58338 11458 80403 10229 20223 40089 52013 60101 79598 889//
333 00051 70116=
58424 11662 82502 10268 20244 30049 40071 52015 69911 78060
889// 333 05102 70001=
59102 32566 60000 10247 20227 40123 52014 81130 333 00253
70008=
45007 32475 51302 10303 20234 30097 40106 53012 84201
333  20285 58020 79999 81816 83825 =
58562 11962 81803 10256 20219 40097 52022 69921 70080 8807/
333 00002 70024=
58040 11/06 90704 10188 20183 30100 40104 54000 69901 75254
333 00100 79999=
58321 11550 83212 10224 20223 40075 52008 60251 79596 889//
333 00052 70260=
58436 11665 80901 10227 20223 40089 52014 69971 79560 8197/
333 00051 70238=
58203 11540 80906 10223 20223 30019 40062 54000 60281 78198
889// 333 00100 70801=
58437 11/00 92212 10163 20163 38165 52001 60091 79594 333
00000 70104 91123 91520=
58326 11550 80703 10228 20225 40079 52005 60521 79596 889//
333 00053 70529=
58122 11970 80703 10221 20204 40073 57001 60021 76060 8807/
333 00051 70016=
58015 11956 80904 10217 20194 40074 52001 69901 72160 8807/
333 00152 79999=
58236 11658 81802 10219 20211 40077 52003 60181 76298 885//
333 00052 70380=
58215 11560 81104 10220 20214 40074 52003 60161 79566 8292/
333 00052 70269=
58531 11660 81801 10225 20222 40094 52014 60021 72596 885//
333 00100 70235=
58311 11564 81102 10238 20229 40057 52003 60231 76098 885//
333 05100 70279=
58319 11556 80000 10249 20248 40070 52015 60331 72198 885//
333 05102 70345=
58457 11620 72002 10237 20225 30041 40090 52008 69901 78080
874// 333 00001 70116=
57385 11456 83602 10228 20225 40058 52016 60661 79598 889//
333 00151 70973=
58345 11520 80904 10232 20229 40096 52019 60111 79596 8497/
333 00151 70105=
58556 11967 70000 10248 20230 40101 52013 69951 72580 8706/
333 00002 70637=
51076 32680 73605 10183 20039 39215 40036 54000 82462 333
05102 70001=
51133 11668 80902 10140 20120 39472 40082 52016 60011 78080
889// 333 00200 70012=
51288 32980 70402 10156 20019 38288 52006 82062 333 00101=
51463 32980 32003 10173 20085 38993 40021 57002 80002 333
05351 79999=
51709 11880 52704 10164 20030 38655 40035 52014 69901 70080
83402 333 00202 79999=
51828 31956 02704 10188 20043 38538 49984 52029 70600 333
05100=
51711 32680 22503 10113 20011 37968 52008 81802 333 00151
30042 70009=
52418 32980 10000 10169 20076 38788 40017 52015 80002 333
00102=
56046 32680 70000 10049 20038 36284 52010 875// 333 00200
30022 70185=
56080 11570 80000 10096 20082 37132 52010 60021 70060 885//
333 00001 70031=
53915 11558 80000 10152 20144 38589 40039 52006 60041 76060
8272/ 333 00153 70043=
56096 32778 70000 10193 20135 38853 40029 52008 8554/ 333
00051 79999=
52652 11562 83203 10136 20129 38463 40046 52013 60071 76166
8672/ 333 00253 70075=
52645 11780 70000 10029 20014 36796 52003 69921 70060 875//
333 05101 30024 70086=
57006 11565 82501 10158 20147 40047 52015 60081 76060 8772/
333 00153 70076=
52986 11765 70000 10141 20121 38054 52009 69931 70060 875//
333 00000 70003=
50632 32980 00000 10181 20032 39308 40154 52002 333// 00303
30003=
57083 11457 80606 10209 20167 39960 40089 52012 69901 71060
8172/ 333// 00554 79999=
58265 31415 81103 10220 20217 30092 40103 52004 72840 886//
333 00000=
58725 32660 80000 10232 20217 39875 40126 52016 885// 333
00252 70176=
50548 32980 00000 10156 20053 40150 54000 333// 00352 30035=
50834 32980 52902 10148 20080 40168 52007 82032 333// 00651
79999=
53673 32960 81402 10200 20121 40123 52010 8807/ 333// 00500
79999=
53898 32962 80205 10204 20173 40117 52005 8807/ 333// 00452=
54602 32662 60206 10222 20144 40142 52007 81102 333// 00501
79999=
54725 31959 60904 10198 20172 40119 52006 71000 86030 333//
00301 79999=
54751 31/06 90708 10130 20130 40144 52010 74540 333// 00455=
54916 32960 80403 10224 20186 40095 52003 8807/ 333// 00252=
58150 11207 80903 10214 20209 30092 40100 52006 69901 76064
886// 333 00101 79999=
58251 11520 80903 10228 20221 30083 40089 57005 69951 76060
8757/ 333 05102 70005=
58241 11315 80903 10234 20225 40094 57005 60091 76098 887//
333 00051 70085=
58820 31650 70000 10224 20217 40125 52017 71040 8754/ 333
00200 70084=
50953 31960 61802 10174 20154 39978 40151 52009 70040 80002
333 00652 70100=
56294 32962 80000 10218 20181 39449 40014 52004 8807/ 333
00052=
56492 31740 80000 10231 20205 39628 40011 52013 71000 885//
333 00100 79999=
56571 32780 70000 10236 20151 38333 52013 82802 333 00151=
56651 32680 20000 10168 20116 37621 52011 81402 333 00201
79999=
56951 11780 70000 10200 20179 38464 52008 60021 70080 82442
333 00101 70021=
57328 11715 80000 10215 20207 39616 40006 52014 60051 71098
885// 333 05151 70093=
57411 11758 83601 10203 20194 39661 40014 52011 60011 71080
8557/ 333 00053 70179=
57461 31958 82001 10253 20236 39888 40040 52011 71000 8807/
333 00002 79999=
57598 32580 61601 10272 20230 40080 52016 81132 333// 00004=
57687 32980 21803 20274 20231 30001 40077 52019 82040 333
00100=
57866 32580 62204 10276 20227 39888 40084 52014 82140 333//
00202=
58606 32962 72202 10270 20244 30030 40082 52016 8704/ 333//
00100 70013=
58715 32580 71803 10274 20230 40102 52022 8114/ 333// 00202=
50527 32970 00000 10177 20053 39451 40150 52004 333// 00202=
50727 32980 13402 10140 20036 39004 40168 54000 80002 333//
00400 30003=
53564 32968 70000 10220 20132 39132 40074 52006 80002 333//
00201=
54843 31908 80905 10171 20168 30094 40121 52004 74440 8802/
333// 00451=
54909 32963 80403 10231 20195 30020 40080 52007 8807/ 333//
00200=
58730 32460 81801 10226 20214 40124 52014 885// 333 00253
70147=
58731 32670 70000 10230 20212 40119 52009 8113/ 333 00151
70059=
58754 31940 70000 10261 20238 40114 52008 71000 8703/ 333
00101=
58911 32565 70000 10242 20226 40124 52020 81142 333 00251=
50136 32970 00701 10127 20033 39627 40137 57003 333 00053
31022=
50353 32970 10402 10151 20078 39919 40131 52003 80002 333
00201 70003=
50557 32970 02902 10182 20060 39861 40145 52004 333 00302
30048=
50756 32970 12703 10211 20033 39859 40138 57004 80002 333
00308 79999=
50788 32970 02906 10185 20076 30030 40111 52004 333 00001
79999=
50949 32965 71101 10209 20167 39993 40154 52008 80002 333
00601 79999=
50963 31/09 92704 10149 20135 30017 40149 52007 74340 333
00554 70011=
50978 32580 12704 10177 20132 39857 40137 52008 81102 333
00300 70044=
54161 32970 21801 10227 20133 39874 40151 52011 80002 333
00503 70001=
54236 32660 12001 10228 20148 30050 40148 52007 81500 333
00504=
54374 32562 70000 10172 20141 39775 40165 52006 876// 533//
00502=
58027 11312 80905 10198 20189 30034 40083 54000
69901 76060 8277/ 333 00153 79999=
58362 31758 80902 10243 20236 30094 40104 52008 71000 885//
333 00002 79999=
56193 11765 80000 10192 20155 40029 52003 69901 70060 8247/
333 05101 79999=
56196 32875 70000 10231 20173 40008 52005 875// 333 05100=
56287 31950 80000 10207 20189 40030 52011 71000 8807/ 3333/
00052 70002=
56666 32780 50000 10262 20178 49987 52009 85400 333 00100=
56671 32780 60000 10209 20168 38173 52011 83402 333 00102=
56684 32580 62703 10191 20149 37868 52013 81102 333 00101=
56751 32680 40903 10201 20148 37994 52014 82242 333 00101=
56786 32575 72003 10186 20153 38095 52016 87402 333 00200
79999=
56886 32780 62902 10192 20163 38247 52011 86440 333 00251
70004=
56977 11480 70000 10209 20196 40070 52008 69931 72580 874//
333 00100 70012=
57206 11476 82901 10202 20167 40019 52009 60021 78080 884//
333 05151 70129=
57602 31750 83201 10232 20210 40007 52011 71000 885// 333
00100=
57713 32570 21803 10253 20195 40019 52009 81140 333 00003
79999=
57545 31757 70000 10241 20229 40044 52012 71000 875// 333
05103=
57574 32972 61805 10275 20230 40048 52009 85042 333 00001
70009=
57774 32980 31601 10274 20231 40075 52013 83040 333 00202=
57872 32978 61604 10278 20230 40079 52013 85042 333 00202=
58407 32962 71401 10274 20243 40057 52015 8703/ 333 05102=
58519 32965 71602 10268 20233 40090 52019 8704/ 333 00102=
53480 32980 21103 10153 20111 40126 52006 80002 333// 00300
30031=
54102 32980 00903 10180 20084 39048 40145 52008 333// 00404=
53463 32980 70903 10211 20114 38938 40096 52008 80002 333//
00201=
51334 11780 73402 10186 20108 40073 52026 69911 76000 84532
333 00202 70001=
51379 32780 71603 10147 20113 40048 57001 81402 333 05253=
51730 11668 82706 10207 20080 40021 52036 69901 78000 889//
333 00304 79999=
52889 32967 80702 10187 20116 38407 40007 52008 8807/ 333
05100 79999=
53646 11965 81104 10206 20133 38919 40064 52017 69901 70060
8802/ 333 00251 79999=
52681 11975 83603 10167 20106 38568 40023 52013 69931 76060
8807/ 333 00052 70003=
57127 11558 83401 10188 20183 39458 40036 52003 60141 76098
8672/ 333 00052 70218=
53845 32965 80702 10217 20151 39012 40052 52004 8807/ 333
00353 79999=
57245 11560 81802 10205 20199 39712 40045 54000 60041 76098
8272/ 333 00153 70194=
56033 32680 73201 10020 21016 36063 52009 875// 333 00201
30000 70006=
52866 11665 70000 10110 20096 37675 52009 60021 70060 875//
333 00002 70050=
52754 32575 10000 10054 20026 36802 52009 81102 333 00152
31004 70051=
52955 32780 70000 10083 20053 36974 52007 875// 333 00251
70052=
56029 11675 80000 10065 20048 36508 52007 69981 76086 885//
333 00351 70016=
57046 11/57 80911 10132 20117 37910 57001 60051 74060 8457/
333 00056 70050 91119 91511=
56065 11680 82902 10061 20028 36635 52010 60011 70060 885//
333 00100 30049 70050=
52943 11580 70000 10073 20051 36806 52006 69951 70080 86802
333 00100 70005=
53923 11570 80403 10159 20154 40032 52001 60041 76160 8772/
333 00053 70038=
52797 32980 81401 10185 20097 38296 52005 8802/ 333 05102
79999=
56778 32575 71803 10188 20157 38092 52014 874// 333 00251
70013=
53787 32961 70402 10188 20129 40101 52005 8703/ 333// 00453
70005=
54527 11960 60202 10212 20155 40148 52013 69901 70080 81042
333 00551 79999=
53959 11962 81403 10233 20195 39630 40051 52008 69911 76000
8802/ 333// 00555 70001=
53772 31956 70903 10201 20134 39246 40120 52006 70400 80002
333// 00452 70004=
54308 32980 00000 10166 20118 40167 52009 333// 00501=
53798 31959 83605 10210 20153 30038 40128 52014 71000 8807/
333// 00500=
54423 32980 00000 10187 20143 39715 40159 52011 333// 00502=
54618 32961 70203 10203 20151 30111 40128 52011 8703/ 333//
00451 79999=
58647 32662 80000 10232 20220 40119 52009 885// 333 00100
70101=
58737 32362 82701 10232 20219 40121 52013 885// 333 00200
70038=
58846 31557 81601 10264 20242 40117 52010 71000 885// 333
00101=
58918 32480 71402 10265 20241 40124 52014 81142 333 00251
70001=
59126 31656 72301 10276 20242 40130 52017 71000 85242 333
00351=
59133 32560 71802 10262 20251 40115 52012 81132 333 00200=
53352 32980 61102 10182 20071 40078 52001 80002 333// 00003=
53593 32765 52202 10194 20114 40132 52008 81432 333// 00402=
53863 31957 70208 10189 20148 40103 52011 71000 8703/ 333//
00453 79999=
53975 11930 82002 10209 20168 40081 52009 69931 76060 8807/
333// 00453 70003=
54405 32960 50901 10230 20144 40138 52006 84032 333// 00404=
54436 32962 00000 10207 20161 40151 52002 333// 00500 79999=
54808 32962 80403 10208 20194 40101 52008 8807/ 333// 00452=
54826 31980 70910 10163 20004 38455 52004 70040 86042 333//
00153=
54836 31957 60904 10227 20185 40107 57001 71000 80002 333//
00200=
54863 31315 80705 10170 20167 40135 52003 71040 886// 333//
00201 70004=
57071 11558 80707 10192 20178 40080 52014 69951 76060 8672/
333// 00456 70005=
57793 31940 60000 10253 20240 40095 52017 71000 86040 333//
00100 70064=
58813 32580 72001 10265 20232 40101 52020 81142 333// 00203=
50246 32980 52003 10129 20040 40142 57003 80002 333 00252
31009=
50658 32980 11602 10208 20058 40130 54000 80002 333 00302=
50844 32662 22904 10232 20080 40143 52007 82102 333 00406=
50854 32970 22502 10216 20138 40145 52006 80002 333 00500
70019=
50888 32580 12906 10207 20074 40119 52010 81100 333 00103
79999=
50983 32670 22702 10188 20114 40122 52007 81130 333 00201
70004=
54096 32570 12505 10172 20128 40138 52003 81102 333 00351
70096=
54259 31650 11401 10177 20143 40165 52004 71000 81500 333
00600 70012=
54273 32965 00000 10186 20154 40154 52004 333 00503 70003=
54324 32965 00000 10212 20165 40148 52007 333 00502 70002=
54346 32961 00902 10180 20140 40167 52010 333 00600 79999=
54493 32970 00000 10181 20124 40158 52005 333 00501=
47401 11360 80804 10075 20064 30119 40133 52005 69902 70252
886// 333 20059=
47412 32460 83305 10129 20106 30087 40118 51009 882// 333
20113=
47420 11/40 80307 10050 20044 30059 40107 52008 60362 75188
886// 333 20044=
47426 11/04 81204 10095 20092 30065 40109 51010 69902 75544
886// 333 20092=
47582 11/60 82406 10149 20124 30136 40161 53011 69952 78082
882// 333 20139=
47590 32/70 13007 10216 20088 30082 40132 51008 81130 333
20145=
47600 32565 20104 10190 20147 30149 40165 56001 82200 333
20123=
47648 12/65 70302 10194 20122 30113 40145 51010 69902 81102
333 20161=
47662 12970 73303 10235 20095 30100 40141 50005 60082 80002
333 20184=
47678 32470 70505 10244 20197 30053 40145 51013 82202 333
20198=
47740 31/59 70604 10183 20152 30122 40159 51003 71011 87200
333 20131=
47778 32/60 70503 10224 20175 30063 40149 50007 81131 333
20194=
47807 31935 71001 10231 20180 30129 40146 58001 70522 80002
333 20194=
47843 31356 81902 10197 20175 30118 40149 50003 71022 8167/
333 20174=
47898 32965 70702 10232 20192 30121 40159 51015 80002 333
20195=
47909 32/80 71202 10284 20229 30140 40148 53007 82232 333
20234=
47918 32/81 31403 10293 20240 30131 40139 51015 82202 333
20269=
47936 32/80 21504 10290 20232 30090 40150 51011 81102 333
20247=
47945 31/30 21104 10270 20243 30134 40157 53006 71042 82602
333 20244=
47971 32480 73402 10260 20231 30162 40171 53011 87201 333
20238=
47991 11/82 21005 10295 20234 30158 40168 58001 69902 70280
82230 333 20271=
59995 32480 61803 10285 20237 30072 40080 52009 82130 333//
00001 70000=
59855 11475 71602 10272 20259 40081 52016 60021 78080 872//
333// 00351 70372=
50603 32980 02003 10213 21023 39513 40144 52002 333// 00104
30050=
54026 32980 00201 10220 20103 39831 40137 52001 333// 00402=
54027 32980 03602 10223 20090 39587 40137 52006 333// 00404=
50774 31960 02001 10137 20117 39839 40131 57003 70040 333
00252 70051=
54094 32965 22001 10166 20136 39863 40149 52007 80002 333
00451 70084=
50442 32970 02703 10134 20036 40149 57003 333 00251 30043=
56586 32675 22003 10216 20132 37996 52004 81442 333 00003=
56748 32580 10000 10195 20154 38312 52008 81142 333 00101=
56763 32680 61803 10255 20175 40012 52013 86402 333 00201=
56768 32680 71802 10201 20161 38205 52015 874// 333 00200=
56838 32668 21401 10227 20206 40046 52006 81402 333 00001=
56946 32575 72001 10223 20195 40038 52008 874// 333 00002=
56954 31357 70000 10209 20192 40065 52012 71000 874// 333
00000 70108=
56959 11762 80000 10229 20220 40057 52007 69991 78000 884//
333 00151 70015=
56966 32780 20000 10267 20222 40043 52010 82440 333 00251=
56969 32660 80000 10226 20216 40066 54000 884// 333 00100
70013=
56986 11180 71105 10194 20182 40075 52008 69901 72500 874//
333 00100 70126=
57237 11850 83601 10185 20180 40024 52002 60361 79598 889//
333 05251 70789=
57306 11964 80000 10191 20186 40012 52004 60131 70098 8807/
333 05253 70954=
57504 31956 81101 10227 20190 40005 52009 71000 8807/ 333
00152=
59007 11970 70201 10207 20192 40071 52016 69901 70060 870//
333 00101 70006=
47585 32980 00402 10204 20113 30059 40113 52006 333 20109=
47598 32965 51503 10183 20114 30132 40138 51008 80002 333
20145=
47602 12/70 13102 10160 20120 30147 40167 50005 69902 81100
333 20136=
47618 32/60 72601 10157 20100 39457 40157 58002 86801 333
20111=
47624 32975 72503 10236 20113 30006 40136 58002 81032 333
20154=
47636 32960 70302 10208 20120 30088 40153 50003 82032 333
20161=
47655 32/60 71203 10224 20164 30096 40150 51014 85202 333
20163=
47750 31/65 23301 10197 20145 30138 40164 50004 70141 82100
333 20144=
47755 31/50 72603 10196 20168 30135 40159 53006 71022 81232
333 20163=
47772 31958 43602 10227 20118 30064 40159 50003 70511 80001
333 20182=
47800 31440 80601 10194 20166 30138 40160 53011 71022 8572/
333 20177=
47815 32/60 81901 10223 20166 30138 40153 50003 81107 333
20174=
47817 31950 72502 10224 20188 30110 40151 50005 71042 80001
333 20184=
47830 31/56 40302 10249 20200 30137 40154 51008 70511 81531
333 20195=
47837 32/60 73501 10232 20196 30133 40154 50008 82032 333
20207=
47891 32960 73602 10225 20163 30145 40157 50003 80001 333
20176=
47899 32965 80407 10215 20158 39941 40156 51012 80007 333
20189=
47927 32/80 61504 10285 20251 30096 40142 51009 86201 333
20254=
22282 00252 10702 20100 33225 40702 50801 70008=
50968 31556 82204 10140 20138 40163 52013 71040 886// 333
00653 70143=
44216 32599 50000 10199 20032 38870 40012 53015 82540 333
20193 555 30170=
44242 32998 00000 10166 20059 39228 40073 52006 333 20104
555 30090=
44243 32999 10000 10160 20081 39323 40090 51011 80004 333
20085 555 30073=
44291 32998 00000 10169 20041 38719 40179 52009 333 20097=
44317 32998 21805 10222 20062 38936 40117 56003 82040 333
20132 555 30075=
44329 32598 70000 10166 20049 37735 40017 57004 87500 333
20152 555 30118=
44338 32699 61802 10212 20074 38453 40055 52011 83848 333
20154 555 30097=
44374 32599 80000 10163 21033 38237 40060 51006 86540 333
20163 555 30119=
44385 31997 51405 10201 20041 38871 40084 52012 71021 80008
333 20190 555 30157=
58931 31980 72010 10177 20153 38386 52012 72844 83042 333
00152=
53478 32970 40705 10165 20104 40091 52007 80002 333// 00103=
53853 32962 80904 10195 20130 40073 52002 8802/ 333// 00354=
54518 32960 60402 10214 20161 40147 52011 86030 333// 00500=
54852 31958 70704 10194 20168 40127 54000 71000 80002 333//
00302 79999=
57089 11230 80205 10218 20185 40078 52021 69931 71060 8672/
333// 00352 70004=
53068 32980 00705 10188 20051 39060 40125 52009 333// 00201=
53231 32970 81108 10204 21016 38443 52003 8802/ 333// 05102=
53276 32980 11405 10190 20092 38860 40120 52006 80002 333//
00202=
54135 32680 21602 10236 20140 39939 40146 52009 82102 333//
00504=
54539 32965 20902 10205 20151 30136 40150 52007 80002 333//
00501=
54753 32960 20404 10208 20169 30130 40136 52006 80002 333//
00401=
54857 31/00 91403 10158 20156 30038 40128 52007 74544 333//
00200 70011=
57067 11940 80402 10204 20190 39424 40062 52011 69971 76060
8802/ 333// 00300 70007=
57993 32973 32701 10278 20235 39972 40114 52024 83040 333//
00301 70002=
58506 32375 72006 10222 20179 40086 52014 8784/ 333// 00051
79999 91119 91516=
50564 32970 03205 10205 20048 40123 54000 333 00205 30040=
54049 32970 11603 10237 20110 40152 52004 80002 333 00504=
54115 32980 00000 10203 20084 40147 52009 333// 00405=
54157 32968 01802 10223 20161 40151 52010 333 00502 70003=
54186 32962 00000 10178 20118 40153 52010 333 00504=
54377 31457 62003 10166 20142 40168 52004 71000 86600 333
00600 70004=
54386 32470 70000 10132 20108 40164 52006 87600 333 00551
70007=
57816 32575 72204 10222 20184 38742 40051 52014 86830 333
00101=
53362 32980 32901 10172 20090 40101 52006 80002 333// 00202=
53664 32968 81407 10202 20180 40079 52006 8807/ 333// 00351=
53782 11956 80902 10188 20145 40136 52007 69901 71060 8801/
333// 00552 79999=
54429 31950 00901 10216 20183 40142 54000 71000 333// 00503=
54623 31758 70705 10200 20157 40145 52009 71000 82442 333
00551=
54705 32962 70205 10208 20165 40123 52004 85032 333// 00500=
54736 31925 80903 10187 20177 40127 52005 71000 8802/ 333//
00551 79999=
54824 31920 83602 10210 20193 40110 52001 71000 8802/ 333//
00452=
54936 32660 70404 10198 20169 40121 52003 875// 333// 00300=
57091 31556 80405 10204 20183 40087 52013 71000 8572/ 333//
00353=
52323 32980 72002 10175 20015 38188 52005 81042 333 00101=
53614 11765 82903 10184 20103 38830 40035 52008 69901 78000
85937 333 05151 79999=
53723 32965 71104 10209 20100 38593 40021 52007 8703/ 333
00000 79999=
57036 11962 70403 10208 20188 39587 40036 52003 60051 72160
8703/ 333 00355 70047=
52533 11970 82503 10132 20109 38494 40081 52014 60051 76060
8802/ 333 00454 70053=
52787 32780 70000 10081 20047 37018 52002 86902 333 05151
70020=
52996 11/00 91404 10086 20086 37530 52003 60021 74564 333
05151 70019=
53705 11965 81403 10218 20092 40010 52007 69901 76000 8802/
333 05104 79999=
57016 11960 82701 10174 20163 40045 52013 60091 76060 8802/
333 00357 70089=
52836 32980 70000 10089 20000 36911 52012 80002 333 00251
30000=
51886 32980 60000 10060 21024 37119 52007 80002 333 00155
30019 79999=
52602 32980 13403 10049 21029 37278 52010 80002 333 00354
31001=
52713 32980 00000 10041 20009 36924 52012 333 00356 31045
70014=
52436 11965 71409 10173 20056 38415 40028 52020 69901 70060
81032 333 00302 79999 91117 91509=
56018 11570 80000 10035 20027 36216 52011 60021 76086 8372/
333 00452 30040 70062=
56021 32780 70000 10026 21003 36111 52005 875/2 333 00202
30011 70028=
52737 32780 10701 10070 20041 37084 52005 81500 333 00355
30021 70096=
53698 31958 73602 10220 20152 40141 52013 71000 8703/ 333//
00501 70001=
56146 32780 60000 10096 20068 36744 52012 86800 333 00200
79999=
56172 11780 20000 10122 20112 37329 52005 60081 70086 82400
333 00001 70083=
56247 32980 10000 10149 20067 37399 52009 81040 333 00001=
56444 11568 70000 10095 20085 36816 52004 69911 78080 871//
333 00100 70001=
56462 32680 53201 10104 20090 37133 52009 83440 333 00151
70006=
56691 32480 62206 10170 20137 37749 52013 86640 333 00100
70009=
56739 32478 13601 10172 20159 38315 52007 81601 333 00001
70003=
56964 32572 60000 10208 20187 38663 40062 52001 84142 333
00151 70011=
56985 32580 61603 10221 20174 38670 40064 52011 85442 333
00200 70001=
57902 32580 71406 10217 20176 38591 40059 52015 875// 333
00201 79999=
58921 31957 23402 10258 20229 39897 40131 52028 71000 82040
333 00300 79999=
84455 22253 00276 20503 322// 41004 80257=
86500 22243 00210 20401 32230 40706 50403 80190=
81100 22263 00140 20201 322// 40402 5//// 80120=
56079 11780 70000 10083 20071 36688 52008 60031 70080 875//
333 00001 70137=
56144 11780 70000 10125 20065 36860 52006 69901 71006 875//
333 00163 70005=
56152 11480 71102 10055 20053 36335 52010 60011 78080 879//
333 00252 30003 70047=
56167 32980 00000 10103 20078 37086 52015 333 00252 30049
70005=
56173 11980 22202 10091 20061 36655 52007 69911 70080 82042
333 00101 70098=
56182 11480 70000 10122 20098 37171 52003 60021 70060 875//
333 05102 70121=
56257 32680 21602 10084 20026 36302 52008 82400 333 00151
30011 79999=
56357 32680 60202 10088 20036 36471 52008 86402 333 00100
30016 79999=
56374 32680 10000 10147 20109 36391 52006 81100 333 05102
79999=
57707 32675 21604 10232 20167 38427 52010 81102 333 00000=
57731 32580 21802 10288 20210 40036 52010 82800 333 00006=
57832 32575 82003 10254 20207 40055 52012 888// 333 00103
79999=
57916 32680 70000 10262 20232 40066 52015 87500 333 00202=
57922 11561 81403 10213 20203 40079 52018 69971 76060 887//
333 00101 70018=
57932 11576 72203 10257 20226 40068 52016 69901 76060 875//
333 00103 79999=
57516 31920 00000 10234 20212 39707 40000 52008 71000 333
00000 79999=
57348 32770 80202 10238 20202 40018 52005 885// 333 05203=
57426 11862 72201 10252 20225 49996 52013 69901 70098 875//
333 05102 79999=
57633 32567 70000 10224 20214 39310 40046 52013 8113/ 333
00003 79999=
44210 32999 30000 10137 20021 38424 51024 80001 333 20101
555 30068=
44217 32698 40000 10064 20064 37856 40168 53006 82544 333
20047 555 30017=
44229 32599 70000 10099 20019 37914 40092 53010 87500 333
20067 555 30035=
44263 32998 20000 10084 20021 38013 40108 52009 80004 333
20051 555 30025=
44286 32998 11605 10228 20030 38612 40055 53008 80004 333
20186 555 30(( (
44348 32997 00000 10200 20111 38688 40099 54001 333 20135
555 30084=
44386 32999 20705 10214 20073 39004 40083 53002 80004 333
20152 555 30134=
53083 32980 00402 10192 20040 40139 52007 333// 00303=
54226 32970 01601 10217 20136 40148 52006 333// 00503=
54311 31956 00000 10162 20116 40156 52005 71000 333// 00501=
54534 32980 00703 10225 20142 40147 52005 333// 00502=
54587 31/20 92202 10147 20129 40115 52005 74740 44444 00554=
54715 32965 00406 10205 20173 40119 52003 333// 00400=
54929 31940 81104 10190 20165 40108 54000 71000 8807/ 333//
00200=
54945 11/01 90704 10164 20162 40127 57001 69941 74754 333//
00200 70004=
57193 11661 80902 10242 20229 40069 52016 69981 70060 885//
333// 00202 70008=
53195 32980 00903 10196 20083 40131 52010 333// 00301=
54624 32965 70405 10214 20152 40141 52009 8703/ 333// 00500
79999=
54774 31/03 90403 10156 20153 40142 52003 74740 333// 00553=
58005 11957 80704 10225 20210 40076 52006 69931 76060 8802/
333// 00100 70003=
84200 22265 00300 20303 311// 40504 5//// 6//// 80261 ICE /////=
70200 822// 22274 00278 20600 308// 40601 80267=
59626 11567 71804 10282 20254 40076 52012 69901 70080 86902
333// 00101 70012=
57522 31930 03201 10264 20225 49997 52013 71000 333// 05105=
54339 31958 22901 10205 20155 40160 52010 71000 80002 333
00602 79999=
59446 11578 41403 10285 20247 40087 52016 69971 70080 83202
333// 00201 70020=
54171 32970 20000 10187 20141 40159 52008 80002 333// 00600
70011=
54041 32670 41603 10230 20137 40140 52007 84800 333// 00502=
54142 32970 20000 10225 20158 40151 52010 80002 333// 00503=
54285 32570 20000 10177 20127 40163 52005 82100 333// 00604=
50948 32570 70000 10218 20144 40152 52001 82102 333// 00603=
54263 31966 00000 10176 20153 40157 52008 70040 333// 00501
70020=
54266 32970 00000 10201 20160 40158 52004 333// 00602 70007=
54181 31556 50000 10148 20136 40170 52013 71040 85600 333//
00652 70079=
54063 31962 72002 10168 20163 40128 52012 70040 80002 333//
00655 70310=
54363 32661 70000 10156 20142 40165 52005 875// 333// 00651
70019=
54195 32568 52002 10156 20131 40155 52007 85600 333// 00301
70040=
59954 11575 71404 10293 20248 40081 52013 69921 70080 82202
333// 00301 70014=
54351 31959 01101 10185 20163 40168 52005 71040 333// 00601=
89009 41548 80214 11515 36958 52017 77672 8801/
333 11512 21537 88430=
89664 32861 82704 11100 21120 39672 49712 57021 60011 77122 8807/
333 11100 21220 56/3/ 59240 88358 90952 91533=
76256 32480 11803 10304 20213 30083 40099 57012 81200 92350
333   10320 20229 30/// 50960 56300 58026 70000 81810=
76577 01570 70000 10194 20179 38036 40101 87002 60161 70296
87500 92340 333   10265 20146 32/// 50570 56100 58016 60147
70201=
76687 32562 81602 10210 20181 38651 40130 57006 883/1 92338
333   10267 20165 31/// 50520 563/6 58017 70000 81924 83823
83623=
76737 01480 13601 10195 20181 38775 40135 55004 60101 76096
873// 92344 333   10262 20135 31/// 50220 562// 57992 58018
60107 70158 84714 82626 81926 91302 91599=
76741 31456 43603 10302 20246 30100 40120 57001 70444 849//
92350 333   028// 10314 20250 30/// 50210 58024 84818=
91408 12474 21106 10301 20246 30052 40090 52007 60054 81131 333
20244 56222 59002 70046 555 90200=
91376 32474 50814 10295 20248 30103 40107 58003 83801 333 20267
562/9 58017 555 90200=
91413 11469 81107 10302 20255 30075 40094 52010 60034 70282 83276
333 20222 56299 58002 70030 555 90200=
16597 32962 00000 10192 20177 30106 40192 55005=
91334 11259 81010 10270 20263 30093 40096 50007 60454 78086 8632/
333 20243 5629/ 59009 70455 555 90200=
330089 330089 330089 331089 330087 330086=
57007 70200 811// 22200 01023 20000 81003=
57562 32570 60000 10284 20243 40037 52011 81142 333// 00003
70254=
54326 32980 00000 10210 20145 40148 52003 333 00502 79999=
54454 32965 20000 10200 20164 40155 52006 80002 333 00504=
54335 32961 01804 10212 20161 40148 52010 333 00503=
51573 11980 70000 10260 20130 39950 49992 52008 69901 70080
81032 333// 05252 79999=
52707 32980 22503 10081 21019 37270 52006 80002 333 00254
31005=
56151 32480 70000 10077 20053 36635 52008 87500 333 00151
70061=
57608 31925 80000 10246 20217 49998 52007 71000 8807/ 333
00001=
59228 11580 71801 10270 20241 40085 52012 69921 70060 878//
333// 00101 70038=
57671 32964 71805 10271 20232 40056 52014 8703/ 333// 00001=
57682 32980 02002 10293 20226 40077 52014 333// 00105=
57965 11763 82204 10248 20235 40095 52021 60011 76060 8757/
333// 00200 70015=
57669 32680 20000 10258 20239 40056 52013 81142 333// 00002
70002=
59242 32762 71401 10272 20246 40083 52011 87500 333// 00151
70074=
57947 11565 70000 10266 20243 40087 52011 69901 72160 878//
333// 00101 79999=
54237 32960 02502 10217 20129 40153 52009 333 00503=
54365 31559 80000 10158 20142 40175 52006 71040 886// 333
00652 70009=
53543 32980 71603 10180 20091 38520 40077 52006 82032 333
00151=
54646 33975 70709 10162 20139 40142 52010 8703/ 333 00552=
59453 11568 70902 10277 20246 40096 52016 69911 72500 87432
333// 00200 70005=
59218 11562 71403 10234 20219 40073 52009 69921 70080 878//
333// 00100 70002=
54213 32980 00000 10221 20120 40141 52009 333// 00404=
54134 32970 21801 10220 20143 40137 52005 82032 333// 00403=
50514 32980 00000 10196 21009 40148 52002 333// 00102 30030=
50434 32980 00000 10114 20028 39318 40170 57003 333// 00204
31014=
50425 32980 00000 10153 20042 40164 52003 333// 00201 30026=
53882 31958 73603 10190 20140 40089 52002 71000 8703/ 333//
00454=
53868 11940 80402 10223 20169 40068 52006 69951 76260 8802/
333// 00555 70005=
53663 32975 71406 10191 20101 40079 52008 80002 333// 00302=
56137 32780 60000 10109 20069 36799 52006 82440 333// 00002
79999=
56116 11580 70000 10074 20051 36346 54000 69921 72180 875//
333// 00100 70003=
56223 32680 20000 10098 20055 36530 52005 82400 333// 00104=
56331 32680 70000 10091 20033 36420 52003 81142 333// 00102=
59849 32580 21403 10271 20237 40081 52015 82102 333// 00302
70110=
52765 11675 72701 10075 20058 37162 57003 60031 72166 875//
333 05100 70121=
56034 32680 70000 10011 21017 35948 52003 875// 333 00301
31010 70022=
59298 32663 40703 10288 20251 40109 52010 82241 333 00200
70018=
59478 32575 21403 10296 20245 40104 52012 82102 333 00202
70084=
57996 31658 40000 10259 20240 40112 52016 71000 81140 333
00253 70017=
59271 31558 52901 10264 20247 40105 52017 71000 83442 333
00200 70059=
59317 32570 71102 10293 20254 40117 52013 82202 333 00201=
50349 32970 22003 10131 20028 40147 57009 80001 333 00251
30012=
50742 32963 13204 10219 20091 40138 52001 80002 333 00303=
50862 31508 80000 10127 20123 40146 52003 74240 886// 333
00455 70074=
50758 32970 12903 10217 20052 40142 52004 81030 333 00504=
50656 32973 03401 10199 20058 40131 57001 333 00302 30047=
53821 11965 81402 10173 20155 40033 52009 60011 76060 8807/
333 00154 70013=
52984 11757 80000 10144 20134 38023 52005 60031 72166 885//
333 05101 70033=
57405 32970 80000 10216 20194 40012 52010 8807/ 333 00052
70009=
50775 32568 13202 10183 20088 40127 52004 81130 333 00101
70023=
57649 32962 32901 10257 20229 40056 52012 82042 333// 00002
70033=
57583 32966 72003 10293 20221 40049 52009 86032 333 05103=
54606 32962 70205 10201 20158 40130 52007 8703/ 333// 00500
79999=
51811 32960 60000 10165 20080 38719 40041 52035 81032 333//
00300=
51839 32968 02201 10154 20065 49959 52002 333// 05354=
51931 32965 20000 10139 20078 49981 52008 80002 333// 05300=
50936 32670 72002 10221 20130 40146 52010 85402 333// 00502=
54292 32980 01801 10187 20139 39943 40152 52008 333// 00304
79999=
54276 32960 03202 10178 20131 40156 52005 333// 00506 79999=
54563 31956 21602 10183 20156 40151 52001 72840 80002 333
00502=
57355 31550 82201 10229 20217 40039 52010 71000 8557/ 333
05102 70032=
57458 11465 83203 10212 20209 40049 52011 69911 78000 889//
333 05104 70033=
56312 11480 70000 10110 20100 37085 52009 69921 78080 874//
333// 00251 70009=
56434 11480 60000 10142 20132 37672 52003 60011 70060 86800
333// 00100 70019=
56227 11375 80000 10108 20101 37311 52004 60031 78080 889//
333// 00100 70071=
56317 41470 70000 10108 20101 37126 52008 78080 874// 333
00100 70024=
54776 11/00 91404 10144 20144 30092 40149 52008 69921 74554
333 00501 70002=
53738 11970 81103 10195 20152 40031 52001 69901 70060 8802/
333 00154 79999=
53740 11960 81104 10200 20134 40058 52012 69901 70060 8807/
333 00200 79999 91117 91514=
57037 11965 80905 10219 20170 40033 52010 60011 76060 8807/
333 00353 70010=
56459 32780 40000 10179 20099 37620 52018 82160 333 00151
70003=
56565 32580 42701 10169 20099 37473 52012 81102 333 00152
79999=
56475 32670 70000 10178 20163 38253 52006 81402 333 05151=
56485 31557 71401 10202 20179 40000 52008 71000 8344/ 333
05101=
59065 11570 72901 10267 20244 40101 52021 69901 78080 878//
333// 00251 70348=
52267 32780 70903 10213 20003 39004 40019 52008 82402 333//
05101=
52495 32980 80906 10213 21005 38616 40021 52010 8802/ 333//
05100=
53502 11662 70404 10194 20013 40029 52010 69901 79500 86902
333// 05251 79999=
53602 32680 71803 10219 20042 38379 52014 875// 333// 00000=
52576 11980 83601 10147 20127 38435 52015 60041 76066 8802/
333// 00257 70037=
52378 32780 70703 10199 21057 40031 52005 879// 333// 05101=
54449 31956 00902 10201 20166 40148 52005 71000 333// 00502=
53391 32980 01404 10145 20099 38527 40137 52005 333// 00300
30045=
53149 32980 50403 10185 20052 38760 40087 52003 80002 333//
00101=
53336 32980 70902 10208 20045 38676 40053 52002 80002 333//
05101=
53529 11665 81407 10172 20125 38580 40053 52010 69941 76060
8272/ 333// 00052 70004=
59021 11460 82702 10250 20228 40073 52013 69921 76096 888//
333// 00102 70007=
53192 32980 01103 10186 20050 38916 40156 52011 333// 00404=
50915 32580 60000 10185 20028 39207 40146 52004 81932 333//
00403=
54012 32980 01101 10167 20094 39048 40160 52008 333// 00505=
59321 32580 70000 10278 20256 40125 52015 82202 333 00200=
59754 32472 41403 10278 20257 40079 52011 81202 333 00200
70136=
59664 11475 21404 10294 20252 40092 52010 69901 70080 82100
333 00200 70008=
57313 11657 80000 10202 20199 40008 52006 60181 78098 889//
333 05152 70587=
53810 11970 81607 10202 20130 40009 52009 69901 76000 8802/
333 05100 79999=
57144 11570 80000 10179 20168 40056 57001 60141 76086 8472/
333 00151 70161=
57034 11560 80000 10203 20183 40040 52004 69941 76060 8672/
333 00254 70004=
57143 11550 80000 10185 20180 40063 52010 60211 76160 8172/
333 00252 70213=
56074 11480 42904 10084 20064 36664 52011 69981 70060 84500
333 00001 70117=
53942 11958 80000 10194 20161 40042 52004 69921 72160 8807/
333 00254 70002=
52876 32965 72703 10160 20125 38125 52008 8703/ 333 05100
70139=
52868 11775 70000 10154 20112 37734 52009 69901 70060 875//
333 00102 70001=
52661 11659 82902 10122 20117 38177 52010 60021 76066 8572/
333 00154 70016=
31004 70051=
56093 11575 70000 10122 20098 37652 52004 69971 70060 875//
333 05100 70012=
52674 11770 70000 10129 20101 37975 52013 60031 76066 86502
333 00000 70035=
52842 32975 10202 10070 20005 36984 52008 80002 333 00152
31016 79999=
56067 32680 70000 10071 20049 36542 52012 875// 333 00101
30036 70101=
52825 32980 10000 10069 20013 37255 52011 80002 333 00256
31016=
54284 32570 70000 10163 20128 40150 52006 87200 333// 00402=
54208 32980 00000 10153 20105 38783 40159 52007 333// 00403
30037=
53399 32970 01605 10164 20075 40134 52004 333// 00303=
58402 32765 80000 10239 20235 40076 52017 885// 333 05101
70229=
54871 31/01 90901 10152 20152 40144 52003 74540 333 00400=
51716 11870 70402 10173 20108 38819 40018 52003 69991 78098
82962 333// 00154 70029=
51818 31959 43203 10186 20055 40018 52045 70600 80002 333//
00201=
50853 32770 13202 10198 20091 40146 52006 81500 333 00401
70020=
78663 32665 71802 10252 20240 39434 40118 54000 70280 84972 333
06227 10300 20204 30/// 58010 82833 82940 83467 85080=
96315 15475 71903 10265 20236 40080 60034 81142
333 20235 55048 81816 87080=
78897 32575 20806 10260 20194 40174 53015 82202
333 012/5 10314 2//// 58001 79999 82821=
60101 32960 30807 10205 20174 40174 51009 80002 92352
333 83073=
60115 32560 83402 10230 20177 40175 58009 8228/
333 82823 87360=
60135 32456 21204 10172 20155 40175 52005 82600
333 82710=
60155 32956 01004 10223 20185 40170 50003=
60156 32960 00606 10204 20150 40177 50003=
60230 32960 30000 10290 20105 40157 50015 80002
333 83070=
60127 32560 50000 10269 20156 39603 40170 50005 85800
333 83826 83633=
60141 32660 32006 10240 20110 39518 40160 51007 82902
333 81833 81940 95400 95800=
60185 32960 20406 10224 20173 40159 50006 80002
333 82070=
60220 32456 30412 10175 20167 40163 51004 82600
333 82710=
60265 32965 22406 10270 21025 38929 48574 51014 80002
333 82073=
60318 32558 60806 10215 20184 40194 51012 86200
333 86820=
48698 11459 72105 10265 20245 30054 40072 60104 70522 82848 333
20248 58 02001
11036 32982 01702 10094 20075 30030 40262 58001=
11010 35/// /0702 10120 20093 39877 40251 52002=
11120 36/// /0000 10118 20111 39559 40254 52007=
11150 35/// /1302 10118 20100 39715 40248 54000=
11240 16/// /3602 10125 20097 39850 40264 52002 69911=
11816 32970 20601 10095 20055 30102 40266 55000 80001
333 55146 82070 =
11826 32970 00203 10080 20058 30067 40268 52002
333 55139 =
11903 32980 00301 10074 20040 39896 40280 52008
333 55128 =
11934 32982 02703 10048 20016 39455 42876 58001
333 55117 =
11968 32982 03601 10081 20052 39992 40275 52002
333 55069 =
11841 36/// /1001 10055 20040 39895 40276 52004
333 55114 =
11858 36/// /1702 10093 20072 30116 40268 52005
333 55149 =
11916 46/// /2005 10001 21003 38053 48562614 62349
348109 347108 348114 347111 346110 347114=
85201 31484 21009 10047 20032 36267 53014 82401
333 10144 56000 58011 82820=
85223 32584 62015 10164 20074 37463 47082 52009 81501
333 10250 56000 59009 81625 85070=
61901 16/// /1316 10169 20134 40200 5//// 69921=
61902 32584 71012 10258 20174 40165 878// 333 58012 82825 87635=
88889 11480 70511 10010 20002 40081 57011 69901 72687 875// 333
10043 81710 84615 86625 96285 96485 96468=
63980 42482 11303 10259 20232 40100 81202 918//
333 10294 59008 81818 943// 91113=
91636 11498 81910 10260 20249 4//// 60031 78092 8237/ 333 20243
5649/=
91648 31599 19903 10310 20259 40103 58005 70200 81100 333 20274
562//=
91631 31599 70705 10311 20248 40106 70322 83208 92347 333 20261
562/9=
91643 11498 80711 10253 20248 40101 58002 60431 76028 8432/ 333 20255
5
6
3
9
/
83918 88460=
78583 11456 70709 10280 20247 40140 69901 78098 86263 333
04355 10313 20255 58021 70006 86818 84075=
89054 32462 80603 11052 21068 40105 58002 84506
333 11037 21092 71106 84610 87270=
89056 32460 80217 11036 21067 40107 57008 885//
333 11028 21083 78899 88610=
89057 32460 80310 11030 21049 40109 57010 885//
333 11040 21057 71299 88617=
89058 32965 83610 11032 21063 30095 40110 57005 8802/=
89059 32660 80807 11075 21086 40135 57003 885//
333 11008 21080 72099 88640=
89251 32962 21103 11047 21081 40090 54000 80002
333 11027=
81408 06/// /0000 10237 20234 40129 60071
333 10316 58010 60017=
81415 06/// /0302 10239 20234 40131 60081
333 10309 58009 60057=
60107 11560 30000 10199 20194 40183 50000 69911 70196 83800
333 82816 95310=
76373 11488 70302 10240 20120 38193 40086 56005 69907 71695
83932 92345 333   10302 20138 30/// 50630 56333 58012 79999
83912=
76390 01557 80703 10222 20147 38237 40082 52005 69901 76064
8457/ 92340 333   10273 20175 30/// 50590 5661/ 58040 69907
70093=
76402 31958 02302 10304 20161 30047 40107 57004 70544 92342
333   10340 20136 30/// 50750 58014 70000=
76405 32981 01804 10318 20149 30078 40098 55013 92346 333
10357 20156 30/// 50780 58027 70000=
76412 31966 02204 10306 20189 30106 40146 57002 70544 92340
333   10340 20220 30/// 50780 58041 70000=
76458 32570 12804 10296 20223 30081 40091 57017 81300 92350
333   00100 10318 20250 30/// 50650 57919 58020 70000 81930
=
76471 01580 60905 10188 20128 37705 40078 57008 69901 70152
82406 92345 333   10215 20103 31/// 50170 56102 58022 69901
79999=
76491 32556 70901 10318 20212 39734 40124 57006 81109 92345
333   00509 10362 20242 30/// 50700 58021 70000 81840 86177
=
76539 31968 70706 10226 20137 38116 40039 57003 70544 87010
92346 333   10282 20140 30/// 50680 56050 58021 70000 87460
91109 91507=
76640 32556 20702 10314 20247 30117 40147 55008 82100 92355
333   002// 10350 20230 30/// 50450 58022 79999 82821=
76656 01575 80000 10195 20166 38509 40092 53005 69931 75062
8152/ 92348 333   10280 20150 31/// 50270 5639/ 58028 69936
70023=
76683 01650 80000 10180 20141 37815 40089 54000 60101 72986
88900 92350 333   10264 20129 32/// 50510 56200 58017 60106
70102=
76685 31560 81403 10214 20116 37862 40047 53004 70444 84236
92350 333   10248 20124 30/// 50480 56946 58016 70000 84824
82358=
76723 32965 72201 10270 20185 30073 40103 57013 80007 92340
333   10284 20218 30/// 58011 87280 92301=
76726 31458 83601 10259 20160 38384 40061 55005 70544 882//
92355 333   10298 20167 31/// 50340 56700 58016 70000 88815
=
76743 31659 23601 10322 20223 30106 40126 55003 70100 82200
92350 333   012// 10340 20238 30/// 50390 58017 70060 82840
=
76773 32570 60502 10246 20138 38393 40130 52001 82435 92339
333   10291 20170 30/// 50461 56399 58015 70000 83620=
76393 32562 71202 10312 20209 39529 40091 57013 83243 92350
333   02355 10328 20228 30/// 50740 58022 70000 82833 81634
83075=
76499 31958 01402 10323 20216 30101 40131 57007 70544 92345
333   10353 20240 30/// 50780 58021 70000=
76519 11560 50000 10244 20146 38340 40083 57015 60018 71722
82306 92345 333   10264 20176 31/// 50300 56206 58009 70022
82928=
76556 32566 62705 10268 20230 39069 40058 57012 83230 92331
333   01370 10300 20200 30/// 50310 58018 70000 83815 83360
=
76581 32580 20902 10284 20161 39016 40071 57025 82100 92337
333   10330 20207 30/// 50580 56200 58004 70000 82820=
76658 11558 71401 10250 20225 39625 40164 52018 69971 75042
81420 92348 333   0/180 10357 20223 31/// 50610 58036 70007
81622=
76762 01970 70000 10202 20198 38752 40100 56007 60477 75055
8702/ 92340 333   10280 20172 32/// 50590 5602/ 59015 60477
70047=
76805 32870 61503 10306 20233 30100 40100 57011 86/7/ 92345
333   0//8/ 10342 20242 30/// 50510 58002 70146 82358 84460
91205 91515=
76848 11265 70000 10180 20164 38388 40007 51005 60111 70382
8392/ 92331 333   10237 20155 32/// 50280 56199 58027 70200
83905=
13585 42698 20402 10127 20060 39454 40237 54000 82500=
13598 42998 00000 10093 20062 48525 54000=
88963 32465 11706 11081 21099 30108 40138 57003 81600
333 11079 21103 56400 81715 92407 95000
555 64172 65095=
88968 32465 81408 11050 21082 30105 40120 51007 885//
333 11047 21060 56499 88619 92417 92851 94060
555 64180 65137 DIEBEL/INV=
89053 32962 00205 11050 21094 30098 40112 58008
333 11049 21077 92417 92840 95090
555 64201 65153=
89055 31970 40206 11132 21149 39874 40134 57003 72840 80006
333 11116 21138 56000 84265 90110 92721 92843 95190
555 10111 65122 65225=
89066 32960 60000 11048 21083 30042 40051 53008 80006
333 11048 21080 56009 86260 92427 92840 95000
555 64207 65092=
89568 46/// /1424 11357 37477 4//// 5////=
89774 46/// /07// 11367 37250 4//// 5////=
91570 36/// /1610 10229 20221 30103 40106 58002
333 20217 59008=
91574 36/// /1808 10230 20148 30129 40135 50008
333 20203 58003=
91598 06/// /1324 10162 30074 40106 58013 60024
333 20133 59021 69947=
78388 11572 80607 10277 20204 40150 69911 70286 8582/ 333 01000 10280
20229 58007 81822 85630 88458 90947=
60191 32965 02402 10242 20147 40154 51007=
11028 21083 78899 88610  =
11008 21080 72099 88640=
91772 11498 30910 10285 20207 40121 69904 70210 83200   333 20238
562//=
91784 31599 60910 10255 20183 40153 70122 81107   333 20238 562/9
81820 86278=
91785 31598 50910 10268 2023/ 70122 852//   333 20234 562//=
91786 31598 70909 10262 2019/ 40157 70122 874//   333 20205 562//=
91792 31599 70709 10256 20182 40164 58015 70322 83102   333 20204
562/9 83824 87278=
83702 85705 87656=
83811 86623=
83708 83630=
91348 12474 81210 10293 20235 30049 40101 50000 60494 83271 333
20211 56219 58007 70488 555 90200=
11036 32982 01702 10094 20075 30030 40262 58001=
11927 35/69 /3001 10099 20066 30011 40273 52005
333 55094 =
11930 46/// /3106 11063 21102 37444 47127 57003 6///1
333 55025 =
11993 36/// /0000 10050 20033 30060 40281 52003
333 55021 =
11855 35/81 /0302 10088 20069 30102 40269 52006
333 55141 =
11867 35/80 /0502 10089 20053 39958 40276 52004
333 55126 =
11880 36/// /0902 10092 20076 30096 40268 52006
333 55130 =
11918 36/// /0701 10027 20015 39452 42874 52001 =
11933 36/// /3502 10017 20005 38725 48569 57001
333 55105 =
11938 36/// /0703 10045 20017 39213 42873 57001 =
11976 36/// /0402 10055 20046 30013 40281 52003
333 55043 =
11978 36/// /0302 10066 20054 30142 40274 52001
333 55064 =
12822 32970 00000 10081 20066 30119 40264 53002=
12843 32983 00000 10108 20055 30099 40269 52006=
12882 32980 00304 10121 20078 30125 40258 58001=
12925 32965 00000 10065 20063 30089 40264 58001=
12942 32965 00403 10130 20055 30016 40261 58001=
12982 32970 40401 10099 20058 30160 40261 50001 81042=
17601 32962 02608 10212 20196 40071 57012=
10004 46/60 ///11 10137 20130 30151 40151 57005
222// 00123
333 55300 91116 91213=
10015 33122 82211 10131 20124 30144 40154 58010 71022 876//
333 553// 87704 91116 91212=
10020 11259 82211 10130 20130 30102 40137 58010 69911 72065 876//
333 55/// 21191 55300 2//// 87704 91117 91212=
10035 11440 82306 10137 20137 30107 40165 58008 60021 76086 877//
333 55/// 21391 55300 87710 91115=
10055 11465 82004 10146 20139 30155 40165 57004 69901 76062 888//
333 55300 82815 88633=
10147 11560 82402 10154 20131 30159 40177 58006 69951 76062 875//
333 55300 87620=
10184 11670 82204 10165 20100 30177 40184 56004 69901 76062 885//
333 55300 88641=
10224 11660 62102 10151 20140 30176 40182 58001 69921 70262 86500
333 55/// 21171 55300 86646=
10270 11675 81703 10163 20117 30145 40199 50000 69901 70262 875//
222// 06166
333 55300 82633 87650=
10338 11780 81903 10178 20125 30110 40180 58006 69901 70262 885//
333 55300 88656 96461=
10361 11575 81802 10167 20121 30100 40201 56002 69911 70262 888//
333 55300 82826 88648=
10384 11882 81702 10170 20089 30144 40202 58001 69901 72162 875//
333 55300 87657=
10393 11681 81803 10159 20086 30088 40212 56002 69901 72162 875//
333 55/// 22401 55300 20000 30000 87641=
10400 31975 02102 10135 20115 30146 40195 50000 71100
333 55300=
10438 36/// /1902 10139 20112 39933 40210 56001
333 55300=
10469 42980 31502 10140 20097 30051 40213 56004 83030
333 55300 83360=
10488 32980 41604 10143 20079 39946 40222 58003 83051
333 55/// 22264 55300 83358=
10637 32982 30000 10142 20120 30076 40212 58006 81031
333 55300 81361=
10685 32980 01703 10112 20088 39566 40233 57005
333 553//=
10738 32984 12901 10131 20116 39760 40222 58001 80001
333 55300 81075=
10763 32982 11103 10143 20105 39851 40227 58002 81031
333 55/// 22065 55300 20000 81361=
10788 32982 71203 10129 20112 39806 40232 58001 8703/
333 55300 87363=
10852 32983 01101 10116 20099 39673 40238 55000
333 55300=
10946 32989 21102 10101 20090 39416 40242 58002 80001
333 55300 82073=
10091 11565 82309 10150 20113 30127 40177 56007 69911 75862 875//
333 55/// 22066 55300 20001 30002 87620 91113=
10113 11458 82208 10145 20133 30141 40160 57007 69911 72165 875//
333 55/// 20617 55300 87618 91114=
10129 11459 82405 10160 20144 30162 40175 58006 69921 70265 875//
222// 20000
333 55300 87618=
10131 11430 82305 10153 20134 30154 40168 56006 69961 72152 875//
333 55300 87618 91114 98030=
10170 11670 81904 10159 20123 30152 40166 58011 69911 72162 875//
333 55/// 2//// 55300 87636=
10280 16/60 /1804 10155 20112 30093 40189 58006 69901
333 55300=
10291 11780 82004 10168 20082 30138 40203 51001 69901 70262 885//
333 55300 88650=
10305 16/// /1902 10156 20147 30155 40186 56001 69981
333 55300=
10315 32880 52202 10159 20135 30129 40192 53003 83530
333 55300 83656 84362=
10348 11980 12102 10163 20116 30090 40194 58003 69901 70161 81030
333 55/// 21995 55300 81360=
10385 11884 71301 10159 20087 30146 40206 56001 69901 72162 875//
333 55300 87657=
10427 32989 02308 10126 20097 39218 48535 56004
333 55300=
10453 32886 22312 10101 20089 38901 48535 53001 82030
333 55300 82357 91122 90226 91218 90316 91218=
10474 11882 61101 10163 20098 30080 40206 56006 69901 72122 86500
333 55/// 22145 55300 20000 86658=
10490 36/59 /1904 10143 20091 30094 40214 58004
333 55/// 22264 55300 20004=
10499 32975 71904 10151 20065 39941 40224 58005 8703/
333 55300 87363=
10501 32965 01701 10139 20124 39949 40193 58011
333 55300=
10513 32986 11102 10123 20107 30082 40202 50000 80001
333 55300 81078=
10532 32975 30000 10135 20121 39977 40210 56005 82031
333 55300 55/// 21959 82369=
10544 32986 02107 10109 20090 39162 48546 57007
333 55300=
10554 11884 11906 10138 20088 39828 40209 56008 69901 70161 81070
333 55/// 22116 55300 20006 81358=
10577 32983 32106 10132 20092 39725 40221 58007 83050
333 55/// 22227 55300 20000 30000 83358=
10578 32783 12211 10092 20072 38855 48554 58004 81040
333 55/// 22193 55300 20000 30000 81356 91113 91211=
10609 32965 20000 10136 20126 39877 40200 57007 80001
333 55/// 22300 82076 =
10655 32982 21402 10136 20122 39896 40219 58001 80002
333 55/// 22311 55300 82073=
10688 32981 61501 10142 20090 39714 40228 58003 86030
333 55300 86362=
10708 32970 31501 10152 20122 39833 40211 58009 80001
333 55/// 22466 55300 83080=
10729 32682 11302 10131 20110 30091 40211 58006 81500
333 55/// 22445 55300 81640=
10776 32980 71502 10150 20103 39800 40236 58002 8707/
333 55300 87363=
10803 32984 31204 10180 20103 39866 40217 58002 81031
333 55/// 22833 55300 81360 83075=
10836 32988 21803 10150 20101 39369 40214 58003 81032
333 55300 81361=
10929 32982 00201 10142 20136 39703 40227 51001
333 55/// 22669 55300=
10961 32989 12708 10026 21005 37184 47172 55000 80001
333 55300 81066 91113 91211=
10962 32989 11503 10145 20074 39114 48571 57006 81031
333 55300 81362=
48004 32460 60000 10249 20233 86900 333 20240 56500=
48008 32540 70000 10254 20233 40048 83931 333 20245 56650 58015=
48010 22540 80000 10250 20233 40043 83832 333 20225 56599 59016=
48019 32556 10000 10250 20219 40039 83001 333 20242 56009 59007=
48025 32456 73204 10258 20246 40032 84870 333 20248 56650 58006=
48035 32557 70000 10219 20205 40031 84961 333 20212 56779 58007=
48037 32456 70000 10280 20250 40023 85870 333 20257 56440 58002=
48042 32557 71301 10265 20233 40036 84962 333 20258 56599 58008=
48045 32964 10000 10196 20150 80009 333 20187 56009=
48053 32450 61801 10260 20229 40038 82551 333 20254 56449 59001=
48060 21420 80000 10230 20214 40037 75165 8592/ 333 20214 5656/
58008=
48062 31558 60901 10260 20260 40024 71796 84970 333 20243 56290
58001=
48077 21458 80000 10280 20246 40042 70255 85970 333 20258 56490
58008=
48097 31457 82701 10250 20241 40044 70552 84976 333 20242 567499
58008=
48112 21396 82705 10235 20233 40076 75365 887// 333 29239 565//
59004=
91203 11469 80911 10287 20250 30094 40094 52010 60064 70362 84977
333 20250 56299 70081  58004 84916 86368 88278 555 90200
91317 11469 80000 10256 20248 30098 40102 51014 60384 70282 82378
333 20206 56999 70378 58014 82915 83365 88279 555 90200
11101 36/// /1201 10140 20132 39706 40221=
11022 36/// /2801 10138 20024 39865 40249=
11130 36/// /0000 10118 20107 39660 40242=
11157 32970 09901 10098 20088 39493 40257 51009=
11172 32770 50000 10094 20059 54000 85500 333 85650=
11204 36/// /2901 10111 20098 39476 40256=
11231 36/// /3101 10117 20089 39702 40266 52006=
11423 32985 79902 10127 20082 39369 42856 57005 87070
333 55100 87360=
11464 32982 12410 10107 20072 39269 42855 58002 80001
333 55124 81077=
11487 32985 20000 10101 20089 39630 40249 58003 80001
333 55126 82073=
11518 32984 22003 10108 20071 39807 40244 58003 81041
333 55119 81365=
11659 32580 11004 10101 20053 39625 40262 50001 81400
333 55100 81626=
11782 32775 12101 10065 20045 39953 40272 58002 81501
333 55140 81656=
15004 32570 70000 10094 20077 39917 40251 51003 87300=
15020 32562 82907 10127 20114 30041 40236 51002 8457/=
15090 01560 83208 10121 20113 30096 40222 58002 60031 70282 8492/ 333
60037=
15108 31/01 92706 10002 20002 38141 48557 54000 74544=
15120 32660 22302 10088 20068 39758 40254 51003 81540=
15150 32560 73605 10126 20103 30004 40233 52003 85360=
15200 32970 03603 10116 20062 30105 40247 54000=
15260 32565 80000 10118 20088 39712 40238 58003 8537/=
15280 31/05 83612 11020 21020 37540 47087 52002 74144 883// 333 41998
91118=
15292 32965 00000 10080 20062 39968 40263 54000=
15310 32970 32907 10132 20105 30124 40208 52004 82041=
15346 32962 00000 10152 20064 39942 40225 52007=
15350 11960 43602 10145 20111 30100 40216 54000 69921 70161 84060=
15360 32980 33409 10177 20109 30167 40178 54000 83030 333 92438=
15410 32960 00000 10133 20081 30124 40219 51009=
15420 01960 33200 10109 20109 30102 40212 57003 60151 70198 83030 333
69927 91001 91201=
15450 11960 00506 10126 20126 39986 40220 53004 69911 70198=
15460 32560 83603 10147 20105 30187 40211 51003 8557/=
15470 32960 00000 10133 20133 30093 40218 52008=
15480 32960 73208 10160 20133 30177 40193 53002 87070 333 92427=
10548 32980 01603 10120 20095 39685 40222 58005
333 55/// 22096 55300 20006=
26038 42598 21902 10059 20050 30166 40212 58007 82500   555 10003=
26115 42998 51904 10090 20084 30191 40205 58005 85030   555 10008=
26135 42997 02001 10054 20042 30142 40223 52002   555 11004=
26215 42997 22104 10098 20070 30213 40218 57001 80001   555 10008=
26231 42997 02003 10102 20070 30220 40229 54000   555 10008=
26242 42997 02102 10068 20045 30149 40236 51002   555 11006=
26045 42598 11902 10053 20041 30218 40223 57002 81900   555 11006=
26141 41997 22001 10039 20032 40226 52001 71100 82040=
17600 32965 03404 10164 20134 30063 40079 57014=
17609 31956 00000 10209 20181 30072 40074 56011 71000=
17128 11670 21604 10134 20077 39040 40082 56007 60061 70191 82100
333 82840=
17022 11560 73505 10153 20143 40150 58001 60071 79582
85960 333 82926 83832 87358 92447=
83836 85360 92428=
17038 32670 21602 10162 20148 40129 57011 82100 333 82835 92428=
17050 32670 63603 10144 20130 40192 53002 82270 333
82835 86360=
17060 11560 70314 10150 20134 40167 53002 60041 78088 85270
333 85830 87359=
17096 32970 00000 10062 20036 38229 48487 57003 333 10097=
17124 11665 52809 10132 20114 39240 40112 51001 60021 70298 83230
333 83835 85360=
17170 32670 30000 10096 20060 38328 48494 58002 83100
333 83835 10104=
17195 32970 00504 10102 20038 38938 48485 57010 333 10096=
17200 32970 02103 10148 20086 39141 40072 57006=
17219 32565 33620 10192 20123 40128 55005 81130
333 81830 83360=
17244 32970 43608 10180 20096 38947 48478 56009 84030
333 84360 10055=
17280 32970 03503 10190 20065 39310 40053 56001=
17350 32960 00204 10184 20145 40085 57004=
17034 32970 51803 10172 20156 40124 56010 85030 333
85360 92428=
17190 32670 33504 10136 20102 39000 48494 51002 83100 333
83835 10097=
17234 32970 02702 10202 20170 40095 57004=
17370 32965 01602 10224 20179 40082 58004
333 92417=
17070 11565 30503 10116 20109 39284 40117 50000 60211
72998 83200 333 83833=
17084 31970 00403 10156 20113 39230 40093 58010 70190=
17098 32970 00704 10090 20066 38210 48501 57008 333 10117=
17150 32660 70111 10154 20123 40157 52006 85250 333 85835 86359=
17160 32970 03603 10135 20086 38979 48481 57010 333
10082=
17210 32975 00000 10202 20109 39078 40042 58002=
17260 32970 00000 10188 20067 39281 40043 58009=
17290 32970 03410 10221 20196 40101 57008 333 92438=
17056 11670 63304 10151 20141 40179 56003 69901 70282
84230 333 84835 86360 92418=
17116 11660 60108 10158 20140 40149 53003 69911 70292 84250
333 84835 86360=
17202 32970 02804 10130 20062 39100 40079 54000=
17092 32670 20000 10138 20122 38820 48472 58002 82100
333 82840 10074=
17112 32670 50208 10160 20150 40186 52010 82250 333
82835 85360 92418=
17115 11457 70118 10158 20104 40165 52005 60031 78082 86270
333 83710 85830 87360=
17188 32970 03404 10146 20102 39085 40095 58005=
17292 32970 03201 10190 20107 39365 40077 57008=
17300 32565 30601 10214 20178 40073 57013 83200 333 83830=
17330 32970 03402 10198 20150 40069 57008=
17085 32965 20000 10151 20112 40100 55000 82030 333 82360=
17205 32980 00000 10110 20075 38324 48487 56006 333 92418 10084=
17042 32970 00903 10160 20144 40130 57012 333 92428=
17074 11560 81403 10140 20132 39218 40111 56002 60081
79591 8692/ 333 82930 84833 88458=
17140 32965 00603 10147 20097 38672 48471 57015 333
10068=
83840 85360 92437=
17203 32970 00000 10154 20085 38840 48518 54000 333
10108=
17237 32670 63104 10197 20131 40101 54000 83250 333
83840 86360=
17250 32975 00603 10140 20094 38772 48480 57004 333
10078=
17270 32970 03002 10226 20101 39448 40045 57005=
17375 32975 00000 10205 20182 40074 57016 333 92408=
12250 32698 61502 10125 20029 30151 40239 58008 86500=
12295 32970 00000 10042 20035 30075 40264 52004 =
12330 32965 21603 10122 20070 30126 40233 56003 82030=
12424 32999 01402 10080 20060 30091 40245 57007 =
12205 32570 62005 10156 20078 30191 40199 58002 86500=
12465 32965 21201 10087 20065 30025 40259 58004 80001=
12560 32998 00000 10076 20055 39926 40274 50001 =
12105 32598 81603 10161 20112 30156 40196 57009 885//=
12195 32970 10000 10042 20033 30029 40261 54000 80001=
12270 32997 21401 10083 20054 30073 40256 58001 80001=
12300 32565 81701 10143 20092 30126 40214 57002 885//=
12360 32998 41402 10086 20053 30120 40254 58002 80008=
12400 32984 71502 10137 20075 39994 40225 57005 8705/=
12435 32960 01503 10107 20078 30077 40248 57004 =
12495 32997 00000 10060 20049 39975 40271 53001 =
12510 32798 62208 10049 20018 38440 48556 58005 83078 =
12570 32997 00000 10042 20035 39953 40277 50002 =
33135 42997 43304 10114 20085 30025 40201 54000 80001=
33317 42999 03501 10089 20082 39907 40243 52010=
33345 41970 03102 10123 20093 30003 40204 58001 70281=
33506 42597 73403 10136 20111 39967 40157 52002 87500=
33658 41997 73206 10117 20089 39951 40247 52004 70282 87030=
33711 42960 73104 10141 20113 39969 40172 58002 87030=
34300 42597 83405 10141 20117 39956 40140 57004 883//=
34519 42960 20000 10158 20155 39868 40132 54000 82030=
34601 41997 63506 10160 20142 40135 54000 70381 86030=
57003 70000 80/// 92353
555 781// 0/003=
60715 32458 13404 10201 20182 30195 40200 50000 81100
333 55134 81813=
60725 32960 00000 10184 20141 30039 40206 50000
333 55115 22927 30166=
60735 32960 00000 10225 20130 30126 40206 52001
333 55130=
60760 32558 21117 10256 20120 30058 40161 51007 82200
333 55129 82826=
60765 32958 20000 10223 20197 30190 40196 58003 80002
333 55126 22990 82073=
60769 32958 30000 10220 20192 30185 40190 58002 80002
333 55133 23135 83070=
11406 32970 10000 10108 20089 39679 40238 58002 81040
333 55067 81360=
11457 32982 32102 10086 20061 38966 48567 58004 81041
333 55084 81360 83070=
11636 32980 01401 10106 20042 39582 42868 58001
333 55135=
11679 32965 20000 10091 20043 39773 40262 50000 80001
333 55132 82073=
11723 32980 10601 10100 20062 39963 40261 50000 80002
333 55135 81070=
11766 32982 01902 10104 21003 39380 42870 58004
333 55102=
11774 32980 11601 10076 20048 39989 40264 55001 80001
333 55138 81073=
11787 32986 11402 10055 21012 38756 48572 58001 80001
333 55100 81070=
12230 32960 22002 10130 20081 30128 40217 58012 80002=
12399 31996 00000 10056 20052 30092 40263 51002 71000 =
12418 32998 51602 10109 20074 30120 40234 57005 85050=
12469 32998 21402 10067 20044 30030 40264 57002 80001=
12540 32997 11801 10079 20065 30011 40264 58003 80001=
12566 32970 00000 10076 20051 39981 40273 51001 =
12625 32980 00000 10027 20013 39272 42876 57004 =
12690 31904 01501 10052 20050 39769 40287 51001 74611 =
12200 11575 72002 10173 20090 30183 40189 57005 69901 70282 875//=
12272 32970 11702 10046 20033 30083 40254 56004 80001=
12280 32965 12001 10095 20067 30093 40255 56002 80001=
12285 36/// /0000 10054 20054 30142 40259 54000 60031=
12345 32970 01503 10098 20051 30105 40249 58004 =
12415 32998 62102 10120 20088 30082 40233 57009 86030=
12455 32965 11603 10092 20062 30011 40257 58003 80001=
12497 32965 02701 10057 20049 30044 40267 50002 =
12500 11670 70000 10096 20073 39829 40245 58005 69901 76011 865//=
12530 32997 01301 10088 20062 30056 40256 58004 =
12580 31960 00000 10044 20037 30026 40277 54000 71111 =
12585 32998 02602 10098 20053 30006 40273 52002 =
12600 32982 01004 10099 20065 39784 40266 58001 =
12650 32984 02405 10004 21019 38070 48572 57003 =
12660 32970 00000 10057 20040 39922 40286 51002 =
80403 32465 40706 102771 02004 99434 10078 46/// /3503 10200 20190 40221 57002
22200 00191 10401 70004=
64400 31920 00000 10214 20212 30095 40115 71044
333 0//00 58000=
64450 32958 02606 10235 20217 39744 40094
333 0//00 58006=
68994 12598 42504 10018 21043 30158 40186 52017 69921 83570
333 10040 20008 91012 555 20002 91018=
71892 31580 72914 10152 20108 30159 40164 57026 71522 82393
333 10169 20096 70000=
80407 32460 43608 10287 20236 30020 40101 84500 333 10344
30/// 56900 58010 84616 1010=
80410 32960 51101 10241 20155 39436 40119 80007 333 10290
30/// 56009 59004 1015=
80413 32460 20000 10251 20186 39611 40098 82500 333 10304
30/// 56900 58003 82616 1012=
80415 32460 70702 10266 20243 30079 40133 875// 333 10311
30/// 569// 58006 87616 1013=
80419 11308 80506 10225 20191 30099 40108 60051 79126 8382/
333 10290 32/// 5699/ 58018 83810 85458 1010=
80421 32460 60607 10269 20230 30114 40136 82875 333 10315
30/// 56299 2 5//// 6//// 80180=
41198 72717 10230 20222 40110 52010 70322 87496
22264 00230 20505 327// 40806 80210=
41598 30613 10270 20249 40157 52007 70100 82301
22234 20201 314// 40701 5//// 80255=
41697 41113 10285 20251 40150 52005 70111 84141 90000
22283 00280 1//// 20401 309// 40602 5//// 6//// 80260=
71966 72680 74500 75157 76904 77001 05262 07210 10095 11134 12334
14863 18000 19000 23101 35049 36078 50057 51000 52000 70080 71966
72679 73129 76950 77002=
80099=
62120 02004 99564 10021 46997 ///// 1//// 20103 40064 57005 22200
80120=
62103 02004 99499 70029 46/98 /1908 10121 20112 40189 52004 22200
00120 11003 70016 555 05006 07188 10041 11065 12421 13420 14942
15590 17157 35098 36061 05005 07210 10056 11071 12424 13419 14932
15592 17160 35098 36065=
62301 02003 99523 70045 46/// /2113 1//// 2//// 40138 22200 00142
10603=
80077=
22235 23025 35074 36150 50057 51003 52009 53535 72342 73131 74012
75425 76900 80136 98001 05412 07354 12399 13412 14557 15000 18999
19999 22225 23025 35073 36148 50057 51004 52009=
84570 22284 02173 20201 336// 40606 5//// 80180=
82100 22214 02170 20201 330// 40807 80145=
80420 32460 60706 10267 20206 30111 40117 862// 333 10318
30/// 562// 58009 86813 1013=
80425 32460 62401 10298 20239 30075 40106 8251/ 333 10340
30/// 5699/ 58008 82613 84460 1010=
80426 32560 33602 10260 20226 39460 40100 83500 333 10296
30/// 56900 58002 83627 1013=
80427 32960 23102 10249 20203 39861 40116 80008 333 10304
30/// 56009 59004 1013=
80431 32560 80000 10261 20211 39605 40077 81507 333 10307
30/// 56909 59004 81624 87280 1010=
80475 32560 20000 10215 20164 39763 40138 82700 333 10266
30/// 56900 59002 82720 1014=
51186 32980 63202 10146 20046 40055 52007 80002 333 00200
30043 79999=
51330 11780 70000 10101 20063 40070 52008 60011 70060 83532
333 00101 70012=
51346 32780 72504 10195 20066 40044 52013 82402 333 05101
79999=
40155 32560 20000 10224 20215 30067 40077 57005 82400=
40180 31109 81505 10202 20194 30039 40086 57008 74200 88600=
40199 32970 03409 10283 20108 30066 40069 54000=
30372 32999 50000 10137 20032 39291 40103 58003 80001   333 20017
55162=
30433 32999 60000 10170 20070 39523 40071 57002 82041   333 20094
55147=
30554 32998 20000 10109 20040 39095 40125 58001 80001   333 21003=
30635 32699 61504 10202 20090 39537 40058 57003 82131   333 20083=
30673 32999 30000 10116 20029 39406 40131 58004 80008   333 21002
55134=
30692 32999 00000 10134 20061 39657 40122 58002   333 21015 55155=
30758 32999 20501 10150 20053 39350 40114 58002 80001   333 20052
55157=
30802 32799 61901 10100 20059 38631 48430 58003 81531   333 20041
55109=
30823 32698 70705 10174 20051 39488 40075 52008 82931   333 20141
55146=
30879 32999 00000 10139 20071 39432 40146 52004   333 20030 55140=
30935 32999 50901 10116 20077 39247 40124 58001 80001   333 2////
55145=
30949 32999 00000 10130 20053 39097 40125 54000   333 20064 55///=
30965 32999 20603 10155 20043 39374 40146 58010 80002   333 20041
55154=
31168 31/93 90605 10043 20036 30103 40114 52007 74542 33320   040
55115 95060 55512   007 32003 7000/=
31300 32999 10303 10177 20077 39854 40121 51002 80001   333
20052=
31329 11499 61101 10112 20085 39463 40093 58001 60012 70284 85202
333 20067 55038=
31369 32998 30906 10126 20073 40100 54000 80002   333 20076 91011
91112=
31416 32699 83603 10149 20090 30006 40082 52003 83503   333 20096
55147=
31484 11597 82701 10118 20110 39767 40085 52003 60060 78182 889//
333 20103=
31510 129// 02802 10196 20051 39962 40116 53003 69902   333 20098=
31707 32999 23201 10172 20100 30028 40113 52003 82500   333 20104=
31735 12597 52506 10170 20141 39987 40069 57003 69900 85900
333 20133 84821=
38413 42998 01703 10147 21002 39864 40145 53004   555 10011=
11603 32975 21703 10133 20052 39768 40240 55003 82030 90016
333 55119 82361=
38345 42998 50000 10096 20061 38563 48466 57005 85030 333
12007=
38392 42997 00103 10164 20064 30049 40148 52007 555   10014=
38507 42996 00502 10223 20105 30011 40107 54000 555   10019=
38545 42998 00203 10155 20086 39959 40128 53002 555   10011=
38687 42996 73603 10149 20070 39882 40109 52002 85051 555
10014=
38763 42597 62706 10233 20212 30019 40117 52010 86200 333
86230 555   10023=
38880 426// 81901 10250 20085 39745 40100 58006 885// 555
10023=
38974 429// 00901 10232 20056 39762 40076 53005 86078 555
10023=
38895 42997 50304 10199 20080 39836 40112 52003 85070 555
10019=
38987 429// 21502 10200 20036 39376 40080 58004 82080 555
10014=
38911 42998 53102 10195 20076 39798 40077 53001 80002 555
10017=
38647 426// 23003 10222 20175 30081 40121 52010 82500 555
10021=
38774 428// 22702 10260 20134 39943 40125 58004 82030 555
10023=
38799 42597 40501 10210 20061 39872 40091 57003 82503 555
10019=
38806 42997 60902 10197 20050 39843 40090 56002 80002 555
10014=
38886 429// 02802 10210 20199 39889 40105 53009 555   10021=
38915 42999 53102 10222 20004 39764 40068 56001 80003 555
10021=
38750 42997 02804 10222 20186 30154 40127 52005 555   10020=
48300 32562 60000 10253 20238 39738 40041 84576
333 20240 59009=
48327 32462 70000 10250 20233 39685 40038 86706
333 20244 59003=
48331 01560 80000 10260 20251 39816 40044 60044 70296 84576
333 20250 59003 60027 70041=
48356 01462 80000 10249 20242 39853 40048 60324 72162 8567/
333 20246 58026 69916 70321=
48407 01459 81902 10246 20238 39913 40054 60294 71062 8547/
333 20238 58012 60097 70292=
48456 32560 71703 10266 20252 30031 40047 82876
333 20263 59007=
48480 01556 80000 10256 20247 30050 40054 60044 71062 85877
333 20249 58016 60025 70037=
48565 12460 82111 10272 20236 30054 40065 60234 82257
333 20239 58005 70230=
44231 32699 80000 10146 20040 38681 40059 52013 8527/ 333
20135 55119 555 30114=
44288 32699 20000 10154 20025 38164 40080 53008 82500 333
20112 555 30028=
44292 32998 00904 10189 21017 38684 40094 53010 333 20121
55129 555 30083=
44373 32999 71103 10178 20046 38492 40061 53003 83078 333
20159 55142 555 30115=
48303 01460 80000 10243 20231 39601 40047 60074 76062 8677/
333 20230 58002 69946 70066=
48328 01560 80000 10257 20245 39762 40036 60024 72162 83576
333 20254 59004 60025 70016=
48354 11460 70000 10250 20238 39837 40039 60414 70162 82776
333 20232 59001 70411=
48376 32562 80000 10270 20218 39902 40046 83536
333 20270 58005=
48379 01420 80000 10233 20228 39908 40041 60184 76262 8557/
333 20230 58008 60177 70182=
48400 32560 80000 10262 20249 39999 40039 85536
333 20258 58002=
48462 11558 60000 10261 20252 39998 40053 60024 71062 87500
333 20250 59005 70020=
48475 32564 80000 10268 20227 30036 40047 84877
333 20264 59003=
33990 42974 03601 10180 20132 30044 40128 58007=
33761 41466 83304 10120 20117 39974440192 54000 76162 8872/=
33261 42563 63502 10117 20104 30005 40184 58002 86500=
41114 32960 00000 10200 20144 37950 48459 333 59010 555 04410
59984=
33325 42997 53402 10112 20085 39958 40229 52007 55030=
59303 32575 13201 10280 20232 40119 52013 81102 333 00201
79999=
41571 31696 30506 10275 20125 49972 70600 81530 333 56990 59003=
40703 32960 00000 10152 20114 38885 40077 54000 92345 333=
40712 32960 00000 10142 20088 38653 40057 54000 92350 333=
40729 32960 00000 100094 20056 38333 40111 53002 92345 333=
40736 32960 02103 10196 20179 30150 40123 53001 92350 333=
40739 12965 00305 10146 20100 38645 40073 58002 60032 92350 333=
40743 32660 20306 10206 20088 39011 40082 53002 81530 92350
333 81635=
40762 32960 00903 10176 920020 38510 40017 54000 92350 333=
40768 32960 00000 10120 20052 38236 40048 56004 90550 333=
40769 32960 00000 10170 20022 38271 40023 58007 92350 333=
40809 32965 00000 10210 20041 38461 49980 51001 92350 333=
40831 32960 03603 10310 30093 39999 40007 55005 92350 333=
80001
22213 00216 20101 80206=
12215 36/// /1904 10136 20067 30046 40222 57007=
44203 32699 60000 10122 20034 38350 40067 52002 85860 333
20043 555 30044=
44207 32999 73201 10088 20020 38277 40097 53003 87040 333
20038 55/// 555 30018=
44212 32999 31803 10172 20048 38987 40031 51007 82041 333
20147 55082 555 30130=
44213 32699 60000 10180 20126 38688 40021 52010 86500 333
20151 555 30122=
44215 32998 20000 10151 20043 38327 40024 52010 81042 333
20125 555 30065=
44230 32998 73602 10188 20038 38730 40069 53005 83088 333
20110 555 30070=
44232 32999 20903 10172 20051 39024 40070 52003 80001 333
20082 555 30098=
44239 32999 60000 10170 20043 38735 40057 53004 80007 333
20059 555 30051=
44275 11598 72305 10078 20036 37732 40116 57004 60022 70262
87500 333 20068 555 30046=
44284 32599 70000 10137 21007 37866 40083 54000 87500 333
20079 555 30020=
44285 32799 60000 10182 20043 38307 40066 53007 83083 333
20115 555 30076=
44287 32599 70504 10149 20034 38113 40070 53003 82530 333
20098 555 30075=
44298 32999 01801 10185 20059 38712 40107 52010 333 20105
555 30159=
44305 11599 62305 10225 20121 39038 40121 51001 69902 70262
86500 333 20156 555 30048=
44336 32999 01605 10200 20021 38626 40091 53010 333 20148
555 30100=
44341 32999 00000 10187 20048 38583 40082 53009 333 20144
555 30079=
44347 31999 30903 10205 20077 38682 40078 53008 70600 80008
333 20158 555 30124=
44352 32999 00000 10177 20077 38927 40141 53010 333 20120
555 30095=
38353 41996 81701 10131 20085 39239 40104 54000 70282 889//=
23914 41499 81402 10138 20132 39918 40163 58006 72582 82030=
23921 42999 20000 10049 20042 30067 40185 58001 80001=
23955 32798 73303 10084 20019 30053 40112 53002 87500   333 20068
55116 87650=
23966 32997 10000 10059 20017 39959 40080 52003 81031   333 20030
55045=
28255 42999 00000 10038 20026 30073 40201 52007=
28440 42998 20000 10079 20040 39860 40200 54000 80005   333 10005=
28661 42999 00000 10047 20040 30098 40190 52005=
28722 42997 22302 10121 20099 30052 40178 52009 82030=
28748 42960 00000 10063 20045 39959 40194 52012=
29231 32998 89902 10079 20051 39983 40075 53004 8805/   333 20055
55000=
29313 32998 20000 10034 20029 39977 40096 52030 82030   333 20011
55003=
29612 32998 73604 10070 20052 39937 40082 53002 87010
333 20068 55003=
29634 11357 80205 10080 20067 39850 40062 58001 69972 78082 883//
333 20080 85709 83916=
29838 11596 70000 10138 20132 39817 40034 57001 60012 78082 84330
333 20137 55082=
36061 31696 80801 10113 20111 39665 40048 53002 71042 86531   333
20102 55023=
28879 42997 53501 10030 20012 39869 40152 52008 85050   555 11002=
28952 42998 00000 10041 20015 30002 40196 52015   555 1/004=
34691 42998 01102 10180 20081 30172 40160 5/005   555 1/015=
35067 42998 1//// 10047 20019 39887 40158 52014 81030   555 10003=
35078 41798 73405 10060 20049 39760 40128 52014 70286 85570   555
11005=
35108 42997 00000 10130 20117 40178 52007=
35188 42398 80305 10086 20071 39674 40089 52011 885//   333 88709
555 11009=
35217 42997 03601 10120 20077 30137 40175 52003   555 10010=
35229 42997 00000 10088 20050 39911 40176 52007   555 10007=
35302 429// 00000 10162 20107 30155 40175 52004   555 10014=
35406 42997 00000 10170 20109 40191 57001   555 10015=
35416 42997 00000 10148 20078   555 10011=
35426 42999 00301 10108 20056 39892 40172 52006   555 10008=
35497 41598 80000 10096 20077 39277 40033 56001 70282 889//   555
12007=
35532 42998 00000 10123 20038 39705 40176 52006   555 10009=
35700 42998 00000 10191 20095 30177 40151 54000   555 10014=
35796 41598 82608 10122 20088 39636 40046 54000 70298 86530   555
11011=
36859 41599 82603 10119 20112 39401 40145 52003 70282 8592/   555
11013=
38196 42698 20000 10097 20034 40120 58003 82500=
38198 42999 01201 10116 20051   555 10009=
38328 42999 01502 10109 20025 40129 56002=
38334 42999 03601 10098 20034 39208 40139 58001   555 11006=
38439 42998 03602 10148 20063 39800 40123 58006   555 10013=
23909 41698 81503 10170 20117 39917 40149 53002 70298 82301=
28116 42698 81701 10167 20127 39951 40170 52004 83902=
28419 42997 00000 10060 00045 30050 40170 52011=
28621 42980 10000 10164 20104 39961 40181 53005 81030=
29023 32998 23301 10061 20011 39999 40092 52002 81042   333 20037=
29122 32999 03503 10078 20025 30022 40094 53008   333 20078=
29328 12598 83201 10078 20058 39946 40080 54000 69902 889//   333
20074 55000 85635=
29348 12597 83601 10077 20064 39930 40069 53001 69902 8457/   333
20074=
29405 32997 13604 10048 20015 39970 40113 53003 80001
333 20048 55108=
29418 32998 40000 10048 20023 39954 40109 53011 80001
333 20030 55014=
29430 31498 83401 10077 20059 39900 40068 54000 69912 70282 8695/
333 20072 55000 86914=
29524 32581 83401 10075 20053 39927 40083 57001 885//   333 20066=
29605 32998 02403 10048 20018 39957 40095 54000
333 20036 55118=
29631 32597 80102 10074 20042 39884 40062 54000 889//
333 20074=
29706 32699 83404 10070 20068 39935 40075 54000 82531
333 20070=
29736 11497 80402 10116 20096 39810 40046 57002 69942 78082 883//
333 20116=
29937 11597 61001 10138 20134 39819 40025 54000 60132 78082 83430
333 20136=
36034 11699 81603 10136 20121 39755 40012 53002 60022 70298 82502
333 20106=
41506 32997 00000 10161 20078 48492 333 59003=
41600 31995 00000 10255 20209 39682 49965 70500 333 59009=
41678 31996 00000 10317 20242 49969 70500 333 59003=
28216 42899 20902 10158 20076 39901 40168 52005 82070=
28321 41584 61402 10167 20131 39975 40168 52007 72911 86300=
28451 42998 00000 10035 20020 30034 40191 52013=
28537 42481 20000 10103 20059 39784 40189 52007 82400=
28541 42983 00000 10029 20021 39719 40207 52011=
28642 42997 03102 10072 20038 40207 52010=
28655 32976 00201 10058 20032 39979 40197 52010=
28925 42999 10000 10106 20074 39958 40175 52005 80001=
29625 32598 70204 10073 20060 39902 40072 57003 85530
333 20071=
29642 11460 80303 10095 20093 39750 40063 51002 69902 72582 883//
333 20095 84710=
29813 32499 80305 10093 20068 39862 40035 53004 885//
333 20081 88617=
29822 32497 83604 10101 20089 39885 40039 57004 889//   333 20101
55011 88917=
29846 11592 83501 10126 20124 39676 40037 53003 60042 74698 8355/
333 20126=
29915 32498 80205 10100 20084 39890 40040 57004 889//   333 20095
88910=
36020 60042   333 20118=
28978 42698 60205 10062 20028 39662 40141 52011 82503   555 11006=
35173 41496 83606 10073 20067 39757 40125 52004 76166 8872/   555
12007=
30385 32999 00000 10109 20022 39600 40102 58003   333 20020 55146=
30469 32999 00000 10112 20000 39404 40116 52006   333 21010 55114=
30650 32999 20000 10124 20034 39075 40120 57002 80001   333 20031=
30781 32999 33401 10120 20050 39706 40148 52005 80005   333 21015=
30844 32999 20902 10143 20046 39191 40098 52002 80001   333 20040=
30925 32699 32403 10199 20098 39171 40052 52005 82502   333 20136
55142=
31371 32999 21801 10143 20099 39889 40137 52005 80001   333 20049
55129=
31388 31999 00000 10140 20076 39866 40111 58004 70241   333 20055
55060=
31478 11584 80000 10093 20051 39052 40080 53001 60020 70282 889//
333 20047=
31532 11399 80000 10105 20095 39772 40096 58004 60080 70282 8697/
333 20067 55092=
31754 32598 80000 10093 20074 40098 52001 82531   333 20047=
28240 42999 10000 10040 20025 39888 40210 52010 80001=
41859 11350 80902 10250 20240 39986 40028 60159 75196 8572/ 333
56299 59003 70148 84708 85614 88456=
41943 32460 41802 10280 20270 30023 40032 82530 333 56990 58002
70000 82616 83362=
41950 31440 40000 10274 20270 30008 40012 70511 83430 333 56990
58004 70000 82618=
26898 41559 83402 10097 20071 39931 40192 52002 71022 8357/=
26997 41457 83402 10100 20084 39983 40199 53017 71022 889//   333
86913=
27595 42997 11304 10138 20055 30035 40174 54000 80001=
27612 424// 73602 10106 20074 39996 40185 51002 87500=
27707 42565 73604 10098 20073 39903 40191 52004 87500   333 87623=
27719 41397 83602 10115 20102 39931 40175 52005 70282 886//   333
88707=
27786 42997 31602 10148 20089 30016 40170 54000 83030=
27906 41396 83505 10110 20098 39936 40172 53002 71022 886//   333
86707=
27947 42697 70000 10173 20154 30002 40153 54000 875//   333 87633=
27962 42997 60000 10140 20114 40160 54000 83031=
27983 42969 83202 10138 20115 30051 40175 52003 80001=
28711 42998 00000 10139 20081 39825 40184 52001=
28807 42997 00202 10112 20092 30132 40182 52995=
34009 41596 80104 10120 20109 39852 40147 54000 78082 889//=
34047 42566 60401 10185 20138 39971 40143 58002 82950=
34123 41570 80000 10164 20154 39975 40151 58002 78082 883//   333
88927=
34152 42995 01801 10180 20120 39962 40148 54000=
34172 42960 79901 10190 20118 39981 40164 51001 85031=
34186 42980 60000 10159 20092 30042 40174 52004 82031=
34247 41467 81501 10176 20135 30037 40145 52002 72522 883//   333
36913=
34336 41498 83201 10176 20124 30064 40163 58002 70282 8333/=
34391 32997 11602 10156 20092 30132 40162 52002 80001=
35121 42998 02902 10129 20085 30034 40175 52007=
22113 42584 22001 10081 20055 30079 40141 52010 81560   333 91003=
22217 42599 20801 10064 20060 30117 40147 52003 82500   333 91001=
22349 42999 71203 10068 20055 30146 40157 58005 84031   333 91004=
22408 41956 00000 10009 20001 30024 40175 52003 71000=
22602 42976 20000 10045 20038 39948 40173 52003 80002=
22721 42999 82802 10046 20039 30083 40184 54000 80008=
22802 41981 20000 10039 20034 30178 40201 52004 71100 81031=
22820 42999 52504 10083 20046 30053 40189 52004 83031=
26059 42997 30000 10063 20013 30193 40217 52005 83030=
26063 42997 02801 10105 20059 30209 40217 52005=
26094 41958 20000 10047 20045 30133 40209 52008 71011 80001=
26258 42570 12701 10066 20055 30174 40229 52011 81500=
26298 41596 60000 10060 20058 39980 40210 52005 71022 81281=
26477 42562 30000 10094 20081 30088 40215 53004=
26585 42997 60202 10078 20067 39953 40224 52008 80002=
26702 41996 51301 10083 20046 30211 40237 58006 71011 80001=
26781 42997 63401 10091 20067 39929 40218 52009 80001=
22106 41598 72701 10054 20037 30065 40143 52010 83530   333 91002=
22127 42998 50000 10078 20029 39947 40144 52006 85030=
22324 42599 22102 10091 20065 30106 40154 52001 82500   333 91003=
22621 42998 62701 10058 20042 30044 40183 58002 80001=
22831 42998 60000 10028 20025 30124 40184 53001 82031=
22892 42998 02406 10094 20040 30186 40202 52004=
26275 42698 52901 10071 20048 30183 40213 52006 82401=
26389 42997 23201 10112 20080 39948 40206 52005 80001=
26695 42997 60202 10089 20053 39905 40208 52006 80001=
26882 42968 73301 10103 20089 39942 40210 52006 86031=
21432 32998 01607 10002 21058 30196 40206 57007 333 21032
42998 55240=
21647 32980 10806 11045 21061 30191 40219 57005 81030 333
21074 44029=
21824 31/06 90503 11002 21002 30135 40144 54000 74542 333
21005 41998 55136=
21921 32999 83302 10105 20029 40119 58005 80001 333 20030
55240=
21946 32984 01005 10045 21040 30132 40208 56002 333 21043
42001 55172=
25123 32998 22803 10097 21044 30171 40206 58004 80002 333
20028 55198=
25248 32999 71102 10045 21009 39782 40215 58002 80001   333 21020
55000=
25551 41496 80706 10022 20019 30143 40173 53010 77172 8572/=
25563 41465 80315 10009 21014 30073 40150 52006 72682 889//   333
91117=
25594 41361 80507 10039 20008 30153 40174 52006 76162 8872/   333
91111=
31054 11999 20901 10166 20086 39842 40090 58010 69902 70181 82030
333 20050 55034=
31123 32999 00000 10092 20059 39830 40136 58006   333 20000=
38388 42997 03602 10200 20050 30055 40127 53007 555   18019=
38656 42698 60502 10261 20040 30004 40106 52004 86500 555
10025=
25621 32699 51003 10074 21067 39339 40139 57002 85100   333 21044
55127=
25703 32699 50602 10135 20011 39880 40130 58004 83230   333 20046
55050=
25913 32999 81701 10063 20024 30007 40150 58001 82037   333 20020
55078=
25954 12599 83509 10068 21005 30066 40070 58001 69900 8797/   333
20030 55031 91013 91113=
31088 32499 71504 10058 20032 30122 40129 52003 87500   333 20036
55032 85622=
31829 32999 21402 10086 20048 30092 40123 54000 80002   333 20039=
31873 12398 62505 10158 20140 39993 40112 51005 60030 85630   333
20131=
31909 31499 80000 10084 20076 30056 40132 53001 72162 8651/   333
20037 55115=
31960 32098 01801 10120 39922 40147 52001 70411   333 20074 55100=
32061 32999 82804 10071 20041 30086 40123 56001 80006   333 20018=
32098 11394 81701 10041 20034 30155 40165 53007 72842 886//   333
20022 88707=
32150 11296 83604 10043 20031 30114 40143 52001 69900 71052 886//
333 20018 88706=
32165 11556 80403 10041 20039 30058 40118 52006 60510 78086 889//
333 20037=
32215 32985 03605 10112 20034 40171 58002   333 20080 91112=
32389 32699 72905 10118 20038 30110 40145 58005 84541   333 20058
55146=
32583 32999 61604 10142 20036 30119 40147 58007 82031   333 20082=
32618 12598 63511 10054 20014 30084 40107 52011 69940 86200   333
20029 55000 91013 91114=
56188 32964 82782 10215 20166 40007 57002 8807/ 333 05200
79999=
56533 11/80 70000 10173 20167 38373 52008 69951 78080 874//
333 00100 70052=
56543 32680 71103 10107 20066 36867 52011 874// 333 00100
70001=
56741 32580 70902 10198 20148 38171 52007 84842 333 00101=
56875 32680 72201 10195 20164 38339 52012 875// 333 00251
70001=
56994 11470 61603 10205 20187 40073 52010 69951 70080 86400
333 00100 70016=
21908 11598 83403 10035 20020 30051 40128 52005 69932 76162 8672/
333 20020 55054=
41936 31456 30000 10268 20260 40014 70500 81530 333
56990 58001 70000 81615 83362=
29802 41996 63604 10066 20045 39940 40079 53002 71011 80001   555
11006=
29807 42997 30205 10079 20038 39969 40085 54000 80001   555 11006=
35746 42998 03603 10130 20019 30063 40140 52003   555 10011=
35849 42698 33602 10148 20056 30053 40135 52005 83200   555 10011=
35925 429// 00000 10138 20062 30051 40158 54000   555 10018=
35953 42999 33604 10124 20000 30004 40128 52005 80002   555 10009=
35969 42999 00000 10112 20061 39963 40130 52003   555 10008=
36003 42497 80106 10102 20077 39904 40050 53008 889//   555 11009=
36397 42999 81402 10142 20131 39530 40054 52008 8807/   555 12013=
36639 41599 81802 10129 20118 39514 40082 52015 72582 889//   555
10010=
38001 42997 03610 10217 20180 30169 40141 58010   555 10019=
38062 42999 00000 10128 20006   555 10011=
38069 42998 00000 10118 20034=
38232 42998 00000 10189 20021 30055 40148 53010   555 10019=
53929 11562 80201 10156 20153 40044 52003 60031 76160 8772/
333 00155 70030=
57106 11430 80000 10160 20157 40049 54000 60021 76060 8272/
333 05252 70164=
57134 11168 80000 10159 20154 40020 57004 60091 76286 8652/
333 05152 70098=
52895 32780 81602 10187 20100 40009 52012 84547 333 05101=
52446 11975 82505 10159 20119 40051 52020 69901 76000 8802/
333 00353 79999=
52856 11780 70000 10101 20070 37203 52009 69981 70060 86532
333 00100 70009=
53754 32968 81403 10204 20147 40065 52006 8801/ 333 00352
70005=
57232 11562 80903 10184 20181 40049 52001 60291 79298 889//
333 00052 70333=
53519 11962 81405 10209 20133 40039 52006 69901 76000 8802/
333 05151 79999=
53615 11670 71802 10218 20151 40023 52007 69901 70060 875//
333 05203 79999=
53817 11965 81603 10130 20115 38187 52004 60051 76060 8802/
333 00053 70053=
53903 11575 80000 10120 20108 38030 52004 60031 76060 8172/
333 05154 70029=
52657 11580 21402 10068 20041 37246 52004 69931 70060 82800
333 05151 70095=
52974 11665 80000 10117 20109 37503 52007 60011 70080 885//
333 05100 70099=
56043 32680 73203 10067 20049 36469 52006 875// 333 00101
70095=
52424 32980 10000 10183 20100 40015 52006 80002 333 00100=
52447 11980 82004 10147 20127 40066 52026 60011 76060 8802/
333 00454 70010=
56125 11680 70000 10080 20062 36531 52004 69961 72160 875//
333 00201 70067=
34560 42962 31004 10181 20089 39988 40146 57005 83030=
34824 41996 02701 10188 20166 30130 40135 57003=
34858 42963 51802 10195 20098 30030 40132 57001 83032=
34866 42998 01502 10142 20082 40148 51002=
34880 41996 00000 10142 20133 40151 54000 71000=
37054 42997 02902 10152 20142 39762 40132 57001=
37472 42980 01301 10195 20129 30152 40130 57006=
56066 36/// ///// 10059 20023 36619 4//// 52007
555 10030 2//// 3//// 40111 51001 60/// 7//// 80000
9//// ///// 1/020 2//00 30000=
58238 11440 81102 10226 20219 30075 40084 57002 60411 78096
8692/ 333 00052 70437=
57251 11465 83402 10217 20199 40057 52013 60121 76066 8177/
333 00251 70233=
52634 36/// /0000 10016 20006 36749 4//// 52005
555 10020 2//// 30128 41111 51011 60/// 7//// 80000
9//// ///// 1/118 2//00 30000=
57528 16/// /2100 10119 29756 37563 61430
555 1/135 2//00 30215 12100
11101 10100 10111 01110 1111/
/////
2//// 3//// 6//// ///// ///// 8//// 9//// ///// ///// //039
11101 11111 1011/
11111 110//=
45011 42475 51404 10290 20256 40112 53009 84201 333 20270
58022=
52818 32975 20403 10088 21012 37238 52010 80002 333 00255
31011 79999=
56004 32680 73203 10002 21019 35861 52005 83502 333 00451
31026=
52908 32980 52903 11029 21056 35805 52007 80002 333 00300
31049 70018=
47105 31958 40501 10187 20139 30117 40148 50002 71011 80001
333 20119 30020=
47108 31956 12302 10210 20148 30047 40149 58006 71021 80001
333 20161 30025 70003=
47115 31658 71101 10186 20170 39898 40156 52011 71021 87500
333 20137 30023 92032=
47135 31557 81401 10198 20157 39868 40150 53006 71022 8452/
333 20153 31028=
47138 32958 72303 10200 20147 30152 40156 50002 80002 333
20167 30028 92022=
47159 31958 81101 10188 20152 30075 40156 53011 71022 8801/
333 20152 30022 92022=
47165 31558 80203 10191 20160 30105 40149 53005 71022 8341/
333 20170 3/022 92022=
47184 32665 83602 10185 20146 30116 40143 55002 8252/ 333
20163 30023 92022=
47008 32565 50000 10136 20105 30094 40146 52009 83530 333
20093=
47014 31560 80000 10165 20157 39773 40155 52028 71022 885//
333 20142=
47016 12570 80000 10138 20110 39329 40165 52013 69902 885//
333 20110=
47020 32965 00000 10167 20122 39810 40170 58002 333 20131=
47025 31/09 91801 10104 20100 30116 40144 52006 74344 333
20096=
47035 32970 00202 10178 20147 30150 40158 52007 333 20136=
47041 31760 41102 10162 20141 30120 40146 52005 71042 84020
333 20124=
47055 31956 00502 10181 20135 30115 40158 52007 71000 333
20132=
47058 32966 80000 10197 20151 30110 40155 52005 80002 333
20148=
47069 32960 30000 10195 20145 30056 40151 52012 80002 333
20143=
24641 32999 81003 10184 20064 39926 40056 57013 85031 333
20096 55151=
10005=
31137 32699 62901 10138 20029 39148 40010 52001 86100 333
21002=
31866 32599 60902 10089 20067 30119 40124 55001 82131 333
20028=
32053 31498 61305 10040 20020 30090 40132 57003 70142 85601
333 20004=
58626 32968 70902 10251 20232 40097 52018 8704/ 333//
00152 70179=
47003 32980 21403 10127 20115 30147 40151 58003 80001 333
20098=
47005 12680 61601 10120 20100 38627 52016 60062 85230 333
20038=
47022 32475 33201 10148 20106 38844 58005 83500 333 20058=
47031 32570 30000 10119 20113 83500 333 20084=
47037 32967 03201 10190 20151 30040 40158 52007 333 20150=
47039 32960 00000 10162 20151 30003 40187 52023 333 20128=
47046 31510 92703 10138 20130 30129 40152 52008 74542 89///
333 20124=
47050 32965 20000 10195 20154 30124 40156 52016 80002 333
20131=
47052 32565 20000 10168 20132 39831 40155 54000 81502 333
20108=
47060 31956 82702 10144 20133 30103 40160 52008 71021 80004
333 20141=
47061 32680 23601 10167 20133 30111 40153 52012 82500 333
20126=
47065 32965 73401 10169 20139 30093 40155 52003 80002 333
20131=
47067 31960 60000 10175 20155 30048 40163 52016 71022 86032
333 20142=
47068 32970 30000 10183 20149 30018 40152 52007 80001 333
20121=
47070 32970 20000 10182 20150 30068 40151 52004 80002 333
20147=
98223 31565 11401 10298 20262 40099 51011 70544 81100 333
20253 56999 58008 81820=
98325 11462 21801 10276 20224 40093 53010 69904 70544 82271
222// 20000 333 20248 56999 58013 82817 98308=
98429 31560 30000 10306 20234 40092 50004 70544 83230 333
20264 56999 59007 83825 83360=
98440 11458 71405 10276 20268 40096 53014 60084 78098 85238
333 20264 56299 58001 70084 85816 88458=
98444 11458 70901 10266 20252 40096 52016 60094 79598 84370
333 20252 56999 58000 70092 82918 86459=
98550 11460 70401 10282 20256 40082 53011 60034 70544 82268
222// 20101 333 20260 56999 59006 70034 82818 86272=
98618 31575 32704 10253 20245 40081 53004 70144 82981 333
20240 56999 59008 81917 82820 83075=
98630 12580 60402 10300 20269 40093 53020 69924 82208 222//
2//01 333 20266 56199 58007 70002 82820 86275=
98637 31470 40204 10300 20254 40081 52024 70500 82201 333
20240 56999 59001 82812 83075=
98755 11475 60000 10266 20256 40086 53017 60114 72582 84262
333 20240 56299 59004 70114 84819=
98836 11565 80201 10260 20247 40086 52019 60074 72598 8227/
333 20254 56999 58008 70074 82820 88362=
44214 32998 40000 10114 20038 38220 40067 53012 82044 333
20100=
44218 32998 20000 10166 20064 38515 40031 52013 80002 333
20135=
44241 32999 21402 10217 20077 39179 40071 52014 80001 333
20147=
44259 32998 10000 10190 20023 39297 40142 54000 80002 333
20113 55119=
44282 32699 60000 10160 21005 38266 40073 58005 86480 333
20085=
44294 32998 01101 10166 20056 38566 40116 52010 333 20054=
44314 32998 51803 10195 21025 39132 40138 52002 84080 333
20096=
44354 32999 00000 10210 20080 39080 40081 53008 333 20147=
44358 32998 00000 10194 20117 39063 40128 53011 333 20142=
28679 42699 53502 10049 20027 39985 40161 54000 83430=
30230 32599 80000 10150 20106 39727 40028 58005 82531 333
20090 55118=
30309 41998 30000 10182 20125 39497 40052 52017 70281 83030
333 20144=
30710 42960 81606 10147 20059 39462 40045 52013 82031 333
20112=
31989 31499 21301 10080 20070 30091 40143 54000 70241 81630
333 20050=
35671 42698 33405 10075 20045 39698 40113 52010 83500=
36177 42597 71903 10126 20094 39777 40007 57002 81331=
36428 42699 80000 10124 20105 39579 40048 53001 8695/ 333
95000=
36870 41698 51301 10114 20077 39151 40118 53007 70282 82270=
38341 42699 12103 10103 20045 39370 40127 58004 81400=
47827 31/59 70601 10234 20187 30118 40154 50008 71011 81632
333 20179=
44277 11597 61809 10127 20092 37792 40055 53001 69942 70762
84544 333 20076 91212 55///=
53588 31470 70907 10084 20035 37817 52002 70040 86102 333
00354=
98328 31465 11004 10194 20167 38521 40088 53006 70544 81100
333 20155 56999 58005 81814=
98543 32470 50000 10303 20263 40095 53011 82201 333 20260
56999 58001 81828 83075=
42369 21595 82305 10254 20242 49993 76062 8532/ 333 59011
6004/ 84625 81930 88458=
42647 31996 32703 10298 20234 40015 70510 81051 333 59014
81360 83075=
42724 31/95 90000 10266 20263 40030 74700 89/// 333 58010=
42737 32996 32502 10280 20249 40018 80001 333 59008 83075=
42779 32996 01801 10260 20184 39321 40000 333 59014=
42809 31995 41801 10284 20270 40008 70521 80001 333 58001
84070=
42867 32596 52003 10278 20225 49997 81531 333 59035 81625
83360 85075=
42909 32496 52905 10296 20265 40021 84802 333 56600 59015
83618=
43003 21595 71002 10252 20237 40028 71352 84930 333 59014
6008/ 83620 81930=
43117 22996 52501 10252 20245 40023 81032 333 59015 6005/=
43128 31496 61803 10266 20238 39429 40023 71322 83931 333
56699 57932 59018 83615 81930 85360=
43185 21496 82002 10252 20249 30014 40017 79596 8492/ 333
57983 57942 6053/ 83715 82920 88458=
43189 21596 62301 10256 20239 30003 40012 70292 82432 333
59004 6004/=
43192 21495 82704 10252 20247 40046 76162 8643/ 333 59010
6017/=
43245 32596 32301 10282 20242 39991 40013 83500 333 59016=
43279 22596 52702 10280 20214 39996 40013 83531 333 59016
6001/ 83620 83360=
43284 21993 90000 10240 20231 39937 40053 74754 333 59011
6006/=
43295 21396 62502 10204 20198 39035 48445 70265 85601 333
56609 59016 6011/ 83708 83616=
43321 31396 62005 10224 20209 39589 40034 70522 83731 333
56599 59026 83708 84070=
43371 21596 63201 10236 20221 39985 40058 71322 83970 333
57942 59017 6002/ 82620 81925 84360=
22550 41497 80502 10093 20081 30151 40161 58002 76162 8277/
333 82710=
22768 41497 83403 10111 20095 30083 40138 52006 70282 889//
333 86913=
22845 41698 73101 10089 20082 30024 40176 52004 70282 874//=
26850 42965 00000 10080 20032 39972 40245 52007=
44219 32698 60000 10160 20004 38540 40046 53016 86500 333
20079 555 30129=
44221 32599 70000 10153 20103 38503 40036 53023 85540 333
20119 555 30094=
44224 32698 22706 10149 21114 38000 40017 55015 82100 333
20146 555 30088=
44266 32999 60000 10124 20040 37755 40066 53006 83084 333
20082 555 30044=
44325 32999 40905 10241 20151 38756 40013 53002 82250 333
20211 91212 55/// 555 30121=
22212 02289 20302 300// 40000 80250=
86440 22274 00280 20502 309// 40804 5//// 6//// 80250=
57020 7//// 888// 22274 00070 20503 319// 40602 5//// 6////
80045=
154090 153092 153087 152086 155092 150086=
42805 62349 272038 269034 268033 272027 298025 302027=
56251 32780 20000 10073 20062 36951 52015 82400 333 00151
70016=
58608 32970 62003 10287 20244 40086 52013 86030 333// 00103
70008=
58634 31930 70000 10251 20234 40103 52015 71000 8704/ 333//
00102 70126=
56178 32680 20000 10170 20107 37629 52015 81102 333 00001
79999=
57432 31956 60000 10253 20233 49995 52011 71000 86040 333
05203=
54287 31/08 93204 10026 20026 37417 52012 74340 333// 00551
70104=
59462 11664 71102 10274 20244 40098 52012 69931 78080 874//
333 00101 70004=
55578 32980 00000 10067 20016 36376 52014 333// 00100 30019=
55680 32980 00903 10061 21004 36244 52007 333// 00101 31002=
55655 11470 62002 10058 20053 36489 52006 69901 70080 86900
333// 00100 79999=
55664 32880 10000 10028 20004 36027 52008 81400 333// 00100
31005=
55569 32980 00000 10095 21017 36237 52009 333// 00101 30020=
55572 42780 10000 10045 20009 36254 52016 81100 333// 00154
30019=
55773 11470 70000 10036 20010 36036 52006 69901 78000 879//
333// 00151 31024 79999=
57894 32980 21401 10233 20194 40150 52014 82040 333// 00201
70517=
55493 11780 72001 10072 20051 36036 52013 69901 70080 87800
333 00102 70015=
55696 32580 10405 10074 20035 36364 52008 81100 333 00251
30033 70002=
55598 32780 10000 10106 20042 36606 52017 81100 333 00202
30049 79999=
55690 32580 11104 10043 20024 36015 52006 81200 333 00100
31038 70018=
56307 42780 70000 10113 20093 36853 52013 878// 333 00101
70002=
55681 42980 00000 10035 21003 35924 57014 3333/ /0025 13100=
51701 11580 73204 11017 21098 36639 54000 69921 70080 83402
333 00151 70002=
51705 32780 62711 10100 21027 37807 52011 84902 333// 00251
70004 91123 91532=
56038 11680 80000 10032 20018 36121 52005 60041 78080 87902
333 00352 30016 70064=
51241 11680 73601 10107 20096 40106 52025 60041 78080 879//
333 00353 70044=
51365 32980 40000 10160 20128 40026 52009 81032 333 05252
70010=
51477 32980 00702 10136 20092 40035 57002 333 05253 79999=
51356 32970 62502 10186 20113 40041 52020 82062 333 05151=
51628 11780 70000 10170 20103 40023 52008 69901 70080 879//
333 00004 79999=
89642 41220 80914 11160 21183 39903 49960 58032 77172 885//
333 11129 21161 85703 88633=
86011 32870 70000 10200 20110 40174 53001 87070 333 10228=
86033 32870 71802 10190 20EY RPQTT TWPQU IUPUP EEE QPWEIV
IYPYT EWIUP IPPPP QPQYR WPQPQ RPWPO TEPQU IIPUX EEE QPQIIV
IYPYI EWYUP IQUPR QPQTY WPQPY RPQYO TEPPW IWTUX EEE QPQIPV
IYPIY EWIUP UQIPW QPQYP WPQQO RPQOR TRPPP IWPRT EEE QPWQPV
IYPOU EWOUP PQIPY QPQEP WPPIT RPQOO TTPPR EEE QPQITV
IYQWI EWOUP UPPPP QPQYR WPQPQ RPQIW TEPPO IUPUP EEE QPWPPV
IYQER EWOUP PQIPT QPQEI WPQPE RPQIO TWPPI EEE QPQOTV
IYQUP EWOUP YQYPW QPQWW WPQPP RPQIW TEPQE IPPPY EEE QPQURV
IYQIT EWOUP PPPPP QPQWP WPQPE RPWPP TWPWW EEE QPQIYV
IYQOW EWOUP PPPPP QPPOP WPPIP RPQOO TWPQU EEE QPQOPV
IYWQP NIL=
86218 31958 01903 10114 20102 40210 52014 71010 333 10178=
86233 32970 60000 10130 20093 40189 51004 86030 333 10180=
86234 32970 00000 10104 20096 4//// 5//// 333 10180=
86248 32970 01803 10118 20098 40199 52020 333 10180=
86255 32970 00000 10114 20088 40213 53013 333 10176=
91925 11465 71014 10273 20235 30040 40098 58021 60014 71522 872//
333 20240 56299 59001 87816
555 10827=
91938 11575 62017 10270 20208 30100 40103 56017 60084 70361 86802
333 20221 56509 58017 82820 85650
555 12025=
91943 32570 10416 10298 20230 30101 40104 58019 81200
333 20262 56100 58009 81830
555 10425=
91948 32580 50206 10252 20223 30046 40148 56020 85200
333 20244 56800 58025 85820
555 13523=
91954 11565 52816 10230 20161 30077 40080 56012 60014 71511 85800
333 20192 56600 58046 84820
555 12823=
91958 01565 52808 10216 20161 30045 40047 56013 60014 72511 85240
333 20210 56790 58027 69927 85823
555 13639=
60710 32960 20000 10161 20145 30124 40207 57115 80002
333 55136 82070=
60714 32965 23406 10184 20167 30196 40203 58006 80002
333 55135 82070=
60720 32960 03304 10192 20177 30156 40192 58009
333 55130=
60738 32960 01606 10153 20118 38992 48565 58001
333 55138=
60740 32960 13506 10214 20184 30198 40201 57006 80002
333 55133 81070=
60745 32960 00108 10231 20126 39829 40190 52006=
60750 32960 30102 10217 20178 30166 40198 58002 80002
333 55135 22987 83070=
68906 12598 43212 10124 20060 39982 40046 52024 60091 84500
333 10163 20120 91012 555 20088 91004=
86065 32870 80000 10164 20101 40209 53017 8807/ 333 10188=
81401 12462 51302 10257 20243 40126 69921 85200
333 10292 58004 85810=
60020 32565 43206 10205 20130 30134 40178 51012 80006
333 924/7=
60030 32560 43618 10208 20165 30107 40162 53005 81501
333 924/6=
91554 01475 73608 10275 20245 40095 58002 60084 72582 878// 333
20215 568// 58003 60084 82715 83820 87640=
91555 02575 60205 10295 20241 40091 58003 60024 84260 333
20/// 5619/ 59001 60024 84825 83360=
91557 01575 70204 10290 20240 40104 51002 60114 70228 83931 333
20230 56199 59003 60114 82822 82934 85363 86080=
91565 01475 80308 10256 20240 40114 58001 69944 76022 8497/ 333
20215 5689/ 59010 69944 83818 81920 88461=
91568 01475 80712 10257 20231 40099 58002 60034 70288 8682/ 333
20215 5619/ 59032 60034 86818 88460
67765 42984 00000 10082 20074 38713 48554 333 59008=
67775 42980 00703 10101 20070 38552 48555 333 58000=
67853 42980 01201 10060 20025 38991 48557 333 58000=
67861 42980 01308 10122 20057 38776 48553 333 58002=
67975 41902 00000 10076 20074 38990 48554 74640 333 58001=
67977 42980 00000 10101 20091 39745 48583 333 58008=
67983 41320 71002 10127 20127 38961 48572 74011 876// 333 58000
87706=
78958 21468 70708 10270 20226 30134 40144 70611 81801
333 O2203 10317 20260 58004 70005 81818 86078=
86330 32997 01203 10072 20044 40214 52005
333 10152 20072=
86360 32997 21203 10080 20052 40212 53006 80005
333 10155 20080=
86460 32598 10000 10078 20046 40215 51001 81400
333 10140 20068=
86560 32597 20410 10069 20028 40206 57005 82200
333 10126 20069=
86565 31495 80000 10066 20052 40219 53006 71021 886//
333 10130 20062=
86580 32896 13103 10078 20060 40212 51002 71000 81050
333 10116 20076=
76113 32980 02104 10395 20174 39616 40068 5//// 92350 333
10412 20224 30/// 51170 58030 70000=
76122 32680 52704 10290 20039 38527 40053 57007 82462 92355
333   10325 20168 30/// 50640 56669 58031 70000 82435 82357
=
76220 32980 82702 10218 20137 38177 40114 52002 88070 92350
333   10310 20110 30/// 50360 56070 58029 70000 88457=
76225 11560 72303 10194 20159 38588 40091 50018 60066 75355
879// 92345 333   10321 20180 32/// 50680 54311 565// 58059
60066 70099 87915=
76323 02565 60702 10298 20117 38254 40045 57004 69991 84910
92345 333   10300 20160 31/// 56660 58008 69991 70002 82930
82830=
76342 01562 70901 10318 20182 39428 40097 57013 69901 75150
83270 92340 333   10340 20244 30/// 50860 56150 58036 69906
79999=
76382 32980 70000 10300 20208 38861 40048 57014 81420 92351
333   10305 20200 31/// 50371 56550 58026 81650 86458=
76654 31765 41801 10308 20226 30099 40103 56002 70544 84010
92350 333   00020 10321 20260 30/// 50660 58017 70000 84456
=
76665 01466 81601 10209 20138 38105 40083 57001 69901 70252
84720 92348 333   10260 20143 31/// 50200 56110 57612 58018
70089=
76698 12660 20802 10291 20239 30101 40116 53003 60031 812/6
92355 333   022// 10317 20230 32/// 50520 58020 70153 81820
81058=
76750 01560 60703 10293 20233 30124 40134 56002 69901 71581
82208 92354 333   03206 10345 20261 30/// 50810 58025 69906
79999=
76775 01462 61801 10208 20164 38516 40159 52000 69901 70354
83741 92350 333   10230 20170 31/// 56299 58032 69901 70008
82622=
76843 01565 63601 10246 20215 39534 40173 51008 69931 72162
83538 92345 333   0/399 10324 20220 31/// 50340 58018 69937
70003=
76243 32375 61402 10346 20219 39835 40110 57022 86400 92340
333   10375 20234 30/// 50110 56300 58030 7//// 86615=
76253 31580 10000 10270 20222 30003 40093 57013 70544 81300
92359 333   10295 20235 30/// 56500 58025 70000 81927 92001
=
76305 32970 01403 10300 20216 30075 40085 57020 92340 333
10327 20222 30/// 50635 58005 70000 90802=
76585 32680 40000 10331 20240 39968 40118 56015 83230 92335
333   0222/ 10341 20219 30/// 54800 58023 70000 83833=
76675 01565 80504 10153 20123 37383 40068 52004 60121 71598
8692/ 92350 333   10195 20105 32/// 50200 56999 57900 58019
60127 70260 85926 81626 82457 98460=
76840 32756 80000 10300 20225 30087 40138 57016 88020 92350
333   10345 20235 30/// 50240 56000 58001 79999 88460=
76855 32580 51107 10296 20250 3//// 4//// 5//// 82250 92340
333   02990 10310 20264 31/// 58/// 70000 82820 83358 92003
=
76903 31681 62702 10310 20240 39986 40116 55013 70422 82540
92340 333   10332 20235 30/// 50350 56260 59002 70000 82650
83360=
71918 460// /3518 11077 39775 40197 53002 333 11069 21116=
71194 17/64 /2508 10084 20048 30053 40066 51017 69981 7//4/ 333
10104 20070 70014=
71197 17964 0//// 10075 20019 30039 40088 53014 60031 7//4/ 333
10119 20068 70055=
71103 37664 31406 10179 20029 39553 40208 56008 743// 333 10198
20029 70005=
71115 36/// /2502 10178 20048 333 10188 20055 70000=
71121 36964 02206 10186 21061 39407 40226 58011 333 10190 21010
70000=
71127 46064 /0503 10182 21046 39491 40220 56009 333 10198 21032=
71143 36/// /0208 10121 20055 39909 40223 58002 333 10122 20089
70000=
71450 36/// /2309 10150 20012 39532 40247 58007 333 10151 20062
70026=
71490 36/// /0000 11096 21124 39979 40299 58005 333 11064 21139
70000=
71725 36964 03104 10157 20049 39773 40182 58009 333 10182 20056
70000=
71726 36/64 /3403 10154 20029 39648 40175 53001 333 10190 20085
70000=
71727 32780 22912 10165 20039 39956 40149 52011 82400 333
10198 20106 70004=
71730 11874 81703 10159 20081 39762 40179 56019 69901 70282
8807/ 333 10173 20079 79999 90950=
71731 13/// /3502 10155 20077 39735 40177 57013 69901 333
10179 20085 79999=
71733 36664 81106 10152 20113 39928 40162 56021 333 10169 20100
70010=
71735 32974 80102 10184 20061 39880 40174 57011 86054 333
10204 20086 70000=
71738 11574 80000 10109 20088 39819 40168 58007 69921 72162
8652/ 333 10181 20004 70002 90925=
71739 32974 70210 10157 20041 39826 40183 57007 85072 333 10178 20059
70000=
71749 17248 80711 10094 20093 39906 40148 56029 60091 7434/ 333
10131 20085 70085=
71799 32580 62804 10171 20088 30143 40166 58021 85870 333
10176 20094 70000=
71801 11359 82312 10129 20118 39876 40045 56022 69901 72082 886//
333 10167 20076 79999 90926=
71803 11462 82010 10119 20090 39825 40007 56022 69921 78022
8557/ 333 10167 20063 70006 90910=
71807 36/// /2015 10081 20079 30039 40055 56016 333 10096 20069
70000=
71808 17006 80000 10051 20051 39955 40001 51004 60011 7434/ 333
10063 20044 70110=
71810 36/64 /0000 10097 20022 30036 40098 51033 333 10140 20069
70000=
71811 32783 13209 10138 20025 30040 40107 51020 81500 333 10174 20069
79999=
71813 17964 03115 10110 20046 30045 40058 51034 60011 7//4/ 333
10155 20068 70030=
71814 36/// /3212 10096 20095  333 10103 20057 70000=
71815 11574 52417 10064 20052 30025 40056 52024 60041 70198
85500 333 10109 20064 70058 90931=
71865 36/64 /3404 10149 21027 39566 40243 58003 333 10149 20064
70000=
71866 17964 02704 10184 21085 39626 40233 56008 69951 7//4/ 333
10190 20071 70005=
71867 32774 52607 10181 21024 39869 40200 56011 81171 333
10186 20007 70000=
71868 36964 02004 10164 20002 39783 40220 56008 333 10171 20019
70005=
71869 32974 22103 10182 21037 39702 40221 57012 81101 333 10190 20046
70000=
71870 17764 61904 10110 20035 39294 40263 51001 69951 7//4/ 333
10118 20051 70175=
71872 32783 22202 10150 20016 39398 40249 58011 82200 333 10157 20050
70046=
71874 17964 01305 10155 21041 39147 40243 56015 69951 7//4/ 333
10166 21034 70005=
71876 31674 42903 10171 21033 39575 40236 57005 71411 82970
333 10200 21017 70000=
71877 32883 11304 10160 21069 38973 40245 57013 81100 333
10162 21019 70000=
71878 32974 01605 10169 21053 39171 40244 56007 333 10173 21033 70000
=
71879 36964 01905 10181 21052 39424 40221 58012 333 10189 20037
70000=
71880 32782 12308 10178 21066 39114 40210 57020 81100 333 10184 21006
70000=
71881 36964 00402 10186 21077 39121 40211 56014 333 10188 21026
70000=
71882 36964 02804 10220 20013 39656 40183 58018 333 10221 20050
70000=
71883 36/// /1102 10194 21017 39393 40203 58012 333 10209 20011
70000=
71887 31883 73005 10196 20065 39768 40182 57015 71422 82271
333 10199 20085 70002=
71889 32774 71707 10205 20045 39769 40181 58017 83101 333 10211 20045
70000=
71891 17564 83307 10125 20098 39922 40198 56011 60041 7//4/ 333
10173 20090 70035=
71629 36764 30000 10183 20131 39946 40176 56019 333 10199 20120
70000=
71397 32974 62506 10189 20106 30086 40119 53020 81071 333
10263 20131 79999=
71398 36/64 /0804 10160 20040 30083 40131 53031 333 10194 20109
70000=
71400 17/64 /2707 10083 20071 40014 60091 7//4/ 333 10189 20066
70089=
71410 36/64 /0000 10136 20106 30102 40130 53032 333 10172 20102
70038=
71411 36/48 /2106 10126 20089 30121 40131 51019 333 10143 20099
70000=
71412 46/// /1807 10087 20055 30103 40116 51022 333 10216 20083=
71430 36/64 /2608 10131 20114 30083 40179 55015 333 10177 20111
70000=
71432 36/64 /0907 10164 20114 30076 40171 56022 333 10198 20123
70000=
71435 17/63 /3602 10071 20006  60081 7//44 333 10110 20046 70078=
71436 36/64 /0000 10168 20096 39824 40177 56019 333 10181 20106
70000=
71441 36/// /0111 10092 20089 39892 40199 53016 333 10107 20076
70000=
71443 36/// /1401 10145 21056 39825 40234 58002 333 10145 20046
70000=
71474 36664 31602 10125 20029 38980 40205 58016 333 10128 20047
70105=
71538 31761 21806 10255 20190 39918 40141 58022 70511 81501
333 10284 20166 79999=
71600 46964 02414 10098 20096 30119 40125 53005 333 10170 20093=
71601 32974 22103 10170 20116 30053 40115 51013 82071 333
10223 20095 79999=
71846 36/64 /0704 10108 21001 39886 40197 56018 333 10112 20025
70000=
71930 32874 11507 10189 21062 39284 40210 57014 81100 333 10195 20002
70000=
71931 36/64 /2506 10200 21043 39541 40220 56011 333 10200 20014
70000=
71932 36964 30312 10115 20030 39789 40243 55000 333 10166 21009
70000=
71933 36964 01008 10090 21056 39983 40273 58004 333 10101 20020
70000=
71934 32774 50705 10140 21029 30003 40260 57009 84101 333
10146 21025 70000=
71935 32774 30910 10118 21028 30039 40247 57015 81101 333 10131 20004
70000=
71936 32774 22012 10117 21012 39977 40236 56022 81501 333 10118 21004
70000=
71938 32574 63403 11045 21066 30237 40267 56006 86500 333
11045 21121 70000=
71940 32882 31503 10213 21087 39402 40196 57014 81101 333 10224 20022
70000=
71943 32774 73314 10186 21042 39379 40205 56004 85171 333 10205 20044
70000=
71944 16964 00307 10181 20011 39388 40211 58003 69951 333 10206
20016 70005=
71945 11774 72207 10168 20072 39758 40222 57013 60021 70282 84101
333 10180 20066 70026 90951=
71946 32774 72507 10187 20023 30009 40219 55002 82206 333 10207 20057
70000=
71948 46064 80908 11073 30146 40261 58008 333 11070 21096=
71949 36/64 /2501 10153 21007 39380 40242 58011 333 10153 20039
70000=
71950 31882 33306 10229 21014 39565 40183 57013 71400 83200
333 10240 20038 70000=
71957 17964 31805 10119 20023 30134 40221 58015 69951 7//4/ 333
10122 21028 70005=
71958 17964 02702 10193 21080 39270 40224 56011 69951 7//4/ 333
10195 20020 70005=
71964 32686 70304 10157 21007 39394 40242 56010 86870 333 10161 20042
70000=
71968 469// 02015 10053 30132 40196 58017 333 10074 21037=
71816 32774 22709 10127 20025 39962 40021 53019 82400 333
10157 20080 70012=
71817 36764 6//// 10110 20055 39974 49988 333 10169 20060 70000=
71818 32874 21504 10066 20033 39985 40003 51018 81028 333
10165 20066 70024=
71821 36664 83509 10108 20027 39862 40205 58003 333 10138 20064
70000=
71822 36664 63005 10107 20018 39715 40186 55006 333 10132 20035
70000=
71825 11574 62713 10059 20018 39442 40106 53013 69901 70282 86510
333 10102 20003 70100 90975=
71828 37464 62819 10041 20005 39439 40069 53013 743// 333 10115
20016 70010=
71832 36/64 /1104 10114 20047 39868 40190 58014 333 10144 20032
70584=
71834 31474 81205 10120 20039 39751 40174 57030 71522 8527/
333 10141 20018 70000=
71836 36964 00708 10066 20027 30201 40212 58006 333 10121 20024=
71842 11166 80705 10083 20075 39713 40188 58013 60071 76186 877//
333 10122 20056 70066 90952=
71845 32574 80803 10129 20019 39725 40195 56007 885// 333
10143 20051 70000=
71850 11448 80306 10085 20080 39688 40183 55002 60081 76166 885//
333 10106 20078 70082 90973=
71852 17464 80310 10106 20063 39905 40197 50004 60021 7//4/ 333
10116 20062 70085=
71855 36964 30103 10136 21040 39850 40222 50000 333 10140 20060
70015=
71856 17564 80308 10097 20041 39925 40207 53005 60011 7//4/ 333
10107 20067 70010=
71858 36/64 /2305 10149 21003 39946 40226 56009 333 10153 21028
70000=
71861 17564 80314 10080 20045 39528 40256 53012 69951 7//4/ 333
10113 20040 70125=
71862 11574 73408 10091 20058 39548 40250 53010 69901 78082
86270 333 10111 20057 70272 90915=
71863 17864 80000 10117 20032 39557 40255 58003 69951 7//4/ 333
10119 20047 70195=
71201 36/// ///// 10178 333 10182 20110 70000=
71851 16/// /0209 10086 20081 39880 40214 53012 69921 333 10104 20070
70090=
71873 36/64 /2007 10157 21005 39307 40254 56010 333 10161 21001
70000=
71875 36664 31508 10138 21060 38861 40246 56013 333 10156 21029
70000=
70086=
11035 21105 79999=
71261 17/// /1007 10175 20164 39894 40149 56030 60031 7//4/ 333
10218 20112 70032=
71265 36864 30804 10158 20082 30077 40169 58022 333 10212 20120
70000=
71603 32969 82305 10111 20098 30085 40137 51007 81031 333
10148 20110 70000=
71607 36/// /0000 10195 20092 30090 40121 51016 333 10283 20094
70000=
71609 32974 32205 10134 20086 39993 40125 52020 81071 333 10193 20094
79999=
71610 36764 32608 10189 20078 39860 40148 56004 333 10234 20122
70000=
71621 11874 72302 10190 20143 30069 40173 57019 69901 70282
85071 333 10221 20123 79999 90930=
71623 32974 61607 10204 20096 39829 40158 57025 80001 333 10241 20152
79999=
71624 32974 71505 10197 20082 39962 40169 50023 86071 333
10227 20128 70000=
71625 36964 02703 10189 20093 30013 40170 56012 333 10213 20078
70000=
71627 36964 32510 10204 20094 30109 40152 56004 333 10244 20145
70000=
71628 32882 62705 10183 20095 30032 40169 56013 84071 333
10205 20125 70000=
71630 32774 70000 10158 20119 39838 40177 57021 87500 333
10183 20053 70000=
71631 17/64 /1202 10182 20111 39684 40175 56024 61691 7//4/ 333
10198 20092 71686=
71632 36/64 /0000 10153 20138 39953 40183 56016 333 10171 20045
70004=
71633 11674 80000 10138 20119 39900 40168 58020 69921 78082
8757/ 333 10176 20079 70002 90921=
71700 32974 13303 10215 20041 30091 40116 52020 81070 333 10265 20090
70004=
71705 11974 10905 10179 20036 30034 40119 52033 69901 70188
80001 333 10261 20109 70012 90960=
71706 32674 20000 10114 20039 30064 40123 52020 81501 333 10230 20105
70031=
71707 32974 33105 10106 20033 30037 40112 51046 80001 333 10232 20104
70008=
71709 11980 23010 10098 20039 30096 40109 51020 69921 70286 82030
333 10182 20098 70030 90951=
71711 32974 12905 10162 20028 30071 40120 51014 80001 333 10201 20128
70016=
71714 36/// /3206 10213 20026 30048 40137 55000 333 10242 20103
70000=
71715 36/64 /3502 10156 20045 39959 40138 51006 333 10181 20121
70032=
71718 32683 22604 10157 20058 30065 40129 53006 81501 333 10183 20097
70048=
71719 36/// /2911 10129 20037 30101 40107 51020 333 10195 20106
70000=
10177 21028 70008=
71893 31680 33607 10161 20079 30149 40180 56016 71511 82973
333 10165 20091 70026=
71894 36/// ///// 10160 30175 40184 58022 333 10164 20055 70000=
71896 32589 42410 10141 20043 39388 40213 58005 84900 333 10200 20030
70000=
71897 32585 23212 10110 20093 30184 40216 57014 81201 333 10137
20089
70000=
71898 36964 03007 10135 20092 30180 40224 56008 333 10141 20081
70000=
71899 32974 12710 10105 20085 30191 40241 56003 80001 333 10122
20055
70000=
71905 32262 72710 10004 21002 30172 40185 50005 87600 333 10013 21001
70002=
71906 11469 83010 10021 21005 39967 40013 52013 69901 78022 885//
333 10093 20020 79999 90962=
71907 37262 83016 10009 21011 30089 40121 51009 743// 333 10025
20002 70030=
71909 36464 80905 10012 21034 39991 40033 51008 333 10046 20004
70000=
71910 36764 60312 10003 21015 39996 40060 53010 333 10023 21014
70000=
71911 46064 /3116 11075 30154 40211 56004 333 11059 21133=
71912 11374 70608 10056 20018 30043 40226 52011 69901 70262
84620 333 10142 21031 79999 90931=
71913 36964 03413 11016 21092 30216 40253 58001 333 11001 21035
70000=
71917 32474 33310 11053 21076 30177 40191 58007 83570 333
11024 21057 79999=
71922 31874 70413 10169 20003 39750 40212 53004 71611 84271
333 10200 21010 70000=
71924 32874 13311 11059 21088 30137 40226 57004 81070 333
11054 21112 70000=
71925 32474 70000 11061 21091 30246 40283 57003 87500 333
11056 21106 79999=
71926 11480 83419 11056 21087 30214 40238 50000 69901 77177
885// 333 11051 21112 42029 79999 90973=
71928 36/64 /1111 10167 21072 39072 40233 56010 333 10167 21021
70000=
71952 36/// /3104 10206 20038 39355 40199 58012 333 10209 21012
70000=
71967 36/// /0901 10131 20031 39287 40254 56011 333 10132 20047
70000=
71434 36/// /0708 10065 20026 30148 40214 51005 333 10119 20003
70000=
71075 36/// /0705 10046 21035 39651 40258 58005 333 10051 21011
70000=
71096 460// /0505 11104 39371 40105 56002 333 11077 21105=
71114 36964 30907 10228 20044 30102 40149 58028 333 10232 20097
70000=
71119 36/// /2305 10176 21086 333 10181 20047 70000=
71120 31974 32407 10193 21043 39568 40220 57009 71400 82201
333 10208 20006 70000=
71122 36/64 /1204 10147 21066 38626 40223 56010 333 10156 21041
70000=
71123 32974 12004 10180 21042 39368 40230 58012 81100 333
10186 21016 70000=
71125 32874 22708 10202 21019 39635 40216 57011 82231 333
10205 21009 70000=
71129 32774 70905 10149 21022 39420 40248 57006 87500 333
10161 20029 79999=
71130 32974 71809 10181 21027 39763 40215 56010 81104 333
10185 20041 70000=
71131 36/64 /0000 10096 20025 39008 40267 58005 333 10096 20012
70136=
71135 36/64 /0109 10083 20036 39188 40279 51005 333 10094 20009
70052=
71138 11674 61201 10124 21005 39636 40240 56001 69961 70162
81471 333 10131 20061 70008 90931=
71140 11474 80607 10095 20049 39730 40230 52014 60011 72162 885//
333 10095 20064 70148 90983=
71141 32874 82406 10129 21010 39940 40217 56011 81087 333
10131 21005 70000=
71145 32874 80000 10128 20009 39919 40211 56018 86077 333
10130 21010 70000=
71148 16/// /0109 10080 20075 39644 40222 51015 69941 333 10092 20061
70042=
71182 36664 62810 10073 20020 39530 40059 53008 333 10117 20049
70005=
71187 36964 02808 10165 20026 30094 40120 51011 333 10200 20086
70020=
71188 32974 23107 10147 20015 30062 40102 52026 82030 333
10203 20103 70010=
71196 36464 81813 10101 20085 39985 40021 58019 333 10169 20063
70000=
71702 36/// /0306 10144 20046 40118 333 10254 20108 70048=
71717 32974 13101 10190 20013 30071 40111 53019 81070 333
10247 20107 70000=
71043 32683 32709 10181 20018 30138 40230 57010 83170 333 10184 20102
79999=
71045 36/// /2506 10157 21016 39381 40236 58006 333 10157 20000
70000=
71050 17/64 /0610 10119 20051  69981 7//4/ 333 10124 20052 70010=
71066 32674 31608 10145 21025 39827 40243 56009 81201 333 10149 20052
79999=
71068 32774 70516 10165 20023 39530 40217 50006 82272 333 10206 20010
70000=
71069 36964 03406 10188 21032 39507 40205 58013 333 10194 21007
70005=
71076 46/// /2306 10061 21017 39883 40280 56002 333 10068 21006=
71077 36/64 /3602 10136 20045 39707 40231 53005 333 10161 20065
70000=
71078 11974 70206 10072 21021 39800 40240 51006 69971 71462
86078 333 10127 20055 79999 90920=
71079 11774 70510 10116 20027 39941 40217 52016 69981 72982 85963
333 10200 21026 70008 90926=
71081 17964 03515 11061 21081 30126 40137 58001 69951 7//4/ 333
11054 21126 70005=
71082 36564 81203 11044 21073 30147 40187 56007 333 11017 21089
70000=
71083 32474 63320 11040 21078 30167 40204 50004 86500 333 11034 21068
70010=
71090 17664 33115 11039 21047 30071 40106 58011 69951 7454/ 333
11031 21086 70005=
71092 46064 /0912 11091 39443 40108 53001 333 11077 21119=
71093 460// /0903 11082 39609 40106 58002 333 11077 21102=
71094 460// /0115 11128 39162 40066 56005 333 11121 21131=
71095 36964 02105 11068 21085 30073 40146 55005 333 11051 21134
70000=
71101 36964 01206 10128 20084 30221 40229 58006 333 10130 20075
70000=
71104 11774 81710 10142 20007 39110 40210 57012 60011 78082 85302
333 10158 20044 70014 90946=
71108 11683 62709 10183 20118 30093 40163 56017 69921 72522 83231
333 10211 20094 70004 90910=
71109 32680 13212 10146 20061 30172 40198 57017 81900 333 10157 20055
70010=
94120 46/// /1409 10182 20028 30122 40158=
94150 46/// /1517 10237 20137 30077 40138=
94203 46/// /0807 10144 21006 30168 40179=
94207 35/// /1019 1//// 30146 40157 52013=
94212 46/// /1013 10142 21030 39711 40197=
94216 46/// /1311 10183 21021 30139 40190=
94238 46/// /1115 10123 21008 39787 40225=
94268 46/// /1211 10188 20037 30146 40161=
94287 46/// /1613 10192 20047 30168 40177=
94294 46/// /1814 10178 21022 30188 40199=
94298 35/// /1812 10202 30150 40156 52005=
94299 46/// /1620 10236 20145 30136 40147=
94300 46/// /0808 10132 20021 30187 40197=
94302 46/// /2306 10111 20081 30190 40196=
94312 46/// /1111 10164 20004 30183 40193=
94317 46/// /1701 10080 20023 39619 40230=
94326 46/// /0000 10092 20031 39616 40260=
94332 46/// /1311 10142 20009 39815 40213=
94346 46/// /1511 10151 20022 39989 40218=
94363 46/// /1805 10143 20032 39968 40192=
94367 46/// /1811 10159 20029 30148 40186=
94374 46/// /2017 10157 20010 30165 40182=
94403 46/// /1008 10143 20054 30201 40243=
94429 46/// /0000 10106 20050 39766 40248=
94430 46/// /0406 10119 21012 39629 40236=
94461 46/// /0707 10110 21006 39561 40259=
94462 46/// /1306 10081 20024 39687 40267=
94510 46/// /1708 10115 20026 39856 40217=
94515 46/// /2014 10119 20021 39839 40201=
94552 46/// /2220 10112 20012 39686 40167=
94578 46/// /2516 10154 20015 30129 40140=
94584 46/// /2707 10142 20043 30025 40137=
94601 46/// /0608 10143 20109 30254 40271=
94610 46/// /0607 10117 20080 30239 40264=
94637 46/// /0000 10088 20039 39824 40265=
94638 46/// /2706 10107 20082 30231 40264=
94647 46/// /3508 10095 20004 30145 40268=
94651 46/// /0109 10103 20051 30202 40281=
94659 46/// /1509 10107 20029 30077 40279=
94672 46/// /1102 10117 20086 30270 40275=
94693 46/// /2109 10113 20052 30195 40259=
94703 46/// /2112 10115 20063 30098 4////=
94729 46/// /1818 10071 20020 39308 40180=
94767 46/// /2120 10137 20036 30148 40154=
94776 46/// /2415 10135 20029 30139 40149=
94791 46/// /2417 10147 20014 30122 40129=
94802 46/// /3403 10090 20086 30185 40269=
94804 46/// /3503 10145 20071 30224 40263=
94842 46/// /2005 10122 20063 30140 40241=
94850 46/// /1807 10110 20068 30188 40235=
94865 46/// /2606 10114 20079 30215 40240=
94907 46/// /2705 10089 20063 30212 40222=
94910 46/// /0901 10091 20044 39950 40209=
94926 46/// /1712 10093 21005 39504 40192=
94954 46/// /1817 10082 20031 30115 40227=
94956 46/// /1308 10077 20042 30203 40230=
94968 46/// /1507 10063 20008 30001 40219=
94975 46/// /2305 10091 20025 30187 40221=
94983 46/// /2218 10094 20038 30174 40199=
94995 46/// /2522 10172 20101 30048 40056=
94996 41582 13010 10206 20097 39973 40103 50003 70200 81800
333 20151=
94997 46/// ///// 10032 4//// 57///=
95711 46/// /2007 10090 20063 39910 40222=
95719 46/// /1613 10101 20049 39856 40197=
96995 46/// /1012 10253 20219 39792 40086=
96996 41475 61315 10258 20223 30089 40093 53006 71522 82933
333 20256=
89564 41960 01334 11079 21114 39936 49957 50001 73833
333 21088=
89571 41960 50715 11091 21165 39920 49950 57015 70222 8507/
333 21103=
89611 41856 20826 11063 21098 39709 49763 57002 738// 82070
333 21065=
94934 37/// /2133 10104 30151 40175 52024 7//44=
94974 35/// /1208 10084 30202 40225 52007=
95288 35/// /1819 10219 30138 40153 52012=
95872 46/// /2009=
78384 11460 71008 10280 20234 40162 60051 70182 82856
333 08318 10315 20263 58012 70005 81818 87070=
89002 42896 80714 11171 21215 39865 49917 52009 8801/
333 11167 21197=
78397 11568 83005 10268 20261 30138 40154 6//// 78066 8282/ 01000
10274 20230 59002 82820 88459 90916=
85406 32560 81511 10185 20151 40198 52015 885//
333 10211 56099 88530=
85418 31958 82301 10179 20128 40196 52027 70522 8803/
333 10189 56009 88365=
85442 11557 83516 10168 20135 40176 53019 60024 78088 8802/
333 10204 56899 88623=
85469 42570 73104 10218 20186 40209 57011 87500
333 56600 87620=
85470 32860 62807 10143 20088 40152 53009 86010
333 10186 56080 86458=
85488 32460 72902 10134 20107 40178 52018 87500
333 10154 56000 87613=
85574 31940 11505 10138 20052 39595 40151 52018 70500 81030
333 10204 59006 56000 81366=
85585 32597 52912 10166 20132 40120 54000 83230
333 10176 56660 83820=
85586 32960 10000 10067 20057 40172 52017 80001
333 10160 56006 81075=
85629 31950 60302 10087 20075 39885 40163 51014 71022 84034
333 10135 56055 84363 83075=
85672 32970 83604 10092 20088 40147 53002 8807/
333   10106 56079 88460=
85682 32960 70306 10118 20101 40140 52005 87030
333 10145 56070 87360=
85743 11458 80506 10098 20089 40113 57004 60021 76262 8372/
333 10124 56779 83718 88540=
85766 11450 80210 10098 20094 40084 57011 60031 76362 8552/
333   10120 56889 85615 88550=
85782 11559 80110 10097 20087 40061 57016 60021 76062 8552/
333 10122 56779 85620 88557=
85799 11430 80121 10103 20086 40035 57040 60021 76166 8472/
333 10117 56889 84715 88527 GUSTY 32=
85864  11565 81205 10048 20027 49963 57035 69911 70282 8423/
333 10048 56669 84827 88359=
85874 32680 83305 10048 20019 39335 49948 57028 8322/
333 10078 56660 83835 88460=
85892 32680 80000 10050 20014 49889 57035 8422/
333 10054 56669 84840 88458=
85930 11595 83626 10088 20063 49793 52024 60091 76166 887//
333 10104 56899 88727=
85934 11360 80708 10050 20041 49865 57017 60031 72162 8552/
333   10054 56119 82612 85616 88450 =
85972 32497 83530 10072 20054 49856 57026 885//
333 10155 56899 88615=
85432 32670 72409 10083 20051 37772 48488 53024 87400
333 10194 56000 87640=
76644 01560 70903 10268 20229 30134 40144 52012 60051 70262
84923 92355 333   04229 10384 20235 31/// 50950 58029 60055
70054=
76647 32465 61202 10294 20234 30113 40144 52004 8222/ 92350
333   032// 10350 20219 30/// 50501 58022 79999 82818 84458
=
76680 01558 83604 10172 20136 37759 40063 53019 69901 75054
85830 92355 333   10240 20120 31/// 50231 56180 57862 58028
69907 70120 82624 83827=
71473 36/// /3103 30131 56024 333 70000=
71431 36/// /0000 10133 20102 30080 40173 56018 333 10169 20122
70000=
71475 17/// /0905 10153 20095 30078 40171 55012 69921 7//4/ 333
10198 20059 70002=
71871 32774 33004 10173 21030 39439 40240 58005 83100 333 10182 20027
70000=
71809 11569 62110 10077 20059 39998 40025 50014 60051 70282 86500
333 10163 20073 70066 90931=
71915 31469 80311 11012 21043 30030 40112 51006 74022 8357/
333 10008 21023 70000=
60351 32970 00000 10170 20158 40195 58004
333 0//00 95990=
60425  32960 00506 10260 20086 40167 58001
333 95990=
60444 32970 00410 10221 20126 39171 48592 52013
333 95990=
60468 32570 20204 10186 20121 39271 48576 51002 80002
333 0//00 82070 95990=
60581 32960 00907 10290 20143 40150 58006=
91577 12580 71808 10234 20191 40113 50000 60214 878//
333 20189 564// 59005 81823 87650=
91579 06/// /1208 10225 20218 40105 58005 60034
333 20198 60027=
91582 01460 81406 10221 20206 40109 58003 60224 72182 8687/
333 20192 56400 59012 69947 85810 88459=
91583 16/// /0702 10238 20197 40107 58004 60284
333 20193 59009=
91587 06/// /1808 10210 20200 30069 40119 58002 60051
333 60037=
91590 11475 81504 10218 20180 40114 58008 60154 70162 8482/
333 20180 59001 82814 84636 88462=
91592 11581 81402 10213 20189 40119 50002 60184 70262 878//
333 20180 56799 58005 82820 87643=
65352 12960 70000 10260 20248 39944 40120 69951 8707/
333 58004 87363=
65361 32960 50000 10250 20238 39682 40118 82032
333 58005 82362 85076=
65376 32960 70000 10227 20220 39661 40120 80002
333 58014 87076=
65387 32460 70000 10238 20229 30096 40124 81232
333 58017 81810 85360 85073=
91753 01365 71210 10277 20243 40103 58020 60024 72522 878//
333 20250 58013 69927 81808 84816 85640=
91754 01581 40908 10292 20234 40110 58010 60024 70181 84200
333 20236 58012 69927 84820=
26247 42997 00000 10049 20037 30157 40240 51002   555 10006=
47101 31958 12902 10201 20149 30060 40148 52005 71000 80001 333
20153 30032=
47133 31650 72004 10200 20146 30071 40151 53006 71011 87500 333
20157 30024=
30028 92022=
47168 31640 81606 10180 20149 30081 40159 53011 71022 8352/ 333
20161 31020 92022=
47090 31/08 91403 10148 20131 30132 40153 52009 74544 333 20129
31020 92022=
47095 31958 20000 10198 20147 39969 40147 51004 71000 80001 333
20148 30026=
47100 32462 22704 10164 20125 39197 40145 52007 81501 333 20081
31020=
47106 32920 30904 10170 20136 30108 40152 51004 71000 80001 333
20137 30027=
47112 32563 32904 10191 20156 30075 40154 52009 82501 333 20155
30021 92011=
47114 31550 83201 10210 20160 39976 40148 52007 71021 8451/ 333
20162 30029=
47119 31956 62302 10199 20144 30111 40151 53006 71022 80001 333
20162 30028=
47121 31659 73201 10195 20143 39875 40147 52003 71022 83530 333
20151 30028=
47129 31958 30000 10183 20136 30131 40160 50002 71011 83030 333
20141 30026=
47130 32958 71404 10178 20145 30094 40152 52004 71022 80001 333
20133 30026 92021=
47131 31957 22002 10204 20142 30081 40147 55004 6///1 71011 80001
333 20165 30026=
47136 32960 81802 10191 20140 39989 40153 53005 8801/ 333 20153
30025=
47140 31657 80905 10195 20149 30115 40151 53005 71022 8802/ 333
31026 92011=
47143 31958 70902 10187 20144 30089 40156 58007 71022 80002 333
20164 30024=
47146 32958 80503 10211 20152 30090 40153 52009 71022 8801/ 333
20178 31024=
47152 31940 81401 10180 20145 30119 40158 52011 71022 8802/ 333
20161 30023=
47155 32962 81804 10185 20146 30155 40160 52007 69902 8802/ 333
20159 31023 92011=
47156 31957 81803 10199 20153 30067 40152 53005 71022 8801/ 333
20178 31024=
47162 31650 81603 10187 20147 30121 40158 53008 71022 8252/ 333
20158 31023 92021=
47170 31657 80904 10173 20157 30111 40151 53007 71022 8352/ 333
20149 30020 92022=
47185 32660 81409 10207 20175 30049 40131 57008 8352/ 333 20163
31023 70001 92033=
47189 32565 80504 10213 20178 30079 40138 57009 8251/ 333 20174
31023 92011=
47192 31956 80000 10194 20160 30134 40160 52008 71022 8802/ 333
20169 31020=
71805 43/// /2912 10077 20074 30045 40073 53008=
41883 32450 60000 10270 20240 30001 40021 83530 333 56660
58014 70000 83615 85362=
41891 32350 80902 10260 20250 40028 8632/ 333 56399 58012
70320 82708 84615 81930 88459=
41907 32958 40000 10270 20250 39999 40017 82031 333 56099
58010 70000 82360 83080=
41923 32450 61802 10280 20260 30013 40023 83432 333 56599
58006 82618 85080=
41978 31440 40000 10278 20270 40019 70522 82430 333 56990
59005 70000 81615 83360=
26229 42984 01301 10024 20022 30224 40231 58002=
26313 42997 02103 10057 20040 30220 40226 58004=
26314 42997 41603 10082 20059 30223 40226 57006 84030=
26324 42998 22001 10032 20019 30223 40231 58007 82030=
26348 42999 02701 10068 20045 30058 40235 52010=
26406 42565 61502 10090 20072 30216 40224 58009 83552=
26422 42997 21902 10075 20067 30208 40240 54000 80004=
26446 42975 02701 10077 20027 30042 40234 52002=
26544 42960 20000 10048 20038 30090 40244 52004 80001=
13272 32970 09901 10118 20085 30130 40248 58003=
13376 32698 60000 10121 20095 30001 40262 51004 86500=
13388 32698 23202 10133 20086 39995 40237 52008 82500=
13462 32970 03606 10192 20067 30175 40218 51003=
48108 22495 82301 10240 20240 40061 8572/333 20225 5659/ 58002=
33088 42997 00000 10077 20068 30059 40250 52003=
33246 42963 83201 10123 20104 30038 40190 51001 8802/=
33275 42497 83606 10126 20105 39952 40169 58002 886//
333 88710=
33301 42997 03202 10082 20064 39972 40254 51004=
33377 42961 23602 10126 20103 39991 40180 52001 82030 555 10012=
33415 41997 03205 10092 20076 39853 40251 52006 70181=
33429 41997 63203 10088 20082 39820 40242 52004 70282 82031=
33466 41562 80000 10127 20104 30007 40190 52002 70282 885// 333
88630=
33526 42960 02703 10084 20068 39923 40262 52002=
33562 41496 33103 10107 20097 39858 40214 58001 71081 83500=
33614 42966 63405 10150 20121 40160 54000 86030=
33889 42998 03207 10136 20102 30157 40193 52003=
33902 42999 63206 10158 20113 30086 40150 55002 80004=
33983 42497 80000 10170 20157 30071 40129 57006 83501=
34415 41996 80000 10172 20167 30038 40130 57002 71022 80002=
34523 41497 81201 10185 20170 30063 40135 57006 76121
885// 333 88618=
34712 42998 02304 10186 20183 30045 40126 58004=
37549 42797 59902 10178 20152 39614 40159 53002 84330=
12120 32498 81605 10146 20063 30192 40199 57016 885//=
12135 32998 21805 10120 20076 30217 40220 57010 80001=
12235 32498 81803 10127 20067 30018 40226 56005 885//=
36911 41698 71001 10118 39187 40118 57008 70282 66550 555
11012=
36974 426// 70000 10057 20055 37966 48511 52007 87900 555
10006=
36982 41598 71706 11034 21066 36490 47041 53010 72277 86550=
38613 42698 50102 10121 20077 39277 40152 54000 82902 555
11011=
91353 11474 70305 10278 20239 30088 40093 51003 60254 70282
86230 333   20206 5611/ 58004 70254 86818 555   90200=
91425 32474 61403 10300 20267 30087 40088 51003 82223 333
20244 56339 58000 82818 83462 83080 555   90200=
91434 32474 21002 10306 20253 30103 40106 51008 82200 333
20211 562// 58010 82818 555   90200=
12160 32998 01403 10113 20062 30182 40235 57008=
12210 36/// /9903 10164 20065 30138 40200 57008=
12488 31996 01701 10052 20050 30107 40265 58001 71011 =
12115 32597 71805 10158 20078 30180 40193 58015 8457/=
26554 42960 03002 10074 20055 30077 40241 51004   555 11005=
26666 42960 22701 10089 20073 30014 40227 52003 82040   555 10007=
26863 42960 12702 10064 20050 39994 40231 52008 80002   555 11006=
26941 42960 03201 10077 20065 30012 40249 52005 555 11008=
26951 42965 03201 10067 20060 30046 40246 52007   555 11006=
33019 42960 03401 10096 20077 30082 40256 52006 555 11008=
33036 42960 03202 10101 20078 30000 40229 52006   555 10008=
33041 42965 03402 10111 20080 30064 40217 52004   555 11010=
28766 42998 00501 10055 20023 39985 40172 52012   555 10003=
28966 42998 53602 10045 20006 39880 40159 52015 85050   555 11001=
36535 41597 80303 10115 20099 39467 40060 52012 78082 889//   555
11010=
36821 41598 22201 10140 20093 40085 53008 70291 81902   555 91111=
36864 42599 72505 10140 20065 40098 52002 87900   555 91110=
38222 42997 80000 10106 20081 39580 40115 52008 8807/   555 11011=
38343 42698 20000 10091 20048 40120 58002 82900=
91371 32474 50715 10300 20240 30132 40135 85238
333 20244 56229 58002 85815 83280 555 90200=
26645 42998 00000 10054 20037 39987 40249 52005   555 11007=
26659 42960 03303 10104 20030 30029 40241 52006   555 10009=
26763 42960 00000 10060 20053 30004 40232 52009   555 11006=
26825 42960 00000 10061 20037 30090 40257 52004   555 10004=
26832 41956 03101 10066 20057 30058 40252 52007 71000   555 11006=
26887 42864 53501 10104 20080 30006 40208 52005 85030   555 11010=
26961 42960 02401 10059 20045 30041 40235 52006   555 11///=
33027 42965 03402 10100 20065 30073 40238 51003   555 11008=
41244 36/// /0404 10280 20154 39655 40006
333 0E030 59000  =
41246 31558 11804 10291 20251 39971 49976 70500 81500
333 59025 81625 =
41256 31958 00000 10303 20287 39972 49981 70500
333 59021 =
41262 36/// /1010 10309 20192 39799 49989
333 0E033 59000  =
41268 32960 02422 10300 20258 39970 49985 333 59025=
41288 31957 02210 10268 20252 39974 49996 70500 333 59005=
41304 36/// /9902 10289 20139 39687 40004
333 0E029 59000  =
41312 36/// /9902 10284 20250 39983 40023
333 0E/// 59012  =
41314 32960 01612 10262 20219 39523 40035 333
59026 =
41316 32561 62304 10292 20252 39997 40022 86500
333 59011 86625 =
11414 32970 21001 10105 20080 39525 42852 57004 82030
333 55055 82360
555 385// 50131 60132 70131 80124=
11438 32982 02701 10105 20085 39845 40239 54000
333 55067
555 387//=
11502 36/// /1301 10141 20062 39787 40234 57002
333 55128
555 359// 50139 60147 70149 80135 90127=
11538 32984 22101 10122 20059 39646 40245 58001 80001
333 55122 82070
555 365// 50161 60166 70151 80137=
11628 32965 01803 10115 20075 39623 40252 54000
333 55120
555 376//=
11643 36/// /0000 10070 20050 39298 42863 58005
333 55096
555 387// 50119 60124 70123=
11683 32980 11806 10100 20029 39389 42866 57002 80002
333 55116 81070
555 361//=
11693 32970 50000 10108 20056 39779 40266 55000 85030
333 55119 85359
555 370//=
11698 36/// /9901 10094 20046 39855 40264 57002
333 55140
555 372// 50163 60051 7//// 8//// 9////=
11710 36/// /1603 10105 20031 39647 40262 58001
333 55113
555 360// 50133 60135 70148 80136=
16059 31950 22904 10177 20147 39895 40235 51004 71010 80001=
16080 32860 50704 10210 20166 30112 40233 50004 85030
333 85358=
16153 32997 00308 10226 20167 39968 40224 51005 92345 555 0////=
16105 32960 00000 10175 20144 30240 40246 55001=
16191 36/// /1902 10134 20112 30226 40244 55002=
16158 32962 00906 10174 20155 30210 40217 50006 92345 333 55300=
16242 32960 03302 10164 20140 30205 40208 51005 555 0////=
16310 32997 03607 10194 20003 39974 40191 58003 92345 555 0////=
16420 32997 00403 10224 20186 30123 40187 58004 92345 555 0////=
16429 32964 00000 10176 20164 30185 40196 51008 92345 333 55300=
16560 32168 10203 10186 20169 30200 40206 51001 81600 92345 333
81703=
61036 32960 5//// 10302 20198 39861 40092 80002 92345
333 58016 85080=
61043 32960 23602 10330 20146 39636 40058 80001 92347
333 59010 82080=
61045 31912 7//// 10320 20018 39576 40048 7062/ 80008 92345
333 59006 87280=
61052 32960 32206 10318 20195 39844 40088 80002
333 0//00 59011 83080=
61075 32965 72206 10315 20154 39777 40075 80008
333 59002 87280=
61080 32960 70000 10312 20170 39648 40053 80008 92346
333 59004 87280=
61090 31956 70806 10316 20160 39564 40050 70522 80008 92345
333 59008 87280=
61096 32965 70000 10305 20110 39678 40040 80008 92345
333 59010 87280=
61099 32965 5//// 10286 20225 39/// 4//// 80002 92345
333 5//// 85080=
60360 32660 30000 10173 20160 40208 51007 81202
333 0//00 81833 83073 95990=
60390 32570 20000 10176 20159 40182 51000 81202
333 0//00 81826 95990=
60402 32960 00000 10175 20141 40196 58006
333 95990=
60419 32970 00000 10173 20133 40187 58004
333 0//00 95990=
60475 32965 00000 10190 20115 39279 48589 58002
333 95990=
60525 32960 10906 10293 20108 40167 51005 81032
333 0//00 81360 95990=
60566 32960 02003 10294 20119 40156 50002=
60571 32962 02306 10282 21012 39265 48572 56002
333 0//00 95990=
60580 32960 00306 10290 20130 40145 58002=
60611 32960 00210 10260 20074 40130 58002=
60630 32960 00614 10310 20010 40122 50010
333 0//00=
60656 32960 00000 10309 20037 40107 50006
333 0//00=
60670 32970 00308 10280 20069 39060 48535 52002
333 0//00 95990=
60680 32758 60000 10233 20051 38664 48532 58003 86230
333 86856 83362 95990=
38149 32998 02902 10123 20045 30067 40141 57003   555 10012=
38178 429// 03503 10145 20011 39850 40126 52003   555 10010=
38262 32998 00000 10135 20089 30005 40144 57003   555 10013=
38264 35998 00000 10140 20102 30057 40147 52007   333 00010   555
10011=
38396 00403 10140 20062 40155 53013   333 00008   555 10007=
38403 429// 00504 10157 20023 30021 40137 52008   555 10013=
38457 42999 00201 10137 20056 39554 40120 57003   555 10010=
38462 42699 20000 10064 20050 38746 48496 54000 82500   555 11005=
38565 329// 00000 10122 20034 40132 54000   555 10007=
38579 32999 00000 10136 20076 39714 40118 57004   333 00008   555
10009=
38611 42997 03402 10146 20089 39581 40131 52005   333 00013   555
10012=
38618 41998 22101 10145 20105 39448 40115 52008 70282 82080   333
01012   555 11011=
38683 42997 03403 10143 20032 39850 40117 58004   333 00013   555
10012=
38812 42997 63505 10184 20071 40085 54000 80001   555 10018=
38927 32997 43302 10204 20017 39702 40058 56000 84030   333 00014
555 10016=
16066 31935 00000 10161 20129 39988 40240
52022 71011=
16084 32960 00000 10176 20156 30069 40233 51004 92345=
16120 32970 00307 10230 20155 30220 40223 50001
333 97075 555 0200/=
16090 32965 00503 10178 20128 30159 40241 50006 92345=
16170 32960 00000 10208 20125 30173 40217 51005=
16206 32965 03504 10170 20156 30204 40212 52006 92345=
16289 32970 03603 10189 20067 30127 40211 51004=
16405 32960 00510 10216 20182 30149 40189 50000=
16460 32960 22503 10187 20159 30174 40194 55000 82050
333 82359 95090=
16362 32560 20000 10175 20171 30172 40190 56002 82200
333 82820=
16008 42970 00000 10098 20068 38622 48579 51008 92345=
16020 36/// /0000 10155 20126 39951 40238 51013=
16110 32980 01004 10192 20092 30215 40239 56005 92345 555 0////=
16134 32980 03008 10090 20054 37927 48593 50001 92340=
16149 32980 02102 10140 20102 30219 40234 58001 92345=
16219 32970 00000 10114 21024 38218 48590 51002 92345=
16480 32997 03504 10204 20134 30130 40190 50000 92345 333 55300
555 0////=
16520 32970 00902 10165 20158 30183 40211 50003=
16522 32998 01208 10182 20173 39976 40216 50005 92345 555 0////=
16539 32997 01005 10186 20169 30096 40208 54002 92345 555 0////=
16550 32998 13406 10178 20115 30029 40207 58002 80001 92345 555
0////=
40706 32960 00705 10166 20081 38634 40075 53004 92345 333=
40732 32960 00000 10182 20145 30136 40116 50000 92345 333=
40745 32560 ?43603 10200 20062 38998 40057 56006 84500 92350
333 81930 84645=
40754 32960 03003 10170 20098 38784 40053 53005 92355=
40766 32960 01002 10142 21036 38647 40042 56001 92350 333=
40811 32960 00302 10288 20077 39978 40004 57006 92350 333=
40848 32960 03303 10220 20010 38454 49970 56008 92350 333=
40856 32960 03503 10264 20094 38555 49947 50011 92350 333=
40360 32960 03013 10220 20110 39494 40047 333 59020=
40362 32962 00412 10300 20080 39536 40015 333 58000=
40373 32960 03503 10306 21010 39619 40002 333 59005=
40375 32960 03408 10260 20040 39210 40029 333 59022=
40394 32960 00205 10292 20000 38955 48465 333 59004 555 04410
59993=
40405 32960 00000 10284 21030 39280 49960 333 59014=
40416 32960 03107 10320 20120 39960 49979 333 59015=
40420 32960 03304 10293 20010 39797 49989 333 59015=
40437 32960 00000 10290 21050 39343 49991 333 59007=
40438 32960 00000 10290 20000 39351 40006 333 59006=
40439 32960 02503 10246 20240 30030 40042 333 58009=
41024 32960 03504 10260 20150 30002 40021 333 59016=
41030 32960 03306 10308 20160 39762 40026 333 59002=
41036 32960 03012 10265 21020 38516 48462 333 59010 555 04410
59989=
41112 32960 00000 10195 20072 37916 48459 333 59011 555 04410
59987=
41128 32960 00000 10240 21050 38750 48468 333 59012 555 04410
50005=
41136 32960 00000 10240 21130 39229 49995 333 59020=
41140 32960 10000 10294 20250 30008 40016 81040 333 59015 81360=
38696 32999 31602 10151 20043 39289 40111 54000 80001   333 00009
555 10012=
33946 42959 61502 10154 20131 39915 40127 58005 8603,=
33791 42997 53405 10143 20113 30001 40150 58002 85030=
34504 41597 63607 10154 20136 39964 40136 56001 70182 86900
333 84930=
33587 41461 83601 10127 20112 39940 40198 52005 70282 883//
333 88914=
33924 42969 33506 10184 20119 30136 40148 54000 80001=
33631 42997 00000 10080 20070
30123 40267 54000=
33910 41598 83602 10175 20167 30107 40125 58005 78082 883//=
60355 32960 01806 10203 20162 40197 58006
333 95990=
60445 32965 10000 10207 20127 39048 48580 58001 80002
333 81073 95990=
60511 32965 00000 10215 20008 39104 48576 50004
333 0//00 95990=
60549 32960 20508 10266 20095 38916 48572 50001 82080
333 0//00 82360 95990=
60555 32970 01410 10294 20150 40163 50002
333 0//00 =
60559 32960 21208 10289 20141 40163 52002 80002
333 0//00 82073=
60607 32960 00914 10285 2//// 40141 51006
333 0//00=
60620 32960 00916 10310 2//// 40109 51009
333 0//00=
60640 32760 20208 10264 20012 40117 50001 82200
333 82850=
12595 32997 00000 10067 20061 30008 40272 52003 =
47407 11/60 80302 10110 20086 39979 40118 51009 69902 70252 886//
333 20078=
47409 11/30 83107 10076 20064 30064 40116 52008 60012 75152 886//
333 20066=
47418 12/70 70312 10105 20066 30064 40108 53013 60022 875//
333 20069=
47421 32/70 83504 10125 20102 30083 40128 53004 882//
333 20113=
47430 32/70 12413 10161 20083 30067 40118 51004 81100
333 20111=
47570 32/60 20106 10193 20116 39909 40156 50002 82101
333 20130=
47605 32/60 40105 10198 20142 30124 40163 55002 81102
333 20146=
47663 32960 70905 10233 20182 30123 40154 51007 80001
333 20168=
47675 32/75 42207 10237 20147 30057 40148 51011 81102
333 20186=
47741 31962 80604 10206 20154 30127 40152 58002 70222 80007
333 20161=
47746 32960 73102 10204 20126 30138 40156 58002 80002
333 20138=
47887 31959 71501 10225 20163 30113 40152 58001 71022 80002
333 20172=
40103 32960 01402 10198 20185 40085 57011=
83208 22264 00322 20303 311// 40804 80270 MASTER=
51855 32975 00000 10161 20069 49967 52006 333 05351=
52633 11575 80000 10019 20006 36759 52007 60021 76070 8172/
333 05151 30000 70197 92502=
51526 11880 62701 10186 20079 40013 54000 69901 70080 82462
333 05201 79999=
50877 31458 32504 10156 20137 40142 52005 71040 83600 333
00451 70001=
55248 32980 10000 10012 21059 35947 52016 80002 333 00201=
55294 11780 70000 10015 21012 35748 52002 69981 70080 879//
333// 00300 30002 70057=
55437 32780 23603 10038 21011 36366 52007 81102 333 00200
31007=
56202 11480 70000 10039 20022 35888 52009 60041 78088 879//
333// 00100 30030 70066=
56386 11857 83201 10230 20184 40012 52007 69901 71060 8357/
333 00051 79999=
56548 32680 60000 10142 20110 37687 52006 85402 333 00100=
56664 32980 20000 10233 20163 40008 52014 80002 333 00100=
56793 32575 81802 10209 20176 38445 52011 885// 333 00100
70006=
56856 32680 70000 10220 20193 40050 52012 86162 333 00201
79999=
57606 32570 71604 10244 20189 40021 52009 87800 333 00002
79999=
57803 32980 72202 10233 20180 40025 52014 8704/ 333 00102=
57806 11580 72004 10210 20183 40045 52009 69901 70060 878//
333 00101 79999=
57825 32680 23202 10253 20211 40057 52014 82440 333 00102
79999=
57906 32575 60000 10246 20230 40065 52016 86500 333 00201=
55228 32980 20000 10020 21090 36055 52013 80002 333 00300=
55279 11680 80000 10015 20005 35731 52007 60041 70098 889//
333// 00353 30002 70060 92501=
55472 11580 70000 10040 20011 35764 52010 69981 71480 879//
333// 00351 30024 70008=
56106 11680 80000 10013 21002 36233 52015 60071 78388 884//
333// 00353 30015 70123=
56385 11/01 92504 10099 20097 36995 52007 69931 74564 333
05100 70021=
51633 31680 80000 10132 20109 40016 52011 70090 889// 333
00002=
51642 32770 70402 10181 20058 49991 52004 81402 333 05101=
52101 32980 60000 10116 20048 38308 52009 80002 333 00151
30049=
96009 11456 80000 10238 20229 30055 40089 5//// 60034 72162 8692/
333 20234 50430 55065 56009 57903 58019 82915 84615 80950=
96011 01558 80000 10235 20209 30039 40062 5//// 60624 70262 85522
333 20223 51310 55/// 56000 58005 85620=
89061 32/// /0504 11044 30038 40048 56009 92334 333 11032 21070=
89063 42599 81705 11043 21068 30040 40054 57015 82537 92345 333
11034 21064=
89062 42/98 80211 11022 21074 30002 40044 57003 333 11006 21067=
87016 32575 80000 10140 20114 39771 40180 53005 885//
333 10156 20133 88625=
87022 32960 10000 10120 20105 39656 40180 58007 81001
333 10170 20115=
87046 31460 82006 10100 20061 39147 48510 52011 71522 886//
333 10127 20100 56899 84712 84615=
87047 32365 80503 10083 20071 38813 48521 53015 886//
333 10109 20083 56199 84707 88620=
87129 32570 80000 10131 20096 39945 40181 57001 8257/ 333 10162
20118 82620=
87217 32770 80000 10140 20090 39638 40138 53005 885//
333 10166 20109 56699 88656=
87222 31760 10526 10128 20081 39598 40123 51003 81500 333 10176
20120 56099 81656=
87257 32565 83605 10126 20103 30089 40195 53012 885// 333 10160 20106
56199 88625=
87311 32965 72302 10086 20047 39438 40139 53004 87070
333 10131 20085 56000 87360=
87320 32560 81104 10113 20077 39620 40162 53003 885// 333 10130 20087
56999 88625=
87328 32980 30502 10100 20057 39497 40169 52011 80006 333 10164 20062
95000=
87344 32465 60214 10093 20075 39617 40178 51007 86600 333 10136
20076 56800 86715 94470=
87349 32560 33609 10094 20088 39773 40176 55000 83500 333 10112 20080
56800 83621=
87371 31959 20000 10108 20092 30189 40211 51005 71000
82030 333 10151 20094 56060 82360=
87416 32970 60000 10100 20057 39374 40137 53003 86070 333 10128
20065=
87418 32665 70000 10096 20069 39325 40144 54000 87500 333 10100 20063
56500 87635=
87448 32970 00505 10072 20058 39579 40159 52008 333 10170 20058
56999=
87453 2970 83612 10096 20071 39664 40164 52003 886// 333 10102
20076 56199 83710 86620=
87467 32670 30505 10106 20077 30054 40194 53009 83500 333 10138
20047=
87506 32975 12304 10021 20001 38541 48463 53008 81040 333 10070 20021
95090=
70194 32866 62405 10170 20020 30049 90015 555 90200=
78318 11560 60000 10265 20219 30180 40184 53022 69901 70598 83242
333 01999 10327 20228 30/// 58022 79999 83820 86073=
78325 31559 70804 10277 20239 30122 40179 52011 71592 84963 333
06999 10316 20236 30/// 57935 59019 82820 819// 85360=
78333 11510 73501 10228 20218 30178 40184 5/023 60021 71798 879//
333 06899 10315 20212 31/// 57980 58024 70015 82820 879// 555
10103=
78338 01557 81801 10247 20217 30177 40191 53014 69941 79596 8497/
333 05299 10320 20204 31/// 57910 58026 69947 70194 82820 85458
829// 91109 91504 90445 555 10902=
78349 01540 73302 10231 20224 30075 40187 55004 60191 71398 879//
333 06899 10319 20205 31/// 54519 57982 60077 70193 85820 82921
555 13603=
78360 31565 80801 10277 20191 30159 40170 53014 70522 8182/ 333
00999 10292 20230 30/// 58011 70002 81820 884// 92012=
78369 32464 80703 10271 20265 30168 40180 53011 8422/ 333 02299
10300 20219 30/// 57860 58014 70236 84818 88457 92023 555 10802=
72256 32766 21311 10317 20206 39963 40141 56015 92353 333 10333
555 90200=
72638 35566 81408 10170 20110 39727 90011 555 90200=
72641 31259 81709 10190 20180 39829 710// 90013 333 96010 555
90200=
72644 32466 83220 10160 20130 39668 90014 555 90200=
72645 31320 81211 10160 20160 39844 710// 90014 333 96010 555
90200=
72747 37462 80506 10100 20090 39732 761// 90010 555 90200=
87791 32580 63216 10088 20016 30106 40116 57016 86500 333 10120
20028 56800 86620=
87803 32580 72503 10040 20008 39089 40010 57013 82570
333 10053 21020 82630 86360=
87828 32980 03210 10074 20042 39997 40050 57009 333 10136 20005=
87852 31580 73221 20032 39420 49940 57025 716// 83572 333 10090
21032 56666 83630 83070=
87860 32980 52909 10083 20012 39928 49984 57027 88006 333 10125
20030 56006 85270=
87896 32980 43616 10053 20044 39880 49977 57021 80006 333 10101
20043 56006 84270=
87903 32580 80000 10050 20009 39588 49851 57025 83771 333 10083
20013 56555 83730 84360=
87909 32980 73615 10070 20010 39840 49916 57025 84076 333 10070
20007 56000 84360 83270=
87925 32580 80213 10058 20019 39844 49867 57021 8357/ 333 10062
20026 56109 83630 85360=
87938 32580 70509 10066 20005 39806 49875 57027 83570 333 10074 20030
56110 83630 85360=
64500 32460 82208 10264 20244 30093 40107 885//
333 0//00 59001 84610 88630=
64552 32960 0///// 10225 20220 39460 40101
333 0//00 58003 89///=
10143 20056 70032=
83565 32994 01802 10198 20168 39678 40155 333 10274 59024=
94103 35/// /0819 10243 3//// 5////=
94147 35/// /1423 10265 30100 40119 52004=
94151 35/// /2319 10235 30138 40158 52013=
94290 35/// /1415 10202 30159 40166 52004=
94394 35/// /2516 10211 30132 40140 52007=
91502 31575 33607 10314 20253 40096 57001 70500 83208
333 20248 56800 58006 83820=
91503 01480 30203 10294 20250 40099 54000 60404 72581 82238
333 20239 56199 58006 69927 82817=
91507 01480 31805 10285 20249 40098 57006 60034 72161 81933
333 20235 56299 58006 60037 81816 81917 83362=
91517 31480 30704 10308 20249 40088 57011 70510 81232
333 20235 56200 58005 81817 83280=
91520 31480 40505 10310 20244 40093 58002 70521 81933
333 20234 56100 58007 81818 84362=
91527 11448 73614 10286 20252 4//// 5//// 69904 71652 879//
333 20244 56800 5//// 84816 83917=
91541 12480 30905 10290 20247 40093 57009 60044 82201
333 20240 56200 58006 82815=
94129 35/// /1011 10228 30122 40145 52008=
94210 35/// /0815 10234 30160 40165 52017=
94289 35/// /1318 10214 30148 40157 52003=
94307 35/// /0923 10205 30153 40193 52012=
94371 35/// /1715 10177 30166 40172 52006=
94379 35/// /2311 10186 30146 40155 52003=
96035 11450 80000 10244 20234 30049 40081 52012 60124 70521 85978
333 20238 50440 55064 56000 57901 58020 81917 84617 80956=
96073 01410 80000 10231 20230 30094 40101 52018 60564 76366 889//
333 20228 5///0 55/// 56099 57900 58022 60527 88910 80900=
96109 11456 80000 10248 20239 30032 40070 53002 70522 60024 84531
333 20236 50041 55030 56000 58011 84614=
96145 11467 70000 10254 20239 30059 40064 5//// 60034 70262 83270
333 20246 50240 55001 56400 57843 58003 83817 87460 80860=
96163 12562 80000 10244 20235 30075 40082 52004 60134 84571
333 20233 55/// 56000 59009 84625=
96195 11220 80000 10240 20237 30047 40082 69944 74322 85521
333 20236 55057 56009 85606=
96249 31560 60000 10254 20245 30006 40065 52011 70522 82923
333 20242 50340 55020 56000 57902 59003 81920 80980=
96295 11430 82405 10228 20222 39990 40094 51001 69964 70521 83527
333 20226 40470 55041 55508 57725 56500 59006 83615=
96509 32460 60000 10247 20238 30068 40075 52011 82271
333 20282 50360 55041 56000 57802 59007 82817 80856=
96633 12558 72605 10267 20243 30087 40094 52019 60064 83971
333 20249 50360 55059 55508 51425 56000 57902 58014 81918 82616
80980=
96655 12458 81204 10245 20237 30068 40096 55004 69954 86572
333 20232 50620 55050 56600 59007 86610=
96685 11459 70000 10245 20239 30058 40084 52004 60104 72842 83571
333 20229 5///0 55049 56000 59004 83615=
96749 31550 61903 10246 30065 40078 53006 70521 83511 92359
333 20230 56000 59001 83625 85462=
96805 32559 50000 10256 20244 30069 40080 56008 8422/
333 20244 50481 55074 56000 57801 59012 84820 80860=
97014 12560 70000 10252 20236 39988 40081 57010 60514 82871
333 20222 50120 55032 56000 57803 58000 82825 80856 84462=
97028 12564 70902 10250 20237 30067 40073 52018 60584 84921
333 20234 50140 55069 56000 57902 57803 58004 81920 83820 86460
80960=
97048 31458 61205 10266 20235 30061 40085 52014 71022 84532
333 20241 50360 55039 56400 58005 84613=
97072 12460 72601 10256 20232 30014 40116 53015 69964 83521
333 20246 50550 55/// 56000 58011 83619=
97086 01457 71912 10255 20237 30070 40093 51018 69984 76162 83270
333 20249 50440 55073 56000 57000 58014 69987 83617 85460=
97146 11456 72704 10244 20238 40092 5//// 60034 70522 84531
333 20226 56000 57603 58010 84618 80635=
97180 01460 71203 10252 20240 30079 40097 57009 60144 70296 82571
333 20226 5//// 55039 56000 58003 69917 82619 86460=
97192 12467 60403 10262 20244 30054 40118 52018 60234 84270
333 20230 55032 56000 57803 58019 84617 80858=
97230 32462 71208 10269 20241 30083 40090 52006 85932
333 20261 50540 55063 56200 57921 57821 59006 81919 84818 80962=
97260 32568 70000 10238 20216 30087 40094 52014 85531
333 20224 56000 58008 85620=
97270 11457 71608 10256 20223 30099 40104 51011 69924 70522 86270
333 20212 50870 55064 56000 57800 58007 82813 85613 86459=
97300 32562 71907 10266 20213 30074 40106 52008 82231
333 20246 50530 55095 56400 57863 58002 82820 85359 80858=
97340 32568 61008 10253 20209 30105 40116 52013 82232
333 20226 50290 55093 56000 57802 58008 82820 80857 85080=
97372 32565 51210 10238 20188 39991 40120 51011 82231
333 20228 50500 55080 56000 57800 58010 82820=
97430 01460 60203 10280 20239 30058 40087 69978 70522 83232
333 20238 50440 55045 56800 57881 58000 69977 83818 80860=
97600 01458 80903 10252 20241 30095 40100 60414 76162 8282/
333 20206 55020 56309 57833 58009 60117 81817 88458 80857=
97748 01455 81607 10260 20255 30083 40090 5//// 60524 71562 85962
333 20193 50090 55034 56300 57930 58001 60027 82914 83815 86758=
97900 32467 61408 10262 20211 30089 40120 51007 84870
333 20240 50530 55077 56300 57821 58007 82617 84820 80873=
96001 01456 81908 10246 20209 39933 40076 5//// 60654 71662 85522
333 20224 50000 55060 56600 58004 60427 85617=
96015 01430 80904 10223 20217 30074 40080 5//// 60904 72162 86576
333 20214 50000 55095 55508 50840 56000 58013 60907 86614=
96075 01458 80000 10242 20233 30073 40083 57001 60074 70262 8587/
333 20148 55052 56009 57803 58013 69907 82816 83618 80850=
96171 11440 70000 10232 20229 30045 40069 53002 60254 70596 84522
333 20228 50400 55045 56000 58007 84615=
96525 12965 50000 10250 20236 30075 40082 60054 82032
333 20232 50540 55038 56000 82360 84080=
96529 11/09 90000 10236 20234 30074 40097 52007 60184 74544
333 20228 50100 55034 56999 59013 89/03=
96595 01440 80504 10244 20238 30043 40090 60094 71062 8726/
333 20/// 50570 55040 56809 58005 60080 87505=
96607 12458 70000 10252 20237 30095 40109 52003 60134 84921
333 20230 50230 55054 56000 57911 58014 82920 84460 80960=
96695 12558 70000 10240 20237 30086 40091 5//// 60074 84520
333 20238 50023 55012 56000 58002 84620 83470=
96739 31540 70000 10228 20222 30020 40069 52005 71021 81532
333 20226 50150 56000 59005 81625 86080=
96747 31957 60000 10238 20220 40072 81032
333 20235 55/// 56000 58000 81362 85080=
96751 32559 31802 10190 20156 39030 48920 83100
333 20175 50500 55078 56200 59013 79999 83620=
96783 32560 50000 10188 20163 39195 48791 84501
333 10176 50370 55073 56000 57600 59008 84628 80680=
96797 31457 70000 10250 20230 30075 40078 57005 71522 85971
333 20230 50310 55/// 56400 57942 57841 58001 81918 80981 84820
80880=
97008 01456 71702 10274 20254 30061 40108 52009 60114 76062 86271
333 2//// 5//// 55016 56200 59003 60047 86817 80862=
97016 01461 70000 10257 20242 30079 40081 52013 60034 70562 84572
333 20232 50250 55028 56000 57901 57801 58004 60037 81918 83820=
97126 01457 70000 10242 20233 30013 40072 52014 60514 76166 81970
333 20218 50970 55078 56000 57902 58022 60067 81915 87460 80979=
97182 01458 70804 10249 20236 40099 52015 60594 76062 8387/
333 20241 50610 55030 56009 57803 58017 82818 87360 80875=
97240 31456 71305 10252 20229 30078 40098 52012 70521 83172
333 20238 56000 57801 58004 83817 80860=
97320 32568 60000 10254 20236 30108 81131
333 20220 50/// 55/// 56000 57803 59005 81820 85360 80845=
97460 11458 70000 10254 20239 30067 40076 60064 70522 82812
333 20236 50460 55080 56600 58010 81818 83358 80858=
97700 01458 82105 10248 20241 4//// 60044 76162 8722/
333 20244 5//// 55047 56309 57232 60047 87818 80860=
97722 01430 80000 10242 20239 30117 40117 5//// 60264 76362 8692/
333 20236 50360 55054 56209 57920 58014 60147 82915 88456 80982=
97790 01458 81709 10270 20244 30061 40081 5//// 60064 70562 8582/
333 20216 50230 55015 56309 57831 58009 69997 83817 88458 80860=
44237 32599 71805 10126 20053 38433 40062 53004 86543 333
20075=
44256 32999 00000 10175 20074 39313 40107 54000 333 20097
30063=
44313 32999 00000 10157 20041 39375 40169 53011 333 20050=
23074 32298 30411 10002 21009 30123 40147 52001 83600 333
21003 42004 83704 91116=
23711 42598 51202 10129 20120 39986 40152 57006 82901=
23804 42998 31901 10163 20115 39989 40130 58001 82031=
24125 12699 80408 10056 20016 39807 40074 53007 69902 8255/
333 20054 55025 91114=
24143 32999 40000 10161 20038 30062 40103 52001 84071 333
20040=
24343 32999 80501 10145 20051 39986 40096 54000 84032 333
20073 55184=
24738 32599 81401 10135 20064 39861 20028 57008 85934 333
20111 55171=
24951 32999 00000 10132 20068 39953 40095 58005 333 20074=
24959 32999 80602 10171 20027 39975 40094 52001 80001 333
20061 55171=
24966 32999 11702 10147 20050 39883 40085 58001 81030 333
20055 55097=
29698 12598 80401 10158 20138 39584 40056 53010 60022 83902
333 20127 55099=
32027 32999 71804 10096 20065 30113 40121 53004 82002 333
20004=
20069 11345 81805 11002 21011 39963 49976 57037 69922 71073
886// 333 21012 44030 55000 88708=
20087 11357 81811 11022 21028 30036 40046 57067 69982 77373
8672/ 333 21037 44040 55027 86707 91114=
20292 32377 82404 11037 21042 30130 40149 57012 886// 333
21050 44/// 55000 88707=
20667 41998 82210 10017 20003 30089 40097 57023 70262 8807/
333   91112=
20674 32280 71911 11016 21030 30101 40160 57020 875// 333
21020 42031 55005 86705 91114=
20744 41/92 91704 10015 20015 30130 40148 52018 74544 333   91111=
20891 11496 70104 11017 21028 30139 40181 54000 69932 78582
8635/ 333 21015 41/// 55049 86913=
23022 41/93 93003 10008 20008 30093 40154 53019 74784 333   91109=
23032 42968 00906 10033 20009 30111 40143 57007 333   91108=
98135 31470 21104 10290 20253 40118 53011 70544 82205 222//
20305 333 20268 56299 58009 82819=
98232 31570 12001 10280 20255 40104 52011 70544 81200 222//
299// 333 20255 56999 58001 81818=
98329 31475 31101 10265 20228 40106 5/027 70544 81962 333
20233 56999 58017 81918=
98653 31470 31202 10275 20248 40085 52008 70544 82201 333
20242 56999 59010 70216 82818=
86260 22255 00270 20201 318// 40302 80265=
58008=
48325 12465 80000 10250 20232 39806 40048 69944 82607
333 20235 58002 70004=
48352 32562 70000 10254 20245 39849 40047 84576
333 20244 58001 70113=
48357 01440 0000= 10250 20244 39883 40051 60664 76196 8577/
333 20241 59005 60117 70656=
48403 01550 80000 10232 20229 39841 40052 60864 76192 85576
333 20225 58009 60065 70858=
48405 11460 80000 10253 20241 39882 40043 60134 70262 8687/
333 20245 58000 70134=
48425 12560 81802 10272 20233 30033 40043 69914 84536
333 20268 58001 70001=
48426 12560 80000 10263 20243 30029 40042 60074 84576
333 20255 59001 70072=
48430 11559 80000 10255 20240 30033 40041 60084 71022 83577
333 20236 59009 70084=
48450 32560 80000 10262 20233 30010 40043 82556
333 20258 59005=
48459 32562 70000 10285 20242 30039 40042 82506
333 20273 59008=
48550 11456 82703 10273 20233 30054 40059 60044 71522 83876
333 20250 59002 70036=
48551 01556 80000 10245 20238 30055 40063 60024 76166 83577
333 20235 58001 60017 70091=
48568 01450 82704 10250 20238 30065 40072 60044 76162 8582/
333 20249 58013 60047 70041=
48569 01456 80000 10255 20245 30033 40073 60094 76162 8587/
333 20235 58011 60057 70085=
48583 11558 70000 10252 20240 30064 40070 69904 71022 82856
333 20246 58005 79999=
22271 41476 71203 10062 20041 30144 40164 54000 70282 82330=
22522 42599 72802 10072 20050 30152 40161 56002 86502=
22887 41570 61202 10154 20147 30060 40127 52001 72582 83131=
27037 42498 83004 10099 20086 30015 40172 52007 889// 333
86711=
48353 01460 80000 10230 20223 39764 40053 60254 70296 8767/
333 20220 58008 69917 70254=
48375 32560 60000 10245 20233 39814 40039 85526 333 20244
58001=
48378 01440 80000 10240 20233 39999 40051 60694 79592 8592/
333 20228 58014 60697 70686=
48381 11460 83602 10242 20239 39825 40047 60714 70296 8547/
333 20225 58001 70712=
48431 01458 80000 10251 20246 39840 40053 60364 76062 8772/
333 20244 58007 69915 70358=
48432 01556 80000 10246 20243 39886 40053 60184 76162 8427/
333 20239 58004 69917 70179=
48455 32562 60000 10280 20243 30042 40047 84846 333 20275
58000=
48500 01556 82303 10255 20230 30049 40054 69994 76062 8652/
333 20247 58001 69917 70009=
58006=
58007=
59001=
56290 58001=
58968 31658 60000 10284 20241 30116 40123 51012 71020 82402=
58974 31440 81810 10263 20263 30012 40129 51014 71041 8361/=
59358 32562 30201 10304 20271 30106 40117 52010 83100=
59559 32570 30808 10298 20241 30098 40125 51015 83200=
59792 32563 50912 10298 20266 30102 40106 52010 82262=
59997 32565 41703 10275 20233 30072 40086 53013 82208=
59158 32565 42201 10300 20238 30021 40118 51009 84400=
59562 32580 21803 10291 20244 30119 40130 51018 82100=
59567 32480 60812 10262 20236 39764 40133 51013 86400=
24266 32599 21201 10128 20061 39949 40113 58001 81230 333
20065 55018=
24329 32599 80901 10140 20036 39753 40029 57004 8691/ 333
20108 55077=
24382 32798 82601 10078 20034 39906 40143 52002 8657/ 333
20033 55000=
24507 32498 83603 10066 20035 39850 40075 52013 885// 333
20057 55004 88613=
24817 11599 71901 10152 20143 39691 40029 52013 60052 70182
82541 333 20126 55096=
24908 32679 71801 10110 20088 39728 40036 52009 82531 333
20070 55071=
24944 32699 82001 10076 20055 39792 40058 57006 81532 333
20073 55164=
29594 12999 80000 10174 20137 39700 40054 52011 69992 80001
333 20132 55111=
29676 32999 30000 10121 20105 39661 40056 52005 80002 333
20080=
30054 11598 73301 10143 20097 39812 40034 57010 69932 70282
82931 333 10100 55078=
30393 32999 10000 10130 20006 39145 40122 52003 80001 333
20031=
30603 32998 52901 10189 20117 39513 40032 52015 80001 333
20133=
30612 42999 83102 10131 20095 39543 40037 52005 80007 333
20111 55141=
30664 32999 10000 10127 20030 39195 40121 58004 80002 333
10240 21012 55137=
16641 32960 00000 10202 20155 30142 40147 51001 333 90730 91106
555 40000 47641 44240 50000 50174=
12375 32970 01801 10067 20058 30130 40262 54000=
42410 21495 70000 10256 20247 40024 71022 83520 333 58011
6990/ 83615 85457=
42634 32496 32704 10284 20247 40015 82701 333 59006 81710=
42886 32996 30901 10296 20229 40000 83030 333 59014 83360=
42895 32996 50000 10284 20267 40006 85030 333 58000 85360=
42934 32996 52902 10270 20210 40004 82031 333 59031 82630
85075=
42971 31496 50000 10278 20260 40008 70520 83631 333 56490
59004 81712 84360=
43198 21496 72703 10216 20201 39923 40042 70262 85601 333
56609 59012 6990/ 84710 83615=
43201 22496 62302 10222 20213 39326 40040 84602 333 59014
6003/ 82715 83620 85075=
43213 21896 70000 10265 20225 39712 40025 70162 83038 333
59011 6993/=
43353 21496 60000 10238 20235 40066 70165 83830 333 56790
59014 6019/ 83616 86358=
42348 31596 12703 10320 20192 49981 70500 81500 333 59013
81630=
42452 32996 02504 10330 20201 59009=
96881 31556 60000 10242 20221 40104 70522 83571
333 20170 56000 58001 83620=
23256 42499 83405 11003 21012 30133 40167 57005 883// 333
85910=
23274 32998 03605 10023 20001 30077 40115 53003 333 20000
41998 55156=
23330 42098 01301 10092 20041 30146 60164 57010=
23383 32699 80902 10050 21006 39755 40093 52013 885// 20034
41998 51011=
23472 32599 23502 10058 20004 30038 40085 54000 82500 333
20021 55186=
23552 41997 23303 10030 20006 30113 40143 57006 70230 82050=
23631 42999 02202 10064 20036 30137 40177 57003=
23678 32998 33102 10044 21007 30011 40068 52006 82031 333
20044=
23734 42998 50101 10057 20003 30099 40189 54000 85030=
23849 42996 03403 10082 21002 40147 57001=
23884 12570 80000 10083 20070 39974 40044 53003 69902 885//
333 20073 55000=
23891 11596 70000 10096 20088 39729 40042 52006 69902 74142
85930 333 20085 55039=
23933 42997 32601 10073 20053 30131 40188 58009 80001=
25400 32799 31302 10167 20029 30099 40150 57003 83100 333
20061 55188=
28275 42999 03402 10090 20053 30126 40184 52006=
28382 42998 03603 10062 20020 30091 40161 52009=
28493 42699 50202 10072 20029 30035 40124 53004 83501=
28573 42989 03403 10072 20032 30060 40161 52005=
28698 42998 03501 10044 20019 39971 40121 52001=
28786 42998 23502 10036 20013 39981 40136 52008 80002=
29253 11898 80000 10084 20078 39844 40059 52008 60012 70262
8802/ 333 20084=
29263 11598 82702 10110 20094 39957 40052 52016 69942 70282
8695/ 333 20100 55068 11013 31011 7997/=
29282 32598 20000 10144 20104 39889 40045 52012 80002 333
20108 55084=
38954 41899 81702 10100 20075 37946 48520 53005 78082 889//=
40356 32960 00605 10220 21010 39119 48464 333 59013
555 04410 50027=
40785 32960 00000 10232 20071 38990 40024 54000 92350 333=
41170 32970 03002 10312 20198 39973 49986 333 59022=
41196 32960 01303 10219 20179 39947 49986 333 59021=
41216 31940 00000 10260 20246 39981 49985 70500 333 59020=
23205 42684 80903 10081 20046 30149 40164 58009 8355/=
23219 42998 63304 10102 20073 30051 40153 52010 85032=
27271 41596 50000 10140 20131 39995 40144 52003 71022 81960=
42492 21595 60503 10270 20256 49996 72122 84330 333 59006
6994/ 83620 81930 85360=
42667 32596 22704 10272 20211 39429 49998 81530 333 59035
81625=
42754 32596 12706 10264 20219 39392 40011 81130 333 59029
81825=
43063 22596 72901 10232 20207 39416 40033 83530 333 59020
6001/ 83628 85356=
83611=
16320 32960 03307 10212 20155 30174 40186 58001 92345=
16716 32562 60108 10218 20119 30145 40162 52009 83850 333
81825 83645 85358 90730 91125=
16734 32565 30000 10204 20182 30080 40142 51002 83200 333
90730 91106=
16754 32460 13203 10194 20175 30088 40136 58005 81100 333
90730 91108=
53487 32960 10905 10199 20096 40109 52004 80002 333 00302=
53764 32970 80705 10216 20145 40078 52014 8802/ 333 00300=
24982 31597 80000 10057 20043 39641 40118 52003 78082 889//
333 20025=
25325 32999 20704 10126 21054 30027 40182 52001 80002 333
20011 55163=
30777 32998 13301 10128 20025 39530 40143 58001 80001 333
20029 55121=
31174 32998 81602 10074 20032 30090 40101 52001 81037 333
20026 55133=
31263 32699 13001 10149 20071 39579 40117 52001 81100 333
20017=
31624 12599 52701 10154 20094 40081 58005 60010 85900 333
20074=
31832 32499 12301 10195 20131 30017 40096 54000 81100 333
20113=
31913 31999 03402 10192 20114 30016 40119 52004 69962 333
20125=
36087 12699 30401 10122 20073 40168 52003 69902 82302 333
20106 55019 95000=
36096 32699 73402 10175 20074 40027 52011 87900 333 20174
55125 95000=
36103 32699 80000 10094 20068 40083 52003 889// 333 20074
95000=
36231 32599 80000 10083 20068 39121 40077 54000 8455/ 333
20075=
36259 32599 80201 10059 20019 38171 48435 53015 83901 333
20035 55007=
36307 32599 70902 10154 20056 38835 48438 52009 86902 333
20139 86930 95000=
51243 32980 72905 10216 20046 39524 40029 52017 86032 333
00000=
51431 11780 73201 10126 20108 39370 40123 52026 69961 78080
874// 333 00400 70006=
51495 32980 73408 10227 20072 40090 52009 80002 333 00100=
51644 32980 70000 10148 20091 38834 40010 52008 83032 333
00051=
51656 31780 70705 10234 20056 38988 49994 57003 70090 85402
333 05102 79999=
51765 32980 00701 10180 20122 39075 49994 52013 333 05151=
51777 32970 10000 10163 20074 39021 49986 52012 80002 333
05353=
52203 32980 20000 10174 20106 39199 40014 52011 80002 333
00100=
55299 11780 80000 10019 20011 35880 52010 60051 78080 889//
333// 00352 30000 70101=
59004 81712 84360=
41998 55156=
96853 31556 70000 10238 20220 39959 40080 52010 70522 83571
333 20214 56000 59004 83620 84362=
96925 11465 60507 10276 20240 30082 40089 52008 60084 70162 83272
333 20240 50440 55006 56200 57820 59006 83817 80860=
96935 32465 70000 10261 20233 30084 40090 52010 81530
333 20235 50430 55049 56000 59003 81618 87360=
96937 32558 70000 10266 20242 30087 40094 52023 84171
333 20243 50400 55040 56000 59002 84820=
96987 11458 70000 10258 20234 30039 40098 52010 69907 71462 87921
333 20250 50311 55030 56000 57902 59003 81960 86617 80980=
97310 32568 40000 10272 20234 30080 40090 83201
333 20218 60430 55097 56000 57802 58003 83820 80830=
96933 32460 70000 10260 20233 30093 40100 52015 84871
333 20233 50311 55045 56000 58007 82818 86461 80865=
71433 36/// /0519 10074 20074 39900 40129 58041 333 10094 20045
70002=
71841 17/// /0901 10093 20066 39795 40190 56004 69941 7//4/ 333
10144 20021=
89758 46/// /17// 11359 37137 4//// 5////=
42123 31994 20000 10300 20237 49960 70600 82030
333 58000 82360=
42542 32996 02306 10300 20220 39438 59021=
41184 32960 01503 10254 20199 49989 333 59023=
41194 32960 01503 10246 20199 39971 39983 333 59024=
41217 32960 00000 10234 20201 39957 49986 333 59020=
23803 42998 81102 10166 20112 39972 40141 57002 83061=
42339 31995 02305 10300 20217 40003 59010=
42701 31996 32306 10262 20206 39296 40002 70500
333 59003=
42798 31995 20000 10266 20249 40004 70500 82030
333 58001 82360=
42874 32996 62304 10294 20210 49994 80001
333 59012 86075=
44454 42558 60000 10186 20177 48595  84530 333 58010=
44416 42465 60000 10232  39261 49990 83630 333 59002=
44438 42557 40902 10270 20256 39883 40004 84400 333 59006=
44477 42762 10000 10200 20188 38754 48468 81100 333 58007=
40007 32970 02602 10186 20103 40044 57007=
40045 32970 02903 10214 21035 40061 57006=
40080 32965 02203 10184 20133 39385 40054 55007=
48460 32562 83004 10288 20240 30015 40046 85576
333 20285 59010=
48501 12560 82703 10283 20250 30048 40056 60174 84577
333 20252 59003 70173=
48564 01460 72704 10270 20226 30060 40065 60064 70166 84276
333 20258 58006 69977 70065=
48580 11558 80000 10257 20241 30059 40066 60084 71022 84847
333 20251 58008 70083=
98336 32481 23602 10294 20263 40099 50009 81202
333 20232 56199 59002 81815=
98431 31470 40601 10297 20265 40099 51012 70544 82230
333 20240 56999 58000 82818 84360=
98536 31470 40903 10294 20256 40082 53014 70541 83260 222//
20000
333 20276 56299 59001 83818
555 0////=
98646 11560 60201 10274 20256 40102 52012 60164 70298 82201
333 20254 56999 58006 70158 82820 85350
555 20158=
98741 11468 80000 10261 20246 40097 52011 60304 71798 82975
333 20230 56999 58002 70298 82917 88358
555 20240=
98747 31470 12001 10251 20212 40075 53014 70544 81101
333 20226 56999 58000 81818=
98753 31468 70702 10282 20237 40079 53011 70544 81938
333 20247 56999 59002 81915 86279=
42101 32996 21402 10268 20248 49984 80001 333 59007 84070=
42165 32996 02505 10318 20225 49980 333 59003=
42182 21695 50000 10270 20238 49980 70522 83330 333 59003
6018/ 83635 81940 85360=
42189 21995 20502 10276 20244 49991 70500 81031 333 58001
6002/ 81360 83070=
42314 21596 30000 10240 20237 40037 70520 81530 333 58013
6002/ 81620=
42379 21556 70000 10280 20227 49999 79522 86920 333 56699
58000 6990/ 86625 81930 87458=
43041 22996 50000 10238 20229 39410 40018 85030 333 58004
6012/ 85360=
43086 31596 50000 10286 20234 39831 40005 70521 81532 333
59019=
43110 21496 80000 10250 20241 40038 75162 8672/ 333 59017=
43314 21596 73601 10242 20233 40052 82431 333 59014 6029/=
43333 21496 62702 10260 20240 40028 70262 83431 333 56699
59017=
91245 32566 60908 10290 20240 30150 92350=
42361 22597 31402 10272 20216 49951 82501 333 59010 6990/
82620 83075=
98526 32575 81801 10282 20266 40082 53016 82107 333 20252
56999 59006 82825 88275 98325=
98748 31470 20000 10269 20/// 40077 52013 70544 81401 333
20239 56999 58001 81617=
48820 11597 70502 10267 20249 30060 40068 53014 69902 71796
879// 333 01027 20266 3/026 58011 83895 87995=
48826 11497 71401 10282 20268 39934 40061 53016 60052 70298
878// 333 00029 20254 3/023 58011 82894 87697=
48838 32598 70903 10285 20258 30071 40077 52013 878// 333
00029 20280 3/027 58017 86895=
48839 32498 61102 10296 20267 30004 40067 53014 869// 222//
2//00 333 00/// 20270 58021 83894 84995=
48845 11498 70903 10272 20258 30043 40050 52008 60092 70382
879// 333 01028 20258 3/027 58000 83894 81995 85697=
48848 11770 71602 10275 20251 30046 40054 53016 60052 70262
82508 333 01028 20252 3/023 58008 82697 87299=
48855 32570 72001 10267 20250 30050 40058 52016 82848 333
01029 20240 3/024 58045 81895 87299=
48900 11495 70701 10249 20248 30064 40074 52015 60272 76066
8882/ 333 20232 58013 83894 83696 87499=
48914 11597 80000 10254 20245 30076 40078 53003 60082 76086
888// 333 02026 20242 3/025 58005 82895 88696=
48917 11498 82702 10260 20244 30071 40076 52008 60372 70382
8592/ 222// 00285 2//02 333 02/// 20250 3//// 58019 82894
84995 88499=
48918 11470 82903 10254 20235 30070 40081 52015 60122 72162
8292/ 222// 00280 2//01 333 01026 20250 3/025 58014 81894
82995 88499=
43014 22596 62703 10238 20205 39386 40025 83530 333 59023
6002/ 83620 85360=
43369 21596 43203 10286 20258 40061 75052 84400 333 59017
6998/ 83620=
41715 329// 01302 10310 20269 39903 49966 333 58003=
41780 326// 32305 10295 20253 39980 40007 83500 333 56900
59003 83630=
41718 329// 11803 10300 20243 39868 49966 81030 333 59007=
82460 22214 02008 20202 301// 40504 80130=
71421 46/// ///// 10062 20023 39406 40100 51023=
98531 31870 30401 10276 20258 40075 53011 70544 80041
333 20238 56999 59006 81356=
44404 42570 13501 10166 20156 4//// 81100
333 5////=
44424 42569 70000 10118 20100 4//// 87600
333 5////=
44434 41/02 80000 10216 20198 39128 48454 74011 8864/
333 58007=
44449 42565 30305 10250 20236 39857 40007 81130
333 58001=
44462 42060 60000 10168 20162 38206 48416 86800
333 58010=
44478 42565 10902 10248 20231 39933 40014 81500
333 58004=
98132 31470 51404 10284 20255 40144 53016 70544 84201
333 20252 56399 58015 84817=
98222 31575 10901 10286 20249 40101 53003 70544 81100
333 20260 56999 59003 81820=
98233 31570 30000 10270 20222 40111 53009 70544 83200
333 20240 56999 58002 83820
555 0////=
98324 31475 21402 10278 20235 40092 51012 70544 81401
333 20240 56999 59000 81618
555 0////=
98334 31465 40203 10274 20236 39926 40109 52016 71791 84920
333 20240 56999 58004 81917 82818=
98425 11450 63201 10300 20237 40097 52010 60024 70582 83208
333 20280 56999 59015 70020 83817 86280=
98427 11470 60202 10256 20251 40096 53019 60144 78086 8387/
333 20246 56999 58001 70137 83816 86357=
98428 31560 53602 10298 20252 40102 52016 70542 82408
333 20260 56999 58007 82620 84280=
98430 31562 33601 10284 20255 40110 53011 70544 81100
333 20242 56999 58005 79999 81820=
98432 11570 30901 10280 20255 40100 52009 60034 70544 82202
333 20260 56999 58004 70032 82820
555 0////=
98434 11458 80804 10270 20258 40113 53018 60124 79596 8492/
333 20252 56999 58004 70123 84917 88457
555 20046=
98435 11469 70402 10275 20243 40105 53019 60104 71796 84970
333 20231 56299 58006 70107 81917 83818 84358
555 20084=
98446 11475 50404 10292 20264 40093 52008 60104 71522 84202
333 20247 56299 59007 70010 83818 84070=
98447 11475 70405 10273 20256 39830 40093 53010 60094 71582
85202
333 20/// 56199 59002 70092 85818 83070
555 20078=
98538 11460 70904 10287 20258 40094 53017 60054 79598 83968
333 20260 56229 59001 70050 83911 83357 86272
555 20010=
98548 11475 70000 10274 20242 40090 53011 69944 70282 83278
333 20250 56299 58002 70004 83816 84272 98312
555 20004=
98553 11468 80000 10254 20246 40104 52013 60334 71584 84977
333 20224 56999 59004 70328 82915 84358 88272
555 20252=
98558 11466 80904 10275 20255 40090 5/004 60064 71584 8497/
222// 20101
333 20260 56999 59008 70056 83915 88357
555 20994=
98642 31465 80000 10280 20243 40083 53018 71522 8597/
333 20270 56199 59002 82915 83818 88458 98318=
98644 11465 73602 10284 20252 40082 51015 69924 70542 81218
333 20246 56999 59004 70002 81817 85457 86272=
98648 31475 20901 10296 20252 40072 53008 70544 82201
333 20266 56999 59010 70050 82817=
98751 31475 60000 10240 20206 39423 40093 52013 70544 83201
333 20185 56999 59005 83815 83075=
98752 11570 30000 10280 20254 40088 51010 69914 70544 81201
333 20245 56999 59005 70001 81820 83080=
98851 32472 30000 10264 20238 40076 5/014 81201
333 20230 56999 59002 81818 83075=
48601 11459 72803 10259 20244 30076 40080 69914 79596 83932 333
20245 50250 58011 81910 81917 83364 87077=
48620 31457 70000 10258 20248 30075 40084 71022 83538 333 20247
50470 58011 81710 83632 87276=
48647 11460 71204 10255 20239 30057 40082 60074 70522 82142 333
20244 50440 58015 81818 87078=
48657 11058 72304 10241 20237 30062 40080 60144 71022 84532 333
20238 50601 58009 82700 83626 86078=
48665 11478 70302 10234 20228 30070 40081 60044 72196 82952 333
20232 50160 58014 81916 84363 86078=
96413 11057 72302 10244 20232 30057 40083 60074 79296 8697/ 333
20241 50270 59002 82701 81915 85620 87364=
96421 12980 60905 10248 20235 30048 40084 69904 83131 333 20245
50300 59015 83365 85080=
96441 11380 71005 10256 20243 30083 40088 60034 70162 81531 333
10244 50200 59019 81706 86365=
96449 12480 51303 10266 20242 30063 40083 69994 81231 333 20239
50250 59024 81814 83365=
96465 12480 61404 10278 20253 30053 40087 60014 81841 333 20242
50150 59010 81814 86080=
96471 12480 61107 10265 20236 30087 40090 60194 81842 333 20228
50370 59014 81816 86080=
96481 12462 70000 10256 20234 30068 40091 69924 82842 333 20240
50240 58004 81817 84364 86078=
96491 11470 72202 10273 20243 30075 40088 69944 70522 82932 333
20244 50360 58000 81817 81918 87078=
17184 32970 03608 10180 22//6 40126 54000=
40430 32960 00000 10310 20010 39332 40003 333 59009=
41530 31696 70000 10280 20188 49965 70500 83530 333 56990
59009=
61972 36/// ///// 10224 20186 30192 40207
333 59004=
43311 21596 82710 10284 20264 40048 70296 8387/ 333 59022 6025/
83620 86358=
41523 32997 00000 10204 20139 48445 333 59006=
41725 329// 01305 10290  20240 39384 49949 333 59004=
40718 32960 00000 10200 20178 30159 40128 54000 92350 333=
91366 11574 60608 10295 20246 30088 40097 58005 69934 70282
82271 333 20257 56115 58010 70003=
87509 32970 03608 10061 20027 39263 40140 52008 333 10158 20050=
61968 36/// /0000 10217 20005 30132 40137
333 59006=
17100 32970 00000 10200 20001 39150 40107 51002=