ZCZC 000
SMCI10 BENJ 301200
AAXX 30121
53853 32575 22702 10315 20020 49990 57026 82100 333// 20125=
57279 32967 51802 10204 20175 40051 57001 85030=
57655 32970 12202 10216 20189 40068 52002 81040=
52740 16/// /1904 10104 29045 36854 60000
555 1/133 2//00 /////=
57957 11566 81801 10285 20259 39859 40048 52013 60011 71380
889//=
59082 32967 22003 10304 20237 39979 40052 52012 82040=
59117 32577 12202 10308 20234 39965 40066 52017 81100=
59211 32580 70000 10307 20241 39829 40027 52014 82942=
59265 32565 60902 10311 20245 39918 40049 52012 86200=
59287 32966 01603 10293 20242 30025 40074 52016 =
59316 32464 11801 10274 20250 30071 40080 52007 81100=
59431 11575 70000 10265 20255 39913 40056 52016 60081 70098
81162=
59644 32570 71603 10286 20257 30049 40064 52017 83202=
59758 11475 21803 10291 20241 30049 40070 52023 69901 70080
81102=
59023 32578 70903 10301 20249 39793 40031 52011 8624/=
59293 32570 22503 10304 20242 30016 40063 52015 81102=
59417 11478 71401 10256 20228 39903 40051 52017 60031 71798
85943=
59501 32970 01404 10279 20251 30070 40086 52009=
59663 32475 21603 10288 20251 30046 40073 52014 82100=
59838 11580 70703 10290 20243 30047 40061 52013 69901 70098
81102=
59948 32578 60901 10293 20255 30054 40062 52014 81102=
59981 11580 71104 10275 20247 30059 40065 52011 60041 78098
86902=
58040 11660 83601 10165 20158 30032 40036 52012 69901 76060
885//=
58144 31940 83401 10202 20181 30013 40035 52011 71000 8807/=
58150 31315 80000 10202 20191 30027 40035 52019 71000 886//=
58362 11458 82903 10222 20213 30036 40046 52010 60031 76160
8772/=
58633 11563 82503 10253 20244 39942 40037 52009 60031 78098
889//=
58659 11758 80901 10242 20229 30020 40054 52007 69901 71060
885//=
57006 32980 60000 10283 20069 49996 57001 80002 333 05207=
53923 32980 12003 10268 20025 49997 52007 80002=
52418 32980 70000 10291 20105 38751 49975 54000 83042 333
05300=
52889 32780 71102 10290 20029 38391 49973 54000 83902 333
05307=
57036 32970 01602 10296 20114 39543 49988 57001=
56046 31680 72004 10064 21010 36307 52010 70090 879// 333
00151=
56080 32580 23602 10172 21005 37142 52002 82900 333 00007=
52652 32975 73202 10257 20043 38422 49990 52008 82042 333
05304=
56096 32680 10905 10302 20102 38840 40000 52012 81102 333
05207=
52533 32780 70402 10257 20065 38436 49998 52006 81402 333
05100=
59046 31580 72201 10305 20256 40044 52012 71700 8793/=
59058 32670 10000 10291 20262 40052 52013 81440=
59072 32980 10000 10311 20243 40050 52012 81040=
59087 32562 22901 10300 20245 40061 52007 81102=
59096 32675 20000 10291 20240 40059 52013 82100=
59209 11567 62502 10260 20215 40039 52009 69901 70080 81142=
59254 11565 71401 10288 20254 40050 52019 60031 70098 878//=
59278 32678 21805 10306 20238 40061 52016 82100=
59456 32580 52203 10298 20240 40062 52017 85400=
59493 32579 30903 10288 20247 40077 52016 83100=
59632 32570 71603 10285 20261 40054 52010 81962=
59647 32580 70903 10286 20257 40061 52012 81902=
59658 32472 21603 10286 20252 40070 52013 82102=
59673 32580 21604 10282 20254 40074 52012 82200=
59845 11580 61601 10276 20245 40061 52025 69931 72998 85902=
59855 32575 61402 10286 20255 40064 52012 85102=
58345 11440 82201 10205 20197 40047 52003 60101 76066 8572/=
58543 11430 80902 10234 20231 40046 52003 60131 72986 8657/=
58556 11565 80000 10286 20230 40044 52014 69901 78000 889//=
58569 11960 72207 10229 20217 40047 52007 69901 70060 87030=
58646 32765 80902 10281 20247 40043 52015 885//=
58660 32662 80401 10266 20230 40048 52012 885//=
58834 32765 10000 10278 20242 40052 52008 81500=
58926 32980 01802 10194 20229 40068 52014=
58944 32965 12203 10267 20231 40076 52011 81030=
58027 31940 71401 10199 20170 39981 40030 52007 71000 8704/=
58251 11958 72002 10210 20198 30032 40038 52016 69931 71060
8704/=
54337 32960 71807 10199 20106 39950 40032 52023 86032 333
91120 91520=
54342 32965 72505 10212 20112 39982 40041 52026 80002=
54471 32960 02207 10181 20126 30043 40048 52018=
54497 11565 82002 10171 20126 30052 40066 52011 69901 70060
885//=
54662 32970 11806 10147 20118 39936 40053 52008 80002=
53513 32780 10902 10258 20000 38872 49996 52003 81400 333//
00001=
53772 32665 33201 10282 20044 39127 49980 52008 81102=
54218 11670 72701 10183 20116 39366 40005 52009 60021 70098
83902 333// 91122 91529=
54511 32965 41202 10215 20137 39975 40013 52013 80002=
54823 32962 41403 10222 20156 39832 40027 52023 80002=
59985 11580 70904 10288 20259 30050 40055 52007 69911 70098
879//=
51468 16/// /0400 11014 29089 36564 69981
555 1/131 2//00 /////=
58265 11450 82703 10212 20206 30027 40038 52009 60031 76066
8772/=
58472 11968 72003 10225 20208 39948 40042 52007 60081 70060
8704/=
58477 11557 70000 10227 20210 39997 40040 52006 69901 71080
86840=
58666 32460 72010 10222 20221 39963 40061 52014 8214/ 333
91118 91520=
58725 32780 70000 10270 20242 39802 40050 52011 8554/=
58760 31558 71806 10232 20226 40058 52007 71000 8513/=
58921 32980 02202 10294 20223 39826 40059 52012=
45007 32470 11404 10295 20236 30063 40072 53011 81100
333  10331 59013 70007 81815 =
58562 32665 80000 10260 20225 40035 52011 8347/=
58457 11330 80000 10249 20242 39994 40043 52016 60021 78080
887//=
58015 32965 71802 10220 20177 40019 52008 80002=
58122 32970 70201 10224 20178 40034 52011 8707/=
58203 32968 82003 10207 20183 39992 40036 52007 8807/=
58236 31758 82202 10208 20192 40033 52005 71000 885//=
58311 11565 70000 10224 20204 40039 52003 69901 70060 875//=
58102 32970 82005 10227 20181 39973 40022 52006 8807/=
58215 11960 82502 10210 20178 40040 52005 69901 70060 8807/=
58221 32960 82703 10226 20180 30010 40044 52008 8807/=
58314 11962 80202 10221 20190 39959 40044 52008 69921 70060
8807/=
58531 11662 81101 10233 20230 40038 57001 60281 76298 885//=
58326 11940 80000 10204 20199 40047 52007 60021 76066 8807/=
58321 11958 81803 10211 20195 40040 52003 69901 71060 8807/=
58424 11662 82204 10207 20202 30022 40045 52008 60341 78088
889//=
58437 11/00 92906 10161 20161 38123 52006 60271 76098 333
91120 91527=
58436 11950 83602 10209 20204 40046 52003 60111 76066 8807/=
58319 11550 80000 10197 20197 40045 52007 60051 76060 885//=
58238 11920 80000 10201 20192 30031 40040 52008 60031 76060
8807/=
58847 32962 11404 10280 20237 39964 40062 52013 80002=
59134 32975 11603 10259 20233 39929 40088 52011 81040=
57265 32963 31403 10230 20199 39927 40033 52006 83040=
57378 11962 81603 10200 20182 40059 54000 69901 70060 8807/=
57385 11961 71401 10199 20180 40051 52004 69901 70060 8703/=
57461 31958 61102 10215 20198 39898 40054 52001 71000 86040=
57476 11962 72002 10199 20185 40058 52001 69901 70060 8704/=
57554 32664 60000 10213 20193 40070 52006 81141=
57583 11960 71602 10192 20182 40060 52004 60051 70060 8703/=
57584 11462 80000 10193 20183 40063 52001 60101 70060 887//=
57598 11356 82501 10207 20204 40060 52005 60181 78088 889//=
57662 11962 60000 10205 20184 30621 40061 52002 69961 70060
86040=
57745 32976 72201 10212 20190 39762 40078 52009 8704/=
57766 11458 80000 10227 20215 40064 52011 69901 78060 889//=
57799 11780 70901 10268 20242 39951 40031 52005 60051 70098
875//=
57845 11762 82701 10197 20191 40075 52013 60141 70086 885//=
57853 11480 72204 10223 20191 40067 52011 60021 70098 879//=
57866 11665 70403 10267 20249 39850 40048 52009 69901 70080
82440=
57972 32965 70000 10305 20238 39833 40043 52010 8704/=
58527 11262 82202 10224 20217 39975 40048 52017 60131 79586
889//=
58606 31760 80404 10225 20205 39987 40040 52015 70090 885//=
58813 32680 72001 10296 20238 40035 52012 84460=
59102 32962 00000 10275 20230 40067 52012=
53588 32470 22706 10156 21076 37738 52010 82100 333 91127
91527=
53463 32680 63202 10237 20004 38844 49998 52020 82102 333//
05100=
53480 32980 03405 10193 20029 40001 52015=
53673 32980 03402 10289 20023 49971 52011=
53787 32980 02902 10273 20029 49981 52009=
53898 32965 71805 10279 20155 49995 52009 80002=
54725 32965 01103 10214 20167 40023 52023=
54751 32975 71803 10163 20125 40053 52017 81042=
54916 32960 71402 10193 20167 40034 52009 80002=
58208 11970 82202 10214 20176 40038 52006 69901 70060 8807/=
56294 32964 02701 10262 20175 39491 40061 52008 333 05204=
56492 32964 10000 10250 20189 39674 40063 52004 81040 333
05103=
56571 32680 60000 10226 20149 38361 54000 86800 333 00655=
56651 11680 61403 10189 20131 37602 52006 69901 78080 86400
333 00151=
56778 32580 41801 10246 20148 38060 52003 84100 333// 00001=
56951 32780 60000 10257 20171 38446 52007 83440 333 05101=
57328 31956 82701 10222 20178 39683 40078 52010 71000 8807/=
57411 31958 61402 10241 20184 39716 40071 52010 71000 86040=
57516 31930 01402 10237 20187 39767 40066 52005 71000 333
05104=
57816 32965 20703 10200 20149 38741 40078 52012 80002 333
00201=
58730 11665 70402 10254 20237 40050 52009 60111 72998 86963=
58731 11268 81601 10246 20234 40055 52011 60011 79598 889//=
58754 32962 80000 10254 20232 40061 52012 8807/=
58911 32980 00000 10274 20229 40065 52011=
50527 32970 71603 10202 20037 39326 40020 52016 80002=
53564 32980 23405 10269 21011 39048 49984 52017 80002 333//
05202=
53959 32980 01802 10321 20119 39566 49984 52007=
54618 32961 01402 10242 20166 39999 40016 52020=
54843 32670 81404 10162 20139 30009 40036 52008 85507=
54909 32966 71603 10243 20171 39948 40008 52005 80002=
50949 32565 70705 10213 20103 39847 40006 52006 86202=
54161 32770 72208 10233 20103 39743 40015 52021 82502=
54236 32670 62010 10200 20096 39925 40023 52022 85502 333
91123 91518=
54292 32970 60401 10223 20078 39825 40030 52012 82032=
54374 32662 63602 10198 20098 39655 40039 52012 84902=
56193 32974 10000 10281 20122 40034 52021 81040 333 05210=
56196 32961 00000 10271 20184 40053 52007 333 05206=
56287 32968 20201 10255 20178 40061 52011 81042 333 05104=
56385 32480 10000 10115 20033 37043 52006 81140 333 00306=
56666 11780 72002 10276 20154 49996 52009 69901 70080 874//
333 00555=
56671 32780 70203 10235 20132 38169 52011 874// 333 00453=
56684 32580 70702 10202 20085 37879 52008 87400 333 00554=
56751 11680 20702 10225 20151 37974 52007 69901 70080 82902
333 00151=
56786 11570 70703 10217 20144 38079 52015 69901 70080 879//
333// 00352=
56886 32680 62204 10147 20146 38217 52012 85302 333 00001=
56977 32580 20901 10262 20218 40033 52012 82402 333 00000=
57206 32962 01404 10264 20172 40052 52014=
57348 32763 70000 10189 20171 40090 52004 875//=
57426 32865 70401 10210 20183 40080 52004 875// 333 05104=
57602 32961 50901 10237 20172 40063 57002 85040=
57713 32976 23601 10213 20167 40075 52007 82040 333 00104=
58931 31/00 92008 10180 20180 38353 52006 74700=
57259 32980 20000 10246 20194 40038 52006 82040=
57355 32975 72704 10223 20163 40066 52008 8703/=
57399 11960 82003 10200 20182 40059 52003 69901 72160 8807/=
57447 32980 70000 10234 20186 39540 40062 52007 8703/=
57687 11340 80000 10195 20190 39984 40062 52007 60021 76066
8772/=
57776 11/00 92214 10200 20200 40060 52004 69911 76084 333
91120 91520=
57793 31958 72701 10269 20242 40047 52004 71000 8704/=
58407 11458 80000 10192 20181 40056 52004 60061 72166 8672/=
58506 11/00 91804 10172 20172 40064 52011 60131 78084=
58715 31680 71402 10289 20244 40035 52010 71300 8294/=
50548 32980 21102 10198 20028 40051 52016 80002=
50834 32680 70901 10182 20000 40032 52002 83502=
50727 11980 61405 10136 21008 38892 40040 52008 69901 70060
82062=
50632 32980 70000 10163 20017 39207 40053 52012 80002=
57083 32962 51804 10280 20153 39873 40000 52007 81032=
53646 32977 72902 10276 21031 38851 49991 52007 80002 333
05205=
52323 32980 73405 10209 21030 38180 52001 82042 333 00151=
52681 32980 71102 10275 21020 38542 49993 52006 81042 333
05204=
57127 32960 00402 10257 20185 39463 40038 52009=
53845 32961 02901 10304 20033 38951 49985 52011 333 05407=
57245 32980 61401 10258 20191 39702 40035 52002 80002 333
05609=
53614 32980 50902 10266 20042 38799 49996 52009 80002 333
05104=
53723 32970 63401 10271 20076 38565 49989 52007 80002 333
05103=
52866 32980 13201 10211 20009 37657 52002 81042 333 05204=
52996 32980 20000 10195 21030 37544 52002 80002 333 05105=
52436 32980 70702 10243 20004 38386 40007 52008 83032 333
05151=
52787 11580 50000 10123 21021 37033 54000 69901 70080 81102
333 05105 91117 91522=
57046 32971 02007 10192 21004 37905 52003 333 00009=
57016 32975 02701 10300 20099 49991 52009=
53705 32970 10401 10269 20076 49986 52002 80002 333 05203=
56065 32680 63601 10136 21037 36645 57001 81102 333 05108=
56021 11680 70209 10068 21050 36118 57003 69901 71480 879/2
333 05151 91117 91532=
54527 32965 30704 10227 20165 40016 52015 80002=
54602 32662 30401 10264 20161 40008 52019 81102=
54102 11680 72204 10145 20070 38890 49984 52018 69911 78000
86902=
54401 11662 31103 10207 20124 39196 40001 52026 69911 70098
82962=
53352 32580 52905 10204 21038 49998 52005 83102=
53764 32970 03203 10294 20072 49982 52010=
53863 32961 02005 10284 20097 49977 52008=
53975 32974 02003 10292 20106 49993 52011=
54808 32968 71403 10228 20194 40007 52011 80002=
54826 32975 73202 10179 20016 38385 52015 80002=
54836 32960 71101 10173 20146 40039 52012 80002=
54863 11459 81104 10141 20137 40059 52008 69951 76060 885//=
57071 32970 71803 10292 20097 49993 52010 80002=
54259 32670 72502 10207 20121 40038 52017 82502=
54273 32970 72701 10220 20125 40025 52013 80002=
54324 32670 81808 10222 20113 40005 52029 8192/=
54346 32665 22203 10214 20128 40042 52012 82500=
54493 32974 80000 10174 20128 40060 52016 8802/=
47401 12/70 12505 10119 20053 30057 40070 51024 69902 81130
333 10152=
47412 32970 03504 10178 20047 30048 40078 53022 333 10242=
47420 32965 00101 10085 20037 30029 40076 51035 333 10223=
47426 32960 00201 10107 20078 30042 40086 53034 333 10170=
47582 32980 21202 10185 20090 30082 40107 53008 80001 333
10248=
47590 32980 73402 10220 20128 30044 40094 51016 81032 333
10302=
47600 32980 82003 10190 20118 30080 40096 53006 8807/ 333
10286=
47648 32975 72005 10209 20163 30078 40110 52010 80002 333
10260=
47662 32965 71905 10234 20169 30061 40102 52010 8707/ 333
10300=
47678 32970 62702 10201 20164 30028 40121 52008 80002 333
10244=
47740 32/70 73401 10196 20109 30049 40086 51009 8227/ 333
10258=
47778 11/65 82002 10216 20186 30017 40103 53006 69902 72122
8152/ 333 10258=
47807 11/65 81403 10180 20131 30069 40086 57003 69902 70262
8572/ 333 10252=
47827 11/60 80602 10182 20164 30059 40095 51009 60142 76162
8227/ 333 10249=
47843 11360 81301 10178 20158 30037 40068 58006 60062 76162
8177/ 333 10208=
47898 11/65 83604 10168 20139 30070 40109 50013 60022 76162
8272/ 333 10251=
47909 11/65 81702 10242 20221 30088 40096 52009 60072 70262
8257/ 333 10256=
47918 12/70 21905 10281 20257 30090 40098 51011 69902 82200
333 10313=
47936 32/75 62006 10262 20248 30044 40104 53009 86200 333
10289=
47945 31/50 71704 10251 20246 30099 40122 53011 71011 87630
333 10289=
47971 11/60 81601 10240 20228 30133 40142 51009 60022 78082
882// 333 10279=
47991 11/65 21204 10266 20235 30145 40155 53001 60042 72581
82330 333 10302=
50468 32970 10000 10148 20057 39884 40083 52015 80002=
50745 32962 60403 10220 20036 39865 40035 52012 80002=
50953 11760 80702 10196 20094 39861 40031 52006 69901 71760
889//=
50136 32970 41405 10177 20027 39529 40032 52001 82032=
50353 32770 20000 10155 20040 39866 40078 52007 81402=
50557 32970 20403 10182 20032 39780 40064 52016 80002=
50756 32970 10203 10196 20040 39774 40052 52018 80002=
50788 32970 01104 10159 20066 39990 40071 52018=
50963 32770 63603 10182 20100 39908 40037 52010 84502=
50978 11575 72001 10191 20103 39778 40054 52013 69901 70080
84402=
56586 32680 70201 10185 20090 38036 52008 86540 333// 00405=
56748 32680 32201 10229 20158 38294 57001 81442 333 00002=
56763 11680 72904 10294 20156 49995 52022 69901 71780 879//
333// 00352=
56768 32680 51801 10256 20141 38171 52006 84202 333// 00001=
56838 11680 72201 10261 20212 40044 52001 69901 70080 81402
333// 00000=
56946 31580 32202 10283 20185 40017 52005 71500 83900 333
05101=
56954 32580 30901 10287 20191 40030 52013 81262 333// 05101=
56959 31780 60903 10294 20221 40019 52016 71700 84903 333
05104=
56966 32780 11403 10327 20216 49984 52008 81102 333 05102=
56969 31580 70402 10275 20214 40047 52024 71700 879// 333
00002=
56986 32270 31801 10221 20207 40042 52010 83400 333// 00000=
57237 32775 62203 10222 20168 40071 52016 83402=
57306 32965 01402 10251 20171 40062 52010=
57504 32963 02002 10249 20176 40057 52005 333 05103=
59007 11980 41402 10250 20193 40030 52003 60121 70098 82032
333 91120 91529=
54026 32980 83403 10216 20055 39700 40003 52014 8802/=
54027 32680 71602 10212 20062 39461 40010 52030 86202=
50246 32980 40000 10144 20040 40075 52012 80002=
50658 32980 20402 10204 20028 40046 52015 80002=
50844 32762 70403 10205 20045 40025 52002 87500=
50854 32770 70902 10203 20047 40027 52009 82502=
50888 32980 40402 10166 20075 40063 52017 84030=
50968 32670 80202 10177 20118 40037 52005 885//=
50983 32970 50000 10177 20078 40064 52015 80002=
54096 32670 80000 10160 20095 40054 52009 81507=
47575 32975 71001 10176 20131 30082 40086 52013 80001 333
10286=
47585 32/70 23505 10193 20068 30037 40091 53031 82072 333
10309=
47598 32960 72003 10167 20132 30098 40104 53012 80002 333
10210=
47602 32975 71202 10188 20076 30080 40100 53004 80002 333
10248=
47618 32965 83202 10218 20103 39402 40081 51015 8802/ 333
10312=
47624 32960 81503 10233 20126 39970 40099 51018 80007 333
10312=
47636 32965 71504 10221 20140 30041 40105 52010 8702/ 333
10294=
47655 32960 72702 10205 20181 30055 40109 50006 86032 333
10254=
47750 32/70 72202 10214 20133 30068 40093 51013 8707/ 333
10303=
47755 11/65 82405 10192 20155 30067 40090 50005 69902 76062
8177/ 333 10256=
47772 32965 72703 10238 20145 30000 40094 53007 8707/ 333
10294=
47800 11460 81805 10167 20142 30062 40084 57003 69902 76162
8127/ 333 10244=
47815 11/60 81603 10179 20146 30081 40096 50007 60012 72162
8672/ 333 10236=
47817 11/80 81402 10176 20143 30040 40081 56002 60082 72586
8327/ 333 10236=
47830 11/50 82702 10193 20180 30084 40101 53009 60022 76122
8317/ 333 10249=
47837 11/60 81303 10202 20183 30072 40093 51004 69902 76162
8272/ 333 10260=
47891 32970 83403 10219 20145 30080 40091 52012 8807/ 333
10280=
47899 11/65 82707 10199 20153 39890 40105 53008 69902 76122
8277/ 333 10249=
47927 32/75 21904 10271 20255 30053 40099 51009 82200 333
10301=
57251 32980 52701 10269 20188 40023 52009 80002=
57458 11980 60000 10202 20183 40066 52009 69901 70060 86040
333 05304=
57494 11462 80000 10194 20181 30026 40054 52001 69981 72160
8677/=
57993 32980 20000 10305 20234 39907 40048 52010 80002=
58338 11420 80000 10203 20198 40045 52004 60091 76066 8772/=
53915 32680 23201 10230 20105 38562 40002 52007 81102 333
05205=
52836 32980 70000 10168 21034 36893 57010 80002 333 05409=
56033 32580 72903 10086 21098 36067 57005 86902 333 05107=
56029 11680 60000 10141 20000 36508 57010 69931 70080 82102
333 05104=
52713 32980 72001 10182 21088 36895 57006 80002 333 05405=
52754 32580 71802 10129 21043 36800 57003 81902 333 05106=
53698 32962 01102 10270 20171 49999 52021=
53593 32765 20703 10240 20093 49986 52017 81402=
56079 32980 11602 10124 20017 36713 57003 80002 333 00102=
56146 32780 13402 10182 20040 36746 57004 81100 333 05107=
56152 32680 72509 10119 21091 36352 52003 86902 333 00105=
56167 32780 11402 10173 20033 37080 57001 81400 333 05102=
56172 32680 10000 10178 20057 37329 52003 81100 333 00003=
56173 32780 20000 10127 20022 36678 54000 333 00106=
56182 32980 03601 10155 20028 37196 52007 333 00103=
56188 31950 00000 10242 20182 40063 52009 71000 333 05105=
56247 32880 20000 10211 20086 37378 57005 81102 333 05403=
56257 32680 53603 10147 21047 36305 52006 85402 333 00005=
56357 32680 22003 10142 20029 36470 52010 82400 333 00101=
56374 32680 10903 10163 20059 37426 52017 81100 333 00304=
56386 32965 11103 10258 20172 40058 52003 81040 333 05103=
56459 11880 20000 10158 20134 37633 52007 60021 70080 82400
333 00658=
56475 32680 33201 10194 20148 38298 52001 81140 333 00104=
57313 32675 70000 10243 20178 40068 52008 8544/ 333 05104=
57405 32965 10000 10247 20192 40067 52008 80002=
41598 22523 10100 20071 40045 52040 70100 8113/
22254 00070 80085=
41998 72408 10190 20175 40165 51025 70222 89///
22264 00180 2//// 3//// 4//// 5//// 80180=
56144 32780 70000 10145 20075 36863 57003 82102 333 05304=
56462 11580 61803 10136 20096 37149 52026 69921 72580 82940
333 00301=
57432 32962 80000 10223 20182 40075 52001 8807/=
57522 32761 60000 10229 20175 40075 52001 84540=
57633 42675 70000 10210 20172 39326 40078 52010 82440 333
05103=
50774 32960 00402 10163 20060 39774 40063 52022=
54094 32560 70203 10209 20093 39754 40035 52008 83802=
50442 32970 11403 10176 20033 40063 52017 80002=
44216 32599 20705 10238 20011 38814 49996 54000 81280 333
10261=
44257 32598 73607 10173 20048 38867 40023 53008 87300 333
10221=
44266 32699 3055/ 10159 20032 37743 40005 53001 83800 333
10185=
44291 11598 71405 10155 20062 38649 40097 53017 69942 70298
82300 85800 333 10192=
44325 32999 52306 10245 20125 38729 49978 53009 84250 333
10285 91214 555 96108=
44329 32598 30000 10137 20043 37713 49996 52011 83500 333
10181=
44338 32699 50000 10207 20093 38391 49983 53006 85200 333
10225=
44374 32599 60000 10211 21007 38185 49954 58001 84202 333
10225=
44385 32999 53410 10225 20011 38789 49995 53002 82041 333
10246=
50603 32680 60702 10208 20015 39381 40010 52014 82102=
53068 32980 40204 10190 20055 38923 49984 52018 80002 333//
00156=
53231 32780 62707 10210 21033 38400 54000 82502 333// 00001=
53276 32680 33205 10207 21015 38732 49977 52011 81102=
54135 32680 72005 10226 20124 39787 49992 52016 82902=
54753 32662 81803 10168 20129 30040 40046 52007 885//=
54857 11465 81404 10147 20140 39955 40044 52004 69911 70060
8262/=
57067 32975 52203 10266 20133 39373 40011 52003 80002=
57178 32964 71803 10224 20178 39885 40037 52009 87030=
57297 11970 71803 10198 20169 39907 40041 52002 69901 70060
8703/=
50564 32970 10703 10140 20055 40078 52018 80002=
54049 11768 83401 10188 20163 40031 52047 60271 79598 889//=
54115 11670 70000 10174 20094 49998 52015 69901 70098 86902=
54157 32762 62206 10218 20093 40023 52020 86400=
54186 32970 00000 10189 20096 40034 52009=
54377 32670 82204 10220 20118 40047 52021 885//=
54386 32570 72903 10182 20067 40035 52010 82902=
56444 32780 12902 10125 20075 36803 52003 81100 333 05103=
56691 32580 73605 10176 20041 37761 52013 8144/ 333 00301=
56739 32578 42201 10209 20170 38306 57005 81102 333 00000=
56964 32578 60000 10261 20197 38645 40029 52011 82142 333//
00000=
56985 32580 11604 10254 20189 38642 40030 52015 81200 333
00000=
57902 11465 1101/ 10199 20182 38585 40062 52020 69981 78098
887// 333 00354=
52908 11580 70404 10041 21031 35797 57007 69901 70080 879//
333 05301=
56018 32680 70903 10098 21005 36220 52010 879// 333 00051=
52737 32680 60000 10187 21035 37063 57011 81902 333 05408=
56004 11680 72006 10079 21066 35854 57003 69911 70080 879//
333 05302 91119 91522=
52818 32780 72204 10206 21017 37194 57006 86502 333 05604=
52602 32680 23404 10211 21103 37234 57007 81102 333 05403=
52955 32980 61102 10171 21051 36963 57010 80002 333 05306=
51886 31775 73609 10178 21108 37096 52013 71400 85902 333
05152=
10401 70005
333 91204=
10501 70007
333 91206=
82100 22200 00070 20303 3//// 4//// 5//// 6//// 80061 ICE=
81200 22254 00200 20101 336// 40804 5//// 6//// ICE=
87155 22214 04210 20704 303// 40704 80180=
70200 886// 22251 00289 20101 304// 40303 5//// 6//// 80250=
57707 32680 70000 10204 20093 38460 52016 875// 333 00206=
57731 32774 70000 10227 20195 40077 52007 875//=
57832 32574 80000 10219 20199 40075 52010 888//=
57916 11675 82501 10259 20212 40050 52012 69901 70098 888//=
57922 32967 70000 10207 20193 40067 52009 8704/=
57932 11580 80000 10232 20213 40065 52010 69911 70060 885//=
53083 11665 70904 10135 20056 49995 52038 60111 79198 879//
333// 00060 91117 91525=
53487 32765 13402 10245 20024 49983 52016 81400=
54226 31675 72704 10184 20117 40005 52036 70090 86902=
54534 32960 31404 10199 20154 40024 52002 83030=
54587 32980 82207 10156 20111 40027 52005 8802/=
54715 32970 01402 10222 20174 40019 52015=
54929 31950 71102 10178 20158 40044 52017 71000 8703/=
54945 11415 80404 10151 20149 40046 52006 69931 76066 8772/=
57193 32968 61802 10235 20188 40019 52004 86040=
57290 32962 52001 10226 20184 40027 52001 85040=
44210 32999 23603 10202 20034 38434 58012 82060 333 10228=
44217 32698 20000 10159 20080 37862 40079 54000 82200 333
10180=
44229 11599 92303 10100 20023 37898 40079 53024 69962 70282
86542 333 10170=
44242 32998 30000 10234 20048 39198 40022 53011 80002 333
10259=
44243 32599 30000 10235 20082 39289 40036 53032 82100 333
10260=
44263 32998 22703 10183 21007 37995 40015 54000 80008 333
10197=
44286 32998 13605 10191 21012 38555 40038 53004 80002 333
10212=
44317 32998 80000 10184 20064 38787 49964 53009 8807/ 333
10210=
56066 36/// ///// 10137 21152 36631 4//// 52001
555 10050 2//// 3//// 40111 51001 60/// 7//// 80000
9//// ///// 1/020 2//00 30000=
52634 36/// /0800 10108 21054 36743 4//// 52011
555 10040 2//// 30128 41111 51011 60/// 7//// 80000
9//// ///// 1/114 2//00 30000=
50434 32980 20000 10164 20015 39204 40040 52013 80002=
50915 11580 71105 10144 20114 39055 49987 52011 60031 78098
87902=
53149 32580 22906 10214 21035 38662 49985 52007 81102 333//
00052=
53192 32580 72701 10168 20061 38748 49986 52013 84902 333//
91118 91522=
53336 32680 23204 10221 21030 38612 49994 52005 82400 333//
00100=
53391 32680 32502 10168 20016 38405 40000 52010 83400 333//
05352=
53529 32980 43403 10250 21059 38534 49996 52010 80002 333//
05102=
53543 32980 63204 10214 21071 38456 40005 52012 80002=
54012 11580 71401 10128 20097 38904 40008 52012 60131 70098
86902=
54208 11580 71801 10134 20109 38650 40020 52021 60021 70098
86902 333// 93905=
54776 11/01 91406 10128 20128 30004 40061 54000 69901 76064=
57528 16/// /2000 10137 29756 37563 61430
555 1/145 2//13 30195 12100
11101 10101 00010 10110 1011/
/////
2//// 3//// 6//// ///// ///// 8//// 9//// ///// ///// //004
11101 11111 1011/
11111 110//=
47105 32668 82304 10226 20120 30007 40037 53000 8251/ 333
10305 30021 55030 21508=
47108 32562 82703 10177 20111 39965 40067 55001 8352/ 333
10225 30016 55000 20546=
47115 32960 82306 10180 20087 39788 40046 52001 80022 333
10231 30018 55104 92044=
47135 11661 82902 10159 20127 39782 40066 55000 69922 72162
8452/ 333 10247 31016 55007 21105 70002=
47138 11665 82306 10216 20119 30054 40058 53002 69902 70262
8352/ 333 10270 30021 55003 21243 70000 92024=
47159 11568 82006 10177 20115 39996 40077 52003 69902 76066
8272/ 333 10230 30017 55003 21299 79999 92034=
47165 11563 81403 10144 20125 30018 40062 57013 69992 76066
8572/ 333 10200 31016 55000 20672 70009 92023=
47184 12557 82701 10153 20138 30026 40053 57011 60082 76062
8672/ 333 10222 31017 55000 21246 70083 92022=
47008 32565 80000 10211 20076 39978 40028 54000 8803/ 333
10243=
47014 32950 42301 10199 20122 39655 40028 53005 84500 333
10266=
47016 32570 83201 10192 20077 39215 40042 53011 885// 333
10256=
47020 32565 80000 10221 20132 39693 40043 53011 885// 333
10273=
47025 32960 81801 10156 20076 30006 40034 58003 8801/ 333
10259=
47035 32570 82002 10175 20128 30055 40063 52012 885// 333
10214=
47041 32770 80000 10200 20106 30025 40025 52018 8802/ 333
10292=
47055 32965 82503 10218 20129 30000 40042 53002 8809/ 333
10288=
47058 32566 83603 10169 20092 30035 40080 53008 885// 333
10226=
47069 11665 83202 10163 20113 39975 40070 57013 69902 71066
885// 333 10200=
23914 42999 30201 10200 20017 39922 40162 57002 80006=
23921 42999 43304 10179 20000 30042 40154 57004 80001=
23955 11698 80202 10114 20104 39940 49998 52004 60102 70282
885// 333 10121 86623=
24641 11599 80901 10150 20048 39920 40051 53007 69902 70282
84301 333 10176=
28440 42698 23503 10190 20009 39784 40109 52004 82200=
28748 41560 30206 10201 20084 39853 40075 52006 70281 83200=
29231 11498 81102 10139 20117 39877 49966 53008 60102 72598
8693/ 333 10202=
29838 12597 62004 10214 20095 39781 49991 57012 69902 85331
333 10217=
30372 11699 70903 10081 20061 39215 40037 52014 60082 70282
85949 333 10111=
30673 32699 83101 10159 20038 39305 40012 53020 8497/ 333
10213=
30823 32999 50104 10217 20043 39447 40023 53013 80002 333
10268=
30935 11699 52702 10220 20081 39163 40006 54000 69972 70182
83901 333 10422=
30965 32999 30702 10201 20056 39259 40009 53009 80002 333
10234=
31004 32599 81903 10114 20021 39252 40030 53007 8592/ 333
10156=
31088 32599 71505 10069 20033 30058 40065 52009 87500 333
10131 87625=
31137 32699 61801 10062 21003 39102 40087 53007 82401 333
10156=
31300 32699 30902 10142 20030 39807 40077 53009 82401 333
10200=
31329 32699 80302 10090 20017 39451 40086 52015 81537 333
10131=
31369 12498 83202 10032 20008 39982 40066 52027 60030 8596/
333 10060 85914 91110=
31371 32999 23201 10121 20051 39828 40077 53005 80001 333
10195=
31388 32699 20000 10105 20059 39840 40088 53019 82500 333
10170=
31416 12999 83602 10101 20040 30002 40090 52012 69910 83031
333 10150=
31510 329// 00000 10137 20050 39920 40076 52012 333 10202=
31594 32683 50000 10141 20084 39914 40074 52013 81531 333
10189=
31707 32598 23201 10154 20061 39986 40073 52021 81402 333
10214=
31735 12997 71001 10117 20062 30007 40091 52016 69900 87030
333 10155=
31873 32998 60602 10160 20081 39944 40062 53017 83078 333
10230=
31909 32999 21504 10143 20032 39988 40061 52039 80001 333
10267=
31960 32598 21803 10202 21022 39830 40047 53003 82400 333
10241=
32053 11195 83504 10027 20024 39982 40023 52035 60060 75185
886// 333 10033 87703 91111=
32061 11359 83602 10044 20037 39998 40036 52035 60030 71082
889// 333 10056 91112=
32098 12984 30103 10066 20027 30012 40022 52046 69900 83040
333 10107 91110=
32150 12596 63202 10093 20046 30021 40049 52034 69900 86400
333 10118 86629=
32165 32999 23202 10095 20000 30011 40070 52032 80001 333
91115 10204=
54436 11680 71601 10209 20140 40028 52016 69901 70080 86402=
47003 32980 60000 10184 20125 30035 40039 53001 85078 333
10248=
47005 32980 73601 10134 20036 38535 53003 87030 333 10218=
47031 32570 81203 10145 20103 885// 333 10223=
47039 32560 82702 10177 20157 39903 40084 52009 8453/ 333
10238=
47050 32565 82301 10166 20133 30034 40066 52001 885// 333
10229=
47060 32960 83204 10160 20145 30022 40077 53006 8807/ 333
10215=
47065 32965 83202 10168 20132 30019 40081 53007 885// 333
10218=
47067 32965 80000 10181 20122 39952 40066 52006 8803/ 333
10203=
47068 32560 83203 10155 20106 30041 40075 57002 885// 333
10208=
47070 32570 82302 10166 20119 39992 40074 53001 885// 333
10192=
47075 11560 82301 10157 20137 39662 40070 54000 69902 76062
8802/ 333 10209=
98325 31458 41802 10300 20252 40072 53019 70544 82201 333
10332 56999 59011 82717 83079=
98328 31461 51602 10200 20182 38511 40076 53008 70594 82201
333 10358 56999 58005 82815 84080=
98429 32560 41404 10298 20232 40091 52015 83830 333 10328
56999 58008 83823 84360=
98440 11465 80000 10285 20272 40092 53015 60021 71596 8427/
333 10326 56299 59002 84818 88358=
98444 32465 80000 10288 20259 40096 52022 82208 333 10313
56999 58004 82818 86270=
98543 32460 81201 10287 20253 40100 53022 84207 333 10318
56999 58007 84818 88272=
98550 11460 71102 10280 20256 40093 53022 69921 70584 82248
222// 20101 333 10312 56999 58002 82818 87274=
98618 31568 41802 10275 20245 40087 53021 70544 82201 333
10315 56999 58006 82820 85075=
98630 32570 80000 10286 20270 40088 53019 83207 222// 20000
333 10310 56999 58000 83820 88275=
98637 31470 60000 10290 20251 40077 52019 70342 82208 333
10320 56999 59017 82816 86272=
98755 31570 61801 10278 20254 40095 51023 70522 82208 333
10316 56999 59003 82820 86279=
58968 31556 72002 10284 20239 30075 40082 53011 71022 876//=
58974 31558 21606 10259 20249 39968 40085 51007 71011 82400=
59358 32660 21703 10301 20256 30072 40083 51012 82400=
59559 32565 11302 10281 20246 30063 40090 52012 81200=
59792 12560 21803 10284 20265 30076 40080 52011 69902 82200=
59997 12562 32003 10275 20257 30048 40062 57007 60052 82220=
59158 32565 41901 10281 20237 39984 40081 52008 84400=
59562 32565 22001 10284 20252 30078 40089 52017 82100=
59567 12262 72108 10258 20245 39730 40098 52012 69952 874//=
44207 11999 62905 10125 20027 38260 40054 51010 69912 70298
82243 333 10192=
44212 32699 60909 10244 20019 38996 40017 56002 82270 333
10253=
44214 32698 32707 10209 20048 38207 49986 57002 83100 333
10212=
44218 32698 20000 10230 20059 38494 49963 54000 82100 333
10239=
44231 32699 73203 10183 20045 38637 40031 51015 83288 333
10222=
44232 32999 00000 10245 20041 38987 40011 54001 333 10257=
44239 32699 50000 10222 20058 38688 49981 54002 85100 333
10231=
44241 32999 71403 10218 20098 39110 49994 57001 86051 333
10227=
44259 32698 70502 10206 21054 39168 49994 53007 83550 333
10241=
44277 11699 30000 10143 20067 37780 40033 54000 69942 70298
82150 333 10147=
44282 32999 40702 10184 210/4 38229 40011 53002 80001 333
10200=
44284 32599 73405 10140 21036 37822 40019 53012 87500 333
10180=
44285 32999 00000 10173 20021 38257 40013 53002 333 10198=
44287 32599 71804 10181 20040 38059 49987 53009 87500 333
10208=
44288 32699 23604 10182 20038 38112 49997 53003 82400 333
10183=
44292 11698 70904 10142 20045 38616 40050 53023 60062 71598
85900 83400 333 10193=
44294 32698 62310 10140 20065 38483 40026 52022 86500 333
10186=
44298 32899 61101 10160 20019 38619 40002 52020 86040 333
10234=
44304 12599 73205 10161 20023 38875 40015 52007 69902 87900
333 10199=
44305 11599 80000 10195 20078 38910 49985 51008 69902 70262
885// 333 10217=
44314 32698 60506 10205 20004 38982 49971 53009 82580 333
10240=
44341 32599 60205 10184 21002 38512 40004 53012 82441 333
10206=
44347 32999 53606 10209 20056 38605 49981 54000 80004 333
10225=
44352 11669 70705 10164 20077 38790 49991 52014 69912 70298
87500 333 10190=
44373 32599 73204 10194 20059 38447 40008 53005 86840 333
10212=
28661 42599 63410 10132 20081 39986 40074 52015 86300 333
86923=
28679 41598 83003 10148 20094 39844 40010 52022 70282 8695/=
28879 41597 83407 10155 20110 39733 49999 52021 70282 889//
333 88925=
28952 42598 83206 10170 20092 39887 40069 52011 789//=
29023 11496 80604 10105 20103 39890 49981 53002 60022 78085
889// 333 10120=
29122 11699 70604 10131 20122 39894 49964 51001 60112 72598
87500 333 10143 85642=
29807 41597 62408 10169 20124 39862 49971 54000 70182 85902=
30230 32599 51501 10171 20029 39802 40103 52006 82201 333
10190=
30309 42998 72101 10169 20036 39524 40082 53004 80001 333
10182=
30650 32999 33204 10188 20009 38993 40005 53009 81041 333
10220=
30710 42960 81405 10216 20053 39449 40018 53001 80001 333
10256=
30844 32999 32701 10220 21017 39118 49995 53013 83030 333
12060=
31532 11699 60000 10071 20048 39773 40099 52012 69930 70282
82401 333 10162=
31829 32998 12904 10119 20009 30039 40070 52036 80002 333
10159=
35078 41498 73305 10139 20128 39646 49998 52005 78082 87903
333 86817=
35108 42697 63102 10233 20074 40160 57009 86201=
35188 42698 62604 10174 20085 39601 40000 53002 85930=
35229 42698 63204 10237 20067 39843 40093 57010 83360=
35394 42697 22605 10190 20045 39388 40010 52005 82100=
35416 42697 53206 10225 20053 85100=
35671 42598 72904 10226 21019 39635 40026 57004 86940=
35746 42698 63405 10245 20073 39982 40055 57010 85240=
35796 41597 71706 10257 20098 39622 40013 57002 79511 87900=
36003 42698 32506 10208 20061 39841 49982 57002 82130=
36177 41597 72402 10238 20098 39780 40002 53004 70292 82331=
36428 41599 62205 10258 20094 39558 40005 57017 71811 86900
333 91800 95000=
36859 42599 71902 10256 20097 39344 40049 57009 82965=
36870 42698 21001 10272 20040 39110 40022 57013 82200=
38198 42699 32505 10320 20038 83100=
38341 41598 82704 10227 20071 39337 40059 53019 70282 8697/=
44354 32999 73609 10204 20065 38977 49982 53030 84043 333
10226=
59995 11470 73210 10252 20242 30058 40066 52017 60031 70080 8523/ 333// 91527 91
26446 17506 85487 20634 21005 70146 13258 25507 50590 02160
23507 40764 11764 23509 30978 25761 24007 25108 36559 20505
20258 48358 17501 15443 607// 27503 10686 759// 07503 88999
77999=
42348 32597 32704 10392 20196 49976 333 10408 58009 82630=
42369 31996 10502 10372 20268 49972 70600 81030 333 10388
58019 81360=
42452 21596 63605 10306 20234 49994 79596 333 10397 58012
6003/=
42647 32596 62003 10360 20220 40023 85351 333 10385 58000
81620 84825 81930=
42724 21496 70000 10254 20248 40029 79596 85320 333 10320
59009 6031/ 83710 84618 81925 87460=
42737 21496 72503 10290 20271 40025 79562 84970 333 10369
56590 57970 58000 6001/ 82615 83930 83456=
42809 31495 60501 10344 20264 40000 70522 83430 333 10366
59006 81615 85358=
42867 32596 52902 10390 20176 49981 82331 333 10405 59013
81830 81930 83075=
42909 21596 62307 10298 20265 40055 72052 85901 222// 21301
333 10331 56500 58013 6995/ 82620 83825 81930=
43003 22596 72503 10312 20247 40064 85831 333 10325 58010
6991/ 83620=
43014 32596 70703 10310 2021/ 39398 40022 71322 87900 333
10345 57952 57922 58003 84620 84825 82930=
43063 32597 72905 10298 20195 39447 40053 85801 333 10326
58009 84628 83070=
43117 32597 63601 10350 20203 40016 84401 333 10363 59003=
43128 32597 62903 10352 20219 39432 40009 83801 333 10368
58004 82620 83825=
43185 32597 42702 10396 20234 30005 40008 82530 333 10410
59012 82620 83360=
43189 31597 30704 10334 20216 30005 40014 71791 82930 333
10413 57962 59004=
43192 31596 72703 10302 20254 40077 70522 84432 333 10311
58005=
43245 32597 62301 10374 20241 39996 40018 82502 333 10393
59007=
43279 32597 71103 10328 20236 30015 40032 82332 333 10393
57962 59004 81620 81930 86075=
43284 32597 63205 10304 20247 39965 40079 83801 333 10324
58001 83620 83075=
43295 21497 63402 10276 20199 39051 48473 79596 84970 333
10327 56790 57952 57973 59005 6990/ 82615 83820 81925 85460=
43321 32497 62307 10320 20203 39605 40037 84963 333 10358
57924 57944 59006 83615 83820 81925 85070=
43344 32597 60503 10360 20202 39936 40032 83932 333 10386
57911 59008 83620 82930 86075=
98223 11565 21101 10268 20255 40086 53013 69901 70598 81105
333 10340 56999 58011 81820=
98836 31565 60000 10275 20255 40096 52027 70544 81206 333
10335 56999 58003 81820 85081=
44272 32698 70503 10152 20030 38165 40003 52003 69912 82498
333 10192=
44358 32998 63206 10182 20109 38917 49975 57002 86030 333
10235=
22550 42597 51707 10297 20142 30088 40097 57013 85200=
22583 42984 20000 10274 20092 30065 40138 57011 82080=
22768 42697 42004 10291 20118 30072 40123 57014 82260=
22845 42498 72203 10245 20142 39969 40113 57008 87300 333
85915=
26063 42997 62703 10153 20070 30101 40108 50005 86030=
26298 42598 61403 10264 20137 39868 40079 57015 86900=
26477 41465 83204 10206 20154 39963 40083 58010 70298 883//
333 88915 91114=
26702 41597 72303 10151 20067 30103 40128 53005 70282 85201=
26850 41560 83301 10123 20113 39861 40126 52004 76186 8452/=
26997 41470 62203 10232 20127 39900 40104 57013 72991 86900
333 86916=
27595 42997 23504 10236 20062 30040 40173 57013 80001=
27612 42597 61302 10296 20118 39946 40122 57014 86200=
27947 42697 61604 10284 20143 30005 40151 57006 82132=
27962 42797 20000 10260 20107 40162 57013 82100=
33008 42565 82903 10140 20058 39978 40153 52006 883//=
34009 41665 72402 10214 20163 39819 40103 57014 79598 87900
333 91805 93217=
34172 42970 20805 10235 20076 39993 40173 57011 80001=
34247 42578 61405 10297 20071 30031 40135 57010 86200 333
86831=
34391 32997 00203 10255 20056 30130 40159 57012=
37018 42698 32304 10245 20182 30065 40113 58005 82231=
37054 42698 60707 10271 20094 39732 40086 57017 83530=
44219 32698 22703 10213 21024 38535 40053 53006 82200 333
10239=
44221 12699 22702 10196 20021 38408 40019 53002 69912 82100
333 10207=
44224 32698 50000 10140 21041 38190 40022 54000 85200 333
10198=
44348 32697 60202 10189 20088 38598 40000 52029 86500 333
10224=
44386 31698 62908 10207 20015 38994 40960 54015 84540 333
10264=
44203 11597 73203 10082 20064 38373 40118 53050 60072 78082
87200 333 10202 91214=
44213 32999 23203 10215 20055 38702 40016 53001 80001 333
10221=
44215 32998 30000 10206 20061 38328 49985 56000 82101 333
10213=
44225 11598 83603 10120 20064 38821 40072 51006 60022 70282
885// 333 10190=
44230 32598 70000 10205 20038 38696 40029 53003 87300 333
10232=
44237 32599 53605 10181 20027 38412 40007 53011 82540 333
10209=
44256 32999 50000 10184 20084 39214 49999 53005 83046 333
10225=
44265 32999 62704 10249 20073 38787 40008 56004 80007 333
10261=
44275 32598 62908 10124 20006 37702 40030 52021 86500 333
10190=
44302 32999 70000 10178 20004 38980 40002 52006 87010 333
10208=
44313 32699 80000 10175 20054 39233 40001 52011 86053 333
10239=
44336 32999 33603 10216 21002 38587 40000 54000 83080 333
10242=
23074 32498 73208 10012 21005 30116 40140 52007 875// 333
10017 87613 91110=
23711 42998 53504 10189 20006 30004 40167 57020 80001=
23804 42699 60701 10243 20093 30025 40163 57012 81101=
24125 32599 80303 10032 21032 39850 40120 57002 83531 333
20045=
24143 32999 63605 10127 20027 39994 40041 57012 86070 333
10137=
24343 32699 83605 10120 20004 39937 40048 52002 84932 333
10178 91111=
24738 32699 30103 10171 20006 39885 40051 52014 82101 333
10207 91110=
24951 32699 80000 10149 20088 39882 40022 53009 8352/ 333
10190=
24959 11599 80201 10165 20061 39908 40026 52006 69902 70282
82931 333 10223 91112=
24966 32999 81901 10166 20045 39845 40044 53001 82045 333
10216=
29313 11598 51204 10153 20097 39819 49932 54000 60042 70298
82932 333 10169=
29612 11598 82106 10146 20124 39771 49910 53001 60122 70282
883// 333 10151 88926=
29698 11596 83301 10138 20125 39613 40090 53025 60022 78182
889// 333 10202=
30758 32699 43604 10220 20036 39247 49986 53011 82531 333
10267=
30949 32699 61901 10189 20076 39008 40004 53014 82850 333
10230=
32027 11597 83610 10044 20037 30034 40043 52025 60100 78082
889// 333 10060 91015 91118=
35406 42997 00000 10241 20089 40176 58016=
38062 41698 22609 10214 20004 70731 82300 333 91115=
38232 42598 73404 10320 20065 30002 40091 57008 83201=
38388 42698 33604 10346 20056 30009 40079 57005 83200=
38457 41597 82701 10272 20034 39516 40054 53008 72588 8736/
333 91117=
38507 42698 22302 10272 20140 30004 40099 58008 82200=
38545 42598 53602 10319 20155 39893 40051 57009 83360=
38656 42697 50000 10357 20055 39966 40065 57008 85200=
38687 42997 33603 10340 20097 39829 40041 57011 83050=
45011 32475 61307 10282 20256 40081 52011 84201 333 10324
59011=
98135 31475 31604 10288 20259 40088 53010 70544 81205 333
10322 56399 59010 81819=
98232 31570 31402 10280 20254 40081 53016 70544 82202 333
10330 56999 59002 82820=
98329 31470 20702 10278 20252 40083 5/021 70544 81201 333
10340 56999 59007 81818=
98653 31470 80000 10280 20254 40092 52019 70544 81277 333
10330 56299 58002 81818 83358 88275=
20046 42476 71504 11047 21067 30209 40237 52001 87500 333
87619=
20069 32578 70000 11038 21071 30235 40248 51002 8653/ 333
11036 86633=
20087 31375 80207 11056 21063 30218 40229 52006 73632 886//
333 11055 88708=
20292 32480 70307 11027 21040 30169 40188 53004 875// 333
11009 87614=
20667 42497 80303 11033 21050 30243 40252 52005 885// 333   91106=
20674 11280 73509 11017 21028 30120 40179 52011 69902 70232
875// 333 11017 85704 91114=
20744 42998 71008 10019 21042 30195 40213 58009 80001 333   91110=
20891 32997 60405 10019 21038 30053 40094 57006 86031 333
10048=
23022 41396 80704 11020 21035 30182 40243 57001 71082 888//
333   91106=
23032 42461 82804 11007 21017 30204 40237 58001 885// 333   88618
91106=
29328 11598 80702 10131 20109 39833 49963 53009 60102 71798 889//
333 10195 88922=
29348 11597 71501 10139 20124 39856 49991 58005 60022 78082 83936
333 10231=
29405 11597 73302 10145 20123 39780 49915 52008 60122 70282 84331
333 10165=
29937 11699 62403 10220 20125 39805 40005 57005 60022 70282 82231
333 10225=
38927 32997 73003 10367 20056 39682 40018 50010 87900 333
85950=
22113 42584 71804 10214 20109 39974 40032 57015 85931 333
91006 91111=
22820 41499 71906 10220 20135 39957 40085 53008 79598 83930
333 91112=
22887 42970 69901 10271 20073 30091 40155 57011 83031=
26781 41597 71702 10186 20141 39824 40098 58010 79598 8693/
333 86921=
27037 42570 61505 10279 20134 39982 40130 57011 86900=
33345 42698 71705 10227 20132 39902 40094 58012 87300=
33393 41597 83004 10128 20065 39785 40167 52006 70282 8557/
333 85623=
33658 41397 82906 10121 20110 39864 40157 54000 78082 889//
333 88711=
33791 41697 81107 10223 20143 39957 40100 57014 70298 82331=
33837 42598 61704 10230 20182 30049 40097 58012 82301=
33946 41697 22507 10235 20137 39881 40087 58012 71790 82900=
34300 41597 71605 10226 20124 39937 40116 55007 71798 87300=
34560 42962 21007 10258 20097 39997 40152 58007 80001=
34691 42998 00703 10270 20040 30164 40153 5/005=
34866 42498 60903 10317 20119 40136 54000 84931=
34880 42997 31003 10271 20078 40140 58006 80001=
37472 42698 71004 10218 20185 30128 40106 57005 82554=
48325 31540 80000 10271 20244 39806 40046 71792 889//
333 10339 58014=
48352 32564 60000 10300 20252 39846 40041 82506
333 10336 58000=
48357 31561 60000 10310 20261 39875 40039 71322 83946
333 10355 59004=
48403 01560 81601 10252 20230 39845 40056 60062 71796 86973
333 10342 58012 60066 70060=
48405 31562 80000 10301 20265 39875 40034 71322 83903
333 10327 59007 70062=
48425 32560 80000 10315 20259 30024 40034 81347
333 10360 58003=
48426 11560 60000 10297 20266 30023 40035 60102 71399 82976
333 10334 58000 70097=
48430 31557 80000 10305 20257 30031 40039 71022 83376
333 10366 59002 79999=
48450 32562 81801 10317 20246 30007 40039 83376
333 10357 58002 70069=
48459 31962 80000 10307 20255 30034 40037 70292 80007
333 10338 59010=
48550 01458 82703 10270 20241 30049 40054 69952 71396 83946
333 10335 59013 69956 70005=
48551 01560 80000 10257 20240 30057 40065 69982 72196 84977
333 10333 59004 69945 70008=
48565 11460 72703 10276 20247 30059 40070 60342 70262 82846
333 10300 59006 70346=
48568 32460 42104 10293 20230 30056 40063 83806
333 10342 59008=
48569 32460 82003 10268 20233 30026 40066 83876
333 10329 59007=
48583 32560 50000 10293 20215 30047 40053 82106
333 10330 59012=
96011 11560 80802 10277 20231 30051 40074 56006 60021 70262 85522
333 10308 56000 59002 85620=
96073 01456 80000 10232 20228 30091 40098 56002 60191 76164 8697/
333 10260 56009 57900 58016 69957 86913 80900=
96109 31459 70000 10308 20263 30023 40062 52013 71322 85932
333 10354 56000 57905 58002 82920 83816 80970 80833=
96509 31460 30000 10274 20248 30069 40075 52007 71311 82301
333 10312 56000 57902 58008 81917 81617 80958=
96607 11458 80000 10250 20238 30089 40103 52010 69901 70262 8452/
333 10332 56009 58012 84617 88459=
96747 31550 71805 10282 20231 40084 71792
333 10319 56000 58003 82920=
96925 32463 50905 10286 20241 30085 40092 52017 82232
333 10314 56200 57820 58012 82817 80860=
43371 32597 62702 10310 20251 30001 40073 82831 333 10338
59009 82620 84075=
48327 01562 82702 10259 20248 39686 40038 60202 70296 83976
333 10333 58006 60017 70196=
48331 01556 80000 10260 20237 39818 40046 69902 70292 85976
333 10325 58000 69907 79999=
48353 31460 81804 10290 20224 39753 40036 71722 84966 333
10341 59014 70016=
48356 31565 60000 10311 20256 39849 40041 71399 84936 333
10335 59002 70048=
48375 31560 83101 10285 20242 39813 40035 70292 83906 333
10330 59005=
48378 32560 80000 10310 20255 39982 40034 81947 333 10343
58001=
48381 32560 70000 10300 20255 39821 40038 81946 333 10326
58003=
48407 31559 80000 10313 20257 39898 40035 71321 82967 333
10338 59006 70017=
48431 01560 80000 10265 20249 39830 40040 60042 72162 8557/
333 10345 59005 60025 70035=
48432 31560 70000 10310 20254 39875 40039 71392 85943 333
10351 59003=
48455 32562 70000 10307 20247 30033 40038 86846 333 10351
59002 79999=
48456 01560 71906 10298 20265 30030 40044 69902 70362 81936
333 10341 58000 69906 70026=
48480 31559 80000 10298 20259 30041 40045 71022 83947 333
10334 59007=
48500 32562 41802 10296 20238 30035 40041 82505 333 10326
59012=
54405 11662 60905 10215 20123 40009 52021 69901 70098 86400=
53798 32960 01101 10273 20171 39905 49994 52016=
54311 11580 61801 10149 20117 40025 52013 60031 72998 86900=
38413 42698 52804 10310 20060 40060 57008 85200=
24266 32599 70503 10147 20041 39903 40065 57006 83936 333
10167=
24329 32699 23602 10091 21019 39820 40094 57001 82100 333
10096=
24507 32998 81602 10204 20002 39867 40082 57003 81031 333
10211=
24688 11798 73604 10092 20029 39217 40073 52005 69900 71582
87901 333 10168 84650=
24908 32981 82401 10200 21022 39797 40097 54000 80001 333
10205=
24944 11597 80901 10092 20092 39752 40031 57003 60142 78198
8692/ 333 10159=
29594 11699 80000 10142 20106 39720 40078 53003 69962 72582
8597/ 333 10178=
29634 11657 62407 10188 20061 39760 49962 57011 60092 78081
86300 333 10207 86940=
29676 11598 63001 10181 20113 39670 40056 52002 60022 70282
86900 333 10185=
30054 11598 51603 10126 20061 39862 40086 52010 60032 70282
82931 333 10132=
30393 11599 81806 10114 21012 39055 40028 57002 69902 70282
86931 333 10147 86921 91111=
30433 32699 23602 10126 20029 39546 40105 52013 82400 333
10156=
30469 12999 10000 10136 21019 39322 40023 52030 69902 80002
333 10173=
30521 32998 50801 10173 20006 39581 40071 58002 80001 333
10199=
30554 32998 23405 10133 21005 39027 40041 52020 80002 333
10185=
30612 32999 63003 10198 20040 39571 40056 52002 80005 333
10211=
30635 32999 20404 10126 20029 39549 40086 52005 80001 333
10155=
30692 32999 70902 10134 20040 39572 40042 53004 81030 333
10190=
30802 32799 81904 10199 21012 38601 48414 53014 83431 333
10240=
30879 32999 20000 10166 20051 39313 40011 53002 80001 333
10230=
30925 32999 60602 10229 20033 39132 40002 53008 80001 333
10254=
35700 42998 00406 10256 20015 30156 40130 57010=
35925 42998 03203 10271 21005 30009 40102 58007=
36034 32699 62206 10231 20090 39745 49992 57002 82932 333
10235=
36061 11699 81402 10198 20135 39645 40016 57006 69962 70298
84231 333 10235=
38001 42998 54506 10254 20192 30141 40114 58003 80002=
38353 41597 82003 10231 30122 40031 53001 71791 889//=
38392 42898 23406 10334 20077 39971 40064 57010 82100=
38750 42997 02806 10375 20146 30125 40099 57012=
96163 11430 80000 10236 20236 30091 40098 52017 60821 79596 889//
333 10305 56099 57900 58010 83915 85718=
11782 32782 62304 10164 20051 39866 40172 57009 86800
333 84850=
12882 11580 52103 10183 20090 30036 40165 58009 69901 70162 85200
333 85830=
15480 32560 61606 10250 20151 30095 40110 57008 83208
222 00172 2//// 333 92427=
16641 32470 22906 10294 20159 30122 40127 54000 82200
333 90730 91118 555 40000 47624 44230 50000 50210=
38696 31598 60503 10288 20098 39272 40053 53012 71791 83902=
38880 42698 23602 10356 20100 39730 40071 58009 81249=
38895 42997 22603 10355 20163 3//// 4//// 5//// 82060=
38974 42998 00204 10351 20169 39739 40039 57006=
82825=
83821 92428=
10385 11675 62602 10125 20071 30095 40155 58008 69941 72582
86300 333 55305 84938 84656=
10637 11575 80802 10131 20081 30026 40161 58021 69941 71482
81287 333 55300 81820 83358 88270 90921 96480 99021=
16560 32680 13210 10276 20163 30183 40189 50001 81100 91145
333 55310 81835=
12330 11670 62904 10137 20059 30050 40156 57005 69901 72522
86900=
12375 11665 61903 10118 20094 30028 40157 54000 60051 79592
86900=
12843 32684 33204 10183 20029 30010 40174 58009 82202 333
82843=
13272 32780 52203 10196 20108 30073 40189 57009 85200 333
85850=
41660 31696 43113 10367 20022 38327 48401 70700 84400 333
10382 56900 58003 81940=
42410 32496 51001 10294 20245 40015 83430 333 10305 59022
81618 83825=
42492 22996 20902 10302 20223 40006 80001 333 10319 58020
6990/ 82075=
42634 32596 42507 10374 20213 40020 84830 333 10380 58003
81625=
42840 32596 41804 10316 20254 40057 83430 333 10338 56490
58009 81625 83830=
42886 32596 62302 10396 20173 49977 81530 333 10415 58007
81620 83360=
42895 32996 32302 10304 20247 40000 80001 333 10376 59003
83075=
42971 32596 61602 10320 20246 40010 82531 333 10364 58008
82620 83360 85075=
43198 21497 72503 10246 20205 39259 40073 72996 85831 333
10296 56699 58008 6023/ 82710 83615 85075=
43201 31497 72503 10300 20217 39344 40043 71792 84902=
43213 32597 62702 10370 20193 39713 40016 83232 333 10377
57813 59001=
43353 22496 62904 10300 20249 40082 83831 333 10316 56799
59004 6990/ 82616 85075=
43369 21597 53203 10306 20258 40084 70262 84430 333 10329
58001 6994/ 83620 83360=
21802 32499 60000 10006 21014 30107 40140 57001 69902 86530
333 10024 86618=
23256 42499 70205 10036 21005 30136 40169 52002 87300 333
84918=
23274 32498 70106 10028 20001 30095 40133 52005 875// 333
10044 87614=
23330 42498 80504 10050 20000 30210 40228 52007 84731 333
84714=
23383 32699 70000 10142 21019 39738 40064 57009 82531 333
10155=
23472 32999 63406 10127 20004 30031 40076 53002 80002 333
10205=
23552 41997 60305 10093 20006 30090 40123 52008 70732 80009=
23631 42598 80207 10079 20013 30150 40190 57005 82501 333
82628 91113=
23678 32998 81403 10149 20021 30007 40062 53004 8801/ 333
10212=
23734 41996 83602 10123 20013 30067 40155 53005 71022 80008=
23849 41996 43608 10171 20053 40039 52006 73633 80001=
23884 11967 81102 10097 20089 39993 40063 57009 69952 76186
8807/ 333 10153=
23891 32698 81604 10188 20015 39771 40074 57007 83906 333
10196=
23933 42997 30105 10139 20051 30042 40098 52003 80009 333
91112=
23966 11597 80402 10109 20086 39901 40018 54000 69972 70282
889// 333 10112=
25400 32999 03404 10029 21022 30111 40164 52002 333 10049=
28275 42599 83407 10138 20068 39996 40054 52017 8433/ 333
91012 91114=
28382 41498 83507 10133 20094 39933 49999 52020 76162 8477/=
28493 41398 80204 10136 20125 39856 49942 52022 78082 889//
333 86709=
28573 42589 83208 10167 20090 39910 40006 52019 86931 333
91013 91114=
28698 82902 10152 20130 39799 49941 52026 78098 85901=
28722 42998 03604 10217 20043 30011 40133 57006=
28786 41498 73506 10140 20114 39823 49969 52024 70282 86650
333 86716=
29253 11597 80902 10162 20145 39855 40015 57002 60062 79598
889// 333 10170=
29263 12599 80804 10131 20088 39965 40059 57002 69902 8552/
333 10134=
29282 32998 80902 10193 20004 39927 40082 57005 8807/ 333
10199=
29430 11498 81803 10160 20103 39815 49977 58018 60052 70282
86901 333 10190=
35067 41497 7//// 10146 20135 39770 40027 52023 78082 87300=
35121 42698 33605 10244 20050 39982 40118 57009 82101=
38763 42698 13402 10341 20120 39966 40061 57025 81200=
38911 42998 60302 10351 20046 39767 40032 57012 84072=
38954 42899 20603 10241 20147 37898 48420 57004 82900 10044=
38987 42996 10504 10351 20023 39347 40014 57018 80002=
40356 32960 02002 10346 21040 39122 48471 333 59009 555 04410
50034=
40361 32960 03002 10380 20000 39313 40033 333 59015=
40375 32960 03503 10360 21010 39217 40036 333 59012=
40400 32960 03108 10310 20220 30002 40029 333 59018=
40405 32960 01203 10410 21050 39317 40003 333 59011=
40416 32960 00110 10380 20160 39987 40006 333 59006=
40439 32960 02506 10352 20250 30005 40017 333 59017=
40703 32660 40000 10284 20071 38847 40039 57027 84300 91147
333 81935 83840=
40785 32965 00000 10368 20028 38951 49989 57022 91150 333=
41036 32560 13602 10380 21020 38508 48452 81400 333 59014 81630
555 04410 50004=
41136 32960 00706 10414 21020 39238 40000 333 58008=
41170 32966 00207 10362 20192 39993 40006 333 59005=
41196 32660 13205 10359 20221 39961 49998 81200 333 58005 81840=
41216 32962 03405 10365 20233 39992 49996 333 58007=
41256 31957 00403 10325 20273 39997 40006 70500
333 58014 =
41268 31958 00204 10330 20290 39996 40011 70500 333 58012=
42934 32597 72502 10360 20210 40009 85430 333 10374 58036
83630 82830 87360=
23205 42984 51802 10167 20053 30164 40178 57008 83031=
23219 42998 20603 10126 20006 30089 40190 57012 80001=
23418 42970 22803 10165 21027 30116 40186 57008 80001=
27271 42698 19901 10268 20081 30018 40161 57013 81100=
27707 42582 70000 10256 20150 39837 40107 58015 85970   333 83923=
28711 42998 50106 10221 20043 39798 40147 57008 80001=
10338 32680 72402 10141 20041 30074 40145 58012 84802 333
55306 83835 86075=
16242 32564 21704 10237 20149 30151 40154 51004 82200 333
82830=
16420 32598 20405 10262 20117 30103 40166 53002 82200 91145
333 55310 82825=
16716 32565 21804 10262 20177 30102 40119 54000 82200 333
90730 91112=
16734 32565 13208 10234 20197 30065 40126 58001 81200 333
90730 91120=
16754 32565 10404 10254 20175 30075 40120 58003 81200 333
90730 91112=
17060 32660 52305 10225 20178 40112 58006 83130 333 83835
84360=
17128 11560 70205 10186 20107 39035 40089 56002 69921 79582
87900 333 82930 85835=
17170 32670 22903 10212 20104 38311 48472 57014 82100 333
82835 10069=
17200 32670 41703 10294 20150 39131 40058 57017 84100 333
84840=
11518 32789 52604 10157 20018 39738 40165 57017 83261 333
83856 83358=
15420 32960 82301 10215 20137 30004 40109 57002 8807/ 333
91002 91202=
15614 31697 62905 10148 20092 39473 40158 52015 70322 86800
333 91129 91216=
54308 11670 72002 10176 20137 40024 52018 60031 78098 87200=
54423 11672 60000 10176 20142 39586 40027 52012 60021 70098
84402 333// 91117 91532=
21908 32699 70201 10043 21021 30042 40118 57008 875// 333
10045=
24982 32699 51101 10119 20002 39577 40041 53007 81401 333
10219=
25325 32999 00205 10057 21087 39979 40136 52004 333 10104=
28255 42599 83204 10142 20076 39988 40110 52001 8633/=
28642 42597 63608 10196 20067 40089 52005 83301=
29557 32998 71803 10214 20098 38760 40001 57016 87050 333
10224=
29822 12597 62015 10186 20111 39830 49979 53011 60022 86240
333 10217 91122=
29846 11697 81202 10209 20140 39642 49990 57026 69902 71792
8495/ 333 10209 84933=
30777 32698 31303 10204 21012 39399 49987 53002 83200 333
10252=
31174 32999 70204 10105 20015 30104 40105 52023 80001 333
10146=
31263 32599 60000 10097 20051 39549 40095 52010 81431 333
10181=
31624 32599 82601 10110 20081 40081 53021 889// 333 10189=
36087 32699 50000 10240 20058 40123 57002 83202 333 10300
95000=
36096 12699 60201 10239 20065 40024 57002 69902 82202 333
10240 95000=
36103 11699 62701 10167 20073 40073 53004 69992 72922 86900
333 10182 95000=
36231 32599 80000 10234 20025 40020 57007 84871 333 10252=
36259 32599 72702 10183 20032 38166 48431 57001 86901 333
10187=
36307 32599 53603 10227 20015 38833 48428 53003 82201 333
10242 95000=
42071 31996 21403 10394 20152 49962 70600 80001 333 10410
58019 82070=
42101 31995 03202 10410 20172 49960 70600 333 10422 58017=
42131 32996 02301 10422 20182 49962 333 10431 58010=
42165 31995 02306 10400 20177 49970 70744 333 10407 58007=
42182 31695 13202 10422 20186 49961 70610 81500 333 10425
58018 81640=
42189 32996 03202 10374 20220 49965 333 10388 58019=
42260 32696 32505 10420 20161 49958 83500 333 10438 58009=
42309 31596 63601 10284 20244 40027 70522 83230 333 10306
59030=
42328 31995 02310 10386 20229 49976 333 10403 59001=
42339 31696 42303 10390 20197 49988 70600 84400 333 10400
56600 58012 82635 83840=
42379 32996 00901 10300 20214 40004 333 10318 58027=
42591 32496 50901 10334 20227 49995 83531 333 10351 58024
83618 83360=
42701 21496 71403 10266 20181 39301 40007 70596 84331 333
10370 57930 58022 6004/ 83618 81930 84360 87075=
42798 31596 70901 10322 20179 49986 70522 85331 333 10388
57980 58011 84620 83825 81930 87075=
43086 21596 63402 10300 20217 39852 40026 71795 83932 333
10388 57982 58022 6990/=
43110 22597 62703 10300 20252 40078 84832 333 10304 56699
58010 6994/ 82620 83822 85078=
43314 32597 33203 10300 20255 40078 82301 222// 21001 333
10324 59006=
43333 21596 72903 10266 20243 40061 72162 82441 333 10282
59003 6994/ 81620 86360=
44438 32560 60902 10290 20253 39894 40018 83670 333 10304
58026=
44454 21565 50000 10248 20176 38599 48431 70126 82832 333
10254 58022 69908=
44477 32370 12401 10250 20191 38791 48453 81101 333 10257
58003=
91165 32566 20606 10233 20189 30115 40167 56017 91153 333
20233=
91245 32566 60906 10280 20250 30150 91150=
91285 12666 22202 10211 20189 30149 40162 58016 69931 91153
333 70038=
91334 11474 80506 10279 20270 30091 40094 51015 69931 70282
82271 333 10339 56122 59006 70076=
91348 11474 81205 10278 20239 30041 40093 50003 60081 70282
85271 333 10300 56225 59017 70180=
91353 32472 70505 10283 20253 30084 40089 51007 85270 333
10322 5619/ 59004 85818=
91356 11474 71005 10267 20244 30080 40087 51007 69981 71582
84276 333 10300 56299 59007 70104 84810=
91366 11474 80707 10271 20246 30081 40090 50000 69931 70282
82277 333 10294 56226 59007 70097=
91376 11474 80805 10272 20250 30090 40093 58002 69951 72582
85808 333 10300 562/9 59010 70013=
91408 11474 81502 10261 20247 30063 40101 52019 60031 70282
82272 333 10333 56218 59001 70030=
91413 32469 44952 10260 20245 30075 40094 51020 82101 333
10317 569/9 59008 70089=
91425 11474 80403 10261 20246 30087 40088 51008 60061 78186
882// 333 10322 56199 58000 70064 88818=
42498 20607 10030 40030 57004 82200
22233 00024 20301 30324 40502 50302=
54539 32775 71604 10171 20140 30015 40029 52003 875//=
98526 32575 80000 10284 20260 40084 52020 8317/ 333 10316
56999 59004 83825 88359=
98748 11468 82201 10256 20211 40087 52015 69961 70584 8347/
333 10324 56999 59006 83617 88358=
48820 32598 61402 10298 20270 30033 40041 52019 869// 333
00029 10340 59010 70119 84995 82895=
48826 11597 61404 10273 20262 39917 40044 53018 60022 71322
82908 333 00030 10323 59002 70024 82995 86299=
48838 32598 61801 10286 20262 30056 40062 52021 868// 333
00028 10318 58005 70007 82895 86697=
48839 32998 61605 10280 20262 39990 40054 53015 80008 222//
2//01 333 00/// 10320 58003 70000 86299=
48845 31598 71102 10285 20265 30033 40040 52017 71322 82908
333 00031 10328 59002 70000 82995 86299=
48848 32598 21406 10287 20252 30041 40049 53015 81901 333
00030 10320 59005 70000 81995=
48855 32598 71101 10293 20262 30051 40059 52014 85908 333
00032 10323 59005 70000 81895 82995 85697 87299=
48870 11498 80000 10256 20249 30048 40055 53010 60042 70262
8512/ 333 01027 10320 59009 70035 85894 88499=
48877 11498 80000 10248 20235 30052 40057 50005 60412 72162
8672/ 333 01026 10272 59014 70405 86894 88499=
48887 11598 83202 10255 20244 30059 40065 55013 60442 72196
8212/ 333 01026 10325 59014 70443 82895 88499=
48900 11396 73203 10246 20243 30061 40071 52031 60291 76398
8582/ 333 10335 58005 84893 84696 87499=
48914 11598 70000 10285 20265 30061 40063 53010 69992 70398
878// 333 01028 10324 59009 70074 82895 86697=
48917 11598 82705 10297 20260 30049 40054 53005 60022 72582
8492/ 222// 00308 2//01 333 01/// 10314 59014 70016 83895
81995 88499=
48918 11498 70000 10269 20253 30060 40071 53013 60172 70382
879// 222// 00296 2//01 333 01027 10310 58000 70167 83894
87995 91116 91527=
41620 32696 42705 10395 21188 38470 48437 84200 333 10400
56900 59007 84835=
41710 32697 22703 10461 20038 39219 49902 82500 333 10467
56900 59008 82640=
41712 31696 32302 10440 20052 39070 48449 70500 83400 333
10450 56900 59012 83640=
41715 31996 01304 10430 20299 39886 49947 70500 333 10435
59012=
41718 31994 02305 10410 20154 39853 49948 70600 333 10420
59004=
41739 31696 42303 10360 20203 38950 48444 70500 82530 333
10370 56990 58014 82635 82360=
41744 32997 31808 10345 20047 48405 83030 333 10393 56090
58004 83360=
41749 31994 02210 10410 20243 49976 70500 333 10420 59009=
41756 32997 02305 10320 20250 39953 40016 333 10325 58009=
41768 32696 42311 10390 20218 39984 49990 84500 333 10395
56900 59006 84635=
41780 32597 42305 10330 20238 39994 40021 84800 333 10350
56900 59004 81125 83630=
16597 32470 12808 10256 20184 30095 40180 58001 81500 333
81615=
40180 31959 03410 10316 20153 30020 40065 58014 70500=
40362 42962 01801 10390 20060 39546 40031 333 59015=
40373 32960 03406 10407 20000 39635 40023 333 59011=
40430 32660 22408 10440 20030 39315 49980 81130 333 59020
81845=
40438 32960 00109 10420 21010 39368 40025 333 59004=
40582 31956 03210 10435 20038 40026 58015 70700 333 00048=
41024 32960 03104 10360 20190 30006 40025 333 59012=
41114 32560 32406 10306 20117 37952 48461 83200 333 59002
83825=
41128 32960 00903 10390 21040 38770 48490 333 58022=
41140 32960 02407 10350 20270 30016 40024 333 58006=
41194 32660 13206 10344 20238 39991 40003 81100 333 58008
81835=
41288 31959 42308 10338 20265 39995 40007 70600 84070 333
59006 84459=
41316 01560 52108 10311 20257 39999 40024 69999 70061 85500
333 58005 85625=
40743 32665 30000 10354 20006 38961 40013 57012 83500 91150
333 83635=
40745 32660 41407 10328 20104 38963 40018 57017 82230 91150
333 82840 83360=
40754 32660 10334 20136 38751 40004 56010 81400 91155 333
81640=
40766 32960 02905 10336 20010 38635 40029 57011 91150 333=
40769 32962 02706 10320 21081 38248 49995 57010 91150=
40800 32960 02603 10358 21006 38385 49965 57017 91150=
40809 32665 12306 10366 20014 38437 49952 57011 81100 91150=
40821 32960 01102 10376 21040 38697 49969 56022 91150=
40841 32660 12907 10364 21014 38194 49956 57011 81100 91150
333 81840=
40848 32960 00000 10356 20030 38454 49975 56016 91150=
40856 32660 30308 10384 20100 38551 49953 56009 83200 91150
333 83840=
40875 31956 01905 10350 20258 39990 40002 57015 70500 91150
333=
51076 32680 42903 10259 20027 39229 40053 57007 81102 333
00004=
51133 32680 63206 10267 20022 39436 40042 54000 85902 333//
05100=
51243 32880 72203 10300 20026 39521 40026 57004 82902 333
05102=
51288 32980 73405 10195 21083 38291 57003 80002 333 00003=
51431 32680 70403 10235 20095 39329 40078 52007 81902 333//
00000=
51463 32780 73205 10241 20029 39017 40045 57005 86962 333
05101=
51495 32980 73411 10295 21048 40078 57004 83032 333 00051
91118 91534=
51542 11480 72203 10081 20033 37554 57009 69911 70060 86402
333 05102=
51644 32980 60000 10255 20073 38845 40006 57009 82032 333
00354=
51656 11775 70406 10214 20064 39016 40033 57001 69901 72580
879// 333 00456=
51709 32870 73604 10259 20031 38638 40026 52019 879// 333//
05104=
51053 32680 10000 10271 20062 40044 57009 81102 333 05104=
51087 32980 73204 10267 21052 39149 40049 57004 80002 333
05103=
51156 32780 62204 10229 20035 38645 40049 57001 85202 333
00001=
51777 32965 83604 10306 21019 39024 49986 52004 80007 333
00153=
51828 32862 72703 10242 20086 38545 40001 52005 82962 333//
00559=
51839 11863 70000 10274 20099 49970 57005 69901 70080 85402
333// 00355=
51855 31/20 93601 10274 21017 49992 52004 70600 333 00355=
51931 32965 82201 10263 20105 49983 57016 8802/ 333// 00354=
52203 32780 70000 10256 20105 39187 40003 52001 81132 333
00051=
52267 32880 70203 10283 21012 38965 49987 52002 81402 333//
00002=
55279 32680 71810 10092 21075 35732 57007 84902 333 05351=
55299 32780 21404 10110 21037 35873 57009 82400 333 05201=
55472 11575 82709 10083 21008 35761 52008 69901 78000 889//
333// 05253=
55578 11680 80902 10131 20027 36374 57001 69901 78000 889//
333// 05200=
55591 32680 72904 10178 20027 36515 57006 86902 333 05306=
55664 11880 70000 10104 20032 36025 52010 69901 70080 83202
333// 00000=
55696 31680 52202 10138 20010 36360 52009 71400 83940 333
00002=
55773 11470 71107 10044 20017 36039 54000 60011 78080 879//
333// 05152=
56106 32780 20902 10144 21048 36221 57012 82100 333 05305=
56137 32780 10000 10198 20004 36805 57009 81400 333// 05307=
56312 32680 22002 10204 20050 37059 57004 82102 333 05408=
42361 32696 32302 10420 20156 49967 82101 333 10435 58010
82835 83075=
40100 32560 50306 10302 20125 40115 54007 85230 333 82824
83358 92427=
40007 32570 22107 10338 20048 40040 58015 82200 333 82830=
40045 32970 02805 10364 20039 40055 58013=
40706 31658 22705 10282 20032 38602 40040 57013 70500 81100
91145 333 82835=
40712 32660 10904 10266 20050 38636 40034 57016 81200 91150
333 81835=
40718 32960 00503 10240 20214 30129 40098 57011 91150=
40732 32962 00703 10256 20164 30113 40093 57009 91150=
40736 32960 00203 10270 20183 30117 40090 58005 91150=
42559 21596 61401 10350 20196 49987 79696 84932 333 10398
58009 6001/ 82620 83825 81930 85360=
42667 32596 53206 10366 20209 39440 83530 333 10371 58016
81625 83830 85360=
42779 21597 72302 10304 20212 39323 49991 76062 85930 333
10398 58006 6994/ 82625 84830 85935 86360=
42754 32596 42709 10362 20189 39400 49999 84900 333 10377
58002 82620 83825 81930=
42571 32597 42301 10410 20193 49963 82101 333 10418 58009=
43041 32597 62503 10342 20213 39413 49999 84901 333 10379
59007 82625 83830 81930 86075=
43329 21597 73403 10316 20248 30032 40045 71762 83971 222//
20501 333 10400 57962 58004 6990/=
70273 32966 61102 10078 20017 30188 40237 51008 91153 333 10172
555 93012=
70326 11566 81604 10056 20039 30202 40223 58002 69901 761// 91152
333 10139 20056 555 93012=
72223 32966 00603 10194 20156 30075 40153 53016 91156 333 10322
20172 70003 555 93012=
72235 32966 00000 10194 20167 30041 40160 53021 91154 333 10311
20172 555 93012=
72240 31948 00702 10228 20217 30130 40148 53008 710// 91153 333
10333 20222 555 93012=
72251 31040 41702 10230 20230 30109 710// 91215 333 10317 555
93012=
72253 32466 21602 10228 20217 39845 40121 53006 91153 333 10333
20228 555 93012=
72261 35966 01103 10250 20217 39748 40099 53007 91153 333 10367
20250 555 93012=
72280 32966 /0000 10272 20050 39959 40029 56006 91156 555 93012=
72389 32966 03204 10150 20039 39985 40102 55001 91156 333 10328
20150 555 93012=
72414 31058 40000 10117 20117 39853 40207 53024 710// 91154 333
10200 20106 70005 555 93012=
72428 32666 41103 10144 20117 39902 40197 51016 91151 333 10178
20139 555 93012=
72438 31959 61504 10144 20128 39883 40172 50004 710// 91155 333
10228 20128 555 93012=
41560 31696 51804 10294 20089 38214 48420 70554 84830 333
1031/ 59010=
41594 31996 01304 10405 20166 49945 70600 333 10410 58009=
41624 31/94 91301 10405 20217 39747 49930 70600 333 10417
58019=
81100 22235 00260 20201 323// 40501 80230=
71082 36964 03201 11107 21121 30186 40227 58004 333 11063
21132 70005=
71120 32974 12703 10000 21029 39549 40203 53008 80001 333
10163 21001 55153 70000=
71627 36964 33401 10140 20108 30184 40228 51014 333 10193
20088 70000=
71803 11359 73408 10010 21009 30016 40205 53020 69981 78077
87500 333 10052 21008 41997 55012 70016 90983 93101=
71811 32983 22602 10084 20034 30175 40244 51005 80001 333
10100 21014 55128 22818 70000=
71816 32974 20000 10100 20015 30159 40220 58002 80001 333
10153 20010 55157 70000=
71821 36864 31905 10145 20077 39817 40154 51003 333 10211
20130 70005=
71836 17433 82405 10126 20115 30104 40115 53021 60011 7434/
333 10237 20125=
71867 32774 62906 10038 21031 39774 40104 50000 81530 333
10134 20008 55110 22306 70000=
71896 32982 23602 10019 20006 39380 40206 52003 81071 333
10154 20016 55080 70000=
71909 36964 01504 11009 21021 30136 40179 58010 333 10032
21025 70000=
71915 32574 70705 10015 21009 30028 40110 56009 81501 333
10009 21021 44008 55004 21848 70000=
71918 460// /0310 11077 39788 40207 53001 333 11031 21078=
71924 32974 00000 11125 21159 30199 40290 55001 333 11072
21148 42028 55240 10064 23138 70000=
71925 11374 60206 11143 21162 30243 40280 53002 69901 70177
84530 333 11080 21144 42033 55000 23004 79999 90921=
71926 11380 80306 10009 20000 30098 40121 53011 60041 77776
887// 333 10011 20008 44035 55000 10518 21515 70054 90911=
71934 32974 33203 11010 21057 39986 40245 52012 81071 333
10082 21014 55079 21979 70000=
71938 11374 80303 11072 21084 30271 40301 51008 69901 77152
886// 333 11047 21076 42010 55012 70022 90983=
71945 32983 70903 10098 21016 39764 40227 52013 87070 333
10194 20076 55085 70000=
72226 32966 00703 10178 20144 30088 40159 51018 91153 333
10294 20144=
72308 32466 80510 10144 20117 30175 40182 53023 91151 333
10161 20133 70320 91026=
72334 32966 21504 10194 20150 30061 40160 51013 91153 333
10294 20189=
72374 35966 01803 10167 21056 38485 40068 53003 91156 333
20150=
72476 32966 01104 10206 21056 38479 40016 53009 91156 333
10383 20194=
72486 35966 01302 10050 21039 38049 40050 55001 91153 333
10306 20039=
72488 32966 01603 10067 21050 38621 40094 56007 91156 333
10272 20067=
72520 32964 40000 10117 20089 39790 40239 53028 8/078 91151
333 10189 20078=
72547 11940 01604 10156 20150 39720 40106 55010 60081 710//
91155 333 10200 20156 70084=
72562 32264 20210 10160 20160 39090 91209 333 10350 91026=
72645 32964 01902 10111 20094 39894 40148 53009 91156 333
10206 20083=
72662 11256 83406 10089 20083 39046 40147 53012 69931 761//
91155 333 10244 70003 96010=
72681 32966 01502 10067 20017 39113 40102 58005 91156 333
10228 20061=
72764 32966 03203 10094 20089 39545 40144 51006 91152 333
10189 20094 70025=
72773 32666 60000 10044 20022 39042 40161 55000 91156 333
10194 20033=
72793 12466 81803 10089 20083 30018 40182 56005 69931 91156
333 10156 20089 70005=
70026 32766 81204 11050 21056 30242 40247 58003 91153 333
11039 21056 4/008=
70231 12666 84953 10106 20028 30082 40210 51010 69901 91153
333 10156=
70261 32966 40503 10056 20028 30050 40223 53002 91153 333
10167=
70308 11032 80406 10033 20033 30114 40124 56007 69901 710//
91153 333 10050 20033 70008=
70316 11448 81412 10061 20056 30108 40147 56008 60141 761//
91153 333 10072 20061 70564 91029 96010=
70350 32566 63003 10061 20022 30212 40252 53004 91153 333
10133=
70361 32566 80000 10078 20061 30245 40264 51005 91153 333
10133 20078=
71081 360// /0306 11010 21010 30159 40170 55003 333 11010
21020 70000=
71090 37008 80302 11073 21074 30220 40255 58003 745// 333
10018 21080 70005=
71145 32974 12404 10065 20046 39803 40092 55001 81070 333
10155 20060 70014=
71603 32474 83002 10109 20072 30210 40263 52018 885// 333
10175 20072 55060 70000=
71709 33980 12903 10079 20034 30245 40258 51017 80001 333
10088 20032 55094 79999=
71825 32874 72203 10091 20030 39547 40208 53006 87070 333
10158 20006 55144 70000=
72394 37158 80000 10094 20089 30037 40126 55005 710// 91151
333 10206 20078=
78897 32556 81107 10279 20226 40163 51021 82836 333 02305
10304 20262 58012 79999 82820 88276=
41571 31696 60910 10367 20111 49943 70592 82437 333 10383
56999 58013=
41675 31996 02304 10415 20184 39819 49949 70500 333 10420
58006=
41515 32797 42304 10294 20056 48422 82460 333 10326 58003=
76225 32740 40000 10208 20119 38557 40029 57008 84030 91150
333 10347 20208 30/// 56050 59027 70000 84358=
76342 31950 01801 10248 20193 39420 40089 51002 70121 91144
333 10345 20245 30024 59015 70000=
76382 11250 71604 10215 20168 38867 40055 54000 69991 75052
87500 91140 333 10343 20215 32020 56500 58007 70324 87607=
76556 32860 30000 10206 20200 39077 40075 57007 83030 91130
333 10300 20196 30018 56030 59001 70002 83360=
76644 32560 80000 10236 20222 30118 40128 51003 87031 91152
333 10367 20235 30023 56029 59004 70000 87330 81060=
76805 32965 63401 10260 20238 30008 40108 57003 8426/ 91145
333 10334 20252 30024 58004 70000 84350 82836=
78016 11464 72206 10250 20226 30132 40173 52017 69901 70382
86308 333 10274 20228 79999 90930=
78325 31558 60000 10258 20235 30071 40128 53007 70422 81272
333 10309 20254 30/// 55071 56999 59007 81820 85360=
78384 31560 60000 10260 20232 40131 70222 81151 333 10309
20237 58002 81822 86357=
78397 32572 73302 10273 20241 30117 40133 81802 333 00009
10329 20245 58001 81822 86072=
78526 31548 40904 10233 20222 30143 40165 51026 795// 91154
333 10322 20233=
78970 11450 70703 10240 20231 30113 40138 60091 76182 84873
333 05299 10305 20240 58009 70333 82816 83635 86460 90936=
78988 32470 70906 10292 20254 30117 40126 52013 82231 333
10345 20274 58003 82818 83360 87081=
81405 01460 60000 10247 20242 40128 60064 70286 84831 333
20231 58005 69927 84816 83360 85080=
80022 31460 80000 10270 20250 30100 40102 60024 70522 8437/
333 20254 30/// 55059 5690/ 58016 70021 83615 87457=
70133 32466 80602 10022 21006 30220 40226 51001 91153 333
10039 20022 70003=
70398 32766 23302 10067 20056 30206 40249 57004 91153 333
10122 20061=
72203 31458 42802 10244 20228 30124 40130 53019 710// 91153
333 10356 20228=
72278 32966 01203 10272 20078 39661 40034 53006 91156 333 10433
20267 555 93012=
72327 31956 81602 10160 20140 39974 710// 91214 333 10228 555
93012=
72344 32964 00502 10189 20183 39970 40134 51009 91153 333 10333
20178 555 93012=
72445 31958 01403 10189 20189 39813 40130 51017 710// 91154 333
10289 20189 70003 555 93012=
72465 32966 02805 10183 20050 38780 49995 51011 91156 333 10394
20178 555 93012=
72503 32466 80506 10117 20089 30239 40250 51026 91151 333 20111
555 93012=
72518 32766 81603 10117 20072 30156 40263 51023 91151 333 10194
20078 555 93012=
72528 32766 82104 10144 20100 39962 40223 53025 8/5// 91154 333
10217 20111 555 93012=
72572 32966 21802 10139 20078 38650 40050 53004 91156 333 10300
20139 555 93012=
72576 35666 80403 10089 20033 38286 40098 51009 91156 333 10294
20089 555 93012=
72578 32966 03002 10050 20000 38605 40106 55000 91156 333 10250
20039 555 93012=
72583 35966 01703 10006 21044 38640 40095 55007 91156 333 10261
20006 555 93012=
72606 32966 00000 10122 20072 30248 40268 53014 91151 333 10161
20039 555 93012=
72693 12766 80000 10083 20072 30062 40199 53001 60021 91156 333
10178 20078 70018 555 93012=
48601 11562 70000 10260 20249 30080 40084 60061 70262 82532 333
10290 82623 83364 87077=
48615 31468 72802 10300 20240 30058 40064 71792 82932 333 10349
81916 87074=
48620 11464 70000 10263 20246 30082 40091 60051 71382 83948 333
10325 81916 83364 87276=
48647 31567 72904 10290 20249 30060 40085 70522 81542 333 10342
81630 87078=
48657 31462 70000 10278 20244 30053 40071 71792 83932 333 10356
81710 81917 87078=
48665 31464 72904 10294 20246 30068 40078 71321 83942 333 10338
81917 87078=
96001 32557 81910 10260 20218 39946 40090 56001 84232
333 10284 56600 57802 58001 84820 80860=
96075 01440 80000 10252 20240 30093 40103 51001 69921 76062 8652/
333 10292 56009 58009 69927 86618=
96171 31457 70000 10282 20250 30039 40064 52018 70522 83921
333 10333 56000 57904 58002 81916 82618 80956=
96179 11460 70000 10284 20261 30038 40075 52012 69901 70296 82208
333 10310 56000 57803 59011 82817 80864=
96253 01458 70000 10265 20253 30053 40074 52003 60051 71662 83972
333 10300 56000 57900 58002 69907 81915 84460=
96295 11456 80000 10264 20243 39990 40095 51004 60011 71592 8592/
333 10328 56009 57900 59001 83912 80900=
96413 11465 71102 10238 20227 30049 40075 60041 71396 83931 333
10341 81915 86365=
96421 11465 71102 10265 20249 30039 40074 69901 72996 8357/ 333
10320 83618 87365=
96441 11465 70903 10257 20246 30075 40080 69981 76062 8357/ 333
10330 83616 87365=
96449 32468 70000 10256 20247 30051 40071 82541 333 10312 82616
83365 85080=
96471 31468 81403 10283 20250 30081 40084 72992 85948 333 10333
83815 81916 83640 87275=
96491 32465 70501 10274 20245 30072 40085 82848 333 10302 81816
83364 87077=
96581 32458 70000 10273 20259 30069 40076 52003 85131
333 10330 56600 57862 59011 85812 80860=
96633 11560 30304 10257 20246 30079 40087 52031 69921 70196 81511
333 10285 56000 58017 81625=
96645 11457 70000 10256 20250 30046 40077 52019 60081 71796 84932
333 10310 56000 57902 58000 81913 84613 80981=
96655 32458 60000 10280 20259 30062 40090 52021 84531
333 10322 56000 59010 84610=
96685 21460 60000 10260 20236 30053 40080 52013 69941 71362 83971
10320 56000 57902 58007 69927 81920 83617 80989=
96755 01440 81004 10244 20238 30091 40041 60041 71796 8492/
333 10316 56009 57002 60047 82918 82618 88462=
96791 31459 50000 10290 20226 30019 40079 51009 71322 82971
333 10330 56000 57962 58003 81918 82618 809// 806//=
96801 11450 80000 10254 20234 40103 60021 70562 84570
333 10290 56000 59005 84618=
96935 32560 30905 10289 20239 30076 40084 52017 81501
333 10316 56000 58004 82620=
96973 32559 30903 10283 20244 30074 40078 52016 82231
333 10313 56000 57804 58004 82820 80856=
96987 31458 71609 10282 20223 30042 40101 52019 71422 85831
333 10300 56300 57832 58010 82820 83617 80860=
91503 01470 40502 10246 20236 40087 54000 69981 78082 83903
333 10305 55/// 56100 59016 69967 83816=
91520 11480 50000 10242 20237 40087 58002 69941 70522 81278
333 10324 55/// 56999 59009 81814 85080=
91527 01470 80000 10245 20230 4//// 5//// 69951 75095 889//
333 10325 56999 5//// 69947 82815 81915 88627=
91555 31560 10000 10242 20230 40102 5//// 705/1 81100 333
10290 569// 59005 81820=
91570 16/// /0610 10252 20236 30106 40109 50001 69921
333 10291=
91574 16/// /1614 10226 20203 30116 40122 58004 69921
333 10242=
91577 36/// /0104 10231 20202 40109 58004
333 10268 55007 20941 59018=
91582 36/// /0000 10186 20178 40118 50000
333 10268 55103 21663 59015=
91592 32558 53403 10225 20217 40115 52001 82830
333 10260 55028 21111 56760 59019 81820 85361=
91610 31599 11206 10275 20248 40089 54002 70200 81100 333 10305
562//=
91636 31499 30603 10285 20254 4//// 70200 82201 333 10308 561/9=
91643 31599 21206 10285 20244 40090 58004 70200 82100 333 10320 561//

8
2
8
2
0
=
91650 31598 41104 10273 2022/ 40106 51001 70300 84800
333 10303 569// 83820=
91659 31598 21403 10230 2017/ 40113 58009 70110 82100
333 10273 569// 82825=
91680 31698 10803 10210 20191 40115 58006 70100 81100
333 10280 569// 81830=
91683 31598 10000 10200 20192 40128 58006 70100 81800
333 10270 569// 81824=
91691 36/// /1002 10199 20196 40124=
91697 36/// /1502 10201 20183 40129=
91699 36/// /1409 10229 20175 40132=
91753 36/// /0000 10224 20196 40104 58006
333 10291 55099 21956 58003=
91754 36/// /1606 10254 2//// 40110 58004
333 10283 55081 2//// 59007=
91811 11498 72904 10267 2024/ 40084 60021 72522 878// 333 10315 566//=
91843 11598 52309 10226 20183 40040 57002 72588 852// 333 10256 565//
8
5
8
2
1
=
17038 31640 43102 10199 20183 40107 57009 71000 83204
333 83835 83070 92426=
43233 32498 72906 10298 20181 39249 40032 82404 333 10318
56609 59003=
41640 31195 02303 10399 20128 39728 49957 70600 333 10404
58014=
40394 32962 02206 10400 20000 38960 48473 333 59020 555 04410
50003=
40729 32660 10403 10278 20013 38299 40042 57018 81100 91145
333 81835=
40762 32665 12603 10316 20066 38501 40008 57004 81500 91150 333=
40831 32960 03210 10438 20040 30006 40014 57011 91150 333=
41084 32960 00000 10400 21060 38976 48463 333 58000 555 04410 59985=
94120 46/// /1609 10221 20058 30097 40132=
94151 35/// /2114 10242 30125 40145 52016=
94203 46/// /1107 10158 20047 30147 40158=
94207 35/// /1017 1//// 30138 40149 52015=
94212 46/// /0706 10153 20001 39692 40173=
94238 46/// /1308 10129 21012 39772 40205=
94268 46/// /1807 10203 20052 30120 40135=
94287 46/// /1509 10187 20059 30146 40155=
94290 35/// /1422 10223 30143 40150 52013=
94294 46/// /1709 10164 20031 30167 40177=
94298 35/// /1415 10221 30136 40142 52008=
94299 46/// /1522 10221 20204 30122 40133=
94300 46/// /3306 10199 20120 30163 40173=
94302 46/// /0000 10166 20099 30172 40178=
94312 46/// /0000 10154 20119 30161 40171=
94326 46/// /1503 10060 20034 39616 40252=
94332 46/// /1607 10130 21007 39805 40198=
94346 46/// /1807 10087 20021 39980 40206=
94363 46/// /2008 10104 20028 39963 40184=
94367 46/// /1904 10130 20070 30134 40172=
94394 35/// /2310 10178 30131 40139 52001=
94403 46/// /0406 10202 20012 30126 40167=
94430 46/// /0708 10128 21019 39599 40196=
94461 46/// /0910 10096 21023 39554 40243=
94510 46/// /2105 10072 21011 39856 40213=
94515 46/// /2108 10055 20021 39838 40195=
94578 46/// /2709 10101 20030 30137 40148=
94601 46/// /0314 10178 20018 30134 40151=
94610 46/// /0310 10191 21026 30156 40180=
94638 46/// /0510 10107 20055 30239 40272=
94653 46/// /1205 10111 20082 30281 40300=
94659 46/// /1608 10117 20025 30083 40283=
94672 46/// /1603 10104 20065 30275 40280=
94693 46/// /2307 10087 20058 30185 40248=
94776 46/// /2819 10070 21003 30118 40128=
94791 46/// /2801 10048 20013 30118 40125=
94802 46/// /0811 10122 20017 30110 40193=
94804 46/// /1718 10131 20082 30252 40291=
94821 46/// /2506 10087 20081 30174 40258=
94842 46/// /2019 10116 20075 30115 40215=
94865 46/// /2610 10078 20063 30187 40212=
94907 46/// /2609 10078 20053 30170 40180=
94910 46/// /2803 10045 20034 39916 40171=
94926 46/// /3601 10027 21012 39465 40142=
94975 46/// /2905 10080 20046 30108 40141=
94983 46/// /2810 10063 20004 30116 40141=
94995 46/// /2810 10166 20100 30069 40077=
94996 41582 60302 10146 20115 30000 40129 57010 70222 82208
333 10197=
28419 42998 23304 10213 20043 30024 40143 57005 80001=
31285 32699 80301 10103 20062 40103 52016 885//   333 10197=
31561 12998 83603 10115 20051 40080 52014 69930 82041   333 10148
91113=
60020 32665 10903 10242 20162 30141 40186 51006 81500
333 92427=
60101 31316 30505 10299 20173 40182 50001 71000 82602
333 82708=
60115 32970 03603 10323 20143 40164 58007 80002
333 81073=
60127 32970 00000 10324 20112 39605 40162 57009=
60135 31450 23004 10244 20192 40174 58008 70241 82600
333 82710=
60155 31950 03602 10235 20189 40182 58010 70241=
60620 32960 00609 10380 2//// 40118 58013=
60715 32965 03010 10302 20126 30192 40197 57004
333 50981=
60765 32960 00403 10192 20165 30197 40203 58004
333 50551=
61024 32960 31407 10428 20053 39525 40058 80002
333 0//00 59004 83080=
61421 32960 00406 10412 20060 39848 40091
333 0//00 59017=
61442 32957 03102 10313 20215 30115 40119
333 0//00 58000=
62002 32960 03601 10292 20118 39506 48600 54000=
62010 32960 00104 10287 20155 40204 58002=
62019 32958 02704 10235 2017687055 32560 43615 10250 20161 40173
56007 84500 333 84630=
62124 32960 00406 10317 20048 39682 40165 5=
62306 32560 43308 10254 20177 40105 54000 84800=
62318 31556 32307 10313 20197 40077 56006 70700 83800=
62366 32960 02706 10368 20131 40060 56013=
62405 32960 03104 10432 20125 40042 57015=
62414 32960 03306 10430 20056 40046 58017=
62420 31958 03207 10328 20129 40083 58014 70700=
62641 32970 00405 10385 20145 39998 40044 333 59011=
62660 32970 23602 10450 21050 39/// 4/// 80002 333
56007 5//// 82080=
62680 32970 03602 10445 20090 39640 40006 333 59010=
62721 32970 73601 10440 20005 39597 40008 81047 333
56029 59002 81365 87275=
62760 32970 60504 10390 209030 39255 40018 80007 333
56009 58001 87275=
62772 31965 72806 10385 20175 39615 40024 70722 80007 333
56009 59008 87275=
62781 32970 70201 10395 20135 39437 40036 80007 333
56009 58000 87275=
62805 32770 71802 10380 20170 39493 49993 81147 333
56299 59014 81850 82365 877275=
62840 32670 73302 10280 20210 39641 40074 81137 333
56779 58013 81840 83365 87275=
62880 32670 73501 10325 20235 39577 40064 84847 333
56579 57891 59004 82640 82850 83365 87275=
63170 3/280 12105 10295 20150 81060
333 59001 81656=
65306 32565 72203 10347 20233 39756 40077 82802
333 59004 81620 85076 94904 95814=
65548 32460 71402 10284 20234 39729 40108 86230
333 59014 86815 83360=
65578 32462 31903 10315 20267 30093 40102 83800
333 59010 83813=
65592 32462 3//// 10296 20251 30088 4011/ 82902
333 59008 82815 81923 95336=
60030 32560 20313 10230 20182 30115 40170 54000 82500
333 92446=
60107 32960 03405 10239 20167 40193 52003
333 95300=
60185 32970 00206 10325 20154 40153 56018=
60230 32660 10803 10340 20125 40144 58012 81200
333 81833=
60265 32670 10802 10320 20054 38935 48587 58010 81100
333 81840=
60338 32982 00704 10246 20176 30130 40193 54000
333 92418=
60602 32970 0//06 10350 20040 40149 58009
333 95900=
60725 32970 03103 10293 20154 30044 40208 58006=
60735 32970 03402 10321 20088 30119 40196 58010 50731
333 50481=
60760 32960 02501 10340 20159 30069 40173 58008
333 51111=
60769 32960 00404 10302 20126 30193 40198 58004
333 50681=
60775 32975 00903 10324 20103 39854 40191 57008
333 50851=
61052 32965 22206 10390 20170 39821 40063 80002
333 0//00 59098 82080=
61075 32970 72603 10392 20191 39575 40060 80008 91149
333 59011 87280=
61090 32765 52202 10394 20132 39572 40059 81102 91145
333 59003 81850 85080=
61415 32960 02305 10260 20179 30127 40132
333 58000=
61498 31910 00408 10416 21015 39975 40111 707//
333 0//00 59007=
62007 32962 00403 10276 20185 40200 55001=
62056 32560 52808 10215 20148 39457 48534 56003 85500 333 85620=
62059 32960 03308 10230 20183 40149 52003=
62600 31968 00104 10420 20050 39852 40050 70600 333 58004=
62640 32970 732095 10415 20040 39681 40012 80007 333
56009 59016 87275=
62650 32970 00606 10453 20100 39791 40041 333 58008=
62751 32770 72403 10405 20175 39589 40021 81107 333
56209 59016 81856 87275=
62752 32770 71802 10395 20170 39380 40016 81107 333
56609 58000 81850 87275=
62762 32970 72503 10385 20185 39596 40017 80007 333
56009 59002 87275=
62770 32770 71301 10380 20050 39206 40050 82107 333
56309 59001 82856 87275=
62771 32870 71802 10390 20100 394011 40007 81107 333
56409 59014 81856 87275=
62795 32770 72306 10385 20170 395333 40005 81107 333
56309 59004 81856 87275=
62810 32970 71802 10340 20180 39534 40078 80007 333
56009 58017 87276=