ZCZC 000
SMCI10 BENJ 020000
AAXX 02001
42042 02001 99299 70883 46/// /1005 10241 40178 56003 92350 22200
00245 10501 70004 333 91206 555 11051 22053 32348 41006 62349
100047 100048 097046 093044 094041 087041=
82400 22224 00239 20302 313// 40503 80200=
81100 22225 00193 20505 331// 40905 5//// 6//// 80178 ICE /////=
22271 00217 2//// 3//// 4//// 80139= BBXX=
59293 32965 00402 10142 20012 30162 40211 52007 333 00554=
54142 32968 02003 10028 21020 40167 52015 333// 05604 31048=
54285 32962 00901 11027 21044 40246 52006 333// 05354=
54181 31957 00000 11018 21044 40211 52004 70400 333// 05400=
54273 31920 00000 11018 21044 40211 52007 71000 333// 05400=
54049 32970 02004 10027 21031 40166 52011 333// 05603 31030=
54266 32965 02002 10006 21057 40200 52007 333// 05502=
54186 32962 01801 11028 21052 40219 52003 333// 05352=
54094 32962 02201 11029 21043 39898 40203 57007 333 05454=
57584 32968 00000 10093 20040 40251 52013 333// 05251=
57602 32962 10901 10122 20105 40211 52005 81040 333 05501=
59046 32970 03402 10133 20064 40234 52014 333// 00153=
54471 32960 01602 10094 20036 30191 40196 52016 333 05505
31004=
57766 31905 02201 10056 20056 40261 52007 74640 333// 05153
30032=
57574 31956 01801 10087 20074 40241 52006 72840 333// 05351
30037=
57669 31418 80000 10060 20048 40249 57001 71000 886// 333//
05352 30044=
54662 32965 02703 10121 20030 30087 40208 52008 333 05302
30021=
59673 32968 03613 10166 20072 40189 52012 333 00552 91119
91536=
59317 32562 73602 10174 20080 40184 52017 875// 333 00753=
50775 31905 10702 11004 21052 40181 57009 70400 80002 333
05251=
54337 31930 00000 10061 21015 30102 40189 52020 70400 333
05504 31032=
57476 32961 02202 10099 20067 40239 52012 333 05451 30046=
59072 32980 02701 10086 20053 40246 52013 333 00255=
51828 32960 72204 10123 21086 38652 40174 52001 80002 333//
00108 30016=
53915 32965 10000 11018 21029 38671 40232 57001 81040 333//
05601 31036=
57245 31/04 90401 10063 20063 39895 40249 52011 74740 333
05401 30039=
59453 32977 00000 10128 20053 40221 52018 333// 00352=
56492 31950 00000 10118 20110 39811 40217 52010 71000 333
05401=
57127 31/03 90000 10062 20060 39637 40249 52006 74700 333
05402 30030=
59058 32968 01801 10086 20067 40234 52015 333// 00257=
59228 32970 00000 10109 20097 40226 52016 333// 00152=
50527 32970 72506 11028 21063 39332 40071 52037 84032 333//
05602=
53782 32965 00000 10034 21005 40231 52008 333// 05302 31018=
57947 32965 00000 10081 20066 40245 52016 333// 00055=
51573 32965 70000 10056 21008 30115 40158 52008 80002 333//
05703 30005=
57067 32975 00000 10020 20015 39557 40247 52001 333// 05502
31018=
57793 31930 00000 10051 20046 40255 52014 71000 333// 00154
30024=
54602 31950 03601 10043 20012 40212 52011 71000 333// 05451
31032=
57671 32962 01801 10088 20057 40239 52008 333// 05353 30033=
54497 32960 00404 10026 21011 30203 40218 52009 333 05252
31029=
54335 31958 00000 10038 20006 40186 52020 71000 333 05503=
59644 32965 00203 10147 20056 30193 40209 52020 333// 00353=
59417 31905 00000 10116 20114 30063 40219 52009 74640 333//
00252=
59065 32971 00000 10077 20057 40234 52013 333// 00256 30036=
57232 31/08 90901 10056 20054 40252 52007 74540 333 05401
30039=
59096 32965 00401 10125 20019 40230 52015 333 00554=
59303 32965 03201 10116 20051 40217 52013 333 00655=
59478 32966 00206 10143 20046 40202 52011 333 00453=
59316 32762 73603 10167 20078 30185 40194 52017 875// 333
00853=
59501 32970 70405 10169 20049 30176 40192 52013 875// 333
00653=
59287 32967 10203 10146 20011 30162 40214 52011 80002 333//
00453=
54351 32962 00401 10022 21035 40211 52013 333// 05504 31045=
54135 32978 02503 10046 21075 39949 40172 52025 333// 05505
31045=
55598 32980 00702 10016 21106 36654 52007 333 00100 31041=
59626 32965 00000 10151 20074 40209 52017 333// 00354=
58921 31958 01601 10098 20073 39988 40236 52017 71000 333
00656=
57972 32960 01401 10074 20049 30026 40254 52015 333// 00153
30010=
59254 32970 00702 10124 20081 40223 52014 333// 00252=
59218 32962 00000 10104 20092 40223 52004 333// 00055 30047=
56287 32980 32201 10115 20077 40229 52005 83040 333 05401=
59446 32975 03401 10121 20064 40218 52019 333// 00355=
54218 32970 00000 10013 21075 39511 40202 52018 333// 05404=
59126 32960 72902 10164 20084 40206 52017 8704/ 333 00954=
59023 32960 02501 10120 20082 39977 40229 52009 333// 00053=
56964 32972 00000 10083 20075 38759 40221 52006 333// 00052=
53463 32960 00000 11025 21043 38986 40257 52005 333// 05300=
57608 32965 00000 10106 20088 40218 54000 333 05501=
57405 32962 70000 10113 20097 40216 52003 8703/ 333 05402=
59431 32968 00000 10096 20084 30070 40223 52015 333// 00157=
53480 32975 00000 11040 21066 40263 52003 333// 05151=
59845 32970 10000 10148 20121 40192 52010 80002 333// 00253=
53588 32980 03205 10024 21072 37782 52011 333 00105=
53564 32961 00000 11030 21049 39209 40246 52004 333// 05302=
53772 31915 00000 11006 21017 39321 40260 52006 71000 333//
05403 31018=
53663 32980 02201 11002 21052 40253 54000 333// 05203=
53664 32970 01405 10039 21042 40233 57001 333// 05404 30002=
53959 32980 00702 10032 20006 39763 40222 57001 333// 05601
31006=
53673 32960 00000 11020 21042 40264 52008 333// 05301=
53787 32980 00000 11009 21042 40259 52004 333// 05304=
53478 32970 00000 11039 21047 40270 52008 333// 05202=
59211 31256 12903 10118 20112 30022 40233 52014 71000 81600
333// 00052=
58457 31940 03402 10123 20087 30195 40247 52023 71000 333
00452 79999=
58543 32961 70000 10121 20093 40246 52016 8704/ 333 00552=
58633 31725 20000 10112 20100 30136 40237 52018 71000 82500
333 00453 79999=
58665 32561 73406 10150 20096 40211 52026 878// 333 00602
70197=
58666 32560 73412 10154 20107 30106 40207 52020 878// 333
00702 70279 91118 91534=
58667 32762 73409 10151 20095 40210 52016 875// 333 00704
70194=
57866 32962 00000 10079 20050 30048 40259 52010 333// 00053
30039=
57016 32960 22701 10038 20028 40227 52003 80002 333// 05601
31010=
58834 31459 20901 10111 20099 40236 52018 71000 82600 333
00756=
58311 32970 02003 10083 20026 40256 52013 333// 05100 30022=
53845 32965 00000 11005 21016 39111 40247 57002 333 05501
31024=
57655 31/05 91801 10080 20078 40249 52011 74540 333// 05351=
57682 31/00 90000 10034 20034 40261 52013 74540 333// 00057
31005=
57965 32970 03202 10079 20037 40250 52015 333// 00055 30020=
57562 32970 02501 10080 20060 40231 52010 333// 05451 30050=
59298 32966 00405 10148 20018 40205 52015 333 00654=
59087 32964 10902 10132 20031 40224 52019 80002 333 00553=
59658 32970 03603 10154 20061 40199 52015 333 00452=
59082 32962 00000 10094 20073 30159 40238 52016 333 00456=
59271 32980 00000 10084 20053 40226 52015 333 00454=
59948 32976 11101 10180 20101 30170 40178 52011 80002 333//
00453=
57649 31/06 90402 10077 20073 40250 52006 74340 333// 05351
30049=
53923 32980 01605 10038 21018 40206 57006 333// 05504 31017=
50936 32970 02206 10056 21086 40117 52015 333// 05706 31022=
54171 32975 02003 10054 21023 40186 52004 333// 05604=
54292 31958 00000 11020 21046 30003 40229 52009 71000 333//
05254=
50948 32968 02004 10038 21028 40141 52011 333// 05704 31032=
54063 32970 02007 10050 21068 40126 52001 333// 05704=
54195 31940 00000 11038 21061 40230 52006 70400 333// 05354=
54263 32962 00000 11026 21039 40206 52009 333// 05402=
54374 32560 80000 11012 21024 39824 40241 52009 886// 333//
05154 31038=
54276 32960 00000 11045 21054 40229 52009 333// 05301=
54377 31450 83601 10010 21001 40239 52012 71000 886// 333//
05152 31039=
54284 32970 01404 10026 21027 40213 52008 333// 05301 31045=
54161 32965 02006 10050 21039 39874 40167 52009 333// 05603
31031=
54386 32970 00703 11030 21054 40242 52012 333// 05153=
54363 31550 80000 11028 21032 40240 52012 71000 886// 333//
05300=
52652 32980 12001 11023 21040 38472 40164 57003 81042 333//
06000=
58122 32968 01802 10083 20056 40243 52010 333// 05201 31002=
57006 31958 10000 10020 20010 40230 52003 71000 80002 333//
05701 31010=
58918 32970 02904 10108 20051 40226 52014 333 00656=
58944 32561 83602 10182 20104 40201 52016 885// 333 01001
79999=
58926 31956 00000 10111 20089 40227 52015 71000 333 00757=
58754 32662 80000 10155 20122 40216 52019 885// 333 00702
70021=
58820 31915 20000 10070 20066 40244 52019 71000 82040 333
00657 30033=
59133 32962 73604 10180 20078 40192 52019 8703/ 333 00952
79999=
58931 31260 30203 10029 20022 38386 52009 72840 81130 333
00552 70001=
54401 32965 00201 10023 21056 39370 40240 52008 333// 05303
31032=
54836 31957 00000 10022 20003 40249 52016 71000 333 05253=
54929 32970 00000 10046 20031 40245 52013 333// 05252 31008=
54909 32964 01804 10066 20022 30161 40225 52011 333// 05503
30020=
57071 32973 03403 10061 20035 40225 52009 333// 05501 31012=
57156 32980 02905 10060 20039 40243 52002 333// 05402 30033=
57178 31925 00901 10059 20050 30073 40234 52008 71000 333//
05451 30025=
57181 31920 00000 10042 20027 40227 52005 71000 333// 05600
31001=
57297 32960 01402 10093 20035 30093 40234 52007 333// 05403
30020=
58005 32964 01802 10063 20021 40229 52007 333// 05400 31002=
57872 32962 00000 10091 20053 40247 52007 333// 00054=
59849 32975 00000 10132 20109 40196 52013 333// 00254=
58027 31959 00000 10072 20054 30186 40238 52006 71000 333
05300 30014=
56182 32980 00000 11047 21089 37260 52010 333 05302=
56079 32980 00000 11087 21108 36735 52008 333 05303=
56178 32980 00000 10023 21045 37742 52016 333 05302 31032=
56173 32980 02502 11063 21094 36705 52008 333 05306=
56172 32980 00000 11029 21070 37421 52014 333 05302=
57399 32965 00402 10058 20031 40254 52013 333 05154 30010=
58138 31957 00000 10088 20075 40248 52015 72800 333 00152
30028=
59855 32970 13602 10172 20117 40178 52017 80002 333// 00351=
53593 32975 00000 11008 21031 40250 52007 333// 05303=
54308 32980 00000 11033 21067 40243 52008 333// 05201=
54339 32960 01803 10112 20018 40194 52010 333 05506 30031=
58606 32960 03601 10126 20045 30186 40242 52011 333// 00200=
57894 32968 03202 10049 20020 40254 52003 333// 00054 31019=
58626 31958 02201 10100 20077 40244 52012 71000 333// 00454=
58527 31925 00201 10097 20078 30164 40241 52013 71000 333//
00353=
59632 32970 00201 10150 20050 40215 52016 333// 00253=
59134 32962 73603 10178 20081 30031 40194 52015 8703/ 333
00953=
59838 32975 20705 10187 20077 30171 40185 52007 80002 333//
00353=
57461 32962 00000 10083 20063 30077 40241 52005 333 05451
30042=
50788 32970 21404 10001 21049 30115 40202 57002 80002 333
00053=
50963 32960 01103 11020 21043 30033 40173 57009 333 05501=
50658 32970 41807 10019 21057 40090 57017 84030 333 06005=
50877 31940 00000 11020 21036 40180 57005 70400 333 05454=
50854 32970 02007 10036 21052 40114 57005 333 05904 31035=
50564 31956 20000 11038 21065 40120 57010 70400 82032 333
05651=
50353 32968 71402 11022 21065 39889 40114 57011 81032 333
05605=
50853 32970 01409 10030 21034 40134 57014 333 05705 31041=
50888 32962 01403 10001 21075 40197 57008 333 05155=
50844 32962 02507 10056 21086 40087 52002 333 06007 31020=
50745 32965 02006 10031 21087 39883 40065 57004 333 06107
31023=
50756 32960 61407 10019 21057 39829 40127 57014 82032 333
05805=
50349 32970 70000 11068 21085 40100 57008 85032 333 05906=
50742 32965 11805 10013 21069 40066 57011 80002 333 06204
31041=
50968 32962 00000 11023 21054 40178 57003 333 05653=
50656 32972 72004 10009 21058 40115 57012 87010 333 05905=
50862 32960 01603 10026 21063 40153 57007 333 05604=
50468 32965 70000 11034 21068 39913 40123 57004 80002 333
05601=
54096 32970 00000 11036 21074 40217 57009 333 05354=
50758 32970 21407 10022 21056 40130 57011 82030 333 05905
31040=
50557 32970 21408 10011 21070 39778 40079 57003 80002 333
06003=
50442 32970 20000 11024 21051 40078 57007 82030 333 06006=
50774 32960 60401 11001 21060 39850 40158 57006 86030 333
05402=
50983 31958 00000 10021 21051 40215 57006 70400 333 00000=
50136 32970 73603 11054 21076 39542 40086 57006 82032 333
05813=
50246 32970 80705 11046 21067 40108 57009 8802/ 333 05711=
50978 32960 00000 11013 21060 39906 40205 57005 333 05254=
57144 32980 00000 10032 20027 40253 52006 333 05402 30013=
53754 32970 00000 10022 21010 40230 52001 333 05403 31028=
57106 32962 20000 10041 20039 40239 52007 80001 333 05602
30019=
57143 32962 00000 10020 20005 40254 52006 333 05402 31018=
53646 32965 00000 11022 21025 38985 40234 52001 333 05400=
53738 32970 00000 11022 21022 40240 57002 333 05501 31049=
57034 31957 03401 10038 20028 40228 52002 71000 333 05601
30003=
53942 32960 00000 10024 21021 40233 54000 333 05403 31034=
53740 32972 00000 11014 21034 40220 52001 333 05502=
57036 32960 00000 10040 20030 39741 40227 52002 333 05601
31006=
59021 32362 52902 10076 20068 40249 52006 85600 333// 00153=
57606 31950 00000 10050 20043 40251 52004 71000 333// 05351
30028=
56691 32976 01104 10050 20007 37821 52005 333// 05204 31002=
57731 31458 72203 10094 20088 40250 52014 71000 875// 333//
05252=
56793 31959 00000 10043 20027 38554 52012 71000 333// 05100
30000=
57806 32968 00000 10059 20042 40247 52007 333// 05151 31007=
57816 31958 01802 10052 20043 38850 40249 52011 71000 333//
05253 30011=
57832 31/06 92501 10033 20033 40269 52009 74344 333// 05253
30040=
59242 31956 00000 10127 20067 40224 52010 71000 333// 00152=
50953 32970 01805 10042 21060 39961 40142 57012 333 05704
31032=
59647 32970 00208 10173 20036 40201 52012 333// 00351=
57089 31958 01802 10056 20039 40226 52010 71000 333// 05501
30001=
54623 31958 02502 10081 20011 40213 52009 71000 333 05302
30020=
59209 31958 00000 10072 20066 40245 52005 71000 333// 00056=
51709 32965 03202 10090 21030 38730 40172 52001 333// 05104
31017=
51705 32980 02703 10055 21099 37864 52001 333// 00102 31009=
51716 32965 01801 10020 21036 38899 40183 52006 333// 05251
31039=
51811 32962 02202 10068 21029 38797 40194 52006 333// 00002
31012=
58472 11480 13410 10150 20092 30120 40218 52027 69911 70060
81100 333 00500 70096=
58477 32466 33403 10146 20096 30174 40218 52024 82140 333
00500 70158=
58646 31630 70000 10139 20113 40236 52021 71000 87500 333
00651 70031=
58659 32762 83203 10154 20105 30180 40215 52022 885// 333
00602 70144=
58660 11760 72903 10148 20078 40217 52014 69901 70060 875//
333 00501 70152=
51628 32960 00402 11010 21024 40192 52007 333// 05353=
58241 32974 00000 10109 20089 40251 52018 333 00251 30035=
58345 31940 02701 10110 20081 40255 52016 71000 333 00351
70002=
58259 32961 03403 10120 20055 40246 52017 333 00452 79999=
58343 31958 03202 10099 20074 40248 52020 71000 333 00453
30043 70004=
58358 32964 03405 10125 20059 40245 52021 333 00451=
58040 31958 02701 10088 20047 30235 40239 52014 71000 333
05100 30028=
58265 32580 22906 10122 20086 30221 40233 52020 82500 333
00454 79999=
54725 32962 01803 10060 20003 40224 52010 333// 05400 30010=
54843 32962 01802 10048 20026 30201 40229 52010 333// 05351
31005=
56386 31920 30000 10123 20117 40215 52005 71000 83040 333
05403=
57932 31115 80401 10076 20070 40260 52010 72840 886// 333//
00052=
57494 32968 00000 10100 20068 30215 40245 52009 333 05200
30026=
54774 32970 02705 10109 20000 40223 52012 333// 05200 30042=
58251 32964 02701 10104 20070 30239 40245 52018 333 00352
30044=
58144 32960 00000 10089 20076 30223 40246 52015 333 00000
30026=
58150 31956 03203 10100 20061 30235 40243 52014 71000 333
00252=
58238 31915 00000 10093 20087 30239 40248 52014 72840 333
00252 30049=
57774 32961 00000 10047 20037 40257 52009 333// 05153 30001=
57687 32962 01101 10069 20048 30167 40249 52010 333// 05153
30016=
57853 32965 00000 10061 20047 40256 52001 333// 05252 30020=
57845 31/02 90901 10042 20042 40252 52005 74340 333// 05152
30040=
57504 31925 40000 10121 20098 40208 52004 71000 84040 333
05501=
54027 32980 03204 10069 21102 39584 40173 52022 333// 05511
31046=
54134 32970 02503 10039 21082 40171 52020 333// 05404 31050=
54026 32980 02902 10066 21062 39832 40156 52026 333// 05506=
54115 32980 02505 10049 21142 40183 52017 333// 05206 31013=
50727 11575 72903 11028 21074 38928 40135 52024 69911 77070
86502 333// 05301 31048 70001 92500=
50834 32580 12506 10028 21083 40109 52030 81100 333// 05709
31029=
54213 32980 00000 10034 21101 40188 52016 333// 05304 31046=
54226 32975 03201 10037 21079 40198 52020 333// 05402=
54236 31958 02002 10023 21002 30076 40181 52015 71000 333
05503 31039=
54259 32962 00000 11021 21052 40215 52005 333 05501=
54324 32970 01802 10055 21048 40199 52019 333 05405 31034=
54365 31557 60000 11021 21037 40250 52011 71000 86600 333
05300 31034=
54563 32965 00000 10053 20010 40209 52016 333 05302 31038=
54237 31957 02702 10027 21015 40194 52018 70400 333 05502
31040=
54857 31920 00202 10096 20066 30142 40234 52013 71000 333//
05100 30021=
54646 33962 02207 10111 20019 40223 52006 333 05300=
56444 32780 42902 11010 21029 36870 52012 82102 333// 00151
31024=
56533 32080 40000 10072 20064 38485 52016 84600 333// 00151=
56543 32980 10000 11035 21060 36913 52013 80002 333// 00054=
56548 32680 10000 10029 20018 37755 52009 81100 333// 00052
30007=
56586 31901 00000 10032 20028 38095 54000 74600 333// 05401
31008=
56651 32580 20000 10032 20026 37684 52007 82400 333// 05153
30006=
56664 32970 00000 10109 20102 40224 52010 333// 05152=
56684 32580 10402 10026 20019 37952 52005 81100 333// 05201
30009=
56741 32980 10000 10105 20073 38248 52007 81040 333// 00051
30044=
56748 32980 00000 10081 20071 38405 52011 333// 00051=
56751 32675 12201 10067 20059 38073 52010 81100 333// 05151
30031=
56768 32670 23201 10053 20038 38293 52011 82400 333// 00052=
56778 32960 00000 10054 20035 38171 52008 333// 05151 30015=
56786 31930 00000 10026 20019 38173 52004 71000 333// 05100
30012=
56838 32462 20000 10136 20124 40195 52013 82600 333// 00151=
56856 31/08 90000 10090 20076 40245 57001 74540 333// 00052=
56875 32975 10000 10046 20028 38428 52004 80002 333// 05151
30036=
56886 31902 00000 11002 21002 38335 52008 74640 333// 05154
31007=
56951 32980 00000 10069 20050 38564 52012 333// 00152 30034=
56954 31/03 90000 10089 20087 40229 52011 74540 333// 00152=
56959 32562 70000 10123 20119 40208 52014 876// 333// 00152=
56966 31959 00000 10110 20106 40232 52020 71000 333// 00052=
56969 31458 80701 10121 20114 40218 52009 71040 886// 333//
00253=
56977 31/08 93201 10080 20076 40230 52008 74740 333// 00051=
56985 32970 00000 10067 20052 38767 40244 52008 333// 05151
30025=
56986 32980 01802 10085 20031 40232 52005 333// 05101 30036=
56994 32465 13201 10061 20044 40246 52006 81600 333// 00052=
59007 31/01 90000 10053 20053 40257 52005 74540 333// 00051
30049=
56946 31/01 90000 10094 20094 40222 52013 74740 333// 00152=
59456 32978 00402 10146 20012 40206 52010 333 00352=
59117 32962 02001 10115 20074 30112 40220 52015 333 00657=
59493 32970 00408 10159 20006 40195 52017 333 00552=
59663 32975 03602 10147 20046 30170 40199 52011 333 00453=
59754 32970 13603 10152 20076 40190 52013 80002 333 00351=
59278 32975 00202 10146 20045 40216 52013 333 00453=
57996 32970 00901 10096 20054 40241 52014 333 00457 30050=
54454 32961 00000 10076 21014 40194 52011 333 05505 31016=
54736 31940 01802 10071 20013 40230 52007 71000 333// 05300
30028=
54405 32962 00000 10022 21043 40234 52013 333// 05202 31037=
54606 32961 00000 10048 20023 40206 52002 333// 05500 31011=
59954 32975 33202 10179 20098 40178 52009 80002 333// 00352=
58846 32662 70000 10166 20102 40213 52017 875// 333 00900
79999=
58847 32663 72905 10161 20087 30108 40210 52015 8754/ 333
00951 79999=
58911 31958 00000 10076 20061 40239 52012 71000 333 00557
30042=
58725 31958 00000 10085 20074 39980 40245 52020 71000 333
00757 30036=
58730 32965 00201 10100 20077 40238 52017 333 00656=
58731 31957 22701 10100 20080 40241 52016 71000 82030 333
00655=
53513 32970 00901 10001 21043 38980 40196 54000 333// 05352=
57091 32964 02002 10055 20033 40227 52013 333// 05501 30002=
57193 32961 01801 10066 20035 40227 52008 333// 05501 30017=
57290 32960 00000 10088 20052 40226 52005 333// 05502 30029=
58208 32975 01801 10067 20041 40244 52008 333// 05252 30032=
56571 32775 10000 10095 20078 38453 52008 81100 333 05251=
57206 31957 10000 10071 20058 40235 52008 71000 81040 333
05400 30029=
56385 32980 02507 10009 20002 37057 52004 333 05202=
57411 31920 70201 10107 20093 39849 40220 52005 71000 87040
333 05402=
57306 31957 10000 10084 20080 40231 52009 71000 81040 333
05400=
56459 32880 10000 10061 20032 37702 52011 81100 333 05151
30024=
56565 32580 12002 10060 20033 37542 52008 81400 333 05101
30024=
56196 31940 12501 10084 20078 40226 52008 71000 80002 333
05401=
56294 31958 10702 10099 20072 39626 40227 52003 71000 81040
333 05403=
56671 32780 20000 10063 20059 38270 52010 81440 333 05201
30044=
56485 32980 00701 10067 20054 40231 52001 333 05401=
56475 11480 70000 10072 20066 38386 52006 69911 70080 874//
333 05351 70177=
54342 32960 01601 10061 21005 30131 40195 52018 333 05406
31040=
54493 32974 00000 11001 21030 40231 52013 333 05202=
56763 32980 01401 10088 20082 40221 57001 333// 05152=
50632 32580 53202 11054 21106 39176 40070 52014 81102 333//
06003=
50434 32680 61802 11059 21090 39185 40079 52008 86500 333//
05906=
50514 32980 22706 11052 21082 40110 52028 81032 333// 05205=
50425 32965 70000 11041 21080 40071 52022 82032 333// 05904=
50548 32578 73401 11028 21066 40066 52001 86932 333// 06104=
50603 32680 53207 11020 21061 39456 40137 52028 84102 333//
00203=
57259 31402 80000 10037 20035 40251 52009 74640 886// 333
05402 30021=
59758 32975 03402 10205 20104 30160 40181 52010 333// 00301=
58608 31940 00000 10107 20073 40251 52016 71000 333// 00253
30043=
57993 32963 00000 10101 20062 30092 40243 52014 333// 00354
30022=
57799 32962 00000 10087 20061 30160 40246 52011 333// 00254
30027=
59102 32964 00000 10086 20036 40230 52012 333// 00557 30023=
58634 31917 00000 10101 20091 40241 52015 71000 333// 00554=
58813 31957 00000 10066 20050 40241 52016 71000 333// 00558
30048=
57598 31/07 90000 10039 20039 40270 52016 74540 333// 00154
30010=
58715 31330 10000 10091 20078 40245 52014 71000 81600 333//
00454=
57662 32962 01401 10097 20058 30196 40238 52008 333// 05451=
56080 32980 00000 11068 21090 37180 52003 333 05501=
56096 32980 00000 10067 20038 38973 40211 52006 333 05601
30011=
52418 32980 72503 10039 21059 38849 40160 52015 82042 333
05705 31029=
53821 32975 00000 11014 21017 40229 57003 333 05601 31050=
52447 32980 72001 11011 21057 40160 52003 80002 333 05900=
52895 32962 00000 11003 21022 40205 57001 333 05802 31045=
56093 32980 00000 11037 21054 37726 52003 333 05600=
52424 32980 71401 10014 21015 40162 52004 82042 333 05804
31041=
52797 32980 21805 10058 21058 38340 57010 80002 333 05904
31009=
53519 32980 02502 11016 21053 40200 57004 333 05702=
53614 32965 03402 11004 21029 38898 40190 57004 333 05702=
53615 32970 00000 10003 21034 40190 57003 333 05603=
53705 32980 01605 10096 21042 40147 57002 333 05909 31005=
53723 32968 01403 10033 21034 38654 40193 57003 333 05602
31027=
53810 32980 01402 10025 21032 40183 54000 333 05803 31031=
53817 32980 22201 11012 21040 38239 57004 80002 333 05700
31050=
53903 32980 03201 11021 21038 38090 57002 333 05602=
57745 31/03 90000 10061 20061 39925 40258 52009 74540 333//
05253 30040=
57378 32966 01603 10101 20047 40242 52007 333 05401 30046=
53543 32980 01804 10006 21039 38549 40211 52001 333 05203
31038=
59462 32967 02501 10110 20077 40218 52015 333 00354=
54511 31957 00000 10043 21005 30169 40209 52009 71000 333
05400 31013=
57545 31/01 90000 10079 20077 40253 52009 74740 333 05251=
59981 32580 60205 10251 20199 30133 40139 52012 86102 333//
00201 79999=
59985 32580 60406 10246 20187 30134 40139 52011 84102 333//
00200=
54618 32961 01803 10061 20010 30191 40209 52008 333// 05501
30011=
53698 31940 00000 10049 20042 40215 52013 71000 333// 05500
31005=
54436 32980 00000 10012 21023 40218 52005 333// 05302 31030=
54311 32965 00000 11029 21073 40244 52016 333// 05202=
52765 32680 20000 11082 21115 37196 52005 81502 333 05602=
53882 31956 00000 10006 21013 40257 52005 71000 333// 05403
31038=
53487 31958 03402 11021 21072 40244 52008 70400 333// 05203=
53868 31940 00000 10030 20007 40238 52001 71000 333// 05501
31007=
53863 32963 00000 11006 21017 40249 52002 333// 05401 31020=
53853 32975 00000 10016 21005 40240 52001 333// 05404 31040=
53975 31956 00000 10011 21011 40252 52009 71000 333// 05402
31032=
58562 32965 03204 10131 20094 40235 52024 333 00451 70154=
58647 31656 80000 10114 20106 40237 52018 71000 885// 333
00653 70001=
58464 32962 03604 10117 20087 40243 52021 333 00452 70099=
57583 11458 83602 10195 20190 40141 52019 60071 76060 8772/
333 05200 70065=
56462 32480 62903 10010 20003 37204 52012 84402 333 05102
30018 70105=
56144 32980 00000 11025 21060 36944 52010 333 00051 31038=
54346 32967 00902 10018 21036 40206 52011 333 05503 31016=
53068 32980 01802 11043 21161 39063 40217 54000 333// 00354=
53083 32980 03202 11059 21102 40221 52012 333// 00300=
53352 32980 00000 11017 21081 40221 57002 333// 00051=
53276 32980 02203 10005 21073 38864 40210 57002 333// 00100
31043=
53231 32980 21608 10025 21109 38461 57009 80002 333// 05502
31031=
53362 32980 01804 10024 21075 40217 57002 333// 00003=
53529 32970 00000 11015 21048 38621 40212 57002 333// 05501=
53149 32980 02703 11007 21086 38773 40202 57002 333// 00100=
53336 32970 00000 11023 21070 38704 40202 57004 333// 05202=
54916 32960 00901 10041 20031 40246 52014 333// 05351 31008=
54824 32960 02001 10067 20018 40234 52009 333// 05401 31003=
54823 32960 01603 10110 20009 30026 40233 52012 333 05405
30026=
54753 32970 02203 10086 20003 30221 40227 52011 333// 05251
30020=
54852 31920 00000 10039 20024 40235 52017 71000 333// 05253
31013=
54863 32980 02902 10073 20019 40237 52012 333// 05152 30005=
54936 31930 00000 10035 20033 40246 52014 71040 333// 05254
30006=
54826 32965 03403 10074 21124 38499 52013 333// 05107=
54751 32962 01807 10110 20077 40225 52010 333// 05200=
52657 32980 00701 11079 21137 37275 52004 333 05603=
56043 32980 00000 11103 21111 36503 52002 333 05303=
56033 32980 10401 11126 21146 36068 52001 80002 333 05202
70002 92500=
56067 32980 01602 11086 21104 36581 52007 333 05405=
56021 32980 03601 11136 21156 36129 54000 333 05256 70004=
56125 32980 02701 11073 21092 36586 52009 333 00056=
52707 32980 62203 11054 21185 37270 57008 80002 333 05604=
54871 32980 03201 10118 20019 40228 52016 333// 05101 30035=
58336 31920 00000 10094 20077 40255 52017 710// 333// 00251
10168 20078 30048=
54041 32970 02204 10046 21090 40144 52020 333// 05606=
50949 32965 02006 10040 21051 39969 40139 52007 333// 05703
31031=
54157 32970 02005 10079 21006 40181 52017 333// 05504 31021=
57922 32975 00000 10052 20031 40258 52009 333// 00054 31015=
51431 32780 73402 10052 20007 39495 40292 52009 875// 333//
00705 30020=
57355 31420 81102 10083 20079 40247 52009 71000 886// 333
05200=
56152 32980 00000 11103 21114 36373 52003 333 05151 79999=
56357 32580 70000 11057 21076 36519 52011 82402 333 00051=
56251 32980 00000 11040 21066 37029 52013 333 05101=
56374 32680 10000 11002 21036 37480 52003 81100 333 05303
31035=
55591 32980 00901 10003 21094 36577 52011 333 00202=
55585 32980 02202 11018 21081 36443 52007 333 00101=
55493 32980 00000 11106 21129 36087 52005 333 00252=
56146 32980 00000 11052 21084 36806 52006 333 05100=
56247 32980 00000 10011 21018 37506 52021 333 00151 31046=
56167 32980 00000 11039 21056 37173 52015 333 05203=
56257 32980 00000 11070 21095 36343 52006 333 00000=
57313 32962 20000 10079 20075 40235 52006 82040 333 05300=
56193 32974 00000 10054 20047 40251 52008 333 05400=
56038 32680 12501 11131 21146 36148 52002 81400 333 05156
79999=
57803 31957 10000 10039 20034 40257 52004 71000 81040 333//
05300 30008=
57916 31/01 90000 10093 20091 40251 52014 74540 333// 00052=
57713 31/07 93401 10058 20056 40252 52011 74700 333// 05252
30034=
53898 32961 00000 10057 20030 40223 52011 333// 05500 31004=
53399 31957 02002 11009 21068 40241 52008 70400 333// 05151=
54518 31957 00000 10051 20021 40219 52010 71000 333// 05402
31007=
100047 100048 097046 093044 094041 087041=
78583 32575 21004 10265 20221 40134 82800 333
01200 10302 20207 59012 79999 81822=
91334 12474 60611 10296 20248 30102 40105 51002 69904 83101 333
20256 561/3 59003 555 90200=
40582 32960 03311 10202 20084 40157 52003 333// 00019=
91348 12474 71105 10302 20253 30058 40110 50000 69934 87200 333
20233 562// 59005 70003 555 90200=
350072 348076 347070 344071 344074 349067=
324087 325091 324084 324091 323092 320088=
344074 349078 342069 349072 345069 348075=
57385 32965 01401 10075 20050 40246 52014 333 05352 30017=
57037 32962 03601 10035 21001 40227 52002 333 05502 31011=
57134 32980 00000 10037 20015 40221 52001 333 05402 30005=
53929 32965 01402 11011 21014 40248 57001 333 05602 31048=
57046 32980 02009 10092 21249 37981 54000 333 05305=
54102 32980 02502 11028 21150 39039 40211 52012 333// 00153=
50915 32980 22504 11002 21058 39190 40187 52025 82030 333//
00201 31044=
59321 32780 80404 10191 20100 40192 52017 885// 333 00852
79999=
54527 32965 01801 10056 20021 40216 52011 333 05402 31020=
57279 32970 01402 10087 20039 40243 52003 333 05402 30039=
58519 31957 00203 10103 20071 40244 52013 71000 333// 00352=
58506 32980 00203 10043 21039 40266 52010 333// 00101 31011=
57432 31915 70000 10120 20114 40228 52001 71000 8703/ 333
05351=
57426 31920 00000 10083 20077 40230 52003 71000 333 05300
30046=
57348 32975 03602 10093 20072 40236 57001 333 05301=
57522 31910 80000 10105 20093 40231 52006 71000 80007 333
05352=
57633 31320 80000 10069 20065 39466 40255 52008 71000 886//
333 05251 30039=
58362 32980 03405 10138 20077 30230 40240 52019 333// 00452
70055=
57516 31901 02901 10109 20107 39905 40216 52004 74600 333
05400=
58549 31958 60902 10132 20095 40239 52019 71000 86040 333
00551 79999=
57265 31957 00000 10062 20055 30117 40229 52002 71000 333
05500 30039=
58556 31557 10000 10125 20093 40245 52025 71000 81100 333
00500 70182=
57083 31950 02301 10062 20050 30086 40223 52011 71000 333//
05600 30004=
54208 32980 02003 10002 21078 38776 40227 52011 333// 00003=
53195 32980 01802 11037 21185 40225 52008 333// 00353=
53192 32980 00000 11054 21168 38900 40240 52017 333// 00200=
54012 32980 02705 11003 21129 39018 40189 52015 333// 00051
31044=
54776 32570 42703 10120 20045 30165 40223 52017 84400 333//
05100=
52267 32980 63602 11020 21083 39052 40163 57006 80002 333//
05852=
53602 32980 01103 10063 21093 38411 57012 333// 05805 31047=
52576 32980 50000 11003 21124 38443 57005 80002 333// 05951
31034=
53502 32980 13602 11012 21100 40184 57001 80002 333// 05752
31047=
52495 32980 50702 10005 21076 38654 40174 57004 80002 333//
05751=
52378 32980 70000 11028 21082 40173 57002 80002 333// 05856=
54808 32966 01602 10051 20021 40223 52007 333 05502 31001=
54715 32965 01802 10054 20016 40220 52009 333// 05403 31002=
58402 32965 00401 10061 20035 40264 52013 333 00055 30029=
58215 31920 00901 10081 20075 40253 52013 72840 333// 05100
30028=
51818 32861 72203 10137 21089 40178 52006 82502 333// 00013
30041=
51931 32970 71801 10078 21059 40203 52003 80002 333// 00310
30004=
51711 32980 02201 10003 21067 38026 52007 333// 05100=
54945 32962 02704 10071 20030 40249 52022 333// 05153 30029=
58203 31950 00000 10065 20046 30194 40241 52008 71000 333
05300 30006=
58102 32964 01802 10076 20014 30182 40234 52011 333 05301
30010=
58531 31/00 90000 10070 20070 40245 52013 74540 333 00355
30049=
58236 32960 00000 10096 20077 40253 52014 333 00100 30044=
58321 31950 03401 10076 20069 40248 52011 71000 333 00051
30044=
58338 31930 00000 10097 20089 40258 52020 72840 333 00251=
58319 32962 03403 10073 20033 40248 52011 333 00153 30031=
58314 32975 03401 10044 20027 30164 40255 52011 333 05153
30005=
58437 31980 00707 10032 21222 38203 52013 70040 333 00304
70002=
58436 31950 00000 10098 20086 40255 52016 71000 333 00352=
58015 32965 01602 10071 20014 40239 52009 333 05301 30031=
58221 31950 01401 10091 20065 30219 40255 52013 71000 333
05102 30031=
58326 32960 00000 10089 20074 40253 52014 333 00152 30035=
52974 32980 10000 11022 21075 37551 54000 80002 333 05600=
51886 32980 70000 11058 21215 37135 52022 80002 333 05402=
52866 32965 50000 11055 21079 37717 57002 81042 333 05600=
56046 32480 81801 11090 21108 36318 52009 8262/ 333 05203
70001 92500=
52602 32980 70000 11066 21197 37277 52006 80002 333 05505=
56065 32980 00000 11098 21114 36661 52002 333 05404=
56034 32980 13401 11158 21171 35956 57004 80002 333 05255
79999=
52955 32980 11602 11056 21139 36997 57004 80002 333 05504=
52908 32980 20901 11124 21207 35795 52002 80002 333 05302
79999=
53391 32980 00000 11020 21085 38521 40234 52002 333// 00002=
57707 32960 00000 10036 20034 38546 52005 333// 05301 30003=
57447 31/01 92702 10071 20071 39710 40259 52007 74340 333
05251=
54534 32965 02701 10057 20005 40214 52009 333// 05302 31004=
51243 32880 42718 10026 21083 39660 40211 52023 84502 333
05201 30010 79999 91130 91527=
51644 32970 03602 10040 21043 38927 40180 52005 333 05301
31021=
51633 32665 20000 11023 21035 40206 52009 81402 333 05300=
57251 31903 70000 10051 20051 40036 52007 74600 80002 333
05502 30015=
59664 32970 00403 10148 20042 40194 52012 333 00452=
57957 32970 03602 10106 20041 30040 40241 52012 333// 00053
30041=
53798 31957 00000 10061 20027 30113 40208 52002 71000 333//
05500 30013=
57077 32970 02502 10040 20002 40242 52003 333// 05503 31015=
52984 32965 70000 11016 21027 38082 57003 80002 333 05802
31032=
56074 32980 10000 11084 21116 36707 52007 80002 333 05302=
52661 32980 10901 10015 21082 38195 57001 80002 333 05903
31049=
52996 31/01 91606 11017 21019 37570 57001 74940 333 05756
31024=
52787 32780 13204 10016 21113 37030 57005 81502 333 05605=
52986 32965 60000 11025 21033 38119 52003 80002 333 05701
31046=
52436 32980 62202 10002 21037 38426 40151 54000 81032 333
05900=
52446 32980 12002 11025 21047 40165 52003 81042 333 05900=
52674 32780 70000 11040 21090 37989 57003 82502 333 05851=
52323 32980 70000 11002 21091 38195 52002 86032 333 05807
31038=
52889 31958 30000 10012 21008 38490 40209 54000 70400 80002
333 05800 31021=
52533 32980 12002 11003 21049 38480 40160 54000 81042 333
05951=
52681 32980 20000 11030 21069 38600 40171 57002 80002 333
05955=
57906 31/04 90000 10082 20080 40247 52009 74540 333// 05151=
56188 32975 00000 10094 20061 40222 52007 333 05452=
59265 31950 00000 10102 20054 30085 40226 52013 71000 333//
00354=
58737 31/00 90000 10088 20088 40237 52015 74540 333 00756=
57458 32980 00000 10041 20039 40267 52009 333 05200 30004=
58407 31925 00000 10086 20066 40245 52012 71000 333 05152
30027=
54449 32965 02703 10093 21029 40204 52004 333// 05507 30015=
54429 32975 00000 10033 21015 40206 52004 333// 05401 31015=
53764 32970 00203 11006 21017 40254 52001 333// 05402 31034=
56666 32970 00000 10113 20106 40209 52009 333 05200=
57328 32965 00202 10093 20079 39817 40229 52006 333 05401=
57237 31958 00000 10051 20044 40255 52003 71000 333 05302
30015=
57825 31958 00000 10046 20034 40264 52008 71000 333// 05153
30016=
56137 32980 00000 11042 21065 36886 52013 333// 00256=
56116 32980 00000 11056 21081 36407 52004 333// 00155=
56223 32980 00000 11044 21086 36594 52005 333// 00151=
56331 32980 00000 11062 21079 36482 52010 333// 00251=
54705 31958 01602 10054 20027 40219 52013 71000 333// 05502
31010=
54423 32970 00000 11024 21063 39764 40241 52015 333// 05301=
51839 32980 72203 10107 21127 40185 52011 80002 333 00213
30026=
51701 32580 13409 11045 21106 36678 52005 81500 333 00203
91120 91532=
51463 11765 83605 10009 20006 39146 40261 52021 69901 77000
8252/ 333 00300 31010 79999=
51656 32970 23201 10014 21016 39093 40185 52015 80002 333
05355 31036=
51765 32980 72502 10051 21081 39190 40182 52018 82032 333
05309 31027=
52203 32980 70000 10017 21025 39272 40151 52007 82032 333
05803 31028=
51379 11765 82904 10015 21001 40265 52041 69931 76800 885//
333 00304 31019 70003=
51467 32980 01802 10023 21055 38264 52008 333 05302 31025=
52118 32980 70000 11020 21083 38232 52005 80002 333 05603=
51330 32980 32707 10030 21187 40246 52014 82032 333 00005
31025=
51365 11970 83405 10035 20007 40268 52034 60031 76060 8802/
333 00405 31002 70026=
51642 32970 00000 10028 21033 40175 52013 333 05301 31029=
52101 32980 72206 10010 21063 38349 52034 80002 333 05407
31030=
51855 32875 72001 10095 21069 40193 52006 84502 333 00010
31020=
51356 11970 70403 10028 20010 40275 52035 69941 76000 83032
333 00404 31021 70004=
52313 32980 70405 11028 21105 38393 52007 81032 333 05702=
51334 32670 73405 10001 21058 40286 52028 82502 333 00401
31023 91118 91534=
51730 32970 00000 11022 21040 40195 52005 333 05202=
51477 32662 73210 10012 21018 40214 52012 82502 333 05204=
56151 32980 00000 11091 21109 36691 52004 333 05301=
58569 32570 73206 10136 20093 40221 52028 8113/ 333 00601
70187=
52943 32980 13401 11083 21115 36832 52003 80002 333 05404=
56004 32980 11101 11154 21184 35862 57001 80002 333 05253=
52754 32980 13604 11070 21160 36812 52002 80002 333 05404=
52818 32980 20000 11048 21133 37245 52004 80002 333 05500=
52825 32980 01402 11030 21201 37262 52002 333 05502=
56029 32980 00000 11072 21091 36554 52004 333 00052=
56739 32980 03201 10089 20078 38394 52008 333// 00100 30043=
52856 32980 10000 11059 21136 37232 54000 80002 333 05501=
52836 32980 11403 11002 21162 36912 57001 80002 333 05504=
52713 32980 73601 11083 21205 36926 57005 80002 333 05502=
52868 32980 11401 11050 21095 37789 52003 80002 333 05604=
85201 32584 50103 10104 20010 36276 52009 81432
333 10188 56000 59001 81620 85070=
85223 32884 71805 10218 20097 37447 47082 52022 82036
333 10320 56028 58005 82359 87070=
64700 32960 13604 10218 20133 39744 40074 80002 92355
333 0//00 59014 81075=
64701
333
64706
333
64708 NIL=
64709
333
64710 NIL=
64750
333
64753
333
64754
333
64756
333
64757 NIL=
64758
333
94132 31980 /0000 10295 20229 70200=
96315 35465 72204 10260 20241 40101 81963
333 20238 55085 81916 83364 85080=
81405 32565 30906 10260 20235 40099 81263
333 10327 59003 81828=
78858 11480 70000 10247 20238 30052 40108 69981 70381
82120 333 10306 20236 59018 70021 82818 87460=
89054 32970 80309 11018 21042 40087 52007 8802/
333 10008 21044 71019 88457=
89056 32360 80315 11018 21037 40093 52005 8271/
333 11015 21033 77779 82708 88456=
89057 11458 80410 11015 21020 40094 54002 69904 77722 8372/
333 11008 21030 71109 83710 88520=
89058 32566 73610 11014 21044 40095 52003 8152/=
89059 32860 80713 11046 21082 40125 52005 8801/
333 11030 21050 71009 88458=
89251 32463 80604 11003 21070 40070 54000 8252/
333 10032=
48698 11458 70000 10263 20257 30076 40094 60064 71022 81942 333
20257 58011 70064 81916 86080=
78897 31570 61002 10268 20248 40118 53005 70392 83202
333 022/6 10321 2//// 59011 70000 83820 86076=
60101 32960 00903 10087 20065 40194 58001 92351=
60115 32965 02402 10097 20093 40191 58008=
60135 32960 00000 10104 20092 40190 58003=
60150 32960 02004 10100 20076 39532 40190 50001=
60155 32956 21202 10150 20123 40186 58002 82030
333 82360=
60156 32460 20604 10134 20102 40193 56002 82500
333 82616=
60230 32960 00802 10150 20/// 40170 54000=
60107 32960 00000 10126 20109 40185 58001
333 95300=
60127 32960 02702 10122 20089 39597 40195 58002=
60141 32960 02404 10088 20073 39513 40196 57004
333 95400 95800=
60185 32960 00410 10150 20107 40175 50000=
60195 32965 0//// 10085 20044 38518 48533 57003
333 95500=
60210 32965 00000 10150 20035 38997 48523 56002=
60220 32960 08/// 10226 20094 40179 51007=
60265 32970 03402 10125 21013 38910 48535 51008=
60318 32965 02610 10134 20062 40190 50001=
91772 31498 71214 10282 20237 40115 70222 878// 333 20244 563//=
91776 31498 71409 10286 20236 40130 70222 8217/ 333 20249 5639/=
83818 87278=
91784 31498 70910 10255 20190 40136 70200 822/6 333 20230 562/9
82818 87278=
91785 31598 61910 10268 2018/ 70122 862// 333 20230 562//=
91786
91792 31599 70415 10254 20187 40153 57012 70322 87103 333 20195
568/9 82820 87078=
61902 11358 71212 10219 20202 40139 69901 72582 878// 333 59010
83708 85814=
88889 32482 72012 10067 20043 40048 53015 875// 333 10122 82710
87615=
78948 11580 40910 10284 20246 30108 40116 69921 70181 84200
333   02200 10312 20268 59004 70012 84821=
89009 41/00 92928 11390 36763 51013 73932
333 11386 21410 89/00=
76050 31060 01803 10210 20130 30146 40156 57027 6//// 705//
80000 92350 333   10210 20100 30///=
76055 32980 00202 10230 20107 30136 40155 57016 92345 333
10250 20090 30/// 58001 70000=
76113 32980 03403 10206 20102 39667 40150 5//// 92345 333
10220 20060 30/// 50400 58007 70000=
76118 32980 00000 10186 21007 38874 40134 57006 92346 333
10206 20062 30/// 58004 70000=
76256 32980 03603 10251 20052 30109 40123 57007 92345 333
10285 20134 30/// 50720 59013 70000=
76577 32570 32302 10240 20108 38024 40086 55010 81280 92340
333   10267 20117 30/// 50580 56140 59010 70000 81823 82359
=
76654 31556 42303 10281 20245 30101 40105 55001 70544 81501
92350 333   005/9 10306 20245 30/// 50280 59007 70042 81620
83070=
76683 31665 20000 10204 20148 37802 40088 51009 70544 81301
92345 333   10273 20061 30/// 50230 56405 59007 81947 81081
=
76698 32958 00401 10255 20218 30098 40113 53008 92350 333
10306 20177 30/// 50390 59012 70000=
76737 32575 80000 10190 20176 38756 40113 51006 886// 92349
333   10229 20126 30/// 50190 562// 59018 70000 88717 91301
91513=
76743 31956 20701 10284 20229 30164 40172 52013 70200 82050
92345 333   0//0/ 10316 20240 30/// 50460 59022 70000 82356
=
76750 32560 10902 10275 20215 30108 40118 54000 81100 92355
333   00100 10322 20200 30/// 50410 59010 70000 81820=
76775 31565 22101 10240 20096 38486 40133 52001 70544 82100
92340 333   10310 20110 30/// 54680 56900 59015 70000 82824
=
76805 32570 52703 10284 20243 30094 40094 52001 823/5 92350
333   011/9 10322 20243 30/// 50460 57912 59008 70000 82921
83268=
76843 32565 23207 10268 20212 39510 40147 52005 81102 92350
333   0/209 10336 20195 30/// 50400 59024 70000 81830=
76848 32468 50903 10194 20154 38369 40121 53004 856// 92334
333   10260 20134 30/// 50240 56299 59019 70000 85613=
13585 42697 80000 10139 20118 39388 40160 54000 885//=
68994 12298 83204 10045 20038 30248 40276 57030 69921 885//
333 10075 20038 91006 555 20002 91027=
89532 41/40 12701 11222 21244 39869 49897 56002
71000 81600 333 11106 21224=
76243 32472 73602 10232 20144 39899 40186 52008 87410 92335
333   10272 20217 30/// 50610 56350 58034 70000 82615 85458
=
76253 32982 03104 10205 20109 30054 40144 56009 92359 333
10235 20170 30/// 59005 70000 92005=
76499 31858 61402 10268 20191 30089 40119 51009 70222 86070
92040 333   0//9/ 10306 20175 30/// 50580 59016 70000 86357
=
76548 32670 61207 10270 20229 30083 40113 53009 81254 92354
333   01324 10290 20246 30/// 50340 59025 70000 81811 82356
83080=
76581 31565 50905 10266 20182 39000 40051 52001 70544 81484
92350 333   0/666 10305 20163 30/// 50320 59027 81632=
76585 31670 70000 10270 20239 39949 40098 53001 70544 873//
92336 333   0/3// 10300 20209 30/// 52960 59019 70000 87637
=
76640 32256 51402 10270 20251 30089 40119 52005 83401 92345
333   0/9/9 10320 20218 30/// 50271 59026 70000 83606=
76662 11670 70000 10208 20151 38446 40093 57011 69901 75055
87400 92340 333   10258 20114 31/// 50390 56200 58004 79999
87633=
76741 31560 60403 10274 20247 30080 40112 56005 70544 83270
92340 333   0/190 10306 20250 30/// 50770 59042 70000 83820
83360=
76855 32980 32103 10300 20239 30047 40071 56006 80008 92330
333   0/009 10335 20194 30/// 50540 59021 70000 92000=
68906 32598 22806 10119 20089 30171 40237 52001 81402
333 10168 20117 91014 555 91023=
91570 36/// /2210 10285 20215 30107 40110 58001
333 20242 58016=
91574 06/// /2706 10279 20207 30110 40116 58001 60034
333 20227 58019 69947=
91598 16/// /0216 10153 30057 40089 58005 69924
333 20129 58003=
60191 32965 03402 10114 20095 40178 56001=
68032 41660 71610 10193 20173 48475 51011 71796 84980=
68240 42960 01204 10160 20145 48464 56008=
78970 11462 10267 20246 30080 40105 69901 71582 84902
333 02209 10329 20241 59007 81915 83818 85080 90914=
78388 32570 51005 10277 20228 40127 85802 333 01200
10305 20233 59003 85822=
78862 11480 70000 10247 20229 30088 40111 60041 70296 85873
333 10315 20238 59016 81818 83638 87076=
91925 32480 31017 10276 20194 30064 40122 57021 83200
333 20216 56200 58003 83818
555 11233 91131=
91938 01460 83304 10260 20240 30136 40139 58012 60034 79598 879//
333 20246 56199 58024 60037 81811 82915 86650
555 10217=
91943 32575 20412 10299 20221 30139 40142 58020 82840
333 20248 56190 58018 81828
555 10417=
91948 12580 73206 10262 20231 30058 40159 58005 69964 83274
333 20216 56799 58006 83820 85076
555 10133=
91954 01475 61216 10241 20198 30154 40157 58013 60064 70182 86200
333 20199 56300 58023 69947 86818
555 11025=
91958 32575 60210 10198 20133 30190 40192 58002 85801
333 20178 56309 58028 83823 83643
555 10425=
13586 11795 80000 10118 20113 39879 40166 52006 69901 76062 8452/ 333
84650 88460=
17601 32575 13202 10156 20115 40172 57004 81800 333 81825=
91376 11472 81205 10283 20233 30098 40102 58008 69954 72586 8587/
333 20256 5622/ 59005 70005 555 90200=
11036 32965 01904 10036 20031 39893 40126 53001=
11010 35000 /2802 10021 20021 39746 40129 52002=
11120 36159 /2601 10021 20019 39444 40157 52003=
11150 35/// /1605 10054 20025 39583 40122 57001=
11240 36002 /9901 10057 20055 39725 40144 52003=
16597 32462 12805 10167 20162 30092 40180 55001 81500
333 81612=
11816 31/01 93601 10029 20022 39969 40135 52006 74541
333 55008 89/01 =
11826 31902 03601 10023 20022 39936 40139 52009 74400
333 55002 =
11903 31/02 90801 10036 20032 39753 40137 52014 74511
333 55000 89/02 =
11934 36/// /2705 10054 20031 39306 42745 52020
333 55000 =
11968 11363 61903 10096 20093 39835 40112 52017 60021 70266 86600
333 55020 86709 =
11841 31557 80000 10069 20062 39751 40125 53006 71011 885//
333 55000 84621 88625 =
11858 16/// /1402 10038 20038 39985 40138 52006 69911
333 55002 =
11916 46/// /3206 11019 21046 37909 48416 52004 6///1
333 55000 91011 =
11927 35/59 /2203 10055 20051 39868 40130 52018
333 55000 =
11930 46/// /2203 11050 21058 37314 47988 52004 6///1
333 55000 =
11993 16/// /1801 10107 20078 39900 40113 52019 60051
333 55046 =
11855 17/01 /0000 10024 20024 39972 40141 52008 69911 73211
333 55004 =
11867 37/42 /3601 10058 20058 39825 40142 52008 71033
333 55000 =
11880 36/// /0000 10056 20056 39964 40136 52013
333 55000 =
11918 16/// /2203 10032 20023 39304 42746 52007 69951 =
11933 16/// /0000 10010 20010 38577 48429 52008 69921
333 55000 =
11938 16/// /2304 10048 20046 39066 42740 52016 69921 =
11976 16/// /3501 10089 20075 39856 40116 52021 60041
333 55025 =
11978 16/// /3604 10116 20107 39984 40111 52014 60021
333 55029 =
12772 11958 81702 10079 20074 39837 40120 53016 69901 70361 8801/=
12822 32962 02103 10074 20059 39988 40132 52004=
12882 11956 52304 10093 20088 39996 40128 52021 69961 70162 85070=
12925 31940 00000 10020 20019 39970 40146 53002 71011=
12942 31908 13002 10053 20050 39903 40152 53001 74441 81040=
12982 11901 02502 10052 20050 30045 40148 52012 69901 74664=
10015 31470 32212 10091 20066 39942 49952 53001 71311 83900
333 55300 83710 81916 91116 91212=
10020 11484 72012 10091 20073 39902 49937 53002 69921 72981 879//
333 55/// 20181 55300 83818 82918 85640 91118 91214=
10035 11360 82005 10056 20047 39918 49976 52006 69931 70362 876//
333 55/// 20362 55300 87707=
10055 11570 82208 10079 20060 39969 49979 53009 69901 00362 875//
333 55300 87630 91114=
10147 11470 72206 10068 20048 39974 49992 52010 60031 70181 875//
333 55300 87613 91113=
10162 16/60 /2307 10076 20055 39915 49997 51016 69901
333 55300=
10184 11565 82005 10097 20050 39988 49995 55004 69901 76061 8557/
333 55300 85529 88461=
10224 32465 12004 10057 20046 39992 49998 53009 81100
333 55/// 20488 55300 81812=
10270 11570 42203 10083 20059 39963 40018 53004 69911 72581 84800
222// 06108
333 55300 81826 83648=
10338 11980 02105 10067 20040 39938 40010 51014 60021 70181
333 55300 91115=
10361 11980 22103 10068 20040 39931 40034 51018 60021 70181 82030
333 55300 82361=
10384 32984 22205 10093 20046 39970 40029 55001 82030
333 55300 82360 91114=
10393 32984 31904 10083 20036 39914 40039 56006 82031
333 55/// 20661 55300 20000 30000 82360=
10400 32982 11805 10055 20033 39982 40032 52012 81030
333 55300 81360=
10438 16/60 /1904 10045 20037 39769 40051 53014 60101
333 55300 91113=
10469 11680 72005 10088 20046 39882 40045 53009 69901 70361 875//
333 55300 87643 91115=
10488 32782 31806 10086 20032 39781 40059 56002 83500
333 55/// 20614 55300 83656=
10548 11580 82304 10053 20044 39528 40069 53019 60031 76382 885//
333 55/// 20300 55300 20006 88620 91113=
10637 11465 82004 10072 20059 39931 40068 50009 60041 875//
333 55300 81710 83621 87640 91115=
10685 11675 82004 10073 20047 39400 40066 53003 69921 70362 875//
333 553// 87633=
10738 11688 42404 10098 20043 39619 40081 53004 69901 72581 82830
333 55300 82845 83360=
10763 32780 71402 10081 20034 39704 40083 53004 875//
333 55/// 20527 55300 20000 87650=
10788 32975 11002 10025 20025 39666 40103 52001 81030
333 55300 81360=
10852 32980 31803 10046 20015 39531 40101 57001 80001
333 55300 83073=
10946 32982 51501 10017 21002 39283 40122 52002 85031
333 55300 81358 85360=
10091 31680 82110 10092 20054 39938 49989 55005 75862 875//
333 55/// 20636 55300 20000 30000 87633 91116 91212=
10113 31765 32008 10077 20055 39946 49965 53004 71300 83900
333 55/// 20309 55300 81915 83656 91116=
10129 32480 22008 10061 20045 39973 49986 53008 82600
222// 2//01
333 55300 82710=
10131 32364 22006 10062 20046 39960 49975 53004 82600
333 55300 82708=
10170 11480 82305 10090 20052 39972 49987 53011 69901 70282 878//
333 55/// 20579 55300 83818 86640 91113=
10253 16/60 /2303 10056 20047 39995 40017 52017 69971
333 55300=
10280 16/60 /2209 10091 20052 39909 40005 56001 69901
333 55300 91114 91211=
10291 32580 72006 10090 20044 39955 40021 55003 875//
333 55300 87630=
10305 36/// /1905 10065 20050 39969 40001 53009
333 55300=
10315 32975 02104 10064 20045 39953 40017 53012
333 55300=
10348 11982 02204 10062 20045 39921 40027 52017 60021 70181
333 55/// 20671 55300 91115 96481 96487=
10385 32684 42408 10093 20044 39968 40029 55002 82531
333 55300 82635=
10427 11105 72309 10013 20013 39035 48347 53010 60051 74164 876//
333 55300 87702 91116 91211 96469=
10453 11/90 92514 11002 21002 38698 48337 53010 60021 74997
333 55300 91133 91218 90314 91228 96495 96486 96475 96463=
10474 11784 62304 10093 20044 39908 40035 53005 69901 70261 83550
333 55/// 20546 55300 20000 83656 85364 91116=
10490 36/59 /2007 10093 20037 39928 40049 55001
333 55/// 20734 55300 20004=
10499 32972 12011 10085 20032 39779 40064 55003 81040
333 55300 81360 91116 91211=
10501 11989 02105 10058 20037 39784 40031 53007 69901 70261
333 55300=
10513 11984 01704 10041 20031 39921 40043 53011 69941 70281
333 55300=
10532 11480 21302 10054 20051 39822 40058 53008 60041 70198 82101
333 20387 55300 82810 91117 96495=
10544 11/01 92309 10011 20011 38989 48374 51014 60051 76876
333 55300 89/00 91125 91218=
10554 11575 62107 10063 20040 39662 40047 51016 69961 72161 86800
333 55/// 20496 55300 20007 82820 83640 85656 91118 91213=
10577 32782 62208 10088 20031 39560 40056 53002 84530
333 55/// 20594 55300 20000 30003 84656 86358 91116 91211=
10578 11889 52315 10023 20005 38682 48386 56001 69901 70161 83074
333 55/// 20261 55300 20003 30002 82356 84070 91121 91216=
10609 11575 72005 10064 20060 39730 40059 51006 60091 76086 8557/
333 55/// 20313 85630 87460 91114 =
10655 11682 72206 10085 20063 39742 40066 53009 69941 72162 878//
333 55/// 20550 55300 83833 86650 91113=
10688 32880 71703 10073 20030 39558 40078 58003 875//
333 55300 87657=
10708 11480 72204 10079 20061 39689 40071 51010 60011 70382 875//
333 55300 87615 91115=
10729 11575 71804 10089 20074 39952 40072 53013 69901 70261 875//
333 55/// 20473 55300 87630 91113=
10776 32980 11503 10061 20039 39660 40104 58002 81030
333 55300 81359=
10803 16/59 /2105 10124 20047 39737 40090 51003 69901
333 55300 91115=
10836 32789 32308 10058 20025 39220 40081 55001 81530
333 55300 81650 83360 91115=
10929 32984 52204 10100 20041 39569 40094 55002 85070
333 55/// 20870 55300 85359=
10961 32989 12613 11072 21129 37010 47973 58002 81032
333 55300 81340 91122 91216=
10962 32988 22407 10057 21022 38975 48428 52001 81032
333 55300 81362=
41170 32962 03303 10254 20204 30098 40111 333 58002=
91356 11574 61710 10311 20252 30086 40095 50007 60054 70282 84276
333 20244 56399 59009 70051 84823 555 90200=
82915 84856 91112=
91408 12474 82306 10299 20238 30069 40107 58002 60014 83976 333
20239 56325 58005 70013 555 90200=
91203 32469 80702 10297 20256 30110 40115 51012 69904 83977 333
20250 56299 79999 58007 83916 86367 88278 555 90200=
11101 36/// /1402 10082 20022 39584 40105=
11022 36/// /2502 10050 20036 39726 40117=
11028 36/// /2101 10023 20020 39777 40125=
11130 36/// /2102 10030 20023 39539 40134=
11157 32360 89902 10036 20030 39474 40147 52005 885// 333 81708
87615=
11172 32970 00000 11001 21010 54000=
11204 36/// /2401 10038 20036 39358 40150=
11231 16008 /9901 10067 20061 39586 40154 52004 6///1=
11487 32988 19901 10025 20020 39482 40110 57002 81041
333 55030 81360=
11518 32784 41704 10050 20024 39652 40092 56005 81542
333 55032 81650 83366=
11603 32968 01303 10061 20032 39613 40091 55000
333 55025=
11659 32980 01004 10034 20024 39478 40122 52002
333 55016=
11782 32565 32101 10057 20051 39808 40124 52005 83500
333 55000 83621=
17600 32970 00308 10145 20102 30163 40179 57004=
17609 32970 03008 10158 20116 30173 40175 55004=
82825=
52740 16/// /3003 11083 29038 36869 60000
555 1/130 2//01 /////=
71805 43/// /0514 10086 20083 30121 40149 58006=
17038 01603 10114 20106 40193 57005 333 92428=
17240 32975 00000 10030 20008 39062 40201 52003=
17022 32970 01102 10120 20062 40181 56001 333 92428=
17050 31/04 90101 10107 20100 40163 53001 74711 333
89/02=
17060 31959 01002 10131 20108 40172 56002 71000=
17096 32970 00000 10008 21020 38262 48523 54000 333 10192=
17124 32965 00000 10018 20000 39294 40212 52002=
17128 32970 00000 11016 21073 39111 40211 55000=
17170 32670 30706 10038 21011 38361 48527 57006 83100
333 83835 10188=
17195 32970 00000 10008 21036 38997 48519 51001 333 10205=
17200 32970 02406 10044 20028 39215 40194 51002=
17219 32965 00000 10104 20091 40199 55000=
17244 32970 00000 10008 21032 39020 48524 54000 333 10203=
17280 31906 00000 10060 20039 39400 40184 51001 74400=
17350 32960 00107 10105 20076 40178 56001=
17210 32975 00901 10080 20055 39159 40188 58001=
17370 32965 02203 10164 20052 40176 50000 333 92417=
17034 32970 00000 10124 20099 40189 58006 333 92428=
17070 32965 00000 10024 20006 39339 40203 54000=
17084 32970 00000 11002 21017 39300 40207 54000=
17090 32965 00000 10024 20011 38750 48526 54000 333
10193=
17150 31930 00000 10064 20042 40183 51001 71000=
17160 32970 03403 10036 21003 39050 48531 51004 333
10200=
17184 32970 00000 10091 20074 40191 53009=
17190 32970 02501 10042 20020 39020 48528 54000 333
10199=
17234 32970 00902 10114 20088 40186 52004=
17290 32970 00000 10158 20138 40182 54000 333 92408=
17056 32970 43203 10123 20111 40175 57002 84030 333
84360 92418=
17292 32970 00000 10088 20039 39440 40185 54000=
17024 32970 02109 10088 20060 40186 58001 333 92428=
17092 31950 00000 10020 20008 38895 48536 54000 71000
333 10210=
17115 32960 00000 10078 20033 40172 53001=
17116 31958 00000 10080 20066 40192 51002 71000=
17188 32970 03402 10058 20042 39140 40191 54000=
17202 32970 02806 10054 20012 39173 40177 54000=
17248 32975 01602 10036 20005 39007 48528 54000 333
10200=
17300 32970 03303 10130 20102 40180 54000=
17330 32970 03303 10153 20115 40176 58002=
17042 32970 00703 10130 20112 40212 57008 333 92428=
17085 32970 02501 10032 21001 40200 53002=
17205 32680 60000 10076 20001 38360 48528 54000 84250 333 84840
86360 92418 10178=
17270 32970 02902 10116 20067 39529 40158 56002=
17100 32970 02301 10062 20015 39225 40213 54000=
17140 32965 00901 10016 21012 38738 48527 58002 333
10201=
17203 32970 00000 10064 20048 38888 48554 54000 333
10208=
17237 32970 00000 10103 20058 40188 54000=
17250 32975 00502 10023 21002 38832 48526 57001 333
10199=
17255 32970 00000 10096 20079 39515 40174 56003=
48001 31550 10000 10150 20135 40140 74044 81400 333 20146 56900 58006
48004 NIL=
48008 31540 10000 10180 20180 40164 71011 81500 333 20176 56900 58012
48010 32540 10000 10190 20175 40163 81400 333 20150 56900 58008=
48019 32940 00000 10175 20165 40165 71044 333 20179 58002=
48025 32430 33602 10200 20200 40156 87600 333 20190 56800 58002=
48035 31/01 30000 10117 20102 40178 74744 333 20110 58013=
48037 32950 03601 10205 20195 40145 333 20175 58012=
48042 31556 10000 10195 20185 40137 71011 81400 333 20190 56900 58012
48045 32963 03203 10142 20107 333 20136=
48053 32440 00000 10200 20168 40136 333 20197 58009=
48060 31905 90000 10112 20100 40193 74344 333 20090 58016=
48062 32558 20401 10232 20210 40120 70522 81201 333 20226 56090 58025
48071 NIL=
48077 32959 00402 10220 20205 40121 333 20218 58012=
48078 31305 83601 10197 20181 40182 74244 8562/ 333 20187 56899 58002
48080 NIL=
48097 31456 33501 10210 20195 40125 71000 81541 333 20198 56999 58007
48108 32596 80401 10184 20168 40139 82406 333 20162 56409 58012=
48109 32496 60904 10271 20240 40098 83970 333 20249 56190 59015=
48112 32598 80902 10250 20233 40098 82876 333 20244 56299 58010=
33317 42980 01606 10096 20073 39779 40110 57005=
33587 42565 81602 10090 20073 39912 40172 57007 885//
333 88625=
33631 41697 82902 10132 20119 39965 40105 52007 72582
883// 333 85940=
33658 41996 51102 10084 20071 39819 40114 57005 71022 85030=
33663 42597 70902 10118 20088 30043 40137 57006 875// 333
87629=
33791 41213 81003 10085 20078 30046 40198 57008 71022 886// 333 88706=
33910 41/93 90902 10092 20092 30175 40193 57009 75154=
33946 41949 01204 10052 20037 39968 40190 56011 71011=
34519 42960 01204 10078 20058 39941 40220 57005=
34601 41995 00000 10062 20058 40206 57006 71000=
15004 01565 70601 10126 20112 39790 40118 52006 69961 72522 87300 333
69967 555 60006=
15020 31957 01402 10102 20102 39930 40124 53003 71011=
15090 31458 31305 10106 20087 30008 40131 57006 71000 83600=
15108 32660 62718 10053 20053 38065 48475 57009 86070 333 41998 91124
95100=
15120 01560 60401 10121 20094 39639 40123 52007 69931 72122 83570 333
69937=
15150 31320 81807 10092 20092 39912 40142 54000 71011 886//=
15260 32562 80501 10136 20081 39603 40123 52007 8337/=
15280 31/05 82510 10018 20015 37494 47035 54000 74144 885// 333 41998
=
15310 31410 20000 10098 20098 30068 40153 57004 71000 82600=
15346 01662 80000 10124 20093 39868 40151 52005 69921 72162 8657/ 333
69927=
15350 32960 70302 10088 20076 30026 40143 57007 87070=
15360 32962 01607 10133 20129 30151 40162 57013 333 92427=
15410 01560 82301 10125 20108 30055 40148 52004 69941 78082 889// 333
69927=
15420 32960 50701 10098 20082 30019 40128 57003 85050 333 91002 91202
=
15450 32560 70505 10134 20111 39924 40155 52009 82570=
15460 31935 03401 10060 20050 30111 40134 57004 71000=
15470 32960 33601 10125 20099 30014 40138 54000 83040=
15480 31440 81404 10140 20134 30144 40160 57009 71022 886// 333 92426
=
60715 32558 62204 10170 20126 30181 40186 52003 84882
333 55042 83820=
60725 32556 60402 10163 20149 30022 40191 50001 85880
333 55007 20625 30264 83823 83630=
60735 11558 70202 10180 20163 30109 40190 53003 69903 70182 8458/
333 55067 84630 84360=
60760 32660 43004 10188 20128 30072 40174 52006 82502
333 55090 82633 83070=
60765 32558 20000 10170 20153 30166 40172 50001 82500
333 55101 21944 82630=
60769 32950 21504 10188 20180 30164 40169 57001 80002
333 55104 21692 82070=
12205 32470 61907 10092 20049 30011 40019 56006 86500
333 91012 91112=
12465 31950 01802 10043 20042 39864 40098 52006 71011 =
12560 32960 02103 10038 20034 39774 40121 52006 =
12695 16/// /0000 10084 20074 39779 40116 52017 60021=
12250 32997 01602 10054 20043 39983 40072 51001 =
12330 32960 21703 10061 20033 39958 40066 56001 80002=
12375 31103 41803 10051 20050 39965 40096 53006 74611 82630
333 82703=
12424 32999 02103 10075 20039 39937 40089 55000 =
12105 31558 51503 10065 20040 39983 40024 57007 71011 85500=
12270 11201 71801 10046 20046 39900 40082 50002 69901 74664 876//=
12300 32560 12301 10069 20037 39953 40042 57006 81500=
12360 31940 01601 10041 20037 39950 40084 51003 71011 =
12385 11496 82402 10076 20074 39906 40094 52009 60031 71062 8562/
333 85710=
12400 32980 01903 10067 20037 39829 40062 56005 =
12435 31956 01503 10046 20039 39916 40088 53002 71000 =
12495 11497 42403 10075 20069 39814 40104 53009 60071 72161 84500=
12510 11/90 92212 11014 21016 38260 48385 57004 69911 74944 =
12520 32980 01503 10051 20036 39670 40103 57001 =
12570 11/01 91601 10043 20043 39796 40115 53009 69951 74561 =
91324 11474 81304 10311 20251 30102 40104 84201 333
20233 563/9 58000 84818 88075 555 90200=
91353 11474 60904 10289 20251 30089 40094 51003 60024 70282 84230
333   20222 5622/ 59005 70023 84818 555   90200
91425 12474 60405 10300 20267 30097 40098 51014 60034 82241
333   20239 56119 59005 82818 84362 555   90200
91434 32574 31402 10311 20267 30115 40118 5//// 82230
333   20211 5633/ 59001 82819 555   90200=
26038 42297 81603 10075 20073 30022 40067 58007 886//   333 88705
555 11006=
26045 42698 81703 10073 20064 30076 40080 57009 885//   555 11006=
26058 42597 80902 10065 20051 40077 58011 85552=
26115 41997 31602 10092 20082 30032 40046 58007 70261 82031   555
12007=
26135 41996 81102 10058 20053 39997 40077 58009 71022 8807/   555
11004=
26231 42997 21102 10078 20072 30060 40069 58007 82040   555 11006=
26242 41396 80901 10073 20071 39994 40079 57011 76362 8802/   333
88509   555 12007=
26247 41296 80401 10072 20070 39996 40077 57017 78182 883//   555
12007=
12115 32997 21704 10072 20045 30014 40027 57008
80002=
12125 36/// /9903 10063 20045 39991 40039 57007 69911=
12200 32970 02003 10086 20051 30001 40008 56004 =
12285 16/// /9903 10071 20066 39971 40086 52005 69931=
12345 31950 01503 10042 20040 39939 40084 51002 71000 =
12415 32998 01704 10059 20033 39928 40080 55002 =
12455 32960 01804 10053 20042 39853 40099 53005 =
12497 11558 82905 10086 20080 39880 40097 52016 60051 72582 889//=
12500 32998 01804 10085 20016 39671 40082 56003 =
12530 31996 01502 10046 20039 39904 40104 53005 71000 =
12580 11357 82502 10084 20076 39872 40115 52010 69981 71062 886//
333 88706=
12585 11997 02702 10065 20052 39844 40110 51007 60031 70161 =
12600 32970 01805 10067 20032 39638 40118 53007 =
12650 11984 02705 11018 21027 37932 48437 52008 69951 70184 =
12660 31504 80000 10074 20068 39762 40118 53003 74682 885//=
12160 31496 21403 10063 20059 30010 40063 57003 71011 82500=
12210 36/// /9903 10083 20038 39960 40023 57010 69911=
12230 31558 22102 10060 20052 39963 40053 57004 71011 82500=
12399 11596 62702 10084 20078 39924 40091 52014 60081 71082 86900=
12418 32997 11803 10055 20040 39957 40071 57003 81030=
12488 11535 30000 10061 20061 39947 40102 52008 60021 72161 83500=
12540 32997 02403 10050 20041 39863 40115 53003 =
12566 31902 00000 10034 20032 39830 40122 51008 74411 =
12625 12980 02002 10028 20021 39127 42749 53007 69971 =
12690 11430 83003 10067 20065 39618 40125 51017 60071 78088 889//=
11406 32670 11704 10069 20026 39519 40078 56001 81500
333 55047 81640=
11457 32986 12305 10019 20004 38814 48418 50000 81040
333 55014 81359=
11520 32981 01703 10059 20032 39728 40095 58005
333 55031=
11636 31915 09901 10016 20015 39439 42737 52002 71000
333 55018=
11679 31950 01201 10031 20023 39625 40117 50003 71000
333 55004=
11723 31003 69901 10029 20029 39824 40125 51005 74641 86600
333 55017 86701=
11766 31/01 92305 10038 20038 39232 42737 52005 74544
333 55022 89/00=
11774 32965 01402 10051 20050 39850 40124 53006
333 55000=
11787 31/00 92506 10005 20004 38603 48425 52003 74541
333 55000 89/00 9513/=
82100 22265 00285 2//// 80242=
84455 22254 00305 20603 30000 80250=
84200 22234 00250 20101 318// 40403 80180=
70200 80000 22255 0//// 2//02 3//// 4//// 5//// 6//// 80170=
22282 00170 20705=
62002 02004 99416 70200 46/// /3320 10165 20136 40135 52020
22200 00179 11006 70032
555 1/026=
80403 31465 80803 10286 20242 30095 40119 71322 82306 333
10348 30/// 56909 59007 81816 87275 81916 1011=
80407 32460 80203 10276 20247 30006 40081 881// 333 10321
30/// 569// 59023 82816 1008=
80410 31460 30906 10249 20208 39401 40078 71322 83900 333
10318 30/// 56900 59014 81916 82616 1011=
80413 32460 82703 10262 20240 39578 40063 8455/ 333 10305
30/// 5699/ 59017 84616 86356 1008=
80419 32460 20202 10292 20213 30050 40059 81500 333 10336
30/// 56900 59017 81610 1005=
80421 32460 50904 10273 20257 30070 40092 82570 333 10336
30/// 56290 59001 82813 83456 1009=
80428 32460 30901 10273 20233 39874 40057 88008 333 10326
56009 59019 1009=
80435 32470 10203 10267 20233 30007 40082 81500 333 10325
30/// 56900 59022 81613 1008=
80438 11210 82002 10186 20184 38496 48493 69951 75095 887//
333 10264 31/// 569// 59011 88703 1017=
80444 32460 61102 10298 20250 30011 40062 865// 333 10340
30/// 562// 59005 86613 1005=
80447 32560 80000 10269 20214 39649 40080 84808 333 10338
30/// 56909 59003 84820 84280 1012=
80457 32460 80501 10282 20/// 30010 40/// 8352/ 333 10342
30/// 5699/ 59009 83610 85460 1009=
58424 32961 03201 10102 20058 30222 40246 52011 333 00152
30044=
55578 32980 00000 11048 21102 36423 52009 333// 00101=
55664 32980 00000 11071 21136 36061 52004 333// 00000=
55655 32980 00000 11039 21090 36534 52003 333// 00000=
55572 42980 00402 11015 21129 36303 52009 333// 00151=
55680 32980 01103 11016 21080 36285 52007 333// 00101=
55773 32970 00000 11113 21138 36065 52003 333// 00151=
55569 32980 00000 11007 21128 36278 52006 333// 00052=
52737 32980 03601 11024 21174 37099 52001 333 05504=
52876 32970 22903 10018 21045 38187 57002 80002 333 05801
31028=
52842 32980 10000 11123 21216 37006 52001 80002 333 05552=
54539 32970 02701 10053 20009 30198 40213 52010 333// 05301
31009=
31004=
56312 32980 00000 11005 21012 37150 52006 333 00200 31044=
56227 32980 00000 11013 21028 37395 52010 333 00201 31032=
56434 32680 70000 10070 20024 37755 52005 878// 333 00104
30040=
56317 42680 20000 11002 21004 37198 52011 82400 333 00101
31026 79999=
55696 32980 00000 11064 21078 36413 52005 333 00100=
55690 32980 00000 11090 21108 36048 52005 333 00154=
56307 42980 00000 11003 21040 36920 52012 333 00251 31027=
55681 42980 00000 11003 21092 31068 52003 333 00153=
55299 32980 00000 11109 21145 35911 52002 333 00151=
55472 32980 00000 11092 21170 35794 57006 333 05100=
56106 32980 00000 11084 21119 36276 52009 333 00152=
55279 32880 10902 11069 21207 35750 57003 81400 333 00002=
56202 32680 70000 11130 21147 35935 52004 83402 333 00253
92506=
55294 32780 10202 11126 21171 35768 54000 81400 333 05152=
52645 32980 03602 11144 21172 36809 52001 333 05501=
52633 32980 00000 11137 21167 36760 54000 333 05551=
51133 32980 02706 11063 21079 39651 40321 52040 333 00758
70036 92501=
51720 32970 00000 10009 21060 40185 52006 333 05300 31030=
51076 11980 12905 11056 21096 39344 40251 52046 60011 70070
81032 333 05256 31028 70136 91118 91532=
51777 32978 82506 10088 21080 39167 40196 52019 8802/ 333
05110 31045=
51053 11670 72708 11055 21086 40272 52039 60021 70070 84532
333 00156 31039 70088 91120 91527 92501=
51495 32980 73617 10084 21031 40235 52013 81042 333 05706
91125 91536=
51542 11670 83606 11042 21091 37588 52007 69901 77070 885//
333 05106 79999=
51437 11/06 90401 11011 21018 38189 52005 69921 74574 333
00302 31011 70002 92501=
51526 32980 73602 10015 21061 40179 52013 81032 333 05606
31033=
51567 32780 73203 10058 21035 40171 52016 82402 333 05506
31040=
51059 11925 72712 11098 21110 40283 52014 60021 77073 8701/
333 00259 70061 91120 91527 92503=
54326 32980 02504 10068 21074 40205 52015 333 05409 31004=
58760 32963 83604 10159 20106 40212 52020 8807/ 333 00704
70199=
45011 32962 03620 10159 20060 40190 52009
333 20147  58044=
57554 31/02 91401 10075 20075 40257 52007 74540 333 05300=
51288 11875 82708 11035 21043 38337 52020 60031 77070 8802/
333 05202 70029 92520=
51186 11958 82908 11041 21063 40241 52019 60071 77177 8802/
333 05511 70072 92524=
51232 11775 73420 11008 21074 40294 52026 69901 70070 875//
333 00456 31015 79999 91129 91532=
56018 32980 01801 11106 21126 30242 52006 333 00056 79999=
91631 31599 19901 10312 20258 4//// 70110 81101 333 20258 566/9=
91636 11499 80504 10280 20266 4//// 60031 70228 8227/ 333 20235
5619/=
91643 31599 71206 10315 20252 40098 58014 70222 83208 92346 333 20257
5
6
3
/
9
8
3
8
20 87280=
76390 31556 71202 10176 20095 38202 40072 57004 70544 81520
92345 333   10215 20130 30/// 50340 56450 58000 70000 81630
86457=
76491 32556 60000 10248 20214 39724 40123 52006 70540 82776
92358 333   10312 20219 30/// 50180 56778 58001 82725 82458
82077=
76539 31665 70401 10220 20142 38155 40090 57004 70544 84430
92350 333   10277 20090 30/// 50320 56260 59008 70000 84624
=
76665 01562 61601 10190 20119 38093 40893 57006 69901 72025
83770 92350 333   10245 20122 30/// 50200 56330 57638 59010
79999=
76393 31420 80601 10232 20197 39536 40108 54003 70542 884//
92355 333   0/399 10244 20194 30/// 5//// 58/// 70000 88612
=
76658 11560 51404 10257 20226 39617 40165 5//// 60211 70526
8435/ 92353 333   0/17/ 10314 20212 31/// 50380 58/// 70207
84922=
60710 12558 70000 10146 20144 30105 40189 54000 69903 84882
333 55007 82820 83630=
60714 32565 32802 10146 20120 30181 40188 53002 83800
333 55021 82820=
60720 11556 72204 10160 20148 30156 40192 51006 60063 70586 878//
333 55058 84820 84633=
60740 11558 70404 10184 20164 30186 40189 51009 60153 71398 84982
333 55070 84820 81930=
60745 32660 52502 10179 20150 39805 40172 54000 81502
333 55088 82633 84070=
60738 32460 31604 10104 20096 38948 48517 54000 83600
333 55008 83610=
60750 32558 40104 10187 20183 30150 40182 53002 84202
333 55098 21466 83820=
78397 32570 30208 10280 20254 30101 40117 81802 333 00000 10320
20250 59003 81822 83072=
61442 32958 03308 10235 20216 30108 40112
333 0//00 59007=
61450 33960 00406 10274 20022 39677 40120
333 0//00 59005=
65361 32960 70000 10230 20223 39663 40097 80002
333 59030 87076=
65376 32960 71804 10230 20215 39649 40106 80002
333 59005 87076=
65387 32460 72604 10262 20254 30071 40099 82202
333 59016 82810 87073=
60020 32570 10503 10191 20121 30146 40191 51004 81500
333 924/7=
60030 32560 60311 10203 20139 30129 40184 51007 86800
333 924/6=
88963 32565 80210 11056 21094 30100 40130 52007 885//
333 11029 21062 56500 88625 924/7 95000
555 10116 64127 65092=
88968 32565 81412 11096 21136 30120 40136 52020 885//
333 11002 21100 56599 88625 92417 92851 94060
555 10134 64102 65201 DIEBEL/S=
89034 32970 61122 11107 21225 39770 40100 54000 83071
333 11051 21113 56030 83360 85070
555 51143 64141 65190=
89053 32862 80000 11004 21041 30076 40090 52005 87016
333 10014 21030 56000 87458 88270 92407 92840 95000
555 64151 65092=
89055 32865 40221 11090 21101 39849 40118 58003 81076
333 11045 21106 56065 81358 84270 92853
555 10086 64133 65090=
89066 32570 80000 11022 21065 30000 40009 52001 8557/
333 11010 21107 56009 85630 83360 92407 92851 95030
555 64180 65100=
71930 32974 13002 10030 21070 39269 40211 51004 80001 333 10062 21033
70000=
71931 36/64 /2503 10037 21061 39513 40202 53007 333 10067 21037
70000=
71932 36964 02403 10037 21008 39719 40177 51006 333 10076 21043
70000=
71933 36864 82502 10009 21011 39867 40159 53008 333 10042 21055
70000=
71934 32274 81806 11007 21016 39886 40144 53006 885// 333
10011 21025 79999=
71935 32974 12104 10002 21026 39907 40116 53009 80001 333
10031 21039 70010=
71936 32374 22502 11023 21040 39840 40099 53004 81502 333 10013 21043
70008=
71938 32574 72306 11056 21073 30068 40097 50000 87510 333
11035 21085 79999=
71940 32782 62003 10033 21028 39386 40198 57002 81571 333 10068 21038
70000=
71943 32774 62307 10028 21034 39341 40182 53002 81571 333 10045 21020
70000=
71944 36564 81405 10025 21004 39373 40210 54000 333 10034 21019
70000=
71945 32983 10000 11004 21036 39681 40158 57002 81071 333 10012 21122
70000=
71946 32874 20000 11065 21083 39901 40117 52012 81071 333 11043 21099
70000=
71948 46359 83602 11101  333 11074 21104=
71949 46/64 /2907 11016 21069 39273 40147 53010 333 11011 21081=
71950 11474 80000 10039 20035 39542 40173 57013 69961 76188 8657/
333 10039 21015 70006 90957=
71951 11156 80000 10040 20032 39894 40161 56015 60021 76166 885//
333 10047 20031 70030 90983=
71957 17764 60000 11160 21188 30059 40150 51010 69951 7//4/ 333
11135 21214 70010=
71958 36/64 /0000 11006 21036 39201 40179 56008 333 11002 21113
70000=
71964 32786 33305 10012 21080 39285 40141 53008 83400 333 10026 21034
70000=
71966 46/// ///// 11100 21124 333 11055 21111=
71968 460// /2122 11100 30066  53007=
71103 17864 81504 10047 20012 39556 40221 58004 69951 7//4/ 333
10057 20006 70005=
71115 36/// /2302 10051 20036 333 10078 21003 70030=
71121 36964 33004 10027 21065 39376 40206 51005 333 10075 21024
70000=
71127 46064 ///// 11002 21012 39459 40202 53005 333 10045 21052=
71143 36/// /0220 10040 20029 39814 40130 56008 333 10058 20028
70000=
71043 32483 82905 11088 21111 30058 40154 52010 8757/ 333 11086 21165
79999=
71045 36/// /0000 10013 21046 39284 40145 55000 333 10023 21074
70000=
71050 36/64 /0000 10035 21012 39126 40210 58006 333 10036 21040
70000=
71066 31116 40000 11021 21024 39737 40161 53005 71042 81670
333 11006 21060 70010=
71068 32574 12404 10022 21042 39490 40189 53004 81500 333 10051 21042
70008=
71069 36964 02302 10012 21076 39487 40196 51004 333 10057 20005
70000=
71076 46/// /1902 10011 21011 39772 40166 51006 333 10011 21020=
71077 36/64 /2702 10005 21007 39658 40191 53003 333 10023 21015
70004=
71078 11/04 91504 11004 21008 39762 40208 58005 69901 75654
333 10001 21013 79999 90936=
71079 11166 80607 10004 21003 39938 40220 56003 69921 76852 887//
333 10016 21044 70002 90952=
71081 37564 33017 11140 21155 30092 40103 51026 745// 333 11036
21140 70050=
71082 36964 00000 11299 21339 30240 40283 56005 333 11275 21328
70000=
71083 32974 03210 11189 21223 30212 40251 53011 333 11166 21189 79999
=
71090 17514 82912 11028 21037 39973 40007 56004 60011 7454/ 333
11019 21047 70030=
71091 460// /0223 11043 39799 40004 53030 333 11033 21068=
71092 46406 81102 11054 39344 49997 51008 333 11044 21089=
71093 460// /3402 11036 39503 49991 56006 333 11035 21081=
71094 460// /2603 11128 39085 49974 56014 333 11056 21129=
71095 36964 02303 11066 21108 30029 40101 53005 333 11037 21111
70035=
71101 17248 81436 10093 20088 30049 40057 58018 60021 7//4/ 333
10102 20062 70015=
71104 32474 81203 10026 21002 39103 40225 56005 885// 333 10028 21040
70000=
71108 32883 70504 10107 20054 30150 40221 56009 85071 333 10118 20020
70000=
71109 11580 81018 10085 20059 30145 40172 55014 60021 70288 8657/
333 10088 20072 70076 90942=
71894 17/// ///// 10110 30179 40188 56015 60021 7//4/ 333 10117
20076 70026=
71896 32683 71904 10044 20009 39380 40216 57002 83571 333 10047 21006
79999=
71897 11462 81412 10085 20066 30078 40110 57024 60011 76166 886//
333
10096 20060 70118 90999=
71898 17564 81410 10084 20055 30061 40104 58020 60021 7434/ 333
10089 20066 70040=
71899 11474 80812 10103 20085 39996 40045 57022 69961 70382 8252/
333
10103 20045 70034 90960=
71902 32674 82902 10053 21057 30158 40166 57012 8657/ 333
10080 21009 70000=
71905 11/02 90000 10032 20031 30194 40207 51011 69941 74565
333 10051 20031 70036 90943=
71906 11374 82606 10038 20023 30110 40160 53004 69901 72582 885//
333 10059 20034 79999 90926=
71907 36264 83304 10002 21006 30171 40204 51017 333 10020 21002
70015=
71909 17564 63011 11027 21060 30025 40068 53011 60021 7//4/ 333
10021 21027 70050=
71910 37464 83022 11046 21069 30044 40108 51025 745// 333 11019
21049 70005=
71911 46264 81102 11156 30156 40213 50005 333 11082 21174=
71912 11266 80905 11051 21055 30055 40242 56005 69901 77722
886// 333 11039 21058 45997 70002 90962=
71913 36464 82203 11052 21072 30219 40257 53001 333 11048 21061
70000=
71915 32574 23217 11100 21128 30092 40176 53017 81501 333
11083 21133 79999=
71917 32974 01302 11318 21360 30256 40271 56004 333 11288
21324 70000=
71922 32974 10000 10024 20001 39712 40182 56002 81070 333 10079 21040
70000=
71924 32474 60414 11181 21232 30118 40210 58003 84501 333
11158 21228 70000=
71925 11340 81418 11130 21158 30124 40161 56013 69941 77122
887// 333 11130 21230 44020 70004 90931=
71926 32974 00000 11201 21248 30217 40242 57005 333 11176
21213 70002=
71928 36/64 /1102 10025 21074 39038 40211 53002 333 10065 21039
70000=
91551 32580 40606 10305 20256 40109 58007 84200
333 20240 563// 59002 84825=
91554 02581 32406 10295 20245 40095 58003 60084 83100
333 20210 565// 58000 60084 83825=
91555 32581 49903 10296 20243 40094 58004 84200
333 20226 569// 58008 84825=
91557 02580 42407 10281 20230 40108 58002 69954 84800
333 20211 565// 58013 69954 82825 82640=
91565 32580 22905 10280 20237 40119 58003 82800
333 20230 567// 58014 82825=
91568 32480 42512 10266 20236 40104 58003 84900
333 20246 567// 58015 84818 81922
71865 36/64 /0105 10010 21004 39484 40167 55001 333 10031 20010
70000=
71866 17464 80207 10026 20005 39571 40190 53007 69951 7//4/ 333
10039 21075 70005=
71867 32274 80903 10006 21005 39849 40187 56003 886// 333
10018 21012 79999=
71868 36264 80409 10007 20004 39731 40174 58005 333 10018 20000
70000=
71869 31/08 93304 11029 21029 39664 40198 58003 74544 333 11018 21084
70000=
71870 36364 83610 10012 21001 39195 40171 53011 333 10015 21023
70000=
71872 32683 53612 10059 21021 39324 40194 53006 85500 333 10079 21057
70000=
71874 36964 02708 10020 21009 39112 40213 53002 333 10067 20018
70010=
71876 31258 83306 11001 21010 39528 40202 53008 71022 886//
333 10014 21062 70000=
71877 32786 10702 10037 21081 38936 40217 56002 81170 333
10068 21013 70002=
71878 32674 10000 10049 21067 39134 40216 54000 81400 333 10069 21030
79999=
71879 36964 03304 10037 21066 39397 40206 53004 333 10079 21002
70000=
71880 32782 11204 10051 21024 39113 40228 56002 81171 333 10023 21048
70000=
71881 17964 00000 10017 21092 39102 40212 53004 69951 7//4/ 333
10076 21065 70005=
71882 367// 60502 10051 20036 39704 40245 58005 333 10075 20016
70015=
71883 46/// /0000 10019 20008 39429 40260 54000 333 10059 21023=
71887 32683 60000 10067 20021 39812 40237 56008 82570 333 10080 20009
70002=
71889 32974 63205 10073 20023 39811 40232 57010 80004 333 10094 21010
79999=
71891 36964 03002 10086 20014 39945 40225 55009 333 10109 20002
70000=
71892 32983 73204 10097 20058 30215 40220 58011 86071 333 10117 20033
70000=
71114 36964 01003 10074 20030 30175 40223 55008 333 10116 20043
70005=
71120 32574 12702 10018 21011 39537 40201 53002 81501 333
10050 21047 70000=
71122 36/64 /2502 10018 21103 38598 40215 53001 333 10041 21059
70000=
71123 32774 13203 10042 21067 39337 40208 51003 81501 333
10080 21043 70000=
71125 32369 82903 10014 20004 39607 40202 52005 885// 333
10030 21076 70000=
71129 32774 73412 10037 21006 39351 40191 51009 87500 333
10056 21079 70000=
71130 31008 80704 11014 21017 39728 40190 55002 74644 887//
333 11003 21067 70000=
71131 36/64 /0110 10011 21032 38910 40174 53011 333 10034 21036
70000=
71135 36/64 /3516 10016 20013 39047 40130 51008 333 10016 21008
70000=
71138 32269 80115 10011 21001 39531 40137 50000 886// 333
10038 20008 79999=
71141 11259 80408 10013 20006 39904 40185 56011 69901 75122
886// 333 10016 21009 79999 90910=
71145 11358 80709 10025 20012 39893 40188 57007 69901 75152
885// 333 10046 20021 70002 90937=
71148 16/// /0414 10066 20065 39433 40000 56021 60051 333 10073 20056
70104=
71182 36964 00000 11063 21079 39688 40245 56009 333 10026 21144
70000=
71185 36964 01107 10071 20037 30169 40193 58006 333 10096 20018
70010=
71187 36564 80000 10014 21004 30205 40232 55000 333 10064 21045
70000=
71188 32474 83003 10025 20012 30172 40213 53001 885// 333
10033 20011 70008=
71196 363// 80917 10059 20051 30180 40217 56005 333 10062 20047
70015=
71200 36/// /0207 10093 20063 333 10111 20055 70002=
71725 36964 01702 10032 21017 39820 40242 53002 333 10130 21042
70000=
71726 36/64 /0000 11014 21052 39704 40253 53003 333 10112 21071
70002=
71728 32982 02305 11003 21066 30015 40241 50001 333 10068 21061 70000
=
71730 32974 01806 10087 20023 39808 40233 55001 333 10138
20027 70000=
71731 33/// /0000 10062 21016 39785 40238 56002 333 10128
21003 70000=
71733 36964 01308 10081 20076 39987 40225 55002 333 10145 20069
70000=
71738 32774 20000 10072 20036 39838 40190 56006 82500 333
10167 20031 70000=
71739 32974 01804 10105 20029 39849 40210 50001 333 10178 20051 70000
=
71749 17664 80913 10103 20080 39875 40118 56016 60071 7//4/ 333
10114 20030 70075=
71799 32583 70103 10096 20050 30195 40219 58012 81170 333
10102 20023 70000=
71800 17/// /0528 10070 30115 40148 58010 69981 7//4/ 333 10075
20062 70008=
71801 11/04 90814 10055 20053 30019 40192 57008 69971 75154
333 10071 20048 70013 90983=
71803 11120 80912 10052 20050 30026 40214 56003 69921 75164
886// 333 10063 20033 70016 90973=
71807 36/// /0611 10091 20078 30162 40178 56004 333 10117 20072
70000=
71808 36364 80711 10024 20000 30188 40235 56007 333 10038 20001
70000=
71809 11359 80410 10038 20032 30186 40214 56003 60021 76152 887//
333 10055 20020 70018 90942=
71810 36/64 /3201 10011 20002 30156 40220 58001 333 10032 20008
70002=
71811 32680 11901 10012 21017 30150 40219 57009 81500 333 10061 21012
79999=
71813 36964 00505 10026 20003 30199 40213 56005 333 10073 20009=
71814 36/64 /0415 10027 20021 30207 40217 58006 333 10035 20009
70000=
71816 32974 02406 11021 21040 30172 40235 56009 333 10012
21047 79999=
71817 36064 81803 10011 20006 30228 5/009 333 70000=
71818 32974 72112 10020 21002 30210 40228 57007 87070 333
10022 21023 79999=
71821 36864 61703 10061 20008 39881 40229 51002 333 10113 21048
70005=
71822 36964 61302 10012 21027 39760 40244 50002 333 10111 21066
74105=
71825 32974 01704 11028 21060 39562 40250 55000 333 10072 21117 70000
=
71827 11/12 91803 10042 20032 39970 40214 52004 69901 75122
333 10060 20039 70004 90921=
71828 36864 30702 10022 21070 39571 40216 53001 333 10051 21060
70000=
71831 32974 51304 10097 20043 39918 40197 55005 85030 333
10156 20056 70002=
71832 36/64 /16// 10134 20070 39865 40186 56004 333 10170 20064
70002=
71834 11669 81204 10084 20076 39741 40166 56006 60031 76162
8357/ 333 10130 20031 70026 90952=
71836 46964 00904 10062 20039 30186 40197 51001 333 10145 20057=
71842 11116 81206 10105 20105 39617 40085 57008 60081 72352 887//
333 10107 20089 70155 90913=
71845 11240 80809 10094 20091 39660 40128 56017 60091 76162
887// 333 10101 20079 70094 90956=
71850 11132 80809 10108 20105 39555 40042 58015 60051 75166 887//
333 10108 20084 70154 90983=
71852 17261 80520 10086 20082 39730 40017 58030 69951 7//4/ 333
10097 20075 70080=
71854 11256 80609 10076 20074 39628 40093 55014 69941 76162
887// 333 10084 20070 70068 90937=
71855 17464 60217 10030 20019 39731 40103 58017 60021 7434/ 333
10061 20027 70100=
71856 17148 80419 10062 20058 39775 40054 56025 60011 7//4/ 333
10070 20061 70055=
71858 46/64 /0311 10022 20011 39896 40178 56013 333 10029 20001=
71861 17008 80117 10002 20000 39373 40096 58014 60051 7//4/ 333
10047 20002 70055=
71862 11216 83613 10005 20000 39356 40050 57007 60171 78588
882// 333 10058 21005 43003 70274 90973=
71863 36864 83616 10031 21009 39433 40129 50004 333 10054 20030
70005=
71918 460// /3113 11172 39781 40207 51015 333 11098 21172=
71629 36964 00000 10052 20019 30001 40239 51005 333 10153 21057=
71434 46/// /0506 10016 20016 30157 40224 51007 333 10030 20016=
71075 16/// /1908 11006 21006 39568 40173 58001 69961 333 10001 21031
70018=
71096 460// /0112 11042 39271 49990 56007 333 11038 21071=
71397 11374 80212 10080 20064 30086 40120 51008 69901 78022
885// 333 10094 20069 70078 90910=
71398 36/64 /0303 10090 20077 30063 40112 50000 333 10103 20077
70158=
71400 36/63 /0304 10059 20041 40206 333 10069 20039=
71410 17/64 /0411 10070 20070 30111 40139 50000 60041 7//4/ 333
10077 20064 70226=
71411 46/48 /3611 10097 20087 30080 40090 50004 333 10107 20080=
71412 17/// /0715 10086 20072 30103 40116 55001 60091 7//44 333
10086 20080 70196=
71430 46/64 /3009 10097 20077 30132 40230 55000 333 10124 20018=
71431 36/// /3502 10076 20019 30142 40238 50001 333 10113 20031
70000=
71432 36/64 /1803 10090 20063 30139 40236 50000 333 10126 20061
70000=
71435 17/// /1605 10100 20097 39518 40101 5/007 69941 7//4/ 333
10105 20070 70116=
71436 36/64 /0000 10053 20018 39878 40241 53003 333 10153 21009
70000=
71441 16/// /0718 10115 20115 39669 49968 58040 60031 333 10115 20080
70038=
71443 36/64 /0317 10015 21009 39744 40157 56011 333 10018 20002
70000=
71474 17162 81503 11002 21012 38980 40232 56004 69951 7//4/ 333
10013 21028 70010=
71538 32974 41104 10100 20047 39994 40225 55000 80001 333
10160 20037 70000=
71600 36004 90713 10126 20120 30052 40058 58002 333 10170 20126
70010=
71601 11266 83610 10096 20091 30027 40089 53002 60011 70285
886// 333 10113 20085 70071 90926=
71819 32474 80000 10013 21001 30201 40237 57009 885// 333 10039 21004
70000=
71846 17/56 /0506 10071 20067 39854 40164 56007 60021 7//4/ 333
10100 20067 70016=
71607 17/// /0106 10058 20041 30133 40165 51014 69921 7//4/ 333
10061 20037 70020=
71609 11356 80220 10044 20024 30008 40142 50015 69901 75152 887//
333 10065 20043 70030 90931=
71610 36964 00802 10000 21042 39924 40225 51007 333 10099 21039
70005=
71621 32974 22302 10065 20029 30122 40229 50000 80001 333
10146 21018 70000=
71623 32974 21902 10086 20041 39897 40238 53003 80001 333 10161 21019
70000=
71624 32974 32002 10088 20038 30025 40239 53002 80001 333
10145 20013 70000=
71625 36964 00000 10030 21014 30072 40235 53003 333 10153 21061
70010=
71627 36964 32504 10045 20009 30182 40227 55002 333 10098 21037
70000=
71628 32974 13102 10083 20002 30089 40231 51001 80001 333
10128 21012 70000=
71630 32974 10000 10043 21003 39893 40242 55000 80001 333
10146 21028 70000=
71631 36/// /0000 10053 20002 39743 40249 53001 333 10153 21020
70000=
71632 36/64 /0000 20006 39995  56003 333 70000=
71633 32974 20703 10072 20041 39963 40238 52003 80001 333
10157 21013 70000=
71700 11462 80108 10047 20038 30146 40171 51008 69971 75182 885//
333 10051 20035 70022 90927=
71705 11332 83615 10055 20053 30059 40146 51005 60021 76165
887// 333 10063 20046 70148 90983=
71706 11259 80816 10085 20078 30061 40121 58004 60061 76165 887//
333 10088 20076 70277 90983=
71707 11159 80715 10089 20070 30042 40118 58005 60361 79298 887//
333 10091 20079 70728 90973=
71709 11132 80617 10073 20073 30134 40147 52003 60101 76162 887//
333 10074 20061 70200 90947=
71711 32774 60803 10059 20026 30152 40202 52006 86500 333 10084 20042
79999=
71714 36/// /3602 10021 21005 30139 40232 51001 333 10082 21018
70000=
71715 36/64 /0306 10012 21002 30046 40231 56003 333 10040 21008
70000=
71718 32783 83604 10022 21002 30162 40228 56005 88500 333 10044 21029
70000=
71719 17/// /0224 10038 20027 30180 40186 53005 69971 7//4/ 333
10038 20030 70007=
71201 36/// ///// 10108 333 10115 20058 70000=
71702 17/// /0114 10069 20061 40132 60071 7//4/ 333 10072 20063
70371=
71732 36/// /2102 10081 20020 333 10159 21012 70000=
71194 17/// /0717 10093 20084 30145 40158 58001 60081 7//4/ 333
10094 20069 70083=
71197 17164 80819 10100 20080 30105 40154 51002 60061 7434/ 333
10113 20079 70080=
71952 46/// /1103 10030 20030 39329 40186 56007 333 10037 21043=
71967 36/// ///// 11083 39182 40172 50003 333 11072 21122 70000=
71851 16/// /0319 10063 20061 39688 40016 58028 60011 333 10079 20063
70046=
71873 36/64 /3206 10009 21045 39257 40215 53003 333 10060 21030
70000=
71875 36028 81703 10002 21011 38832 40232 51005 333 10050 21005
70000=
71450 36/// /0210 10033 20026 39446 40167 53008 333 10040 21029
70000=
71490 36/// /1619 11142 21155 39872 40194 56016 333 11141 21239
70000=
71261 46/// /1303 10063 20056 39966 40229 56001 333 10139 20008=
10143 21018 70000=
71265 36964 02504 10086 20054 30143 40238 53001 333 10120 20034
70000=
94120 46/// /2913 10301 20238 30066 40101=
94122 46/// /2810 10316 20298 30097 40105=
94150 46/// /3112 10312 20242 30030 40091=
94203 46/// /2711 10288 20189 30094 40104=
94207 35/// /2607 10257 30097 40108 52012=
94212 46/// /2412 10308 20132 39619 40083=
94216 46/// /1603 10334 20203 30035 40085=
94268 46/// /2503 10301 20200 30078 40093=
94283 46/// /3108 10313 20196 30078 40088=
94287 46/// /0113 10284 20219 30082 40091=
94294 46/// /3310 10296 20213 30076 40086=
94296 35/// /3614 10266 30083 40093 57001=
94298 35/// /3514 10264 30088 40094 52006=
94299 46/// /3616 10302 20234 30086 40096=
94300 46/// /1512 10209 20104 30123 40133=
94302 46/// /1518 10209 20113 30123 40129=
94312 46/// /2616 10264 20137 30086 40095=
94317 46/// /2313 10249 20092 39487 40060=
94319 46/// /3014 10255 20158 39757 40082=
94326 46/// /0611 10269 20046 39480 40085=
94332 46/// /1009 10302 20045 39712 40091=
94346 46/// /2312 10284 20019 39862 40078=
94363 46/// /3507 10277 20208 39842 40056=
94367 46/// /3521 10285 20236 30031 40068=
94374 46/// /3609 10274 20192 30054 40070=
94393 35/// /0606 10325 30100 40110 52011=
94394 35/// /0404 10240 30096 40104 57001=
94403 46/// /1810 10198 20078 30093 40134=
94429 46/// /2015 10160 20065 39638 40096=
94430 46/// /2013 10189 20069 39502 40077=
94461 46/// /3411 10293 20055 39404 40060=
94462 46/// /0812 10277 20041 39529 40074=
94482 46/// /1506 10266 20036 30043 40097=
94510 46/// /2707 10251 20111 39710 40051=
94515 46/// /1206 10206 20149 39732 40076=
94552 46/// /0413 10214 20146 39632 40092=
94584 46/// /1111 10233 20175 39991 40100=
94601 46/// /2518 10163 20073 30098 40115=
94610 46/// /3302 10184 20112 30095 40118=
94637 46/// /1105 10220 20027 39644 40063=
94638 46/// /3408 10170 20084 30058 40089=
94647 46/// /3510 10201 20071 39978 40098=
94651 46/// /3508 10197 20075 30029 40105=
94653 46/// /2208 10190 20079 30086 40104=
94659 46/// /1808 10182 20070 39900 40091=
94672 46/// /2508 10170 20121 30074 40079=
94693 46/// /2710 10188 20085 30012 40073=
94703 46/// /1007 10245 20149 39940 4////=
94729 46/// /0706 10148 20114 39249 40089=
94767 46/// /0416 10206 20134 30097 40103=
94776 46/// /0512 10216 20128 30091 40101=
94791 46/// /1005 10204 20135 30105 40112=
94802 46/// /2807 10149 20111 30018 40099=
94804 46/// /2513 10162 20130 30035 40073=
94821 46/// /2614 10164 20121 39957 40039=
94842 46/// /3412 10166 20105 39937 40035=
94850 46/// /3311 10155 20136 39987 40032=
94865 46/// /3412 10214 20117 30013 40037=
94907 46/// /0000 10189 20153 30035 40045=
94910 46/// /0508 10193 20145 39826 40073=
94926 46/// /0101 10126 20114 39435 40097=
94954 46/// /0514 10138 20116 39925 40035=
94968 46/// /0805 10164 20109 39872 40083=
94975 46/// /0413 10160 20116 30063 40095=
94983 46/// /0521 10156 20128 30065 40090=
94995 46/// /0914 10201 20115 30081 40089=
94996 47/// /3407 10202 20186 39890 40018 57003 72144
333 20179=
95711 46/// /0803 10246 20091 39761 40056=
95719 46/// /0809 10197 20139 39756 40083=
96995 46/// /1107 10244 20231 39812 40107=
96996 41480 20913 10253 20226 30105 40109 53010 71411 82800
333 20228=
89564 41882 11521 11149 21232 39831 49851 57001 70200 81010
333 21165=
89571 41582 10815 11116 21186 39795 49824 52011 70200 81500
333 21130=
89611 41570 72009 11080 21096 39815 49868 52002 715// 875//
333 21103=
94974 35/// /0407 10161 30008 40031 57005=
95288 35/// /3514 10267 30077 40092 52001=
95872 46/// /0109=
89002 41594 70925 11097 21114 39883 49936 52009 73833 876//
333 00940 11061 21101 92942=
89664 31961 00000 11151 21195 39680 49720 51022 74000
333 11143 21203 59003=
76122 32980 03601 10142 21070 38531 40161 57007 92332 333
10165 20026 30/// 50220 58019 70000=
76323 32970 02702 10202 20068 38247 40108 57008 92340 333
10220 20035 30/// 58005=
76402 31562 10000 10280 20124 30059 40120 57016 70544 81100
92343 333   0/400 10306 20110 30/// 50410 59018 81828=
76458 32970 32803 10273 20184 30093 40103 55001 83030 92355
333   0/090 10302 20215 30/// 50350 59001 70000 83359=
76220 32980 02703 10180 20030 38116 40113 57002 92335 333
10200 21020 30/// 50170 58007 70000=
76225 32960 02701 10258 20039 38569 40137 55004 92345 333
10184 20069 30/// 50640 58032 70000=
76471 32680 80303 10150 20048 37696 40092 52009 8372/ 92350
333   10170 20128 30/// 50230 5654/ 56007 70000 83735 85460
=
76556 32468 82902 10224 20195 39114 40119 52009 8342/ 92330
333   0/65/ 10278 20150 30/// 50360 58024 70000 83620 85460
=
91577 32581 32712 10267 20186 40104 58002 83800
333 20228 58018 82826=
91579 36/// /2612 10282 20189 40090 58005
333 20237=
91582 12570 22912 10286 20184 40089 58008 69924 82200
333 20210 56600 58007 82826=
91583 32675 12606 10295 20177 40087 58007 81800
333 20212 58013 81843=
91587 36/// /2710 10283 20172 30042 40091 58005=
91590 01575 53016 10267 20196 40092 50000 69924 70182 84202
333 20215 56000 58017 69927 84830=
91592 01575 42819 10252 20198 40085 50003 60044 72186 83801
333 20212 56606 58012 60027 83823=
78962 11480 71205 10264 20235 30100 40108 69901 70181 81232
333 01299 10310 20237 59012 81815 83362 86078 90920=
91753 21475 80902 10281 20253 40113 58004 70198 8497/
333 20245 60077 81913 83640 87460=
91754 01460 80602 10236 20233 40134 50006 60744 76186 8692/
333 20229 58032 60627 82810 81916 83818 88460=
85406 35960 02004 10176 20133 40160 52016
333 10214=
85418 32565 31910 10167 20116 40163 53015 83500
333 10204 56000 83630 =
85432 32984 02213 10164 21063 37770 48445 53011
333 10229=
85442 32570 21910 10149 20117 40163 53009 82500
333 10189 56400 82626=
85469 42570 72607 10230 20181 40232 57008 81104
333 56605 81825 87076=
85488 32460 73106 10143 20118  40186 50009 87500
333 10192 56000 87512=
85574 32960 02209 10162 20107 40176 52011
333 10228=
85585 32697 80000 10134 20105 40206 57009 81531
333 10168 56567 81635 83360=
85586 32560 12304 10140 20123 40203 52012 81500
333 10185 56600 81620=
85629 32770 22408 10166 20102 40179 53010 82800
333 10230 56500 82850=
85672 32980 02103 10164 20085 40186 50010
333   10230=
85682 32962 12406 10132 20116 40194 51005 80001
333 10188 56005 81067=
45007 32964 10303 10176 20000 30182 40191 51012 80001
333  20165 58046 70000 81080 =
85743 32970 12304 10125 20080 40197 53008 81030
333 10197 56060 81363=
85782 32670 32705 10150 20094 40188 54000 83031
333 10198 56055 83357=
85799 32660 52105 10101 20056 40210 53004 85500
333 10162 56500 85643=
85864 32680 32707 10108 20026 40191 51024 83200
333 10161 56600 83840=
85874 32980 13319 10076 20021 39539 40158 52017 80001
333 10152 56006 81070=
85934 32880 72704 10093 20048 40112 52018 83031
333 10136 56066 83358 84070=
78866 32480 42104 10270 20207 30113 40117 57006 83462 333 10300 20267
59019 70036 82819 83359=
85972 31596 83123 10066 20060 40065 52013 71555 887//
333 10062 56799 88722=
71727 31459 22103 11016 21029 30038 40239 58001 71000 81602
333 10040 21061 70000=
71735 32974 21904 10077 20018 39928 40230 51003 82030 333
10145 21032 70000=
71815 11574 80509 10082 20059 30140 40172 56004 60061 76162
885// 333 10086 20047 70060 90962=
71603 11274 80214 10081 20074 30043 40096 50012 60041 70282
886// 333 10108 20067 70102 90941=
84628 34950 11611 10168 20131 30129 40145 70544 813//
333   10200 564// 59010 81363=
84401 31960 01814 10220 20191 30090 40159 70122
333   10300 59006=
84390 31968 01713 10180 20150 30043 40146 70200
333   10283 59009=
84501 31362 21507 10180 20157 30126 40166 70200 82600
333   10220 56000 58007 82710=
84691 31960 02112 10180 20139 30114 40121 70200
333   10240 59012=
84752 32962 00000 10132 20016 37531
333   10225 59007=
84531 31962 01717 10180 20136 30111 40123 70222
333   10247 58000 =
84452 31560 51717 10085 20145 30110 40141 70300 855//
333   10256 564// 58005 85620=
84370 31960 33304 10220 20191 30086 40115 70122 83030
333   10280 56090 58006 83360=
84425 31962 60604 10284 20234 39873 40081 70122 80001
333   10310 56009 59005 86074=
84474 31962 40000 10302 20248 39707 70200 84004
333   10365 56000 58003 84070=
84377 31460 80000 10250 20230 39960 40065 70222 8457/
333   10340 5600/ 59006 84613 86357=
84686 31660 20000 10150 20054 36850 70322 82500
333   10220 56900 58010 82640=
84782 31964 02207 10158 20111 39649 40189 70200
333   10228 59021=
84735 31662 50908 10112 20014 36408 70222 851//
333   10220 569// 59005 85840=
84515 31560 50000 10280 20253 39890 40065 70221 8221/
333   10333 5699/ 58002 82825 83460=
84564 31560 40607 10214 20146 38127 70300 84500
333   10314 56100 58005 84630=
71475 36/// /1501 10080 20059 30123 40217 58010 333 10082 20033
70000=
71107 46/// /1729 10103 20103 39974 40085 55011 333 10103 20083=
71923 36/// /1610 11048 21050 39746 40196 55006 333 11048 21207=
71473 36/// /3103 10100 20080 30184 40214 58012 333 10114 20079
70000=
11008 21030 71109 83710 88520=
71717 11316 80312 10035 20031 30142 40183 52004 60041 75865
887// 333 10042 20025 70070 90973=
11423 32586 12406 10055 20025 39209 42711 55001 81500
333 55043 81623 91011=
17260 32970 00000 10068 20006 39363 40166 58002=
26229 41378 81402 10078 20071 30058 40065 57004 76162 8872/ 333
86709=
26314 42597 81403 10071 20061 30049 40052 57007 885// 333 88620=
26324 41597 81902 10079 20074 30051 40058 57008 78082 889//   333
88923=
26348 41380 80803 10083 20078 39888 40061 57027 76162 8802/   333
88507=
26406 41458 61603 10079 20074 30041 40049 57006 71011 86500 333
86619=
26422 41696 82801 10082 20081 30044 40065 57010 78082 889// 333
88936=
26544 41357 81403 10095 20086 39911 40060 57011 76186 8872/   333
86709=
13160 32697 82401 10086 20074 30062 40170 52007 885//=
13262 31694 80000 10114 20107 30017 40164 52010 71020 885//=
13272 11365 79901 10117 20108 30030 40148 53003 69901 70262
87600 333 84705 87709=
13285 11697 80000 10129 20117 30062 40163 52011 69971 76062
885//=
13289 11797 80000 10098 20092 48/// 52/// 60031 76366 8807/=
13363 11662 80000 10108 20097 48482 52005 69921 70261 8652/=
13376 11697 81901 10140 20128 39895 40152 52007 60021 76162
885//=
13388 11595 80000 10138 20131 39915 40155 52008 69971 76166
8372/=
13462 11660 83501 10150 20143 30118 40161 54000 60011 70266
8552/ 333 85640 88459=
13489 32697 80000 10122 20097 39656 40166 52004 885//=
51468 16/// /1905 11093 29036 36525 60001
555 1/123 2//00 /////=
17112 32970 00301 10115 20110 40177 54000 333 92408=
15502 31998 80000 10136 20102 40145 52009 70222 8807/ 555 88359=
15525 31997 01802 10135 20074 40147 53001 70111=
15535 31997 20000 10117 20089 40131 58001 70300 80002=
15549 31598 51402 10126 20090 40148 57003 70311 85500=
15552 31997 03601 10106 20102 40155 57001 70200 555 92022 92427=
15614 31997 60000 10102 20068 39462 40158 53002 70322 86050 555 95010
=
15615 31/91 92306 11013 21012 37139 47083 57001 74144 555 95199=
15627 31998 62706 10034 20011 37639 47093 54000 70311 86050 555 95100
=
15640 31998 00000 10102 20077 40163 54000 70200=
15655 31997 03202 10102 20087 40163 54000 70200 222// 20000 555 92012
92417=
15712 31697 80000 10145 20123 40166 58002 70222 885// 555 95090=
15730 31998 00000 10106 20104 40164 54000 70200=
26313 42997 01803 10083 20068 30048 40054 57008=
33088 42597 82102 10093 20071 39914 40101 54000 885// 333
88627=
33246 42460 81502 10071 20046 30028 40183 57005 886// 333 88712=
33261 41458 81802 10069 20056 30013 40195 57006 71022 886//=
33275 41294 81805 10055 20053 39983 40206
57008 71022 886// 333 88703=
33301 42596 51904 10106 20085 39828 40104 53002 82530=
33325 42997 01707 10087 20077 39860 40130 57014=
33377 41/05 91402 10074 20074 30004 40197 57010 74754 555 11008=
33415 41496 71607 10096 20081 39708 40098 57005 71022
86530 333 86611=
33429 42497 71207 10090 20071 39704 40121 57004 87500 333 87614=
33526 41618 80000 10072 20064 39768 40105 57001 71022 8555/
333 85633=
33562 42497 81607 10097 20071 39785 40139 57008 8555/ 333 85615=
33761 41356 81504 10092 20084 39944 40165 57011 71922 886// 333
88707=
33889 42598 81403 10124 20117 30119 40155 57006 885//=
33983 41/93 90000 10066 20066 30135 40196 57006 74544=
34415 42997 00000 10023 20021 30134 40231 57006=
34712 42998 00705 10084 20078 30120 40205 57004=
15200 11560 72603 10103 20088 30001 40143 52021 60011 70382 87300=
15292 01965 80000 10122 20106 39888 40177 52012 69981 76162 8802/ 333
69987=
12120 32598 71604 10062 20045 30027 40034 57007 875//=
12295 11460 82602 10080 20076 39900 40083 52007 60061 72162 885//=
12135 32997 02004 10070 20058 30045 40048 57006 =
12195 11560 82702 10078 20070 39851 40076 53002 60041 78062 889//=
12235 32997 01702 10038 20034 39847 40058 54000 =
12595 16/// /3005 10087 20075 39839 40108 52014 60041=
26666 42460 71706 10090 20068 39901 40112 57011 875//   333
87611 91010 91111   555 11008=
26850 41958 61603 10073 20062 39823 40093 57012 71022 80001   555
10006=
26863 41440 81606 10076 20061 39895 40128 57008 71022
886// 333 88710 91111 555 11007=
26941 42960 72104 10093 20065 39850 40082 57003 87050 555 11008=
26951 42960 21304 10077 20065 39902 40099 57010 80001   555 10006=
33008 41370 82801 10086 20077 39910 40086 53013 70262 886//
333 88709 555 11009=
33019 42960 61802 10096 20076 39911 40082 57005 86030 555 10008=
33036 41456 72205 10080 20074 39891 40119 57015 71011 875//   333
87612 91111   555 10007=
33041 42960 01603 10082 20062 30004 40160 57009 85030   555 11007=
47101 32977 02701 10107 20067 30109 40202 52018 333 20052 30010=
47105 32562 72903 10142 20090 30167 40199 52016 82520 333 20116
30015=
47108 32962 00701 10125 20068 30095 40199 52019 333 20094 30011=
47115 11460 80506 10111 20108 39913 40176 52019 60182 76166 8672/
333 20105 32011 70225 92054=
47133 31558 10902 10116 20068 30113 40195 52021 71000 81500 333
20101 31013 70003=
47138 11560 83409 10130 20103 30175 40179 52022 60152 76066 8372/
333 20113 32012 70290 92043=
47159 11567 83606 10134 20119 30077 40160 52032 60102 70262 8552/
333 20123 31013 70220 92011=
47165 12662 20512 10137 20091 30139 40183 52019 60042 82500 333
31013 70083 92022=
47168 11558 80216 10130 20099 30087 40166 52016 60082 72124 8352/
333 20120 31013 70139 92022=
47184 12660 83608 10149 20099 30156 40183 52018 60072 8452/ 333
20129 31016 70220 92043=
47090 32662 63609 10139 20098 30179 40199 52015 84530 333 20110
30016 92033=
47095 32972 00502 10113 20066 30018 40203 52016 333 20062 30013=
47100 11462 72002 10069 20039 39214 40199 52014 69912 70162 84510
333 20054 30008 70001=
47106 12562 83204 10134 20086 30154 40199 52018 69932 8682/ 333
20114 31014 70003=
47112 32961 00203 10121 20077 30115 40197 52018 333 20089 30013
92011=
47114 32968 00000 10118 20063 30016 40195 52018 333 20070 30011=
47119 32965 02301 10124 20056 30158 40199 52019 333 20071 30015=
47121 11558 83201 10108 20081 39911 40194 52019 69902 71062 8452/
333 20096 31012 70004=
47129 32962 00205 10125 20079 30176 40207 52017 333 20057 31012=
47130 11662 83208 10115 20097 30130 40189 52021 60102 76062 8452/
333 20101 30011 70112 92023=
47131 32961 03201 10123 20063 30127 40196 52020 333 20092 30012=
47135 11550 82703 10097 20088 39900 40195 52017 60072 76066 8572/
333 20085 31012 70106=
47136 11558 80000 10097 20086 30021 40192 52027 60112 76166 8372/
333 20090 31012 70142=
47140 32961 01104 10130 20066 30157 40193 52018 333 20104 30011
70000 92011=
47143 11558 82703 10123 20117 30121 40190 52030 60102 76166 8572/
333 20114 31012 70223=
47146 12562 81604 10124 20108 30126 40192 52021 60032 8652/ 333
20110 31014 70034=
47152 12565 83608 10130 20110 30131 40172 52003 60072 8652/ 333
20115=
47155 11560 83412 10127 20091 30166 40171 52022 60092 76066 8472/
333 20115 31012 70155 92011=
47156 11959 53601 10122 20090 30097 40185 52020 60062 71011 85030
333 20101 31014 70128=
47162 11565 83607 10122 20103 30127 40165 58017 60092 76066 8672/
333 20112 31013 70210 92022=
47170 12560 63403 10123 20085 30137 40178 52022 60082 86500 333
20105 31014 70120 92021=
47185 12565 60227 10148 20095 30080 40165 52013 60062 82530 333
20122 3/014 70228 92055=
47189 12670 73401 10180 20148 30091 40151 52018 60052 82530 333
20144 31017 70184 92011=
47192 11450 83603 10118 20100 30155 40182 52020 60112 76266 8672/
333 20106 31013 70175=
12272 32970 01902 10064 20056 39907 40074 50001=
12280 11658 22302 10071 20061 39917 40077 52002 60011 71061 82500=
37549 42797 53102 10099 20078 39692 40258 58006 83530=
26645 41350 81803 10091 20082 39807 40060 57009 72162 886//   333
88708   555 12009=
26659 41456 71705 10083 20068 39890 40100 58012 71011 875//   333
87617 91010 91111   555 11007=
26763 42460 81706 10087 20064 39906 40129 57006 886//   333 88715
91111   555 11008=
26832 41445 81803 10100 20088 39883 40070 57004 78082 8637/   333
86915   555 12010=
26887 42462 81908 10074 20046 39962 40166 58006 886//   333 88713
555 11007=
26961 42460 71504 10074 20062 39928 40119 57011 875//   333 87615
555 10///=
33027 42960 81602 10080 20067 39937 40102 57015 80007   555 11005=
41240 32960 00000 10270 20240 30094 40097 333 59002=
41244 36/// /3302 10221 20155 39760 40114
333 0E024 59000=
41246 32960 02404 10240 20221 30096 40101
333 58004=
41256 32960 02111 10311 20040 30083 40092
333 59003=
41262 36/// /1006 10213 20125 39907 40110
333 0E022 58000=
41268 32960 02410 10250 20228 30090 40105 333 58009=
41288 32960 00000 10249 20235 30085 40107 333 58000=
41304 36/// /2108 10212 20113 39791 40111
333 0E020 59000=
41312 36/// /3004 10227 20189 30070 40110
333 0E/// 59009=
41316 32989 03405 10233 20171 30084 40110
333 59009=
38149 32998 09902 10014 21024 30233 40312 57007   555 00001=
38262 429// 00000 10014 21024 30220 40304 53001   555 11005=
38264 35998 00402 10024 20014 30210 40306 57004   333 00000   555
10001=
38396 42996 20503 10045 20017 40304 57004 82030   333 04101   555
14100=
38457 42995 01101 10054 20045 39688 40280 52001 71000   555 11001=
38565 329// 00000 10016 21025 40267 56004   555 10104=
38579 329// 02701 10027 20011 39854 40282 57003   333 00101   555
10101=
38583 42997 00000 10027 20027 39954 40283 57001   333 01101   555
11000=
38611 42997 03501 10070 20046 39711 40284 58003   333 00005   555
10004=
38618 429// 01401 10048 20023 39576 40273 54000   333 00002   555
10002=
38683 42997 03605 10057 20006 39976 40255 57005   333 00002   555
10003=
38696 329// 01602 10067 21023 39396 40252 57003   333 00004   555
10003=
38812 42997 00702 10057 20025 40249 54000   555 10003=
38927 32997 00000 10051 20039 39866 40248 57004   333 00005   555
10005=
38403 439// 00205 10013 21079 30181 40305 52004   555 10101=
10001=
10005=
70194=
11414 11765 69902 10056 20022 39363 42707 55002 69901 70361
86500
333 55058 86650
555 379// 50086 60090 70094 80101=
11438 32972 23301 10026 20011 39697 40097 55002 80001
333 55025 82070
555 390//=
11502 36/// /9902 10048 20023 39628 40084 55002
333 55029
555 383// 50067 60078 70092 80102 90117=
11538 32981 01903 10057 20035 39503 40108 55001
333 55038
555 11805 386// 50077 60091 70104 80114=
11628 32965 01802 10046 20032 39477 40113 52005
333 55021
555 390//=
11643 36/// /2202 10035 20014 39137 42720 55000
333 55000
555 12308 386// 50069 60074 70077=
11683 32975 22206 10035 20024 39242 42733 52003 80001
333 55008 81070
555 393//=
11693 31958 02202 10058 20036 39639 40122 53003 71000
333 55012
555 12104 386// 50061 60077 70100 80112 90121=
11698 36/// /9901 10029 20022 39714 40127 52004
333 55012
555 395// 50066 60090 70100 80116 90126=
11710 36/// /2305 10054 20044 39499 40116 52003
333 55009
555 394// 50071 60073 70094 80107=
40155 32960 00000 10144 20127 30152 40162 54000=
40180 32560 11206 10157 20122 30117 40165 57004 81130=
40199 32965 03507 10202 20106 30164 40167 54000=
40356 32960 00704 10100 20010 39185 48500 333 59010 555 04410 50144=
40362 32962 00605 10160 20070 39639 40149 333 58012=
40373 32960 03604 10162 20040 39722 40130 333 58013=
40394 32962 00000 10150 20050 39030 48519 333 59011 555 04410
50130=
40400 32960 00104 10200 20170 30082 40110 333 59017=
40405 32960 00204 10180 20050 39392 40111 333 59011=
40416 32960 03010 10230 20200 30080 40099 333 58003=
40420 31958 03303 10220 20210 39911 40111 71000 333 58009=
40430 32960 03405 10210 21030 39392 40088 333 59018=
40437 32960 00304 10202 20060 39443 40120 333 58009=
40438 32960 00205 10220 20090 39441 40122 333 58006=
40439 32960 02803 10198 20190 30084 40096 333 59014=
41024 32960 00204 10224 20200 30078 40097 333 59019=
41030 32960 00000 10246 20210 39815 40085 333 59012=
41036 32960 02303 10170 20110 38551 48502 333 59013 555 04410 50074=
41114 32960 00000 10144 20011 37976 48497 333 59006 555 04410
50053=
41128 32960 00000 10160 20010 38794 48502 333
59009 555 04410 50086=
41136 32960 00000 10170 20010 39301 40095 333 59011=
41140 32960 00000 10276 20240 30080 40088 333 59013=
26554 41942 71404 10087 20074 39909 40068 57011 71022 8703/
555 11007=
54587 32980 02704 10132
21006 40168 52001 333// 05304=
16622 32560 60000 10144 20130 30169 40174 54000 82450 333 82625 85358
90730 91105 555 40000 47658 44220 50000 50136=
16641 12260 60000 10158 20155 30154 40159 58006 69901 85770 333 83706
83818 86358 90730 91103 555 40000 47645 44200 50000 50156 60000
65555 60120=
16682 31458 12204 10166 20156 30160 40180 53001 7100/ 81600 333 90730
91108 555 40000 47655 44235 50000 50160 70000 77Y// 7/Y//=
16716 32260 51404 10192 20176 30150 40167 56004 85600 333 90730 91109
555 40000 47645 44215 50000 50182 70000 77/I/ 7/I//=
16749 32960 00000 10182 20172 30162 40176 58001 333 90730 91108 555
40000 47655 44225 50000 50176=
16754 32965 00000 10198 20111 30120 40167 55003 333 90730 91107 555
40000 47623 44210 50000 50150=
60390 32565 10000 10092 20084 40186 58010 81200
333 81826 95990=
60490 32965 00000 10100 20092 40179 58007
333 95990=
60531 32965 00000 10115 20100 40187 56008
333 0//00 95990=
60571 32962 00000 10152 20032 39254 48530 52004
333 0//00 95990=
60580 32960 30000 10175 20141 40173 53004 83030
333 83360=
60590 32965 00708 10195 20102 40167 50001
333 0//00=
60656 32960 00307 10147 20074 40141 50002
333 0//00=
60670 32960 2//03 10153 21054 39084 48541 58009 81032
333 0//00 81360 95990=
16650 32457 71507 10172 20166 30162 40166 57004 87500 333 90707 555
40000 47614 44210 50000 50166=
60445 32960 00000 10088 20077 39011 48524 50003
333 95990=
60511 32965 00000 10074 20053 39072 48515 58006 333 95990=
60549 32960 00000 10098 20083 38893 48527 50000
333     0//00 95990=
60555 32965 00000 10153 20130 40185 51002
333 0//00 =
60559 32960 00000 10150 20091 40184 51008
333 0//00=
60620 32965 00309 10185 20025 40139 58002
333 0//00=
60640 32960 00000 10210 20023 40142 52009=
35671 42998 00000 11067 21095 39916 40363 58003   555 14108=
35796 42984 00101 11059 21070 39913 40366 52011   555 14109=
36821 42598 30201 11016 21045 40346 52007 82932   555 91108=
36864 42684 60000 10040 20009 40317 52004 86500   555 91107=
36870 42971 83601 10032 20003 39305 40321 53008 83032   555 11002
91105=
16614 32560 20000 10100 20092 39403 40185 54000 82200 333 90730
91105=
16627 31458 22405 10158 20151 30162 40166 58004 71002 82600 333 90730
91110 555 40000 47656 44250 50000 50154 70000 77Y// 7/Y//=
16738 32560 22006 10176 20163 39980 40174 58004 82100 333 90730 91110
555 40000 47517 44215 50000 50168=
16746 32960 00000 10156 20119 39998 40180 54000 333 90730 911058 555
40000 47530 44205 50000 50136=
16059 32964 30000 10081 20048 39785 40133 52006 80001=
16080 32960 20102 10089 20070 39996 40121 58002 80001=
16153 32998 02707 10135 20098 39853 40115 51003 92345 555 0////=
16105 31958 00000 10094 20086 30122 40128 51002 71000=
16191 36/// /3502 10102 20079 30126 40144 51004=
16261 32970 22708 10126 20102 30075 40147 51006 82030 92345 333
55300 82360 95090=
16320 32560 40000 10180 20158 30137 40149 51004 81530 92345 333
81630 84356 555 0////=
16420 32597 63007 10192 20137 30105 40169 56001 83272 92345 333
83820 83360 555 0////=
16429 32464 50000 10146 20142 30171 40183 54000 81530 92345 333
55300 81615 85360=
16560 32168 10000 10124 20103 30170 40176 58002 81600 92345 333
81703=
16066 32960 00003 10078 20054 39873 40123
52008=
16084 32980 00000 10086 20080 39953 40120 51001 92345=
16120 32582 30608 10166 20121 30112 40115 53005 83200
333 83830 97084 555 0300/=
16090 32970 20103 10076 20075 30040 40123 51003 82030 92345 333
82360=
16170 32560 31003 10120 20099 30097 40142 51003 83100
333 83830=
16206 32970 10808 10102 20081 30143 40152 51005 81040 92345 333
81360=
16289 32562 22404 10154 20121 30078 40163 55001 82100 333 82830=
16405 32350 31506 10162 20142 30136 40176 50003 83200
333 83823 95400=
16460 32560 52202 10173 20171 30149 40169 51001 82140
333 82825 84359 95090=
16362 12560 40602 10161 20134 30149 40167 53002 69921 82250
333 82820 83359=
16008 32960 00000 11038 21038 38472 48435 53002 92345=
16020 36/// /0000 10047 20038 39853 40148 52007=
16110 32598 31003 10136 20093 30097 40122 51001 83100 92345 333
83830 555 0////=
16149 32982 01805 10100 20079 30116 40132 51002 92345=
16219 31/00 92213 10012 20002 38103 48489 53002 74544 92345 333
89/00 95090 95190=
16230 32960 01402 10112 20097 30134 40147 54001=
16252 32965 00000 10094 20052 39231 42790 50010 92345=
16270 32960 02207 10136 20078 30098 40151 51003=
16325 32697 52807 10170 20149 30129 40143 52009 83531 92345 333
83640 83359 98065 555 0216/=
16360 32497 52907 10196 20144 30021 40152 53007 82530 92345 333
82615 85358 555 0////=
16480 32997 02902 10188 20163 30107 40167 52004 92345 333 55300
555 0////=
16520 32470 20000 10100 20086 30145 40173 56006 82200
333 82815=
16522 32498 13407 10156 20104 39922 40163 57005 81200 92342 333
81815 555 0////=
16550 32698 42806 10150 20098 39991 40169 51001 84800 92345 333
81835 83640 555 0////=
33345 42465 81404 10075 20058 39963 40167 57008 886// 333
88714=
34300 41996 00903 10054 20030 30028 40220 58009 71000=
33711 41/08 91602 10076 20076 39988 40197 57008 74722=
33135 42997 01505 10058 20046 39988 40167 57010=
33924 41941 00000 10049 20044 30181 40193 57004 71000=
48601 11557 73301 10246 20240 30089 40093 60014 71062 82832 333
20242 50230 58001 81820 87077=
48620 11460 70000 10234 20225 30083 40092 60024 71022 82942 333
20226 50370 58004 81916 86078=
48647 31040 70000 10247 20235 30068 40093 70522 81642 333 20240
50500 58002 81701 87078=
48657 11056 82902 10242 20238 30080 40098 60314 71522 84537 333
20234 50560 58011 82700 83625 88276=
48665 31468 70000 10249 20239 30085 40095 70522 81942 333 20240
50410 58010 81917 86078=
96421 32480 61305 10253 20234 30072 40108 81241 333 20234 50430
55075 58004 81818 86080=
96441 31240 71006 10256 20236 30106 40111 70566 83944 333 20241
50340 55056 58008 82705 81915 85080=
96449 11474 70000 10273 20241 30087 40108 69904 78022 82141 333
20238 50360 58006 82814 85365=
96465 11470 82003 10270 20238 30066 40100 60014 71562 83848 333
20260 50450 55079 58001 83810 85364 87279=
96471 11370 81503 10251 20236 30102 40105 60074 79196 85947 333
20242 50400 58002 81708 81916 84630 88274=
96481 32460 60000 10272 20246 30078 40101 82841 333 20242 50200
55010 58000 81818 85080=
96491 11468 72303 10260 20250 30086 40099 60024 70522 83848 333
20247 50230 55030 58002 81816 81917 87277=
47401 32/70 70808 10075 20034 30222 40236 50010 82232
333 20039=
47412 32/70 81603 10086 20038 30181 40213 50003 8802/
333 20073=
47420 32/65 70308 10081 21014 30183 40231 51013 8127/
333 20073=
47426 32/70 80812 10097 20021 30164 40209 50011 8807/
333 20074=
47582 11/40 83503 10109 20098 30154 40180 53004 60162 76166 8372/
333 20099=
47590 11440 83310 10110 20099 30123 40176 50000 60232 76165 887//
333 20106=
47600 11358 80417 10159 20146 30119 40136 50003 60382 76366 8672/
333 20150=
47648 11/50 80212 10184 20174 30099 40131 53001 60022 76162 887//
333 20174=
47662 11250 83407 10146 20131 30102 40145 50003 60062 76166 887//
333 20139=
47678 32365 72315 10246 20232 30055 40147 50003 872//
333 20239=
47740 11156 80515 10170 20155 30092 40129 52010 60522 78188 882//
333 20162=
47778 11/60 52112 10260 20239 30024 40109 50003 60122 72582 82202
333 20242=
47807 11468 72603 10189 20161 30094 40111 50017 60722 72588 872//
333 20170=
47827 11465 72012 10267 20219 30047 40082 53017 60112 72582 86272
333 20248=
47843 11/75 23618 10203 20157 30080 40111 51021 60432 70182 82203
333 20173=
47898 11/60 62115 10262 20237 30045 40082 58003 69902 72511 82202
333 20252=
47909 11/80 62108 10266 20204 30099 40107 51027 60112 72598 81132
333 20263=
47918 11475 70112 10231 20193 30144 40152 51014 69952 72582 8283/
333 20219=
47936 12/80 73417 10249 20206 30075 40136 51025 60122 8323/
333 20246=
47945 32/65 51811 10292 20258 30117 40140 51014 82230
333 20269=
47971 11/82 61307 10282 20240 30182 40191 50007 69902 70281 84230
333 20272=
47991 32/82 71208 10296 20226 30191 40201 50000 81102
333 20272=
47407 31/58 81501 10050 20027 30080 40224 50009 71022 8161/
333 20030=
47409 32/65 70704 10074 21005 30184 40237 51012 81132
333 20049=
47418 32/65 80405 10075 20018 30189 40238 51013 8807/
333 20062=
47421 32/65 71503 10108 20066 30155 40201 51008 8127/
333 20068=
47430 32/65 80607 10126 20051 30145 40198 50003 8127/
333 20078=
47570 16/// /1702 10137 20103 39898 40150 53002 60102
333 20118=
47575 11/60 80605 10106 20082 30186 40190 58002 60072 76166 8252/
333 20085=
47585 11357 80706 10102 20086 30138 40195 58001 60162 76166 8772/
333 20094=
47598 11/30 80410 10155 20140 30146 40152 58003 60122 76166 8772/
333 20137=
47602 11/60 81902 10148 20142 30127 40147 53011 60232 76166 8672/
333 20137=
47605 11/50 80811 10156 20146 30094 40133 50009 60682 76166 8672/
333 20149=
47618 11/58 71401 10136 20123 39424 40127 53011 60112 78082 872//
333 20115=
47624 11220 82201 10140 20132 30017 40152 50003 60062 76166 887//
333 20134=
47636 11/12 80802 10214 20204 30044 40109 50007 60022 71084 885//
333 20173=
47655 11/58 62216 10245 20220 30064 40117 50005 69902 71082 82332
333 20226=
47663 11/65 72502 10239 20225 30066 40097 50000 60142 70282 86232
333 20187=
47675 11470 80507 10165 20154 30042 40136 50004 60082 76166 8722/
333 20160=
47741 11360 80810 10168 20153 30087 40113 55000 60552 78088 882//
333 20162=
47746 11/40 83106 10169 20154 30098 40116 55004 60522 78188 882//
333 20156=
47750 11358 80306 10177 20160 30090 40116 50002 60322 76062 8672/
333 20166=
47755 11/58 80511 10172 20164 30095 40119 53021 60562 78088 882//
333 20156=
47772 11/56 73603 10204 20180 39993 40089 58004 60462 71082 87202
333 20176=
47800 11460 83315 10159 20136 30117 40139 53026 60372 76188 8272/
333 20159=
47815 11/58 83003 10180 20167 30093 40108 53030 60242 78082 8627/
333 20173=
47817 11/82 60204 10191 20165 30052 40093 51024 60512 72598 85832
333 20175=
47830 11/75 72508 10257 20234 30056 40072 53015 60112 72582 8723/
333 20221=
47837 11/65 62018 10281 20232 30061 40082 53009 69902 72582 83232
333 20264=
47887 11340 83208 10182 20169 30049 40088 53011 60282 79286 889//
333 20180=
47891 11/40 80103 10191 20178 30067 40079 58008 60292 78182 882//
333 20177=
47899 11/58 72129 10252 20236 39878 40088 58008 69902 71082 82272
333 20240=
47927 11/75 70113 10235 20190 30103 40150 52018 69902 78082 85232
333 20223=
30372 11998 80000 11086 21093 39242 40123 57004 69962 77172 83017
333 21138 47015 55013=
30554 31998 80000 11116 21116 39022 40138 53004 69942 70272 84072
333 21116 47015=
30635 32899 62704 11010 21060 39586 40153 52007 83032   333 21017
42997=
30673 11998 80000 11073 21073 39329 40103 53003 69902 77172 8802/
333 21089 47003 55068=
30692 32998 80904 11042 21068 39646 40111 57012 8805/   333 21047
47005 55072=
30758 32599 72706 11010 21080 39305 40116 52013 86941   333 21019
41998 55098=
30823 32999 70000 11073 21086 39539 40187 54000 87030   333 21078
55005=
30879 32999 82702 11022 21065 39303 40052 53014 80003   333 21052
47997 55059=
30935 32999 60301 11083 21106 39252 40208 52010 82042   333 2////
55000=
30949 32999 02701 11051 21115 39065 40164 52013   333 21059 41998
55///=
30965 32999 32502 11045 21072 39292 40117 52020 81042   333 21066
55046=
31300 32999 80303 10002 21057 39857 40143 57009 85037  333
21089 47007=
31369 31296 23501 11091 21091 30169 40259 52023 74640 82600
333 21121 47002=
31416 32999 83601 11105 21111 30153 40249 53008 85031   333 21140
42002 55074=
31484 32992 22002 11074 21094 39894 40241 52001 82040   333 21099=
31510 329// 60000 11031 21066 39953 40119 57010 83071 333 21054=
31735 32997 00701 11014 21042 30129 40218 51003 333 21053 7000/=
16061 32965 23605 10088 20088 39286 42742 53001 82080 92345 333
82360=
16076 32770 30105 10084 20055 39849 40132 51003 83100
333 83850=
16114 32962 02403 10104 20066 39465 42750 51001 92345=
16022 32986 02106 11028 21051 37809 48452 54000 92345 333 47011
92832=
16033 32560 60000 10040 20035 38750 48461 51002 86500 92345 333
86630=
16088 32960 20505 10088 20079 30009 40127 51001 82030 92345 333
82359=
16098 32960 00405 10092 20080 30074 40126 51002 92345=
16108 32960 00702 10102 20091 30104 40125 50002=
47005 55072=
41998 55098=
12215 36/// /1804 10058 20040 39871 40049 57008 60011=
12550 16/// /9902 10048 20040 39756 40113 52008 69911=
12469 31912 01502 10034 20032 39872 40105 52008 71011 =
30433 32999 33102 21036 21122 39554 40149 52011 82031   333 21038
43005 55000=
40100 32560 20803 10178 20081 40171 58004 82500 900//
333 82630 92427=
40103 32560 21604 10144 20119 40175 57005 82100
333 82824   555 10241=
80420 31460 70702 10281 20243 30073 40079 70299 8457/ 333
10337 30/// 5699/ 59008 83813 83358 81913 1009=
80425 32460 60302 10280 20242 30058 40087 8252/ 333 10334
30/// 5699/ 58000 82613 84460 1008=
80426 32560 50000 10248 20217 39450 40099 865// 333 10281
30/// 569// 58016 85616 1012=
80427 32960 02701 10262 20248 39843 40085 333 10340 30///
59020 1010=
80431 32460 72001 10240 202133 39575 40048 875// 333 10312
30/// 569// 59019 87616 1007=
80475 32560 60000 10234 20217 39721 40091 83500 333 10303
30/// 56900 59016 83620 1010=
41697 63021 10060 20002 40177 51018 70111 86938
22254 00032 80035=
41598 63414 10275 20234 40075 52015 70211 84890
22283 00284 20403 336// 40906 5//// 80245=
62103 02004 99499 70029 46/97 /2219 10119 20080 49973 5//// 22200
00136 10803 70015 555 1//30 05111 07220 10093 11147 12419 13436
14661 15482 17110 18007 19024 35076 36057 70001 72838 73148 74019
75421 76401 80096 05112 07216 10103 11131 12418 13436 14678 15482
17110 18007 19024 35075 36057 70001 72838 73147 74019 75420 76401
80152=
17110 18007 19024 35075 36057 70001 72838 73147 74019 75420 76401
80152=
62301 02003 99523 70045 46/// /1812 10100 20076 49915 22200 00126
10504=
36103 50051 51368 52005 53089 70003 71966 72475 73129 74499 75205
76966 77001=
16124 18007 19002 22235 23024 35074 50059 51032 52011 53242 70001
71999 72230 73130 74012 75404 76900 80107 05362 07261 10074 11118
12380 13413 14628 15413 18008 19001 22235 23024 35074 36124 50059
51032 52011 53242 70001 71999 72230 73129 74012 75404 76900 80084=
80084=
81260 22215 00194 20202 327// 40406 5//// 6//// 80172 ICE /////=
48820 31996 01101 10176 20156 30198 40206 52010 71000 333
01016 20173 3/015 58008=
48826 32997 00204 10184 20110 30062 40196 51012 333 00019
20163 3/013 58014=
48839 32998 00511 10200 20095 30118 40184 53010 222// 2//03
333 00/// 20200 58019=
48848 32570 53607 10211 20211 30179 40187 52016 85800 333
00021 20225 3/018 58017 82895 85697=
48855 32570 72501 10196 20164 30159 40167 53013 85308 333
00021 20188 3/018 58021 84895 81995 87299=
48870 32498 79902 10226 20154 30138 40145 53017 878// 333
00022 20220 3/019 58022 83894 87697=
48877 32598 79902 10229 20176 30134 40139 52020 83208 333
00023 20213 3/020 58015 83895 87299=
48887 12570 70000 10242 20227 30108 40114 52017 69902 875//
333 00027 20234 3/022 58008 87697=
48900 421496 53201 10244 20235 30108 40118 52021 71022 85800
333 20237 58014 82894 85696=
48914 32998 70501 10259 20239 30110 40112 52016 81048 333
02025 20244 3/023 58015 81399 87299=
48917 12598 70702 10250 20225 30104 40109 52018 60092 8595/
222// 00289 2//00 333 01/// 20228 3//// 58021 84895 82995
86399=
48918 32470 70705 10265 20214 30108 40119 52025 879// 222//
00271 2//02 333 00025 20262 3/024 58016 82894 87995=
48920 11598 53611 10268 20240 30099 40099 52016 69912 70382
85200 222// 00281 20403 333 20256 58019 85895=
48803 31405 70000 10135 20131 30102 40219 52008 74241 878//
333 00015 20133 3/013 58000 83894 87696=
48808 31/00 90000 10113 20113 39930 40224 52012 74540 333
00015 20108 3/012 58008=
48823 31996 03401 10149 20132 30192 40195 51012 71000 333
00015 20144 3/010 58020=
48830 32970 00000 10124 20093 39901 40218 53013 333 00013
20100 3/009 58014=
48852 32570 70000 10190 20181 30165 40175 53014 84808 333
01021 20182 3/021 58015 81895 83697 87299=
48916 11498 80508 10259 20240 30059 40106 53021 60122 70382
889// 333 01/// 20245 3//// 58021 82894 88995=
48919 32698 70513 10276 20203 30088 40100 53019 875// 22200
2//06 333 20275 58004 87696=
48802 32960 00000 10081 20050 38481 52003 333 00007 20075
3/004 59001=
48810 31/02 90000 10117 20115 30004 40217 52013 74541 333
00016 20116 3/013 58017=
48831 31940 03602 10146 20133 30162 40201 52014 71000 333
00015 20140 3/012 58011=
48838 32998 00702 10162 20077 30196 40202 52014 333 00014
20114 3/007 58023=
48863 32598 73202 10213 20159 30149 40158 53012 85848 333
00021 20202 3/018 58025 82895 84697 86299=
48907 11498 80502 10263 20220 30115 40117 57025 60022 70262
888// 333 02/// 20245 3//// 58017 83894 88696=
55228 32980 00000 11075 21230 36075 52004 333 05103=
55437 32980 00203 11028 21141 36411 52014 333 00000=
55248 32980 00000 11120 21299 35958 52002 333 05202=
57902 32971 00000 10048 20037 38691 40257 52006 333// 05151
30006=
54764 32962 01603 10066 20027 40234 52014 333// 05252 30013=
51156 32780 12711 11056 21156 38689 40210 52019 81500 333
05352 91119 91527=
51068 11975 12910 11027 21088 40257 52030 69901 70070 80002
333 00054 79999=
51241 11780 53405 11046 21082 40290 52014 69921 70070 84502
333 00554 31022 70014 92501=
51346 32780 72506 10036 21039 40255 52026 875// 333 00200
31007=
82332 333 20226=
59995 32475 73613 10274 20221 30100 40108 52018 8321/ 333//
00151 70006 27805 13615=
54624 32961 02203 10052 21001 40224 52010 333// 05401 30004=
57776 32980 00000 10080 21166 40256 52013 333 00105=
63980 42482 11709 10260 20231 40092 81100
333 59016 81818 943// 91122=
60351 32560 30000 10130 20119 40189 58003 83200
333 0//00 83823 95990=
60425 32960 00504 10118 20095 40184 57006
333 95990=
60444 32970 00000 10081 20037 39138 48530 51001
333 95990=
60468 32960 00000 10067 20035 39247 48518 52004
333 0//00 95990=
60581 32960 00204 10188 20120 40174 51001=
78906 32580 50000 10263 20230 30115 40120 82263
333 10322 20245 59008 82820 83078=
85766 32680 12005 10128 20094 40191 53007 81100
333 10200 56000 81830=
67765 42984 60902 10170 20141 38649 48491 86031 333 59019 86360=
67775 41956 70607 10166 20145 38494 48498 70511 87032 333 59016
87358=
67853 42780 71301 10213 20161 38906 48480 81973 333 59028 81950
86360=
67861 42975 71106 10205 20141 38707 48489 87032 333 59022 87359=
67881 42975 33602 10150 20136 38568 48494 83032 333 59020 83360=
67975 41780 32101 10180 20153 38911 48500 71361 81902 333 59018
81950 83080=
67977 42980 00000 10208 20175 39644 48519 333 59030=
67983 41/00 91102 10158 20158 38867 48489 74741 333 59022=
67843 42975 40502 10206 20153 38901 48459 84030 333 59030 84359=
89816 46/// /1010 11206 38242 4//// 5////=
71073 36/// /1603 10009 20002 39740 40162 51007 333 10021 21018
70000=
71140 11359 80435 10032 20020 39531 40025 57027 60031 79565 883//
333 10052 20031 70028 90973=
61968 36/// /0712 10256 20199 30106 40111
333 59022=
61970 36/// /1202 10244 20217 30109 40120
333 59026=
61972 36/// /1402 10213 20190 30125 40140
333 59023=
61980 36/// /1710 10205 20171 40162
333 59025=
67005 36/// /3606 10254 20221 40115
333 59025=
61996 32575 22617 10114 20088 40071 82200
333 59140 82826 92448=
61998 11570 62621 10009 21053 39908 49944 58010 69901 70087 86240
333 59087 86826 91147 93101=
64500 11460 81806 10266 20249 30081 40095 60041 76066 885//
333 0//00 59013 84610 88630=
64503 31460 3//// 10250 20246 30052 40093 71311 83900
333 0//00 59024 83613 81920 94945 95835=
89022 42999 11709 11217 21237 39990 40031 52013 80004
333 11130 21240 81065=
71051 46/// /0505 11151 30016 40127 53007 333 11120 21151=
82863 21494 80000 10246 20237 39880 40091 70362 885// 333 10261 58004
60011=
83064 32698 73603 10259 20221 39822 40091 87800 333 10287 59018=
83228 32/97 93602 10270 20226 39824 40104 333 10321 59022=
83235 32698 60000 10250 20221 39430 40093 84260 333 10296 59013=
83332 21595 80000 10212 20202 39196 40098 72862 885// 333 10267 59015
60051=
83368 32796 60902 10264 20229 39718 40080 86030 333 10/// 59020=
83374 32896 50000 10261 20208 39527 40093 85030 333 10317 59009=
83376 21598 81802 10221 20208 39255 40062 70362 8454/ 333 10289 59007
69931=
83377 31597 70506 10203 20180 38855 40105 71092 87500 333 10256
59008=
83378 32570 60605 10230 20205 38958 48524 84201 333
10273 59007=
83423 32798 10000 10238 20201 39278 40091 81100 333 10297 59010=
83470 31698 50506 10249 20187 3//// 4//// 71300 85300 333 10307
5////=
83522 32997 00000 10238 20197 39251 40092 333 10313 59009=
83526 32997 00503 10245 20166 39167 40096 333 10299 59009=
64507 32358 8//// 10235 20228 3//// 40/// 885//
333 0//00 5//// 84608 88616=
83362 32970 53209 10302 20226 40083 80004 333 10356
59028=
83766 32997 00000 10248 20149 39466 40101 54000 333 10///=
83767 31596 20502 10273 20141 39486 40092 54000 70540 82400
333 10326=
83768 32970 01104 10248 20142 39464 40094 53006 333 10312=
83783 32997 00506 10230 20161 39419 40073 52002 333 10323=
83811 32997 00504 10218 20139 39223 40099 55001 333 10314=
83813 32997 00902 10189 20168 39038 40116 53004 333 10291=
83836 32997 00505 10205 20115 39139 40101 53003 333 10286=
83840 32270 81010 10169 20155 39129 40117 53005 886//
333 10250=
83844 32597 50507 10230 20200 30142 40149 51012 82460 333 10280=
83872 31495 70508 10225 20188 30078 40158 53014 71022 87600
333 10310=
83881 32497 80000 10262 20218 39770 40067 53004 8471/ 333 10346=
83883 31996 80000 10261 20176 39320 40075 56004 70521 8801/
333 10313=
83887 32997 40514 10198 20152 39068 40105 51003 84010 333 10282=
83899 32570 10405 10222 20215 30149 40149 53006 81100
333 10272=
83907 21495 82306 10200 20190 39788 40065 53017 79596 889//
333 10338 60121=
83912 21596 80000 10238 20201 39568 40092 5//// 71096 883//
333 10328 60021=
83914 32997 80505 10238 20161 39327 40078 56003 80801 333 10312=
83919 32997 80502 10196 20140 38955 40124 58003 80007 333 10265=
83927 21597 81402 10169 20166 30011 40091 52009 70296 883//
333 10206 60131=
83936 21494 82305 10204 20196 39986 40107 52030 76194 887//
333 10322 60141=
83948 31996 00510 10212 20193 30072 40109 54000 71000 333 10252=
83953 21/91 90502 10181 20181 39686 40061 53009 72196
333 10248 60401=
83964 31596 80502 10242 20182 39591 40068 57012 71310 883//
333 10295=
83971 32970 71210 10242 20199 30072 40072 56007 80004
333 10342=
83980 21495 80506 10194 20191 39796 40073 50011 79596 889//
333 10291 60281=
83995 32497 80512 10214 20191 30068 40072 57010 886// 333 10245=
83997 21495 83602 10201 20200 30063 40106 50010 76121 8442/
333 10252 69951=
83612 31970 00306 10265 20210 39445 40050 51006 70190 333
10324=
83722 31960 01012 10273 20147 39398 40090 50001 70500 333
10334=
83780 31460 81208 10204 20164 39250 40125 51012
70511 885// 333 10262=
83827 32970 41004 10262 20187 39790 40058 51016 80001
333 10336=
83649 32570 52704 10226 20209 40175 52015 82530 333 10250=
83248 32470 21206 10260 20220 40135 82100 333 10284 59008 =
83349 21456 71805 10238 20235 40137 71562 85801 333 10277
59006 69931=
82392 32996 03605 10264 20198 39990 40092 333 10366 59007=
82398 32470 30904 10270 20226 40117 82501 333 10310
58006=
82493 32995 00505 10264 20218 30092 40106 333 10334 59005=
82579 32570 43502 10308 20210 40064 84100 333 10366
59010=
82583 32996 00503 10291 20138 39745 40078 333 10361 59013=
82586 32994 03606 10273 20224 39842 40078 333 10358 59006=
82599 32570 51206 10260 20235 40122 83101 333 10306 59007=
82678 329// 22301 10303 20224 39920 40075 333 10370 59017=
82689 32994 01402 10252 20213 39823 40085 333 10354 59007=
82780 32596 30502 10322 20169 39825 40071 83400 333 10381 59011=
82789 32994 01403 10246 20163 38994 40076 333 10302 59010=
82798 32596 50504 10264 20220 30115 40136 85400 333 10298 59011=
82879 32592 10502 10300 20129 39810 40070 81100 333 10370 59013=
82886 32694 21406 10301 20180 39690 40066 81200 333 10345 59017=
82893 32793 71411 10206 20198 39214 40112 87500 333 10285 59006=
82899 32570 41010 10280 20231 40126 84200 333 10326 59005=
82900 32595 61806 10261 20214 30115 40124 86200 333 10299 59007=
82975 32594 62708 10273 20169 39690 40070 82142 333 10324 59010=
82983 32595 20905 10306 20132 39673 40081 82100 333 10346 59020=
82993 32570 41203 10240 20237 40123 83230 333 59011=
82281 32970 00404 10270 20239 40086 333 10322 59008=
82022 32970 70000 10306 20230 40077 80001 333 10360
58000=
82824 21465 50000 10240 20237 40068 70196 82520 333
10280 59014 60281=
86330 11697 80000 10187 20181 40059 53009 60281 70292 8127/
333 10250 20182=
86360 11497 60000 10196 20190 40062 56007 69941 70196 8657/
333 10216 20180=
86460 11497 80000 10198 20188 40057 51004 60031 70262 8247/
333 10234 20188=
86500 11996 80908 10200 20190 40073 53006 60041 76096 8807/
333 10268 20200=
86560 11296 81712 10178 20171 40069 50004 69901 75022 887//
333 10201 20175=
86565 11396 80000 10188 20178 40075 55004 69911 76062 8577/
333 10237 20185=
86580 11296 71204 10172 20169 40054 57019 69971 71062 82770
333 10254 20170=
89050 32998 70412 11018 21042 40094 51004 82540=
89512 42998 30000 11121 21175 39822 49975 57001 80001=
89592 31996 61236 11134 21134 49799 52007 73831 86030=
89606 31994 22115 11535 21596 36126 47857 52007 73630 80008
333   21582 96110 96510=
33815 42598 71603 10112 20094 39936 40151 57008 87500 555
10010=
26825 41456 82903 10084 20078 39910 40072 54000 76162 8872/   333
88715   555 11007=
40706 32660 71205 1070 20008 38685 40216 56003 84970 92345 333
82935 83640 85359=
40718 11550 82103 10138 20128 30259 40228 51003 60091 75365
8662X 92350 333 86720 88457 =
40732 11460 80000 10144 20136 30231 40211 56004 60031 70262
8472X 92350 333 84715 88458=
40745 32960 03602 10036 21010 39093 40232 56004 92350 333=
40754 32660 40302 10144 20112 38834 40147 58006 81430 92355 333 81640
83360=
40766 32960 00000 10038 20016 38687 40146 503 92350 333=
40800 32960 00000 10084 20006 38453 40117 54000 9230 333=
40811 32960
03303 10198 20035 30112 40138 53003 92350 333=
40841 32960 00000 10090 21070 38262 40110 54000 92350 333=
40848 32660 10000 10160 20012 38533 40109 55001 81400 92350 333
81640=
40856 32960 00000 10078 21046 38650 40136 56004 92350=
40875 31956 00000 10226 20201 30089 40101 56002 71000 92350
333=
91765 12469 81015 10290 20263 30108 40112 57012 60024 87802
333 20263 56209 58004 70020 555 90200=
17098 32570 50208 10022 21024 38256 48560 54000 85500
333 85630 10237=
13168 31695 81703 10089 20085 30045 40151 52007 71022 885//=
13174 32997 02501 10080 20074 30052 40153 52015=
13269 11697 80000 10120 20112 39932 40143 58001 69961 70162
885//=
13274 11497 82702 10132 20118 39992 40150 52010 69921 70362
886//=
13378 11/91 92301 10056 20056 48501 54000 60071 76164=
13397 32998 01301 10105 20077 39624 40154 53007=
13457 11665 82301 10162 20149 30142 40149 52003 60071 72166
8452/=
44259 32598 4205/ 11045 21054 39263 40172 52016 82880 333
21046 55062 555 31070=
44277 325// 82710 11011 21061 37734 40063 53003 8654/ 333
21031 91220 55/// 555 31059=
44292 32897 20000 11103 21116 38660 40238 54001 82044 333
21113 55042 555 31126=
44304 32999 12302 11101 21107 38968 40236 52014 80002 333
21107 42000 555 31116=
34523 42997 00702 10055 20046 30163 40240 57006=
33902 41/04 90902 10080 20080 30123 40189 57006 74744=
33614 41340 80000 10086 20080 40197 57009 71022 886//=
33990 42965 03001 10102 20070 30109 40197 57009=
33177 41566 70901 10098 20065 39866 40098 53009 70282 87900=
38392 42997 00103 10038 20004 30196 40302 57005 555   10002=
38507 42996 00808 1010 20015 30126 40228 57001 555   10009=
38545 42998 00102 10051 20049 30089 40267 57005 555   10003=
38687 42996 03602 10030 20001 30009 40249 54000 555   10000=
38750 42997 01001 10102 20046 30247 40209 54000 555   10009=
38763 42997 00904 10093 21019 30122 40228 57004 555   10007=
38880 42997 00000 10051 20019 39997 40257 57003 555   10000=
38974 429// 02302 10065 20007 39909 40248 57009 555   10005=
38895 42997 00202 10053 21015 39966 40263 57006 555   10003=
38987 429// 02002 10039 21020 39503 4026 57006 555   10004=
38911 42997 00901 10057 20033 39945 40943 58002 555   10004=
38647 429// 01304 10100 21036 30185 40228 57009 555   10008=
38799 42997 03601 10019 21089 30007 40243 57002 555   10000=
38915 42997 00000 10062 20023 39920 40247 58002 555   10004=
38886 429// 00101 10050 20028 30025 40257 57008 555   10002=
38388 42998 00902 10059 20019 30209 40287 57008 555   18003=
38656 42998 00901 10060 20030 30168 40254 54000 555   10005=
23955 11476 62603 11074 21095 30072 40135 52009 69972 78582 86300
333 21118 46000 55078 82915 83635=
23966 11596 82401 11166 21192 30020 40154 57009 69902 78581 86902
333 21250 47016 55042=
28722 42663 72004 10049 20022 30108 40238 57003 87500=
29231 11496 81801 11121 21134 30077 40179 54000 69922 78587 883//
333 21195 47008 55006 85913=
29313 11496 82303 11110 21130 30063 40191 52003 69922 78581 889//
333 21118 47011 55033=
29612 32998 02003 11114 21127 30080 40238 52009
333 21118 47005 55000=
29634 12257   333 12557 23303 11111 21125 39994 40225 52040 60022
82400   333 21112=
29838 11596 83003 11040 21052 39971 40207 52062 60072 78683 883//
333 21042 47016 55000=
36061 11696 82805 11004 21073 39762 40168 52047 69982 78583 889//
333 21016 47002 55000=
28419 41496 82306 10051 20039 30067 40194 54000 71022 8872/   333
87710=
28621 42598 72202 10041 20029 39991 40222 53005 87900   333 87920=
29023 11996 81901 11116 21129 30049 40149 54000 69952 77172 8802/
333 21173 47013 55018=
29122 11496 82505 11095 21121 30088 40165 58001 69932 78582 883//
333 21142 47006 85914=
29328 32998 02002 11137 21157 30055 40202 51003   333 21190 47004
55000=
29348 12997 03301 11148 21161 30046 40199 52014 69932   333 21148
47002=
29405 12997 02403 11144 21164 30075 40230 52007 69902
333 21144 47005 55045=
29418 12998 02402 11111 21139 30057 40223 52007 69902
333 21134 47006 55028=
29430 11998 00000 11143 21163 30017 40203 52022 69972 77671   333
21143 47008 55005=
29524 12984 02402 11114 21127 30058 40229 52017 69902   333 21136
47007=
29605 32998 82203 11107 21127 30096 40244 58001 86072
333 21110 47003 55029=
29631 11997 02401 11101 21114 30029 40222 52033 60022 70271
333 21102 47011=
29706 32999 62030 11141 21158 30111 40266 52011 8000/   333 21157
47008=
29736 11497 83202 11047 21060 39940 40195 52049 60072 78587 883//
333 21047 47012=
29937 11597 82703 11053 21078 30013 40239 52063 0042/ 78583 889//
333 21053 47008 88930=
36034 11598 62905 11074 21095 30003 40287 52044 60022 70283 86900
333 21081 47004 84926=
28925 42597 81702 10046 20001 30053 40278 51001 885//   333 88622=
29557 32998 72901 11072 21089 39900 40172 52017 82031
333 21099 47001 55017=
29625 12598 52302 11120 21133 30058 40244 52026 69932 85500
333 21123 47005=
29642 11446 63404 11066 21078 39852 40185 52029 69902 78582 86300
333 21066 42006 84711=
29813 12499 82503 11073 21090 30050 40260 51026 69932 885//
333 21093 47010 88613=
29822 11997 03003 11127 21147 30082 40254 52047 60022 70171   333
21129 43013 55000=
29846 11495 83406 11045 21045 39749 40137 52027 60082 78588 889//
333 21045 47022 86712=
29915 11599 82704 11074 21091 30116 40282 52023 69902 70231 889//
333 21082 43004 86632=
36020 60022   333 21094 47008=
28537 41397 82711 10027 20022 39783 40200 58005 76165 8772/=
28451 41597 71801 11041 21046 39963 40124 57017 70272 875//=
28541 41458 82705 10022 20017 39695 40184 52004 76176 885//   333
88617=
30469 11997 80000 11044 21044 39343 40093 58004 69982 77172 8802/
333 21058 47014 55000=
30650 32999 82303 11066 21090 39014 40132 52004 8805/   333 21010
47013=
30664 32999 80000 11148 21154 39120 40142 52007 83042   333 11012
21178 55037=
30781 32599 80502 11024 21060 39615 40078 53003 8242/   333 21030=
30844 32999 22703 11070 21095 39189 40175 52008 82040   333 21071
47001=
30925 32698 70000 11057 21079 39198 40174 57004 83461   333 21058
47997 55008=
31478 32984 20902 11092 21123 39123 40239 52001 80001   333 21144
47027=
31594 32998 21102 10010 21066 39992 40161 56008 82030   333 21030=
31655 31997 00000 11004 21073 30168 40212 52006 70400   333 21049=
31754 32999 00000 10002 21050 39739 40238 52002   333 21121=
38774 429// 00000 10069 20036 30067 40265 53004 555   10003=
21432 12997 22103 11208 21214 30296 40307 53009 60012 82030
333 21224 48010 55000=
21824 32997 02201 11328 21344 30276 40286 54000 333 21330
48009 55031=
21931 32980 01801 11360 21385 30278 40314 52002 333 21370
47021 55000=
21946 11999 02202 11249 21267 30262 40348 52006 69900 333
21230 47015 55000=
25123 32497 82501 11216 21234 30270 40310 52015 77172 885//
333 21204 47008 55000 88611=
25551 42999 63402 11173 21192 30189 40221 52005 80001=
25563 41470 83207 11132 21159 30089 40171 51001 77872 8572/=
25594 42698 70506 11077 21094 30079 40101 58015 87500   333 91108=
31054 32999 00000 11332 21362 30013 40320 58004   333 21363 55062=
31123 32999 00000 11258 21276 39996 40292 53004   333 21270 47002=
44203 32999 70000 11164 21190 38327 40246 56006 84017 333
21206 48003 555 31253=
44207 32999 62301 11140 21175 38250 40226 58008 80008 333
21170 46000 55/// 555 31188=
44225 32998 80000 11129 21/// 38186 40231 56004 8802/ 333
21149 48006 555 31174=
44230 32998 63602 11109 21162 38728 40233 57007 83013 333
21111 555 31102=
44232 32999 30000 11114 21127 39045 40210 57003 80006 333
21118 555 31151=
44239 32999 62902 11118 2114538726 40206 56007 82048 333
21125 555 31131=
44256 12999 22705 11052 21077 39272 40132 52017 69902 82070
333 21064 47999 555 31090=
44272 32998 80000 11083 21132 38124 40136 56002 8807/ 333
21113 46005 55054 555 31116=
44275 32898 70000 11120 21147 37664 40219 56001 87070 333
21142 555 31189=
44284 32899 60000 11131 21202 37801 40247 54000 86010 333
21140 555 31175=
44287 325// 70504 11083 21141 38063 40186 56002 82552 333
21123 47004 555 31170=
44298 32899 52002 11094 21097 38682 40225 54006 85080 333
21087 555 31137=
44302 32999 12704 11075 21092 39070 40210 52007 81040 333
21080 555 31091=
44305 12999 03201 11077 21091 39025 40228 52019 60012 333
21086 93100 555 31123=
44313 32599 32707 11013 21053 39312 40144 52042 82408 333
21029 555 31052=
44314 32998 03207 11018 21093 39112 40202 52027 333 21039
555 31063=
44317 32998 12705 11050 21082 38911 40205 53012 81040 333
21056 555 38092=
44336 32999 60000 11105 21230 38699 40218 58006 82044 333
21106 555 31111=
44341 32999 60701 11063 21099 38561 40210 58004 84044 333
21080 555 31125=
44352 32999 02902 11044 21083 38898 40011 51008 333 21064
555 31096=
25173 41595 33012 11161 21180 30174 40179 53001 73831 83500   333
91115=
21982 42482 42804 11172 21222 30135 40141 58004 82531   333 91110=
26898 41457 82302 10065 20054 39922 40187 54000 71022 885//   333
88620=
26997 42465 81902 10067 20023 39968 40187 57008 889//   333 86914=
27595 42497 62708 10036 20018 39962 40205 58008 85530   333 85613=
27612 419// 02001 10071 20055 39990 40180 52003 71000=
27703 42478 82102 10060 20036 39948 40194 52001 885//   333 86715=
27707 42462 82301 10054 20035 39904 40197 52002 886//   333 88719=
27719 42497 82104 10058 20044 39958 40207 54000 886//   333 88711=
27786 42997 02105 10057 20041 30079 40240 53002=
27906 41395 71705 10074 20061 40203 58010 71022 886//=
27928 41945 01902 10056 20047 30024 40232 52001 71000=
27947 42997 01702 10046 20039 30082 40242 57003=
27962 42997 00000 10040 20022 40258 51002=
27983 42967 02402 10031 20018 30130 40260 53001=
28711 42997 02306 10026 20013 39862 40239 54000=
28807 41996 00000 10007 20004 30212 40264 57003 71000=
34009 41996 01603 10065 20051 39885 40187 57014 71000=
34123 42968 01402 10045 20040 30059 40244 54000=
34152 41995 01501 10023 20023 30070 40269 54000 71000=
34172 42960 02204 10063 20047 30086 40279 51002=
34186 41/05 92301 10018 20018 30149 40290 58003 74741=
34247 41955 00000 11001 21013 30150 40267 57003 71000=
34336 42998 00000 10031 20018 30157 40262 57001=
34391 31/93 92203 10014 20011 30265 40297 58002 74544=
35121 41305 82305 10038 20036 30151 40298 57003 74442 886//   333
88707=
25399 41569 63311 11110 21130 30122 40126 58008 73732 86500   333
86621 91117=
22113 42684 71503 11036 21080 30097 40162 52010 81531   333 91006=
22217 41584 60102 11042 21061 30110 40141 52020 70382 86500   333
86622 91003=
22235 42981 30801 11061 21065 39954 40156 53017 81042   333 91002
93508=
22349 42584 80608 11021 21042 30113 40125 52012 885//   333 91009
91113=
22602 42475 71301 10008 20003 39861 40087 51009 875//=
22721 41497 80000 10010 20010 30007 40108 51029 70282 889//   333
85711=
22802 41350 80000 10063 20063 30083 40106 52014 71022 886//   333
88708=
22820 42480 72702 10063 20054 39971 40107 51013 87500   333 87613=
26059 41596 71201 10062 20055 30067 40091 58004 71022 87500=
26063 41296 81201 10066 20064 30096 40103 54000 71022 886//   333
88709=
26094 41/04 90801 10054 20052 30051 40127 52004 74742=
26258 41456 80902 10092 20084 30012 40066 57027 76162 8802/   333
88517=
26298 41496 80000 10090 20081 39900 40125 58002 72162 8567/=
26477 42565 81405 10097 20074 39971 40096 57017 885//   333 88629=
26585 41496 82004 10080 20062 39880 40150 58002 71022 883//=
26702 41994 00000 10055 20053 30036 40062 57001 71011=
26781 42397 81802 10072 20065 39863 40152 58010 886//   333 88708=
27402 42997 72002 10092 20068 39974 40150 58002 8703/=
22028 42978 21602 11067 21075 30135 40173 52008 82040   333 91002
93521=
22106 42979 80401 11066 21078 30065 40147 52011 8805/ 333
91002 93503=
22127 42971 50302 11086 21097 39959 40169 52013 83031   333 91003
93608=
22324 41984 70603 11038 21046 30098 40149 52019 70182 80001   333
91005=
22621 41482 80301 11008 21015 39978 40120 52036 70262 889//   333
88917=
22831 42598 52703 10060 20049 30063 40123 52034 85500   333 85621=
22892 42598 81303 10073 20064 30082 40098 52002 885//=
26275 41395 81602 10097 20090 30078 40108 58005 71062 8872/   333
88708=
26389 41996 71801 10093 20076 39969 40229 57003 71022 87030=
26695 42297 81906 10068 20050 39864 40169 54000 886//   333 88706=
25621 11698 83202 11169 21188 39389 40278 52008 69990 77172 8352/
333 21169 47024 55000=
25703 11698 83602 11166 21208 30044 40329 52012 69900 77172 8352/
333 21270 47027 55007=
25913 32999 31003 11104 21201 30072 40226 52016 81031   333 21133
48022 55065=
25954 32699 83507 11075 21130 30131 40136 52018 82501   333 21076
55000=
31088 32999 03603 11155 21215 30231 40239 52016   333 21163 43025
55081=
31829 32998 09901 10054 21014 30204 40236 51011   333 21021=
31873 32997 00303 11009 21037 30081 40209 56001   333 21054=
31909 32599 53404 10033 21031 30160 40238 52005 82540   333 21014
55073=
31960 31997 02101 10058 21012 39984 40217 50006 70400   333 20022
55061=
32053 32598 12402 11038 21064 30203 40247 53013 81500   333 21090=
32061 12998 03501 11008 21043 30209 40248 51013   333 21038 47001=
32098 32598 63402 11007 21035 30246 40256 51019 81930   333 21061=
32150 32997 60000 10010 21016 30219 40249 52016 83052   333 21049=
32165 32599 80102 10073 20023 30171 40231 52012 82131   333 20049=
32215 11567 63208 10022 21057 40108 53018 60010 78782 86900   333
21019 42014 91015 91117=
32389 11599 72805 11057 21100 30049 40086 52011 69900 78582 87900
333 21108 43011 55000=
32583 32999 13407 11012 21083 30023 40053 52006 80001   333 21046
47001 91112=
32618 11598 61404 10011 20000 39961 49983 52008 69980 70282 85902
333 21018 47001 55047=
48300 31910 00000 10172 20169 39860 40175 71000
333 20166 58029=
48327 31950 00000 10160 20147 39792 40160 71000
333 20157 58016=
48331 31940 00000 10151 20144 39934 40174 71000
333 20140 58019=
48353 31210 20000 10145 20129 39875 40175 71000 82600
333 20141 58015=
48356 31958 10000 10149 20129 39965 40170 71000 80001
333 20139 58023=
48407 31958 40304 10184 20127 30001 40143 71010 80001
333 20176 58013=
48456 32560 30204 10209 20182 30119 40136 81206
333 20204 58014=
48480 31556 70412 10216 20126 30115 40119 70522 83556
333 20213 58020=
48551 01440 80000 10230 20223 30090 40099 60474 76196 84577
333 20228 58009 60177 70467=
48565 11558 70000 10244 20238 30078 40082 60164 71022 81136
333 20235 59008 70157=
48569 11440 80000 10238 20234 30050 40090 60194 71022 83876
333 20232 58005 70192=
48583 11557 80000 10246 20231 30084 40090 60024 71022 82156
333 20232 58005 70018=
23909 41396 81204 11083 21093 39907 40163 58015 77172 8772/=
28116 41397 80000 11053 21053 39929 40164 58014 70262 8872/   333
86707 93402=
28216 41/93 92301 10016 20016 39885 40167 58009 74764=
28321 41/93 92701 10020 20020 39965 40169 58003 74564=
28642 41495 82805 10042 20019 40199 52001 71082 8535/   333 85913=
48303 32960 00000 10140 20135 39724 40187
333 20127 58021=
48328 31956 00000 10157 20153 39877 40165 71000
333 20153 58021=
48330 31912 00000 10161 20158 39970 40164 72842
333 20160 58017=
48354 31957 00000 10150 20132 39952 40163 71000
333 20138 58025=
48376 31958 10000 10188 20175 30007 40154 71000 81040
333 20184 58019=
48377 31950 00000 10175 20166 39955 40154 71000
333 20170 58009=
48379 31930 20000 10169 20150 30004 40141 71000 80005
333 20168 58016=
48432 31940 10403 10175 20134 39981 40155 71000 80001
333 20170 58020=
48455 32564 30303 10226 20171 30128 40133 81143
333 20220 58024=
48475 31958 30000 10235 20165 30110 40122 71011 80005
333 20232 58020=
48477 31556 40106 10231 20176 30107 40121 71021 81142
333 20213 58024=
48517 31556 80000 10237 20203 30098 40103 71022 82146
333 20232 58011=
48325 31203 30000 10160 20150 39926 40178 74640 83600
333 20156 58037=
48383 31957 10000 10165 20125 39994 40157 71000 80001
333 20158 58018=
48403 32960 00000 10177 20123 39950 40166
333 20176 58021=
48405 31959 00202 10165 20117 39987 40156 71000
333 20157 58016=
48425 32960 00406 10263 20163 30131 40142
333 20207 58032=
48426 32960 00902 10210 20131 30133 40146
333 20202 58029=
48550 01420 80306 10250 20234 30085 40090 60654 76166 8582/
333 20237 58004 60047 70649=
48568 11459 82104 10250 20234 30081 40088 60124 71022 82877
333 20247 58006 70116=
44219 32998 70000 11065 21136 38520 40157 54000 87070 333
21066 555 31081=
44221 329// 80000 11097 21129 38491 40180 57006 8802/ 333
21151 47000 555 31154=
44224 32998 72304 11033 21110 37944 40090 56003 85037 333
21147 74007 555 31183=
44254 32998 02703 11062 21121 38981 40169 53013 333 21067
47007 555 31146=
44257 32998 00000 11062 21111 38936 40208 57010 333 21165
555 31120=
44266 329// 53204 11029 21075 37706 40143 58002 85080 333
21055 555 31094=
44291 31997 30000 11131 21151 38695 40144 53003 70400 80002
333 21164 44293 32999 22003 11060 21095 38426 40197 55002
80004 333 21083=
44325 32999 80000 11026 21083 38790 40180 57008 8805/ 333
21031 55/// 555 31054=
44329 32598 61805 11021 21051 37725 40161 57009 86500 333
21040 45001 555 31077=
44348 32997 00000 11056 21092 38668 40223 57008 333 21062
555 31106=
44386 32999 10000 11023 21161 39010 40190 57008 80004 333
21033 555 31075=
48561 12560 80000 10230 20222 30090 40094 60114 82547
333 20225 58009 70105=
48564 12560 60000 10248 20218 30079 40083 60384 83246
333 20238 59002 70383=
48570 11557 60000 10243 20233 30078 40086 60144 71000 81246
333 20227 58000 70138=
48580 11556 80000 10247 20237 30078 40085 60134 71022 85847
333 20239 58003 70311 =
30802 32999 80000 11143 21149 38623 48410 57007 82031   333 21148
46001 55038=
31388 32998 62601 11077 21099 39915 40182 56002 80002   333 21099
47003 55044=
30385 11978 80000 10062 21074 39587 40121 54000 69900 77172 8802/
333 21071 47007 55000=
23914 42999 00000 11136 21149 39911 40183 58012=
23921 42984 00000 11151 21164 30068 40195 51002=
28255 41972 00000 11089 21100 30066 40200 52009 70281=
28440 41596 83202 10011 20006 39836 40185 52006 76872 8872/=
28661 41460 82402 11017 21025 30105 40199 54000 70283 883//   333
88916=
40703 32660 73402 10076 20055 38958 40209 58002 85370 92350
333 82935 83640 87460=
40712 32560 70000 10064 20042 38719 40197 54000 8532X 92350
333 82930 83840 87458=
40729 012345Z 11660 62702 10044 20040 38363 40203 54000 60011
70282 86900 92345 333 83930 84635=
40736 3560 22403 10154 20143 30232 40205 58002 82700 92350 333
82725=
40743 32965 00806 10116 21054 39085 40203 54000 92350 333=
40762 32960 10000 10084 21014 38588 40174 56002 80002 92350
333 81070=
40768 31940 00000 10030 20025 38270 40193 54000 92347 333=
40769 32960 00000 10056 20035 38310 40148 54000 92350 333=
40785 32965 00000 10118 20086 39052 40146 54000 92350 333=
40809 11665 30000 100// 20021 38535 40129 56010 69902 70191
82432 92350 333 82635=
40821 32960 01903 10112 21003 38790 40135 53001 92350 333=
40831 32960 03303 10172 20055 30138 40146 53008 92350 333=
26141 41396 81201 10055 20048 40083 58010 71022 886//   333 88709=
28867 42498 72304 11069 21098 39959 40236 57025 87500   555 14107=
28952 415// 80000 10022 21018 30049 40245 57001 70282 889//   555
1/002=
34691 41993 81803 10044 20039 30310 40298 5/006 74442 8802/   555
1/003=
35108 41992 02001 10008 20005 40297 54000 74640=
35229 41/93 92701 10004 21005 30041 40319 53002 74542   555 10000=
35302 41/// 90000 10028 20020 40315 54000 74544   555 11001=
35406 41596 80000 10049 20037 40348 52002 71022 885//   555 10004=
35416 41/92 90000 10048 20046 74554   555 11005=
35532 42998 00000 10021 20008 39846 40341 52006   555 14104=
35700 41/91 90701 10046 20041 30331 40303 57005 74544   555 11005=
35925 419// 00000 11003 21009 30212 40325 58010 74645   555 10000=
36177 415// 82903 11049 21085 30059 40313 52033 78583 883//   555
1/106=
36208 415// 82406 11088 21095 39271 40284 52027 77173 8802/   555
1/109=
36535 429// 52706 11059 21089 39663 40311 53048 85030   555 1/108=
36639 429// 00000 11014 21043 39700 40313 52032   555 14104=
38222 42997 80000 10012 21076 39758 40325 53033 80002   555 11001=
38232 42998 00503 10062 20043 30198 40298 58010   555 11005=
38341 42997 32701 10004 21005 39528 40327 53001 83040   555 14101
91108=
38343 42997 80000 10040 20009 40315 52004 8801/=
28049 429// 51401 11092 21103 30038 40209 52006 85030=
28319 42498 82702 10046 20031 300// 10146 54000 885//=
28334 41405 80000 10011 20008 39875 40179 52003 75176 886//   333
88717 96046=
28434 414// 82701 10037 20030 39932 40186 51001 76165 8872/=
28552 41498 80000 11008 21021 30086 40200 53002 77072 8872/=
29111 11497 82302 11080 21098 30077 40168 53006 69922 78582 889//
333 21106 47003 88913=
29209 11598 12502 11123 21143 30069 40201 53008 69902 70281 81900
333 21123 47003=
29551 32497 63001 11073 21075 39996 40177 52016 85330
333 21093 47999=
29602 32983 01802 11113 21126 30098 40245 51001
333 21113=
29636 11598 43404 11091 21111 39980 40205 52025 69942 70281 84300
333 21091 47005=
29712 12998 00303 11150 21163 30111 40263 52017 69902
333 21152 47009=
29724 11297 82202 11112 21132 30044 40261 52030 69982 70231 8662/
333 21140 47007 86706=
29726 11998 22601 11110 21135 30064 40241 52045 60032 70181 80001
333 21113 47005=
29814 12999 02302 11114 21131 30125 40279 52020 69902
333 21115 47005=
29827 11997 02703 11111 21139 30101 40270 51045 69932 70230   333
21120 47007=
29923 11999 82707 11071 21100 39958 40242 52059 60032 70272 8802/
333 21072 47006 55000=
29939 11396 82604 11029 21039 39897 40185 52060 60042 78583 883//
333 21030 43012 88908=
36022 11598 83008 11068 21097 30020 40291 52038 60032 73683 885//
333 21082 48004 88628 91118=
36038 11495 82804 11071 21092 39833 40289 52045 60072 78583 889//
333 21071 47017 55000=
36058 11699 81901 10000 21065 39679 40199 52062 69922 70282 86902
333 21003 47997 55000=
29456 329// 72701 11112 21118 40172 52010 80001   333 21112 47008=
29467 32998 42102 11105 21118 40169 52012 84030   333 21110 47001=
29477 329// 00000 11103 21103 40158 52001   333 21103=
29576 32897 62501 11094 21106 40153 54000 82031   333 21095=
29587 116// 70000 11065 21073 40150 54000 69922 77172 82545   333
21101 47997=
29756 11870 83302 11074 21091 40175 53024 69902 77171 8802/   333
21090 55011=
29962 11583 73301 11068 21084 40145 53009 69922 78082 82971   333
21099 47997=
30157 11696 83303 11015 21059 39842 40122 52025 60032 78582 8797/
333 21030 47024 87938=
30713 32998 60302 11116 21136 39514 40187 58011 83071   333 21139=
29802 429// 72303 11107 21120 30120 40271 52006 83031   555 1/110=
29807 42997 22503 11110 21146 30157 40282 54000 82030   555 1/113=
36003 42970 52903 11109 21137 30145 40308 52014 82031   555 1/111=
21802 12984 81405 11219 21259 30181 40207 52004 69922 80007   333
21239 48020 55000=
24125 32999 80804 11173 21199 39906 40200 52005 86031   333 21190
47009 55000=
24329 32999 82701 11211 21229 39922 40251 52001 8801/   333 21259
47012 55011=
24343 11497 80000 11233 21258 30157 40286 52002 69942 77172 86607
333 21253 47016 55002 86715=
24382 32999 80000 11249 21258 30070 40344 51008 8807/   333 21288
47020 55057=
24639 32999 00403 11267 21285 30063 40231 57003   333 21267 47015
55069=
24641 32999 00902 11273 21298 30097 40254 57002   333 21286 48019
55000=
24652 11998 81104 11182 21208 30153 40285 53001 69902 77172 85037
333 21190 47019=
24656 11998 83501 11199 21211 30190 40300 53007 69922 77177 86037
333 21199 47021=
24671 31996 83401 11251 21275 39766 40320 52006 77172 8802/   333
21267 47015 55019=
24688 11498 80000 11310 21334 39366 40390 52010 69920 77172 83637
333 21349 47023 55039=
24724 31999 80606 11249 21261 39623 40196 53004 73631 86071   333
21253 48027 55075 91110=
24738 32999 20101 11305 21327 30007 40208 57001 80001   333 21308
47016 55069=
24768 32999 10000 11348 21370 30049 40320 54000 80001   333 21369
47014=
24923 32999 80703 11150 21184 39828 40146 52005 86031   333 21154
47018=
24944 32999 70702 11271 21276 39875 40195 54000 80001   333 21273
47009 55072=
24951 32999 00000 11273 21298 30073 40240 57006   333 21288 48004=
24959 11999 10000 11269 21286 30148 40291 52006 69902 70272 80001
333 21278 47010 55000=
24962 32999 30601 11354 21371 30101 40315 53008 80001   333 21361
47017 55069=
24966 42999 00000 11313 21330 30069 40313 53004   333 21343 47016
55076=
25400 11799 83302 11199 21211 30286 40346 52010 69900 77172 8353/
333 21199 48019 55000=
30054 11595 80000 11095 21111 39890 40135 52012 60032 78582 83937
333 21099 47039 55044=
30393 11456 89902 11085 21100 39116 40172 52003 69922 78582 86901
333 21131 47014 86919=
30493 11960 80000 11080 21090 39111 40168 57014 60032 77172 8802/
333 21105 48012 55000=
31137 32999 80601 11186 21213 39967 40270 53003 8807/   333 21333
47016=
36859 42999 32902 10036 20004 39514 40293 52009 80001   555 11001=
34560 41220 81104 10062 20056 30112 40278 57005 75154 886// 333 88703=
34858 41/08 91204 10075 20071 30142 40249 57006 74541=
34866 42498 81103 10066 20050 40272 57012 886//   333 81487=
34880 41/92 91002 10067 20067 40283 57010 74142=
37054 41121 80903 10097 20091 39834 40214 57011 75165 886//   333
88702=
37472 42964 21004 10128 20109 30246 40223 57012 80002=
34357 41/93 92302 10048 20043 30115 40276 57003 74740=
34363 41/92 92104 10043 20043 30136 40285 57001 74741=
34545 41295 81005 10069 20065 30150 40261 57005 71041 886//   333
88704=
34579 41/09 91203 10052 20050 30244 40287 57007 74342=
34655 32597 81203 10050 20048 30207 40266 57008 70222 885//=
34759 41/93 90905 10055 20055 30133 40265 57005 74541=
34929 41901 00000 10051 20046 30156 40198 57005 74440=
34954 42297 81601 10104 20084 30062 40232 57011 886//   333 88706=
37085 42996 00505 10118 20103 30276 40250 57007=
37145 41598 80000 10115 20111 30056 40221 57009 70282 885//=
37171 42996 00801 10107 20090 40190 58002=
37228 41295 81901 10077 20073 39397 40224 54000 71022 886// 333 88704=
26167 41/04 90702 10075 20075 39982 40093 58014 76364   333 96045=
27857 42997 01901 10038 20026 30080 40244 54000=
28909 42999 52402 10046 20026 30173 40273 53004 85030   333 10001=
37061 41556 80803 10098 20090 30068 40234 57014 71022 885//   333
88620=
35394 41496 80000 11080 21093 39630 40336 51002 71072 885//   333
83619=
35497 42598 82502 11061 21080 39518 40344 58004 889//   555 1/108=
40375 32960 03606 10138 20100 39275 40134 333 59015=
24988 32999 02802 11182 21215 30001 40269 52014   333 21225 4/046=
25378 42998 60203 11147 21207 30150 40185 58008 80002=
31263 32998 80000 11090 21115 39634 40226 57004 8805/   333 21124=
31866 32999 02405 10003 21029 30231 40236 52007   333 21031=
31959 32998 32302 10026 21001 30185 40228 52012 82031   333 21009
55048=
31989 32999 60704 10075 21071 30163 40216 53011 80001   333 20043=
32027 12999 23202 11028 21051 30244 40253 52013 69920 80002   333
21098 47002=
32076 11598 63001 11010 21028 30237 40247 52015 60020 70282 83580
333 21020 43012=
32509 32699 73214 11016 21130 39997 40031 52005 85530   333 21038
55/// 91016 91118=
32594 11599 53612 11014 21070 30057 40093 52015 69950 70281 85700
333 21038 43005 55/// 91016 91116=
35376 42598 82304 11030 21054 39876 40321 58013 885//   555 14102=
81200 22242 04264 20202 315// 40404 5//// 80241=
71826 16/// /2618 11011 21025 39967 49996 55004 60021 333 10010 21012
70052=
91650 31599 50805 10302 2024/ 40111 58004 70122 83831
333 20245 56999 83822 83080=
91652 36/// /0810 10263 20227 40118=
91659 31599 71414 10285 2023/ 40105 58005 70322 8483/
333 20219 5639/ 83825 87364=
91660 36/// /0713 10290 20270 40109=
91670 36/// /0409 10282 20252 40112=
91680 11599 61909 10288 20227 40109 57005 60374 70222 83832
333 20218 56999 82828 86080=
91683 31599 70512 10285 20230 40122 57002 70222 878//
333 20226 569// 84823 85650=
91691 36/// /0906 10275 20238 40123=
91693 31599 63005 10286 2023/ 40121 58003 70222 83830
333 20224 5699/ 83824 85360=
91697 36/// /0407 10269 20228 40123=
91699 36/// /0113 10255 20222 40130=
82979 32693 30902 10293 20175 39636 40089 83060 333 10348 59015=
82986 32994 01413 10261 20210 39822 40106 333 10334 59013=
83090 32995 01409 10254 20202 39590 40105 333 10335 59025=
83096 32694 20907 10253 20227 30116 40123 82500 333 10293 59014=
83097 32594 40905 10254 20229 30103 40126 84200 333 10332 58008=
83179 32/// 92304 10274 20197 39626 40070 333 10343 59010=
83182 32793 80910 10264 20109 39267 40092 81051 333 10338 59019=
83186 32997 01416 10277 20133 39563 40090 333 10333 59013=
83190 329// 01409 10232 20198 39709 40121 333 10329 59010=
83195 32893 20904 10232 20215 39894 40130 82040 333 10308 59004=
83229 326// 10504 10245 20207 30076 40136 81200 333 10298 59009=
83236 32696 80000 10259 20215 39605 40091 8802/ 333 10296 59008=
83242 32495 41402 10261 20162 39613 40093 83630 333 10343 59012=
83244 32994 00510 10258 20187 39832 40113 333 10344 59015=
83286 32/// 8//// 10235 20207 39445 40082 89/// 333 10282 59007=
83288 32892 81804 10226 20214 39608 40120 84087 333 10305 58003=
83339 32495 81410 10209 20188 39149 40122 8522/ 333 10289 58008=
83344 21696 814// 10192 20184 39145 40143 70262 8802/ 333 10256
59007 60401=
83398 21594 81802 10230 20225 30144 40149 76162 8572/ 333 10276
58000 60121=
83408 21594 80901 10233 20213 39608 40109 75055 88900 333 10302
58016 69931=
82287 32995 00511 10259 20233 30033 40059 333 10338 59017=
82480 32795 23605 10278 20185 39881 40061 82030 333 10366 59013=
82683 32594 21402 10290 20136 39637 40083 82100 333 10349 59009=
82686 32593 23604 10286 20184 39840 40083 82200 333 10362 59004=
82693 32994 00909 10273 20179 39845 40097 333 10359 59013=
82784 32595 60000 10275 20148 39630 40092 86200 333 10356 59012=
82791 32995 00913 10292 20164 39817 40099 333 10374 59011=
82795 32594 61408 10218 20197 39519 40135 86200 333 10300 59004=
82882 32993 01408 10316 20257 39642 40151 333 10361 59018=
82976 32594 02701 10284 20150 39496 40066 333 10342 59010=
40009 32970 00000 10070 20054 40158 58003 =
40022 32965 00401 10150 20100 40183 58003 222// 20000=
40030 32970 00000 10103 20076 40163 56004 =
40039 32970 32401 10089 20020 40157 55000 83050 333 83360=
40066 32970 00501 10154 20071 40160 56004 =
40072 32970 0000 10104 20036 40183 54000=
40083 32970 00000 10069 20028 48495 58006 =
63740 32570 50910 10181 20156 48487 85500
333 59016 85620=
83264 217// 83203 10236 20226 3//// 4//// 70066 8353/ 333
10324 5//// 69931=
83309 21/92 93601 10256 20242 39774 40094 71096 80000 333
10329 59038 60051=
58002=
83361 31595 63608 10280 20252 39915 40116 71422 83420 333
10390 59011=
83405 219// 00506 10270 20222 39930 40063 70564 80000 333
10346 59017 60051=
82193 32970 20507 10272 20244 40092 80001 333 10336
59003=
63612 32980 30901 10280 20164 40065 81040
333 59026 81358 83078=
63661 32980 70902 10152 20146 48509 84032
333 59030 84358 86078=
63723 32580 71605 10254 20223 40102 875//
333 59024 87623=
63766 32570 70907 10198 20188 48496 875//
333 59020 87620=
83721 31960 01422 10220 20169 39380 40109 53010 70500
333 10319=
82098 32/97 60502 10282 20224 30073 40090 8356/ 333 10332
29066 55089 58007=
82141 32997 00507 10275 20230 30092 40104 333 10316 29070
55103 58001=
82145 32995 00000 10250 20219 30052 40094 333 10337 29070
55095 59003=
82178 32/97 60000 10280 20252 30015 40058 84340 333 10334
29078 55/// 58004=
82181 32997 00505 10289 20235 333 10324 29069 55095=
82184 32698 30000 10285 20252 30072 40090 83200 333 10346
29082 55091 58006=
82191 32996 03603 10269 20241 30080 40086 333 10330 29079
55089 59004=
82198 32995 00507 10258 20227 30037 40088 333 10327 29077
55088 59011=
82246 32795 50000 10269 20252 39894 40091 85700 333 10320
29084 55044 5906=
82263 32997 00504 10282 20256 333 10344 29073 55093=
82280 32597 1//// 10256 20231 30028 40086 81100 333 10325
29074 55073 59010=
82353 32698 50000 10289 20240 333 10338 29074 55056=
82361 32996 00000 10286 20274 30055 40092 333 10345 29090
55015 58004=
82460 32997 03204 10295 20233 30059 40088 333 10374 29064
55071 59007=
82562 32594 81803 10249 20227 39988 40099 885// 333 10311
29084 55016 58008=
82564 32597 30000 10255 20229 81630 333 10325 29081 55000=
82571 32797 22702 10261 20242 39901 40099 82030 333 10307
29086 55010 58002=
82765 32/98 90000 10230 20218 39876 40116 333 10280 29092
55000 58008=
82861 21798 83204 10223 20220 39902 40072 70262 8572/ 333
10296 29098 55/// 58012 60031=
71871 32574 10342 10015 21013 39390 40205 53002 81570 333 10053 21059
70000=
91944 16/// /0114 10269 20232 30150 40156 56011=
91945 11465 70610 10267 20225 30149 40154 56012 60784 71586 878//
333 20205 56299 58022 84816 85640 555 10614=
83334 21395 83202 10212 20193 3//// 4//// 75195 885//
333 10266 5//// 69981=
83383 32595 80904 10240 20209 3//// 4//// 88400 333 10290 5////=
83384 325// 60000 10238 20210 39543 40120 86200 333 10297 59007=
83386 32595 80902 10228 20216 39589 40138 8271/ 333 10290 59004=
83388 214// 80503 10233 20193 39430 40099 76062 8572/
333 10302 58003 69961=
83393 32596 71401 10212 20182 39422 40144 84630 333 10241 59005=
83437 32596 73602 10218 20203 39402 40122 877// 333 10249 59008=
83442 21595 80504 10240 20186 39786 40133 75200 888//
333 10292 59005 69911=
83479 327// 20904 10244 20190 39336 40128 82030 333 10303 59011=
83483 32596 50504 10240 20193 39538 40121 82433 333 10294 59006=
83488 325// 81408 10183 20170 39126 40137 885// 333 10212 59008=
83492 21596 80903 10194 20177 39780 40168 70262 887//
333 10248 58016 60081=
83514 32997 00504 10270 20169 39412 40088 333 10337 59012=
83531 329// 20903 10226 20154 39067 40107 80002 333 10293 59007=
83538 326// 61402 10161 20157 38722 40151 86060 333 10193 59024=
83543 32596 80904 10218 20190 39994 40167 88020 333 10260 58008=
83570 32595 40901 10240 20193 39344 40112 83210 333 10320 59011=
83574 329// 00902 10288 20160 39512 40121 59015 333 10345=
83577 329// 00504 10233 20143 39262 40106 333 10330 59011=
83579 325// 20905 10218 20132 38992 40115 82100 333 10297 59008=
83582 32994 30000 10202 20164 39347 40112 53013 80008 333 10310=
83587 32996 00503 10207 20159 39124 40130 333 10265 59008=
83592 325// 60905 10193 20166 39468 40153 86500 333 10247 58001=
83595 325// 80902 10216 20192 30079 40165 885// 333 10255 58004=
83642 32992 03601 10200 20168 39358 40131 52012 333 10276=
83683 326// 30000 10208 20147 39150 40102 52006 82098 333 10306=
83687 32996 00506 10218 20134 39115 40115 54000 333 10293=
83692 324// 80906 10182 20156 39124 40170 53012 887// 333 10263=
82445 31395 80000 10278 20264 30056 40108 713// 8678/ 333
10346 29089 55047 58009=
48602 31556 70704 10243 20234 30091 40094 71022 82832 333 20233
58001 81820 87078=
48603 11056 70000 10240 20237 30090 40095 60034 71022 82148 333
20237 50380 58002 81700 87275=
48618 11064 80000 10249 20245 30093 40100 60444 71062 8497/ 333
20246 50540 58010 81917 83624 88469=
48625 31465 79901 10240 20228 30045 40093 70522 82942 333 20235
50440 59001 81915 83364 87078=
48632 32068 72904 10158 20138 38456 82132 333 20145 81701 83361
87078=
48674 11058 72504 10246 20243 30048 40098 69904 71042 82942 333
20235 50290 58011 81700 81917 84364 87077=
48679 31570 52201 10253 20249 30050 40096 71022 81542 333 20235
50350 58009 81622 85080=
86011 32970 20512 10328 20210 40036 54001 80005 333 10388=
86065 31570 73103 10358 20192 40007 53024 71322 85970
333 10398 84830 81940 87457=
86068 31570 80903 10360 20173 49982 52023 71392 8591/
333 10400 84620 81933 88458=
86086 32870 40504 10308 20206 40038 54000 82086 333 10354=
86097 31670 10208 10266 20191 40053 55004 71311 81900 333 10324=
86134 32970 40210 10298 20240 40033 53009 80005 333 10352=
86192 32970 40000 10284 20185 40020 51010 80002 333 10330=
86210 31670 60902 10274 20206 40043 52005 71321 81310
333 10336 81940 85458=
86218 31570 80705 10288 20217 40055 52027 71392 8497/
333 10345 83633 81940 88457=
86233 32870 70000 10284 20219 40036 52018 87070 333 10344=
86248 31670 21405 10294 20211 40050 53012 71311 81304 333 10347=
86255 21360 80902 10214 20207 40058 53003 79599 8697/
333 10350 60121 85614 81940 88357=
86260 21350 81802 10200 20198 40077 52057 79522 889//
333 10340 60241 88710 82920=
86268 32870 70502 10282 20187 4//// 5//// 85061 333 10346=
86297 21450 81120 10230 20175 40040 54000 79565 8397/
333 10350 60141 82615 81940 85557=
68174 11260 60508 10155 20142 38756 48482 57054 60011 71022 86600
333 10212 20154 91013 555 20014 91015=
68242 36/// /0208 10157 20132 38691 48465 57007
333 10252 20157 91011 555 91013=
68262 12365 70606 10166 20153 38674 48480 57010 69921 87600
333 10191 20164 91009 555 20002 91015=
68263 32570 60504 10140 20140 38453 48478 57010 86500
333 10170 20130 91007 555 91015=
68350 16/// /0000 10166 2//// 38619 48466 57011 60191
333 10240 20155 91003 555 20192 91013=
68368 11025 70209 10127 20126 38274 48472 57006 60003 74000 87600
555 91016=
68372 36/// /0506 10116 20115 38430 48494 57011
333 10181 20116 91007 555 91017=
68424 36/// /3606 10127 21049 39143 48456 57017
333 10265 20126 91008 555 91010=
68438 36/// /3404 10091 21005 38776 48465 57005
333 10210 20087 91004 555 91013=
68442 32/// /0000 10043 20001 38615 48464 57008
555 91014=
68461 32480 10000 10053 20053 38289 48484 57006 81500
333 10192 20043 91004 555 91016=
68512 36/// /1008 10178 21009 38967 48464 57018
333 10273 20165 91017 555 91011=
68588 11582 62504 10174 20139 30116 40132 57009 69903 70262 86500
555 91013=
68618 36/// /1012 10123 20013 39021 48478 57005
333 10260 20123 91014 555 91013=
68668 16/// /0000 10078 20058 39286 48479 5//// 69941
333 10171 20076 91003 555 20004 91014=
68714 36/// /1608 10172 20064 30063 40100 52853
333 10312 20172 91014 555 91010=
68828 12/// /3206 10113 20095 39919 40150 57018 69923
555 91015=
68842 11660 82816 10134 20117 30033 40107 57022 60093 76266 885//
555 91010=
68858 120// /3105 10110 20096 39997 40147 56014 69983 85550
555 91014=
82024 32795 80000 10310 20254 30006 40087 868// 333
10352 58016=
82042 32397 50000 10302 20276 86400 333 10360=
82106 32394 80000 10294 20276 40060 887// 333 10358
59017=
82113 32397 62302 10268 20248 81510 333 10349=
82240 32996 00000 10288 20254 30063 40097 333 10330
58007=
82317 31397 60000 10270 20240 71392 85960 333 10341=
82326 21394 80000 10254 20235 30056 40111 71396 887//
333 10328 58008 60061=
82331 31596 50000 10286 20264 30026 40108 71322 85300
333 10337 58020=
82336 32495 50000 10270 20258 8441/ 333 10334=
82410 32695 21402 10272 20247 81110 333 10373=
82425 21495 80000 10264 20244 30031 40087 71360 887//
333 10334 59004 60041=
82533 32695 20000 10246 20232 30034 40089 82030 333
10300 58010=
82610 32997 00000 10265 20248 333 10320=
82704 31697 30000 10260 20240 39819 40011 71092 82130
333 10341 58000=
82723 32396 70000 10252 20240 30010 40092 85500 333
10276 58002=
82807 21396 80000 10252 20246 76196 887// 333 10311
60171=
71119 36/// ///// 10049 21058 333 10079 21011 70000=
91843 31598 71416 10256 20179 40165 58020 70222 83801 333 20197 563/7
8
1
8
2
5
8
7080=
35188 424// 82104 11055 21085 39866 40314 58010 8657/   555 1/105=
35085 42598 82304 11070 21087 39799 40292 57013 885//   333 88620
555 1/108=
35078 41570 82110 11032 21067 39888 40274 57021 78582 885//   333
85929   555 1/104=
28978 41596 82507 11052 21062 39754 40260 57024 77173 885//   555
1/105=
35067 429// 72506 11024 21072 39984 40265 57017 87030   555 14103=
35173 42998 82504 11040 21074 39901 40291 57016 8802/   555 14105=
28879 414// 82308 11038 21056 39941 40233 57048 77173 8802/   333
88515   555 1/107=
38062 42997 00402 11024 21057   555 10104=
35969 429// 034// 11037 21081 30150 40330 52003   555 10105=
16734 32565 10505 10174 20168 30110 40173 58001 81200 333 90730 91110
555 40000 47614 44200 50000 50170 70000 77/I/ 7/I//=
29894 32798 50000 11124 21144 39038 40180 58004 83502   333 21132
55055=
30815 32999 60000 11101 21129 38465 48411 57005 80001   333 21015
47045 55000=
40250 32970 00000 10122 20075 39382 40158 54002=
40265 32960 20000 10110 20100 39414 40198 54002
82040 333 82360=
40296 32965 00000 10208 20148 40197 54001=
40310 32960 00000 10102 20082 38961 48515 54000=
40255 32960 00000 10140 20072 39454 40157 57004=
40260 32960 00000 10155 20076 39406 40175 54001=
40270 32660 30000 10140 20099 39281 40163 54003 83030
333 83360=
40272 31956 00000 10100 20093 39340 40166 54002 71000=
28679 414// 83004 11048 21061 30029 40212 57021 77177 8802/   555
1/105=
28766 41997 82701 11006 21024 30013 40204 57010 70273 8802/   555
1/101=
28966 415// 82506 11005 21046 39941 40227 57034 70271 885//   333
88695   555 1/102=
44231 31597 80000 11095 21165 38649 40220 56005 71522 8852/
333 21110 55089 555 31129=
44288 32699 50000 11080 21148 38097 40187 57010 85500 333
21096 555 31123=
44354 31997 20000 11075 21115 39086 40240 54000 70400 80002
333 21077 555 31096=
44373 32999 51403 11027 21078 38477 40183 56010 83078 333
21048 55095 555 31082=
29274 11957 80000 11072 21085 40180 53006 69922 77171 8802/   333
21081 47007=
29363 11597 60000 11115 21128 40161 53003 69902 78522 86900   333
21128 47011=
29068 119// 70000 11143 21156 40173 53008 69942 77177 80007   333
21146=
48615 11568 80000 10258 20249 30090 40096 60014 70522 8457/ 333
20249 50530 58007 84620 88469=
96413 11050 70000 10246 20235 30081 40107 60054 76062 84963 333
20238 50210 58011 82701 81915 86365=
47058 31505 81401 10052 20052 30176 40223 52015 74444 886//
333 20040=
47008 32560 80000 10064 20030 30159 40213 53015 885// 333 20031=
47014 31540 80000 11012 21018 39805 40213 57012 71022 886//
333 21025=
47016 42970 00000 11022 21047 39357 40231 52012 333 21028=
47025 32968 00502 10101 20071 30174 40203 54000 333 20059=
47035 32970 00503 10018 21023 30214 40223 52016 333 20001=
47041 32770 60501 10085 20061 30188 40215 52016 86030 333 20065=
47055 32965 60000 10116 20092 30166 40211 53014 84032 333 20104=
47069 32965 00000 10118 20065 30104 40202 53012 333 20078=
38196 42998 02504 10030 21008 40307 56002=
38198 429// 00201 10018 21007   555 14102=
38328 429// 00000 10042 20014 40282 56001=
38334 42998 01004 10043 20004 39332 40295 57003   555 10001=
38178 429// 00303 10017 20017 30013 40306 57003   555 11001=
38413 329// 01302 10038 21012 30011 40308 58001   555 1/001=
38439 42998 03605 10028 20001 39944 40286 57003   555 10001=
16643 32460 40504 10158 20154 30175 40179 54000 84300 333 82918 83630
90730 91109 555 40000 47664 44225 50000 50154=
16648 31540 31504 10122 20118 30071 40160 58002 71011 83800 333 82820
83645 90730 91105 555 40000 47586 44225 50000 50120 70000 77Y//
7/Y//=
16684 32960 01711 10186 20159 30120 40146 51001 333 90730 91116 555
40000 47623 44230 50000 50170=
40001 32970 00000 10117 20075 40161 56004 =
40007 32970 00000 10099 20045 40152 58002 =
40045 32970 00000 10092 20038 40180 58003 =
40061 32970 02603 10100 20033 40162 58004 =
40080 32565 21001 10088 20052 39462 40150 58005 82100 333 82830=
40095 32970 00000 10130 20098 39540 40162 54000=
35746 42998 00903 11004 21032 30256 40339 54000   555 11102=
35953 429// 00000 11029 21062 30209 40342 52003   555 10105=
35849 42998 00000 11016 21036 30248 40335 52001   555 10104=
38069 429// 00000 11009 21018=
16667 32960 00000 10138 20123 30178 40184 56004 333 90730 91104 555
40000 47662 44195 50000 50130=
44212 32699 71801 11067 21093 39002 40144 56012 87500 333
21079 55047 555 31095=
44213 32999 72304 11089 21109 38674 40145 57007 87010 333
21091 47010 555 31159=
44215 32698 70000 11056 21074 38297 40132 52003 87500 333
21088 555 31110=
44218 32698 52303 10002 21034 38466 54000 82500 333 21072
555 31101=
44237 32999 72303 11091 21121 38407 40155 57004 86013 333
21105 46000 555 31154=
44241 32999 30000 11091 21094 39200 40202 57002 80001 333
21093 46001 555 31100=
44265 11597 80000 11030 21030 38820 40227 53004 77172 8802/
47001 333 21040 555 31045=
44285 32799 70000 11117 21170 38252 40213 57009 87040 333
21129 555 31160=
44347 32999 60000 11053 21139 38658 40194 57006 80008 333
21065 555 31107=
44358 32998 00000 11065 21161 39061 40233 54000 333 21070
555 31110=
23074 32697 80902 11273 21304 30137 40164 52008 8552/ 333
21333 47021 85639=
23274 11797 71104 11189 21222 30105 40147 52005 60012 77172 8755/
333 21242 47042 55028 87650=
23383 12998 00000 11309 21325 39796 40188 51004 69922   333 21320
47035 55000=
23472 11470 80903 11168 21202 30099 40150 52002 69902 70282 889//
333 21207 47058 55000=
23678 329// 01902 11234 21252 30097 40161 57006   333 21234 47017=
23884 329// 00000 11218 21243 30089 40168 54000   333 21224 47013
55000=
23891 23891 12984 21901 11231 21242 39832 40191 52003 69902 80001
333 21232 47025 55000=
24507 32980 53302 11226 21238 39916 40170 51001 82031   333 21227
47022 55000=
24908 12480 80000 11143 21163 39822 40165 52002 69932 85937   333
21163 47020 55000 85919=
29263 12965 71801 11105 21111 30055 40159 53003 69902 80002   333
21119 47009 55015=
29282 32984 00000 11126 21139 39997 40172 53005   333 21126 47003
55000=
29570 32896 70000 11095 21107 39803 40159 53006 86031   333 21099
47002=
29698 32697 81302 11101 21101 39628 40154 57008 81942   333 21101
47947 55048=
29862 11682 80000 11052 21083 39813 40137 53008 69902 77111 8353/
333 21012 55009=
30230 11598 82103 11048 21088 39843 40172 52013 69902 70282 889//
333 21048 44012 55000=
30521 31495 81001 11132 21145 39663 40217 53001 71011 886//   333
21149 47005 55000 88710=
23973 32999 20000 11194 21213 30104 40171 54000 80001   333 21194
43018=
23975 329// 00000 11244 21244 30051 40180 52002   333 21249 47008
55000=
29253 329// 00000 11155 21174 39986 40169 52002   333 21155 47014=
29471 325// 20000 11110 21116 39926 40162 53002 82900   333 21110
47004=
29481 32599 50000 11081 21087 39908 40137 57003 82301   333 21085=
29553 32971 50000 11111 21111 39790 40168 52012 80001   333 21120
47013 55033=
29562 32984 50000 11129 21156 39730 40163 5//// 83032   333 21130
47013=
29581 32998 73001 11087 21106 39891 40153 57003 83031   333 21087=
29594 32699 80000 11070 21083 39757 40148 57005 8157/   333 21093
42001 55060=
29653 32997 73402 11072 21111 39657 40148 52003 80008   333 21097=
29675 32998 00000 11142 21148 39551 40167 52006   333 21142 47007=
29676 11696 60000 11077 21077 39711 40140 57006 69902 77171 84507
333 21106 47997=
29759 11561 80000 11094 21097 39122 40167 52014 60022 78582 889//
333 21121 48026=
29766 32599 80000 11092 21108 39786 40149 53005 889//   333 21102
46997 55056=
29864 11979 83303 11087 21098 39486 40148 53008 69962 77171 8802/
333 21114 47997=
29869 11670 70000 11056 21079 39766 40143 53012 69902 77177 875//
333 21082 95090=
29956 11635 71701 11054 21058 39582 40149 53014 60012 78582 879//
333 21054 47002 55033 95090=
30504 32997 20000 11087 21106 39494 40152 57008 81032   333 21091
41998 55081=
30603 32998 01302 11071 21105 39579 40157 57010   333 21087 41998=
30612 32999 01002 11047 21119 39626 40162 57010   333 21080 41///
55047=
30622 32998 20000 11189 21195 39545 40226 58004   333 21189 47004=
30703 32998 50000 11158 21171 39474 40177 56009 81072   333 21158
42006 55029=
47003 32970 00000 10047 20031 30203 40207 53003 333 20016=
47028 32564 82001 10013 21013 30204 40223 52013 886// 333 21016=
47037 32967 00000 10042 20003 30096 40220 52010 333 20006=
47039 32960 02001 10021 20016 30045 40239 57011 333 20002=
47046 32969 00000 10082 20064 30187 40211 53001 333 20062=
47050 31965 00000 10035 20027 30170 40204 52009 71040 333 20017=
47052 32965 00000 10044 20032 39888 40229 52021 333 20018=
47060 31950 00000 10089 20067 30156 40214 52005 71000 333 20069=
47061 11670 80504 10133 20100 30153 40196 52006 69902 70362
885// 333 20123=
47065 31910 00000 10053 20051 30156 40221 53020 74240 333 20032=
47068 32970 00000 10029 20021 30179 40214 52010 333 20006=
47070 31970 00000 10105 20067 30122 40208 53015 71221 333 20076=
30499 11998 80601 11060 21091 39501 40160 57004 69982 70272
8802/   333 21077 47009=
30683 32698 80000 11039 21041 40106 53004 8552/   333 21044 47001=
30695 32998 80901 11036 21080 39766 40099 56004 86074   333 21041
47004=
31253 32599 80903 11051 21101 39731 40192 57004 885//   333 21077
55000=
31348 32999 03602 11124 21137 30061 40264 52010   333 21203 47014=
31439 32999 23501 11061 21072 30207 40252 52003 81031   333 21105=
31445 32998 81302 11039 21058 39881 40134 56005 80002 333 21068
41998=
31474 32999 20000 11084 21121 35922 40225 57007 80001   333 21155
47007=
31587 32999 21802 11027 21068 39999 40145 57005 80001 333 21005=
31632 32998 01102 11011 21043 40236 52004   333 21097=
31713 32998 03604 11042 21061 30113 40216 53001   333 21069=
31801 32998 02901 11032 21042 30010 40239 57002   333 21091=
30455 11698 80000 11081 21083 38815 48385 58001 60022 74072 875//
333 21085 44008=
30549 32599 62702 11093 21114 38588 48384 52010 84970   333 21110=
30669 32699 80000 11096 21096 39225 40104 58002 885// 33321   105
47019=
30726 32999 21503 11064 21100 39597 40177 57004 82031   333 21073
41997=
30731 32599 82104 11031 21099 39555 40160 54000 83932   333 21032
43005=
30739 32999 12301 11048 21088 39344 40164 52006 80002   333 21050
45997=
30741 11598 63202 11086 21093 38731 48405 52010 60012 70272 86500
333 21107=
30745 32599 52203 11067 21091 39000 40154 52009 85500   333 21071
47007 55046=
30764 32999 80000 11094 21101 39303 40109 52004 85043   333 21109
41998=
30811 31997 00000 11119 21125 39285 40195 57004 74000   333 21115
47001 55000=
30822 32999 71604 11038 21071 39575 40157 57010 82032   333 21040
42998=
30824 32999 01802 11046 21073 39566 40154 57006   333 21054 42995=
30829 32999 43402 11073 21082 39486 40184 57004 81031   333 21074=
30846 32699 72506 11015 21111 39245 40143 52014 875//   333 21016
87639=
30859 32699 62904 11010 21067 39291 40113 52019 85530   333 21062=
30862 32999 82306 11045 21072 39365 40098 52010 8807/   333 21079
45998=
30957 32699 32704 11006 21094 39258 40140 52013 83300   333 21012=
30967 32999 22706 11028 21058 39320 40077 52022 82072   333 21065
41998=
31825 32999 00000 11036 21072 30045 40256 50003   333 21090=
31845 32999 00201 10003 21037 30059 40223 56001   333 21098=
31878 32998 01102 10014 21044 30085 40209 56001   333 21054=
31915 32998 09901 10021 21036 39946 40209 54000   333 21043=
31917 32999 02901 11007 21056 30081 40220 56002   333 21072=
31921 32998 02103 10008 21049 30109 40208 54000   333 21052=
31969 32998 02603 10032 21022 30168 40217 52008   333 20017=
31981 32999 02602 11014 21062 39973 40210 52004   333 21057=
31987 32999 23402 10027 21071 39965 40223 52009 80001   333 20016=
32069 12999 31105 11024 21050 30241 40246 52016 69960 83030   333
21031 43997=
44216 32599 73403 11085 21142 38876 40152 56004 83850 333
21088 555 31113=
44229 32999 62301 11137 21143 37838 40227 56002 81074 333
21152 48004 555 31202=
44242 32998 40000 11090 21097 39258 40191 54000 80002 333
21095 42001 55/// 555 31108=
44243 11999 20000 11091 21098 39358 40208 56004 69902 76672
82060 333 21107 555 31113=
44338 32899 22709 10029 21040 38421 40133 52003 82048 333
20006 45001 91114 555 31048=
44385 32999 20000 11028 21124 38869 40194 57003 80002 333
21032 555 31066=
29654 32599 72003 11072 21097 39538 40161 52017 82978   333 21114
47055=
24856 32999 00201 11350 21374 30113 40282 54000 80000 80000   333
21350 47006 55071=
30686 32998 80000 11046 21070 39731 40101 57003 8807/   333 21106
47008=
30777 11964 82102 11052 21081 39445 40095 53011 69902 77172 8802/
333 21053 47007 55044=
30961 32899 72905 11018 21056 39327 40102 53016 87030   333 21051=
30971 11999 80000 11048 21053 39103 40076 53012 60012 72272 8802/
333 21070 47003=
31624 32999 00000 11084 21090 40226 57008   333 11048=
31832 32999 00000 10016 21025 30126 40211 57006   333 21055=
24982 32999 03601 11187 21228 39737 40268 52006   333 21248 47030=
31913 32999 02001 10010 21019 30089 40203 57004   333 21040=
31939 32998 10000 11013 21030 39906 40232 53005 80002   333 21061=
32121 32999 79901 10010 21019 30221 40243 52013 87070   333 21025=
32128 32699 60000 10049 21050 30185 40241 51016 81133   333 20016=
34824 41996 01002 10087 20073 30195 40201 57006 71000=
40739 32965 00000 10114 20026 38691 40169 57005 92350 333=
36428 425// 83206 11045 21080 39776 40287 52042 889//   333 95090
555 1/106=
38462 42997 00000 10028 21027 38835 48568 58003   555 11001=
62306 32960 01802 10168 20135 40193 58011=
62318 32560 33405 10210 20150 40189 57006
83800=
62337 11558 62404 10186 20158 40169 58005
69942 76060 86800=
62366 32960 00702 10176 20137 40185 58004=
62393 32960 03304 10150 20101 40169 55002=
62405 32960 03102 10172 20103 40138 58003=
62417 32960 00000 10148 20116 40186 58001=
62440 32960 00000 10150 20134 40181 58006=
62463 32960 03020 10204 20125 40142 58006=
62465 32960 03617 10234 20153 40133 58008=
62414 32960 00406 10184 20060 40137 58004=
30537 32598 23005 11024 21106 39582 40156 58001 82900   333 21030
55000=
41112 32960 00000 10124 20011 37938 48517 333 59004 555 04410 50094=
31561 31/07 90202 11041 21041 40241 52008 74340   333 21101 7000/=
32010 12697 22401 11101 21114 40244 52017 60010 82100   333 21105
47008=
26446 41360 81603 10087 20081 39900 40087 58005 76362 8802/   333
88509=
48010 32540 10000 10190 20175 40163 81400 333 20150 56900 58008=
48045 32963 03203 10142 20107 333 20136=
48845 32698 70000 10173 20138 30189 40196 52015 82508 333
01017 20171 3/016 58015 82696 87299=
48806 32970 70000 10091 20086 39429 40233 52009 80008 333
00011 20088 3/007 58008 87299=
48840 32998 03203 10163 20136 30191 40197 52013 333 00016
20155 3/015 58020=
48846 32798 72702 10176 20145 30186 40189 52013 875// 333
00017 20171 3/016 58012 87697=
48866 32998 10706 10162 20110 39265 40158 52013 81040 333
01016 20133 3/012 58006 81399=
48875 32670 20904 10182 20150 39598 40143 52021 82500 333
00019 20162 3/017 58026 82696=
43025 55081=
20069=
51087 11965 82910 11046 21059 39263 40248 52046 60041 77076
8802/ 333 05255 31015 70045 91118 91529 92503=
58968 11556 81502 10183 20158 30188 40196 51017 69972 75065
885//=
58974 31456 83421 10190 20149 30072 40191 52022 71022 8552/=
59358 32660 23610 10191 20161 30143 40154 51013 82500=
59559 11570 50216 10236 20184 30110 40138 50006 69952 70262
84530=
59792 12563 60519 10242 20195 30147 40152 52016 69902 8326/=
59997 32565 80107 10267 20224 30097 40111 52016 82220=
59158 32665 60204 10201 20141 30058 40159 51015 86500=
59562 32675 80309 10227 20160 30147 40158 51021 885//=
59567 32360 80422 10211 20190 39763 40139 52013 885//=
83552 326// 40506 10282 20240 39872 40045 80006 333 10336 59042=
83565 32994 00000 10284 20191 39606 40062 333 10348 59037=
83618 32599 40000 10304 20200 39715 40079 5//// 70301 80100 333
10353=
83623 32996 00000 10296 20138 39491 40046 53012 333 10352=
83630 32997 00000 10236 20116 39015 40109 51011 333 10291=
83676 32994 20902 10276 20165 39480 40121 52009 80001 333 10342=
83704 32996 02704 10266 20192 39654 40047 58011 333 10338=
83716 31997 20000 10292 20186 39590 40072 53006 70392 82060 333
10336=
83726 32993 00903 10213 20148 39155 40106 51004 333 1////=
83773 31598 11808 10214 20164 39142 40006 53003 70022 80002 333
10315=
83821 32493 41411 10222 20194 30143 40148 51020 70211 84200 333
10264=
89061 11456 81012 11002 30010 40020 50000 60034 77072 887// 92318
333 10016 21051 88610=
89063 42198 81806 11021 21042 30022 40036 54000 8461/ 92342 333
11001 21042=
89062 42699 83628 10000 21035 39957 49998 52002 83548 333 10012
21069 83640 84359 87266 91237=
87097 31670 60502 10259 20208 39766 40068 53019 71322 81906 333
10338 20238 56808 57985 81935 85275=
87155 11460 82007 10211 20203 39986 40045 58001 60241 72196 8492/
333 10325 20206 56450 57990 83610 88540 81950 96617=
87162 01365 80503 10215 20208 30000 40075 52053 60371 79592 8692/
333 10352 20212 57900 56250 83612 86618 88460 82940=
87178 11260 81608 10202 20194 39940 40082 52045 60101 79592 8592/
333 10337 20202 56559 57990 83706 83950 85550 96495=
87270 11365 81407 10200 20191 30006 40067 52013 60011 70292 8672/ 333
10264 20186 56449 84708 86615=
87374 32565 82006 10206 20187 39998 40089 52021 8657/ 333 10239
20176 56449 86625 83360=
87395 11458 80000 10197 20189 30006 40050 54000 69941 71096 8552/
333 10219 20183 56459 85610 88557=
87480 32565 71809 10210 20178 30070 40099 52024 82876 333 10248
20188 56126 82830 82360 84270=
87497 31460 81808 10202 20189 30045 40069 53005 71022 84576 333
10227 20177 56569 84618 87360=
87534 32960 00000 10186 20122 39955 40115 52015 333 10238 20159=
87548 32962 01802 10191 20163 39997 40092 52013 333 10228 20182=
87563 11565 80000 10166 20163 30044 40089 51002 69971 70260 886// 333
10186 20150 56099 88733=
87576 11257 82006 10173 20163 30052 40076 50000 69921 71062 886//
333 10192 20164 56499 83705 88620=
87582 11456 61809 10192 20152 30068 40075 51001 69901 71052
87500 333 10215 20175 56400 82616 83623 86625=
87593 11460 81608 10170 20163 30056 40083 53003 69901 70252 8252/
333 10186 20164 56450 82610 88520=
87623 32982 02306 10192 20080 39896 40120 52008 333
10246 20157=
87645 32965 21804 10122 20118 39896 40102 52015 82070
333 64185 65122 56040 82360=
87692 11225 80000 10136 20136 30082 40107 52011 60141 72166 886//
333 10159 20134 56699 88704=
87715 32970 02302 10208 20006 39814 40129 52012 333 10252 20148=
87750 32965 00000 10127 20076 30025 40123 52016 333 10245 20109=
87765 32980 02714 10104 20003 39218 48509 52008 333 10165 20098=
70026 11361 83509 11106 21128 30090 40095 51009 69931 771// 92353
333 11078 21111 4/028 555 90200=
70133 11564 81306 11072 21089 30088 40093 50000 69951 771// 92353
333 21078 4/018 555 90200=
70231 12166 40000 11128 21139 39992 40126 58014 69901 92353 333
11122 21161 555 90200=
70261 12566 20305 11133 21156 39997 40178 58004 69901 92353 333
11111 21172 555 90200=
70273 32266 83607 11022 21056 30070 40122 58003 92353 333 11022
21056 4/003 555 90200=
70308 12566 62623 10039 20017 39877 49890 53003 69981 92353 333
10039 20011 91027 555 90200=
70316 31456 82315 10033 20022 39915 49954 53001 761// 92353 333
10061 20033 96010 555 90200=
70350 32666 80809 10050 21011 30040 40083 57013 92353 333 10050
21050 555 90200=
70398 11556 81215 10072 20056 30060 40101 56018 60051 761// 92353
333 10078 20050 91021 96010 555 90200=
78318 32565 20404 10238 20199 30159 40163 52007 82800 333 01900
10285 20203 30/// 59017 81820=
78325 31540 40704 10236 20163 30105 40163 53010 70400 84200 333
10264 20202 59011 70011 84820=
78333 32910 00501 10216 20165 30150 40156 53015 333 10285 20170
30/// 59006=
78338 31557 30701 10204 20167 30147 40161 53007 70500 83400 333
0/200 10262 20185 30/// 59010 81820 555 10902=
78349 32558 110501 10208 20165 30041 40154 52007 81200 333 01900
10273 20159 30/// 59013 81820=
78360 32568 10408 10258 20199 30119 40130 53015 81800 333 01900
10306 20220 30/// 59009 81820 92083=
78369 31464 70207 10266 20212 30119 40131 51007 70522 8423/ 333
02999 10284 20253 30/// 57870 59007 84818 87357 92045=
72201 32966 00709 10233 20167 30168 40176 52012 92353 333 10267
20222 555 90200=
72202 32666 40405 10239 20150 30178 40181 53012 92356 333 10272
20178 555 90200=
72203 32666 40308 10233 20139 30179 40185 53010 92353 333 10267
20150 555 90200=
72205 32966 20906 10200 20139 30157 40195 53012 92353 333 10278
20117 555 90200=
72206 32966 00000 10172 20122 30190 40198 53010 92356 333 10256
20106 555 90200=
72207 32966 00000 10144 20117 30181 40198 53004 92353 333 10256
20056 555 90200=
72208 32966 01803 10161 20078 30184 40197 53003 92356 333 10244
20039 555 90200=
72211 32966 23505 10217 20156 30175 40188 53015 92353 333 10283
20139 555 90200=
72212 35/// /2203 10206 20183 30177 40191 53013 92353 333 10283
20117 555 90200=
72214 31956 01503 10222 20200 30165 40186 52007 710// 92353 333
10289 20139 555 90200=
72217 32964 00000 10183 20150 30057 40186 53002 92353 333 10278
20106 555 90200=
72218 32964 00000 10150 20133 30135 40190 53002 92353 333 10261
20050 555 90200=
72219 32966 40000 10211 20156 39818 40190 53002 92353 333 10267
20144 555 90200=
72223 32961 01904 10228 20161 30105 40183 53001 92356 333 10294
20150 555 90200=
72226 32962 00000 10228 20139 30108 40179 55000 92353 333 10300
20128 555 90200=
72231 32961 61308 10244 20194 30161 40177 53005 92353 333 10294
20172 555 90200=
72234 31958 00000 10217 20161 30063 40175 55001 705// 92353 333
10289 20111 555 90200=
72235 32962 00000 10228 20139 30051 40169 55000 92354 333 10283
20122 555 90200=
72240 32862 81608 10244 20200 30143 40163 53000 92353 333 10283
20189 555 90200=
72243 11859 81505 10228 20211 30105 40143 53001 60031 710// 92353
333 10278 20200 555 90200=
72248 32766 81506 10233 20178 30041 40137 53002 92356 333 10294
20194 555 90200=
72250 32966 81512 10261 20211 30118 40125 53007 92356 333 10300
20233 555 90200=
72251 32766 61616 10261 20206 30109 40126 53008 92351 555 90200=
72253 12666 83203 10228 20211 39842 40118 53003 60021 92353 333
10250 20211 555 90200=
72254 15666 62906 10211 20189 39907 40124 53008 69901 92353 333
10272 20211 555 90200=
72255 15966 01706 10244 20206 30097 40132 51006 69951 92351 333
10289 20211 555 90200=
72259 12666 82004 10194 20172 39918 40119 51014 60091 92353 333
10267 20189 555 90200=
72261 35966 01106 10233 20106 39758 40116 53001 92353 333 10272
20222 555 90200=
72263 32966 02503 10194 20044 39459 40126 55000 92353 333 10228
20189 555 90200=
72265 32966 02606 10172 21072 39143 40123 53002 92353 333 10200
20122 555 90200=
72266 32966 03205 10178 20033 39502 40124 53004 92352 333 10228
20178 555 90200=
72267 32966 02610 10144 21006 39009 40118 53007 92353 333 10178
20100 555 90200=
72270 32966 02305 10150 21061 38808 40133 56004 92351 333 10161
20078 555 90200=
72274 32966 03308 10161 20011 39249 40161 56008 92355 333 10172
20050 555 90200=
72278 32966 22106 10189 20050 39766 40157 56015 92356 555 90200=
72290 32966 23112 10189 20100 30168 40179 56016 92351 333 10206
20122 555 90200=
72295 32966 42308 10172 20117 30140 40178 56016 92350 333 10206
20106 555 90200=
72304 35966 09904 10139 20089 30186 40190 53007 92351 333 10172
20122 555 90200=
72308 32966 03504 10133 20039 30182 40189 53005 92351 333 10167
20089 555 90200=
72310 32966 00000 10156 20072 30110 40193 53002 92356 333 10250
20022 555 90200=
72311 32964 00000 10189 20106 39900 40193 52001 92353 333 10261
20089 555 90200=
72312 32966 00000 10178 20050 39852 40191 53005 92355 333 10250
20061 555 90200=
72314 32966 20000 10133 20011 39923 40203 53007 92351 333 10228
20011 555 90200=
72317 32966 20000 10122 20033 39874 40204 53009 92354 333 10222
20022 555 90200=
72324 32964 00000 10206 20139 39942 40189 53002 92353 333 10272
20111 555 90200=
72326 32964 20000 10200 20083 39833 40190 53000 92353 333 10250
20072 555 90200=
72327 32964 21704 10239 20122 39967 40178 53003 92353 333 10289
20139 555 90200=
72334 32962 81805 10256 20139 30058 40159 55002 92353 333 10300
20167 555 90200=
72340 32961 81704 10233 20144 30052 40145 55002 92353 333 10278
20161 555 90200=
72344 11558 82104 10211 20194 39960 40125 53016 60011 710// 92353
333 10250 20183 96010 555 90200=
72351 32966 42406 10189 20050 39754 40115 53012 8/071 92353 333
10244 20189 555 90200=
72353 32966 22307 10156 20033 39650 40111 53018 92353 333 10239
20156 555 90200=
72356 12566 62207 10211 20178 39860 40098 53015 60191 92353 333
10239 20178 555 90200=
72363 32966 02505 10128 21006 38876 40111 53011 92353 333 10167
20083 555 90200=
72365 32866 43513 10094 21039 38367 40150 51004 92356 333 10117
20006 555 90200=
72374 35966 00505 10106 20000 38509 40169 56009 92356 333 10117
20000 555 90200=
72384 32966 03006 10178 20056 30019 40199 56011 92356 333 10189
20072 555 90200=
72386 32966 61106 10167 21028 39404 40172 56013 92356 333 10178
20083 555 90200=
72389 32864 83006 10161 20083 30082 40202 56017 92356 333 10172
20072 555 90200=
72394 32966 63011 10144 20106 30108 40198 56010 92351 333 10189
20067 555 90200=
72401 32966 20000 10100 20006 30136 40202 53005 92354 333 10183
20028 555 90200=
72403 32966 20000 10094 20000 30085 40203 53003 92351 333 10161
21021 555 90200=
72407 35966 02903 10072 20000 30155 40180 53015 92354 333 10172
20022 555 90200=
72408 32966 03411 10139 20011 30167 40188 53015 92354 333 10167
20056 555 90200=
72411 32966 00603 10167 21011 39778 40202 53012 92354 333 10222
20006 555 90200=
72412 35966 00000 10106 21050 39333 40238 53008 92351 333 10183
20000 555 90200=
72414 32966 00000 10139 21011 39860 40220 53004 92354 333 10206
21016 555 90200=
72421 32966 41304 10167 20011 39877 40197 56003 92351 333 10211
20089 555 90200=
72422 32966 00905 10172 20000 39844 40202 55001 92354 333 10217
20094 555 90200=
72428 32966 20804 10144 20000 39919 40218 53003 92351 333 10189
20022 555 90200=
72432 32966 01805 10228 20139 30027 40167 53003 92354 333 10272
20139 555 90200=
72434 32964 41613 10250 20150 39923 40123 55001 92353 333 10272
20150 555 90200=
72438 32966 21209 10178 20072 39893 40183 53003 92355 333 10211
20133 555 90200=
72440 12964 81712 10194 20167 39662 40112 55000 69981 92354 333
10250 20178 555 90200=
72445 11664 82112 10200 20167 39790 40111 53008 60011 761// 92354
333 10278 20161 555 90200=
72446 11466 82112 10156 20133 39710 40070 51015 60261 761// 92353
333 10217 20156 555 90200=
72450 32966 22305 10150 20033 39619 40093 53024 92356 333 10211
20139 555 90200=
72451 32966 03303 10094 20039 39206 40115 51023 92356 333 10178
20094 555 90200=
72456 12966 41807 10156 20133 39759 40074 53010 60031 92356 333
10211 20156 555 90200=
72458 35966 02616 10139 20044 39545 40069 53026 92355 333 10206
20139 555 90200=
72464 32966 02514 10122 21078 38483 40069 53009 92354 333 10167
20039 555 90200=
72465 12966 03304 10061 20022 38828 40105 51020 69901 92356 333
10122 20028 555 90200=
72476 32766 83505 10072 20022 38529 40151 55000 92356 333 10083
20017 555 90200=
72486 35966 03007 10017 21033 38105 40230 58003 92353 333 10039
21093 555 90200=
72488 32966 80206 10128 21067 38690 40204 56009 92356 333 10133
21021 555 90200=
72492 31932 03004 10172 20078 30196 40205 56013 705// 92356 333
10178 20061 555 90200=
72494 32466 82615 10139 20111 30210 40215 56007 92356 333 10161
20089 555 90200=
72503 32966 00112 10122 20028 30165 40176 53012 92351 333 10144
20072 555 90200=
72508 32966 03409 10083 20011 30100 40174 53017 92351 333 10139
20017 555 90200=
72509 32666 83512 10117 20044 30148 40153 53013 92354 333 10133
20050 91017 555 90200=
72515 32966 03311 10061 20000 39632 40227 51008 92356 555 90200=
72518 32966 00110 10061 21006 30099 40208 51009 92351 333 10106
21010 555 90200=
72519 32966 42805 10061 21006 30084 40233 51007 92354 333 10133
21021 555 90200=
72520 32966 43003 10106 20000 39780 40239 53005 8/001 92351 333
10167 21010 555 90200=
72524 32966 29903 10100 20072 39946 40236 53001 92351 333 10172
21010 555 90200=
72528 32966 60000 10089 20028 39972 40238 53006 8/008 92354 333
10150 20000 555 90200=
72530 32966 41515 10194 20089 39898 40141 56007 92356 333 10228
20117 555 90200=
72532 32966 01713 10233 20156 39878 40120 55000 92354 333 10267
20144 555 90200=
72533 32966 01306 10150 20011 39899 40201 55001 92354 333 10200
20044 555 90200=
72537 32966 01103 10117 20022 39978 40222 56000 92354 333 10156
20044 555 90200=
72546 11658 81610 10150 20144 39704 40048 58003 60171 795// 92354
333 10228 20150 555 90200=
72547 32862 21618 10217 20144 39700 40083 56015 92355 333 10239
20139 91022 555 90200=
72552 12866 82415 10106 20050 39390 40044 53031 69931 92356 333
10172 20106 555 90200=
72556 35766 82516 10133 20039 39465 40009 53016 92354 333 10200
20133 91022 555 90200=
72557 32966 02117 10150 20039 39623 40012 53004 92355 333 10206
20150 555 90200=
72562 12966 22923 10078 20000 39096 40076 51039 69901 92356 333
10094 20067 91031 555 90200=
72564 32766 43113 10000 21050 38066 40125 51014 92356 333 10028
20000 91019 555 90200=
72565 32866 42915 10072 21089 38273 40086 53017 92353 333 10117
20028 91023 555 90200=
72569 32966 42610 10006 21039 38315 40127 51007 92355 333 10050
20006 555 90200=
72572 12666 63012 10067 21033 38734 40193 58003 69901 92356 333
10072 20039 555 90200=
72576 35564 60312 10011 21044 38266 40141 53009 92356 333 10050
20006 91020 555 90200=
72578 11159 81805 10006 20000 38653 40206 53005 60031 771// 92356
333 10067 20006 4/003 96010 555 90200=
72583 35866 82907 10094 21011 38720 40218 56010 92356 333 10106
21043 555 90200=
72591 32966 00000 10144 20078 30088 40212 56012 92355 333 10150
20083 555 90200=
72597 32866 80000 10106 20050 39749 40236 58012 92356 555 90200=
72606 32666 83611 10100 20022 30143 40161 53015 92351 333 10128
20056 91018 555 90200=
72617 32966 00000 10033 20000 30094 40225 50001 92354 333 10072
21010 555 90200=
72635 32666 61111 10161 20011 39894 40189 58001 92356 333 10200
20061 555 90200=
72636 32966 01412 10178 21006 39942 40173 57007 92355 333 10211
20078 555 90200=
72637 32966 01305 10111 20017 39933 40217 53000 92353 333 10183
20017 555 90200=
72638 35766 41107 10128 20039 39783 40205 57001 92355 333 10189
20061 555 90200=
72640 32966 41513 10161 20094 39891 40142 56012 8/008 92352 333
10189 20094 555 90200=
72641 32966 01312 10200 20128 39802 40111 56009 92353 333 10233
20100 555 90200=
72644 11861 41716 10183 20167 39580 40048 58014 60201 761// 92354
333 10206 20150 91023 96061 555 90200=
72645 32966 01516 10150 20056 39880 40139 56011 92356 333 10189
20061 555 90200=
72651 32766 22009 10144 20050 39474 49978 53004 92356 333 10206
20144 555 90200=
72654 32966 62222 10100 20033 39509 49966 51016 92355 333 10200
20100 91026 555 90200=
72658 12961 61311 10183 20161 39723 40020 56022 60031 92353 333
10183 20150 555 90200=
72659 32966 81920 10117 20061 39473 49933 58003 92356 333 10189
20117 91026 555 90200=
72662 12766 83129 10056 21006 38925 40034 51026 69951 92355 333
10061 20044 91038 555 90200=
72666 32666 83027 10050 21050 38746 40128 51011 92356 333 10067
20028 91035 555 90200=
72677 32766 63122 10044 21039 38897 40152 53010 92356 333 10067
20039 91031 555 90200=
72681 32966 03109 10078 21022 39203 40222 56005 92356 333 10094
20006 555 90200=
72683 35966 02307 10083 21044 38761 40218 56012 92353 333 10100
21032 555 90200=
72688 32966 00000 10089 20044 39673 40220 56009 92356 333 10117
20028 555 90200=
72693 12866 81407 10111 20083 30079 40219 57017 69951 92356 333
10117 20033 555 90200=
72694 11666 81305 10100 20089 30143 40216 58017 69981 761// 92356
333 10100 20067 555 90200=
72698 11658 81104 10100 20089 30218 40225 58014 69951 710// 92355
333 10106 20067 555 90200=
72712 32566 83510 10044 20017 39962 40196 51009 92354 333 10089
20028 555 90200=
72745 11020 81213 10122 20122 39545 40062 55015 60021 710// 92355
333 10128 20078 555 90200=
72747 35462 81110 10156 20106 39604 40032 58017 92355 333 10156
20094 555 90200=
72753 12866 61313 10139 20117 39622 49946 56023 60141 92353 333
10194 20122 555 90200=
72764 11566 81707 10106 20094 39322 49910 53002 60011 761// 92352
333 10156 20094 555 90200=
72767 11448 83525 10006 20000 39350 40037 56012 60221 751// 92352
333 10067 20006 91031 96010 555 90200=
72768 32466 83316 10028 20000 39293 40127 50012 92356 555 90200=
72772 12666 80803 10022 21006 38832 40222 51006 69901 92356 333
10050 20017 555 90200=
72773 32666 83505 10039 21022 39098 40244 51005 92356 333 10044
21010 555 90200=
72776 12666 63108 10028 21011 38902 40207 53007 69901 92356 333
10050 20011 555 90200=
72777 15966 03213 10056 21022 39241 40183 53016 69931 92356 333
10089 21032 555 90200=
72779 35766 61707 10056 20000 39153 40218 50001 92356 333 10061
20017 555 90200=
72781 32966 02004 10106 21022 39827 40225 56011 92356 333 10122
21010 555 90200=
72793 32966 61903 10100 20039 30055 40221 56006 92356 333 10111
20050 555 90200=
72797 15766 89903 10089 20072 30128 40204 56014 69901 92353 333
10094 20039 555 90200=
70341 32966 80000 10006 21011 30078 40106 58004 92353 333 10011
21067 555 90200=
72306 32966 00000 10094 20039 30040 40202 53009 92351 333 10211
20006 555 90200=
72315 32966 00000 10161 20039 39436 40209 53012 92354 333 10244
20011 555 90200=
72402 35966 03003 10078 20022 30189 40189 53017 92354 333 10167
20033 555 90200=
72405 32966 23308 10128 20022 30175 40199 53004 92351 333 10167
20039 555 90200=
72406 32966 02705 10083 20022 30136 40194 53007 92354 333 10167
20017 555 90200=
72423 32966 41106 10194 20056 30007 40185 53003 92356 333 10244
20128 555 90200=
72425 32966 00703 10156 21028 39905 53003 92351 555 90200=
72429 32966 01209 10150 21006 39846 40211 53000 92352 333 10200
20056 555 90200=
72504 32966 00108 10100 20006 30166 40172 52017 92354 333 10133
20033 555 90200=
72507 32666 63508 10111 20028 30129 40151 51013 92351 333 10133
20061 555 90200=
72513 12966 03505 10089 21006 39858 40206 53016 69901 92354 333
10139 21021 555 90200=
72521 32966 40803 10117 20000 39775 40231 53001 8/001 92351 333
10161 20000 555 90200=
72529 32966 02403 10050 20006 30030 40240 55000 92354 333 10133
21021 555 90200=
72535 32966 01209 10161 20022 39898 40181 55002 92354 333 10217
20089 555 90200=
72536 32966 01005 10111 20067 39957 40215 53001 92352 333 10189
20011 555 90200=
72544 32966 01611 10228 20144 39879 40094 56004 92355 333 10267
20133 555 90200=
72592 32966 80000 10144 20072 30029 40210 56010 92356 333 10150
20078 555 90200=
72605 35966 03408 10083 20017 30046 40174 51019 92351 333 10139
20017 555 90200=
72783 32966 00805 10100 20017 39707 40234 58004 92356 333 10117
20056 555 90200=
72785 32566 40204 10039 20006 39380 40242 56005 92356 333 10050
21021 555 90200=
72791 17764 80905 10122 20106 30191 40200 56022 60021 761// 92356
333 10128 20056 555 90200=
87016 32565 40904 10258 20161 39647 40047 57055 83370 333 10363
20258 82625 81930=
87022 11657 81808 10208 20199 39562 40060 52089 60251 76322 887// 333
10385 20200 84730 88735=
87046 32660 82020 10210 20130 39070 48467 52029 8457/
333 1//// 20210 56470 84635 84360=
87047 32568 80000 10190 20148 38756 48477 52029 885// 333 10313
20190 56299 88630=
87121 31560 82708 10204 20162 39602 40107 52020 70422 885// 333
10248 20200 56599 88630=
87217 31770 60000 10209 20157 39626 40112 52023 70192 83550
333 10261 20195 56460 83656 83360=
87222 31670 83204 10190 20162 39593 40107 52025 885//
333 10254 20190 56599 88645=
87371 32562 62316 10224 20199 30074 40096 52024 84550
333 10242 20180 56000 84630=
87416 32970 10000 10201 20102 39387 40123 53017 81070 333 10250
20165=
87418 32965 00000 10192 20098 39334 40126 52019 333 10241 20149=
87436 32980 21407 10192 20090 39323 40130 53020
80002 333 10243 20130=
87448 32970 40000 10166 20127 39577 40137 52020 81076 333 10238
20162=
87453 32970 00000 10174 20119 39645 40132 52020 333
10226 20140=
87506 32670 13210 10157 21003 38578 48502 53015 81900 333 10208 20127
56600 57962 81935 95090=
87509 32575 30503 10154 20094 39294 40140 52024 82960 333 10247
20154 56660 57932 81930=
87791 32980 02707 10130 20020 30106 40115 52011
333 10225 20130=
87803 32980 02709 10101 21028 39242 40149 52019 333
10163 20095=
87828 32980 12318 10145 20070 30081 40132 52024 81040 333 10220
20145 56000 57300 81360=
87852 32684 12724 10105 20009 39621 40126 52014 81500 333 10176
20104 56600 81640=
87860 32980 03603 10122 20073 30074 40129 52020 333 10170 20116=
87896 11680 12008 10078 20049 30025 40121 52024 69901 70161 81500
333 10154 20078 56400 81640=
87903 32680 70000 10128 21058 39854 40116 52021 81471 333 10178
20123 56555 81640 84360=
87909 32980 20902 10098 20059 30045 40120 52015 80006 333 10158
20087 56004 82270=
87925 32980 72306 10116 20000 30085 40108 52021 83076 333 10175
20090 56050 83360 84270=
87938 32980 20708 10064 20050 30025 40095 52021 82060 333 10102 20064
56060 82357=
87257 32465 81805 10204 20192 30001 40102 52037 8652/ 333 10225 20148
56469 86620 85540=
87320 32670 50000 10194 20151 39590 40108 52028 85500 333 10264 20194
56900 85640=
87328 32680 71805 10185 20113 39465 40108 52009 84570 333 10258 20160
84640 95600=
87349 32970 41804 10194 20156 39741 40130 52047 84030 333 10228 20160
56040 84361=
87467 32970 71805 10196 20167 39980 40114 53028 87070 333 10246
20182=
87078 11460 80000 10222 20214 39889 40034 52057 60481 79292 84966
333 10392 20209 57980 84610=
87166 11459 82714 10218 20204 39978 40049 53007 60371 79599 8592/
333 10325 20203 56449 57980 82615 88540 83950=
87289 11460 80000 10200 20191 39978 40059 51004 60241 70216 8457/
333 10262 20190 56199 84615 85360=
87393 11960 80000 10191 20185 30002 40065 51011 60051 71096 8807/
333 10236 20187 56009 88360=
87344 32565 81804 10194 20144 39589 40129 52031 8357/ 333 10224
20170 56449 83630 85360 94260=
10042 20033 70008=
94103 35/// /2112 10284 30104 40111 52010=
94147 35/// /2908 10327 30076 40095 52008=
94151 35/// /3110 10310 30063 40083 52003=
94750 46/// /0808 10183 20144 39982 40111=
94129 35/// /3108 10314 30075 40098 52010=
94210 35/// /2311 10298 30104 40109 52010=
94289 35/// /3413 10271 30086 40095 52004=
94307 35/// /2319 10230 30075 40115 52011=
94371 35/// /3405 10254 30083 40089 52001=
96009 01430 80000 10242 20233 30071 40104 5//// 69974 70562 8552/
20230 50560 55083 56009 58006 69977 85617=
96011 31458 41704 10220 20208 30064 40087 5//// 70511 82531
333 20212 50590 55080 56000 58005 82620=
96035 11440 70000 10246 20240 30058 40090 53004 60224 70522 84576
333 20241 50550 55023 56000 58002 84618=
96091 31458 70000 10246 20238 30077 40100 52007 70521 83248
333 20240 55032 56000 57861 58003 83817 80860 86280=
96109 11310 80000 10242 20239 30046 40085 53010 60054 74664 8762/
333 20238 50690 55070 56009 58007 87708=
96163 32562 70000 10226 20223 30096 40103 52002 83531
333 20224 55/// 56000 58004 83630=
96195 01456 80000 10224 20224 30062 40097 60574 82527
333 20218 55047 56000 59001 60127 82615=
96509 01458 70000 10264 20252 30086 40093 52016 60294 76162 82221
333 20236 50230 55010 56000 57801 59013 60297 82815 87462 80860=
96581 11456 70000 10232 20229 30100 40107 52006 60044 70522 84131
333 20228 50510 55091 56600 57862 58012 84812 80860=
96633 32560 61807 10270 20241 30092 40101 52011 82931
333 20247 50220 55000 55508 51262 56000 57901 58009 81920 80980
85362=
96645 12456 70000 10240 20234 30073 40104 51007 60194 85372
333 20232 50810 55060 56000 57901 58005 81913 84613 80982=
96655 12356 80903 10244 20235 30091 40119 52005 60354 86572
333 20230 50000 55040 56000 86609=
96685 01360 80000 10246 20234 30086 40112 52012 60014 71462 86821
333 20240 50590 55006 56100 57802 58006 60017 82817 84610 80862=
96781 11540 80000 10228 20194 39285 69904 70522 83571
333 20215 56000 58004 83620 85460=
96805 01458 80000 10246 20240 30101 40110 51019 60264 76166 8622/
333 20212 50/// 55/// 56009 57802 58023 60037 86818 87459 80858=
97014 12560 60000 10278 20235 30060 40099 51006 60084 8////=
97028 12565 70000 10254 20235 30080 40085 52004 60114 83471
333 20220 50380 55009 56000 59015 83620 86360=
97048 31560 50904 10272 20238 30070 40094 52011 71422 82974
333 20242 55013 56000 57902 58008 81919 80980=
97072 32562 30701 10282 20223 30022 40124 51010 82521
333 20240 50610 55/// 56000 58000 82620=
97086 32560 30504 10296 20247 30083 40106 51016 82271
333 20248 50570 55058 56000 57000 58002 82820=
97096 12560 30000 10252 20246 30097 40119 60104 81501
333 20224 50500 55048 56000 58004 81620=
97120 32462 50000 10292 20234 30068 40101 52013 82931
333 20262 50640 55100 56000 57904 57804 59002 81917 84080 80980=
97146 11558 62705 10254 20234 40105 50/// 60054 70522 82531
333 20224 56000 58007 82620=
97180 12459 61202 10262 20243 30084 40102 50012 60114 83271
333 20243 5//// 55083 56000 59004 82819 80860=
97192 12467 50505 10286 20252 30054 40118 52010 60014 81170
333 20247 55089 56000 57804 59004 81817 84460 80850=
97230 12462 60703 10272 20246 30091 40098 52017 69904 82933
333 20258 50500 55082 56000 57902 58002 81918 82819 84075 80975=
97270 11458 30000 10268 20238 30100 40104 53014 69964 70510 83321
333 20200 50120 55034 56000 57902 58006 81913 82815 80960=
97430 32470 70303 10284 20246 30081 40110 84232
333 20248 50540 55080 56000 57872 58003 84818 80860=
97580 01420 80000 10248 20245 30125 40133 51022 60094 76362 84727
333 20236 56000 58015 60027 84713 86460 88274=
97686 11358 80000 10192 20166 38381 40113 52014 60114 70522 86876
333 20162 50520 55045 56000 58014 84809 82612 87360 80859=
97724 31459 50000 10300 20251 30076 40091 50/// 70522 83232
333 20240 50660 55010 56200 57823 58003 83819 80840=
97748 32467 62904 10304 20271 30103 40110 50/// 82232
333 20245 50430 55107 56700 57872 58005 82818 84077 80856=
97760 11467 73206 10290 20253 30085 40095 52013 60024 70262 83432
333 20242 55020 56000 57801 58001 83816 80580 80860=
97796 11460 73505 10284 20243 30071 40110 52015 69904 70522 84932
333 20246 55088 56000 57801 58000 81916 83817 86362 80860=
97876 32460 50000 10292 20249 30078 40110 51007 84531
333 20240 55055 56000 59006 84612=
97900 32570 22103 10292 20260 30085 40116 51009 82105
333 20235 50590 55103 56000 57805 58005 82820 80822=
97980 32470 30905 10306 20220 30083 40086 55003 82101
333 20220 50970 55105 56000 58009 82818=
96015 32560 60000 10217 20211 30074 40080 5//// 82534
333 20210 50530 55050 55508 50890 56000 58007 82620=
96033 11457 70000 10252 20246 30081 40087 53007 60114 70562 83978
333 20242 50104 55053 56000 57903 58004 81920 83617 80980=
96075 11430 60000 10224 20222 30087 40097 51001 60114 70511 84821
333 20160 55066 56000 57803 59001 82817 82618 80840=
96171 01450 70000 10236 20234 30067 40091 53006 60254 70596 85521
333 20222 50800 55079 56000 58014 69917 85615=
96505 31410 80000 10186 20186 39079 48090 74544 886//
333 20178 55010 56099 58004 88710=
96525 32465 40000 10266 20242 30090 40097 83101
333 20240 50300 55010 56000 59005 83815=
96529 12957 62805 10250 20233 30094 40118 53017 60084 85051
333 20237 50160 55012 56000 58007 85358=
96595 01340 70000 10242 20238 30056 40103 60024 71062 87532
333 20238 50330 55035 56600 58005 60021 87607=
96607 32558 22605 10264 20240 30097 40111 56004 82501
333 20236 50230 55000 56000 58002 82620=
96695 02558 60000 10262 20241 30095 40100 60524 84230
333 20240 50290 55039 56000 58003 60298 83620=
96737 31458 70000 10250 20223 30064 40113 52012 70522 84571
333 20230 50520 55003 56000 58005 84619=
96739 01558 70000 10240 20232 30038 40087 51004 69904 70562 85372
333 20232 50260 55000 56000 59003 69907 83620=
96751 12558 80502 10198 20191 39066 48920 52013 60014 8552/
333 20173 50540 55000 56609 59006 79999 85620=
96853 31556 80000 10258 20243 39974 40100 52018 70522 8457/
333 20254 56009 58007 84620 85462=
96857 11440 80000 10252 20249 40088 60194 76062 8357/
333 20244 56009 59001 83618 84460=
96881 11556 80000 10254 20239 30119 69904 70522 83571
333 20244 56000 58006 79999 83620 83462=
96925 01465 70000 10266 20248 30102 40109 52019 60044 72162 82272
333 20250 50360 55012 56600 57860 58003 69917 82817 84080 80860=
96935 01430 80000 10270 20244 30100 40106 52020 69964 76022 84912
333 20248 50390 55017 56000 57901 57801 58003 69907 81918 83818
80898=
96973 01460 80000 10267 20259 30094 40097 52018 69974 72162 84976
333 20259 50291 55074 56200 57923 58004 69977 81919 80977 83820=
96987 31557 82503 10272 20234 30042 40101 52011 70521 86238
333 20250 50541 55598 56400 57842 58001 83820 84620 80860=
97008 11459 72103 10284 20252 30074 40121 52019 60074 71522 83571
333 20/// 50/// 55000 56600 58002 83619 86460=
97016 11562 70000 10283 20240 30095 40097 52011 60034 70522 82172
333 20234 50130 55022 56000 57801 58005 82820 80860=
97126 12562 30000 10268 20238 30011 40069 51007 60054 81571
333 20222 50390 55062 56000 59002 81620=
97182 12560 60505 10291 20257 30105 52017 69904 82231
333 20260 50530 55082 56000 57802 58002 82820 86080 80875=
97240 31465 50000 10270 20236 30081 40101 52016 70511 81101
333 20240 50440 55052 56000 57804 58001 81816 85073 80860=
97630 31465 71702 10284 20249 39954 4//// 51016 70522 82842
333 20230 50360 55110 56000 57803 59009 81815 84079 80864=
97698 01459 80000 10252 20240 30129 40144 52014 60064 72162 8587/
333 20236 56000 57800 58027 60037 83815 82617 87461=
97722 32563 40000 10292 20243 30106 40121 50/// 83206
333 20232 50500 55095 56000 57802 58004 83820 80857=
97780 32463 63108 10196 20155 4//// 84932
333 20149 55094 56700 81914 83615 85361=
97790 11460 60000 10291 20251 30071 40092 50/// 60024 70522 83832
333 20226 50110 55012 56000 57802 58003 82818 80858=
71472 36/// /1526 10104 30032 40049 56020 333 10107 20079 70000=
63820 32480 31803 10248 20228 40101 83200
333 59021 83818=
83550 213// 8//// 10204 20191 30128 40159 75352 8472/ 333
10240 59001 69941=
83695 329// 00000 10214 21182 30043 40182 5//// 333 10262=
83698 32/// 60504 10218 20203 30159 40173 50115 8608/ 333
10232=
83718 325// 80000 10198 20166 39596 40174 52212 70222 88800
333 10258=
22522 41580 70603 11002 21022 30099 40108 52023 70272 87500=
22550 41565 80402 11055 21073 30094 40105 53021 70273 885// 333 88619=
22583 41496 70902 11069 21085 30052 40135 57009 77172 875//=
22768 41296 82003 10040 20038 30016 40071 53011 71062 886//   333
85705=
22845 41597 72403 10060 20044 39954 40108 52026 71052 87400   333
87625=
22887 41525 80703 10026 20026 30012 40081 57005 76165 8802/   333
88520=
23205 41465 80000 11067 21072 30137 40152 52008 78582 889//   333
88911=
27037 41496 82201 10081 20078 39980 40139 52018 75152 886//
333 88711=
27199 41/07 92502 10056 20054 40147 58005 74354=
27271 42297 82103 10070 20061 30001 40154 52003 886//   333 88705=
27459 41456 82702 10058 20049 30001 40195 57001 71011 886//   333
88710=
27730 42464 72102 10077 20062 30013 40205 58002 875//   333 87611=
22165 41456 70902 11019 21030 30103 40166 52011 78582 883//   333
88917=
22837 42884 21901 10064 20055 30050 40119 52015 82030=
22954 41964 52703 10064 20055 39871 40116 52019 70264 85030=
27066 41496 82103 10076 20076 39954 40127 52001 75155 886//   333
88710=
27083 41213 82203 10047 20040 39898 40119 57005 75154=
27113 41295 80000 10086 20080 39991 40134 52016 71082 885//   333
85706=
27242 42498 82301 10073 20062 30021 40147 52011 8802/   333 88513=
27329 42562 81901 10075 20067 30046 40170 52007 885//   333 88621=
27355 41556 82302 10061 20054 30013 40175 52008 71022 885//=
27373 41398 82504 10063 20056 39952 40167 52005 75152 886//   333
88710=
27665 41496 82403 10056 20044 39951 40221 58002 71011 886//   333
88712=
27823 42999 02003 10043 20026 39965 40224 54000=
28009 41391 81802 10006 20003 39926 40138 57016 74662 886//   333
88708=
22365 42497 70909 11028 20081 30114 40140 53003 87500=
22438 41564 81010 11029 21039 30085 40107 52020 73683 885//=
22446 41959 80408 11065 21070 30025 40124 53030 77202 86012=
22563 41295 80402 11059 21070 30066 40105 53003 77372 8872/   333
86706=
22641 41584 80202 11040 21049 30085 40101 52038 70287 8652/=
22854 41484 82504 10038 20033 39807 40091 52024 70265 886//   333
88710=
22867 41566 82604 10067 20058 39987 40099 52020 70262 885//   333
88620=
27051 32860 82302 10052 20048 39945 40109 54000 8803/=
27225 43496 81804 10092 20062 30022 40150 52003 885//   333 88620=
27252 41496 82304 10074 20065 39970 40152 52002 71022 886//   333
88715=
27369 42398 82203 10071 20038 40175 54000 886//   333 88709=
27393 41396 82302 10060 20053 30005 40171 57002 70262 886//   333
88709=
27479 42997 52406 10069 20046 30062 40194 52010 80001=
27532 41496 81905 10054 20045 39977 40190 52004 71021 8657/=
27648 42597 72203 10068 20045 30054 40221 52003 975//=
27679 42965 82003 10050 20028 30004 40227 52001 88040=
28214 41356 82304 10037 20035 39955 40165 58002 71062 886//   333
88707=
38806 42997 01402 10042 20017 39973 40238 57002 555   10001=
62600 32970 00210 10223 20037 39909 40122
333 58004=
62640 31968 03415 10245 20040 39734 40091 70700
333 59020=
62641 32970 03306 10220 20202 30064 40110
333 59014=
62660 31968 03615 10250 20060 3//// 4//// 70700
333 5////=
62680 31960 00206 10270 20120 39678 40067 70600
333 59022=
62721 32970 73210 10280 20070 39621 40053 80007
333 56009 59006 87275=
62730 32970 00407 10290 20170 3//// 4////
333 5////=
62750 32970 03604 10270 20090 3//// 4////
333 5////=
62751 32970 73602 10270 20115 39605 40058 80007
333 56009 59034 87275=
62752 32970 30704 10260 20140 39388 40053 83040
333 56000 59010 82365=
62760 32970 00203 10205 20030 39280 40097
333 59010=
62762 32970 03601 10225 20140 39577 40050
333 59002=
62771 32970 03405 10255 20061 39429 40066
333 59006=
62790 32970 73612 10250 21030 39373 40090 80007
333 56009 59011 87275=
62795 32970 71802 10255 20185 39555 40049 80007
333 56009 59008 87275=
62805 32970 70000 10250 20210 39503 40026 80007
333 56009 59012 87275=
83637 333 21349=
80001 333 21278=
91165 32466 60908 10270 20230 30094 90008 555 90200=
91182 32766 21705 10278 20222 30136 40140 56022 92353 333 10289
555 90200=
91190 32966 00311 10294 20228 30111 40141 56016 92354 333 10311
20228 555 90200=
91212 32466 61107 10300 20260 30038 90001 555 90200=
91285 31432 82604 10230 20220 30139 765// 90009 333 96010 555
90200=
91366 11469 81110 10274 20268 30086 40096 58005 60054 70286 8327/
333 20256 56229 58002 70053 555 90200=
91413 12469 70604 10296 20261 30091 40110 51010 60184 82378 333
20211 56199 58005 70180 555 90200=
91245 32566 40616 10300 20220 30154 92350 555 90200=
20046 41980 00000 11182 21194 30180 40210 52004 70231=
20087 11862 80607 11138 21151 30124 40135 57008 69902 77173
8807/ 333 21200 44014=
20292 12980 70804 11147 21153 30124 40144 53002 69902 8703/
333 21155 48///=
20667 41465 83204 11133 21153 30142 40151 51010 78582 889//
333 91106=
20674 11462 72703 11143 21170 30058 40119 52009 60012 77173
875// 333 21150 44038 55000 87614=
20744 42598 61504 11083 21130 30162 40181 52004 85500 333
85632 91106=
20891 11498 72804 11150 21184 30096 40140 52012 69932 78582
8635/ 333 21153 47//| 55000 86917=
23022 41396 81203 11091 21106 30085 40148 52014 78583 889//
333 87907 91113=
23032 42964 20203 11203 21236 30123 40157 52008 80001 333
91105=
23256 41998 80602 11234 21266 30072 40109 52020 77172 80006   333
93503=
23330 41596 81601 11138 21158 30137 40157 52004 77372 8651/=
23552 41997 52902 11211 21244 30054 40091 52020 77177 80006=
23631 41998 22801 11138 21158 30133 40177 52007 70171 80001=
23734 42497 70000 11088 21126 30085 40180 52008 87500   333 87616=
23849 42996 02903 11166 21184 40166 52013=
23933 42697 80802 11071 21100 30121 40182 52015 885//=
28275 41999 80000 11076 21085 30141 40203 52001 70272 8805/=
28493 42999 72102 11102 21122 30126 40222 52002 87500   333 87624=
28698 41984 82001 11071 21105 30077 40237 57012 77071 8802/=
23426 42984 30000 11199 21232 30145 40171 57006 80001=
23527 42984 00000 11151 21170 30037 40176 52009=
23625 42998 12702 11074 21100 30139 40173 52001 81040=
28367 41999 80000 11068 21080 30066 40198 52005 77172 80007=
28382 41997 22201 11094 21101 30133 40207 57001 70281 82030=
28491 42981 72101 11074 21095 30097 40211 57004 87070=
28593 42982 62003 11090 21101 30127 40228 58003 80006=
28598 41497 72503 11069 21089 30138 40243 57006 78581 87900   333
87915=
28786 42999 82804 11061 21072 30077 40239 57021 77173 8802/   333
88517=
28797 41596 72203 11067 21091 30090 40252 57010 77171 87500   333
87622=
28799 42998 82302 11095 21116 30104 40255 57013 8002/=
23929 32980 00000 11135 21145 40203 52006=
28383 41960 82403 11075 21088 40212 57002 77171 8802/=
28465 41598 80000 11050 21057 40201 57004 70272 885//=
28586 41596 81902 11071 21092 40226 57007 77172 8802/   333 88517=
28588 41956 82303 11066 21090 40228 57013 77172 8802/=
28688 41345 81803 11065 21089 40229 57022 77172 8872/   333 87707=
28696 42599 82103 11092 21122 40252 58005 889//   333 88922=
28791 41956 82104 11064 21076 40239 57017 77171 8802/=
29367 11984 00000 11129 21142 39928 40167 52005 69902 70281   333
21129 47006=
30253 11696 82502 11026 21029 39776 40127 52017 60032 78588 8692/
333 21028 43007=
23662 41996 81502 11156 21183 30036 40080 52002 77172 8802/=
23788 32998 70000 11239 21278 30096 40183 52002 80002   333 21267
47015=
23867 41999 22704 11104 21117 30053 40127 53006 70272 82070=
23986 11984 60000 11157 21176 40158 53003 69902 70272 80001   333
21172 47042=
29149 12998 01801 11230 21255 30050 40195 52004 69902   333 21230
47011 55017=
29203 69902   333 21111 47002=
29745 11998 83504 11050 21078 39883 40171 52036 60032 70282 80001
333 21050 47004 55027=
36087 32697 80901 11084 40268 58004 8455/   333 21088 47997 55032
95010=
36096 32698 50000 11090 21101 40149 54000 82531   333 21090 42001
55033 95090=
36231 11599 62603 11030 21139 39180 40187 52030 69942 70281 83401
333 21043 47005=
36307 32899 70901 11050 21126 38126 48406 58005 87030   333 21061
47001 95090=
83937 333 21099=
37031 42997 21103 10107 20086 30015 40208 57007 80001=
37018 42998 00403 10115 20093 30143 40192 57001=
30439 32599 20401 11024 21050 39586 40162 52011 82901   333 21029
43001=
26882 42460 71705 10059 20045 39902 40176 57002 87500   333 87616=
48375 31957 00000 10175 20166 39901 40133 71000
333 20170 58022=
48378 31957 00000 10197 20176 30091 40144 71000
333 20195 58016=
48381 31957 10206 10164 20130 39935 40166 71000 80001
333 20154 58020=
48431 31958 10902 10187 20128 39942 40162 71000 80001
333 20178 58025=
48500 11956 40112 10245 20148 30108 40114 69914 70510 82031
333 20237 58018 70001=
48351 31930 00000 10186 20168 30073 40149 71000
333 20180 58015=
48400 31957 00000 10190 20172 30105 40147 71000
333 20183 58025=
48462 32960 00502 10200 20137 30089 40146
333 20195 58023=
48532 31558 80000 10235 20212 30092 40101 71022 84876
333 20226 58011=
48310 31956 00000 10148 20142 39710 40178 71000
333 20142 58052=
48329 31930 00000 10160 20151 39814 40164 71000
333 20155 58016=
48357 31956 00000 10161 20145 39997 40173 71000
333 20144 58024=
48380 31558 23402 10200 20184 30056 40152 71000 81505
333 20197 58017=
48421 31/03 90000 10185 20180 30023 40139 74540
333 20161 58030=
48430 31958 00614 10220 20093 30125 40133 70500
333 20215 58028=
48450 31950 20502 10212 20168 30106 40140 71000 80005
333 20202 58031=
48459 31958 11005 10218 20165 30125 40128 71000 81030
333 20215 58019=
48465 31558 4//// 10215 20186 30124 40129 71000 81105
333 20205 58024=
48552 01440 80000 10238 20232 30082 40089 60524 76166 8682/
333 20228 58005 60097 70515=
48566 12560 80000 10245 20230 30083 40091 60544 83847
333 20243 59005 70543=
60360 11560 72504 10153 20144 40183 58002 69931 70162 878//
333 0//17 82826 86633 95990=
60402 32960 02606 10124 20113 40185 58004
333 95990=
60419 32570 20000 10102 20098 40188 54000 82500
333 82630 95990=
60475 32456 42608 10105 20099 39250 48526 53004 83802
333 82713 83820 95990=
60525 32965 83412 10158 20044 40184 51004
333 0//00 95990=
60566 32960 00000 10155 20084 40191 53001=
60611 32960 00707 10188 20024 40144 58001=
60630 32965 00000 10180 20047 40140 52002
333 0//00=
60680 32960 33603 10140 21066 38677 48541 58007 80002
333 83073 95990=
48315 31540 10000 10135 20130 39897 40180 71000 81100
333 20125 58016=
48413 31956 00000 10184 20177 30065 40148 71000
333 20181 58026=
48416 31950 10403 10177 20141 30007 40159 71000 80005
333 20146 58023=
48418 32960 00807 10185 20152 30091 40147
333 20180 58027=
48460 31958 20413 10300 20155 30097 40129 70500 80005
333 20237 58027=
48461 31958 40512 10223 20169 30052 40123 71021 82046
333 20217 58028=
48478 31559 33608 10235 20121 30115 40120 70500 81246
333 20235 58024=
48501 32560 80000 10257 20186 30099 40107 83576
333 20249 58022=
33506 41/92 91101 10053 20053 30011 40208 57008 74544=
24266 11997 82201 11276 21306 30140 40335 52003 69902 77172 8802/
333 21370 47010 55064=
60355 11660 41804 10151 20133 40186 54000 69901 70161 84200
333 0//15 84833 95990=
31168 32999 30301 11124 21196 30138 40150 52015 83040 333 21153=
44214 32698 32508 11041 21120 38163 40105 53001 83500 333
21042 91014=
44294 32998 53402 11154 21173 38513 40252 52013 333 21156=
98223 11570 60902 10241 20222 40104 50000 69904 70542 81271
333 20228 56999 58014 79999 81820 84360=
98325 31460 73608 10264 20245 40075 53009 70544 83470 222//
20604 333 20240 56999 58002 83616 86359 98346=
98328 31426 83601 10174 20162 38507 40084 53003 70544 8227/
333 20154 56999 58000 82815 88359=
98429 31558 83603 10260 20244 40091 52015 70544 8387/ 333
20255 56999 58001 83822 88459=
98440 11410 83612 10254 20254 40053 53010 60334 76366 8652/
333 20253 56899 59030 70328 86618 88457=
98444 11450 82704 10252 20241 40031 58005 60604 78182 8422/
333 20246 56999 59056 70602 84818 88459=
98543 11465 82304 10241 20236 40052 51017 60544 76166 8552/
333 20242 56999 59024 70540 84618 88459=
98550 11460 81801 10243 20235 40073 53017 60324 72164 8222/
222// 20101 333 20238 56999 59011 70316 82828 88457=
98630 32475 83403 10270 20257 40083 53016 8322/ 222// 2//01
333 20260 56999 59005 83818 88459=
98836 11565 70401 10272 20243 40090 52013 60044 70584 83206
333 20248 56999 58015 70041 83820 86081=
48004=
98135 11468 80404 10246 20231 40120 53017 60094 71564 8587/
222// 20301 333 20230 56199 58049 70092 85818 88357=
98232 31570 83601 10250 20230 40104 53020 70544 8227/ 222//
20201 333 20/// 56999 59025 82820 88358=
98329 31470 80000 10246 20234 40066 5/016 70544 8327/ 333
20228 56999 59002 83818 88357=
59015=
58010=
58016=
58022=
58024=
80002 11570 80000 10250 20241 60012 70252 8352/
333 00101 10276 20236 5610/ 83822 88458=
80022 31462 72702 10284 20247 30082 40084 70521 82421
333 10310 56099 59003 82615 83457=
80094 31464 72502 10208 20187 38811 70522 82870
333 10238 5600/ 58007 82815 85360=
80097 32570 70000 10276 20223 39730 40076 85205
333 10324 562/0 57892 59015 85823 83070=
80210 31460 50701 10214 20188 38643 70592 82836
333 10264 56700 59007 82818=
80222 41566 60502 10128 20096 37511 71552 83555
333 10197 56399 59003 83620=
80259 31460 50202 10226 20185 39034 70522 82505
333 10275 569/9 58001 82617 83070=
80315 31965 03603 10258 20215 39568 40056 70520
333 10304 58004=
62309 31958 02002 10160 20147 40178 58007
71000=
62325 32560 23404 10196 20141 40178 58009
82200=
62332 32960 03210 10202 20133 40184 58008=
62387 32960 03405 10145 20107 40183 58004=
62459 32960 03318 10206 20119 40115 58009=
71900 36/// /2314 10036 30170 40183 56015 333 10044 21025 70000=
71060 36/// /1905 10007 21125 38629 40193 51004 333 10062 21044 70000
931//=
71403 17/64 /3618 10107 20101 30064 40076 58006 69941 7//4/ 333
10116 20095 70060=
11014 21072=
87129 32570 81810 10240 20147 39876 40102 52024 8457/ 333 10260
20216 56490 84620 84540=
36021 115// 73104 11072 21089 30098 40285 52029 60012 70231 82950
333 21087 47004=
44210 41199 22703 11034 21108 38375 56005 69902 70272 82080
333 21047 555 31113=
44217 116// 82305 11082 21124 37746 40160 56004 73672 8382/
333 21083 46002 555 31094 93102=
44263 11497 80000 11048 21065 37993 40194 53001 69992 77172
8802/ 333 21049 47004 93102 555 31156=
44286 32998 61604 11052 21093 38577 40181 57009 86050 333
21156 555 31140=
62420 32960 00403 10172 20136 40192 58005=
62432 32960 02904 10212 20123 40160 54000=
62435 32960 03412 10208 20130 40164 56013=
62455 32960 03603 10176 20133 40177 56003=
98431 31470 83003 10266 20241 40067 51003 70544 83237 333 20240
56999 59012 83818 84360 88270=
98531 31460 83601 10250 20242 40069 53007 70544 82477 333 20240
56999 59007 82618 84359 88280=
98536 11465 83205 10264 20247 40064 53009 69964 78042 8327/ 222//
20101 333   20264 56799 59020 79996 83818 88357 555   0////
29996=
98646 32558 80000 10264 20240 40099 52020 82227 333 20260 56999
58005 82820 84558 88275=
98747 31465 80000 10254 20232 40089 52013 70544 8457/ 333 20235
56999 59001 84617 88357=
22408 41584 80000 11010 21012 39968 40118 52018 70272 875//   333
87622 93401=