ZCZC 000
SMCI10 BENJ 281200
AAXX 28121
84200 22200 00244 20302 309// 40303 5//// 6//// 80261 ICE /////=
81200 22254 00240 20302 80216=
54186 32970 02203 10181 20056 40024 52010=
53513 32970 70000 10259 20009 38909 40044 57006 80002 333//
05503=
51828 32970 13401 10304 20041 38551 49996 57012 80002 333//
05104=
54094 32660 31801 10187 20099 39704 49985 52005 83500=
53782 32980 71101 10248 20073 40100 52008 80002=
50442 32670 23404 10153 21072 49976 52033 82400=
59948 32573 70401 10299 20263 30055 40063 52008 82102=
50774 32660 22902 10197 20057 39653 49937 52002 82500=
59316 31565 41802 10278 20260 30083 40092 52011 70090 84400=
59647 32565 70902 10284 20265 40061 52015 81902=
59849 32565 71401 10284 20244 40065 52018 84102=
59845 11562 61801 10288 20247 40063 52014 69901 71398 83960=
54218 32980 02504 10260 21035 39411 40048 52005=
54337 32960 02206 10245 20084 39977 40058 52004=
57602 32865 80000 10203 20153 40122 52008 885//=
56096 32980 70402 10202 20092 38898 40096 52009 82042 333//
05303=
51133 32680 11403 10234 20050 39458 40073 57013 81102 333//
05407=
54602 32970 82202 10261 20126 40096 52004 80007=
53564 32980 61401 10248 20064 39122 40078 57007 80002 333//
05304=
53975 32970 71803 10218 20062 40122 52008 8703/=
53787 32980 71603 10228 20015 40098 52004 80002=
58569 32960 82202 10219 20183 40132 52021 8807/=
57127 11761 70703 10161 20126 39553 40146 52007 60021 70060
8353/=
57866 11440 80202 10236 20230 39889 40088 52015 60041 76066
887//=
56080 32680 40000 10136 20020 37137 57002 81462 333// 05208=
54527 32970 71402 10250 20170 40094 52005 80002=
54662 32970 02701 10227 20062 39975 40091 52007=
59855 32575 71803 10290 20265 40063 52018 81102=
53480 32980 22502 10188 20029 40104 52004 80001=
57516 11550 83601 10185 20158 39816 40120 52007 69911 71060
887// 333 00353=
59954 32575 70000 10289 20261 40066 52012 82902=
51709 32880 72705 10285 20049 38633 40013 57002 84962 333//
05201=
51705 32780 72205 10227 21027 37789 57003 83902 333// 05203
91120 91529=
51716 32970 10902 10302 20029 38795 49998 57013 81062 333//
05203=
58834 11658 80402 10234 20228 40115 52034 60401 79598 889//=
56666 11780 61401 10285 20172 49972 57019 69901 70098 86400
333 05104=
58122 32970 82501 10232 20148 40138 52008 8807/=
89664 32961 05004 11280 21330 30214 52064
333 11220 21300 58085=
89009 41661 30505 11690 36937 52008 77600 80008
333 11618 21692 83241=
78663 32970 52002 10202 20196 39431 40113 5//// 80032
333 00/2/ 10276 20202 31/// 59007 84362 83080=
89054 32962 21504 11034 21042 40182 52010 80005
333 11018 21054=
89056 31215 31106 11039 21041 40194 53009 71041 83500
333 11023 21048 41999 55000 73300 83603=
89057 31205 71502 11038 21038 40201 52013 74621 87600
333 11023 21050 43005 55014 73000 87704=
89058 31509 21406 11035 21035 30176 40191 52009 74840 82600=
89059 32960 02411 11010 21039 40181 52016
333 10010 21040 44023 55040=
89251 32565 11413 11043 21053 40170 54000 81500
333 21050=
91348 11474 71306 10263 20239 30063 40115 52010 69901 70282 83106
333 10300 563/9 58002 70074 555 92812=
54916 32960 72003 10237 20124 40126 52006 80002=
70200 80001 22225 00180 20301 30000 80198=
283073 279066 274071 283073 292076 291074=
320103 318099 320096 319098 320096 317092=
50854 32770 82901 10260 20052 49953 57003 885//=
50788 32570 22002 10195 20073 39851 49931 57006 82100=
50136 32670 73206 10102 21011 39482 49990 52004 87900=
50658 32680 52503 10238 20019 49938 52007 85500=
50968 32670 12202 10185 20105 49978 57006 81500=
50888 32980 02003 10188 20071 49948 57001=
54096 32970 02703 10159 20064 49990 52013=
50983 32970 03201 10162 20117 49954 52005=
50557 32670 73607 10199 21019 39677 49954 52025 87800=
50756 32670 72704 10240 20016 39674 49947 52002 83802=
50844 32762 73605 10267 20016 49954 52007 875//=
50246 32680 23203 10094 21021 49980 54000 82402=
50745 32662 72907 10256 20011 39787 49955 52005 86902=
50353 11670 42703 10135 21024 39757 49966 52007 69901 70080
84900 333 91117 91534=
50468 11575 63603 10153 20023 39764 49957 52036 69901 70098
85202=
57793 11656 80702 10225 20210 40101 52019 69971 72160 885//=
57290 11962 82703 10181 20157 40140 52005 60021 76066 8802/=
59644 32565 70903 10286 20261 30043 40058 52009 81902=
57476 32962 83606 10220 20136 40123 52014 8807/=
54471 32965 02004 10210 20111 30071 40076 52008=
54497 32980 12902 10225 20071 30058 40072 52022 80002=
56386 32865 72201 10204 20153 40116 52003 875// 333 00252=
59134 11557 80904 10231 20222 39956 40115 52016 69921 71098
881//=
53915 11780 80902 10120 20096 38647 40143 57006 69901 72160
885// 333// 00157=
53463 32970 50000 10220 20051 38918 40089 57006 80002 333//
05102=
58606 11757 80000 10246 20224 30039 40092 52011 60031 71060
885//=
58813 11661 80000 10262 20245 40078 52014 69921 70080 8746/=
58527 11660 81402 10278 20201 30020 40092 52020 69901 72100
885//=
58506 11/00 90708 10161 20161 40125 52010 69901 76040=
58549 32761 81102 10243 20175 40117 52016 8657/=
54857 32965 72002 10208 20147 30020 40109 52006 84032=
59058 11957 70000 10248 20244 40076 52013 60041 71096 86042=
54401 32980 20901 10237 20052 39279 40092 57001 80002=
54263 32580 12503 10208 20054 40033 52012 81400=
54276 32970 02202 10157 20069 40056 52012=
54181 32975 12004 10194 20099 40012 52006 80002=
54377 32975 02501 10194 20084 40068 52022=
54386 32970 00000 10144 20053 40058 52022=
58477 32465 83401 10198 20145 30097 40140 52022 86107=
58647 11657 80404 10206 20201 40123 52019 60081 76060 885//=
58659 11650 80901 10207 20191 30106 40140 52020 60021 78080
885//=
58667 11556 82702 10195 20184 40141 52015 69981 71060 8757/=
58457 32762 80705 10223 20178 30083 40133 52029 885//=
58543 32965 80905 10261 20174 40115 52017 8807/=
58660 11760 81401 10233 20189 40131 52014 69901 76060 885//=
57993 11862 80000 10265 20245 39944 40087 52018 69961 76060
885//=
57766 11430 80203 10209 20201 40102 52016 60021 76066 8772/=
53593 32980 21401 10235 21013 40096 57001 80002=
59209 11565 60000 10246 20216 40056 52007 69901 70086 82402=
59501 32575 21803 10284 20256 30081 40097 52010 82100=
54843 32965 70402 10232 20147 30080 40106 52011 80002=
57504 32966 81601 10200 20150 40113 52006 8807/ 333 00252=
56287 11570 70000 10201 20139 40123 52010 69901 76000 8174/
333 00151=
53898 32965 71804 10261 20131 40108 52001 8703/=
57067 11463 82001 10155 20152 39503 40164 52001 60041 76166
8272/=
59254 11565 83201 10275 20255 40062 52013 69911 78098 889//=
59493 32975 71602 10299 20245 40081 52013 80002=
59838 32780 71402 10301 20255 30039 40053 52009 874//=
57006 32980 70902 10148 20091 40131 54000 8703/ 333// 05200=
59431 11670 80000 10249 20246 39916 40060 52011 60431 70098
885// 333// 91130 91522=
59673 32575 71803 10282 20263 40078 52015 82202=
59096 11570 80000 10251 20228 40089 52011 69921 70098 884//=
59298 11662 81402 10287 20258 40080 52015 60011 71380 889//=
59082 11665 70000 10274 20251 30001 40075 52014 69901 70080
86442=
59087 11961 71801 10265 20255 40082 52015 60031 70098 82042=
57996 11661 80701 10250 20244 40081 52014 60481 70098 884//=
59317 32562 71402 10275 20254 40096 52014 874//=
59664 32470 71403 10289 20267 40070 52010 871//=
59271 11560 83401 10264 20253 40076 52021 60021 79598 889//=
59278 32568 80401 10270 20246 40072 52014 83463=
53352 32980 72003 10220 21040 40077 57005 80002=
53231 32970 51808 10220 21118 38429 57006 80002 333// 05401
91117 91516=
53391 32980 02203 10188 20011 38486 40089 52001 333// 00106=
53276 32980 22006 10219 20007 38808 40070 57004 80002=
53083 32980 22507 10238 21115 40024 57001 80002 333// 05406=
53068 32980 72704 10263 21081 38977 40035 54000 80002 333//
05406=
53336 32980 72005 10239 21070 38653 40041 57009 80002 333//
05303=
53149 32980 22205 10236 21070 38722 40048 57010 80002 333//
05303=
53529 32980 41604 10229 21054 38577 40063 57007 80002 333//
05302=
57687 11330 82703 10200 20184 30025 40103 52022 69991 76060
8772/=
53543 32980 71803 10213 21038 38516 40086 57004 80002=
59023 32561 80000 10262 20239 39821 40061 52013 888//=
56571 32780 71801 10215 20158 38334 52006 87402 333 05205=
57411 32968 80701 10177 20152 39763 40125 52005 8807/=
56188 31957 70000 10207 20135 40110 52009 71000 8704/ 333
00001=
56294 32965 82004 10220 20124 39538 40115 52005 8807/ 333
00151=
56459 11880 72203 10222 20099 37595 57001 69901 70080 879//
333 05106=
56475 11580 80000 10131 20114 38321 52012 60011 76060 885//
333 00100=
59211 11663 70000 10269 20248 39854 40054 52012 69911 70080
875//=
59632 31568 71601 10292 20256 40056 52012 70090 82102=
52495 32975 11607 10248 21091 38605 40029 57005 80002 333//
05503=
52576 32980 73404 10260 21084 38405 52001 80002 333// 05304=
53502 31959 72207 10271 21037 40027 57001 70700 83032 333//
05503=
53602 32970 11408 10205 21028 38385 57001 80002=
52267 32980 70000 10290 21020 38968 49989 57003 80002 333//
05401=
52378 32980 73202 10282 20006 49990 57010 80002 333// 05500=
54646 32980 21805 10261 20098 40103 52002 80002=
59046 11468 82901 10250 20241 40076 52027 60021 79598 889//=
57245 11562 82703 10136 20131 39817 40162 52008 60011 76066
8572/ 333 00257=
54027 32980 02705 10255 21051 39474 40020 57001=
54226 32980 00000 10218 20054 40046 57002=
54026 32980 12203 10281 20018 39690 49989 54000 80002=
50727 11580 70202 10168 20019 38877 40010 52015 69901 78000
879//=
54115 32980 02203 10209 20006 40047 57002=
50834 32580 72706 10256 21022 49969 52015 87502=
59758 11480 72001 10295 20247 30042 40062 52025 69901 71798
84902=
59417 11475 81402 10270 20253 39897 40044 52005 69951 78098
889//=
53487 32965 11802 10228 21009 40095 54000 80002=
53868 32975 71804 10212 20084 40121 52001 8703/=
53863 32665 72208 10213 20071 40106 52005 86402=
53664 32670 71402 10225 20093 40088 57002 83102=
53772 32962 71803 10228 20104 39223 40096 57001 85042=
53663 32580 71403 10195 20070 40107 52002 81102=
53853 32970 71603 10188 20039 40122 52013 8703/=
53959 11970 70902 10174 20152 39698 40136 57008 69911 70060
8707/=
53478 32675 20000 10204 21001 40107 54000 82402=
53764 32572 72205 10241 20067 40090 52006 81402=
56374 11380 80000 10083 20079 37431 52020 60041 78080 884//
333// 00200=
57378 32964 83403 10209 20127 40135 52018 8807/=
57399 32960 83604 10221 20166 40118 52010 8807/=
57461 32965 80901 10225 20142 39968 40124 52004 8807/=
57494 11965 80203 10224 20158 30082 40110 52012 69901 70060
8807/=
57583 11963 80702 10219 20184 40106 52013 69901 72160 8807/=
52418 32970 70000 10248 20067 38809 40034 52013 86042 333
00352=
52889 32980 11403 10218 20045 38418 40032 52004 80002 333
05251=
52652 32980 72001 10226 20096 38445 40025 52003 80002 333
00052=
52447 32960 72707 10258 20016 40022 52016 83042 333 00000=
52707 32775 83204 10162 21032 37267 52012 889// 333 00100=
52825 11580 61102 10161 20039 37237 54000 69901 70080 82102
333 05207=
52633 11680 80204 10056 20002 36761 54000 60051 70080 889//
333 00255=
52787 32780 73604 10112 21050 37031 52003 82902 333 05103=
52996 32580 61606 10070 20029 37560 57004 82402 333 05151=
53923 11980 82002 10123 20090 40146 57008 69901 70060 8807/=
57957 11560 80402 10249 20236 39891 40082 52018 69901 70080
888//=
59981 32580 71401 10289 20261 30070 40076 52020 82102=
54836 32965 82503 10242 20101 40119 52014 80007=
54826 32965 82509 10128 20114 38467 52004 80007=
54823 32960 70402 10246 20106 39918 40113 52010 80002=
59102 11662 80000 10232 20222 40097 52010 60021 70098 885//=
58715 11340 83401 10242 20236 40091 52017 60011 76060 8757/=
54135 32980 62505 10268 20024 39811 40016 57002 80002=
59117 11680 80402 10255 20252 39991 40094 52014 60091 70098
884//=
54102 32980 32004 10209 20020 38942 40040 57011 80002=
59663 32465 71404 10287 20263 30041 40068 52007 84102=
54346 32968 02702 10243 20090 40066 52014=
58646 11630 83601 10209 20203 40134 52019 60041 72166 885//=
57193 11765 83201 10202 20146 40144 52009 69901 70060 885//=
54618 32962 61801 10266 20093 30081 40098 52005 80002=
57046 11/58 71403 10068 20054 37941 57005 60011 74060 8253/
333 05154=
57144 11570 80000 10129 20122 40170 57002 60071 76066 8372/=
57037 11965 81602 10161 20134 40145 57003 69901 70060 8807/
333 00255=
53646 32980 51402 10240 20029 38918 40084 57004 80002 333
05303=
53738 32980 21605 10174 20076 40121 52006 80002=
57036 11562 80000 10165 20150 39677 40143 57005 60011 70060
8377/=
58040 32960 72203 10232 20136 30115 40119 52007 80002=
58144 32966 82201 10228 20146 30110 40132 52006 8807/=
51811 32965 70000 10301 20054 38688 40001 57008 83032 333//
05203=
51818 32870 63402 10316 20040 49988 57015 82502 333// 05205=
51839 32770 12902 10302 20031 40005 57006 81100 333// 05102=
51931 32970 72501 10297 20140 40015 57006 80002 333// 00003=
54449 32965 02203 10227 20143 40079 52007=
54311 32980 01401 10212 20009 40073 57001=
56385 11/00 90000 10033 20031 37023 52009 69901 76064 333
00001=
57853 11430 83603 10211 20202 40099 52017 60011 76066 8772/=
54808 32970 71803 10232 20183 40110 52005 80002=
58150 32965 81803 10224 20165 30121 40129 52007 80007=
58265 32970 70000 10195 20160 30123 40135 52004 86042=
54012 32980 32206 10213 21031 38923 40021 57010 80002=
54208 32980 01802 10181 20047 38712 40083 57005=
53192 32980 62701 10220 21020 38810 40053 57008 80002=
50915 32580 72703 10266 21047 39066 49987 57002 87902 333//
91123 91527=
57816 11656 80204 10152 20145 38758 40107 52006 69981 76060
885// 333// 00053=
54945 32965 72505 10234 20143 40117 52007 80002=
58760 11450 80401 10203 20187 40138 52017 69981 72186 887//=
58666 11662 80000 10212 20196 30034 40133 52012 69901 70080
885//=
58464 32968 70905 10207 20151 40138 52019 8704/=
58556 32660 70203 10242 20199 40128 52025 875//=
58562 32660 81102 10225 20184 40134 52024 885//=
57143 11560 81102 10144 20137 40165 54000 60051 72166 8177/=
54365 32965 00000 10186 20095 40070 52020=
54236 32980 22003 10248 20021 39938 40035 52002 80002=
54324 32980 00000 10263 20005 40047 57001=
57083 32960 82203 10232 20089 30007 40137 52011 8807/=
57405 32770 81402 10189 20154 40122 52004 885//=
56492 32861 80000 10205 20164 39728 40123 52010 885// 333
00353=
56193 32680 80000 10215 20112 40101 52012 8547/ 333 05103=
57237 11962 80000 10144 20137 40137 52003 60091 76066 8807/=
56196 32980 71802 10233 20120 40103 52005 8703/ 333 00001=
57306 32780 71402 10189 20149 40122 52002 84460=
56671 11780 60000 10243 20175 38149 52004 69901 70080 85442
333 05103=
56067 32580 71404 10083 20042 36546 52003 879// 333 05108=
56125 11675 83405 10118 20029 36524 52020 69991 79500 889//
333 00201=
52765 32680 72203 10129 20006 37168 52004 84902 333 05101=
56065 32680 50000 10094 20011 36634 57003 81442 333 05107=
54259 32970 12201 10204 20086 40056 52010 80002=
54342 32962 32204 10247 20104 39995 40054 52014 80002=
54493 32974 00000 10193 20076 40069 52021=
58847 11330 82203 10212 20204 30034 40133 52022 60021 76266
885//=
54776 32975 22907 10186 20079 30046 40102 52013 80002=
54157 32764 62204 10250 21008 40024 52004 86500=
57662 11860 80202 10218 20151 30081 40121 52019 69901 76060
885//=
58931 11/00 92010 10169 20161 38371 52016 60061 74598 333
91120 91520=
54534 32970 32002 10259 20084 40086 52003 80002=
57522 11420 80000 10182 20160 40128 52013 69961 72166 887//=
50949 32665 62005 10264 20047 39811 49968 57009 82402=
54374 32962 03602 10165 20087 39673 40061 52024=
54292 32962 02704 10185 20084 39799 40007 52023=
54266 32970 12203 10216 20038 40042 52015 80002=
54161 32770 52007 10248 20053 39732 40004 52004 82502=
54049 32970 12204 10265 20040 49996 57003 80002=
50936 32670 72903 10300 21008 49958 52003 875//=
56137 32780 72003 10163 20036 36793 57005 86902 333// 05107=
56116 11679 82910 10088 20026 36349 52014 69931 79198 889//
333// 00102 91121 91527=
56223 11680 81106 10108 20072 36533 52014 69911 78080 889//
333// 00004=
56331 11580 71401 10085 20053 36418 52001 60011 78080 879//
333// 00355=
59658 11465 71402 10283 20269 40069 52013 60241 70098 872//=
57584 11456 80205 10192 20182 40115 52019 60021 76060 887//=
58238 11461 81602 10218 20141 30123 40132 52103 69901 78080
8097/=
58027 32962 80000 10234 20151 30081 40130 52005 8807/=
58251 32968 71401 10224 20124 30130 40136 52011 80002=
58345 32960 80402 10228 20127 40131 52010 8807/=
56751 32680 51107 10203 20154 37976 52001 84402 333// 00151=
56969 32680 30000 10274 20236 40040 52006 81401 333// 00000=
56964 32577 62001 10252 20188 38647 40036 52007 82242 333//
00101=
56533 11480 70000 10176 20170 38367 57002 60021 70080 874//
333// 00200=
56966 32780 41603 10313 20216 49991 52008 82402 333// 00002=
56946 32580 50000 10266 20202 40037 52006 83462 333// 00002=
59007 11670 60000 10217 20204 40061 52010 69901 70060 82532=
56778 32580 62002 10241 20143 38060 52007 82442 333// 00005=
56954 32580 51101 10263 20205 40050 52011 81242 333// 00002=
56875 32680 32002 10250 20159 38312 52010 82402 333// 00004=
56985 32575 21104 10242 20189 38643 40034 52010 82902 333//
00001=
56977 32580 30901 10257 20212 40037 52006 81902 333// 00102=
56786 32575 61805 10214 20172 38069 52009 86200 333// 05103=
56994 11568 31603 10226 20197 40049 52004 60011 70080 81131
333// 00151=
56586 32465 83403 10103 20088 38033 52008 885// 333// 00051=
56838 11680 72004 10248 20199 40050 52007 69901 72980 879//
333// 00152=
56651 11680 72702 10184 20125 37601 52009 69901 70080 85402
333// 00103=
56886 32680 22203 10225 20187 38222 52007 82340 333// 05104=
56684 32580 70402 10196 20143 37856 52007 87400 333// 00004=
56748 11580 70000 10213 20157 38306 52007 69921 70080 86442
333// 00151=
56739 11575 72201 10205 20173 38315 52005 69911 70080 87900
333// 00101=
56951 11780 63402 10232 20180 38453 52004 69901 70080 86440
333// 00101=
56768 32680 22201 10244 20145 38179 52009 82402 333// 00101=
56959 11780 70000 10245 20226 40035 52014 60011 70098 83403
333// 00154=
54863 32980 22904 10239 20075 40107 52015 80002=
54909 32970 82003 10223 20127 30062 40123 52006 8807/=
54751 32962 02003 10165 20153 40103 52003=
54929 32975 72502 10232 20116 40129 52008 81032=
54725 32965 81102 10260 20118 40099 52006 80007=
51573 32880 52902 10342 20006 39952 49994 57005 83462 333//
00000=
59293 31563 81102 10273 20237 30038 40085 52015 71300 889//=
52533 32770 72504 10225 20001 38458 40037 52018 83902 333
00151=
58665 11640 81601 10222 20207 40127 52018 69901 71060 885//=
53845 32970 72204 10192 20067 39056 40129 52003 80002 333
00153=
57016 32765 71401 10154 20124 40147 57007 8253/=
59321 32565 71403 10265 20261 40104 52010 83142=
58362 32970 71102 10216 20129 30131 40141 52016 8703/=
57071 32968 82005 10208 20114 40134 52001 8807/=
58208 11465 81403 10203 20126 40138 52015 69961 72160 8377/=
54606 32965 70902 10260 20106 40096 54000 80002=
54429 32980 12201 10255 20116 40083 52010 81040=
45007 32475 71503 10292 20251 30072 40081 52013 8323/
333  10331 58017 70045 82811 87362 =
53798 32960 72001 10280 20119 30011 40099 52002 80002=
54436 32980 02503 10251 20080 40081 52009=
54753 32965 02001 10201 20159 30101 40107 52005=
59462 11570 83602 10276 20253 40069 52019 60021 78098 889//=
59478 32575 71804 10286 20258 40076 52013 81102=
59754 11461 70702 10280 20268 40059 52020 60261 79590 879//=
54423 32580 10000 10236 20074 39642 40083 52003 81100=
57432 11840 80000 10187 20174 40118 52003 60031 72166 885//=
57633 11460 80702 10176 20153 39359 40114 52010 69901 76060
887// 333 00356=
57426 11450 80401 10170 20168 40123 52007 60021 76060 887//
333 00352=
57348 11770 83603 10169 20127 40123 52001 60011 70060 885//=
59265 11440 83602 10238 20235 39946 40079 52022 60521 79598
889//=
58311 11564 80702 10218 20127 40139 52014 69901 76060 885//=
54624 32965 51602 10249 20089 40104 52008 80002=
54539 32980 22203 10241 20142 30078 40092 52013 80002=
54308 32980 11102 10234 20014 40076 52003 80002=
53399 32980 22003 10188 20004 40104 57001 80002=
57313 11880 80000 10177 20152 40127 52007 69911 70060 885//
333 00101=
59287 11561 71101 10273 20263 30031 40081 52015 60151 70098
872//=
56173 32880 63602 10093 20037 36665 52001 86900 333 00206=
56079 32780 70000 10082 20021 36702 57005 81402 333 00107=
56172 32780 62701 10165 20089 37322 52004 82440 333 00303=
56182 32780 70000 10136 20067 37186 54000 82402 333 00006=
50948 32670 42203 10271 20031 49970 57005 84500=
57297 11656 81804 10157 20119 30016 40152 52018 60121 76160
8802/=
55591 11579 80702 20049 36519 52015 69901 78000 889// 333//
00100=
55585 11578 80000 10088 20050 36387 52014 60031 78080 889//
333// 00356=
55493 11580 82704 10055 20019 36046 57001 69961 70098 889//
333// 00253 93900=
53882 32965 71603 10193 20069 40124 52011 8703/=
57106 32580 31405 10163 20109 40143 52013 81130 333 05102=
57447 11456 82901 10178 20168 39594 40122 52001 69971 72160
8172/=
52681 32980 70000 10269 20051 38542 49998 57006 81042 333
05505=
52323 32780 73405 10206 21010 38176 52004 82402 333 05153=
56033 11580 82703 10060 21046 36050 52009 69911 70080 889//
333 00204=
52836 32680 72701 10116 20040 36900 57003 81102 333 00004=
57134 11480 81804 10112 20107 40133 52003 60031 76066 8357/
333 00000=
53929 32765 71403 10130 20101 40159 57002 875//=
56093 32580 61403 10145 20082 37672 52003 81102 333 05307=
52446 32770 73603 10249 20059 49995 57003 86902 333 05300=
52842 32680 72506 10135 21007 36970 57004 81902 333 05206=
56034 11580 80203 10033 21001 35944 52009 69911 70080 889//
333 00351=
52856 32780 41602 10165 21009 37189 57003 81402 333 05306=
53821 32980 61804 10161 20066 40122 57001 83042 333 00155=
52436 32970 82702 10221 20015 38408 40027 52012 8807/ 333
00151=
52986 32680 61105 10163 20042 38067 57002 81142 333 05200=
52984 32780 10000 10191 20029 38026 57005 81402 333 05304=
53588 32980 52204 10110 21009 37814 57003 80002=
59133 11640 80406 10224 20209 40118 52016 69961 76086 885//=
59456 32580 72201 10285 20244 40066 52018 8344/=
57251 11775 80000 10187 20161 40154 52008 69911 70060 8357/=
57259 11568 80901 10165 20122 40155 52002 69911 76060 8277/=
57265 11668 80202 10183 20151 30049 40156 52008 69931 76060
885//=
57279 11770 80402 10160 20122 40156 52019 69901 76060 8757/=
57355 11965 81101 10181 20161 40130 52003 69911 70060 8807/=
57385 11660 80206 10173 20129 40128 52013 69911 76060 885//=
56462 11580 72902 10142 20120 37121 52013 60041 70080 874//
333 00002=
54705 32962 71602 10273 20136 40104 52006 80002=
54405 32980 03602 10261 20067 40089 57001=
56146 32780 72503 10135 20036 36730 52015 84902 333 00303=
56247 11880 72201 10161 20128 37404 52008 60021 72580 879//
333 00658=
56257 11680 71401 10100 20054 36292 52003 60021 70098 87402
333 00252=
56357 32680 72502 10144 20034 36455 52015 87902 333 00101=
56152 11580 81101 10057 20020 36341 52013 60021 78098 889//
333 00403 93902=
54518 32962 72202 10271 20093 40098 52002 80002=
54715 32970 71602 10243 20165 40108 52011 80002=
56167 32780 71805 10153 20076 37071 52013 81142 333 00553=
57328 11430 80402 10167 20164 39724 40127 52007 60061 76066
887//=
50978 32980 02703 10179 20082 39687 49964 52004=
50963 32970 02204 10208 20058 39829 49957 57003=
50953 32768 42203 10256 20010 39795 49963 57007 84500=
54511 32965 32203 10260 20066 30048 40085 52008 80002=
91631 11599 41010 10275 20250 40098 69911 70381 81105 333 10305
562//=
91636 31499 60510 10285 20250 5//// 70301 82276 333 10307 56199=
91643 31599 20908 10282 20251 40098 58001 70200 82100 333 1031 562//
8
2
8
2
0
=
91610 31499 31308 10268 20245 40099 54000 70300 83100 333 10312
563//=
78384 32560 30805 10276 20252 40142 81254 333 10315 20253 59008 81820
83074=
60096 32958 00414 10220 20175 40140 54000=
60101 12560 32608 10226 20175 40217 51006 69921 82202
333 82820 83070=
60115 32575 23608 10280 20120 40179 57006 81101
333 81826=
60135 32458 23412 10226 20159 40209 56003 80002
333 82070=
60150 32560 23406 10240 20151 39557 40188 57006 81202
333 81820=
60156 32460 10214 10250 20161 40196 56008 81500
333 81616=
60230 32560 21004 10270 20139 40171 55000 82200
333 82826=
60060 32456 73406 10192 20169 40177 51005 876//
333 87710 95300=
60105 31960 23408 10225 20186 40213 50003 70140 80001
333 82070=
60106 32565 30000 10265 20161 40206 56005 82101
333 82820=
60107 32960 03608 10227 20165 40201 52003
333 95300=
60127 32970 00000 10282 20157 39613 40178 57013=
60141 32560 13404 10250 20154 39534 40178 58004 81800
333 81826 95400 95800=
60190 32565 12804 10280 20132 39591 40164 57001 81200
333 81826=
60191 32965 00804 10269 20159 40171 57006=
60195 32670 2//// 10232 20118 38554 48571 55000 82200
333 82833 95500=
60210 32570 10804 10289 20105 39017 48567 58003 81100
333 81826=
60265 32670 13206 10295 20058 38926 48576 58005 81200
333 81840=
60318 32565 53007 10275 20120 40203 50001 81102
333 81820 84070=
60285 32556 33610 10210 20161 40182 50009 83500
333 83616=
60340 32070 00414 10250 20204 40193 58003=
81405 01430 80908 10234 20229 40141 60304 76362 8887/
333 20234 58006 60077 84813 85820 88360=
78858 11578 50712 10274 20215 30099 40155 69932 701// 85200
333 10290 20237 59014 70005 85823=
91555 31560 21312 10260 20217 40112 5//// 705/1 82100
333 10290 563// 59002 82820=
91557 32575 10000 10198 20193 40131 54000 81100
333 10283 563// 59004 81820=
91568 32580 10000 10180 20173 40138 5//// 81100
333 10265 563// 59006 81825
61902 32586 21017 10285 20206 40140 82102 333 59015 82824=
96315 34470 72303 10292 20247 40080 70292 81842
333 10337 81816 86080=
68454 32989 0//// 10146 20002=
58562 32660 81102 10225 20184 40134 52024 885//=
58562 32660 81102 10225 20184 40134 52024 885//=
52740 16/// /3502 10087 29045 36851 60000
555 1/133 2//00 /////=
57957 11560 80402 10249 20236 39891 40082 52018 69901 70080
888//=
59082 11665 70000 10274 20251 30001 40075 52014 69901 70080
86442=
59117 11680 80402 10255 20252 39991 40094 52014 60091 70098
884//=
59211 11663 70000 10269 20248 39854 40054 52012 69911 70080
875//=
59265 11440 83602 10238 20235 39946 40079 52022 60521 79598
889//=
59287 11561 71101 10273 20263 30031 40081 52015 60151 70098
872// =
59316 31565 41802 10278 20260 30083 40092 52011 70090 84400=
59431 11670 80000 10249 20246 39916 40060 52011 60431 70098
885// 333 91130 91522=
59644 32565 70903 10286 20261 30043 40058 52009 81902=
59758 11480 72001 10295 20247 30042 40062 52025 69901 71798
84902=
59023 32561 80000 10262 20239 39821 40061 52013 888//=
59293 31563 81102 10273 20237 30038 40085 52015 71300 889//=
59501 32575 21803 10284 20256 30081 40097 52010 82100=
59663 32465 71404 10287 20263 30041 40068 52007 84102=
59838 32780 71402 10301 20255 30039 40053 52009 874//=
59948 32573 70401 10299 20263 30055 40063 52008 82102=
59981 32580 71401 10289 20261 30070 40076 52020 82102=
59985 32580 41601 10281 20266 30060 40065 52015 81102=
58027 32962 80000 10234 20151 30081 40130 52005 8807/=
58040 32960 72203 10232 20136 30115 40119 52007 80002=
58144 32966 82201 10228 20146 30110 40132 52006 8807/=
58633 31656 70905 10248 20184 30014 40110 52017 71000 874//=
58659 11650 80901 10207 20191 30106 40140 52020 60021 78080
885//=
58847 11330 82203 10212 20204 30034 40133 52022 60021 76266
885//=
57399 32960 83604 10221 20166 40118 52010 8807/=
57461 32965 80901 10225 20142 39968 40124 52004 8807/=
57476 32962 83606 10220 20136 40123 52014 8807/=
57494 11965 80203 10224 20158 30082 40110 52012 69901 70060
8807/=
57583 11963 80702 10219 20184 40106 52013 69901 72160 8807/=
57655 11460 80902 10195 20162 40117 52012 60021 70060 8172/=
57766 11430 80203 10209 20201 40102 52016 60021 76066 8772/=
57776 11/00 93603 10165 20165 40111 52015 60051 76064=
59102 11662 80000 10232 20222 40097 52010 60021 70098 885//=
52418 32970 70000 10248 20067 38809 40034 52013 86042 333
00352=
52889 32980 11403 10218 20045 38418 40032 52004 80002 333
05251=
56080 32680 40000 10136 20020 37137 57002 81462 333 05208=
53915 11780 80902 10120 20096 38647 40143 57006 69901 72160
885// 333 00157=
56096 32980 70402 10202 20092 38898 40096 52009 82042 333
05303=
52652 32980 72001 10226 20096 38445 40025 52003 80002 333
00052=
52787 32780 73604 10112 21050 37031 52003 82902 333 05103=
52996 32580 61606 10070 20029 37560 57004 82402 333 05151=
57006 32980 70902 10148 20091 40131 54000 8703/ 333 05200=
53923 11980 82002 10123 20090 40146 57008 69901 70060 8807/=
50468 11575 63603 10153 20023 39764 49957 52036 69901 70098
85202=
50745 32662 72907 10256 20011 39787 49955 52005 86902=
54337 32960 02206 10245 20084 39977 40058 52004=
54342 32962 32204 10247 20104 39995 40054 52014 80002=
54471 32965 020X4 10210 20111 30071 40076 52008=
54497 32980 12902 10225 20071 30058 40072 52022 80002=
54662 32970 02701 10227 20062 39975 40091 52007=
59046 11468 82901 10250 20241 40076 52027 60021 79598 889//=
59058 11957 70000 10248 20244 40076 52013 60041 71096 86042=
59087 11961 71801 10265 20255 40082 52015 60031 70098 82042=
59096 11570 80000 10251 20228 40089 52011 69921 70098 884//=
59209 11565 60000 10246 20216 40056 52007 69901 70086 82402=
59278 32568 80401 10270 20246 40072 52014 83463=
59456 32580 72201 10285 20244 40066 52018 8344/=
59493 32975 71602 10299 20245 40081 52013 80002=
59632 31568 71601 10292 20256 40056 52012 70090 82102=
59647 32565 70902 10284 20265 40061 52015 81902=
59658 11465 71402 10283 20269 40069 52013 60241 70098 872//=
59673 32575 71803 10282 20263 40078 52015 82202=
59845 11562 61801 10288 20247 40063 52014 69901 71398 83960=
59855 32575 71803 10290 20265 40063 52018 81102=
58345 32960 80402 10228 20127 40131 52010 8807/=
58543 32965 80905 10261 20174 40115 52017 8807/=
58556 32660 70203 10242 20199 40128 52025 875//=
58569 32960 82202 10219 20183 40132 52021 8807/=
58646 11630 83601 10209 20203 40134 52019 60041 72166 885//=
58660 11760 81401 10233 20189 40131 52014 69901 76060 885//=
58834 11658 80402 10234 20228 40115 52034 60401 79598 889//=
58926 11465 80000 10238 20228 40106 52016 80221 76098 885//=
58944 11256 80404 10221 20212 40127 52017 69901 76060 887//=
58150 32965 81803 10224 20165 30121 40129 52007 80007=
58251 32968 71401 10224 20124 30130 40136 52011 80002=
45007 32475 71503 10292 20251 30072 40081 52013 8323/
333  10331 58017 70045 82811 87362 =
53513 32970 70000 10259 20009 38909 40044 57006 80002 333//
05503=
53772 32962 71803 10228 20104 39223 40096 57001 85042=
54218 32980 02504 10260 21035 39411 40048 52005=
54511 32965 32203 10260 20066 30048 40085 52008 80002=
54823 32960 70402 10246 20106 39918 40113 52010 80002=
58265 32970 70000 10195 20160 30123 40135 52004 86042=
58472 32972 70903 10186 20150 30052 40148 52019 8704/=
58477 32465 83401 10198 20145 30097 40140 52022 86107=
58666 11662 80000 10212 20196 30034 40133 52012 69901 70080
885//=
58725 11760 80000 10240 20234 39845 40096 52011 60021 70060
885//=
58760 11450 80401 10203 20187 40138 52017 69981 72186 887//=
58921 11460 83602 10233 20220 39867 40103 52037 60121 79598
889//=
78583 11468 71004 10261 20243 40121 69911 76186 81272 333
01336 10312 20245 58008 70094 81816 87458 87076=
78897 32570 71214 10269 20216 40155 51012 86831
333 02396 10316 20242 59013 70016 83820 84646=
60185 32470 23611 10262 20146 40190 58004 82500
333 82616=
81408 06/// /3602 10241 20238 40134 60224
333 20231 58000 60037=
68906 11498 71806 10083 20040 30008 40074 52026 60011 70252 877//
222// 00118 20000 316// 40403
333 10083 20064 91017 555 20012 91007=
33815 42598 51202 10290 20106 39961 40164 57018 84101 555
10054=
61990 42475 30805 10266 20171 40145 83200
333 59002 94310=
61995 42475 20909 10227 20160 39664 82200
333 59004 94311=
61988 42580 20915 10253 20195 40152 82200
333 58004 943//=
61986 41470 60913 10271 20217 40124 71521 86800
333 59001 94310=
61974 41470 51406 10265 20226 40100 70381 83202
333 58006 94313=
89642 41520 61733 11145 21163 39847 49903 56011 73833 84530
333 01656 11124 21158 83626 83360 91051 91156=
91570 16/// /0710 10250 20232 30125 40128 51008 69921
333 10282=
91574 36/// /1816 10226 20223 30128 40134 51010
333 10270=
91598 06/// /1324 10176 30110 40142 50001 69961
333 10190 69927=
48698 31462 70000 10290 20248 30048 40066 70522 81138 333
10328 50440 55079 01259 21744 30745 81818 85080=
60155 32958 20806 10216 20160 40204 56004 80002
333 82070=
91376 11474 80809 10266 20244 30103 40107 50003 60011 70282 85871
333 10300 56229 59003 70038 555 92812=
11816 32982 61706 10263 20128 39955 40107 57019 83042
333 83360 85070 =
11826 32980 61607 10268 20142 39921 40106 57016 82088
333 82360 86270 =
11903 11675 63604 10241 20148 39757 40113 58009 69931 70198 85260
333 85843 =
11934 32784 51707 10237 20104 39340 42781 57010 84260
333 84856 =
11968 32784 22106 10283 20123 39866 40126 57016 82200
333 82850 =
17601 32670 12208 10252 20165 40122 50000 81100 333 81840=
11036 32684 61608 10252 20117 39876 40092 57025 81182 333 81845
85363 91113 91209=
11010 32775 53104 10220 20136 39721 40076 57019 81141 333 81850
84364=
11120 32782 81204 10222 20090 39407 40067 57012 8527/ 333 81856
84857 86360=
11150 32880 70103 10207 20118 39577 40086 58005 81142 333 81858
85073=
11240 32782 41603 10243 20122 39713 40104 57023 81142 333 81856
83072=
11841 32781 22105 10273 20110 39739 40086 57013 81140
333 81850 91010 =
11858 32680 31604 10291 20167 39971 40110 58021 82102
333 82846 =
11916 32480 71615 10105 20074 37993 48480 57011 86362
333 86910 91121 =
11927 32781 31705 10294 20090 39868 40109 57020 83201
333 83850 91010 =
11930 31/82 61504 10056 20046 37420 47123 58008 70242 86200
333 868//
444 28//5 =
11993 32770 21804 10289 20115 39930 40130 57015 82100
333 82856 =
11855 32977 61606 10264 20152 39959 40113 57018 85081
333 85360 =
11867 32780 72104 10256 20144 39815 40110 58010 8247/
333 82650 87358 =
11880 11762 51803 10301 20143 39947 40104 57025 69901 70282 83231
333 83850 =
11918 11784 71703 10198 20113 39334 42777 55003 69901 72981 84963
333 81850 83950 =
11933 32680 52004 10183 20099 38651 48508 56007 85300
333 81936 84836 91009 =
11938 32682 41904 10217 20123 39118 42780 57011 84201
333 84846 =
11976 32780 21604 10280 20143 39881 40125 57016 82200
333 82850 =
11978 32680 21503 10288 20150 30013 40133 57018 82200
333 82846 =
12772 32683 22004 10293 20124 39860 40124 57017 82200 333 82840=
12843 32682 41705 10302 20109 39956 40113 58016 82189 333 82846=
12882 32780 31603 10295 20121 30003 40127 58018 83200 333 83856=
12925 32986 52201 10255 20147 39955 40116 57017 81042=
12942 32665 30802 10264 20144 39888 40119 58014 81101 333 81840=
12982 32880 21607 10306 20114 30025 40119 58015 82200 333 82857=
41170 32960 03421 10432 20069 39982 49995 333
59017=
10004 46/60 ///13 10126 20106 39931 49931 57051
222// 00119
333 55300 91119 91216=
10015 11465 81417 10117 20094 39945 49955 56052 60011 76162 8682/
333 553// 83712 85630 88460 91122 90210 91218 91218=
10020 11465 81310 10127 20080 39949 49984 57046 69921 76162 875//
333 55300 2//// 87619 91118 91213=
10035 11462 81606 10138 20068 39944 40001 56042 69911 86162 8572/
333 55300 85710 88458 91114=
10147 11670 71608 10133 20086 39990 40008 58045 69941 72162 8775/
333 55300 83639 87645=
10162 31575 81505 10159 20065 39943 40023 57039 76022 8252/
333 55301 82632 88458 91113=
10184 32682 71506 10173 20053 30051 40058 56038 8227/
333 55301 82833 87462 91115=
10224 11565 71610 10150 20105 39970 49976 58040 69961 78062 878//
333 55302 85832 87648 91114=
10270 32782 81609 10179 20085 30000 40053 57033 8117/
222// 06171
333 55301 81850 86358 87461 91115 91211=
10338 11684 71811 10159 20075 39932 40002 56034 69901 70262 8387/
333 55300 81835 83645 87460 91114 91211=
10361 11781 81504 10154 20089 39946 40046 56026 69901 76022 8457/
333 55300 84650 88460 91113=
10384 32882 71505 10185 20080 30001 40058 56034 8255/
333 55304 82657 87360 91115=
10393 32975 71606 10193 20093 39945 40066 56038 8707/
333 55303 22017 31644 83361 87465 91113=
10400 11580 52317 10150 20049 39961 40009 53020 60021 71686 85300
333 55307 82930 84840 91125 91218=
10438 11683 71808 10149 20087 39757 40028 56015 69901 70262 8223/
333 55300 82835 87365 91119=
10469 32680 72107 10200 20070 39898 40054 56021 878//
333 55303 83845 87656=
10488 32983 71506 10197 20097 39798 40065 56023 85072
333 55304 85360 87070 91114=
10548 11582 82108 10138 20077 39539 40063 55008 69901 72562 888//
333 55300 84826 88633 91118 91211=
10637 11584 82110 10162 20083 39930 40063 53002 69901 70262 8482/
333 55300 81825 84632 88465 91120 91213 96460=
10685 32586 72307 10181 20064 39425 40067 55007 83872
333 553// 82830 85080 91116=
10738 11584 82207 10167 20085 39634 40085 51004 69901 76162 8387/
333 55300 81830 83645 87461=
10763 32681 72508 10205 20058 39716 40079 56003 8217/
333 55303 22093 82840 85362 91113=
10788 32582 72201 10201 20098 39671 40080 56012 8128/
333 55304 81830 83359 87362=
10852 11782 72505 10187 20090 39545 40086 58005 69901 72162 8327/
333 55300 83850 86359=
10946 32589 82805 10167 20060 39297 40093 58001 8287/
333 55306 81830 87459=
10091 32586 71311 10147 20063 30017 40067 56032 8117/
333 55300 21350 31350 81823 87460 91117 91212=
10113 11465 71609 10123 20103 39920 49938 56043 60011 72162 878//
333 55300 83815 87656 91115=
10129 11675 81509 10136 20096 39960 49972 56042 60021 72162 875//
222// 2//01
333 55300 87635 91113=
10131 11575 81409 10128 20089 39961 49975 58042 60021 72162 875//
333 55300 87633 91115=
10170 32684 81608 10175 20077 30015 40029 58035 8127/
333 55301 81833 88461 91118=
10253 11675 81605 10158 20085 30007 40028 56037 69901 76062 8652/
333 55300 86648 88457 91113=
10280 32982 71407 10171 20086 39957 40051 56033 8703/
333 55302 87360 91114=
10291 32681 61608 10187 20080 30001 40066 56042 81170
333 55307 81843 86461 91115=
10305 11475 71909 10148 20084 39931 49962 56021 60051 70386 879//
333 55308 82813 84819 83919 91120 96481 96463=
10315 11680 62211 10152 20087 39916 49977 56015 60031 70286 84830
333 55308 83840 84360 91118 91211=
10348 11684 81906 10161 20072 39925 40027 57027 69901 70262 8687/
333 55300 82835 86645 88482 91113=
10385 32782 71706 10199 20087 30001 40059 56038 8117/
333 55305 81850 87362 91114=
10427 11160 82013 10078 20078 39031 48356 57008 60021 78086
333 55300 82802 87805 91121 91215 96463 96441=
10453 11281 82024 10061 20057 38716 48358 57019 69901 72864 872//
333 55300 87806 91131 90255 91218 91224 96460=
10474 32684 81807 10193 20080 39930 40053 58018 8225/
333 55301 21327 82846 88359 91114=
10490 31684 81707 10207 20114 39949 40065 56031 71411 8127/
333 553// 21983 81836 87461 91114=
10499 11569 72008 10177 20127 39802 40078 58027 69931 70362 82506
333 55306 82626 87280=
10501 11583 22311 10146 20041 39778 40019 53037 69981 72586 82900
333 55307 81930  91125 91214 96481=
10513 11580 62412 10164 20021 39909 40025 53012 69901 78086 85903
333 55306 81925 85835 91121 91214=
10532 11575 71807 10154 20080 39817 40044 58003 69901 72122 878//
333 55300 81825 83630 86640 91117=
10544 11468 82116 10089 20062 39009 48405 55007 70264 878//
333 55300 87612 91125 90263 91218 90355 91219=
10554 11684 82211 10162 20068 39673 40045 58014 69901 76162 875//
333 55300 20923 87642 91117 91213=
10577 32785 72310 10196 20069 39578 40055 56012 8127/
333 55300 21341 31273 81850 84361 85366 91116 91211=
10578 32286 51908 10138 20068 38728 48437 58005 82271
333 55309 23076 30870 82803 83350 91119 91215=
10609 11482 72412 10159 20049 39736 40054 52021 69911 70286 83208
333 83816 86276 91123 91212=
10655 11686 72410 10168 20086 39756 40071 55000 69901 76062 878//
333 55300 81833 87646 91119 91213=
10688 32684 82504 10194 20061 39577 40076 56007 8587/
333 55305 82846 84658=
10708 11581 72509 10149 20089 39702 40075 53009 60021 72586 8522/
333 55301 85827 87464 91118 91212=
10729 11581 72208 10171 20091 39957 40074 55000 69901 70162 8387/
333 55301 82820 87360 91114=
10776 11782 82703 10206 20057 39665 40086 56011 69901 76022 875//
333 55301 87650=
10803 11680 82205 10172 20090 39754 40102 58001 69901 72162 8387/
333 55300 81840 83650 87359 91113 96015 96461=
10836 11683 82609 10142 20081 39243 40082 56002 69901 76122 8687/
333 55300 81840 85656 87459 91116 98288=
10929 31682 82505 10174 20092 39588 40100 55000 71422 8282/
333 55300 81833 88462 91113=
10961 11/01 91808 10015 20015 37070 47042 57003 69901 76842
333 55300 91115 91213 96047 96445=
10962 32689 72705 10167 20070 38994 48465 56005 82832
333 55308 81836 85362=
57178 11462 83202 10169 20147 30001 40155 52003 60061
76066 8172/=
17600 32575 22812 10267 20213 30108 40124 56003 81180
333 81820 92438=
17609 32582 12116 10275 20147 30115 40117 58008 81100
333 81830=
44416 31465 82604 10340 20237 39222 49961 71011 8461/ 333 10348
58011=
44438 32558 70000 10308 20266 39851 49974 83470 333 10322 58020=
44454 31456 52608 10252 20190 38571 48410 71700 83960 333 10285
58011=
11101 32675 83504 10177 20106 39598 40100 53002 8152/ 333 81635
88460=
11022 32681 21701 10231 20095 39712 40078 57022 81131 333 55306
81840=
11028 36/// /0803 10262 20115 39744 40062 333 55309=
11130 32782 70502 10211 20082 39511 40066 56015 83141 333 83856
86077=
11146 31/00 92414 10002 21008 36941 47043 54000 74544 333
89/00 91120=
11157 32783 51905 10236 20088 39336 40051 56013 83242 333 83856
83078=
11172 32775 50903 10229 20070 57015 85100 333 85850=
11204 36/// /1107 10182 20103 39354 40104 333 55300=
11231 32782 40103 10226 20110 39572 40107 57016 82841 333 81856
83360=
11464 32475 71709 10205 20130 39134 42728 57013 82272
333 82813 84461=
11487 32689 62203 10205 20079 39489 40077 57013 81288
333 81845 85270=
11518 32681 61703 10198 20113 39663 40079 57020 81246
333 81833 86272=
11659 32581 41605 10211 20155 39480 40082 58016 81142
333 81824 83070=
11782 32668 32106 10248 20149 39799 40093 57026 82242
333 82840=
52740 16/// /3502 10087 29045 36851 60000
555 1/133 2//00 /////=
83918 86625 91025 91125 91220 555 51125 51217 53051=
57008 70085 88/// 91151=
15004 32575 33202 10291 20137 39823 40132 57021 83200=
15020 32965 01407 10294 20099 39974 40157 57015=
15090 32565 51608 10297 20077 30051 40169 57014 82206=
15108 32281 30506 10168 20114 38149 48548 58001 82201 333 95100=
15120 32670 21805 10276 20114 39678 40139 57014 82100=
15150 32670 21804 10280 20131 39958 40174 57010 82100=
15200 32665 21402 10298 20106 39992 40124 57013 82200=
15260 32570 11406 10276 20143 39636 40130 57019 81200 333 95010=
15280 32270 71102 10069 20046 37564 47118 58002 87300 333 41998=
15292 32580 11806 10286 20126 39883 40155 57012 81200 333 95000=
15310 32580 20502 10282 20125 30095 40175 57014 82200=
15346 32672 41402 10277 20127 39891 40160 57012 84200 333 95000=
15350 32660 21803 10285 20093 30064 40175 57010 82100=
15360 32662 10903 10230 20163 30170 40181 57011 81100 222// 00235
20200 333 92417=
15410 32660 41103 10294 20151 30068 40158 57015 84100=
15420 36560 21102 10282 20077 30061 40164 57015 82100 333 91003 91204
=
15450 32660 10907 10284 20086 39934 40155 57015 81100=
15460 32560 31402 10287 20085 30154 40177 57013 83200=
15470 32960 00903 10280 20088 30046 40165 57012=
15480 32560 11401 10242 20206 30175 40190 57012 81200 222// 00166
2//// 333 92417=
44404 32570 22702 10259 20176 3//// 4//// 82200 333 10266 5////=
44424 32660 33302 10240 20162 4//// 81210 333 10262 5////=
44449 32960 60908 10300 20255 39837 49988 82031 333 10315 59015=
44462 32360 62706 10200 20168 38185 48394 86400 333 10264 58015=
44474 32060 70000 10194 20123 38194 48417 87800 333 10214 58015=
44478 22460 70906 10274 20260 39921 40006 85360 333 10295 58023
69948=
82915 86635=
83925 84828=
17022 32670 32903 10196 20174 40164 57014 83200 333
83834 92438=
17038 31456 79903 10200 20176 40163 58004 71022 86750
333 83715 85830 87360 92426=
17050 32670 41803 10286 20090 40159 57014 84200 333
84840=
17060 32960 00414 10260 20131 40155 57010=
17096 32570 43308 10190 20026 38227 48487 57009 84100 333
84830 10110=
17124 32665 62004 10250 20118 39263 40138 57015 83230
333 83840 86360=
17128 32670 30000 10226 20087 39077 40136 57011 83200 333 83840=
17170 32670 22708 10176 20102 38325 48486 56002 82100
333 82835 10107=
17195 32970 63404 10208 20117 38975 48519 58008 86200 333 86835 10147=
17200 32670 43208 10250 20124 39162 40095 57006 84200 333 84840=
17219 32565 42606 10287 20137 40123 57014 84200
333 84830=
17240 32575 43202 10248 20102 39019 40114 57018 84200
333 84830=
17244 32670 40107 10212 20066 38995 48516 57009 84100
333 84840 10130=
17280 32670 30102 10292 20070 39324 40073 58007 82101 333 82840 83070=
17350 32960 32315 10300 20146 40098 57016 80001 333 83070=
17026 32970 03304 10205 20149 40169 58008 333 92428=
17034 22670 61803 10212 20159 40154 58006 83230 333
83835 86360 92438=
17070 32565 60304 10242 20101 39300 40135 57017 86200
333 86833=
17084 32670 53606 10230 20102 39268 40145 57014 85200
333 85835=
17090 32665 63207 10186 20104 38722 48504 58008 84250
333 84836 86360 10126=
17098 32670 60307 10154 20070 38209 48503 56001 86200
333 86835 10123=
17150 32660 30312 10279 20124 40132 57019 81101 333 81840 83070=
17160 32670 50203 10210 20101 39030 48527 56010 85200
333 85840 10146=
17184 32670 30204 10324 20168 40107 57022 83200 333
83840=
17190 32670 40907 10224 20095 39026 48518 57015 83201
333 83835 83070 10150=
17210 32975 02903 10280 20088 39090 40062 57009=
17234 32670 33003 10334 20104 40109 57017 83100 333
83840=
17260 32670 53607 10288 20130 39307 40079 58010 82101
333 82840 85070=
17290 32970 52507 10290 20170 40127 58005 80001 333
85070 92428=
17370 32965 32909 10284 20200 40106 57012 80001 333
83070 92427=
17024 32965 30000 10224 20160 40166 57010 83030 333
83360 92407=
17056 32970 31704 10226 20178 40160 57015 80001 333
83070 92418=
17067 32670 11103 10270 20195 40159 57014 81100 333 81840 92408=
17092 32670 50902 10230 20078 38839 48492 57011 83230
333 83840 85360 10095=
17112 32970 20210 10254 20185 40155 57012 80001 333
82070 92418=
17115 32960 33616 10224 20127 40149 57014 80001 333 83070=
17116 32970 23206 10272 20153 40136 57013 82030
333 82362=
17188 32670 22404 10258 20107 39098 40094 57012 82100
333 82840=
17202 32670 42404 10270 20048 39114 40076 57016 84100 333 84835=
17248 32675 23604 10230 20095 38970 48505 57012 82200
333 82840 10122=
17292 32670 41805 10278 20144 39396 40115 57006 83230
333 83835 84360=
17300 32570 21811 10300 20130 40102 57012 82100 333 82830=
17330 32670 12204 10276 20160 40110 58007 81100 333
81840=
17074 32570 60202 10220 20095 39240 40142 57018 86300
333 82930 84834=
17085 32670 61402 10240 20118 40137 57019 84260 333
84840 86360=
17100 32970 03602 10238 20045 39152 40234 56008=
17140 32665 20605 10190 20115 38715 48510 57013 82100
333 82840 10139=
17203 32670 30000 10260 20091 38845 48521 57010 83100
333 83840 10118=
17205 32680 30703 10180 20074 38330 48492 54000 83200 333 83840
92418 10112=
17237 32670 30302 10298 20121 40118 57015 83100 333
83840=
17250 32675 40706 10206 20093 38807 48511 57013 84200
333 84840 10133=
17255 32670 53303 10293 20115 39444 40077 57011 82131 333
82835 83360 85070=
17270 32670 32404 10318 20092 39465 40067 57013 83200
333 83840=
17275 32680 23603 10268 20069 38952 48504 57008 82100
333 82840 10089=
17375 32675 21811 10295 20128 40108 57013 82200 333
82840 92438=
12205 32670 61708 10185 20101 30059 40067 57043 83232
333 91116=
12465 32965 51503 10216 20150 39885 40105 57033 84031=
12560 11698 72101 10261 20165 39772 40093 56025 69901 70351 84202=
12695 32670 41803 10285 20124 39806 40122 57021 84200=
12250 11597 71203 10165 20111 30028 40114 58033 69911 70182 878//=
12295 32670 31902 10261 20128 39947 40120 57022 81232=
12330 32565 71206 10184 20112 39994 40098 57033 878//=
12375 32670 29902 10248 20163 39993 40116 57029 82200=
12424 32582 31504 10201 20146 39947 40092 57030 82230=
33317 42988 01605 10286 20114 39842 40155 57011=
33345 42798 11402 10277 20166 39992 40182 57012 81200=
33506 42698 50000 10277 20104 30006 40189 57011 85100=
33587 42697 22001 10291 20114 39934 40177 57014 82100=
33631 42697 21903 10288 20124 30003 40136 57019 82100=
33658 42997 21106 10286 20078 39868 40145 57015 82030=
33663 42698 11603 10298 20076 30075 40164 57017 81100=
33711 42698 51202 10266 20119 39987 40183 57015 85100=
33791 42597 49901 10294 20114 30028 40169 57017 84100 333 84830=
33910 42698 21404 10250 20156 30165 40182 57005 82010=
34300 42697 69902 10287 20109 30005 40181 57013 86200=
34519 42660 50603 10272 20088 39921 40176 58017 85100=
34601 42797 61704 10279 20094 40175 57012 86100=
12100 32970 71504 10182 20080 30069 40075 57048 85032=
12105 32598 71405 10173 20120 30046 40086 57039 81238
333 91111=
12185 32570 61502 10188 20130 30002 40131 58024 84201=
12195 32570 11601 10216 20142 39923 40139 58017 81100=
12270 11698 61504 10195 20131 39947 40121 57026 69941 70182 84206=
12360 11598 71504 10195 20138 39987 40115 58029 69921 70182 83238=
12385 32698 11304 10267 20154 39937 40114 57026 81100=
12400 11575 70705 10165 20109 39856 40082 57037 69901 70162 81238
333 91110=
12435 32660 71504 10200 20149 39934 40098 57033 83238=
12495 32797 11604 10277 20145 39845 40116 58019 81100=
12510 11/90 91812 10071 20071 38325 48443 55003 69931 74554=
12520 32598 31905 10223 20155 39674 40082 57024 82289
333 91110=
12570 32698 21504 10270 20154 39811 40106 57021 81202=
12575 32760 12004 10295 20148 39866 40101 56026 81100=
12595 32698 21903 10287 20113 39884 40125 57016 82200=
57002 70086 88/// 91148
555 764// 80884 0/308=
85834 83650 90710 91127=
59985 32580 41601 10281 20266 30060 40065 52015 81102=
12200 32980 61504 10185 20075 30058 40064 58045 86030=
12272 11570 61002 10171 20112 39964 40125 57028 69901 70182 82261=
12280 32570 21002 10193 20121 39974 40129 57026 81102=
12285 36/// /9902 10230 20144 30012 40122 57029 60031=
12345 32570 61505 10190 20128 39967 40105 57031 83232=
12415 11698 31305 10200 20154 39935 40080 58036 69901 70381 81332=
12455 32965 51404 10227 20157 39863 40094 57033 81036=
12497 32770 12205 10281 20129 39921 40125 57016 81200=
12500 32670 51303 10199 20124 39683 40078 58019 83508=
12530 32998 51604 10240 20157 39901 40088 57034 82032=
12550 32970 31902 10263 20145 39756 40089 56030 80008=
12580 32580 11905 10284 20122 39891 40118 57021 81200
333 91012 91112=
12585 32698 11906 10276 20156 39870 40118 57021 81100=
12600 31570 71706 10263 20123 39643 40091 55013 71711 8693/=
12650 11470 72610 10104 20065 38012 48496 57012 69911 78011 873//
333 91017 91120=
12660 32670 31404 10295 20114 39769 40099 56019 83200
333 91010 91110=
12210 32598 71105 10182 20077 30005 40071 57047 82238
333 91011 91111=
12230 11558 81304 10152 20112 30014 40101 58035 60011 71082 875//=
12310 32665 61704 10202 20112 30040 40068 56038 81142=
12399 32698 21704 10292 20172 39964 40120 57019 82200=
12418 11597 72004 10183 20124 39982 40091 57033 69911 70362 85230=
12469 32697 42101 10261 20170 39881 40096 57036 81206=
12488 32597 21205 10274 20197 39966 40110 56026 82100
333 91012 91112=
12540 31596 51603 10233 20180 39857 40093 57031 71022 82202=
12566 11670 40803 10266 20171 39824 40093 56031 69901 79511 84900=
12625 11670 72604 10192 20122 39165 42778 55005 69901 79581 879//
333 91112=
12690 32699 41604 10255 20123 39652 40128 57014 84200
333 91010 91110=
76160 8802/=
91408 11474 61207 10267 20243 30081 40119 52027 60051 70282 83202
333 10322 562/9 58020 70046 555 92812=
58633 31656 70905 10248 20184 30014 40110 52017 71000 874//=
83828=
54587 32980 12707 10191
20104 40046 52015 80001=
11406 32675 72206 10203 20081 39537 40070 57012 8215/
333 82843 87360 91011=
11457 32686 79901 10190 20080 38839 48461 56003 82362
333 81941 84357=
11520 32980 71902 10203 20118 39732 40080 57023 81042
333 81360 87073=
11636 32582 31405 10205 20132 39435 42746 58020 81135
333 81827=
11679 32570 32204 10239 20156 39629 40084 57016 82202
333 82826=
11723 32781 61807 10260 20135 39807 40084 57022 81132
333 81850 86359=
11766 32680 22008 10234 20096 39248 42751 57016 81202
333 81842 91013=
11774 32782 43308 10244 20120 39838 40093 57015 81282
333 81856 84073=
11787 32582 71810 10179 20098 38656 48484 57008 83242
333 83820 86070 91018=
57655 11460 80902 10195 20162 40117 52012 60021 70060 8172/=
57776 11/00 93603 10165 20165 40111 52015 60051 76064=
8097/=
58321 11560 80904 10212 20109 40136 52016 69911 76060 885//=
58531 32970 80703 10265 20181 40101 52015 8807/=
58326 32960 80403 10228 20142 40135 52015 8807/=
58314 11965 83401 10215 20178 30052 40137 52011 69901 70060
8807/=
58437 11/00 90904 10132 20132 38176 52006 69911 76064=
58015 32965 82203 10229 20133 40128 52004 8807/=
58102 32970 82201 10216 20158 30085 40134 52009 8807/=
58122 32970 82501 10232 20148 40138 52008 8807/=
58215 11958 81601 10200 20167 40139 52003 69931 76060 8807/=
58221 11660 80000 10222 20159 30108 40142 52009 69901 70060
885//=
58338 31758 80703 10234 20147 40126 52015 70500 885//=
58424 32960 83604 10240 20194 30090 40113 52015 8807/=
58319 32960 83606 10227 20184 40124 52016 8807/=
58122 32970 82501 10232 20148 40138 52008 8807/=
58236 11965 83601 10221 20139 40128 52007 69911 76060 8807/=
58436 32962 80402 10249 20171 40123 52015 8807/=
58457 32762 80705 10223 20178 30083 40133 52029 885//=
58457 32762 80705 10223 20178 30083 40133 52029 885//=
57251 11775 80000 10187 20161 40154 52008 69911 70060 8357/=
57265 11668 80202 10183 20151 30049 40156 52008 69931 76060
885//=
57279 11770 80402 10160 20122 40156 52019 69901 76060 8757/=
57378 32964 83403 10209 20127 40135 52018 8807/=
57385 11660 80206 10173 20129 40128 52013 69911 76060 885//=
57554 11866 80402 10191 20134 40126 52009 69901 70060 885//=
57584 11456 80205 10192 20182 40115 52019 60021 76060 887//=
57598 11760 80000 10239 20217 40098 52015 69901 72160 8652/=
57662 11860 80202 10218 20151 30081 40121 52019 69901 76060
885//=
57687 11330 82703 10200 20184 30025 40103 52022 69991 76060
8772/=
57745 11460 80901 10194 20183 39789 40104 52013 69981 76060
8372/=
57799 11757 80000 10237 20221 30011 40092 52019 69941 71060
885//=
57845 11440 83602 10216 20208 40082 52012 69951 76066 8772/=
57853 11430 83603 10211 20202 40099 52017 60011 76066 8772/=
57866 11440 80202 10236 20230 39889 40088 52015 60041 76066
887//=
58015 32965 82203 10229 20133 40128 52004 8807/=
58102 32970 82201 10216 20158 30085 40134 52009 8807/=
58122 32970 82501 10232 20148 40138 52008 8807/=
58215 11958 81601 10200 20167 40139 52003 69931 76060 8807/=
58221 11660 80000 10222 20159 30108 40142 52009 69901 70060
885//=
58314 11965 83401 10215 20178 30052 40137 52011 69901 70060
8807/=
58321 11560 80904 10212 20109 40136 52016 69911 76060 885//=
58338 31758 80703 10234 20147 40126 52015 70500 885//=
58424 32960 83604 10240 20194 30090 40113 52015 8807/=
58437 11/00 90904 10132 20132 38176 52006 69911 76064=
58506 11/00 90708 10161 20161 40125 52010 69901 76040=
58527 11660 81402 10278 20201 30020 40092 52020 69901 72100
885//=
58531 32970 80703 10265 20181 40101 52015 8807/=
58606 11757 80000 10246 20224 30039 40092 52011 60031 71060
885//=
58715 11340 83401 10242 20236 40091 52017 60011 76060 8757/=
58813 11661 80000 10262 20245 40078 52014 69921 70080 8746/=
50632 32975 73205 10162 21034 39145 49975 52014 80002=
53463 32970 50000 10220 20051 38918 40089 57006 80002 333//
05102=
57083 32960 82203 10232 20089 30007 40137 52011 8807/=
59995 11480 52506 10294 20255 30059 40067 52010 69901 70080
82202 66660 30104 52510=
58238 11461 81602 10218 20141 30123 40132 52103 69901 78080
8097/=
58457 32762 80705 10223 20178 30083 40133 52029 885//=
59134 11557 80904 10231 20222 39956 40115 52016 69921
71098 881//=
58321 11560 80904 10212 20109 40136 52016 69911 76060 885//=
50953 32768 42203 10256 20010 39795 49963 57007 84500=
50548 32680 73601 10191 20036 49956 52021 83402=
50834 32580 72706 10256 21022 49969 52015 87502=
53480 32980 22502 10188 20029 40104 52004 80001=
53787 32980 71603 10228 20015 40098 52004 80002=
53898 32965 71804 10261 20131 40108 52001 8703/=
54527 32970 71402 10250 20170 40094 52005 80002=
54602 32970 82202 10261 20126 40096 52004 80007=
54725 32965 81102 10260 20118 40099 52006 80007=
54751 32962 02003 10165 20153 40103 52003=
54916 32960 72003 10237 20124 40126 52006 80002=
58208 11465 81403 10203 20126 40138 52015 69961 72160 8377/=
58362 32970 71102 10216 20129 30131 40141 52016 8703/=
56294 32965 82004 10220 20124 39538 40115 52005 8807/ 333
00151=
56492 32861 80000 10205 20164 39728 40123 52010 885// 333
00353=
56571 32780 71801 10215 20158 38334 52006 87402 333 05205=
56651 11680 72702 10184 20125 37601 52009 69901 70080 85402
333// 00103=
56778 32580 62002 10241 20143 38060 52007 82442 333// 00005=
56951 11780 63402 10232 20180 38453 52004 69901 70080 86440
333// 00101=
57328 11430 80402 10167 20164 39724 40127 52007 60061 76066
887//=
57411 32968 80701 10177 20152 39763 40125 52005 8807/=
57516 11550 83601 10185 20158 39816 40120 52007 69911 71060
887// 333 00353=
57816 11656 80204 10152 20145 38758 40107 52006 69981 76060
885// 333// 00053=
50136 32670 73206 10102 21011 39482 49990 52004 87900=
50353 11670 42703 10135 21024 39757 49966 52007 69901 70080
84900 333 91117 91534=
50557 32670 73607 10199 21019 39677 49954 52025 87800=
50756 32670 72704 10240 20016 39674 49947 52002 83802=
50788 32570 22002 10195 20073 39851 49931 57006 82100=
50963 32970 02204 10208 20058 39829 49957 57003=
50978 32980 02703 10179 20082 39687 49964 52004=
54236 32980 22003 10248 20021 39938 40035 52002 80002=
50527 32970 73404 10166 20005 39300 49995 52014 80002=
50727 11580 70202 10168 20019 38877 40010 52015 69901 78000
879//=
53564 32980 61401 10248 20064 39122 40078 57007 80002 333//
05304=
53959 11970 70902 10174 20152 39698 40136 57008 69911 70060
8707/=
54102 32980 32004 10209 20020 38942 40040 57011 80002=
54843 32965 70402 10232 20147 30080 40106 52011 80002=
54909 32970 82003 10223 20127 30062 40123 52006 8807/=
58730 11459 80000 10237 20230 40101 52016 60091 78086 884//=
58731 11258 81601 10212 20204 40111 52017 60041 76060 885//=
58754 11562 80000 10206 20190 40141 52020 60021 76060 885//=
58911 11376 70000 10227 20221 40106 52016 60191 72198 82542=
58931 11/00 92010 10169 20169 38371 52016 60061 74598
333 91120 91520=
56193 32680 80000 10215 20112 40101 52012 8547/ 333 05103=
56196 32980 71802 10233 20120 40103 52005 8703/ 333 00001=
56287 11570 70000 10201 20139 40123 52010 69901 76000 8174/
333 00151=
56385 11/00 90000 10033 20031 37023 52009 69901 76064 333
00001=
56666 11780 61401 10285 20172 49972 57019 69901 70098 86400
333 05104=
56671 11780 60000 10243 20175 38149 52004 69901 70080 85442
333 05103=
56684 32580 70402 10196 20143 37856 52007 87400 333// 00004=
56751 32680 51107 10203 20154 37976 52001 84402 333// 00151=
56786 32575 61805 10214 20172 38069 52009 86200 333// 05103=
56886 32680 22203 10225 20187 38222 52007 82340 333// 05104=
56977 32580 30901 10257 20212 40037 52006 81902 333// 00102=
57206 32680 20000 10208 20115 40104 52004 82400=
57348 11770 83603 10169 20127 40123 52001 60011 70060 885//=
57426 11450 80401 10170 20168 40123 52007 60021 76060 887//
333 00352=
57602 32865 80000 10203 20153 40122 52008 885//=
57713 11662 83402 10172 20149 40108 52011 69901 76060 885//
333 00253=
58362 32970 71102 10216 20129 30131 40141 52016 8703/=
59417 11475 81402 10270 20253 39897 40044 52005 69951
78098 889//=
57259 11568 80901 10165 20122 40155 52002 69911 76060 8277/=
57355 11965 81101 10181 20161 40130 52003 69911 70060 8807/=
57447 11456 82901 10178 20168 39594 40122 52001 69971 72160
8172/=
57458 32965 80000 10172 20119 40130 52008 8807/ 333 00253=
57972 11962 80000 10266 20248 39867 40081 52013 69921 70060
8807/=
53646 32980 51402 10240 20029 38918 40084 57004 80002 333
05303=
52681 32980 70000 10269 20051 38542 49998 57006 81042 333
05505=
52323 32780 73405 10206 21010 38176 52004 82402 333 05153=
57127 11761 70703 10161 20126 39553 40146 52007 60021 70060
8353/=
57036 11562 80000 10165 20150 39677 40143 57005 60011 70060
8377/=
53845 32970 72204 10192 20067 39056 40129 52003 80002 333
00153=
57245 11562 82703 10136 20131 39817 40162 52008 60011 76066
8572/ 333 00257=
56033 11580 82703 10060 21046 36050 52009 69911 70080 889//
333 00204=
52836 32680 72701 10116 20040 36900 57003 81102 333 00004=
52436 32970 82702 10221 20015 38408 40027 52012 8807/ 333
00151=
57046 11/58 71403 10068 20054 37941 57005 60011 74060 8253/
333 05154=
57016 32765 71401 10154 20124 40147 57007 8253/=
56065 32680 50000 10094 20011 36634 57003 81442 333 05107=
54618 32962 61801 10266 20093 30081 40098 52005 80002=
54401 32980 20901 10237 20052 39279 40092 57001 80002=
53798 32960 72001 10280 20119 30011 40099 52002 80002=
50246 32680 23203 10094 21021 49980 54000 82402=
50658 32680 52503 10238 20019 49938 52007 85500=
50844 32762 73605 10267 20016 49954 52007 875//=
50854 32770 82901 10260 20052 49953 57003 885//=
50888 32980 02003 10188 20071 49948 57001=
50968 32670 12202 10185 20105 49978 57006 81500=
50983 32970 03201 10162 20117 49954 52005=
54096 32970 02703 10159 20064 49990 52013=
54259 32970 12201 10204 20086 40056 52010 80002=
54324 32980 00000 10263 20005 40047 57001=
54346 32968 02702 10243 20090 40066 52014=
54493 32974 00000 10193 20076 40069 52021=
54308 32980 11102 10234 20014 40076 52003 80002=
54423 32580 10000 10236 20074 39642 40083 52003 81100=
53588 32980 52204 10110 21009 37814 57003 80002=
53352 32980 72003 10220 21040 40077 57005 80002=
53593 32980 21401 10235 21013 40096 57001 80002=
53764 32572 72205 10241 20067 40090 52006 81402=
53863 32665 72208 10213 20071 40106 52005 86402=
53975 32970 71803 10218 20062 40122 52008 8703/=
54405 32980 03602 10261 20067 40089 57001=
54436 32980 02503 10251 20080 40081 52009=
54808 32970 71803 10232 20183 40110 52005 80002=
54826 32965 82509 10128 20114 38467 52004 80007=
54836 32965 82503 10242 20101 40119 52014 80007=
54863 32980 22904 10239 20075 40107 52015 80002=
57071 32968 82005 10208 20114 40134 52001 8807/=
47401 11250 80803 10084 20084 39832 49845 57005 60332 78088
887// 333 10094=
47412 11/56 81605 10137 20121 39817 49847 55000 60042 78082
882// 333 10181=
47420 11/06 91908 10127 20125 39839 49884 58020 60342 74584
333 10127=
47426 11/57 72704 10131 20122 39868 49911 53003 60212 78085
876// 333 10141=
47582 11/60 82512 10148 20128 39962 49987 51018 60012 78082
882// 333 10199=
47590 32/65 73008 10221 20121 39921 49970 51016 81201 333
10281=
47600 11/60 82504 10167 20147 30020 40036 52027 69952 72582
882// 333 10216=
47648 31/50 62106 10194 20182 39950 49982 53028 71022 82572
333 10233=
47662 32960 72402 10256 20175 39932 49972 53030 8707/ 333
10295=
47678 11/57 82308 10214 20206 39949 40041 51018 69902 72582
882// 333 10223=
47740 11/58 72704 10185 20150 30018 40055 51027 69902 78011
872// 333 10221=
47778 12/60 72704 10210 20184 39954 40040 53020 69902 81132
333 10243=
47807 32/65 22303 10196 20131 30072 40089 51024 81131 333
10261=
47827 31/59 33104 10197 20156 30063 40099 51021 71011 81201
333 10261=
47843 32/75 13005 10185 20127 30067 40098 53019 81100 333
10239=
47898 12970 63503 10210 20166 30022 40060 53024 69902 80002
333 10250=
47909 11/60 83101 10220 20178 30108 40117 52007 69952 72186
8227/ 333 10247=
47918 11/70 82004 10278 20260 30101 40109 51016 69902 72598
8737/ 333 10309=
47936 11/70 82801 10243 20233 30058 40119 53010 60062 76186
8582/ 333 10262=
47945 11/40 72302 10251 20244 30103 40126 51016 69902 71084
876// 333 10289=
47971 32265 72302 10244 20234 30138 40147 53015 872// 333
10269=
47991 11/80 21604 10259 20215 30160 40170 51011 69902 70281
81230 333 10292=
50603 32980 70203 10212 21006 39368 49991 52010 83032=
54026 32980 12203 10281 20018 39690 49989 54000 80002=
54027 32980 02705 10255 21051 39474 40020 57001=
58926 11465 80000 10238 20228 40106 52016 80221 76098 885//=
58944 11256 80404 10221 20212 40127 52017 69901 76060 887//=
58472 32972 70903 10186 20150 30052 40148 52019 8704/=
58725 11760 80000 10240 20234 39845 40096 52011 60021 70060
885//=
58921 11460 83602 10233 20220 39867 40103 52037 60121 79598
889//=
58321 11560 80904 10212 20109 40136 52016 69911 76060 885//=
58531 32970 80703 10265 20181 40101 52015 8807/=
58326 32960 80403 10228 20142 40135 52015 8807/=
58314 11965 83401 10215 20178 30052 40137 52011 69901 70060
8807/=
58437 11/00 90904 10132 20132 38176 52006 69911 76064=
58015 32965 82203 10229 20133 40128 52004 8807/=
58102 32970 82201 10216 20158 30085 40134 52009 8807/=
58215 11958 81601 10200 20167 40139 52003 69931 76060 8807/=
58221 11660 80000 10222 20159 30108 40142 52009 69901 70060
885//=
58338 31758 80703 10234 20147 40126 52015 70500 885//=
58424 32960 83604 10240 20194 30090 40113 52015 8807/=
58319 32960 83606 10227 20184 40124 52016 8807/=
58236 11965 83601 10221 20139 40128 52007 69911 76060 8807/=
58436 32962 80402 10249 20171 40123 52015 8807/=
57554 11866 80402 10191 20134 40126 52009 69901 70060 885//=
57598 11760 80000 10239 20217 40098 52015 69901 72160 8652/=
57745 11460 80901 10194 20183 39789 40104 52013 69981 76060
8372/=
57799 11757 80000 10237 20221 30011 40092 52019 69941 71060
885//=
57845 11440 83602 10216 20208 40082 52012 69951 76066 8772/=
50632 32975 73205 10162 21034 39145 49975 52014 80002=
59995 11480 52506 10294 20255 30059 40067 52010 69901 70080
82202 66660 30104 52510=
71098 881//=
50548 32680 73601 10191 20036 49956 52021 83402=
50527 32970 73404 10166 20005 39300 49995 52014 80002=
58730 11459 80000 10237 20230 40101 52016 60091 78086 884//=
58731 11258 81601 10212 20204 40111 52017 60041 76060 885//=
58754 11562 80000 10206 20190 40141 52020 60021 76060 885//=
58911 11376 70000 10227 20221 40106 52016 60191 72198 82542=
57206 32680 20000 10208 20115 40104 52004 82400=
57713 11662 83402 10172 20149 40108 52011 69901 76060 885//
333 00253=
57458 32965 80000 10172 20119 40130 52008 8807/ 333 00253=
57972 11962 80000 10266 20248 39867 40081 52013 69921 70060
8807/=
47401 11250 80803 10084 20084 39832 49845 57005 60332 78088
887// 333 10094=
47412 11/56 81605 10137 20121 39817 49847 55000 60042 78082
882// 333 10181=
47420 11/06 91908 10127 20125 39839 49884 58020 60342 74584
333 10127=
47426 11/57 72704 10131 20122 39868 49911 53003 60212 78085
876// 333 10141=
47582 11/60 82512 10148 20128 39962 49987 51018 60012 78082
882// 333 10199=
47590 32/65 73008 10221 20121 39921 49970 51016 81201 333
10281=
47600 11/60 82504 10167 20147 30020 40036 52027 69952 72582
882// 333 10216=
47648 31/50 62106 10194 20182 39950 49982 53028 71022 82572
333 10233=
47662 32960 72402 10256 20175 39932 49972 53030 8707/ 333
10295=
47678 11/57 82308 10214 20206 39949 40041 51018 69902 72582
882// 333 10223=
47740 11/58 72704 10185 20150 30018 40055 51027 69902 78011
872// 333 10221=
47778 12/60 72704 10210 20184 39954 40040 53020 69902 81132
333 10243=
47807 32/65 22303 10196 20131 30072 40089 51024 81131 333
10261=
47827 31/59 33104 10197 20156 30063 40099 51021 71011 81201
333 10261=
47843 32/75 13005 10185 20127 30067 40098 53019 81100 333
10239=
47898 12970 63503 10210 20166 30022 40060 53024 69902 80002
333 10250=
47909 11/60 83101 10220 20178 30108 40117 52007 69952 72186
8227/ 333 10247=
47918 11/70 82004 10278 20260 30101 40109 51016 69902 72598
8737/ 333 10309=
47936 11/70 82801 10243 20233 30058 40119 53010 60062 76186
8582/ 333 10262=
47945 11/40 72302 10251 20244 30103 40126 51016 69902 71084
876// 333 10289=
47971 32265 72302 10244 20234 30138 40147 53015 872// 333
10269=
47991 11/80 21604 10259 20215 30160 40170 51011 69902 70281
81230 333 10292=
50603 32980 70203 10212 21006 39368 49991 52010 83032=
58203 11920 80000 10201 20188 30093 40138 52005 69941 76060
8802/=
56763 11680 22002 10309 20156 49975 52008 69911 70080 82402
333 05103=
56986 32/60 71402 10214 20205 40049 52005 874// 333 00101=
59072 11680 80000 10264 20250 40078 52014 69911 70080 884//=
44219 11597 62712 10148 20023 38505 40005 53008 69902 79522
86300 333 10210 91214 555 96108=
44221 11599 80000 10110 20074 38487 40047 54000 60033 70262
885// 333 10158=
44224 32698 70000 10073 21000 37973 40043 54000 87500 333
10114=
44243 32599 73605 10096 20059 39250 40003 56006 81710 333
10220=
44291 11898 62003 10131 21012 38591 40031 56015 69902 70298
83072 333 10286=
44374 32599 62709 10217 21064 38186 49959 56006 86500 333
10246=
44385 31997 62709 10268 21067 38806 49986 56010 70722 80008
333 10293=
53705 32965 82709 10079 20033 40181 52035 8807/ 333 01060
91125 91532=
53614 32770 21806 10219 20061 38854 40071 52006 81102 333
05301=
53723 31915 83207 10114 21021 38644 40139 52058 70930 8807/
333 00757=
52713 32680 72904 10126 21047 36910 57001 82102 333 05102=
52754 32580 71402 10101 21020 36795 57002 878// 333 05103=
56046 31580 70402 10093 20008 36269 54000 71700 87900 333
00007=
52866 32580 21401 10184 20008 37655 57004 81102 333 05304=
52955 32580 21403 10138 20014 36962 57004 82102 333 05307=
47575 11/65 72414 10161 20106 39916 49920 50014 69952 72582
872// 333 10237=
47585 11/70 72306 10201 20111 39873 49926 53007 69902 72522
81272 333 10274=
47598 11/80 73006 10229 20137 39971 49976 53018 69902 72522
872// 333 10260=
47602 12/60 82908 10166 20148 30003 40023 52021 69952 882//
333 10188=
47618 32/65 52304 10214 20065 39317 49991 51026 82102 333
10289=
47624 32/75 63305 10229 20137 39858 49986 52038 85130 333
10295=
47636 32/70 73004 10211 20145 39977 40041 51030 872// 333
10283=
47655 12965 02507 10211 20181 39957 40010 53025 69952 333
10233=
47750 12/65 72401 10193 20152 30027 40053 53027 69902 85202
333 10260=
47755 32/60 72206 10199 20141 30048 40071 53025 8117/ 333
10214=
47772 32/65 72505 10237 20147 39950 40044 51028 8727/ 333
10270=
47800 32960 02709 10191 20117 30058 40080 53030 333 10223=
47815 32/65 12905 10229 20113 30057 40072 51035 81100 333
10283=
47817 32/80 13003 10190 20132 30059 40100 53021 81100 333
10230=
47830 32965 12606 10207 20148 30058 40075 51026 80001 333
10283=
47837 31/58 32809 10208 20170 30072 40093 51015 71011 83100
333 10246=
47891 32/65 22707 10233 20132 30042 40053 53030 82131 333
10278=
47899 32965 22810 10208 20182 39832 40045 53018 80001 333
10239=
47927 11/70 71803 10265 20255 30068 40114 51017 69902 71382
8397/ 333 10297=
58407 11960 83202 10243 20195 40104 52014 69901 76060 8807/=
56021 11380 71602 10025 20015 36110 54000 60021 70098 82902
333 00351=
56018 11470 82503 10029 20015 36221 52019 60031 78398 889//
333 00453 93906=
52908 11580 60205 11011 21026 35805 52014 69921 72683 84902
333 00102 91121 91529=
52737 11680 72902 10112 20043 37074 57005 69901 78000 86902
333 05151=
56029 11680 80000 10063 20035 36507 52039 60051 72598 889//
333 00354 93901=
52602 31780 72909 10131 21068 37278 52009 71400 83902 333
00253 91117 91529=
56004 11680 63206 10044 21052 35861 52010 60011 70098 82102
333 00202=
52818 32680 73204 10171 21071 37223 52008 82102 333 05103=
51886 11780 70705 10106 21002 37130 52006 69901 72598 86902
333 00154=
53698 32975 71402 10261 20135 40098 52003 80002=
56444 11570 70902 10108 20082 36807 52001 69901 70080 871//
333 00200=
56691 11/08 93604 10112 20110 37773 52006 69901 76064 333
00051=
57902 11457 80902 10182 20177 38585 40077 52009 69931 76066
887// 333 00001=
81100 22213 20201 30000 80187=
10402 70009
333 91207=
82861 22283 00300 2//// 3//// 4//// 5//// 80270=
81080 22274 00240 20201 322// 40603 80168=
84132 22223 00080 20202 331// 40203 80050=
57707 11350 80000 10126 20110 38480 52012 69901 76060 887//
333 00153=
57731 11562 80202 10200 20181 40104 52011 69921 76066 885//=
57832 11468 83602 10181 20171 40106 52014 69901 76066 887//=
57916 11456 80000 10229 20187 40071 52010 69961 76080 885//=
57922 11330 80000 10215 20194 40078 52005 60011 76060 887//=
57932 11470 80000 10239 20229 40076 52015 69921 76060 885//=
10328 50440 55079 01259 21744 30745 81818 85080=
59017=
58011=
83840=
58203 11920 80000 10201 20188 30093 40138 52005 69941 76060
8802/=
58311 11564 80702 10218 20127 40139 52014 69901 76060 885//=
8297/=
56586 32465 83403 10103 20088 38033 52008 885// 333// 00051=
56748 11580 70000 10213 20157 38306 52007 69921 70080 86442
333// 00151=
56763 11680 22002 10309 20156 49975 52008 69911 70080 82402
333 05103=
56768 32680 22201 10244 20145 38179 52009 82402 333// 00101=
56838 11680 72004 10248 20199 40050 52007 69901 72980 879//
333 00152=
56946 32580 50000 10266 20202 40037 52006 83462 333 00002=
56954 32580 51101 10263 20205 40050 52011 81242 333// 00002=
56959 11780 70000 10245 20226 40035 52014 60011 70098 83403
333// 00154=
56966 32780 41603 10313 20216 49991 52008 82402 333// 00002=
56969 32680 30000 10274 20236 40040 52006 81401 333// 00000=
56986 32/60 71402 10214 20205 40049 52005 874// 333 00101=
57237 11962 80000 10144 20137 40137 52003 60091 76066 8807/=
57306 32780 71402 10189 20149 40122 52002 84460=
57504 32966 81601 10200 20150 40113 52006 8807/ 333 00252=
59007 11670 60000 10217 20204 40061 52010 69901 70060 82532=
59072 11680 80000 10264 20250 40078 52014 69911 70080 884//=
44219 11597 62712 10148 20023 38505 40005 53008 69902 79522
86300 333 10210 91214 555 96108=
44221 11599 80000 10110 20074 38487 40047 54000 60033 70262
885// 333 10158=
44224 32698 70000 10073 21000 37973 40043 54000 87500 333
10114=
44243 32599 73605 10096 20059 39250 40003 56006 81710 333
10220=
44291 11898 62003 10131 21012 38591 40031 56015 69902 70298
83072 333 10286=
44374 32599 62709 10217 21064 38186 49959 56006 86500 333
10246=
44385 31997 62709 10268 21067 38806 49986 56010 70722 80008
333 10293=
53705 32965 82709 10079 20033 40181 52035 8807/ 333 01060
91125 91532=
52533 32770 72504 10225 20001 38458 40037 52018 83902 333
00151=
53614 32770 21806 10219 20061 38854 40071 52006 81102 333
05301=
53723 31915 83207 10114 21021 38644 40139 52058 70930 8807/
333 00757=
52713 32680 72904 10126 21047 36910 57001 82102 333 05102=
52754 32580 71402 10101 21020 36795 57002 878// 333 05103=
56046 31580 70402 10093 20008 36269 54000 71700 87900 333
00007=
52866 32580 21401 10184 20008 37655 57004 81102 333 05304=
52955 32580 21403 10138 20014 36962 57004 82102 333 05307=
47575 11/65 72414 10161 20106 39916 49920 50014 69952 72582
872// 333 10237=
47585 11/70 72306 10201 20111 39873 49926 53007 69902 72522
81272 333 10274=
47598 11/80 73006 10229 20137 39971 49976 53018 69902 72522
872// 333 10260=
47602 12/60 82908 10166 20148 30003 40023 52021 69952 882//
333 10188=
47618 32/65 52304 10214 20065 39317 49991 51026 82102 333
10289=
47624 32/75 63305 10229 20137 39858 49986 52038 85130 333
10295=
47636 32/70 73004 10211 20145 39977 40041 51030 872// 333
10283=
47655 12965 02507 10211 20181 39957 40010 53025 69952 333
10233=
47750 12/65 72401 10193 20152 30027 40053 53027 69902 85202
333 10260=
47755 32/60 72206 10199 20141 30048 40071 53025 8117/ 333
10214=
47772 32/65 72505 10237 20147 39950 40044 51028 8727/ 333
10270=
47800 32960 02709 10191 20117 30058 40080 53030 333 10223=
47815 32/65 12905 10229 20113 30057 40072 51035 81100 333
10283=
47817 32/80 13003 10190 20132 30059 40100 53021 81100 333
10230=
47830 32965 12606 10207 20148 30058 40075 51026 80001 333
10283=
47837 31/58 32809 10208 20170 30072 40093 51015 71011 83100
333 10246=
47891 32/65 22707 10233 20132 30042 40053 53030 82131 333
10278=
47899 32965 22810 10208 20182 39832 40045 53018 80001 333
10239=
47927 11/70 71803 10265 20255 30068 40114 51017 69902 71382
8397/ 333 10297=
JNSR    28124 99447 11549
41/92 /1507 10081 2//// 40102 57028 74544 8////
22283 06054 11503=
50774 32660 22902 10197 20057 39653 49937 52002 82500=
54094 32660 31801 10187 20099 39704 49985 52005 83500=
50949 32665 62005 10264 20047 39811 49968 57009 82402=
54161 32770 52007 10248 20053 39732 40004 52004 82502=
54292 32962 02704 10185 20084 39799P40007 52023=
54374 32962 03602 10165 20087 39673 40061 52024=
50442 32670 23404 10153 21072 49976 52033 82400=
54115 32980 02203 10209 20006 40047 57002=
54157 32764 62204 10250 21008 40024 52004 86500=
54186 32970 02203 10181 20056 40024 52010=
54377 32975 02501 10194 20084 40068 52022=
54386 32970 00000 10144 20053 40058 52022=
53068 32980 72704 10263 21081 38977 40035 54000 80002 333//
05406=
53231 32970 51808 10220 21118 38429 57006 80002 333// 05401
91117 91516=
53276 32980 22006 10219 20007 38808 40070 57004 80002=
54135 32980 62505 10268 20024 39811 40016 57002 80002=
54539 32980 22203 10241 20142 30078 40092 52013 80002=
54753 32965 02001 10201 20159 30101 40107 52005=
54857 32965 72002 10208 20147 30020 40109 52006 84032=
57067 11463 82001 10155 20152 39503 40164 52001 60041 76166
8272/=
57178 11462 83202 10169 20147 30001 40155 52003 60061 76066
8172/=
57297 11656 81804 10157 20119 30016 40152 52018 60121 76160
8802/=
57793 11656 80702 10225 20210 40101 52019 69971 72160 885//=
57993 11862 80000 10265 20245 39944 40087 52018 69961 76060
885//=
58203 11920 80000 10201 20188 30093 40138 52005 69941 76060
8802/=
58407 11960 83202 10243 20195 40104 52014 69901 76060 8807/=
56021 11380 71602 10025 20015 36110 54000 60021 70098 82902
333 00351=
56018 11470 82503 10029 20015 36221 52019 60031 78398 889//
333 00453 93906=
52908 11580 60205 11011 21026 35805 52014 69921 72683 84902
333 00102 91121 91529=
52737 11680 72902 10112 20043 37074 57005 69901 78000 86902
333 05151=
56029 11680 80000 10063 20035 36507 52039 60051 72598 889//
333 00354 93901=
52602 31780 72909 10131 21068 37278 52009 71400 83902 333
00253 91117 91529=
56004 11680 63206 10044 21052 35861 52010 60011 70098 82102
333 00202=
52818 32680 73204 10171 21071 37223 52008 82102 333 05103=
51886 11780 70705 10106 21002 37130 52006 69901 72598 86902
333 00154=
53698 32975 71402 10261 20135 40098 52003 80002=
56146 32780 72503 10135 20036 36730 52015 84902 333 00303=
56172 32780 62701 10165 20089 37322 52004 82440 333 00303=
56247 11880 72201 10161 20128 37404 52008 60021 72580 879//
333 00658=
56444 11570 70902 10108 20082 36807 52001 69901 70080 871//
333 00200=
56462 11580 72902 10142 20120 37121 52013 60041 70080 874//
333 00002=
56691 11/08 93604 10112 20110 37773 52006 69901 76064 333
00051=
56739 11575 72201 10205 20173 38315 52005 69911 70080 87900
333// 00101=
56964 32577 62001 10252 20188 38647 40036 52007 82242 333//
00101=
56985 32575 21104 10242 20189 38643 40034 52010 82902 333//
00001=
57633 11460 80702 10176 20153 39359 40114 52010 69901 76060
887// 333 00356=
57902 11457 80902 10182 20177 38585 40077 52009 69931 76066
887// 333 00001=
59254 11565 83201 10275 20255 40062 52013 69911 78098 889//=
SHIP 28111 99259 70897 46/// /1706 10271 20236 40149 54000 91050
22200 00278 10502 70009
333 91207=
SHIP 28111 99411 70666 46/// /3601 10105 40094 53010 91050 22200
00090 10801 70007
333 91202=
SHIP 28111 99292 70882 46/// /2306 10271 20244 40146 52009 91050
22200 00277 10802 70008
333 91207=
SHIP 28111 99429 70689 46/// /3002 10102 40094 53006 91050 22200
00094 10701 70006
333 91202=
SHIP 28111 99288 70860 46/// /2505 10268 20239 40160 51008 91050
22200 00273 10701 70007
333 91206=
SHIP 28111 99289 70785 46/// /2307 10266 40166 53007 91050 22200
00263 10402 70008
333 91208=
SHIP 28111 99606 71468 46/// /3404 10103 40104 52005 91050 22200
00098 11401 70003
333 91205=
SHIP 28111 99425 71303 46/// /2808 10114 40204 51009 91050 22200
00117 10906 70031
333 91209=
SHIP 28101 99285 70802 46/// /2004 10254 40141 56005 90950 22200
00257 10801 70006
333 91205=
SHIP 28101 99292 70944 46/// /2201 10267 20237 40150 57006 90950
22200 00273 10603 70013
333 91202=
ZKWS 28123 99255 51650 41598 22709 10220 20154 40080 54000 70200
81136 22212 00235 20000 323// 40702 5//// 80180=
ZMFB 28123 99407 31728 41/98 80913 40186 22200 20201 30000 40000=
PFOH 28120 99222 51239 41598 12406 10238 20160 40118 56017 70200
81100 22213 20201 30000 80187=
ELXD4 28123 99027 31443 41097 50313 10283 20266 40118 51018 70322
84860 22273 00307 20502 304// 40503 5//// 80270=
9KEB 28123 99116 30932 41498 71313 10275 20246 40119 54000 70222
8672/ 22234 00300 20502 316// 40501 5//// 80255=
SHIP 28121 99259 70897 46/// /1607 10272 20236 40153 53007 91150
22200 00278 10502 70009
333 91208=
YJZR9 28123 99142 31571 41399 21413 10279 20244 40112 51002 70200
82000 22243 02284 20301 314// 40501 5//// 80254=
SHIP 28121 99411 70666 46/// /3502 10102 40096 52012 91150 22200
00094 10801 70007
333 91202=
SHIP 28121 99292 70882 46/// /2506 10271 20241 40150 53008 91150
22200 00276 10702 70009
333 91207=
SHIP 28121 99429 70689 46/// /3003 10102 40095 52009 91150 22200
00087 10801 70006
333 91203=
SHIP 28121 99288 70860 46/// /2504 10270 20236 40164 53009 91150
22200 00274 10601 70007
333 91205=
CBGR 28114 99193 31474 46/// /1919 10200 40190=
MYRF 28114 99183 31474 46/// /1723 10231 40157=
AGRF 28114 99160 31458 46/// /1321 10242 40150=
DVRF 28114 99188 31477 46/// /1922 10221 40158=
V7AT5 28113 99300 30508 41598 43320 10220 20195 40125 57020 70122
844// 22263 02210 20404 399// 4//08 5//// 80203=
VRRB 28124 99395 31558 41498 72917 10130 20043 49967 57017 75252
86/// 22263 00158 20604 328// 40807 5////=
SHIP 28101 99425 71303 46/// /2805 10110 40203 53010 90950 22200
00117 10906 70031
333 91207=
ZMIO 28124 99375 31735 41/98 90422 10168 20147 40176 50012 70322
89/// 22243 2//03 3//// 80156=
VSBU2 28123 99102 11266 41398 80908 10281 20256 40094 51020 70222
88300 22283 00280 2//// 3//// 4//// 5//// 80264=
SHIP 28123 99114 31300 41/96 20904 1028/ 40126 70100 222// 20301
317// 4//// 5////=
3EGR6 28123 99197 11138 41598 32014 10290 20262 40090 52020 70312
8333/ 22283 00290 20201 320// 40302=
PGWB 28120 99271 31536 41998 02509 10155 20048 40165 50020 70000
80000 22283 02225 20703 319// 40603 80100=
VLKG 28123 99356 31506 41/98 13322 10110 20056 40023 51014 80211
22213 80085=
SHIP 28121 99301 70888 46/// /2608 10271 20238 40162 53014 91150
22200 00280 10402 70008
333 91210=
SHIP 28121 99260 70878 46/// /1803 10270 20236 40157 53011 91150
22200 00276 10401 70006
333 91203=
SHIP 28121 99380 71300 46/// /3005 10134 40221 54000 91150 22200
00141 11403 70016
333 91206=
SHIP 28121 99526 71550 46/// /2907 10056 40249 53007 91150 22200
00059 10704 70018
333 91208=
VJDK 28123 99236 11266 41498 51606 10270 20249 40123 51013 70162
8//// 22243 00264 2//// 3//// 4//// 5//// 80255=
KRGC 28123 99181 10401 43997 03020 10311 2023/ 40040 54000 7////
80000 22233 00267 20402 330// 40603 80244=
D3FFY3D 28124 99292 70149 43797 70520 10210 2020/ 40200 54000 87474
22253 00190 20503 30500 40402 80190=
SHIP 28101 99259 70897 46/// /1506 10272 20237 40148 54000 90950
22200 00278 10502 70010
333 91207=
SHIP 28101 99411 70666 46/// /0101 10094 40086 55000 90950 22200
00090 10702 70008
333 91202=
SHIP 28101 99292 70882 46/// /2306 10271 20244 40141 55000 90950
22200 00278 10602 70010
333 91207=
SHIP 28101 99429 70689 46/// /2802 10102 40088 54000 90950 22200
00090 10801 70006
333 91202=
SHIP 28101 99288 70860 46/// /2605 10267 20240 40158 53006 90950
22200 00273 10601 70007
333 91206=
SHIP 28101 99289 70785 46/// /2207 10263 40159 56003 90950 22200
00263 10402 70009
333 91208=
SHIP 28101 99606 71468 46/// /3405 10102 40103 52007 90950 22200
00098 11401 70003
333 91205=
SHIP 28101 99260 70878 46/// /1702 10270 20238 40148 52004 90950
22200 00277 10501 70007
333 91203=
SHIP 28101 99526 71550 46/// /2807 10059 40243 51009 90950 22200
00060 10603 70017
333 91208=
SHIP 28121 99259 70936 46/// /1505 10269 20259 40146 53016 91150
22200 00269 10803 70017
333 91205=
SHIP 28121 99460 71310 46/// /3207 10090 30189 40189 53016 91150
22200 00095 10704 70020
333 91208=
WGKF 28124 99519 11634 43497 80114 10050 2001/ 40140 52030 7////
886// 22255 00032 20303 3//// 4//// 80033=
4XGS 28124 99256 11672 43498 30810 10255 20255 40215 54000 7////
83100 22264 00275 20402 307// 40402 5//// 80245=
WTST 28123 99318 71269 41398 83630 10160 2014/ 40180 54000 70222
886// 22264 00156 20807 3//// 4//// 5//// 6//// 80145 ICE=
9VVP 28124 99479 71648 41/98 /1616 00/// 10050 2000/ 40285 54000
70222 8//// 22225 04060 2//// 3//// 4//// 5//// 6//// 80030 /////=
PDHW 28121 99430 71459 41598 23605 10078 20033 40272 54000 7////
822// 22225 00100 20101 3//// 80057=
WJBJ 28124 99319 71270 41397 80124 10161 2014/ 40171 54000 70222
887// 22265 00176 20403 333// 40604 5//// 6//// 80150 ICE=
WNRD 28123 99345 71394 41398 80206 10162 2014/ 40216 58005 70222
886// 22265 00169 2//// 3//// 4//// 5//// 6//// 80152 ICE=
WZJD 28124 99308 71412 41598 81510 10200 2014/ 40230 57005 70222
884// 22214 00194 20201 329// 41004 5//// 6//// 80160 ICE=
SHIP 28121 99285 70802 46/// /2104 10256 40152 52013 91150 22200
00256 10401 70005
333 91205=
SHIP 28111 99285 70802 46/// /2204 10254 40151 53013 91050 22200
00256 10801 70006
333 91206=
SHIP 28111 99259 70936 46/// /1405 10267 20258 40139 53010 91050
22200 00269 10803 70017
333 91206=
SHIP 28111 99301 70888 46/// /2509 10274 20239 40156 53009 91050
22200 00281 10401 70007
333 91210=
SHIP 28111 99460 71310 46/// /3308 10090 30181 40181 51017 91050
22200 00095 10904 70021
333 91209=
SHIP 28111 99260 70878 46/// /1603 10270 20238 40151 53005 91050
22200 00277 10501 70006
333 91203=
9VBK 28111 99502 70007 41/9/ /2615 10116 20063 40065 52020 7////
22224 04115=
SHIP 28111 99380 71300 46/// /2905 10136 40221 56005 91050 22200
00141 11403 70017
333 91206=
SHIP 28111 99526 71550 46/// /3007 10059 40245 51007 91050 22200
00059 10703 70017
333 91208=
3FUX6 28124 99543 71722 41697 71712 10070 20049 40220 56020 70322
875// 22265 00010 80050=
KAOU 28124 99167 71507 41298 60720 10240 2023/ 40140 56025 70311
83250 22233 00250 20101 ///// ///// 80220=
ELWG9 28121 99465 71754 41/91 /1818 10086 20064 40070 56010 741//
8//// 22225 00050 20805 315// 41606 80075=
VRUN4 28124 99099 70979 41397 63122 10260 2025/ 40100 54000 70321
86249 22266 00290 20204 331// 40203 5//// 6//// 80250 ICE=
3FYE8 28124 99369 71640 41398 71011 10150 2010/ 40265 70222 87///
22223 00170 20301 301// 40301 5//// 6//// 80120=
3ETV8 28124 99502 71425 41696 72719 00/// 10070 2004/ 40214 51011
70222 8564/ 22274 00074 20805 333// 40805 5//// 6//// 80055=
3FOA6 28124 99389 71244 41797 33115 10120 2004/ 40200 53010 70111
81803 22283 00130 2//// 3//// 4//// 5//// 6//// 80080 ICE=
V2KS 28124 99074 51630 41597 31018 10280 2025/ 40115 56005 70210
82168 22214 00265 20403 309// 40503 5//// 6//// 80260 ICE=
P3YR5 28124 99047 10984 41898 52916 10320 2027/ 40013 54000 702//
811// 22200 00300 21202 3//// 4//// 5//// 6//// 80280 ICE=
PCEX 28120 99095 30855 41197 73610 10269 20240 40105 50010 71322
86708 22233 299// 80248=
SHIP 28121 99285 70802 46/// /2204 10256 40154 91220 22200 00257
10301 70005
333 91205=
DNMR 28120 99289 71277 41597 83209 10175 20175 40200 51010 70222
884// 22254 00193=
VNVZ 28123 99124 11279 41398 81420 10275 20253 40097 52018 70212
8628/ 22244 00299 20403 314// 40603 5//// 6//// 80260=
DQVM 28120 99349 11472 41/97 /1914 10220 20206 40080 51010 70266
8//// 22225 00195 2//// 3//// 80210=
3FTR6 28124 99522 11629 41696 80116 ///// 10050 2003/ 40160 52070
70222 88627 22263 00050 20503 30132 40503 50402 6//// 80040 /////
/////=
ELVS2 28124 99452 11667 43697 73115 ///// 10060 2006/ 40200 54007
70222 877// 22224=
MRGU3 28123 99477 11731 41498 82825 10038 20025 40084 58015 75052
886// 22225 04039 20506 328// 40706 5//// 80033=
4XGV 28123 99405 11573 41/90 92206 10140 20140 40235 54000 74701
22214 00140 20201 80140=
WHRN 28124 99384 11490 41396 81840 10206 2018/ 40000 52020 76362
887// 22225 00222 2//// 3//// 4//// 5//// 6//// 80194 ICE=
KGJB 28124 99444 71424 41998 03412 10083 2005/ 40258 52010 70111
8//// 22214 00087 2//// 3//// 4//// 5//// 6//// 80067 ICE=
WTDM 28124 99555 71584 41697 33306 10064 2000/ 40231 54001 70300
83//4 22272 00071 20203 3//// 4//// 5//// 6//// 80039 ICE=
3FFS6 28124 99537 71537 41/96 43424 10080 2109/ 40220 54000 70322
8//// 22265 00080 2//// 3//// 4//// 5//// 6//// 80020 ICE=
3ETH9 28124 99470 71390 41698 53421 10075 2004/ 40226 52018 70211
8437/ 22274 00100 80060=
C6CE7 28124 99455 71524 41598 63410 10080 2004/ 40310 54000 70322
8687/ 22213 00120 2//// 3//// 4//// 5//// 6//// 80060 ICE=
OXPW2 28124 99479 71481 43/98 82411 10074 2003/ 40245 54000 7////
8//// 22265 00077 29903 3//// 4//// 5//// 6//// 80056 ICE=
WTEU 28124 99317 71237 41397 83616 10167 2015/ 40155 54000 70222
88800 22262 00167 20404 301// 41006 5//// 6//// 80158 ICE=
SHIP 28111 99289 70785 46/// /2206 10266 40169 91120 22200 00263
10402 70009
333 91207=
SHIP 28111 99606 71468 46/// /3303 10102 40105 91120 22200 00098
11701 70003
333 91204=
SHIP 28101 99301 70888 46/// /2208 10272 20245 40148 54000 90950
22200 00280 10301 70007
333 91210=
SHIP 28101 99460 71310 46/// /3307 10090 30177 40177 51020 90950
22200 00095 10904 70022
333 91209=
SHIP 28101 99259 70936 46/// /1407 10267 20257 40127 56006 90950
22200 00269 10803 70017
333 91208=
SHIP 28101 99380 71300 46/// /2805 10136 40221 57005 90950 22200
00141 11403 70016
333 91205=
9VBK 28101 99502 70011 41/9/ /2714 10109 20052 40059 52020 7////
22224 04113=
JFOY 28124 99238 11355 41497 31611 10300 20253 40140 57017 70200
831// 22283 00270 2//// 3//// 4//// 80265=
JDSS 28124 99325 11610 41/97 81106 10181 20136 40222 52011 70211
8//// 22282 00189=
JRZH 28124 99178 11383 41597 21010 10286 40135 52018 70111 822//
22233 06295 80256=
SHIP 28124 99127 11129 41498 31103 10285 20258 40072 53012 70200
82232 22214 00300 20401 324// 40602 80265=
4XGT 28124 99303 11255 43898 32008 10200 2019/ 40135 51010 8261/
22214 00226 20202 80195=
JNZJ 28124 99246 11429 41498 22008 10260 20245 40154 52004 70200
82234 91150 22233 00250 20000 314// 40101 80250=
ELMA4 28124 99129 11441 41898 00920 10280 20253 40125 52015 70200
80000 91115 22234 00290 1//// 2//// 3//// 4//// 5//// 6//// 80260
/////=
ELJS7 28124 99500 71352 41598 62919 10080 20060 40185 51015 70222
8631/ 22274 00090 80070=
DATG 28120 99350 71772 41397 61710 10180 20148 40230 51004 70322
868// 22214 20725 317// 40904 80160=
3ECM7 28124 99542 71637 41598 32604 10060 20027 40266 55004 70321
8346/ 91150 22223 00090 20202 334// 40203 80045=
JMMU 28124 99353 71350 41596 83101 10153 20138 40241 57004 72052
8682/ 22223 02155 80144=
SHIP 28124 99099 31367 41/96 41520 10280 40106 70202 222// 20204
311// 40406=
C6MJ6 28124 99203 11298 41398 20812 10280 20277 40132 52038 70101
821// 9//// 22284 00285 1//// 20502 309// 40503 5////=
C6NT7 28124 99113 11278 41498 71422 10265 20241 40088 52015 70222
85453 91155 22244 00288 1//// 20302 310// 40503 5//// 6//// 80245=
9MBK8 28124 99296 11277 41496 73414 10214 20173 40118 70325 81///
22213 00250 2//// 3//// 4//// 5//// 80189=
3FWM4 28120 99419 11546 41397 81620 10160 20145 40120 50010 70322
88/// 91200 22214 00130 2//// 3//// 4//// 80150=
JKCF 28124 99496 11719 41497 83027 10060 20039 40040 52025 70222
88/// 22264 00040 80050=
JMQY 28124 99455 11726 41397 82718 10060 20050 40143 57010 70222
885// 22225 00050 20302 315// 40504 80055=
ELJW2 28124 99435 11731 41/96 82918 10065 20015 40179 56003 70222
88/// 91200 22224 00060 80040=
VNVS 28123 99274 11366 41/96 82307 10235 20227 40148 52010 72841
8//// 22283 00233 2//// 3//// 4//// 80230=
JCIR 28124 99219 11322 41498 21407 10270 20250 40133 52024 70100
81511 22244 00285 20303 309// 40403 5//// 80255=
JPBY 28124 99196 11334 41698 10911 10280 20253 40128 52016 70101
81100 22261 00290 2//// 3//// 4//// 80260=
3FRR5 28123 99068 11544 41/97 90913 10270 20249 40110 50003 70222
89578 22234 04260 20402 309// 40402 80250=
SHIP 28123 99204 11333 41498 40606 10290 20262 40131 52035 70200
82861 22283 00300 2//// 3//// 4//// 5//// 80270=
JPPT 28124 99346 11688 41398 83314 10160 20144 40230 51025 70322
875// 22264 00170 20402
333 4//// 5//// 80150=
SHIP 28111 99285 70802 46/// /2305 10256 40154 91120 22200 00256
10301 70006
333 91205=
SHIP 28101 99289 70785 46/// /2306 10264 40164 91020 22200 00263
10402 70009
333 91208=
SHIP 28101 99606 71468 46/// /3504 10102 40103 91020 22200 00098
11401 70003
333 91205=
SHIP 28121 99289 70785 46/// /2305 10266 40173 53015 91150 22200
00262 10402 70008
333 91206=
SHIP 28121 99606 71468 46/// /3202 10101 40105 51005 91150 22200
00098 11401 70003
333 91203=
SHIP 28121 99425 71303 46/// /2807 10114 40207 51008 91150 22200
00117 10905 70026
333 91209=
VNVG 28123 99077 11269 41/98 61609 10280 20237 40095 51015 71355
8//// 22243 00299 80250=
WGZK 28124 99207 11227 41498 11205 10280 2026/ 40105 52020 7021/
811// 22253 0//// 20101 3//// 4//// 5//// 6//// 80265 ICE=
WFLH 28124 99170 11580 41498 20917 10272 2023/ 40141 52011 71681
82200 22200 00289 20303 3//// 4//// 5//// 6//// 80244 ICE=
WCX8882 28124 99485 11708 41498 83026 10050 2003/ 40050 54000 70322
886// 22225 0//// 20707 329// 40807 5//// 6//// 80040 ICE=
3EAD9 28124 99369 11480 41/90 91732 10195 40015 76446=
KIRH 28123 99434 11758 41497 82920 10083 2005/ 40172 57005 70222
88600 22215 00078 20404 3//// 4//// 5//// 6//// 80067 ICE=
VLST 28114 99407 31461 46/// /2231 10088 20038 39983 40013 52018
22234 85064=
SHIP 28111 99272 70904 46/// /1604 10266 40144 53005 91050 22200
00266
333 91205=
ELXD6 28123 99381 51590 /1/94 /0940 00/// 10155 20143 40050 58020
6//// 72165 8//// 22212 0//// 20605 309// 40805 5//// 6//// 80150=
3FJR6 28124 99207 71600 42/97 40512 10250 40160 7////=
ELXD7 28123 99206 31722 41697 31213 10246 20182 40134 54000 70322
834// 22223 00240 20503 30913 40503 50604 80205=
9KWK 28123 99245 31054 42598 32215 10220 20154 40153 51009 70222
83371 22233 00190 20504 32021 40403 50403 80180=
PDLF 28120 99210 30981 41698 12701 10230 20130 40156 52031 70200
81080 22274 00240 20201 322// 40603 80168=
ZMKA 28124 99283 31575 41598 62619 10185 20101 41012 54008 70222
865// 22233 00/// 20302 324// 41005 5//// 80140=
YJQL3 28123 99308 31614 41497 42313 10190 20118 40099 54000 70212
842// 22223 00200 20000 330// 40804 5//// 80150=
JNSR 28124 99447 11549 41/92 /1507 10081 2//// 40102 57028 74544
8//// 22283 06054 11503=
C6FH5 28124 99206 11516 43/98 /0928 10270 2024/ 40125 54000 22213
00280 80250=
VTST 28124 99351 31512 41898 12742 10110 20072 40040 52020 70211
81040 22213=
VRRB 28124 99395 31558 41498 72917 10130 20043 49967 57017 75252
86/// 22263 00158 20604 328// 40807 5//// 80902=
VNGK 28121 99034 11432 41398 31305 10285 20249 40094 54001 71582
832// 22234 00310 20402 312// 40602 5//// 80260=
GQHC 28123 99462 51433 41597 52528 10078 20036 49970 57040 70281
85200 22224 04102 20612 3//// 4//// 5//// 80058=
SHIP 28121 99272 70904 46/// /1802 10266 40158 53024 91150 22200
00266
333 91203=
ELUB5 28123 99042 11089 41398 22225 10300 20272 40176 54000 70100
82140 22213 02300 80280=
C6CN4 28124 99109 31566 46/// /0917 10281 20234 30080 40103 52013
22254 85247=
SHIP 28121 99563 71482 46/// /2706 10079 40135 52004 91150 22200
00074 10603 70014
333 91207=
S6TS 28124 99502 71475 41/98 /2721 10060 2002/ 40240 54000 70022
8//// 22275 0//// 2//// 3//// 4//// 5//// 6//// 80040 ICE=
KGTX 28124 99533 71472 41398 82924 10056 2003/ 40185 54000 70322
884// 22224 00065 20404 329// 40506 5//// 6//// 80044 ICE=
V7AP7 28124 99368 71284 41497 33110 10150 2012/ 40215 54000 7020/
83400 22225 00150 20301 329// 40402 5//// 6//// 80130 ICE=
3FWB9 28124 99318 71748 41/98 91317 10180 20148 40220 54000 70312
22264 00215 80160=
WSRL 28124 99252 71510 41/98 71018 10235 2020/ 40210 56013 70311
874// 22255 00211 2//// 3//// 4//// 5//// 6//// 80213 ICE=
ELXC4 28124 99071 31682 41498 42811 10270 2024/ 40088 52010 70200
8426/ 22243 00290 20301 314// 40602 5//// 6//// 80250=
GOVL 28123 99266 51359 41498 79906 10220 2021/ 40124 57010 70122
86271 22224 00247 20202 332// 40202 5//// 6//// 80213 ICE=
GZKA 28123 99300 51510 41397 83019 10205 2020/ 40056 56020 71562
857// 22254 00235 20302 3//// 4//// 5//// 6//// 80200 ICE=
3ESU8 28124 99007 71596 41498 30714 00/// 10260 2025/ 40095 57010
70211 83141 22233 00272 20203 307// 40303 5//// 6//// 80250=
UAHV 28124 99094 51457 43/97 11009 10270 2023/ 40097 58010 81///
22254 0026/ 20201 80242=
SHIP 28121 99292 70944 46/// /1805 10268 20236 40156 53005 91150
22200 00269 10802 70012
333 91205=
SHIP 28121 99285 70845 46/// /2604 10266 20233 40158 51016 91150
22200 00268
333 91205=
SHIP 28121 99569 71778 46/// /1308 10035 40201 91150 22200 00036
11005 70024
333 91210=
ELPT3 28124 99460 11555 41/91 91522 10050 2005/=
WRYD 28124 99520 71522 41498 82911 10078 2003/ 40225 52005 71681
886// 22265 00057 20302 311// 40603 5//// 6//// 80056 ICE=
LAXP4 28124 99417 71586 41698 30907 10100 40346 70111 22224 20201=
DNKF 28120 99380 71380 41498 32605 10120 20102 40230 58005 70111
8218/ 22263 00155 20301 328// 40803 80110=
WXBR 28124 99260 71570 41498 71316 10222 2018/ 40212 50000 71820
872// 22284 00228 20201 330// 41202 5//// 6//// 80194 ICE=
LAON4 28124 99510 11589 41798 21101 10050 2003/ 40155 52015 702//
82/// 22255 00090 20203 3//// 4//// 5//// 6//// 80040 ICE=
WGJF 28123 99165 71002 41498 83010 10275 2023/ 40098 54000 78082
8496/ 22234 00268 20502 325// 41406 5//// 6//// 80245 ICE=
4XGU 28123 99306 71716 43498 30810 10190 2016/ 40220 54000 83200
22264 00220 80170=
NOYK 28124 99309 71286 43597 80216 00/// 10172 2016/ 40183 58003
7//// 884// 22263 00178 2//// 3//// 4//// 5//// 6//// 80161=
3FPS6 28124 99513 71346 41697 63023 10090 2007/ 40170 52040 70222
86462 22273 00090 20504 330// 40504 5//// 6//// 80080 ICE=
ELWR3 28121 99153 71345 41597 60305 10240 20226 40130 51030 70122
86155 22214 04260 20504 303// 40504 80230=
3FDO7 28124 99535 71532 41697 43120 10070 2003/ 40210 54000 70111
84132 22223 00080 20202 331// 40203 80050=
FKWK 28114 99432 10078 44/// /2423 10187 20163 40149 55008 7////
8//// 22273 04195 2//// 8////=
SHIP 28111 99292 70944 46/// /1903 10266 20237 40149 56007 91050
22200 00269 10603 70013
333 91204=
SHIP 28111 99285 70845 46/// /2704 10263 20235 40156 53015 91050
22200 00268
333 91205=
SHIP 28111 99569 71778 46/// /1308 10033 40204 57006 91050 22200
00036 11105 70023
333 91209=
SHIP 28111 99563 71482 46/// /2806 10082 40134 51007 91050 22200
00074 10703 70013
333 91207=
FKWK 28104 99428 10084 44/// /2423 10184 20160 40159 50009=
SHIP 28101 99285 70802 46/// /2004 10254 40145 91020 22200 00257
10301 70006
333 91205=
SHIP 28101 99285 70845 46/// /2504 10261 20235 40148 53007 90950
22200 00268
333 91205=
SHIP 28101 99563 71482 46/// /2906 10082 40133 52007 90950 22200
00074 11703 70013
333 91207=
VLST 28104 99404 31459 46/// /2243 10094 20050 39972 40002 52009
22234 85072=
SHIP 28101 99272 70904 46/// /1506 10266 40135 57006 90950 22200
00266
333 91207=
56079 32780 70000 10082 20021 36702 57005 81402 333 00107=
56152 11580 81101 10057 20020 36341 52013 60021 78098 889//
333 00403 93902=
56167 32780 71805 10153 20076 37071 52013 81142 333 00553=
56173 32880 63602 10093 20037 36665 52001 86900 333 00206=
56182 32780 70000 10136 20067 37186 54000 82402 333 00006=
56257 11680 71401 10100 20054 36292 52003 60021 70098 87402
333 00252=
56357 32680 72502 10144 20034 36455 52015 87902 333 00101=
56374 11380 80000 10083 20079 37431 52020 60041 78080 884//
333 00200=
57707 11350 80000 10126 20110 38480 52012 69901 76060 887//
333 00153=
57731 11562 80202 10200 20181 40104 52011 69921 76066 885//=
57832 11468 83602 10181 20171 40106 52014 69901 76066 887//=
57916 11456 80000 10229 20187 40071 52010 69961 76080 885//=
57922 11330 80000 10215 20194 40078 52005 60011 76060 887//=
57932 11470 80000 10239 20229 40076 52015 69921 76060 885//=
62405 28121 99303 10042 41497 71311 10110 20063 49893 57032 76086
877// 22200 00109 20604 320// 40904 5//// 80086=
22212 02282 20301 310// 40603 80257=
82100 22265 00135 20404 3//// 4//// 5//// 6//// 80138 ICE /////=
80002 22254 00206 20203 3//// 4//// 5//// 6//// 80200 ICE /////=
82141 22224 02128 20504 329// 40707 5//// 80095=
130081 130077 129078 130075 130080=
56312 11480 81802 10116 20106 37062 52001 60021 78080 889//
333// 00252=
55696 11580 70903 10103 20056 36338 54000 60021 72580 8624/
333// 00356=
55598 11680 81102 10104 20069 36592 52004 60011 78080 889//
333// 00353=
55690 11480 82504 10043 20030 35999 52001 69991 70080 889//
333// 00151=
56227 11578 80000 10119 20104 37305 57001 60011 76060 8262/
333// 00351=
56434 11480 81802 10145 20124 37666 52003 69961 76066 8372/
333// 00251=
56317 11470 80000 10121 20108 37109 52002 60041 76060 885//
333// 00251=
55681 11680 73603 10070 21007 35907 57004 69901 70080 879//
333// 00254=
56307 11678 80000 10115 20088 36838 52001 60031 76086 8272/
333// 00252=
54273 32970 12503 10217 20059 40028 52013 80002=
52674 11780 70000 10171 20083 37967 57001 69901 70080 83902
333 05200=
52895 32980 11406 10213 20029 40044 57003 80002 333 05201=
52424 32780 72703 10245 20040 40044 52016 85402 333 00252=
59303 11668 83401 10258 20238 40088 52012 69921 70098 884//=
88889 11375 70503 10025 20023 40130 56003 69904 76165 877// 333
20007 31101 87707=
91925 36/// /3402 10235 20226 30043 40101 56013
333 10251 59001
555 1//08=
91938 32570 20804 10239 20206 30115 40118 56015 82201
333 10307 56209 59021 81820
555 10706=
91943 36/// /1210 10265 20221 30109 40112 56013
333 10300 59009
555 1//19=
91948 36/// /2902 10210 20184 30035 40138 58009
333 10247 59016
555 1//04=
91954 36/// /3508 10242 20215 30121 40124 56019
333 10269 59034
555 1//10=
11018 21054=
91565 32580 20906 10218 20181 40145 5//// 82200
333 10275 563// 59006 82825=
68994 11295 83208 10087 20083 39973 40000 57017 60071 76166 885//
222// 00110 20000 300// 40000
333 10092 20073 91013 555 20070 90999=
78397 32574 73604 10
CHECK/TEXT/NEW ENDING ADDED KATLYTAA=
60020 32570 31110 10230 20142 30166 40210 53007 83500
333 92437=
60030 32570 40322 10225 20172 30141 40196 53002 84500
333 92447=
60040 32570 20720 10220 20198 30178 40203 50005 82100
333 92448=
60338 32982 00806 10250 20158 30128 40192 52002
333 92418=
61818 32470 40902 10286 20231 40113 84500
333 59013 84617=
61847 32370 40404 10260 20205 4//// 82230
333 5//// 82813 83360=
78388 32578 20000 10283 20219 40142 81900 333 06000 10323 20245
59008 81922=
71918 460// /2107 11041 39855 40276 56002 333 11047 21052=
71923 16/// /1203 11005 21007 39631 40067 5//// 69941 333 10020
21009=
71075 16/// /3108 10050 20050 39441 40029 53013 60061 333 10079 20049
70544=
71096 460// /3404 11026 39557 40292 50001 333 10015 21040=
71261 36/// /1014 10109 20073 39870 40125 53013 333 10190 20095
70002=
71265 36664 30614 10118 20063 30043 40136 50002 333 10157 20114
70000=
61600 32462 73210 10242 20198 30124 40129 875//
333 0//00 58001 87613=
61627 32960 03004 10311 20197 30085 40108
333 0//00 59005=
61630 32960 02806 10372 20182 30077 40096
333 59013=
61641 32459 73211 10234 20189 30100 40133 875//
333 0//00 58000 87610=
61679 32962 02806 10296 20198 30125 40133
333 0//00 59002=
61687 32957 52810 10345 20196 30054 40110 80002
333 0//00 69002 85073=
61695 32960 02806 10298 20219 30100 40126
333 0//00 59003=
65352 32460 72208 10328 20228 39944 40119 83202
333 59004 83816 87076=
65361 32470 71806 10290 20220 39686 40124 85232
333 58003 85816 83362 87076=
65376 32460 72202 10295 20214 39672 40130 84202
333 58007 84813 87076=
65387 32462 71404 10318 20232 30100 40128 83202
333 58000 83816 87073=
71397 11358 73507 10072 20068 30045 40079 53016 69941 75182
87700 333 10175 20070 70012 90927=
71400 36/64 /0206 10051 20041 40095 333 10194 20043 4/200 70132=
71410 17/64 /3509 10072 20050 30060 40088 53014 69921 7//4/ 333
10158 20062 70066=
71411 36/64 /3105 10116 20056 30069 40079 53010 333 10211 20061
70000=
71412 46/// /3613 10054 20054 30051 40064 51014 333 10128 20051=
71430 36/64 /0607 10117 20084 30046 40142 53011 333 10131 20071
70000=
71431 36/// /0000 10101 20057 30050 40144 53008 333 10126 20094
70000=
71432 36/64 /0914 10117 20107 30036 40131 50000 333 10166 20108
70000=
71435 36/64 /0902 10090 20026 39601 40184 51011 333 10183 20073
70000=
71436 36/64 /1506 10105 20069 39790 40144 53004 333 10162 20070
70000=
71441 36/// /1710 10086 20069 39843 40146 58005 333 10157 20050
70000=
71443 17/// /0000 10110 20106 39674 40073 55003 69921 7//4/ 333
10195 20107 70002=
71474 36964 02003 10003 21026 38910 40132 53013 333 10141 20002
70005=
71538 11759 80711 10111 20090 39873 40099 50003 60041 76182
8857/ 333 10171 20111 70062 90931=
71600 46164 32910 10104 20081 30038 40044 51012 333 10128 20077=
71601 32474 73509 10100 20070 30000 40061 53013 87500 333
10188 20082 55079 79999=
71816 11374 70415 10037 20015 30156 40218 52023 69901 70388
87700 333 10035 20025 55000 79999 90961=
71817 17464 80516 10031 21003 30170 40185 51023 69951 7//4/ 333
10029 20008 70060=
71818 11356 80512 10015 20010 30208 40226 52021 69941 75154
886// 333 10026 20005 55000 70132 90983=
71821 36264 83207 10017 21001 39861 40209 53005 333 10057 20007
70000=
71822 36364 83606 10073 20062 39703 40175 51014 333 10079 20048
70005=
71825 11369 80512 10016 21003 39539 40212 53014 69901 71652 887//
333 10056 20004 55002 70002 90938=
71827 31273 10604 10043 21001 39974 40217 50010 70140 81670
333 10121 20004 55094 70000=
71828 36464 80707 10024 21031 39610 40252 51014 333 10079 21017
70020=
71832 36/64 /0701 10064 20029 39891 40213 53001 333 10146 21001
70000=
71834 32574 70904 10062 20045 39780 40203 53006 83572 333
10189 20034 70000=
71836 36056 83605 10005 20005 30216 40228 51002 333 10097 21003
70005=
71842 32974 71208 10107 20020 39710 40179 53003 87070 333 10200 20106
70000=
71845 33574 81306 10091 20039 39722 40188 58005 82521 333
10208 20090 70000=
71850 32674 82302 10112 20086 39679 40170 53010 8257/ 333 10165 20104
70000=
71852 36864 31812 10102 20070 39854 40143 58004 333 10168 20091
70005=
71854 33974 71605 10121 20038 39703 40165 55002 87070 333
10182 20083 55084 70000 555 31423 40180=
71855 36964 03507 10108 20096 39720 40083 55005 333 10209 20097
70005=
71856 36964 01605 10102 20069 39858 40136 58009 333 10178 20071
70000=
71858 36/64 /1712 10118 20078 39806 40079 58007 333 10154 20112
70020=
71861 36964 01817 10154 20103 39338 40036 56019 333 10202 20125
70005=
71862 11674 71411 10151 20100 39375 40049 58018 69901 72511
86270 333 10227 20119 55136 79999 90920=
71863 36664 81707 10118 20100 39357 40030 55007 333 10218 20117
70005=
71931 17/64 /0407 10079 20045 39403 40074 53015 60201 7//44 333
10169 20079 70308=
71932 37864 33406 10071 20035 39647 40092 53016 743// 333 10173
20071 70005=
71933 36264 83208 10024 21008 39826 40110 53011 333 10155 20023
70000=
71935 32574 70405 10020 21013 39948 40155 53008 87500 333 10063 20016
70000=
71938 32374 80209 11075 21091 30231 40261 52001 885// 333
11049 21083 42006 55000 79999=
71940 11782 83206 10068 20038 39332 40129 53018 69941 76172 885//
333 10095 20062 70018 90925=
71943 32674 83203 10050 21003 39311 40140 52011 81571 333 10092 20050
55020 70038=
71944 36664 80000 10069 20018 39310 40129 53014 333 10112 20068
70010=
71945 31683 60000 10008 20007 39688 40154 52016 74111 86500 333
10156 21003 55139 70000=
71946 32874 10103 10003 21042 39965 40176 51016 81071 333 10168 21007
55064 70000=
71948 46964 00822 11130 30126 40241 58002 333 11091 21135=
71949 36/64 /0000 10003 21021 39296 40155 51008 333 10139 20003
70000=
71950 11780 81506 10074 20053 39490 40108 52015 69981 76162 8657/
333 10139 20067 55027 70012 90946=
71951 11066 80000 10082 20081 39844 40106 51009 60011 72122 885//
333 10165 20082 55027 70026 90973=
71957 36964 60806 11002 21031 30116 40204 50000 333 10024 21005
70000=
71958 36964 00000 11007 21044 39182 40136 53010 333 10146 21011
70005=
71968 469// 03402 11079 30145 40210 53004 333 11043 21080=
71043 32383 60000 10017 20001 30093 40185 51015 84601 333 10175 20011
55141 01112 22520 70000=
71045 36/// /0000 11026 21041 39281 40132 51008 333 10126 21026
70000=
71050 36/04 /0000 11008 21008 39071 40137 51020 333 10142 21015
70020=
71066 32874 13406 10012 21055 39729 40144 53009 81070 333 10135 20004
55030 70000=
71068 11674 63409 10067 20005 39432 40114 52011 69901 70262 85570
333 10124 20066 79999 90931=
71069 36664 82706 10067 20025 39400 40093 53011 333 10102 20066
70075=
71076 46/// /0201 10055 20046 39699 40084 53001 333 10122 20028=
71077 36/64 /0403 10077 20073 39555 40071 53007 333 10138 20076
70002=
71078 11374 82307 10083 20082 39607 40037 52012 69901 70265
885// 333 10139 20082 55005 70106 90937=
71081 17432 82311 11024 21033 30276 40287 53003 69951 7454/ 333
11008 21035 70005=
71082 36056 81203 11068 21086 30176 40217 50004 333 11070 21086
70000=
71090 36264 81003 11039 21039 30246 40281 55002 333 11009 21095
70000=
71092 46964 00205 11087 39636 40314 56002 333 11082 21126=
71093 460// /3004 11039 39785 40284 56001 333 11002 21068=
71095 365// 81303 11077 21107 30186 40259 58005 333 11079 21113
70000=
71101 36564 82515 10082 20035 30121 40129 53025 333 10135 20082
70000=
71104 11374 81506 10041 20029 39030 40126 52015 69921 70282 8547/
333 10120 20034 55031 70058 90961=
71107 36/// /3328 10066 30022 40134 51026 333 20065 70000=
71108 11266 80604 10090 20080 30095 40165 52007 60111 78082 887//
333 10172 20088 55028 70340 90973=
71109 11574 82202 10091 20085 30123 40149 52019 60031 78088 885//
333 10153 20090 55032 2//// 70102 90983=
71629 32474 80702 10104 20074 39914 40144 51004 82802 333
10207 20072 70000=
71952 36/// /1301 10033 20023 39276 40115 53016 333 10137 20022
70000=
71967 36/// /2603 10009 20009 39196 40166 51005 333 10054 20007
70000=
71103 46564 81505 10072 20054 39468 40119 51019 333 10126 20071=
71115 36/// /1105 10084 20031 333 10191 20083 70002=
71121 36464 83207 10065 20064 39260 40069 53015 333 10180 20043
70025=
71127 46064 /0612 10089 20071 39344 40058 53009 333 10162 20089=
71143 36/// /1519 10113 20084 39772 40080 56010 333 10156 20112
70000=
71434 36/// /1606 10013 20013 30181 40248 55003 333 10071 20005
70000=
71802 36/// ///// 10111 20087 40054 333 70000=
71819 11148 80618 10027 21011 30114 40149 52026 69903 75155 887//
333 10091 20014 79999 90999=
71826 36/// /2706 10005 20002 30230 40259 51005 333 10035 20001
70000=
71846 36/64 /1203 10055 20036 39903 40213 53002 333 10152 20039
70000=
71851 36/// /1609 10095 20072 39798 40126 58009 333 10158 20084
70000=
71873 17/64 /3114 10067 20067 39128 40051 51021 60021 7//4/ 333
10206 20067 70018=
71875 17964 02718 10069 20014 38743 40092 53008 60011 7//4/ 333
10191 20049 70030=
71201 17/// ///// 10108 60031 7//4/ 333 10182 20105 70088=
10203 20090 70000=
71450 36/// /2413 10138 20065 39320 40009 56008 333 10222 20122
70000=
71490 36/// /0000 11023 21024 39848 40158 56010 333 11004 21026
70000=
71702 17/// /3410 10070 20068 40079 60031 7//4/ 333 10156 20061
70091=
71717 11248 83405 10067 20059 30055 40095 52018 69952 75162
887// 333 10162 20050 70037 90926 555 32624 40180=
71725 36364 80207 10041 20023 39775 40189 53002 333 10121 20029
70000=
71726 36/64 /0103 10055 20051 39636 40169 51013 333 10089 20043
70002=
71727 32480 80404 10085 20030 39951 40146 51025 8757/ 333
10119 20062 79999=
71728 32482 70205 10089 20043 39932 40150 51022 86570 333 10114 20082
55001 79999=
71730 32374 70210 10064 20048 39748 40167 53002 86701 333
10157 20056 55086 70000=
71731 33/// /0706 10077 20041 39717 40163 52006 333 10148
20057 55037 70000=
71733 36964 00710 10105 20065 39929 40164 53012 333 10184 20053
70000=
71735 32374 80307 10043 20025 39885 40183 50000 885// 333
10137 20037 70000 555 33617 40230=
71738 33974 80507 10090 20049 39832 40179 53003 82027 333
10205 20070 70000 555 30718 40230=
71739 31132 80308 10017 20012 39829 40191 50002 71041 886//
333 10143 20004 70000=
71749 36964 00807 10114 20054 39940 40182 53009 333 10166 20068
70000=
71799 11380 81304 10105 20087 30135 40158 53008 69961 76082
888// 333 10169 20103 55071 70034 90926=
71801 31/08 90604 10054 20049 39907 40079 53014 74722 333 10173 20051
55091 79999=
71803 11156 80508 10057 20046 39906 40090 51013 60041 71086
887// 333 10175 20048 55036 70074 90921=
71807 17/// /3203 10079 20073 30057 40073 53009 60011 7//4/ 333
10082 20064 70014=
71808 17361 80734 10052 20032 30097 40143 53018 69951 7434/ 333
10100 20026 70010=
71809 11266 80512 10041 20029 30081 40108 52018 69981 78088 887//
333 10132 20036 70027 90947=
71810 36/64 /0308 10050 20024 30067 40130 53025 333 10064 20041
70026=
71813 17464 80617 10067 20049 30107 40120 51022 60031 7//4/ 333
10086 20046 70045=
71814 36/// /0527 10049 20037  333 10084 20041 70000=
71815 32469 70816 10082 20052 30042 40073 52017 86501 333
10120 20062 55000 70016=
71893 11480 80000 10091 20062 30114 40145 51009 69941 78062
8217/ 333 10163 20088 55017 70026 90917=
71896 11264 83610 10059 20056 39292 40110 53013 69941 76166 887//
333 10122 20059 55006 70006 90973=
71897 13470 82704 10095 20088 30095 40126 52018 60022 8787/ 333
10116
20092 70132=
71898 17462 82807 10086 20068 30071 40114 53021 60081 74344 333
10137 20085 70095=
71899 83269 82520 10080 20036 30057 40107 52023 848// 333 10126
20059
70000=
71902 32469 70802 10039 20007 30266 40275 52014 87500 333
10034 20014 70002=
71905 11/08 93302 11007 21018 30218 40231 53012 69901 74752
333 10034 21010 55000 79999 90921=
71907 36964 00510 10028 20000 30210 40243 53005 333 10058 21013
70005=
71909 36664 33319 10013 20000 30221 40264 51002 333 10033 20008
70000=
71910 36264 80208 11055 21066 30249 40315 53003 333 11029 21068
70000=
71911 46040 /0511 11057 30197 40254 58011 333 11043 21084=
71912 11574 81408 10111 20058 39930 40108 57008 69901 761//
8652/ 333 10186 20095 79999 90999=
71913 36964 01418 10024 21028 30087 40124 56015 333 10034 20006
70005=
71915 31108 81110 11068 21073 30229 40314 56004 74522 886//
333 11010 21083 44008 55183 20821 70000=
71917 32786 11503 11058 21117 30208 40222 51007 81570 333
11032 21090 42007 55166 00849 22883 70000=
71922 31948 70202 10058 20057 39600 40056 58002 70241 83701
333 10113 20015 70184=
71924 11374 82609 11120 21141 30116 40206 53005 69901 70372
885// 333 11101 21134 42036 55017 70004 90923=
71925 32474 60210 11125 21140 30224 40261 50000 86500 333
11049 21133 42033 55141 23624 70000=
71926 11362 81124 11022 21032 30173 40196 56022 69901 75675
886// 333 10006 21022 44038 55007 10412 21943 79999 90973=
71928 17/64 /3204 10054 20050 38940 40081 53008 60061 7//4/ 333
10172 20054 70060=
71865 36/64 /2609 10152 20071 39360 40014 58011 333 10196 20122
70000=
71866 17964 62218 10149 20060 39404 49992 58007 69951 743// 333
10219 20117 70015=
71867 31559 71203 10098 20097 39722 40047 58007 71041 81578
333 10160 20047 55015 20559 70052=
71868 36964 33605 10093 20091 39607 40033 58017 333 10188 20069
70105=
71870 36964 02320 10113 20057 39099 40031 53004 333 10246 20109
70005=
71871 11832 70000 10061 20061 39240 40020 52012 60011 71082 84071
333 10190 20063 70112 90962=
71872 32983 22308 10080 20019 39235 40062 53023 82071 333 10253 20078
55133 70000=
71874 17964 02514 10086 21009 39016 40077 53016 60011 7//4/ 333
10235 20086 70030=
71876 32474 80213 10109 20075 39361 40000 55006 8788/ 333
10217 20097 79999=
71877 11786 63610 10051 20036 38839 40079 53023 69901 70388
81550 333 10202 20017 55110 79999 90961=
71878 11574 83506 10071 20048 39022 40070 51009 60031 72161 8657/
333 10188 20053 70030 90914=
71879 36464 83409 10072 20058 39277 40065 51015 333 10181 20054
70020=
71880 11682 60000 10055 20038 39042 40128 53014 60021 71681 83570
333 10171 20040 55060 70074=
71881 36464 82806 10051 20046 39019 40096 53018 333 10125 20051
70020=
71882 36464 80303 10084 20080 39615 40144 53014 333 10128 20079
70095=
71883 17/// /0000 10047 20046 39334 40145 53013 60051 7//4/ 333
10103 20047 70246=
71887 32983 20000 10080 20026 39719 40133 52020 81071 333 10182 20070
55038 70020=
71889 32874 63303 10083 20016 39733 40142 53008 82071 333 10217 20080
55094 70018=
71891 36964 01623 10092 20035 39872 40146 51012 333 10145 20089
70050=
71892 11474 80908 10097 20090 30154 40159 52008 60041 76186 8687/
333 10172 20097 55026 70138 90973=
71194 36/61 ///// 10075 20045 30045 40058 53010 333 10079 20059
70000=
71197 36037 82903 10074 20054 30016 40065 53010 333 10088 20059
70000=
71114 17664 80903 10085 20071 30123 40171 53004 60111 7434/ 333
10173 20082 70625=
71119 17/// /3303 10068 20068 69921 7//4/ 333 10180 20060 55042
70084=
71120 11432 80309 10082 20077 39408 40046 53011 60081 78087
885// 333 10190 20082 55111 70080 90973=
71122 36/64 /2505 10047 21015 38524 40099 53014 333 10126 20029
70018=
71123 31356 83106 10073 20058 39220 40068 51013 72841 886//
333 10201 20039 55052 70088=
71125 11348 80305 10080 20072 39472 40041 56002 60141 763//
885// 333 10179 20079 55104 70144 90999=
71129 31674 62410 10091 20055 39194 49991 55003 71411 81281
333 10228 20091 55100 79999=
71130 11474 80207 10096 20085 39586 40029 55020 69902 715//
82681 333 10177 20062 55040 70156 90999=
71135 36/64 /2612 10118 20070 39019 40065 53014 333 10225 20118
70000=
71138 11358 81413 10125 20110 39454 40039 56016 69921 71091
8278/ 333 10203 20111 55074 70004 90920=
71140 32962 71408 10099 20093 39621 40110 56012 83071 333 10182 20085
55057 70032=
71141 11574 81812 10114 20077 39825 40097 55004 60121 70298
86270 333 10204 20102 70152 90941=
71145 11774 61808 10134 20076 39856 40142 56001 69901 70182
83230 333 10201 20129 79999 90941=
71148 36/// /1714 10083 20081 39568 40137 56012 333 10152 20074
70052=
71182 36464 80710 10028 21001 39680 40222 53017 333 10034 20012
70000=
71185 36464 30615 10074 20042 30083 40106 53020 333 10111 20057
70000=
71187 36564 80507 10081 20029 30120 40147 53024 333 10102 20066
70005=
71188 11469 80202 10055 20042 30076 40117 52023 60021 76166
885// 333 10101 20050 55000 70062 90983=
71196 36024 80711 10040 20037 30055 40092 53012 333 10180 20031
70005=
71200 17/// /2403 10099 20099 60011 7//4/ 333 10180 20097 70024=
67341 32570 33406 10252 20174 40148 57027 83100=
71603 32574 73612 10107 20043 30028 40080 51012 87830 333
10139 20075 55122 79999=
71607 36/// /3608 10108 20038 30064 40096 51014 333 10152 20081
70000=
71609 32474 80408 10074 20024 39958 40090 52018 888// 333 10159 20062
70002=
71610 36964 02703 10092 20060 39831 40122 51010 333 10123 20070
70005=
71621 32774 70405 10119 20077 30037 40141 51006 82531 333
10174 20065 70000=
71623 32974 80810 10106 20062 39791 40121 53009 86072 333 10199 20102
70000=
71624 32674 80807 10114 20064 39928 40136 50000 81572 333
10194 20081 55111 70000=
71625 36464 80209 10093 20056 39998 40156 53010 333 10161 20093
70000=
71627 36564 80107 10108 20064 30094 40137 53013 333 10172 20098
70005=
71628 32582 73609 10097 20030 30012 40150 53013 87500 333
10167 20095 70000=
71630 32974 70603 10097 20061 39809 40147 55000 82048 333
10178 20054 70000=
71631 36/64 /0806 10087 20062  333 10170 20076 70000=
71632 36/64 /0505 10101 20067 39934 40164 5/002 333 10182 20055
70000=
71633 32974 80709 10096 20062 39879 40147 53007 80001 333
10141 20084 55141 70000=
71705 11269 63509 10065 20049 39997 40083 52015 69981 78082
86700 333 10151 20050 55017 70058 90917=
71706 11374 83511 10065 20056 30015 40075 52013 60011 78082 887//
333 10148 20051 70035 90957=
71707 11132 80207 10056 20045 39972 40047 52011 60041 78086 887//
333 10170 20055 70048 90977=
71709 11166 80510 10066 20059 30056 40069 52019 69982 761// 88700
333 10120 20052 55077 70008 909//=
71711 11574 80000 10074 20044 30066 40116 52024 60011 78082 885//
333 10125 20053 55017 70040 90929=
71714 36/// /0707 10110 20056 30043 40133 51020 333 10150 20093
4/005 70000=
71715 36/64 /0209 10070 20050 39956 40137 51022 333 10109 20054
70020=
71718 32283 80511 10061 20051 30078 40143 52025 885// 333 10091 20054
55002 70014=
71719 17/// /0219 10053 20050 30090 40096 51024 69971 7//4/ 333
10129 20050 4/999 70069=
61612 32960 02204 10334 20189 30110 40118
333 0//00 59005=
61666 32962 03204 10310 20205 30105 40115
333 0//00 58005=
61697 32960 03610 10270 20202 30118 40132
333 0//00 58003=
61698 32960 03206 10344 20255 30105 40116
333 0//00 59004=
94120 46/// /1408 10257 20134 30100 40135=
94150 46/// /1515 10236 20166 30076 40137=
94203 46/// /1411 10230 20131 30144 40155=
94207 35/// /0317 1//// 30139 40150 52016=
94212 46/// /1008 10165 20037 39699 40180=
94216 46/// /1312 10234 20050 30118 40169=
94238 46/// /1309 10126 21009 39783 40216=
94268 46/// /1710 10209 20038 30130 40145=
94287 46/// /1613 10222 20135 30151 40160=
94294 46/// /2008 10170 20048 30181 40191=
94298 35/// /1520 10236 30143 40149 52009=
94299 46/// /1624 10253 20214 30128 40139=
94300 46/// /1205 10189 20112 30171 40181=
94302 46/// /0507 10195 20167 30169 40175=
94312 46/// /1506 10172 20107 30163 40173=
94317 46/// /1107 10109 20032 39604 40201=
94319 46/// /1408 10141 20055 39866 40205=
94326 46/// /1506 10049 20037 39618 40254=
94332 46/// /1507 10118 21039 39814 40207=
94346 46/// /1705 10066 20000 39998 40224=
94363 46/// /2306 10092 20009 39981 40203=
94367 46/// /1912 10162 20072 30147 40185=
94374 46/// /1803 10107 20011 30182 40199=
94394 35/// /2115 10198 30145 40153 52008=
94403 46/// /0410 10161 20013 30160 40201=
94429 46/// /0000 10099 20016 39754 40228=
94430 46/// /1008 10106 20027 39623 40221=
94461 46/// /0707 10094 20014 39561 40251=
94462 46/// /1106 10090 20032 39685 40257=
94510 46/// /0000 10029 21015 39860 40217=
94515 46/// /2402 10034 21008 39849 40206=
94552 46/// /2506 10021 21020 39707 40181=
94578 46/// /2819 10120 21044 30150 40161=
94584 46/// /2410 10116 21012 30062 40173=
94601 46/// /0717 10152 20046 30216 40233=
94610 46/// /0611 10149 20020 30203 40228=
94637 46/// /0708 10109 20018 39842 40280=
94638 46/// /0607 10114 20083 30268 40301=
94647 46/// /1203 10131 20081 3//// 4////=
94651 46/// /1805 10127 20078 30224 40303=
94659 46/// /2012 10115 20036 30059 40259=
94693 46/// /2410 10083 20071 30130 40193=
94703 46/// /2604 10103 20043 30066 4////=
94729 46/// /2616 10020 21004 39250 40106=
94767 46/// /3015 10084 21005 30062 40068=
94776 46/// /3019 10086 20019 30087 40097=
94791 46/// /3007 10105 21022 30123 40130=
94802 46/// /0608 10089 20049 30185 40269=
94804 46/// /2022 10137 20082 30203 40242=
94821 46/// /2213 10072 20057 30085 40168=
94842 46/// /2325 10092 20032 30007 40106=
94865 46/// /2716 10058 20021 30086 40111=
94907 46/// /2713 10063 20044 30058 40068=
94910 46/// /2808 10038 20020 39861 40115=
94926 46/// /3008 10033 21045 39396 40068=
94954 46/// /2141 10077 20034 39939 40049=
94968 46/// /1803 10033 21007 39790 40002=
94975 46/// /2312 10076 20009 39957 49990=
94983 46/// /2611 10061 20026 39961 49986=
94995 46/// /2720 10168 20056 30084 40092=
94996 41270 80213 10190 20184 30007 40136 58013 70585 876//
333 10207=
95711 46/// /2413 10070 20056 39869 40177=
95719 46/// /2908 10044 20038 39813 40149=
96995 46/// /1408 10254 20238 39817 40111=
96996 45/// /1113 10269 20243 30107 40111 52013
333 10291=
89564 41882 52705 11113 21179 39978 49999 52021 70222 82021
333 11082=
89611 41468 81714 11212 21237 30060 40116 53005 70222 885//
333 11197=
94934 35/// /2722 10094 39990 40014 54000=
94974 35/// /2232 10074 30015 40038 52021=
95288 35/// /1722 10244 30129 40144 52023=
95872 46/// /2826=
89002 41691 80940 11127 21147 39983 40035 57008 73833 886//
333 00950 11117 21131 92982 96111=
91811 31599 10708 10266 2024/ 40095 70200 81100 333 10321 562//=
91843 11498 73311 10252 20238 40093 57011 69971 70228 8427/ 333
5679/ 84818 87458=
85406 32960 00805 10120 20088 40173 52007
333 20104 30/// 55041=
85442 32560 70903 10132 20079 40170 53007 87500
333 20124 30/// 50220 55035 56400 87626=
85469 41560 82921 10214 20184 40069 57015 7258/ 882//
333 56799 88820=
85470 31457 80603 10114 20086 40159 51005 7052/ 885//
333 20090 30/// 50430 55077 56099 88610=
85488 32460 61604 10071 20061 40177 52009 81501
333 20061 30/// 50120 55083 56000 81615 85075=
85574 31930 33301 10000 20000 39625 40212 52012 71040 80001
333 21006 30101 58003 50280 55045 56000 83075=
85585 11497 82306 10163 20147 40136 54000 69974 7258/ 8523/
333 20151 32/// 55013 56579 70006 85815 83358=
85586 31957 50903 10066 20056 40180 53/// 7102/ 80004
333 20050 31/// 50160 55048 56006 85075=
85629 32965 70203 10036 20030 40190 51/// 87030
333 20026 31/// 50040 55042 56070 87362=
85682 31258 70504 10119 20114 40161 54001 71022 86530
333 20091 31/// 50070 55000 56790 83704 85615=
85743 11560 70606 10106 20092 40158 56003 60014 70262 87400
333 20085 32/// 50120 55/// 56600 70014 87620=
85766 04165 70406 10104 20100 40143 54000 60034 7158/ 85870
333 20084 32/// 55000 56880 70029 85816 87359=
85799 11650 80304 10102 20090 40139 57005 69984 76022 8552/
333 20093 32/// 55000 56889 70008 85633 85458=
85874 11570 61007 10044 20035 39507 40135 52008 60014 70181 84230
333 20044 31/// 55028 56660 70011 84828 83360=
85892 32670 20000 10014 20001 40101 52015 81150
333 20002 34/// 56660 81840=
85934 11250 81108 10067 20063 40082 52006 60094 75165 886//
333   20065 32/// 55000 56299 70090 88705 =
85972 32597 80425 10018 20008 40147 54000 884//
333 20012 31/// 56199 88623=
60710 32560 23306 10234 20180 30107 40184 58002 81202
333   50381 81820=
60714 32565 43110 10248 20143 30174 40181 57003 84200
333   50301 84820=
60728 32562 43412 10256 20166 30168 40172 58003 82802
333   50321 82823 92427=
60738 32560 33212 10182 20098 38966 48545 51002 83200
333   50221 83823=
60740 32562 20208 10235 20176 30175 40178 58001 82202
333   50471 82820=
60745 32562 43508 10270 20116 39817 40172 58002 84200
333   50651 84826=
60748 32560 43308 10262 20169 39767 40168 58005 84200
333   50241 84826=
60750 32565 63608 10273 20163 30143 40174 58003 86802
333   50511 86820=
60770 32558 43206 10253 20145 30044 40179 54000 84200
333   50271 84826=
60780 32662 10210 10280 20084 39889 40182 56007 81200
333   51201 81833=
88903 41680 7//00 11020 21023 40009 57010 70002 876//=
71131 17/64 /2513 10075 20039 38849 40065 53008 69981 7//4/ 333
10214 20075 70008=
71700 32574 80208 10081 20033 30073 40098 52017 885// 333 10147 20064
79999=
71831 32161 80208 10016 21014 39926 40206 55001 887// 333
10160 20013 70000=
60351 32558 40205 10243 20179 40196 50004 83102
333 83820 95900=
60425 32665 32608 10296 20094 40187 57011 83100
333 83840 95900=
60430 32560 32206 10254 20099 40186 58002 83201
333 83826 95900=
60444 32565 21808 10240 20039 39152 48561 50003 82202
333 82830 95900=
60467 32665 22810 10276 20159 40154 58007 82200
333 0//00 82833 95900=
60468 32665 52512 10240 20103 39254 48549 51001 85202
333 0//00 85833 95900=
60515 32560 52808 10287 20084 40192 58008 85200
333 0//00 85826 95900=
60518 32975 20000 10234 20187 40180 54000 80002 222// 20000
333 0//00 82073 91807 95900=
60581 32665 23204 10292 20121 40184 58003 82100
333 0//00 82840 =
78866 32584 31112 10276 20223 30159 40163 52011 83200 333 10319 20238
59018 70023 83823=
78906 11474 70000 10260 20206 30146 40151 69982 71582 87400
333 10314 20239 59005 87818 90929=
78905 11458 80000 10240 20218 30151 40167 60123 78082 8527/
333 10307 20226 58001 85814 88359 90919= 41-6NN  93E=
61699 33560 53214 10340 20225 39925 40109 85100
333 0//00 59001 85820 94919 95839=
71398 36/64 /3505 10075 20057 30027 40076 5/019 333 10156 70000=
71475 36/// /1301 10085 20081 30065 40158 53011 333 10136 20084
70088=
71869 11674 70708 10097 20080 39511 40019 57009 60011 78082 84280
333 10176 20083 55071 70052 90916=
13585 42698 42902 10259 20105 39391 40131 57017 84800=
13598 42698 61802 10226 20081 48518 57010 86800=
71934 11128 83109 10019 20019 39863 40117 53004 69901 75165
887// 333 10114 20018 55020 21222 70022 90946=
71964 32186 33002 10001 21012 39294 40146 52007 82671 333 10091 21001
55014 70057=
71966 46/// ///// 11023 333 10127 21023=
91577 36/// /0106 10224 20188 40134 50003
333 10283 55099 21725 59009=
91579 36/// /0604 10225 20197 40137 50005
333 10277=
91582 36/// /0000 10179 20164 40140 51004
333 10267 55083 21597 59006=
91583 36/// /1904 10215 20201 40138 50002
333 10276 55082 21724 59010=
91587 36/// /0000 10157 20151 30096 40147 50001=
91590 32965 00000 10197 20185 40137 50000
333 10295 55072 2//// 56000 59005=
91592 36/// /0504 10213 20194 40136 54000
333 10272 55088 21641 59008=
50434 32980 22901 10124 21076 39163 49996 52026 80002=
26038 42998 42904 10159 20046 30097 40141 52005 80009   555 10033=
26045 41998 43104 10131 20051 30138 40142 52011 70282 80009   555
10034=
26058 41598 73203 10119 20076 40146 52012 70298 85930=
26115 42998 22003 10116 20094 30135 40149 52005 80001   555 11029=
26135 41798 22502 10193 20057 30055 40131 58004 70281 82100   555
10037=
26141 41598 32804 10186 20081 40129 52003 70281 82202=
26215 42698 22203 10147 20051 30146 40151 52001 81101   555 10036=
26231 42598 22104 10170 20112 30137 40146 52001 81101   555 11039=
26242 41598 52903 10184 20112 30061 40144 51001 70282 83201   555
11031=
26247 41598 72001 10193 20113 30071 40149 51001 70282 85101   555
11033=
47101 32965 00000 10172 20142 39986 40076 52030 333 10235 31016
55040 21623 70018=
47105 12970 02305 10196 20121 30029 40060 52019 69902 333 10267
31017 55055 21833=
47108 32966 02306 10186 20118 39975 40077 52032 333 10237 30017
55082 22205=
47115 32665 73609 10175 20113 39794 40050 52024 69912 85530 333
10226 31017 55086 70001 92043=
47133 32962 22011 10167 20122 30010 40090 52027 80001 333 10233
31017 55074 22287=
47138 32665 33206 10223 20087 30067 40070 52035 83500 333 10266
30019 55081 22332 70009 92032=
47159 32975 03204 10206 20070 39995 40075 52037 333 10247 31016
55096 22615 92022=
47165 32960 03406 10161 20137 30064 40108 52016 333 10197 31017
55091 22528 92022=
47168 32670 22916 10204 20050 30008 40085 52023 82500 333 10245
30020 55080 92022=
47184 32980 22506 10178 20102 30095 40122 52013 82030 333 10203
31018 55102 22359 92022=
47090 12665 22903 10188 20089 30034 40053 52013 69902 82500 333
10245 31014 55053 70001 92022=
47095 32970 01402 10179 20120 39894 40072 52031 333 10247 30015
55055 70004=
47100 11462 22909 10118 20103 39128 40087 52024 69902 70161 82500
333 10173 31013 55063 22020 70009=
47106 32670 32002 10193 20114 30020 40063 52024 83500 333 10256
31016 55064 70001=
47112 32962 02004 10178 20134 39998 40077 52029 333 10214 30018
55087 22469 70000 92022=
47114 32668 21402 10167 20119 39908 40081 52033 82501 333 10219
31015 55026 21161 70011=
47119 32965 00000 10167 20122 30044 40084 52030 333 10225 31018
55101 22674=
47121 32970 02901 10142 20119 39807 40084 52030 333 10210 31014
55015 70003=
47129 32965 02005 10156 20096 30069 40099 52025 333 10215 31014
55092 22492=
47130 32968 12902 10176 20134 30007 40065 52032 80001 333 10263
30017 55062 92021=
47131 32970 02005 10186 20104 30019 40085 52028 333 10235 31017
55076 22269=
47135 32975 22911 10173 20084 39802 40085 52028 82030 333 10210
31014 55031 21021 70012=
47136 32970 00000 10181 20092 39910 40073 52029 333 10247 31017
55084 22254=
47140 32961 02512 10164 20118 30063 40099 52018 333 10191 31015
55091 92011=
47143 32972 02905 10212 20079 30012 40078 52032 333 10250 31017
55085 22091=
47146 32965 21804 10166 20130 30040 40105 52022 80001 333 10211
31017 55051 21699 70001=
47152 32970 23405 10214 20080 30032 40070 52035 80001 333 10264
30019 55097 70018=
47155 32973 02902 10220 20030 30072 40077 52034 333 10258 31018
55118 92011=
47156 32970 02507 10172 20113 30023 40108 52022 69902 333 10222
31016 55074 21790 70000=
47162 32968 23607 10197 20083 30043 40080 52030 80001 333 10256
31017 55109 92023=
47170 32962 22917 10168 20111 30060 40100 52014 80001 333 10211
30014 55118 92023=
47185 32960 30212 10155 20135 30030 40114 52014 83030 333 10197
31016 55116 22951 92034=
47189 32980 23201 10203 20110 30041 40100 52015 82030 333 10255
30119 55071 92011=
47192 32972 03206 10210 20046 30058 40084 52032 333 10257 31015
55085 22137=
11423 01589 72606 10160 20074 39236 42735 57010 69901 76111 8127/
333 69905 81820 87460 91011=
26229 42999 22903 10132 20088 30153 40160 51005 82040=
26313 42597 53403 10139 20070 30148 40154 58002 83204=
26314 42598 22502 10133 20095 30147 40150 57007 81201=
26324 42598 41002 10128 20080 30146 40153 58001 81239=
26348 41599 72502 10199 20134 39975 40142 52004 70282 83270=
26406 42569 62902 10142 20088 30137 40145 58014 83202=
26422 42997 30603 10175 20067 30125 40156 57006 82031=
26446 42698 52403 10221 20138 39959 40140 58002 82230=
26544 42665 62502 10235 20144 39996 40138 54000 84101=
91324 32474 80403 10250 20202 30068 40070 84101 10344 333 561/9
59020 84818 88075 555 92812
91339 11472 80406 20244 30102 40108 51010 60031 70282 8521/ 333
10294 56199 58007 84818 88463 555 92812=
17042 32970 32903 10231 20171 40172 58007 83030 333
83360 92438=
13272 32780 11506 10314 20143 30008 40119 57011 81100 333 81850=
13376 32699 21104 10304 20140 39879 40121 57020 82200=
13388 32698 41602 10308 20125 39897 40123 57030 84400=
13462 42770 22003 10310 20143 30101 40144 57014 81201 333 81850=
71805 31112 80000 10060 20056 30032 40060 53008 72842 886//
333 10096 20051 88701=
71071 72200 73128 74036 75395=
12120 11497 61507 10171 20079 30100 40107 58031 69901 72511 84332=
12135 32598 71103 10139 20109 30122 40125 58027 8555/=
12235 11497 71204 10137 20093 39908 40113 57029 69901 72582 8223/=
12300 32565 61604 10167 20110 39992 40078 56039 862//
333 91112=
37549 41797 41404 10248 20131 39610 40142 56017 70161 83330=
33946 42697 30407 10278 20091 39955 40160 56012 83400=
33924 42598 52704 10263 20151 30174 40185 57011 83439=
34504 42697 60304 10303 20106 30011 40176 57013 86100 333 86833=
33135 42798 21905 10280 20131 30014 40179 57014 82200=
33393 42697 20000 10283 20118 39767 40127 57015 82100=
33837 42998 01803 10250 20105 30131 40180 58014=
36911 42699 62701 10283 20051 39128 40001 57009 83533 555
10033=
36974 42798 71801 10202 20036 37927 48440 57005 86903 555
10030=
36982 42699 62705 10082 21078 36510 47100 54000 85250=
38345 42798 72501 10231 20058 38729 48449 53009 87900 555
10027=
38353 42698 22801 10296 20167 39176 49984 54000 81101=
91353 32472 70505 10283 20253 30094 40099 51014 85270 333
10322 5619/ 58006 85818 555 92812
91425 32474 40405 10278 20248 30102 40103 51007 82208 333
10311 561/9 58015 82818 83280 555 92812
91434 NIL
=
12160 11498 71002 10143 20122 30075 40126 58024 69941 72582 873//=
12115 32598 51607 10177 20087 30082 40095 58037
82238
333 91112=
12125 11597 70102 10126 20111 30063 40112 57028 69971 725// 879//=
33261 42977 00501 10266 20111 30020 40189 57010=
33275 42997 02802 10264 20102 39983 40191 57013=
33301 42597 11608 10296 20131 39881 40140 58017 81100=
33325 42798 21705 10272 20124 39918 40172 57008 82100=
33377 42697 41301 10267 20152 30009 40189 57012 84200 555 11037=
33415 42997 01605 10271 20137 39768 40137 57015=
33429 42597 11807 10273 20112 39760 40153 57012 81100=
33466 42698 11902 10272 20140 30008 40182 57011 81100=
33526 42660 11106 10293 20113 39818 40131 57018 81100=
33562 42797 31503 10271 20097 39834 40169 57013 83100=
33761 42698 51303 10285 20095 39967 40174 57012 85200=
33889 42598 51104 10292 20111 30139 40173 57016 85200=
33902 42598 61402 10297 20099 30111 40172 57013 86209=
33983 42997 00507 10254 20126 30118 40175 57009=
34415 42689 51901 10308 20099 30093 40182 580145200=
34523 42698 30702 10289 20080 30114 40185 57010 83200=
60015 81/05 83/10=
26554 42560 62904 10263 20163 39975 40126 58006 81231   555 11031=
26666 41760 61805 10277 20129 39944 40142 57013 72511 84930   333
91111   555 11036=
26850 42670 62103 10292 20106 39883 40134 57011 86011   555 10046=
26863 42560 51907 10289 20126 39932 40149 57016 85200
333 85830 91111 555 10037=
26941 42960 22306 10298 20098 39911 40128 57013 82030 333 91110
555 10043=
33008 42960 22203 10295 20128 39958 40122 57016 82200 555 10051=
33019 42670 32402 10310 20156 39970 40128 57016 83100 555 10054=
33036 42770 30803 10299 20103 39942 40154 57015 83200   555 10051=
33041 42670 21904 10284 20130 30030 40174 57017 82100   555 11046=
60715 32560 50214 10250 20170 30167 40172 58004 85800
333   50291 85820=
60725 32565 43606 10261 20155 30013 40176 58007 84200
333   50261 84826=
60735 32562 63606 10270 20136 30099 40177 57003 85232
333   50521 85826=
60760 32560 12804 10294 20116 30057 40163 58007 81200
333   50701 81830=
60765 32560 40604 10250 20187 30177 40183 58006 84800
333   50451 82820 83630=
60769 32560 23308 10244 20171 30170 40175 58002 82800
333   50441 81826=
60775 32562 40310 10270 20080 39826 40168 58003 84200
333   50711 84826=
16597 32565 10115 10255 20163 30064 40149 50001 81500
333 81625=
83650 88070=
60360 32660 60207 10234 20199 40182 50000 86202
333 0//00 82833 85073 95900=
60390 32556 43610 10245 20190 40193 56002 81202
333 81826 83070 95910=
60402 32560 20806 10235 20186 40189 50001 81202
333 81820 95900=
60419 32565 50000 10242 20120 40180 56006 83202
333 83830 83075 95900=
60475 32665 43210 10215 20100 39257 48544 58001 84202
333 84846 95900=
60490 32970 33410 10260 20175 40189 58004 80002
333 83073 95900=
60525 32670 32810 10302 20128 40179 58009 83202
333 0//00 83840 95900=
60531 32975 33610 10289 20127 40189 56009 80002
333 0//00 83073 95900=
60566 32960 30000 10290 20086 40187 58004 83200
333 0//00 83846=
60571 32970 12110 10311 20055 39273 48570 50001 81080
333 0//00 81360 95900=
60580 32960 10000 10290 20157 40183 58001 81030
333 0//00 81360=
60590 32965 01608 10310 20105 40182 56002=
60611 32960 03207 10292 20105 40130 58012=
60630 32970 00620 10340 20062 40132 58014
333 0//00
60656 32960 01708 10360 20017 40134 50000
333 0//00=
60670 32959 21708 10342 20071 39050 48523 58004 82030
333 82360 95900=
60680 32760 23210 10343 21014 38643 48512 58009 82200
333 82856 95900=
15625 31660 20406 10282 20136 40151 57017 70200 85100 555 95400=
15640 31798 01402 10253 20131 40165 57007 70300 83200 555 95000=
15730 31698 40503 10250 20109 40159 57013 70200 82151 555 95000=
28679 41597 83104 10137 20124 39837 40004 53003 78098 889//   555
11016=
28766 41598 73204 10200 20104 39838 40012 57003 70398 87300   555
11023=
28966 41598 53206 10229 20065 39766 40024 57008 70282 85300   333
85995   555 11034=
35671 42698 43105 10249 20046 39686 40076 57010 84200   555 10040=
35796 42797 82202 10255 20059 39656 40047 57012 81102   555 10034=
36152 41598 71107 10197 20111 39871 40043 53004 70298 86480   555
11023=
36535 42999 20902 10220 20059 39501 40076 57009 80002   555 10031=
36821 42998 53002 10302 20050 40020 57011 80002=
36859 42599 31801 10286 20019 39318 40016 57017 81301   555 10042=
36864 42999 60901 10302 20017 40993 57015 80002=
36870 42698 71102 10268 20123 39096 40005 57005 81131   555 10039=
38222 42698 30000 10323 20094 39520 40014 57008 83900   555 10043=
38341 42698 53003 10299 20089 39315 40017 54000 83402   555 10047=
38343 42698 63401 10311 20151 49596 57002 86900=
38392 42998 60704 10348 20053 39978 40070 57001 86060 555
10047=
38507 42998 23005 10255 20142 39992 40088 54000 82030 555
10043=
38545 42998 60101 10338 20136 39890 40047 57012 84073 555
10047=
38687 42997 23604 10343 20046 39813 40024 57009 80001 555
10046=
38763 42698 12508 10315 20162 39977 40073 57002 81100 555
10045=
38880 42699 13402 10350 20080 39720 40063 57013 81200 555
10056=
38895 42997 03504 10366 20118 3//// 4//// 5//// 555   10053=
38987 42996 00305 10365 21033 39334 49997 57014 555   10042=
38911 42998 03104 10383 21033 39731 49992 57009 555   10048=
38774 42998 00000 10357 20121 39890 40065 57009 555   10056=
38799 42997 03602 10376 20094 39813 40019 57008 555   10055=
38806 42997 03204 10361 20036 39774 40007 57008 555   10050=
38886 42993 03403 10373 20304 39843 40046 57008 555   10055=
38750 42597 62709 10229 20167 30145 40118 52003 86500 555
10039=
38915 42998 029// 10395 20167 39702 49986 56005 555   10048=
10046=
41240 31957 00405 10320 20265 39975 49978 70600 333 59006=
41244 36/// /1110 10419 21006 39644 49995
333 0E026 59000  =
41246 32959 00606 10343 20268 39970 49975
333 59004 =
41254 32967 02107 10302 21117 38000 48255 333 59002=
41256 32962 00513 10369 20211 39959 49968
333 59008 =
41262 36/// /2502 10441 21010 39781 49962
333 0E028 59000  =
41268 32460 10408 10374 20239 39968 49983 81500 333 59007
81620=
41288 31957 01911 10356 20254 39970 49993 70600 333 59009=
41304 36/// /3506 10415 20020 39683 40000
333 0E025 59000  =
41312 36/// /1908 10304 20250 39974 40014
333 0E/// 58007  =
41314 32562 13405 10419 20049 39519 40030 81501 333
58010 81625 =
41316 32562 12012 10321 20247 39988 40013 81501
333 58008 81625 =
12822 32580 62004 10285 20116 39974 40107 57021 82242 333 82830=
26645 42565 21903 10266 20147 39887 40127 57004 82102   333 91110
555 10048=
26659 42560 22004 10286 20122 39937 40134 57016 82200   333 91110
555 11033=
26763 42565 61906 10281 20110 39947 40157 57010 86900   333 86926
91111   555 10032=
26825 42960 30000 10250 20164 39973 40126 58016 80001   555 10038=
26832 42670 12403 10273 20139 39948 40125 58011 81200   555 10047=
26887 42970 01607 10271 20121 39987 40178 57015   555 10043=
26961 42565 42004 10299 20110 39973 40149 57015 84200   555 10///=
33027 42565 21804 10311 20102 39992 40146 57017 82200   555 10049=
38149 32698 83605 10325 20126 30000 40069 57008 85931 33383   359
55510   040=
38178 42998 20204 10331 20064 39794 40051 57004 80009   555 10041=
38264 35798 73604 10348 20067 39986 40069 57003 81930   555 10049=
38396 42997 30103 10353 20032 40069 57009 81080   555 10052=
38403 42997 00205 10358 20132 39945 40053 57011   555 10053=
38457 42998 52702 10328 20045 39492 40019 57002 83054   555 10045=
38462 42699 72306 10248 20025 38705 48472 53002 83550   555 10040=
38565 32998 50402 10305 20110 40034 58003 85040   555 10038=
38579 32598 60000 10312 20111 39644 40021 57008 86500   555 10038=
38583 42597 83402 10324 20133 39738 40027 57002 83961   333 10039=
38611 42697 61703 10332 20090 39492 40003 55004 83340   333 83339
555 10049=
38618 42697 83601 10306 20119 39378 49999 54000 86801   555 10041=
38683 42997 83604 10347 20013 39782 40029 57007 83031   555 10049=
38696 32999 51103 10302 20059 39231 40003 58004 84073   555 10043=
38812 42997 83306 10365 20099 49998 57008 83031   555 10050=
38927 32997 22803 10404 20019 39637 49967 55011 82004   555 10050=
41859 32356 81308 10253 20220 39982 40022 8562/ 333 10272 56399 58023
70222 82710 82615 88458=
41883 32356 80902 10257 20225 39998 40018 8562/ 333 10285 56399 58033
70412 83710 84615 88458=
41891 11356 80906 10230 20210 40038 60032 70392 8532/ 333 10230 56399
58003 70894 84708 83615 81930 88458=
41907 32357 81308 10265 20220 39991 40008 8662/ 333 10295 56399 58030
70002 85710 83615 88460=
41923 11340 81302 10245 20215 30020 40030 60081 70292 8562/ 333 10256
56399 58008 70550 83708 84615 88458=
41943 11340 81803 10226 20226 30040 40049 60164 72999 8672/ 333 10272
5649/ 58017 70316 82709 84614 88458=
41950 11340 80000 10235 20230 30002 40006 60503 79596 8592/ 333 10316
56591 58006 70754 84615 82930 88458=
41978 11328 80908 10225 20210 40058 60363 76166 8632/ 333 10289 58022
70430 85708 84615 81920 88458=
41992 11450 70510 10242 20210 30052 40056 60073 70562 85370 333 10322
56990 58022 70150 84616 87458 81930=
15552 31998 61103 10247 20168 40179 57009 70311 80006 222// 2//00 555
92012 92418=
15655 31598 20908 10230 20183 40176 57009 70200 82200 222// 00184
20501 555 92025 92428 22/// 7////=
15511 31998 00503 10278 20173 40151 57021 70200=
11414 32682 62203 10191 20057 39382 42729 57016 81172
333 81833 85360 91008
555 341// 50149 60139 70131 80129=
11438 32680 51203 10215 20102 39714 40088 57026 82236
333 82838
555 348//=
11502 32581 71704 10170 20109 39644 40080 57021 8117/
333 81825 87359
555 367// 50174 60160 70152 80143 90126=
11538 32685 61203 10240 20123 39496 40061 58021 81245
333 81840 86270
555 348// 50222 60178 70161 80137=
11628 32665 41803 10223 20134 39475 40069 57015 82201
333 82833 84070
555 357//=
11643 11456 72103 10137 20111 39169 42746 58011 69901 71062 87100
333 87811
555 384// 50151 60145 70136=
11648 32660 62003 10219 20142 39810 40089 5//// 86200
333 86835
555 360//=
11683 11570 41807 10193 20142 39252 42743 58014 69901 70254 81232
333 81820 83070
555 372//=
11693 32665 61504 10213 20137 39632 40093 58012 86530
333 82640 84360
555 362//=
11698 32982 51705 10231 20122 39701 40083 58021 84032
333 84360
555 350// 50228 60210 7//// 8//// 9////=
11710 32965 31709 10238 20121 39501 40080 57021 80001
333 83070 91014
555 348// 50220 60205 70159 80140=
40356 32960 02710 10330 21030 39142 48494 333 58015
555 04410 50072=
40357 42962 03006 10350 21010 39459 40058 333 58022=
40360 32960 02410 10334 20020 39513 40072 333 58007=
40361 32960 02208 10356 20010 39329 40052 333 58019=
40362 32962 04410 10350 20070 39560 40057 333 58033=
40373 32960 03404 10420 21010 39628 40013 333 58004=
40375 32960 03304 10350 20040 39219 40040 333 58006=
40377 32960 00308 10423 20120 39568 40014 333 58001=
40394 32960 00308 10356 20010 38979 48479 333 58031 555 04410
50030=
40400 32960 03116 10292 20230 30034 40061 333 58009=
40416 31960 03620 10410 20140 39976 49996 333 59013=
40437 31958 00000 10440 21050 39343 49990 70600 333 59010=
40438 32960 02710 10440 21020 39349 40002 333 59012=
40439 32960 02516 10352 20210 30026 40038 333 58011=
41024 32960 03114 10360 20190 30016 40035 333 58002=
41030 32960 03308 10440 20190 39757 40009 333 58008=
41055 32560 12604 10350 21040 38329 48468 81100 333 58009 81830
555 04410 59992=
41084 32560 11102 10390 21040 38801 48471 81200 333 58007 81830
555 04410 59999=
41112 32560 32112 10302 21060 37918 48463 83260 333 58004 83825
82358 555 04410 59997=
41114 32560 21606 10327 20058 37952 48461 82100 333 59001 82825
555 04410 59986=
41128 32960 01107 10390 21040 38750 48469 333 58013
555 04410 59996=
41136 32960 00518 10420 21060 39235 49997 333 58011=
41140 32960 03114 10350 20280 30007 40015 333 58003=
87270 91125 =
83358 85073=
60355 32665 23404 10214 20172 40184 58001 82200
333 82833 95900=
60445 32660 43010 10230 20058 39017 48550 56002 82202
333 82830 83073 95900=
60511 32565 13604 10250 20068 39099 48557 58002 81202
333 81826 95900=
60535 32670 33610 10225 20082 38872 48550 58003 83200
333 0//00 83833 95900=
60549 32560 30000 10250 20095 38914 48560 58004 82101
333 0//00 82830 95900=
60550 32770 23305 10231 20049 38717 48563 58001 81101
333 81850 95900=
60555 62670 21007 10296 20127 40185 58006 82200
333 0//00 82840=
60559 32960 00000 10288 20158 40180 56006=
60560 32670 22310 10274 20084 38995 48553 58003 82200
333 82840 95900=
60602 32970 0//02 10333 20048 40153 58005
333 0//00 95900=
60607 32960 00607 10340 20001 40173 51002
333 0//00=
60620 32960 00614 10355 2//// 40144 58006
333 0//00=
60640 32965 03304 10305 20135 40122 58015
333 0//00=
15712 31698 31403 10293 20138 40133 58021 70200 82201 555 95010=
15614 31698 30704 10256 20076 39473 40132 57016 70300 82240 555 95000
=
15613 31/98 50908 10093 20062 37765 47152 57006 70310 84301 555 95110
=
15605 31798 21402 10352 20131 39388 40124 57015 70200 82201 555 95000
=
15627 31/91 90000 10068 20068 37673 47140 58002 74542 555 95190=
15600 31298 50504 10140 20095 38352 48543 58005 70311 85200 555 95110
=
15615 31/98 60902 10051 20021 37181 47132 58003 70321 86201 555 95110
=
40155 32960 03314 10262 20185 30103 40113 58007=
40180 32960 03312 10270 20187 30071 40117 56002=
40199 32970 00219 10341 20053 30078 40081 57019=
33990 42681 50903 10264 20142 30093 40175 56004 85200=
33246 42697 21502 10278 20164 30040 40184 58015 82200=
34712 42598 11205 10245 20152 30099 40180 57011 81100=
33177 42699 32302 10292 20124 39916 40134 57013 84100=
33088 42697 22207 10298 20134 39971 40146 57011 82130=
33614 42597 23302 10265 20155 40183 57014 82100=
47407 12/65 71607 10163 20112 39704 49837 56015 60092 872//
333 10184=
47409 32975 21606 10140 20119 39802 49852 58009 80002
333 10193=
47418 11/06 92502 10099 20096 39841 49885 57010 60312 74785
333 10132=
47421 11/70 81904 10116 20095 39804 49848 53011 60042 70282 882//
333 10173=
47430 11/60 72416 10122 20098 39836 49887 53008 60062 78082 877//
333 10173=
47570 11/58 70302 10174 20152 39766 40011 51016 69902 72582 872//
333 10240=
47605 11/50 82410 10191 20156 30010 40048 53024 60012 71022 882//
333 10210=
47663 32960 02201 10210 20172 30000 40031 53029
333 10281=
47675 12460 12115 10201 20186 39909 40000 51020 69902 81201
333 10231=
47741 31/58 72621 10196 20148 30034 40059 51029 71011 87200
333 10242=
47746 32965 70105 10209 20150 30038 40056 51031 82032
333 10265=
47887 42/60 32705 10216 20119 30034 40073 52031 83100
333 10252=
38262 32498 80000 10349 20145 30998 40071 57004 883//   555 10044=
83242
22211 04119 20802 8////=
22282 00189=
41598 62919 10080 20060 40185 51015 70222 8631/
22274 00090 80070=
80091=
62120 28124 99564 10021 46998 ///// 10319 49991 57004 22200 80067=
62103 28124 99499 70029 46/99 /2820 10110 20077 40091 52024 22200
00117 107// 555 1//36 05006 07277 10098 11177 12410 13417 14714
15541 17317 26100 35068 05005 07255 10110 11178 12415 13418 14713
15542 17316 35065 36090=
62301 28123 99523 70045 46/// /2414 1//// 2//// 40045 22200 00136
10402=
15503 18001 22105 23030 35061 36105 50060 51395 52004 53295 71400
73135 74012 75401 76900 90222 05232 07351 10009 11009 12110 13999
14997 15499 18001 19015 22115 23030 35062 36106 50060 51394 52004
53297 70001 71000 72699 73133 74011 75408 76900 90196=
15526 18002 19008 22095 23130 35050 36060 50051 51368 52005 53089
70001 71066 72696 73137 74500 75186 76914 77001 05222 07236 10070
11111 12104 13411 14699 15525 18001 19010 22105 23111 35050 36059
50051 51368 52005 53089 70003 71066 72695 73136 74499 75195 76951
77000=
53201 70001 71000 72481 73139 76900 90150=
87860 22243 02205 20302 332// 41005 80165=
51076 11680 32702 10190 20065 39251 40093 57007 69901 70080
82462 333 00003=
51243 32880 12202 10266 20045 39544 40057 57005 81402 333
05107=
51431 32680 10902 10272 20038 39299 40046 57013 81102 333
05402=
51463 32680 13607 10201 20017 39042 40091 57004 81100 333
00253=
51656 32780 22503 10288 20033 38994 40017 57011 82100 333
05100=
51765 32980 52702 10307 20043 39082 40006 57012 80002 333
05102=
51777 32972 70000 10288 20095 39049 40016 57012 80002 333
05151=
52203 32780 52503 10268 20000 39198 40013 52003 81102 333
00252=
51053 32680 12703 10211 20093 40085 57012 81102 333 00005=
51334 32980 13403 10276 20014 40059 57015 80002 333 05306=
51467 32680 20000 10216 21035 38191 57002 82100 333 05102=
52118 11680 70000 10158 20017 38228 52003 69901 70080 86102
333 00257=
55299 11780 72004 10060 21012 35876 52003 60021 70098 86902
333// 00201 93901=
55773 11470 71103 10058 20032 36017 54000 60021 70080 874//
333// 00152=
55664 11880 21406 10135 20046 35998 52003 69901 72598 82900
333// 00153=
55578 31780 71102 10134 20052 36356 57004 70090 879// 333
00354=
55279 32780 42904 10085 21096 35730 54000 82402 333 00101=
56106 11680 82911 10061 20014 36241 52020 69951 78000 889//
333// 00454 91120 91529=
55472 31680 73205 10094 21055 35762 52004 71400 86902 333
00251=
55294 32780 71804 10072 21072 35744 52005 879// 333 00204=
56202 11575 80000 10025 20011 35893 52002 69971 78098 889//
333// 00151=
55569 11780 70000 10137 20022 36211 54000 69901 72900 879//
333// 00457=
55680 11570 80000 10070 20059 36235 52005 60041 78098 889//
333// 00355=
55655 32570 71605 10089 20049 36476 57004 879// 333 00100=
55572 11780 60000 10090 20055 36249 57003 69941 70080 86900
333// 00354=
48325 31556 80000 10303 20246 39806 40042 71722 83907
333 10345 59010=
48357 32560 80000 10291 20260 39879 40044 82546
333 10345 58007=
48383 32562 40602 10314 20256 39880 40034 82505
333 10354 58004=
48403 32562 50000 10315 20247 39833 40039 82245
333 10345 58000=
48405 32962 30000 10325 20236 39870 40028 80001
333 10349 59013=
10261=
55248 32780 63608 10112 21181 35932 57010 86900 333 00251=
55437 11780 62705 10117 21033 36362 52003 69901 71580 86900
333// 00354=
51087 32680 62502 10170 20050 39176 40097 57007 85162 333
00001=
51156 32780 30903 10172 20044 38659 40093 57003 83400 333
05106=
51288 11680 62903 10105 20020 38299 57004 69901 70080 85202
333 00153=
51644 32980 12202 10277 20055 38835 40014 57016 80002 333
05203=
51495 32680 43615 10234 21003 40116 57011 81102 333 00255
91124 91534=
51542 32680 13404 10143 21041 37543 57002 81400 333 05204=
51730 32575 22701 10312 20093 49990 57014 81102 333 05204=
51232 32980 11405 10265 20079 40066 57014 80002 333 05205=
51855 11780 60000 10258 20087 40019 52002 69901 70098 85402
333 00052=
48552 11460 61402 10267 20247 30065 40071 60042 70192 82946
333 10341 59002 70042=
53810 32980 11607 10172 20047 40093 52001 80002=
53673 32980 40000 10253 20060 40089 57001 80002=
91754 06/// /1306 10251 2//// 40108 58007 60031
333 10292 55007 2//// 58003 60017=
71473 17/// /1904 30127 53007 60041 7//4/ 333 70054=
85864 12570 70209 10078 20055 40133 52005 60024 87200
333 20076 32/// 55019 56600 70022 82625 86835 =
71894 17/// ///// 10098 30142 40151 51013 69981 7//4/ 333 10140
20091 70140=
71906 31262 50000 10001 21011 30211 40259 50003 70141 85600
333 10108 21032 55/// 70000=
78958 01459 71014 10265 20248 30112 40122 60041 78081 87802
333 10317 20242 59023 70040 83817 85638 85078=
71079 11462 81810 10112 20098 39799 40068 56001 69961 76122 886//
333 10200 20110 70036 90973=
45011 32468 61607 10282 20262 40087 52011 84232
333 10315 58017=
61968 16/// /2504 10253 20218 40123 69941
333 58006=
61972 36/// /2906 10259 20173 30141 40156
333 58010=
61976 32582 51110 10272 20190 40130 84230
333 58000 84825 92448=
61980 32570 30814 10260 20179 40147 83800
333 59004 81820 83658 91131 92438=
67005 32580 31806 10280 20210 40124 83800
333 58004 83826=
61996 11560 72323 10109 20068 40098 69961 78081 85902
333 58041 82923 84826 91139 92457=
61998 11458 72329 11006 21020 39876 49912 53031 69921 77072 872//
333 58057 87813 91147 93102=
91944 36/// /1006 10254 20231 30118 40124 56016 333 10284 55///
21544=
91945 36/// /1008 10239 20206 30121 40126 57018 333 10282 59021
555 1//12=
89022 42698 71201 11249 21265 30074 40115 57001 83077
333 11245 21335 83340 87260=
71811 11683 70208 10082 20021 30077 40145 52024 69921 70162 86530
333 10089 20051 55000 20855 70004 90931=
83377 31997 20000 10221 20114 38876 40128 70544 80005 333 20140
59014=
83378 32970 00000 10208 20125 38995 48542 333 20135
59002=
83766 32997 00000 10132 20059 39618 40179 53012 333 20078=
83767 32997 11404 10120 20063 39548 40187 53018 80004 333 20091=
83768 32970 01604 10140 20056 39520 40182 51024 333 20100=
83783 32997 01401 10124 20031 39484 40175 52010 333 20067=
83811 32997 02702 10082 20035 39260 40166 53001 333 20011=
83813 32997 00000 10061 20001 39051 40171 53012 333 20001=
83836 22997 02301 10059 20021 39172 40168 53013 333 25002 69914=
83844 32597 12705 10171 20074 30152 40159 52015 81100 333 20103=
83872 32997 02308 10120 20059 30095 40179 53010 333 20062=
83881 21/91 91401 10068 20064 39896 40211 51012 74542
333 20056 69924=
83883 31996 00000 10070 20055 39400 40191 52006 71000 333 20042=
83887 32997 02306 10065 20029 39111 40182 52020 333 20034=
83899 32970 03005 10142 20095 30159 40159 53017 333
20090=
83907 32997 11402 10109 20077 39887 40179 53006 80001 333 20084=
83912 31996 02302 10090 20068 39620 40118 52010 71000 333 20050=
83914 31996 00000 10070 20041 39404 40212 52008 71000 333 20040=
83919 31496 72304 10040 20031 38982 40191 52011 71021 87500
333 20018=
83927 32997 00902 10120 20096 30110 40194 52009 333 20060=
83936 32997 00000 10102 20081 30050 40177 51015 333 20052=
83948 32597 12704 10127 20075 30116 40154 51010 81100 333 20092=
83953 32997 01802 10109 20091 39810 40195 52003 333 20///=
83964 32997 01806 10074 20063 39678 40190 52010 333 20052=
83971 32470 32707 10108 20084 30186 40186 53012 81600
333 20186=
83980 31996 02302 10082 20053 39906 40199 52009 71000 333 20060=
83995 32697 62302 10116 20097 30166 40170 51010 85430 333 20100=
83997 32997 62310 10102 20090 30126 40171 53017 86070 333 20087=
83612 22970 00908 10186 20102 39523 40158 53016 333
60084=
83716 22970 01803 10173 20111 39641 40174 52020 333 20135
69904=
83721 31930 00000 10150 20130 39410 40160 53019 71040
333 20114=
83722 21460 20606 10166 20150 39451 40147 51018 71022
82600 333 20142 69954=
83780 32970 00000 10164 20113 39256 40157 53014
333 20130 =
83818 22570 10000 10220 20154 30154 40157 53019 81500
333 20132 69984=
83827 31962 01402 10082 20064 39912 40204 53013 71000
333 20036=
83550 21597 2//// 10230 20222 30094 40124 70344 82200 333
20202 59030 69934=
83649 32970 30000 10270 20199 40136 52019 81031 333 20210=
83695 32697 50000 10222 20192 30006 40144 5//// 84550 333
20186=
83698 21999 41803 10220 20184 30123 40137 50212 8404/ 333
20204 69924=
83718 21595 80000 10190 20178 3//// 4//// 5//// 70266 88700 333
20165 60024=
83738 21697 83603 10174 20169 39630 40134 52010 70156 887//
333 20150 60034=
82979 32498 21403 10270 20191 39683 40144 82500 333 20/// 59012=
82986 32597 31404 10248 20194 39833 40118 82160 333 20204 59014=
83076 32598 32703 10226 20188 39630 40138 81191 333 20152 58000=
83090 32598 40506 10246 20181 39615 40135 885// 333 20203 58010=
83096 22698 10901 10277 20212 30123 40130 81500 333 20178 59009=
83097 32598 1//// 10244 20225 30100 40123 81200 333 20198 58013=
83179 32598 20503 10265 20171 39674 40123 81101 333 20188 59018=
83182 32997 61404 10239 20163 39303 40139 80001 333 20153 59014=
83186 32597 60000 10217 20199 39546 40102 86500 333 20171 59018=
83190 21597 31806 10242 20207 39728 40146 70222 83100 333 20207
59019 60074=
83195 32599 505// 10258 20215 39893 40136 85200 333 20205 59013=
83236 32598 50000 10224 20184 39640 40127 83260 333 20164 59006=
59012 69924=
83244 32497 80000 10234 20205 39837 40132 8775/ 333 20180 59015=
83248 32470 60803 10270 20240 40142 84201 333 20223 59012 =
83286 32998 0//// 10225 20155 39468 40125 333 20140 59011=
83288 32998 41802 10236 20169 39632 40144 80005 333 20188 59010=
83339 32498 40903 10218 20188 39161 40136 81201 333 20/// 59011=
83344 32498 41403 10219 20165 39133 40129 81109 333 20159 59021=
83349 22470 32805 10255 20234 40139 83200 333 20224 59019
69924=
83398 32597 63202 10260 20246 30123 40128 83540 333 20197 59024=
83408 32598 52702 10225 20142 39609 40103 80002 333 20159 59016=
83497 32970 00116 10266 20222 40124 333 20231 59025=
82392 32598 11402 10264 20220 30007 40109 81100 333 20200 59003=
82398 32570 31405 10286 20231 40128 83100 333 20245
59008=
82400 21458 61704 10252 20244 40133 71561 85131 333 20250 59002
60064=
82493 32596 11404 10277 20238 30109 40123 82100 333 20210 59007=
82579 32970 00000 10286 20223 40120 333 20233 59007=
82583 32599 20508 10257 20208 39792 40132 82100 333 20186 59005=
82599 32570 41309 10280 20229 40137 84200 333 20227 59007=
82678 32998 00904 10263 20205 39976 40135 333 20188 58008=
82683 32595 60504 10256 20197 39685 40137 86400 333 20200 59001=
82686 32598 21804 10260 20203 39892 40138 82100 333 20195 59005=
82689 32998 01405 10262 20162 39860 40126 333 20180 59004=
82780 32698 23603 10256 20193 39885 40138 81100 333 20188 59002=
82789 32999 01406 10214 20148 39018 40128 333 20160 59012=
82791 32999 00907 10278 20179 39835 40120 333 20208 59003=
82795 32597 30506 10234 20187 39517 40134 83200 333 20200 59006=
82798 21596 71804 10284 20226 30136 40157 70062 87400 333 20240
59005 60034=
82879 32998 00906 10268 20194 39862 40129 333 20177 59010=
82882 32998 00913 10262 20207 39694 40111 333 20220 59024=
82886 32697 11406 10261 20190 39739 40122 81101 333 20202 59008=
82893 32798 10904 10216 20192 39226 40129 81100 333 20157 59009=
82899 22570 32005 10292 20222 40140 83100 333 20232 59005 60034=
82900 32597 61803 10273 20214 30122 40131 86200 333 20216 59007=
82975 32592 00000 10204 20192 39746 40148 333 20247 59011=
82976 32596 20902 10242 20159 39542 40127 82100 333 20186 59012=
82983 32595 50906 10238 20187 39724 40140 85100 333 20214 59014=
82993 32970 00605 120258 20225 40137 333 20214
59009=
82193 22470 60703 10282  40102 83131 333 20240
58003 60054=
82281 22570 50805 10288 20241 40114 82101 333 20250
59003 60044=
82022 21370 73606 10240 20226 40132 70362 86530 333
58001 60134=
82332 42470 60000 10268 20246 40128 81104 333 20250
58005 =
82824
32570 70000 10250 20227 40122 81131 333 20234 58002=
82917 31960 30000 10236 20232 40125 71000 80001 333 20208
59003=
82042 21396 60000 10243 20230 70366 86600 333 20232
60034=
82106 22494 80000 10232 20225 30000 40098 74222 8563/
333 20204 58002 60114=
82113 22597 53204 10230 20241 82310 333 20226 69954=
82212 22696 80000 10246 20237 30055 40119 885// 333
20214 58004 60064=
82240 31496 63602 10273 20247 30103 40137 70341 86600
333 20253 58004 60024=
82317 32396 80000 10252 20245 885// 333 20230=
82326 31397 81402 10244 20225 30094 40149 71022 887//
333 20205 58002=
82331 22597 40000 10260 20239 30062 40144 81272 333
20228 59010 69984=
82336 32697 63603 10264 20241 85201 333 20220=
82410 32697 40502 10251 8483/ 333 20216=
82425 32396 83604 10260 20246 30076 40132 86652 333
20240 59004=
82533 32797 30000 10236 20228 30067 40123 80002 333
20218 58003=
82610 32595 80000 10230 20216 887// 333 20224=
82704 22796 60000 10226 20223 39886 40081 86030 333
20213 58000 69954=
82723 32396 30000 10240 20237 82601 333 20220=
82807 31993 90000 10228 20226 74540 89/// 333 20///=
85782 02360 70305 10110 20106 40139 57/// 60054 85201
333 20050 32/// 56807 70052 81807 85813=
89050 31340 81308 11038 21041 40199 53014 71022 886//333
88707=
89512 42998 81336 11075 21284 39911 40063 57002 85031=
89592 11610 80920 11157 21157 49963 57002 60032 77573 8802/=
89606 32982 02508 11762 21804 36334 47577 52008 333   11686=
78792 31459 60000 10254 20234 30086 40101 52011 70544 81204
333 10330 20244 31/// 560// 59002 81818 85080 =
78793 11102 80000 10246 20243 30064 40095 52008 60082 74684 83928
333 10316 20244 32/// 563// 57941 59002 70076 82702 81910 83460
85280 =
78795 11370 80000 10234 20220 39990 40090 52007 60012 83550
333 10324 20228 31/// 5600/ 59005 70410 83610 86359 =
71051 46/// /0815 11132 21183 30177 40289 53001 333 11094 21135=
82178 21697 50000 10272 20241 30055 40098 70362 83230 333
20222 58000 69954=
82181 32597 70508 10250 20187 82530 333 20238=
82184 22698 40902 10258 20249 30104 40122 84230 333 20241
58000 60084=
82191 22598 40504 10276 20248 30106 40112 83240 333 20227
59002 60034=
82198 22797 20502 10258 20248 30044 40096 81101 333 20225
59003 60051=
82246 22597 81402 10251 20247 39943 40141 8672/ 333 20236
58004 69974=
82263 21898 10504 10282 20258 70165 81040 333 20236
60024=
82280 22498 6//// 10282 20252 30051 40109 84202 333 20237
59006 69954=
82353 31597 8//// 10258 20240 70302 8872/ 333 20227=
82361 22897 53202 10271 20252 30087 40124 83039 333 20247
59004 60034=
82445 32496 80000 10252 20249 30092 40145 83671 333 20229
58001=
82460 32597 43201 10280 20254 30077 40107 84200 333 20243
59004=
82562 32598 33603 10264 20229 30016 40126 83001 333 20230
59010=
82564 32697 50000 10271 20224 81106 333 20221=
82571 32997 01402 10229 20220 39933 40132 333 20182 59012=
82765 32698 30000 10252 20202 39907 40148 81159 333 20197
59004=
59004=
91784 31599 10000 10217 20174 40120 70200 81800   333 10260 564//
81820=
91792 31598 52006 10211 20149 40135 58002 70301 857//   333 10252
565// 85822=
64387 32670 60906 10235 20158 38507 48501 83232
333 58013 83840 83360 1018,3=
44259 32598 83604 10213 20013 39179 40005 53015 8654/ 333
10263=
44373 32999 62305 10235 21038 38447 49980 57006 83078 333
10262 555 96108=
40405 32960 03406 10420 21010 39304 49987 333 58016=
40430 32960 02606 10410 21020 39330 40004 333 59003=
30372 32699 73604 10075 21005 39212 40036 52011 83931   333 10099=
30433 32699 42701 10110 21012 39526 40089 57002 82531   333 10127=
30554 32698 13603 10103 21071 39024 40049 53009 81400   333 10136=
30635 32999 20605 10100 21005 39540 40082 54000 80001   333 10153=
30673 31699 62907 10117 21014 39277 49993 52006 70282 86300   333
10129=
30692 32599 82902 10090 20009 39505 49972 53006 883//   333 10137=
30758 32999 30102 10174 21074 39250 40004 54000 80001   333 10205=
30802 32698 80306 10112 20056 38603 48402 53003 85330   333 10215
95750=
30823 32999 80502 10172 21044 31545 40045 57001 85032   333 10174=
30879 31999 23101 10128 21014 39291 49998 53005 70230 80001   333
10172=
30935 32999 70801 10173 20045 39167 40026 57011 85041   333 10186=
30965 32999 71904 10154 21033 39251 40014 52014 84042   333 10214=
31300 32999 22301 10116 21009 39687 49957 54000 80002  333
10180=
31329 11499 81002 10093 20090 39317 49942 53009 60042 72582 889//
333 10226=
31369 32498 80909 10091 20061 39933 40015 53001 8596/   333 10198
85917 91014 91115=
31416 32599 73002 10165 20076 39863 49947 53004 889//   333 10251=
31484 32984 50000 10154 20082 39621 49930 54000 82031   333 10229=
31510 115// 63003 10157 20019 39797 49950 53034 69902 70298 86900
333 10266 91113=
31707 32998 20000 10177 20121 39840 49923 57007 80001   333 10266=
31735 32997 73504 10155 20112 39848 49929 51004
80001 333 10203=
95750=
80001 333 10203=
40103 32970 02806 10252 20206 40126 58006=
40250 32970 00000 10312 20105 39327 40079 57022=
40265 32960 02210 10290 20105 39345 40110 57012=
40296 32965 03404 10336 20145 40133 57020=
40310 32960 00000 10310 20066 38922 48487 57011=
40255 32960 02806 10270 20086 39422 40112 57002=
40260 32960 02812 10322 20151 39337 40077 57016=
40270 31958 02214 10274 20112 39235 40096 57008 70500=
40272 32960 03014 10284 20140 39293 40097 57010=
40340 31957 03618 10338 20170 40073 57017 70700=
48300 32565 20000 10311 20249 39736 40033 82535
333 10353 59006 70084=
48327 01562 53203 10280 20223 39653 40033 69902 70161 83906
333 10331 58001 69907 79999=
48331 32565 40000 10284 20245 39813 40039 82556
333 10338 59010 70002=
48353 31562 60000 10310 20240 39752 40033 71722 83966
333 10352 59002=
48356 31562 30000 10305 20263 39848 40040 70191 82235
333 10338 58002=
48375 32562 60000 10282 20235 39823 40046 83946
333 10335 59002=
48378 32560 50000 10322 20251 39987 40038 83906
333 10350 59002=
48381 32562 62103 10315 20237 39818 40035 81346
333 10342 58001=
48407 31558 62403 10313 20249 39904 40042 71033 82246
333 10350 58009=
48431 01560 70000 10296 20246 39734 40043 69932 70262 84376
333 10351 59001 69937 70003=
48456 32460 72012 10311 20269 30031 40047 82936
333 10362 59004=
48480 32560 60000 10297 20272 30055 40059 83245
333 10338 58000 79999=
48500 01565 83202 10273 20249 30053 40058 60022 70396 83546
333 10333 59002 60026 70024=
48565 01410 82810 10253 20249 30075 40086 60302 76362 83877
333 10312 58015 60306 70394=
48569 11460 70000 10280 20236 30038 40078 69952 70362 82946
333 10353 58007 70005=
48583 31559 60000 10300 20255 30069 40075 71322 83906
333 10336 58002=
38647 42697 22803 10314 20126 30038 40077 56009 82100 555
10048=
38974 42998 03404 10360 20002 39723 40022 57017 555   10050=
40718 32960 30703 10228 20213 301/0 40129 54000 80005 91150 333
83270 90202=
40732 32560 61606 10246 20166 30149 40129 51004 82250 91150 333
82830 86360=
40745 32965 11506 10332 20059 38950 40010 56012=
40766 32960 03008 10320 20044 WEIYEQ 40031 57013 91150 333=
40811 32960 03107 10428 20087 39995 40021 57012 91150 333=
40841 32960 03305 10360 21004 38190 49962 57020 91150 333=
40848 32960 01103 10372 20018 38448 49961 57022 91150 333=
40856 32660 31206 10394 20081 38542 49934 57017 83400 91150
333 83640=
40875 31950 01905 10372 20192 39968 49972 57023 70500 91150
333=
43466 32498 21503 10300 20249 30064 40072 81101 333 10311
59007 81818=
48303 31565 60000 10280 20233 39598 40033 70392 83936
333 10339 58004=
48328 32562 60000 10315 20243 39763 40032 83546
333 10355 59004 70001=
48330 31560 60000 10305 20253 39856 40037 72922 82946
333 10355 59004=
48351 32561 60000 10322 20258 39964 40035 83536
333 10356 59007=
48354 32563 70000 10315 20236 39829 40027 81906
333 10355 58004 70283=
48376 32563 40000 10295 20243 39901 40042 82535
333 10350 59010=
48377 32562 60000 10305 20243 39875 40036 82536
333 10362 59006=
48379 32561 20000 10306 20255 39897 40027 81305
333 10355 58004=
48400 32560 30000 10316 20254 30002 40042 81545
333 10350 59004 70238=
48432 32560 20000 10315 20254 39877 40041 81945
333 10348 58001=
48455 32562 52204 10315 20251 30045 40050 82146
333 10350 59002=
48462 31560 32603 10327 20243 39991 40046 71310 83903
333 10358 59005=
48475 32562 40000 10283 20246 30046 40057 83236
333 1//// 58001=
48477 31562 52306 10304 20257 30047 40061 71322 81946
333 10357 58005=
48517 32560 22706 10290 20236 30066 40071 81245
333 10332 58007=
48532 31558 61802 10277 20238 30065 40075 71022 83546
333 10324 58006 70328=
48567 01562 80000 10272 20261 30061 40078 60052 71596 83977
333 10337 58007 69917 70048=
48310 32560 50000 10297 20248 39587 40026 82835
333 10333 58000=
48329 32562 40000 10307 20239 39702 40031 82235
333 10350 58001=
48380 31562 62404 10301 20243 39951 40043 72992 82946
333 10354 59010=
48421 01558 60000 10275 20254 39950 40075 60022 72121 83246
333 10346 58017 60025 70018=
48425 32560 73102 10305 20247 30034 40044 83976
333 10365 58001=
48426 32560 50000 10325 20249 30029 40042 82546
333 10357 59001=
48430 32560 40000 10327 20257 30034 40042 82246
333 10357 59004=
48450 32560 50000 10302 20245 30016 40048 84903
333 10365 59001=
48459 32565 21803 10320 20243 30049 40052 82501
333 10350 58004=
48465 32560 70000 10305 20242 30045 40049 83546
333 10341 59006=
48550 32560 50000 10300 20258 30065 40070 81206
333 10338 58001=
48566 32562 80115 10295 20252 30074 40082 83847
333 10327 58007 70010=
48315 11559 60000 10277 20245 39778 40044 69902 71392 84976
333 10328 58005 79999=
48413 01556 80000 10275 20268 39952 40031 60352 71362 83576
333 10340 59009 60337 70354=
48416 32561 40000 10315 20266 39894 40038 82943
333 10356 58001=
48418 11560 40000 10310 20261 39981 40037 69932 70191 82903
333 10347 59002 70003=
48460 32562 52108 10305 20248 30025 40056 82506
333 10325 59002=
48461 32560 20000 10298 20250 39985 40053 82105
333 10338 59003=
48478 31559 50000 10315 20266 30054 40059 71022 82545
333 10375 58005=
48501 01560 80000 10290 20269 30057 40065 60042 72162 83576
333 1//// 58001 60045 70035=
48561 01460 80000 10270 20253 30077 40081 60042 70266 83946
333 10324 58008 60047 70044=
48564 01560 62705 10289 20243 30071 40075 69902 70262 83846
333 10328 58014 69905 70029=
48570 11560 40000 10280 20254 30073 40081 60052 70262 82106
333 10317 58007 70051=
48580 01558 80000 10257 20234 30065 40072 60072 71362 85947
333 10343 58003 60077 70071=
44225 11597 82702 10085 20066 38170 40039 56009 60012 76162
885// 333 10155=
44241 32999 70507 10209 20078 39080 49964 57011 87030 333
10273=
44256 32999 70205 10171 20053 39206 40002 53012 86052 333
10227=
44272 11698 60000 10104 20041 38131 40009 54000 60032 70298
83570 333 10188=
44298 32999 42706 10254 21038 38592 49934 57007 80007 333
10290=
44313 32699 70000 10195 20034 39205 49963 56002 84570 333
10250=
44314 32598 60202 10206 21044 39005 49990 53024 84380 333
10294=
44336 32999 62305 10256 21022 38565 49934 56005 80003 333
10283=
44341 32999 62310 10246 21036 38469 49943 56009 82041 333
10270=
44347 32999 42706 10256 20002 38596 49956 56007 80008 333
10289=
40703 32660 50309 10242 20069 38871 40076 57016 84305 91150 333
81935 83842 83270=
40712 32660 20305 10242 20052 38646 40059 57012 82100 91145 333
82840=
40736 32560 22804 10252 20174 30159 40132 54000 82200 91150 333
82830=
40739 32965 06005 10286 20042 38608 40022 56006 91150 333=
40743 32962 03404 10348 20000 38958 400? 2 +43$5 91150 333=
40762 32965 12405 10338 20062 GEIRUO 49974 56012 80002 91150
333=
40768 32960 02603 10280 21020 38213 40000 57007 91150 333 =
40769 32660 12706 10302 21034 38252 40010 56007 81100 91150 333
-6840=
40785 32665 12102 10378 2004' 38947 DROOURX 57020 814)0 91146 333
81640=
40809 32665 12305 10376 20046 38438 49954 56009 81100 91150
333 81850=
40821 32960 01502 10356 21007 38712 49983 5702? 91150 333=
40831 32960 03207 10436 20039 30018 40026 57017 91150 333=
12215 36/// /1506 10150 20101 39929 40102 57038 69961=
28867 42499 13208 10222 20056 39780 40024 57008 81200   555 10030=
28879 41597 83504 10153 20115 39753 40020 53011 78082 86982   333
86925   555 11019=
28952 42598 52707 10229 20058 39873 40051 57017 86900   555 1/028=
29807 41597 52207 10185 20130 39874 49983 57006 72582 83201   555
12022=
34691 42698 53204 10303 20048 30174 40163 5/009 85200   555 1/051=
35067 42698 3//// 10228 20043 39788 40039 57008 83200   555 11026=
35078 41799 53006 10209 20088 39680 40026 57008 70298 83203   555
10031=
35188 41698 62805 10161 20106 39634 40036 58006 70282 85930   555
11019=
35229 42698 72905 10246 20092 39858 40107 57014 83361   555 10036=
35394 41597 61805 10155 20109 39422 40052 57015 71798 85930   555
11017=
35416 42697 42902 10265 20095 82204   555 10038=
35426 42499 52705 10253 20074 39855 40121 58011 81265   555 10042=
35497 42699 22901 10160 20105 39323 40065 57019 70281 82100   555
11013=
35532 42698 70000 10232 20070 39664 40115 57009 87050   555 10036=
35700 42698 20502 10286 20038 30171 40145 57008 82100   555 10035=
36003 41597 82107 10186 20123 39871 40012 57010 79598 889//   555
11021=
36208 42699 70000 10182 20090 39157 40059 57015 84201   555 12020=
36397 42999 60000 10243 20047 39541 40049 57018 81042   555 10030=
38196 42998 23403 10263 21005 40026 54000 80002=
38334 42998 32905 10285 20067 39153 40017 54000 82030   555 10043=
38439 42998 20501 10339 20105 39725 40027 57003 82041   555 10052=
28978 41598 73405 10165 20105 39573 40029 54000 72582 87900   555
11018=
35173 41596 62706 10183 20097 39692 40043 57001 70298 85308   555
12021=
82288=
62306 32960 40411 10267 20165 40140 58008
80006=
62318 32960 03311 10260 20186 40134 55006=
62337 32960 03504 10274 20168 40120 58009=
62366 32960 00112 10328 20119 40113 58012=
62393 32960 03414 10346 20078 40084 57014=
62414 32960 00311 10400 20060 40057 56022=
62417 32960 60804 10344 20116 40119 58015
80006=
62440 32960 00310 10322 20127 40118 58010=
62463 32960 03624 10316 20131 40075 57017=
62465 32960 03618 10298 20201 40061 58021=
61017 32970 50000 10438 20072 39668 40052 80002
333 59002 85080=
61024 32660 62604 10406 20129 39529 40066 83202
333 0//00 58005 83840 85080 94932 95872=
61036 32960 7//// 10383 20173 39855 40085 80008 91145
333 58002 87280=
61043 32962 52810 10364 20168 39654 40079 80001 91145
333 58002 85080=
61045 32960 7//// 10394 20160 39588 40061 80008 91148
333 58003 87280=
61049 32960 7//// 10428 20118 39739 40049 80008 91145
333 59010 87280=
61052 32965 51814 10375 20170 39842 40086 80002
333 0//00 58018 85080=
61075 32965 72608 10363 20188 39786 40085 80008 91148
333 58014 87280=
61080 32665 72804 10355 20182 39668 40074 81208 91145
333 58018 81840 87280=
61090 32960 52814 10360 20184 39590 40080 80002 91145
333 58008 85080=
61096 32965 72006 10405 20162 39693 40066 80008 91145
333 58002 87280=
61099 32765 7//// 10352 20214 39/// 4//// 81142 91145
333 5//// 81850 85080 94904=
23914 41499 72504 10130 20058 39812 40056 58006 70181 82975=
23921 41599 73102 10120 20097 39919 40032 54000 70282 87900=
23955 11498 80402 10196 20127 39923 49979 57015 69962 71796 84971
333 10204=
23966 32597 83301 10227 20089 39897 40011 57005 82342   333 10229=
28255 41599 32703 10230 20093 39876 49994 57026 70281 83300=
28440 41598 73203 10162 20122 39701 40026 57006 78082 87900=
28661 42699 53005 10233 20085 39931 40015 57014 85100=
28722 42598 62905 10231 20085 39956 40076 57014 85101=
28748 41560 62701 10239 20120 39819 40036 57026 70298 83903   333
91806=
29231 11598 81203 10241 20099 39902 49988 57014 69902 70282 8533/
333 10259=
29313 11598 61705 10199 20120 39857 49969 58018 69902 70282 86900
333 10248 86923=
29612 11598 61106 10175 20129 39828 49966 57017 60232 70292 86300
333 10180=
29634 32657 81905 10213 20086 39815 40017 57014 8555/   333 10215
85640=
29838 32597 71804 10237 20081 39833 40043 57013 86331   333 10250=
36061 11699 81102 10203 20117 39695 40068 57012 69972 70298 82251
333 10204=
23909 41598 82606 10134 20053 39824 40058 53002 78098 8737/=
28116 41698 40802 10142 20086 39849 40068 57008 70182 84900=
28240 41599 63105 10202 20103 39712 40008 57013 70392 85360=
28419 42698 62904 10209 20036 39946 40065 57011 84331=
28621 42580 53305 10224 20058 39864 40078 57007 83201=
29122 11699 82703 10231 20071 39912 49979 56004 69902 72582 8335/
333 10259=
29328 32498 82106 10218 20084 39878 40004 57005 8492/   333 10262=
29348 11597 71602 10250 20105 39876 40006 57013 69902 78081 84931
333 10291=
29405 11396 81106 10135 20126 39811 49947 57026 60122 79598 8793/
333 10164 87908=
29430 32498 82302 10242 20093 39852 40011 56006 82971   333 20265=
29605 11497 80602 10154 20133 39820 49951 57008 60062 78082 889//
333 10199=
29631 32597 82004 10217 20118 40003 57019 889//
333 10266=
29706 12499 82106 10189 20121 39825 49958 57011 60062 86301
333 10201=
29736 32598 81404 10222 20102 39806 40033 57013 86401
333 10248=
29937 32599 72304 10222 20119 39852 40053 57006 85530   333 10243=
36034 32698 81805 10230 20076 39785 40034 57024 8595/   333 10234
84933=
28216 41599 62704 10210 20097 39817 40077 53003 70182 86200=
28321 41570 83603 10164 20045 39879 40071 54000 76111 885//=
28451 42598 83404 10208 20089 39864 40010 57014 883//=
28537 41480 62702 10149 20115 39663 40056 57009 71798 85903=
28541 41584 62804 10192 20103 39570 40023 57010 70282 82202=
28642 41597 83112 10224 20089 40036 57012 78082 8635/   333 91116=
28655 32580 72703 10206 20107 39830 40034 57011 86909   333 86926=
28925 42599 53406 10246 20129 39883 40088 57020 82201=
29557 31698 32401 10248 20089 39790 40029 57006 70291 82201   333
10256=
29625 11598 81809 10185 20119 40005 57026 60022 78082 889//
333 10225 88920=
29642 32760 81604 10236 20086 40034 56010 83101   333 10261=
29813 11499 71403 10168 20160 49940 56011 60052 70282 87900
333 10201 87916=
29846 32597 52005 10224 20104 39694 40043 57007 83231   333 10234=
29915 11999 72109 10197 20120 40008 57007 69992 70282 82032   333
10219 91018 91119=
30385 11699 80000 10081 20021 39695 49965 58009 60032 78161 889//
333 10145=
30469 32699 23402 10094 21064 39323 40034 52016 82400   333 10132=
30650 32999 23602 10135 21074 38990 40023 57002 80001   333 10168=
30781 32699 10000 10122 21007 39567 40003 53010 81400   333 10172=
30844 32999 50000 10172 21044 39123 40016 55000 80001   333 10190=
30925 32898 83402 10169 20029 39125 40014 57006 82041   333 10209
91116=
31371 32699 20000 10090 21007 39725 49974 53006 81401   333 10182=
31388 32599 70000 10119 20056 39698 49941 53005 87900   333 10195=
31532 11599 80000 10109 20093 39627 49945 53019 69950 72598 86901
333 10267=
31594 31571 80000 10177 20095 39751 49906 58003 71791 8697/   333
10265=
31754 11598 70000 10105 20095 39462 49928 57004 69950 72161 85501
333 10162=
48601 32462 72203 10284 20241 30081 40085 82942 333 10316 81917
87078=
48615 31468 71002 10298 20248 30067 40073 71322 83942 333 10337
81917 87074=
48620 31464 72703 10286 20251 30078 40087 70522 84946 333 10326
81917 83633 85276=
48647 31468 72704 10285 20231 30058 40083 71322 81942 333 10327
81917 87078=
48657 31564 71103 10290 20259 30052 40070 70522 81541 333 10343
81624 86078=
48665 32466 52804 10288 20239 30062 40072 81932 333 10327 81917
85080=
96413 11460 70000 10248 20236 30064 40090 69911 76096 85931 333
10338 81915 84624 86365=
96421 11265 81005 10238 20231 30062 40098 60231 76198 8592/ 333
10336 81705 81915 85617 88465=
96441 32468 71206 10268 20239 30085 40090 81531 333 10321 81616
83365 87080=
96449 32468 60000 10285 20253 30058 40078 82541 333 10321 82616
85080=
96465 32465 70000 10281 20251 30048 40082 81842 333 10314 81813
87080=
96471 31470 71303 10282 20239 30076 40079 71322 81948 333 10324
81815 81917 87277=
96481 31462 60000 10270 20237 30063 40086 71322 82941 333 10306
81916 86080=
38388 42998 00000 10369 20006 39995 40064 57005 555   18053=
38656 42998 03401 10365 20068 39962 40060 57014 555   10056=
29524 11484 81404 10176 20141 39830 49979 57029 60032 71798 889//
333 10229 88913=
26898 42998 02401 10257 20100 39942 40190 57013=
26997 42980 00000 10257 20105 39987 40191 57010=
27595 42797 73008 10209 20036 39996 40131 57010 82501=
27612 42997 02501 10250 20093 30001 40180 58017=
27703 42997 02905 10244 20043 39956 40187 57013=
27707 42982 02001 10244 20078 39919 40192 57010=
27719 42997 02702 10249 20058 39956 40189 58014=
27786 42997 72908 10228 20053 39994 40143 57014 80004=
27906 42997 02502 10237 20053 39971 40198 57011=
27928 42998 03401 10249 20064 39994 40187 57009=
27947 42997 00204 10252 20062 30042 40198 52006=
27962 42997 43306 10242 20053 40164 57010 80001=
27983 42698 83206 10247 20076 30024 40143 57011 82101=
28711 42998 82907 10206 20030 39754 40104 57009 82031=
28807 42997 83107 10232 20059 30090 40138 57009 80004=
34009 42968 00202 10253 20034 39889 40173 57012=
34047 42980 22604 10257 20077 30012 40181 58010 80001=
34123 42582 22902 10265 20105 30016 40186 57012 82100=
34152 42699 33005 10262 20082 39983 40165 57018 81201=
34172 42770 53006 10259 20111 39981 40161 57010 82101=
34186 42698 62807 10271 20099 30023 40150 57013 82101=
34247 42575 53101 10285 20109 30070 40175 57015 85100   333 85828=
34336 42698 32702 10292 20094 30101 40196 57015 83200=
34391 32697 42904 10291 20103 30122 40150 57014 82202=
35121 42598 72707 10262 20100 39971 40105 57019 83902=
22113 41484 81204 10054 20016 30057 40120 57002 70252 885//   333
91007=
22217 42698 81504 10084 20048 30081 40111 51003 885//   333 88638
91006=
22235 42481 70603 10084 20048 39934 40126 51010 87900   333 91004=
22349 41599 50905 10040 20028 30124 40136 52030 70282 84501   333
91006=
22408 41599 80000 10110 20064 39962 40107 52001 72582 84330=
22602 41498 81503 10128 20030 39879 40095 57004 70282 889//=
22721 42699 82401 10163 20038 30029 40125 54000 8655/   333 86634=
22802 42999 71705 10143 20085 30102 40124 57006 87070=
22820 41568 81601 10135 20089 30004 40137 52002 76186 8357/=
26059 41597 83302 10129 20088 30118 40141 52016 70282 885//   333
88620=
26063 41497 82903 10156 20134 30126 40133 57012 70282 885//=
26094 42584 62304 10258 20136 30044 40113 57022 83103   333 91111=
26258 41571 62702 10226 20147 30079 40131 52003 70182 83931=
26298 42998 22006 10250 20110 39920 40132 57015 82080   333 91111=
26477 42670 51706 10269 20151 40124 57017 82201=
26585 42998 22004 10239 20106 39914 40169 57014 80003=
26702 42497 81002 10158 20097 30109 40134 57023 885// 333 88611=
26781 41597 22004 10260 20126 39893 40163 57017 70281 82200=
27402 41997 62005 10247 20090 39997 40165 57017 70341 86030=
29023 32498 80903 10241 20086 39899 49986 57013 83302   333 10249=
22028 42579 71610 10031 20015 30102 40138 58001 85930   333 91012
91113=
22106 42598 81203 10083 20030 30027 40103 58002 885// 333 88626
91005=
22127 42498 71404 10073 20036 39925 40123 51004 87500   333 87616
91006=
22324 42599 82103 10129 20051 30072 40119 51004 84801   333 91004=
22621 42698 71903 10161 20055 39992 40125 58004 87502   333 87646=
22831 42698 72504 10189 20034 30084 40141 58001 83930=
22892 41597 22008 10125 20092 30101 40116 52009 70281 81301=
26275 41597 82704 10249 20145 30096 40124 57009 70281 8327/   333
91111=
26389 42567 21803 10256 20135 39895 40139 57016 82100=
26695 42997 72602 10234 20115 39897 40185 57016 8705/=
26882 42970 21703 10265 20126 39926 40181 57017 82030=
21432 11497 81505 11066 21090 30258 40268 58003 69902 77872
885// 333 11041 88615=
21647 11465 81007 11073 21082 30231 40260 54000 69900 77772
886// 333 11066 88710=
21824 32370 80809 11029 21036 30169 40178 57007 886// 333
11029 88707=
21908 32999 43605 10076 21034 30054 40140 53012 80001   333 10107=
21921 32498 80410 11008 21046 40113 57014 883// 333 10010=
21946 12398 80906 11053 21071 30153 40232 53009 69900 886//
333 11018 88708=
21982 42482 80705 11035 21053 30168 40174 52001 885//   333 88613
91107=
25123 32598 20305 11027 21061 30151 40188 52006 82500 333
10052=
25399 42598 83302 10001 21007 30158 40160 52002 885//   333 88623
91104=
25551 42596 83402 10000 21006 30112 40142 52012 77172 8351/=
25563 41362 81404 10002 21009 30029 40106 58002 76162 8872/=
25594 41433 82104 10001 21005 30145 40166 58005 77174 885//   333
91106=
31054 12799 70902 10134 20040 39743 49991 53020 69902 87500   333
10176=
31123 11599 80301 10102 20081 39658 49958 53004 69952 70282 86907
333 10150=
40420 32960 03209 10442 20060 39811 40420 333 59010=
41036 32960 13306 10366 21020 38523 48472 81040 333
58007 81358 555 04410 50003=
25621 32699 72701 10019 21035 39119 40137 52015 81531   333 10122=
25703 31698 70303 10091 20006 39862 40115 52013 78082 86330   333
10174=
25913 31/93 92603 11007 21007 30006 40153 52008 74541   333 10059=
25954 12598 82103 10023 20013 30152 40157 52008 69900 885//   333
10063 88620=
31088 12498 71206 10025 20022 30105 40112 52003 69940 85351   333
10045=
31829 11396 80304 10073 20068 39865 49893 57009 60070 76186 8672/
333 10088 91115=
31873 11998 73203 10145 20109 39819 49936 53007 60030 70282 80001
333 10180=
31909 11598 81202 10076 20076 39825 49898 53021 60270 72582 889//
333 10115=
31960 32998 83303 10177 20121 39975 49758 52019 60010 88001   333
10171=
32053 11296 81108 10025 20020 39967 40008 57020 69970 78082 889//
333 10161 87703 91011 91112=
32061 11570 80203 10088 20064 39911 49948 57021 69960 72582 8397/
333 10141=
32098 11441 80306 10063 20052 39910 49920 57042 60160 78082 889//
333 10089 91110=
32150 11395 80208 10043 20041 39822 49850 57027 60080 78182 889//
333 10065 91011 91114=
32165 11/91 92003 10083 20083 39831 49890 57025 60350 76164   333
10107 96045=
32215 32996 81901 10044 20037 40153 58001 8807/   333 10141=
32583 32699 31104 10055 20023 30129 40159 52018 82530   333 10121=
32618 11/93 90502 10033 20026 30128 40151 52019 69910 74742   333
10065=
48568 01462 62106 10286 20259 30067 40075 69902 70192 81236
333 10345 58000 69906 79999=
38413 42998 00605 10341 20017 39790 40051 57007   555 10044=
41620 32696 01302 10385 21049 3843EEE 38483 48430 84200
333 10390 56900 58007
41624 NIL
41640 NIL=
41712 31996 00000 10445 20024 39050 48479 70500
333 10450 58002
41715 32997 01304 10440 20248 39892 49951
333 10440 58034
41756 32997 02305 10325 20263 39914 49975
333 10330 58008
41764 32696 22318 10365 20246 39941 49988 82500
333 10385 56900 58027 82640
41768 NIL
41780 32597 62310 10325 20248 39981 40008 86800
333 10335 56900 58019 83820 83630
62002 32660 33610 10230 20126 39469 48547 53003 83200 333 83835=
62007 32558 53612 10230 20191 40163 53006 85500 333 85625=
62008 32970 40111 10210 20115 39392 8542 56001 84030 333 84360=
62010 32558 43315 10240 20173 40155 54000 84400 333 84625=
62012 32560 73315 10240 20180 40160 52005 87500 333 87630=
62019 31957 03015 10235 20174 40116 58004 70700=
62053 32960 03310 10290 20162 40112 56008=
62055 32960 53613 10297 20130 40108 56004 80005 333 85270=
62056 32960 31810 10300 20111 39426 48527 57011 83030 333 83360=
62059 32960 31012 10255 20193 40117 57009 83050 333 83360=
62124 32960 20105 10344 20089 39619 40092 57007 82040 333 82360=
62131 32966 03310 10300 20139 39806 40106 57016=
62161 32960 41716 10360 20156 40109 58014 84070 333 84360=
62200 32960 03612R 10352 20114 39602 40111 57007=
62259 32970 51805 10414 20083 40080 58014 85040 333 85360=
62271 32970 02108 10395 20093 40115 58010=
26951 42570 51806 10300 20128 39954 40136 57016 85200   333 91111
555 10042=
87078=
48820 32598 71602 10299 20267 30031 40039 52016 71792 85908
333 00030 10338 58031 70000 83895 82995 87299=
51379 32680 13205 10215 20048 40100 57007 81102 333 00204=
51711 32680 70702 10219 20009 37961 56991 85902 333 05101=
58017=
35108 42697 53003 10279 20141 40138 57015 85200=
35217 42598 33205 10265 20134 30111 40148 57013 81104   555 10039=
35302 42698 63603 10275 20085 30135 40154 57017 85260   555 10032=
35376 42698 62705 10186 20086 39653 40053 57003 86200   555 10022=
35406 42697 33202 10281 20041 40181 58017 83200   555 10042=
35746 42698 23406 10286 20076 30018 40090 57011 82100   555 10043=
35849 42998 00202 10297 20025 30070 40091 57008   555 10049=
35925 42998 50502 10301 20000 30009 40109 57004 85040   555 10034=
35953 42999 33608 10305 20187 39961 40076 57006 80002   555 10045=
35969 42599 634// 10303 20085 39907 40062 57010 84203   555 10038=
38001 42998 03618 10228 20185 30182 40155 52013   333 91018   555
10037=
38062 42799 83007 10308 20045 83201   555 10049=
38069 42998 63503 10324 20162 86050=
38198 42999 13303 10339 20013 80002   555 10055=
38232 42598 70203 10335 20027 39985 40084 57003 87900   555 10037=
38328 42599 23203 10307 20017 40013 53002 82230=
34560 42962 40000 10267 20085 30021 40175 57013 84030=
34824 42997 00804 10291 20107 30161 40166 57013 83100=
34858 42970 30903 10279 20071 30078 40177 58012 83030=
34866 42998 60902 10292 20090 40180 58011 86030=
34880 42597 53401 10289 20086 40172 57011 85100=
37054 42698 51008 10236 20091 39804 40165 57011 85200=
37472 42598 82904 10230 20125 30201 40179 58002 8697/=
28049 41598 82402 10157 20122 39856 40008 57006 70291 883//=
28319 42499 72705 10203 20034 39918 40070 57004 87900=
28334 41599 62706 10197 20110 39739 40019 57021 72998 86360   333
86823=
28434 41599 53104 10202 20090 39803 40039 57018 72998 85900=
28552 42597 62907 10194 20105 39916 40019 57009 86300=
29111 11599 80501 10142 20134 49982 53006 60122 79598 84902   333
10245=
29209 11498 71603 10193 20127 49965 57015 69942 70282 87900   333
10211=
29551 32597 52204 10265 20074 40023 56005 83302   333 10273=
29602 11599 81701 10168 20125 49951 57008 60052 70298 889//
333 10210 86626=
29636 32599 82302 10234 20098 40025 57004 86302
333 10267=
29654 32599 72304 10210 20064 40038 57014 83238   333 10225=
29712 11598 61303 10174 20143 49981 57015 60092 72998 86900
333 10200 86925=
29724 11598 82104 10173 20133 40012 57012 69942 78082 8635/
333 10230=
29726 32598 81803 10211 20085 40016 57022 86371
333 10240 83639=
29814 12499 71709 10194 20099 49988 57008 60022 85904
333 10218 83915=
29827 12697 81906 10222 20097 40018 58023 69902 883//   333 10230=
29923 32599 81905 10214 20076 40031 57018 83552   333 10234=
29939 32598 60000 10231 20111 40054 57007 85330   333 10250=
36021 32999 72404 10182 20146 40028 57006 87060   333 10218=
36022 11797 82603 10206 20132 40036 57013 69902 79598 889//   333
10223 84650=
36038 32498 72103 10223 20088 40045 57019 85570   333 10240 85617=
36058 12699 62901 10208 20112 40070 57011 69982 82262   333 10210=
34240 42680 32805 10277 20120 30053 40178 57012 83200=
34357 42698 33402 10285 20109 30033 40180 57014 83200=
34363 42783 33403 10272 20111 30037 40174 58013 82230=
34545 42598 41601 10284 20089 30077 40180 57013 83260=
34579 42998 33403 10285 20080 30129 40168 57014 80002=
34655 32997 32701 10288 20078 30140 40194 58010 83030=
34759 42698 30704 10276 20064 30059 40180 57014 83200=
34838 42597 50904 10277 20085 30080 40169 58017 85900=
34929 42564 70907 10270 20139 30122 40161 57011 82102=
34954 42698 21001 10268 20089 30011 40171 57010 82130=
37031 42597 41105 10259 20109 39981 40163 57009 82101=
37085 42598 60905 10274 20085 30211 40186 58003 81989=
37145 41598 72701 10210 20153 30028 40187 58008 70282 85530=
37171 42997 22001 10225 20164 40164 57002 82200=
37228 41697 61901 10176 20080 39383 40179 54000 70282 85530 333 85643=
29068 11599 70501 10159 20106 40036 58004 60022 72582 82935   333
10170=
29274 11599 70202 10166 20090 40043 53001 69932 70198 86901   333
10191=
29363 11599 71103 10222 20089 40011 53004 69942 70298 85102   333
10260=
29456 11599 72901 10219 20077 40024 57002 69902 79598 85901   333
10256=
29467 11598 82202 10190 20098 40048 53013 60082 71798 889//   333
10255=
29477 11599 62205 10212 20082 40032 53014 60072 70298 82961   333
10256=
29576 32598 83403 10198 20062 40030 53001 86907   333 10236=
29587 32698 72301 10221 20046 40035 57004 81535   333 10236=
29894 32798 81402 10157 20062 39003 40021 57004 82902   333 10020=
30157 11799 43005 10119 20000 39824 40090 54000 69902 70281 82930
333 10147=
30320 32998 60502 10148 21036 39699 40080 56007 84031   333 10177=
30713 32998 82103 10167 20038 39442 40041 56008 84071   333 10197=
23226  41460 83607  10031  20021  39840  40051  52014  76186 889//
333  88913=
23606 41462 63204 10136 20019 39884 40046 54000 70182 84301 333
84920=
23701 41450 72602 10123 20093 39937 40060 51004 78182 84961=
26167 41937 72702 10213 20147 30026 40131 53010 70261 87030=
27857 42998 03003 10250 20077 30024 40174 57010=
28909 42597 73205 10243 20102 30029 40121 57003 82102=
37061 42998 70902 10258 20053 30022 40178 58010 85031=
40582 31956 03512 10435 20025 40027 57019 70500 333 00049=
21802 32999 20103 10016 21022 30159 40183 54000 82030   333 10021=
24125 32999 33607 10080 21028 39836 40108 57001 80001   333 10092
91112=
24143 32699 63607 10014 21034 30006 40054 53009 86200   333 10040=
24266 32699 72603 10051 21014 39912 40079 52002 87500   333 10069
87639=
24329 32599 23601 10142 21036 39778 40055 53002 82200   333 10154=
24343 32799 33504 10093 21047 39919 40031 53006 81232   333 10121=
24639 11599 82302 10131 20104 39901 40042 53002 60012 70282 83931
333 10160=
24641 11599 83202 10105 20082 39896 40029 53010 60042 72582 86311
333 10177=
24652 32699 81004 10162 20021 39884 49996 53004 83431   333 10192=
24656 11599 80201 10102 20092 39920 40015 52020 60052 72582 83931
333 10176=
24671 32699 80000 10101 20055 39556 40028 53018 8657/   333 10169=
24724 32699 62902 10098 21027 39579 40078 54000 83401   333 10106=
24738 12699 63101 10137 20071 39878 40045 53003 69902 84530   333
10151=
24768 11599 70602 10102 20092 39778 49998 53004 60022 70262 87500
333 10124=
24923 12699 82701 10129 21002 39784 40069 53005 69902 82431   333
10150=
24951 11599 70000 10130 20056 39845 49985 52010 69902 70282 84941
333 10178=
24959 11499 80703 10106 20081 39879 40000 52009 60022 70286 8693/
333 10150 84916=
24962 11599 80503 10120 20084 39815 49987 52014 60022 70262 86331
333 10125=
24966 12599 80602 10117 20056 39790 49991 53020 60030 82941   333
10152=
25400 11898 82702 10033 20026 30109 40162 53005 69900 76162 8802/
333 10056=
30054 12598 60302 10117 20006 39864 40090 52007 69932 85901   333
10156=
30393 32599 53503 10066 21018 38992 49975 52018 82901   333 10096=
30493 32599 60000 10045 20003 38984 49975 52012 86900   333 10081=
31004 11497 80000 10056 20035 39200 49990 52016 60072 78082 87907
333 10085 87919=
44231 11598 80000 10172 20051 38592 49979 53006 69912 71852
8870/ 333 10227=
44304 31599 60503 10226 20027 38855 49964 53008 70232 85902
333 10307=
41697 32996 02304 10449 20225 39797 49937
333 10450 58080
41700 32997 02305 10420 20204 39830 49948
333 10425 58026
41725 NIL=
41759 31696 32706 10380EEE 10330 20266 39986 49986 70500 8EE 83566
333 10335 56900 58012 83630=
24988 12599 70000 10048 20026 39870 40111 52015 69940 875//   333
10067=
25325 32999 20204 10045 21088 30004 40163 52011 80001   333 10094=
25378 41397 70000 10008 20003 30095 40128 58004 77172 87700   333
86709=
31174 31399 80205 10011 20000 30024 40035 53007 70341 886//   333
10132=
31263 31599 83103 10085 20045 39463 49965 53005 70192 86904   333
10166=
31489 32699 60000 10138 20077 39841 49949 57004 86400   333 10224=
31959 11397 81402 10070 20065 39873 49914 52030 60320 70262 886//
333 10122 88707=
32027 11597 80904 10060 20051 39993 40005 57007 60050 78082 889//
333 10123=
32076 11996 83304 10018 20018 39989 49999 57028 60060 76362 8802/
333 10049=
32408 11999 21602 11002 21002 30126 40160 52017 69900 74000 80001
333 10087=
32509 32698 60000 10017 21002 30130 40164 53057 83530   333 10101=
37553 42798 42701 10231 20151 39510 40116 57015 71792 83930   555
10138=
47058 32966 03202 10202 20081 30032 40076 52027 333 10282=
47008 12580 40000 10174 20094 39949 49999 52021 69942 82560
333 10250=
47016 12970 00000 10136 20065 39227 40061 52024 69912 333 10208=
47020 12965 00000 10193 20084 39720 40074 52019 69902 333 10260=
47025 32565 20501 10150 20128 39996 40024 52025 82500 333 10206=
47035 32970 02901 10235 20090 30066 40074 52022 333 10303=
47041 32970 20000 10234 20084 30014 40040 52025 80002 333 10282=
47055 32975 02301 10226 20055 30018 40060 52028 333 10269=
47069 32965 03203 10217 20071 39979 40072 52032 333 10265=
44203 32599 70000 10111 20040 38309 40025 54000 83816 333
10186=
44207 11999 73603 10090 20038 38227 40036 53002 69912 70262
86026 333 10144=
44212 11999 70000 10204 20061 38971 49997 58010 69962 70262
86073 333 10229=
44213 11698 72305 10162 21131 38662 49999 53007 69902 76162
87500 333 10212=
44215 32698 73605 10150 20038 38315 40000 54000 87500 333
10165=
44218 11596 72703 10177 20047 38479 49978 53004 69902 71622
8652/ 333 10208=
44230 11596 83405 10103 20079 38674 40044 52003 60032 79598
889// 333 10234 91112=
44237 11598 73605 10127 20081 38371 49992 53023 69942 76162
87500 333 10237=
44265 32699 52703 10146 20085 38774 40076 56004 82204 333
10165=
44275 32698 62905 10138 20040 37666 40100 56003 86500 333
10189=
44282 11599 72305 20009 38194 49976 53007 69902 70262 87500
333 10226 91214=
44284 32599 70000 10127 20060 37790 49989 53002 60012 70282
85500 333 10180=
44287 11599 52303 10186 20051 38040 49969 53002 69902 70398
83543 333 10220 91118=
44302 32599 50504 10200 20030 38978 49997 54003 82340 333
10265=
43413 32498 2//04 10296 20260 3//// 4//// 82100 333 0////
10327 5//// 82818=
43421 32498 72304 10315 20204 39957 40059 87800 333 00024
10348 59005 81818 86625=
43424 32478 62307 10296 20260 30062 40065 82140 333 000//
10325 59004 82818 85460=
43436 32498 21403 10315 20257 30051 40054 81130 333 0////
10348 58000 81818=
43450 32476 32305 10296 20238 30057 40065 82130 333 00025
10316 59008 70009 82816 83358=
43467 32480 2//// 10303 20239 30077 40082 82101 333 01025
10318 59002 85818=
43473 32498 33205 10180 20148 38123 48485 81130 333 01013
10208 58003 79999 81810 83360=
43497 32476 72320 10284 20247 30046 40063 84570 333 10317
59004 84625 86458=
44216 32699 73207 10195 20058 38847 40001 53003 85270 333
10237=
44242 32998 63610 10192 20045 39149 49979 54000 84077 333
10254 91214=
44254 32598 73601 10176 20048 38919 49999 53007 87700 333
10219=
44257 32998 70209 10193 20030 38862 40004 52017 87060 333
10250=
42071 31696 42506 10412 20152 49945 70600 82402 333 10427 58025
82640=
42101 31995 02702 10412 20184 49946 70600 333 10420 58019=
42111   31995   01401  10344   20229   39223   49939
70500   333   10356   58007  =
42131 31995 02702 10434 20108 49949 70600 333 10438 58019=
42182 31994 02910 10414 20203 49948 70700 333 10424 58019=
42339 31995 02303 10404 20139 49977 70500 333 10416 =
42348 32997 02705 10406 20127 49969 333 10412 58016 =
42369 31595 43604 10376 20257 49951 70622 82401 333 10410 58016 82430
84070=
42379 32996 00901 10320 20255 49960 333 10333 58017=
42452 32596 12508 10424 20093 49970 333 10435 58014 =
56066 36/// ///// 10094 21043 36618 4//// 54000
555 10040 2//// 3//// 40111 51001 60/// 7//// 80000
9//// ///// 1/020 2//00 30000=
47003 12980 63201 10177 20090 39993 49997 52031 69902 83031
333 10251=
47005 32980 01801 10095 20048 38547 52023 333 10145=
47028 32972 00000 10209 20088 39972 40061 53021 333 10291=
47031 32970 00000 10125 20038 333 10176=
47037 32970 00000 10216 20107 39949 40063 52020 333 10292=
47039 32960 00000 10200 20124 39895 40074 52014 333 10276=
47046 32969 32702 10170 20136 30016 40037 52020 83030 333 10219=
47050 32965 02503 10216 20145 30024 40056 52023 333 10282=
47052 32965 00000 10179 20092 39758 40078 52039 333 10260=
47060 32960 02904 10189 20119 30027 40082 52025 333 10251=
47061 32980 02703 10233 20077 30005 40045 52014 333 10238=
47065 32965 03205 10200 20113 30023 40004 52029 333 10264=
47067 32965 00000 10221 20070 39948 40070 52026 333 10270=
47068 32970 02305 10175 20112 30050 40083 52025 333 10261=
47070 32970 03205 10222 20099 39990 40072 52029 333 10267=
23074 32998 31405 10082 21014 40112 57004 82031 333 10090=
23274 32998 51106 10125 21005 30068 40105 58001 83031   333 10135=
23383 32999 20702 10088 21044 39780 40115 57006 80001   333 10090=
23472 32999 51004 10122 21025 30048 40093 54000 80001   333 10135=
23678 32998 21602 10121 20021 30011 40066 52001 82030   333 10142=
23884 12584 51803 10146 20076 39980 40049 53002 69902 83830   333
10165=
23891 32698 40804 10136 20002 39760 40069 57005 82101   333 10143=
24507 11698 81201 10108 21014 40099 57003 69902 70282 885//   333
10112=
24908 32581 50601 10119 21030 39773 40082 57010 85900   333 10135=
29263 11597 72702 10180 20090 39925 40017 53003 69912 79598 85930
333 10222=
29282 11597 80703 10118 20040 39892 40050 57017 69902 78082 889//
333 10156=
29570 11599 72601 10180 20130 39723 40040 54000 60012 70298 82901
333 10150 91112=
29698 32998 83601 10231 20058 39563 40024 57007 80002   333 10233=
29862 32599 32104 10218 20100 39759 40051 57005 82901   333 10230=
30230 32599 81002 10119 21005 39784 40090 57012 83931   333 10139=
30309 42998 41203 10161 21014 39489 40048 57011 84030   333 10175=
30521 32998 22401 10183 20000 39556 40043 57007 80001   333 10218=
30710 42960 81605 10110 20051 39475 40067 56004 86031 333 10150=
23973 12599 71402 10136 20089 39994 40052 57003 60032 86901   333
10136=
29253 11599 73602 10230 20098 39848 40005 53021 69902 70292 84931
333 10250=
29471 11498 82103 10188 20106 39817 40025 53002 60012 79592 889//
333 10235 88916 91112=
29481 11599 51202 10169 20131 39806 40024 57005 60032 79598 85300
333 10240=
29562 32598 71903 10225 20073 39659 40034 5//// 82302   333 10251=
29581 32698 79902 10214 20085 39801 40032 57004 8255/   333 10231=
29594 32999 63201 10206 21005 39683 40033 57010 82031   333 10216=
29653 31598 61802 10191 20085 39605 40047 57002 70192 82301   333
10238=
29675 32598 80000 10205 20038 39492 40029 53009 888//   333 10240=
29676 32999 70301 10213 20068 39647 40030 57007 80001   333 10230=
29759 11599 42002 10155 20062 39114 40061 57002 60042 70298 83904
333 10190=
29766 11599 71302 10168 20123 39743 40070 53012 60042 70298 86901
333 10246 91114=
29864 11699 63103 10201 20074 39461 40052 53005 69902 70292 82931
333 10208 95000=
29869 12698 22401 10204 20100 39723 40063 57005 69962 81101   333
10206 95030=
29956 12699 22006 10194 20089 39550 40063 57012 60012 82200   333
10200 95050=
30504 32998 51301 10200 20036 39443 40031 57010 80002   333 10210=
30603 32998 81701 10192 20048 39517 40037 57006 80002   333 10225=
30612 32599 62102 10186 20029 39558 40044 57009 81101   333 10204=
30622 32998 23301 10194 20006 39433 40017 57008 82030   333 10206=
30499 32984 22201 10066 21043 39358 49977 53006 82030   333 10113=
30683 11699 63204 10101 21006 49987 52003 60012 70282 83941   333
10124=
31253 32999 20000 10110 21007 39529 49953 58002 88030   333 10182=
31295 32999 23404 10105 20032 39535 49968 58004 82030   333 10166=
31348 326// 63604 10080 20030 39805 49989 53019 86500   333 10242=
31418 32598 81403 10165 20089 39720 49951 53012 889//   333 10235=
31439 115// 80503 10097 20056 39956 49998 57002 69980 78082 889//
333 10163 88923=
31442 32599 33001 10119 20027 39625 49952 51003 83300 333 10201=
31445 11999 63002 10129 20011 39722 49950 52021 69932 70298 86070 333
10230=
31474 31597 82303 10180 20040 39499 49939 53023 78082 889//   333
10249=
31534 11599 30000 10116 20098 39655 49923 53009 69900 70298 83900
333 10272=
31587 31599 73606 10181 20059 39788 49921 53009 71791 87900   333
10278 91110=
31632 31598 80000 10154 20098 49935 53013 71792 86981   333 10250=
31702 32584 83401 10174 20062 39622 49914 56004 83901   333 10259=
31713 325// 61406 10188 20109 39825 49917 54000 71311 86900   333
10249=
31725 32498 21801 10154 20123 39867 49929 53003 82500   333 10231=
30455 32699 23606 10066 21078 38837 48418 52003 82600   333 10081=
30542 32999 21602 10130 21002 39417 40067 58017 81100   333 10165=
30549 32999 02902 10089 21065 38596 48390 53001   333 10109=
30726 32699 60506 10078 21027 39535 40081 57009 81501   333 10106=
30731 32999 82702 10080 21012 39506 40082 57001 80002   333 10122=
30739 32999 63305 10167 21044 39278 40029 53003 82062   333 1////=
30745 32999 43106 10127 21005 38968 40035 53004 80001   333 10166=
30764 32999 13502 10141 21050 39268 40003 53004 80003   333 10177=
30811 12699 80903 10129 20055 39233 40053 54000 60012 83577   333
10176=
30822 32599 52701 10066 21004 39535 40092 57002 54932   333 10099=
30824 11699 80000 10052 20033 39525 40089 57004 60022 70262 883//
333 10083=
30829 32999 83604 10191 21017 39398 40025 57011 82031   333 10201=
30846 32999 42303 10168 21064 39183 40015 53002 81049   333 10205=
30859 32899 80402 10173 21033 39232 49997 52005 82051   333 10211=
30862 32999 23505 10158 21047 39326 40003 53003 80001   333 10197=
30957 32699 73603 10183 21007 39190 40005 53008 82932   333 10213=
42410 22497 70000 10268 20239 40017 83580 333 10289 58013 6006/
83618 86458=
42415 21596 70000 10272 20240 40011 70522 84430 333 10287 58011
6993/ 84620 85360=
42492 32996 60704 10328 20246 49969 80001 333 10349 58019 86075=
42701 32496 62306 10370 20165 39272 49953 85301 333 10400 58012
83618 83825 81930=
42809 31495 61808 10326 20277 49998 70520 85330 333 10355 56490
57932 58027 84615 81930 85360=
42886  32596 31804 10414 20169 49962 81501 333 10442 58009 81620
83075=
42895 32996 01810 10326 20280 49984 333 10386 58013=
42971 32596 42012 10336 20264 49995 81331 333 10386 5796/ 58001
81930 83075=
43333 21596 60000 10272 20255 40070 70296 84431 333 10308 58000
6010/ 82620 83825=
31825 11463 80000 10099 20095 39712 49906 56013 60120 72162 8762/
333 10118=
31845 11998 70000 10114 20114 39774 49926 52004 60030 70282 80001
333 10200=
31878 11971 72301 10133 20122 39836 49952 52016 60060 70262 80001
333 10167=
31915 12998 02802 10146 20073 39725 49971 52015 69980   333 10225=
31921 12980 22502 10160 20107 39874 49966 52012 60032 80001   333
10200=
31969 32998 22603 10196 20076 39946 49991 52028 69900 80002   333
10242=
31981 12999 80000 10119 20111 39738 49958 52015 60140 80001   333
10162=
31987 12999 82605 10158 20085 39728 49968 52025 60110 80001   333
10160 91116=
32069 11598 81004 10095 20076 39905 49910 57034 69910 78082 889//
333 10148 91115=
48551 11460 60000 10274 20256 30067 40075 60142 70296 82346
333 1//// 58008 70144=
24856 11599 70503 10100 20076 39859 49997 52009 69902 70281 84302
333 10144=
30686 11599 73201 10106 21003 39639 49986 54000 69932 70282 85930
333 10156=
30777 32999 22703 10157 21144 39406 40005 53003 80002   333 10183=
30961 32899 73604 10167 21060 39284 40004 53011 84048   333 10205=
30971 32999 83306 10120 21074 39093 40005 52015 80002   333 10179=
30978 32699 63103 10126 20062 39367 49999 53011 82382   333 10223=
31513 11599 83602 10141 20077 39742 49950 53026 60022 70298 86961
333 10226=
31624 32599 52401 10180 20094 49922 53006 85900   333 10281=
24982 12598 80000 10047 20047 39631 40110 53017 60020 889//   333
10108=
32121 11597 80608 10062 20049 39854 49875 57027 60080 70282 889//
333 10085 91013 91116=
32128 11597 73602 10083 20078 39791 49844 57017 60030 78082 87300
333 10150=
52634 36/// /0403 10051 21010 36753 4//// 52003
555 10020 2//// 30125 41111 51011 60/// 7//// 80000
9//// ///// 1/112 2//00 30000=
42634 32596 12313 10352 20207 40010 81500 333 10380 58012 81630=
42647 32596 22302 10390 20216 40001 82100 333 10399 58015  82825=
42737 32597 32506 10386 20207 49994 81800 333 10397 58009 81625
83830=
42909 32596 42011 10318 20250 40026 81102 222// 20000 333 10328
58007 81825 83070=
43003 32596 72306 10300 20255 40038 85330 333 10320 58009 83620
83825 81930=
43063 21597 62903 10282 20225 39415 40022 70296 84831 333
10319 59005 6994/ 82628 83828=
43192 21496 72306 10282 20254 40059 70362 85723 333 10283 58008
6016/=
30967 32599 30000 10163 20041 39276 49977 53012 82902   333 10248=
57528 16/// /2000 10183 29756 37563 61430
555 1/446 2//13 30179 12100
11101 10101 00010 10110 1011/
/////
2//// 3//// 6//// ///// ///// 8//// 9//// ///// ///// //004
11101 11111 1011/
11111 110//=
24944 11699 83303 10119 20056 39757 40028 52019 70298 84932   333
10154 91114=
31137 11599 70000 10052 20045 38999 49968 53025 69902 70282 86300
333 10113=
98135 31475 61402 10287 20262 40101 53018 70544 82202
333 10324 56399 58006 82819 85076=
98223 31565 41102 10284 20268 40094 52031 70594 82261
333 10332 56999 59010 82820=
98325 11458 50000 10282 20256 40078 53016 69904 70594 82277
333 10322 56999 58004 82817=
98328 11462 51802 10188 20176 38510 40079 53011 60141 71398
81970
333 10262 56999 59002 81912 85358=
98329 31470 30702 10280 20255 40083 5/017 71344 82902
333 10332 56999 58009 83918=
98336 11465 80000 10266 20256 40099 52026 60031 72999 8297/
333 10322 56999 58007 82918 88357=
98429 31558 81101 10293 20235 40084 51007 70544 83870
333 10313 56999 59007 83823 88359=
98431 11458 80902 10286 20249 40079 51017 69901 72998 8387/
333 10338 56999 59015 83616 88459=
98440 11465 81403 10285 20268 40087 52028 60011 72122 8427/
333 10330 56399 58003 84818 88358=
98444 32468 40902 10293 20260 40088 52028 83202
333 10324 56999 58004 83818=
98531 11468 61202 10278 20261 40069 53015 69901 71398 83902
333 10314 56999 59006 83918 83080=
98536 31465 61801 10273 20245 40072 52008 71342 83970
333 10310 56999 59002 83918 83357=
98543 31460 71402 10300 20271 40081 53028 71322 83978
333 10330 56999 58005 83915 86272=
98550 11460 71401 10287 20261 40084 53003 69921 71584 82948
333 10326 56999 58000 81915 87272=
98618 11464 80000 10250 20243 40075 53016 60201 76098 8422/
333 10338 56999 59006 84819 88457=
98630 11465 80000 10284 20260 40080 53021 69941 78088 8422/
333 10320 56999 59005 84818 88459=
98637 11465 60000 10260 20247 40087 52022 60011 71384 83971
333 10315 56999 58000 83912 84358=
43128 32597 42705 10360 20217 39426 40002 83801 333 10378 58013
82620 83825=
43150 32597 52503 10314 20278 39943 40015 82903 222// 20000 333
10342 57972 59002 81620 81925 84075=
43185 32597 62304 10386 20236 30003 40006 83301 333 10414
57982 59003 82820 81925 83070=
43198 21397 72312 10256 20203 39239 40049 70265 84670 333 10276
56509 58011 6993/ 83615 86458=
43213 32597 62703 10358 20204 39711 40015 84838 333 10372 58015=
43279 32597 31812 10330 20235 30008 40025 82401
333 10390 58002 81620 83075=
43284 21496 70000 10278 20243 39955 40069 70265 84770 333 10286
58012 6012/ 83710 83620 86359=
43314 32597 32904 10300 20240 40074 81131 333 10320 59006=
43321 32497 32010 10320 20192 39607 40039 70522 82901 333
10347 57981 58002 81615 81925=
43344 32597 42714 10374 20166 39936 40031 82931 333 10380
57981 58002 81825 81930=
43353 32496 43206 10302 20239 40074 83831 333 10324 56799 59011
82616 84075=
43369 32596 82704 10296 20254 40071 8447/ 333 10315 59008
83620 88458=
43371 32597 62705 10306 20227 39991 40062 81231 333 10343
57862 59021 81825 83360=
98646 31460 70000 10286 20259 40105 52029 71322 82908
333 10312 56999 59004 82918 87275=
98653 31470 51403 10270 20250 40095 52020 70544 82270
333 10303 56199 58010 82818 83358=
98741 11470 60000 10272 20251 40087 52013 60031 70198 82208
333 10304 56999 58002 82818 86275=
98747 11465 82701 10270 20246 40082 52023 69901 70584 8397/
333 10313 56999 58003 83917 88358=
98753 31465 61801 10275 20242 40085 52024 70544 82238
333 10306 56999 58001 82816 86279=
98755 31570 83601 10280 20254 40096 52029 70522 81207
333 10316 56999 58003 81820 88278=
98836 11562 62501 10266 20238 40093 52015 69901 70584 82206
333 10324 56999 58009 82820 85081=
16622 32665 32606 10280 20141 30156 40162 57015 83100 333 90730 91113
555 30000 10306 20304 30288 40262 50426 40000 47654 44260 50000
50196=
16641 32570 53009 10276 20093 30140 40145 55000 81252
333 81820 84360 90730 91115 555 40000 47637 44230 50000 50174=
16682 32560 82212 10248 20140 30134 40151 53006 82297 333
82820 86358 88068 90730 91114 555 30000 10280 20270 30246 40248 50234
60218 40000 47637 44250 50000 50182 70000 77/// 7/Y//=
16716 32565 62308 10268 20177 30120 40138 57017 82186 333 82830 83360
86070 90730 91121 555 40000 47631 44280 50000 50210=
16734 11560 80000 10198 20179 30096 40157 54000 60031 76162 8327/ 333
83820 88360 90730 91110 555 40000 47606 44230 50000 50186 60000 60027
60235 70000 77R// 7R///=
16743 32565 70616 10224 20105 39955 40150 58002 81270 333 81830
87359 90730 91135 555 40000 47501 44225 50000 50158=
16749 32960 32607 10244 20214 30114 40127 57004 80005 333 90730 91119
555 40000 47620 44235 50000 50224=
16754 11565 20405 10250 20135 30096 40141 58004 69911 70161 81230 333
90730 911102 555 40000 47609 44250 50000 50182 70000 77/// 7R///=
44216 32699 73207 10195 20058 38847 40001 53003 85270 333
10237=
44242 32998 63610 10192 20045 39149 49979 54000 84077 333
10254 91214=
44254 32598 73601 10176 20048 38919 49999 53007 87700 333
10219=
44257 32998 70209 10193 20030 38862 40004 52017 87060 333
10250=
53083 32980 22507 10238 21115 40024 57001 80002 333// 05406=
53487 32965 11802 10228 21009 40095 54000 80002=
54226 32980 00000 10218 20054 40046 57002=
54311 32980 01401 10212 20009 40073 57001=
54534 32970 32002 10259 20084 40086 52003 80002=
54587 32980 12707 10191 20104 40046 52015 80001=
54715 32970 71602 10243 20165 40108 52011 80002=
54929 32975 72502 10232 20116 40129 52008 81032=
54945 32965 72505 10234 20143 40117 52007 80002=
57193 11765 83201 10202 20146 40144 52009 69901 70060 885//=
57290 11962 82703 10181 20157 40140 52005 60021 76066 8802/=
56066 36/// ///// 10094 21043 36618 4//// 54000
555 10040 2//// 3//// 40111 51001 60/// 7//// 80000
9//// ///// 1/020 2//00 30000=
53673 32980 40000 10253 20060 40089 57001 80002=
54049 32970 12204 10265 20040 49996 57003 80002=
52634 36/// /0403 10051 21010 36753 4//// 52003
555 10020 2//// 30125 41111 51011 60/// 7//// 80000
9//// ///// 1/112 2//00 30000=
50434 32980 22901 10124 21076 39163 49996 52026 80002=
50915 32580 72703 10266 21047 39066 49987 57002 87902 333//
91123 91527=
53149 32980 22205 10236 21070 38722 40048 57010 80002 333//
05303=
53192 32980 62701 10220 21020 38810 40053 57008 80002=
53336 32980 72005 10239 21070 38653 40041 57009 80002 333//
05303=
53391 32980 02203 10188 20011 38486 40089 52001 333// 00106=
53529 32980 41604 10229 21054 38577 40063 57007 80002 333//
05302=
53543 32980 71803 10213 21038 38516 40086 57004 80002=
54012 32980 32206 10213 21031 38923 40021 57010 80002=
54208 32980 01802 10181 20047 38712 40083 57005=
54776 32975 22907 10186 20079 30046 40102 52013 80002=
57528 16/// /2000 10183 29756 37563 61430
555 1/446 2//13 30179 12100
11101 10101 00010 10110 1011/
/////
2//// 3//// 6//// ///// ///// 8//// 9//// ///// ///// //004
11101 11111 1011/
11111 110//=
45007 32475 71503 10292 20251 30072 40081 52013 8323/ 333
10331 58017 70045 82811 87362=
45011 32468 61604 10282 20262 40087 52011 84232 333 10315
58017=
22001   28124 99281 11263
46/// /0109 10226 20181 40131 52014 8////
22200 06249 11201 70007 80196=
21004   28124 99289 11349
46/// ///15 10234 20231 40094 52008 8////
22200 06225 10703 70015 80232=
SHIP 28124 99051 31194 32559 50903 10280 20257 40088 52024 81231
222// 00/// 20000 333 10326 56000 57802 59008 81820 83360 80875=
83570 333 10188=
83543 333 10220 91118=
10249=
44214 32698 60000 10132 20045 38212 40044 54000 83570 333
11145 91112=
44277 11599 52512 10093 20030 37747 40039 53005 69942 70286
84440 333 10159 91220=
44288 32699 52307 10204 20030 38072 48834 57007 85500 333
10235 91112=
44292 31899 63402 10223 21009 38563 49939 56010 70232 83074
333 10279=
58016 82430 84070=
82825=
56490 57932 58027 84615 81930 85360=
58013 82620 83825=
43189 32597 32001 10350 20276 30004 40013 82903 333 10389
57952 59004=
58008 6016/=
43233 32498 52705 10284 20195 39247 40032 82402 333 10310
56609 58016=
43245 32597 30000 10382 20237 39997 40019 81401 333 10410
58007=
58002 81620 83075=
43295 21497 72503 10278 20191 39055 48477 72122 85332 333
10303 56699 57942 57962 58018 6990/ 82616 83822 81928=
57981 58002 81825 81930=
44232 11699 80503 10175 20088 38954 49988 53025 60032 70272
885// 333 10250=
44239 32699 72704 10195 20043 38655 49955 55002 86280 333
10238 91112=
44285 32699 52304 10202 20055 38215 49844 56005 82304 333
10245=
44294 32998 62303 10241 20056 38441 49924 58007 84031 333
10277=
44305 32999 50512 10218 20036 38928 49998 52023 70232 85040
333 10294 91114=
22550 42597 32804 10129 20071 30114 40124 52018 83100=
22768 41597 63403 10146 20058 30071 40125 52007 72582 85950
333 84927=
22845 42998 72703 10182 20045 39986 40134 52001 85032=
10706 70028 333 88/10=
83538 22213 00270 20303 31219 40504=
47105 12970 02303 10196 20121 30029 40060 52019 69902 333
10267 31017 55055 21833=
47108 32966 02303 10186 20118 39975 40077 52032 333 10237
30017 55082 22205=
47115 32665 73605 10175 20113 39794 40050 52024 69912 85530
333 10226 31017 55086 70001 92043=
47135 32975 22906 10173 20084 39802 40085 52028 82030 333
10210 31014 55031 21021 70012=
47138 32665 33203 10223 20087 30067 40070 52035 83500 333
10266 30019 55081 22332 70009 92032=
47159 32975 03202 10206 20070 39995 40075 52037 333 10247
31016 55096 22615 92022=
47165 32960 03403 10161 20137 30064 40108 52016 333 10197
31017 55091 22528 92022=
47184 32980 22503 10178 20102 30095 40122 52013 82030 333
10203 31018 55102 22359 92022=
47008 12580 40000 10174 20094 39949 49999 52021 69942 82560
333 10250=
47016 12970 00000 10136 20065 39227 40061 52024 69912 333
10208=
47020 12965 00000 10193 20084 39720 40074 52019 69902 333
10260=
47025 32565 20501 10150 20128 39996 40024 52025 82500 333
10206=
47035 32970 02901 10235 20090 30066 40074 52022 333 10303=
47041 32970 20000 10234 20084 30014 40040 52025 80002 333
10282=
47055 32975 02301 10226 20055 30018 40060 52028 333 10269=
47058 32966 03202 10202 20081 30032 40076 52027 333 10282=
47069 32965 03203 10217 20071 39979 40072 52032 333 10265=
23914 41499 72504 10130 20058 39812 40056 58006 70181 82975=
23921 41599 73102 10120 20097 39919 40032 54000 70282 87900=
23955 11498 80402 10196 20127 39923 49979 57015 69962 71796
84971 333 10204=
24641 11599 83202 10105 20082 39896 40029 53010 60042 72582
86311 333 10177=
28440 41598 73203 10162 20122 39701 40026 57006 78082 87900=
28748 41560 62701 10239 20120 39819 40036 57026 70298 83903
333 91806=
29231 11598 81203 10241 20099 39902 49988 57014 69902 70282
8533/ 333 10259=
29838 32597 71804 10237 20081 39833 40043 57013 86331 333
10250=
30372 32699 73604 10075 21005 39212 40036 52011 83931 333
10099=
30673 31699 62907 10117 21014 39277 49993 52006 70282 86300
333 10129=
30823 32999 80502 10172 21044 39458 40045 57001 85032 333
10184=
30935 32999 70801 10173 20045 39167 40026 57011 85041 333
10186=
30965 32999 71904 10154 21033 39251 40014 52014 84042 333
10214=
31004 11497 80000 10056 20035 39200 49990 52016 60072 78082
87907 333 10085 87919=
31088 12498 71206 10025 20022 30105 40112 52003 69940 85351
333 10045=
31137 11599 70000 10052 20045 38999 49968 53025 69902 70282
86300 333 10113=
31300 32999 22301 10116 21009 39687 49957 54000 80002 333
10180=
31329 11499 81002 10093 20090 39317 49942 53009 60042 72582
889// 333 10226=
31369 32498 80909 10091 20061 39933 40015 53001 8596/ 333
10198 85917 91014 91115=
31371 32699 20000 10090 21007 39725 49974 53006 81401 333
10182=
31388 32599 70000 10119 20056 39698 49941 53005 87900 333
10195=
31416 32599 73002 10165 20076 39863 49947 53004 889// 333
10251=
31510 115// 63003 10157 20019 39797 49950 53034 69902 70298
86900 333 10266 91113=
31594 31571 80000 10177 20095 39751 49906 58003 71791 8697/
333 10265=
31707 32998 20000 10177 20121 39840 49923 57007 80001 333
10266=
31735 32997 73504 10155 20112 39848 49929 51004 80001 333
10203=
31873 11998 73203 10145 20109 39819 49936 53007 60030 70282
80001 333 10180=
31909 11598 81202 10076 20076 39825 49898 53021 60270 72582
889// 333 10115=
31960 32998 83303 10177 20121 39975 49758 52019 60010 88001
333 10171=
32053 11296 81108 10025 20020 39967 40008 57020 69970 78082
889// 333 10161 87703 91011 91112=
32061 11570 80203 10088 20064 39911 49948 57021 69960 72582
8397/ 333 10141=
32098 11441 80306 10063 20052 39910 49920 57042 60160 78082
889// 333 10089 91110=
32150 11395 80208 10043 20041 39822 49850 57027 60080 78182
889// 333 10065 91011 91114=
32165 11/91 92003 10083 20083 39831 49890 57025 60350 76164
333 10107 96045=
47003 12980 63201 10177 20090 39993 49997 52031 69902 83031
333 10251=
47005 32980 01801 10095 20048 38547 52023 333 10145=
47028 32972 00000 10209 20088 39972 40061 53021 333 10291=
47031 32970 00000 10125 20038 333 10176=
47037 32970 00000 10216 20107 39949 40063 52020 333 10292=
47039 32960 00000 10200 20124 39895 40074 52014 333 10276=
47046 32969 32702 10170 20136 30016 40037 52020 83030 333
10219=
47050 32965 02503 10216 20145 30024 40056 52023 333 10282=
47052 32965 00000 10179 20092 39758 40078 52039 333 10260=
47060 32960 02904 10189 20119 30027 40082 52025 333 10251=
47061 32980 02703 10233 20077 30005 40045 52014 333 10238=
47065 32965 03205 10200 20113 30023 40004 52029 333 10264=
47067 32965 00000 10221 20070 39948 40070 52026 333 10270=
47068 32970 02305 10175 20112 30050 40083 52025 333 10261=
47070 32970 03205 10222 20099 39990 40072 52029 333 10267=
98223 31565 41102 10284 20268 40094 52031 70594 82261 333
10332 56999 59010 82820=
98325 11458 50000 10282 20256 40078 53016 69904 70594 82277
333 10322 56999 58004 82817=
98328 11462 51802 10188 20176 38510 40079 53011 60141 71398
81970 333 10262 56999 59002 81912 85358=
98429 31558 81101 10293 20235 40084 51007 70544 83870 333
10313 56999 59007 83823 88359=
98440 11465 81403 10285 20268 40087 52028 60011 72122 8427/
333 10330 56399 58003 84818 88358=
98444 32468 40902 10293 20260 40088 52028 83202 333 10324
56999 58004 83818=
98543 31460 71402 10300 20271 40081 53028 71322 83978 333
10330 56999 58005 83915 86272=
98550 11460 71401 10287 20261 40084 53003 69921 71584 82948
333 10326 56999 58000 81915 87272=
98618 11464 80000 10250 20243 40075 53016 60201 76098 8422/
333 10338 56999 59006 84819 88457=
98630 11465 80000 10284 20260 40080 53021 69941 78088 8422/
333 10320 56999 59005 84818 88459=
98637 11465 60000 10260 20247 40087 52022 60011 71384 83971
333 10315 56999 58000 83912 84358=
98755 31570 83601 10280 20254 40096 52029 70522 81207 333
10316 56999 58003 81820 88278=
98836 11562 62501 10266 20238 40093 52015 69901 70584 82206
333 10324 56999 58009 82820 85081=
02548 36/// ///// 1//// 2//// 38648 40128 54000
555 1//// 2//// 3//// 40001 50000 60/// 7//// 80000
9//// ///// 1/019 2//00 30000=
44207 11999 73603 10090 20038 38227 40036 53002 69912 70262
86026 333 10144=
44212 11999 70000 10204 20061 38971 49997 58010 69962 70262
86073 333 10229=
44218 11596 72703 10177 20047 38479 49978 53004 69902 71622
8652/ 333 10208=
44231 11598 80000 10172 20051 38592 49979 53006 69912 71852
8870/ 333 10227=
44241 32999 70507 10209 20078 39080 49964 57011 87030 333
10273=
44259 32598 83604 10213 20013 39179 40005 53015 8654/ 333
10263=
44272 11698 60000 10104 20041 38131 40009 54000 60032 70298
83570 333 10188=
44282 11599 72305 20009 38194 49976 53007 69902 70262 87500
333 10226 91214=
44284 32599 70000 10127 20060 37790 49989 53002 60012 70282
85500 333 10180=
44287 11599 52303 10186 20051 38040 49969 53002 69902 70398
83543 333 10220 91118=
44298 32999 42706 10254 21038 38592 49934 57007 80007 333
10290=
44304 31599 60503 10226 20027 38855 49964 53008 70232 85902
333 10307=
44314 32598 60202 10206 21044 39005 49990 53024 84380 333
10294=
44341 32999 62310 10246 21036 38469 49943 56009 82041 333
10270=
44347 32999 42706 10256 20002 38596 49956 56007 80008 333
10289=
44373 32999 62305 10235 21038 38447 49980 57006 83078 333
10262=
28661 42699 53005 10233 20085 39931 40015 57014 85100=
28679 41597 83104 10137 20124 39837 40004 53003 78098 889//=
28879 41597 83504 10153 20115 39753 40020 53011 78082 86982
333 86925=
28952 42598 52707 10229 20058 39873 40051 57017 86900=
29023 32498 80903 10241 20086 39899 49986 57013 83302 333
10249=
29122 11699 82703 10231 20071 39912 49979 56004 69902 72582
8335/ 333 10259=
29807 41597 52207 10185 20130 39874 49983 57006 72582 83201=
30230 32599 81002 10119 21005 39784 40090 57012 83931 333
10139=
30309 42998 41203 10161 21014 39489 40048 57011 84030 333
10175=
30385 11699 80000 10081 20021 39695 49965 58009 60032 78161
889// 333 10145=
30650 32999 23602 10135 21074 38990 40023 57002 80001 333
10168=
30710 42960 81605 10110 20051 39475 40067 56004 86031 333
10150=
30844 32999 50000 10172 21044 39123 40016 55000 80001 333
10190=
31532 11599 80000 10109 20093 39627 49945 53019 69950 72598
86901 333 10267=
31829 11396 80304 10073 20068 39865 49893 57009 60070 76186
8672/ 333 10088 91115=
35078 41799 53006 10209 20088 39680 40026 57008 70298 83203=
35108 42697 53003 10279 20141 40138 57015 85200=
35188 41698 62805 10161 20106 39634 40036 58006 70282 85930=
35229 42698 72905 10246 20092 39858 40107 57014 83361=
35394 41597 61805 10155 20109 39422 40052 57015 71798 85930=
35416 42697 42902 10265 20095 82204=
35671 42698 43105 10249 20046 39686 40076 57010 84200=
35746 42698 23406 10286 20076 30018 40090 57011 82100=
35796 42797 82202 10255 20059 39656 40047 57012 81102=
36003 41597 82107 10186 20123 39871 40012 57010 79598 889//=
36859 42599 31801 10286 20019 39318 40016 57017 81301=
36870 42698 71102 10268 20123 39096 40005 57005 81131=
38198 42999 13303 10339 20013 80002=
38341 42698 53003 10299 20089 39315 40017 54000 83402=
44214 32698 60000 10132 20045 38212 40044 54000 83570 333
11145 91112=
44277 11599 52512 10093 20030 37747 40039 53005 69942 70286
84440 333 10159 91220=
44288 32699 52307 10204 20030 38072 48834 57007 85500 333
10235 91112=
44292 31899 63402 10223 21009 38563 49939 56010 70232 83074
333 10279=
42348 32997 02703 10406 20127 49969 333 10412 58016=
42369 31595 43602 10376 20257 49951 70622 82401 333 10410
58016 82430 84070=
42452 32596 12504 10424 20093 49970 333 10435 58014=
42647 32596 22301 10390 20216 40001 82100 333 10399 58015
82825=
42737 32597 32503 10386 20207 49994 81800 333 10397 58009
81625 83830=
42809 31495 61804 10326 20277 49998 70520 85330 333 10355
56490 57932 58027 84615 81930 85360=
42909 32596 42006 10318 20250 40026 81102 222// 20000 333
10328 58007 81825 83070=
43003 32596 72303 10300 20255 40038 85330 333 10320 58009
83620 83825 81930=
43063 21597 62902 10282 20225 39415 40022 70296 84831 333
10319 59005 6994/ 82628 83828=
43128 32597 42703 10360 20217 39426 40002 83801 333 10378
58013 82620 83825=
43185 32597 62302 10386 20236 30003 40006 83301 333 10414
57982 59003 82820 81925 83070=
43189 32597 32001 10350 20276 30004 40013 82903 333 10389
57952 59004=
43192 21496 72303 10282 20254 40059 70362 85723 333 10283
58008 6016/=
43233 32498 52705 10284 20195 39247 40032 82402 333 10310
56609 58016=
43245 32597 30000 10382 20237 39997 40019 81401 333 10410
58007=
43279 32597 31806 10330 20235 30008 40025 82401 333 10390
58002 81620 83075=
43284 21496 70000 10278 20243 39955 40069 70265 84770 333
10286 58012 6012/ 83710 83620 86359=
43295 21497 72503 10278 20191 39055 48477 72122 85332 333
10303 56699 57942 57962 58018 6990/ 82616 83822 81928=
43321 32497 32005 10320 20192 39607 40039 70522 82901 333
10347 57981 58002 81615 81925=
43344 32597 42707 10374 20166 39936 40031 82931 333 10380
57981 58002 81825 81930=
43371 32597 62703 10306 20227 39991 40062 81231 333 10343
57862 59021 81825 83360=
44232 11699 80503 10175 20088 38954 49988 53025 60032 70272
885// 333 10250=
44239 32699 72704 10195 20043 38655 49955 55002 86280 333
10238 91112=
44285 32699 52304 10202 20055 38215 49844 56005 82304 333
10245=
44294 32998 62303 10241 20056 38441 49924 58007 84031 333
10277=
44305 32999 50512 10218 20036 38928 49998 52023 70232 85040
333 10294 91114=
22550 42597 32804 10129 20071 30114 40124 52018 83100=
22768 41597 63403 10146 20058 30071 40125 52007 72582 85950
333 84927=
22845 42998 72703 10182 20045 39986 40134 52001 85032=
26063 41497 82903 10156 20134 30126 40133 57012 70282 885//=
26298 42998 22006 10250 20110 39920 40132 57015 82080 333
91111=
26477 42670 51706 10269 20151 40124 57017 82201=
26702 42497 81002 10158 20097 30109 40134 57023 885// 333
88611=
26850 42670 62103 10292 20106 39883 40134 57011 86011=
26997 42980 00000 10257 20105 39987 40191 57010=
27595 42797 73008 10209 20036 39996 40131 57010 82501=
27612 42997 02501 10250 20093 30001 40180 58017=
27947 42997 00204 10252 20062 30042 40198 52006=
27962 42997 43306 10242 20053 40164 57010 80001=
33008 42960 22203 10295 20128 39958 40122 57016 82200=
34009 42968 00202 10253 20034 39889 40173 57012=
34172 42770 53006 10259 20111 39981 40161 57010 82101=
34247 42575 53101 10285 20109 30070 40175 57015 85100 333
85828=
34391 32697 42904 10291 20103 30122 40150 57014 82202=
37054 42698 51008 10236 20091 39804 40165 57011 85200=
55228 32780 62906 10149 21199 36034 57005 86900 333 00100=
76220 32980 00000 10146 20050 38196 40115 5//// 91155 333
10330 20146 30/// 58045 70000=
76243 32370 60902 10210 20167 39870 40146 5//// 86707 91135
333   10420 20204 30/// 56300 59020 70000 86707=
76305 32970 00000 10213 20186 30097 40107 5//// 91140 333
10310 20208 30/// 58018 70000 90800=
76393 31350 83402 10208 20184 39566 40130 52011 70544 885//
91150 333   10368 20202 31020 56899 58087 70151 88608=
76499 31557 30000 10247 20203 30104 40134 5//// 70544 83400
91145 333   10375 20245 30023 563// 58054 70000 83631=
76525 01355 60702 10112 20081 37482 40086 5//// 60029 86600
91200 333   10213 20110 31010 56200 58019 60029 70020 86708
=
76548 32465 40201 10268 20255 30092 40122 5//// 81204 91155
333   10312 20264 30/// 56204 58032 70000 81813 81917=
76556 32960 70000 10178 20164 39086 40086 56004 8705/ 91135
333   10315 20178 30015 5604/ 58029 70000 87360=
76581 01965 60101 10220 20176 39053 40112 52/// 69903 70596
86070 91210 333   10319 20199 31019 55093 56060 58028 69903
79999=
76585 02680 70000 10212 20206 39973 40122 55005 60232 8547/
91150 333   10349 20201 32019 5611/ 58029 60232 70237 85633
82358=
76593 32460 70902 10284 20240 30131 40147 5//// 82570 91150
333   10350 20264 30024 5622/ 58014 70000 83620 82330 82430
92011=
76612 01558 80000 10172 20161 38470 40088 53002 69946 7202/
8877/ 91151 333   10326 20172 30015 5611/ 58018 69946 70004
82627=
76640 32040 80201 10260 20255 30099 40129 51009 8586/ 91150
333   10372 20256 30/// 5622/ 58044 70000 83801 82601 83356
=
76647 11550 52003 80202 10224 20217 30101 40131 52003 60047
78086 8322/ 91152 333   10370 20220 32021 563// 58002 70053
83810=
76741 31340 41803 10252 20230 30075 40095 52006 70444 842//
91150 333   10326 20238 30/// 564// 58008 70000 84807=
76762 31520 80000 10188 20176 38752 40099 55000 74144 86504
91140 333   10295 20184 30017 56205 58003 70000 86630 93016
=
76805 31865 71301 10257 20234 30110 40110 52005 70322 8707/
91150 333   10320 20253 30025 56/9/ 58006 70000 87356=
76840 32756 70000 10234 20226 30086 40136 5//// 87030 91150
333   10340 20225 30/// 56030 58000 70010 87360=
76848 32260 80000 10168 20155 36371 49987 53005 886// 91135
333   10264 20160 31014 56199 58005 70313 86604=
76903 31775 80000 10244 20224 39982 40112 50001 70422 85430
91145 333   10280 20230 30022 56990 58001 70000 85650 83358
=
40009 32970 22704 10316 20178 40061 57014 82040 333 82360=
40016 32570 13002 10335 20109 40068 57012 81100 333 81830=
40022 32565 21704 10247 20202 40132 57004 82100 222// 20000 333
82830=
40030 32570 23202 10314 20130 40076 57012 82100 333 82830=
40039 32970 02605 10318 20084 40067 58011=
40066 32970 02905 10266 20131 40110 58008=
40072 32970 02705 10340 20040 40081 58018=
40083 32570 21402 10239 20029 48466 57007 82100 333 82826=
67765 42984 22705 10266 20065 38679 48525 82100 333 58011 82859=
67775 42780 33206 10239 20071 38512 48516 83100 333 58007 83850=
67779 42880 30902 10262 20089 39059 48517 83100 333 58009 83857=
67853 42980 22312 10289 20015 38941 48518 82100 333 58004 82860=
67861 42980 53305 10254 20063 38739 48521 85100 333 59001 85859=
67867 42680 32102 10230 20045 38589 48518 83100 333 58006 83845=
67881 42978 53405 10240 20049 38588 48517 85160 333 59008 85858=
67965 42780 12105 10255 20001 38690 48516 81100 333 58004 81856=
67975 42680 31505 10230 20145 38936 48524 83100 333 58015 83840=
67977 41560 80000 10226 20170 39558 48570 70542 885// 333 58029
88620=
67983 41540 61205 10195 20153 38916 48540 70542 84230 333 58018
84825=
67991 42680 50000 10234 20156 39632 48524 85500 333 58034 85635=
87097 32970 00000 10089 20076 39882 40206 52015
333 10109 20057=
87155 32965 10704 10128 20107 30140 40203 52009 80005 333 10128
20056 56009 81270=
87162 31963 10907 10130 20097 30125 40196 52011 71000 80001 333
10138 20079 56006=
87166 32970 00903 10114 20094 30128 40203 52008 333 10130 20091=
87178 31958 00000 10113 20089 30056 40205 52016 71000
333 10144 20073=
87289 31960 30000 10118 20110 30125 40210 52016 71000 80006 333
10121 20080 56002 83270=
87374 32965 50000 10098 20077 30094 40188 51004 80006
333 10140 20085 56006 85270=
87393 32965 20000 10110 20100 30137 40202 52009 80005 333 10136
20084 56005 82270=
87395 31920 30000 10104 20092 30154 40200 52004 71000 80004 333 10125
20066 56005 83070=
87480 31915 30000 10078 20069 30158 40188 53003 72840 80006 333
10137 20060 56008 83770=
87497 31960 00000 10096 20077 30162 40187 54000 71000 333 10126
20071=
87534 32960 03604 10079 20075 39999 40164 53005 333 10125 20062
30005=
87548 31930 60000 10082 20069 30072 40169 56004 71022 80006 333 10122
20063 30003 56005 86270=
87576 31916 60000 10066 20053 30169 40194 52009 72842 81056
333 10088 20032 56066 81360 85270 96010=
87582 31925 10000 10114 20088 30189 40196 52011 71000 80002 333
10127 20092 56006 81070=
87623 31908 70502 10057 20057 39922 40153 57008 74642 85076 333
10110 20046 56066 85360 86270=
87692 31908 03402 10042 30165 40191 53005 74244 333 10076 20011
31000=
87715 31925 72702 10042 20042 39828 40156 53003 71042 84076 333 10086
20025 31002 56099 84360 85270=
87750 32965 63203 10094 20064 30058 40160 50001 83018 333 10094
20070 30000 56077 83460 83270=
87765 32580 70000 10012 21007 39189 48472 52001 83504
333 10091 20012 30001 56606 83630 87070=
67843 42980 10000 10280 20046 38943 48504 81100 333 58000 81858=
87016 32570 70000 10170 20166 39747 40160 53009 87500
333 10188 20167 56899 87620=
87022 32665 70506 10164 20136 39648 40164 53011 87500
333 10185 20145 56499 87635=
87046 32565 80000 10142 20117 39136 48507 53005 8357/
333 10166 20130 56999 83630 85358=
87047 31662 70000 10109 20092 38812 48522 53009 71022
87500 333 10121 20081 30008 56200 87640=
87121 32965 73604 10146 20121 39626 40148 53004 82056
333 10172 20140=
87129 32570 70508 10128 20066 39927 40163 52005 81571 333 10162
20112 81630=
87217 32670 32704 10087 20075 39639 40145 52006 81506
333 10134 20087 81640=
87222 32670 30504 10068 20059 39596 40122 51008 83500 333 10171
20062 56800 83645=
87257 31956 23608 10092 20084 30075 40182 53004 71010 80002 333 10123
20060 56006=
87311 31960 02903 10040 20033 39453 40156 53003 71000
333 10113 20036=
87320 32965 31406 10108 20062 39610 40147 52005 82031 333 56099
82360=
87328 32980 20000 10104 20057 39499 40166 51004 80006 333 10120 20083
56000 950000=
87344 32962 52702 10076 20057 39605 40163 53004 80006 333 10149
20065 56001 85270 94220=
87349 32965 03606 10076 20056 39762 40163 50001 333 10136 20055
31007=
87371 12962 30000 10110 20106 30168 40189 53007
69904 80005 333 10165 20100 30011 56000 83270=
87416 32965 00000 10067 20042 39382 40145 56004 333 10111 20060 30005
56999=
87418 32958 00000 10050 20048 39333 40152 56001 333 10122 20050=
87436 32980 10903 10083 20047 39322 40146 56001 80002 333 10121
20071 56995=
87448 32970 13205 10054 20045 39583 40163 57003 81010 333 10098
20036 56929=
87453 32970 00000 10080 20045 39653 40146 54003 333 10126
20064=
87467 32970 10000 10090 20074 30035 40172 53005 80001 333 10112 20060
56005=
87506 32970 32304 11005 21016 38559 48479 56004 83070 333 10057 21004
56060 95010=
87509 32980 02305 10065 20040 39244 40138 56008 333 10098 20055
30004=
89061 32/// /50031 11046 30178 40188 52006 91132 333 11022 21056=
89063 42999 00000 11049 21054 30182 40196 52008 91145 333 11040
21058=
89062 42599 52203 11036 30183 40226 52008 82630 333 11025 21054
82720 84360=
87803 32580 80504 11004 21015 39214 40138 54000 8157/ 333 10090 21003
30100 56669 81630 88360=
70026 32266 81111 11072 21078 30208 40214 51007 91153 333 11044
21072 4/010 555 92812=
70133 32566 82303 10006 21006 30176 40181 53004 91153 333 10028
20000 70005 555 92812=
70231 32766 82805 10044 20006 30065 40193 51009 91153 333 10128
20044 70003 555 92812=
70261 32866 40804 10028 20000 39997 40169 53006 91153 333 10128
20022 555 92812=
70273 32966 49904 10067 21017 30077 40127 53009 91153 333 10172
20056 555 92812=
70308 12566 81308 10033 20006 30239 40250 56009 69901 91153 333
10061 20028 555 92812=
70316 12466 83407 10028 20011 30233 40271 56004 69901 91153 333
10078 20028 70008 555 92812=
70326 31648 40000 11017 21017 30179 40199 53010 710// 91152 333
10156 21017 555 92812=
70350 32966 43016 10089 20011 30118 40160 51002 91153 333 10156
20089 555 92812=
70361 32766 20000 10017 20011 30070 40087 53005 91153 333 10161
20006 555 92812=
70398 12166 80000 10083 20083 30064 40105 53016 60081 91153 333
10167 20083 70099 555 92812=
70341 32966 29903 10039 20000 30122 40149 51011 91153 333 10167
20028 555 92812=
70194 35966 80000 10050 21010 30005 91215 555 92812=
78318 31560 70703 10264 20241 30152 40156 53002 70511 82972 333
10327 20250 30/// 50720 56999 57943 59014 81820 87073 819//=
78325 31561 20802 10250 20225 30097 40154 53007 70400 81903 333
10328 20240 30/// 55105 56909 59009 81920=
78333 32/10 20401 10239 20233 30143 40149 53010 81903 333 10312
20218 30/// 55113 56909 57964 59022 818// 819//=
78338 31559 20000 10243 20228 30143 40156 53007 70500 81202 333
10325 20220 30/// 50790 55124 56909 59016 81822=
78349 31530 11501 10233 20226 30043 40154 53021 71011 81200 333
10341 20227 30/// 50730 56900 59015 81820=
78360 32568 50401 10258 20229 30133 40144 53011 82832 333 10309
20242 30/// 55087 56999 57849 59011 81820 92012=
78369 31468 21008 10271 20239 30134 40146 53005 70511 81260 333
10310 20264 30/// 55082 56990 5784/ 59016 81818 92045=
72201 32566 21407 10278 20228 30155 40161 53010 91153 333 10322
20272 555 92812=
72202 32566 40000 10272 20233 30157 40163 53013 91156 333 10317
20250 555 92812=
72203 32566 42805 10250 20233 30162 40167 53014 91153 333 10333
555 92812=
72205 32866 22906 10261 20222 30124 40160 53015 91153 333 10361
20222 555 92812=
72206 32361 62609 10240 20230 30135 91203 333 10350 555 92812=
72207 32966 02606 10244 20222 30107 40125 50004 91153 333 10356
20222 555 92812=
72208 32966 02510 10267 20222 30096 40111 52003 91156 333 10356
20250 555 92812=
72212 35/// /2305 10239 20228 30143 40156 51012 91153 333 10339
20211 70003 555 92812=
72214 31358 62607 10256 20244 30135 40154 51009 710// 91153 333
10350 20222 555 92812=
72217 32961 02310 10250 20228 39993 40118 55001 91153 333 10367
20217 555 92812=
72218 32966 02608 10256 20211 30054 40104 53003 91153 333 10372
20206 555 92812=
72219 31458 83017 10190 20190 39775 763// 91201 333 10317 96010
555 92812=
72223 32461 42906 10244 20233 30088 40164 51017 91156 333 10328
20239 555 92812=
72226 11566 82206 10222 20211 30078 40149 51019 60111 761// 91153
333 10356 20222 70170 555 92812=
72231 31556 80000 10250 20239 30151 40164 53010 710// 91153 333
10339 20239 555 92812=
72234 12966 01910 10200 20194 30036 40143 58002 60021 91153 333
10333 20194 70140 555 92812=
72235 12266 49903 10206 20206 30028 40144 56004 60051 91154 333
10333 20200 70051 555 92812=
72240 31959 01804 10244 20239 30136 40155 55003 710// 91153 333
10311 20233 555 92812=
72243 12966 81609 10222 20211 30099 40136 56014 60041 91153 333
70043 555 92812=
72248 32466 82904 10210 20200 30058 91204 333 10328 555 92812=
72250 32261 63404 10260 20250 30135 91214 333 10350 555 92812=
72251 12966 00712 10239 20217 30119 40138 58001 60141 91151 333
70137 555 92812=
72253 12966 80105 10200 20183 39868 40144 53019 60021 91153 333
70066 555 92812=
72254 15966 00000 10211 20189 39937 40149 53014 69901 91153 333
10333 20200 70010 555 92812=
72255 15966 22405 10222 20222 30117 40152 51003 60411 91151 333
70411 555 92812=
72256 11956 02304 10183 20183 39983 40162 53011 69931 710// 91153
333 10311 20178 70246 555 92812=
72259 32964 63407 10206 20183 39958 40158 53014 91153 333 10350
20200 70058 555 92812=
72261 35966 20505 10206 20178 39791 40143 53003 91153 333 10350
20206 70053 555 92812=
72263 32966 00000 10189 20139 39498 40160 53007 91153 333 10372
20183 555 92812=
72265 32966 00905 10194 20161 39186 40147 53007 91153 333 10356
20194 555 92812=
72266 32966 03607 10200 20189 39541 40156 51011 91153 333 10356
20194 555 92812=
72267 32466 21503 10161 20139 39074 40166 51017 91153 333 10317
20156 555 92812=
72270 32966 00106 10217 20094 38838 40122 51011 91151 333 10350
20217 555 92812=
72274 32966 01606 10244 20044 39230 40105 53008 91155 333 10383
20233 555 92812=
72278 32966 00904 10272 20100 39714 40091 53007 91156 333 10400
20272 555 92812=
72290 32962 00000 10178 20156 30111 40122 56003 91151 333 10222
20178 555 92812=
72295 31959 02405 10178 20178 30083 40117 56007 710// 91150 333
10267 20172 555 92812=
72304 37356 80606 10211 20200 30101 40103 53016 710// 91151 333
20206 70117 555 92812=
72308 32366 80805 10178 20150 30101 40108 53015 91151 333 10300
20172 70246 555 92812=
72310 32966 62407 10244 20189 30022 40099 53004 91156 333 10367
20217 555 92812=
72311 31958 62304 10228 20206 39831 40112 53008 710// 91153 333
10328 20217 555 92812=
72314 12761 60000 10222 20206 39824 40091 52008 69901 91151 333
10317 20200 555 92812=
72317 31132 60705 10200 20190 39775 710// 91203 333 10300 555
92812=
72324 11166 42905 10200 20178 39872 40114 50003 69931 761// 91153
333 10322 20194 70036 555 92812=
72326 12666 62210 10194 20189 39758 40105 53006 69931 91153 333
10300 20183 70135 555 92812=
72327 32466 82507 10194 20172 39901 40109 53005 91153 333 10306
20189 70030 555 92812=
72334 32366 62706 10200 20189 30038 40139 53010 91153 333 10322
20200 70076 555 92812=
72340 32261 42906 10194 20189 30058 40153 53012 91153 333 10283
20183 70323 555 92812=
72344 11000 92805 10183 20183 39997 40161 53014 69931 741// 91153
333 70124 555 92812=
72351 31959 42104 10178 20172 39800 40162 53008 710// 8/071 91153
333 10339 20172 70185 555 92812=
72353 32966 20000 10161 20150 39708 40168 51016 91153 333 10294
20150 555 92812=
72356 31966 00000 10178 20161 39926 40165 53018 91153 333 10283
20156 70030 555 92812=
72363 32966 02009 10139 20106 38956 40171 53007 91153 333 10278
20122 555 92812=
72365 32966 03504 10161 21011 38413 40140 53010 91156 333 10300
20150 555 92812=
72374 35966 01103 10133 21028 38541 40148 53014 91156 333 10322
20133 555 92812=
72384 32966 03404 10167 20122 39973 40147 53006 91156 333 10328
20167 555 92812=
72386 32966 01909 10300 20061 39343 40081 56002 91156 333 10400
20294 555 92812=
72389 32966 03107 10189 20111 30025 40140 56001 91156 333 10339
20189 555 92812=
72394 35966 00000 10111 20100 30041 40129 56004 91151 333 10256
20111 555 92812=
72401 31228 80606 10160 20140 30055 710// 91210 555 92812=
72403 11648 80000 10150 20144 39998 40115 53013 69901 761// 91151
333 10178 20139 70033 96010 555 92812=
72407 35966 00107 10139 20111 30084 40108 53014 91154 333 10194
20100 70030 555 92812=
72408 12966 60207 10156 20094 30093 40116 53017 69931 91154 333
10183 20111 70033 555 92812=
72411 11132 81507 10150 20144 39686 40098 50006 69901 761// 91154
333 20144 70122 96010 555 92812=
72412 35466 82208 10180 20170 39220 91212 333 10222 555 92812=
72414 11459 62004 10194 20189 39725 40071 50001 69931 710// 91154
333 10222 70447 555 92812=
72421 31356 82504 10190 20180 39752 710// 91153 333 10244 555
92812=
72428 11356 80903 10156 20150 39773 40064 56005 60131 761// 91151
333 10189 70163 96010 555 92812=
72429 31348 82410 10190 20180 39708 710// 91205 333 10217 555
92812=
72432 12766 42907 10183 20144 39957 40096 53013 69901 91154 333
70018 555 92812=
72434 32466 42711 10167 20144 39893 40089 53003 91153 333 10256
20161 70033 555 92812=
72438 12461 82306 10167 20150 39783 40069 51010 69901 91155 333
20167 555 92812=
72440 32966 09903 10156 20139 39695 40143 53012 91154 333 10256
20133 70036 555 92812=
72445 32566 62811 10150 20130 39797 91215 333 10267 555 92812=
72446 32966 02707 10133 20122 39782 40145 53021 91153 333 10217
20122 555 92812=
72450 32966 00000 10150 20128 39697 40168 53014 91156 333 10272
20133 555 92812=
72451 32966 02208 10161 20106 39271 40164 53013 91156 333 10272
20128 555 92812=
72456 32966 02704 10139 20133 39844 40159 53026 91156 333 10244
20111 555 92812=
72458 35966 00000 10128 20100 39643 40168 53024 91155 333 10256
20117 555 92812=
72464 32966 02605 10094 20039 38580 40152 53006 91154 333 10294
20078 555 92812=
72465 32966 02517 10156 20061 38889 40135 56004 91156 333 10261
20111 555 92812=
72476 32966 01109 10156 20028 38558 40130 53003 91156 333 10289
20139 555 92812=
72486 35966 00000 10067 20039 38111 40129 52006 91153 333 10278
20067 555 92812=
72492 35966 00000 10139 20106 30139 40148 56005 91156 333 10328
20139 555 92812=
72503 32966 60607 10156 20083 30100 40111 53014 91151 333 10206
20139 555 92812=
72508 32966 43605 10133 20078 30040 40111 53010 91151 333 10228
20072 555 92812=
72509 32666 60307 10139 20083 30101 40107 52008 91154 333 10233
20117 555 92812=
72515 32966 00000 10083 20067 39551 40130 53009 91156 333 10172
20067 555 92812=
72518 32766 80107 10122 20072 30018 40125 53015 91151 333 10211
20089 555 92812=
72519 32966 60000 10100 20083 39987 40133 53007 91154 333 10189
20072 555 92812=
72520 11548 80906 10122 20111 39652 40097 53001 69951 761// 8/57/
91151 333 10161 20117 70066 96010 555 92812=
72524 11658 80809 10128 20117 39817 40097 52001 60011 761// 91151
333 10178 20128 70046 96010 555 92812=
72528 32966 80709 10106 21006 39866 40124 55000 8/007 91154 333
10189 20083 555 92812=
72530 11220 80707 10139 20139 39811 40053 53005 60021 710// 91156
333 10189 20139 70114 555 92812=
72532 32366 82708 10130 20120 39831 91159 333 10233 555 92812=
72533 11212 80204 10150 20150 39766 40062 53008 60131 710// 91154
333 10194 70218 555 92812=
72537 31664 80807 10110 20100 39861 761// 91203 333 10178 555
92812=
72546 32466 83313 10120 20090 39777 91202 333 10167 555 92812=
72547 11032 83613 10122 20122 39687 40074 51014 60011 710// 91155
333 10156 20122 70023 555 92812=
72552 32966 02003 10100 20100 39508 40168 53017 91156 333 10244
20083 555 92812=
72556 37940 00000 10110 20100 39611 710// 91210 333 10200 555
92812=
72557 32466 83007 10100 20080 39767 91203 333 10178 555 92812=
72562 32966 01105 10089 20067 39184 40150 50003 91156 333 10250
20061 555 92812=
72564 32966 02612 10111 20033 38137 40121 55003 91156 333 10239
20100 555 92812=
72565 32866 21709 10106 20044 38345 40127 56005 91153 333 10244
20106 555 92812=
72569 32966 02708 10128 20044 38350 40096 51003 91155 333 10244
20117 555 92812=
72572 32966 41306 10200 20072 38698 40098 53012 91156 333 10300
20194 555 92812=
72576 35966 03107 10100 20044 38283 40097 55000 91156 333 10256
20106 555 92812=
72578 32966 02409 10128 20067 38629 40121 51014 91156 333 10289
20106 555 92812=
72583 35966 00703 10100 20011 38693 40141 53001 91156 333 10311
20083 555 92812=
72591 32966 03003 10150 20100 30027 40148 53006 91155 333 10311
20139 555 92812=
72594 11558 80203 10123 20113 30201 40201 54000 69931 75052 885//
333 10186 20123 70028 88630 90942
72606 32766 83608 10150 20061 30085 40104 51010 91151 333 10206
20122 555 92812=
72617 32666 80206 10111 20067 30004 40130 53012 91154 333 10172
20100 555 92812=
72635 11464 81014 10106 20094 39798 40090 51001 60231 761// 91156
333 10161 20100 70249 91021 555 92812=
72636 31640 80613 10100 20090 39865 763// 91215 333 10156 96010
555 92812=
72637 11759 80709 10111 20089 39834 40113 50009 69951 761// 91153
333 10194 70005 96010 555 92812=
72638 35966 00809 10094 20050 39724 40140 53014 91155 333 10206
20083 555 92812=
72640 31216 80314 10080 20080 39838 763// 91214 333 10117 96010
555 92812=
72641 11224 80313 10094 20089 39779 40090 53018 60021 751// 91153
333 10144 20094 70025 96010 555 92812=
72644 11159 80106 10111 20106 39638 40112 51016 69931 710// 91154
333 10133 20111 70102 555 92812=
72645 11761 80811 10089 20072 39871 40127 51013 60111 761// 91156
333 70147 555 92812=
72651 32366 80106 10089 20078 39639 40155 53012 91156 333 10156
20067 555 92812=
72654 11040 20000 10056 20056 39698 40165 53015 69931 710// 91155
333 10172 20028 70005 555 92812=
72659 31004 61503 10044 20044 39688 40162 51012 741// 91156 333
10150 20033 70023 555 92812=
72662 32966 01104 10111 20067 39015 40110 55006 91155 333 10233
20094 555 92812=
72666 32966 62006 10111 20072 38749 40095 55001 91156 333 10244
20100 555 92812=
72677 11766 83210 10144 20083 38891 40104 53029 69901 761// 91156
333 10261 20117 70008 555 92812=
72681 32966 03006 10139 20117 39147 40137 53007 91156 333 10272
20139 70005 555 92812=
72683 35766 20000 10072 20050 38734 40155 51006 91153 333 10228
20061 70005 555 92812=
72688 32766 62005 10106 20050 39634 40170 53015 91156 333 10222
20100 70003 555 92812=
72693 32666 81803 10100 20094 30062 40199 53004 91156 333 10194
20078 70036 555 92812=
72694 32766 81808 10111 20094 30112 40187 50004 91156 333 10194
20100 555 92812=
72698 12766 61706 10117 20094 30181 40187 53006 69901 91155 333
10200 20117 70003 555 92812=
72712 32566 83610 10078 20028 39879 40111 53019 91154 333 10122
20056 91017 555 92812=
72745 12866 80705 10078 20044 39636 40159 55001 69901 91155 333
10128 20056 70066 555 92812=
72747 15866 80000 10094 20072 39738 40171 53007 69901 91155 333
10178 20067 70003 555 92812=
72753 32061 20000 10061 20061 39826 40161 53005 91153 333 10167
20044 70081 555 92812=
72764 32361 21710 10110 20100 39529 91209 333 10233 555 92812=
72767 12966 61806 10161 20083 39391 40056 55013 69901 91152 333
10250 20128 555 92812=
72768 12966 62607 10139 20078 39268 40071 51028 69901 91156 333
10267 20139 555 92812=
72772 12766 60000 10100 20072 38796 40140 53008 60011 91156 333
20100 70036 555 92812=
72773 32966 00000 10050 20039 39045 40158 51015 91156 333 10244
20050 70010 555 92812=
72776 12966 02711 10067 20022 38850 40105 53012 69901 91156 333
10256 20067 555 92812=
72777 15966 02318 10122 20000 39181 40084 52006 69931 91156 333
10272 20117 70003 555 92812=
72779 35966 01709 10094 20039 39094 40137 51012 91156 333 10183
20089 70015 555 92812=
72781 35966 00505 10078 20028 39771 40162 51012 91156 333 10239
20044 555 92812=
72785 32766 41611 10044 20022 39314 40154 51014 91156 333 10200
20044 555 92812=
72793 11662 82108 10094 20089 30008 40173 51008 60021 761// 91156
333 10172 20094 70053 555 92812=
72306 31116 80405 10200 20194 39943 40099 53007 710// 91151 333
10322 20194 555 92812=
72315 31958 89904 10183 20172 39357 40098 50003 710// 91154 333
10311 20172 555 92812=
72402 37956 23106 10144 20128 30108 40108 53016 710// 91154 333
10233 20133 70003 555 92812=
72405 31758 80205 10156 20133 30091 40115 52012 710// 91151 333
10194 20144 70028 555 92812=
72406 32962 80507 10150 20122 30058 40113 53012 91154 333 10183
20133 70033 555 92812=
72423 31261 82706 10180 20180 39904 761// 91206 333 10272 555
92812=
72425 32366 62105 10189 20183 39773 40069 50001 91151 333 10250
20183 70348 555 92812=
72504 32966 00406 10150 20078 30105 40112 53012 91154 333 10206
20111 555 92812=
72507 32966 40308 10156 20083 30082 40106 53009 91151 333 10228
20100 555 92812=
72513 32966 02403 10100 20083 39779 40117 53008 91154 333 10178
20044 555 92812=
72521 31528 81005 10120 20120 39651 763// 91202 333 10161 96010
555 92812=
72529 32966 80607 10111 20072 39937 40138 53007 8/077 91154 333
10189 20078 555 92812=
72535 11366 81009 10144 20133 39788 40067 53010 60141 761// 91154
333 70201 555 92812=
72536 31324 80917 10130 20130 39814 710// 91208 333 10178 91025
96010 555 92812=
72544 12261 82806 10133 20128 39856 40068 53006 69901 91155 333
10211 20133 70003 555 92812=
72592 32966 63203 10183 20083 39969 40145 53008 91156 333 10317
20161 555 92812=
72605 35666 83306 10128 20083 39986 40111 53010 91151 333 10222
20078 555 92812=
72783 35966 01707 10083 20067 39652 40170 53014 91156 333 10233
20083 70025 555 92812=
72791 15766 82211 10117 20083 30167 40175 53006 69951 91156 333
10156 20106 70020 91016 555 92812=
71472 36/// /2919 10073 30128 40145 53022 333 10105 20073 70000=
82287 32596 20904 10278 20236 30061 40087 82100 333 20214 59005=
82586 32598 80903 10258 20233 39883 40122 887// 333 20210 59008=
82693 32599 11407 10284 20182 39877 40131 81100 333 20219 59005=
82784 32598 10903 10267 20179 39676 40145 86200 333 20167 59005=
82098 21697 80000 10268 20248 30097 40114 70326 8586/ 333
20234 59001 60334=
37985 42597 31801 10250 20166 30139 40125 54000 83940 555   10039=
37575 42699 81803 10210 20127 39578 40133 52006 885// 555   12028=
94151 35/// /2116 10240 30131 40151 52011=
94290 35/// /1421 10229 30156 40163 52017=
89571 41560 61209 11117 21151 39929 49959 52004 77022 8257/
333 11065=
89573 31960 80927 11114 21170 39938 49961 52007 73833 8802/=
91503 01470 20505 10265 20251 40104 52016 60021 78082 82800
333 10320 55/// 56200 59005 60027 82816=
91520 32480 30000 10254 20252 40093 52009 81902
333 10324 55/// 56900 5//// 81816 81916 83080=
91527 31470 10000 10236 20231 4//// 5//// 70500 81100
333 10325 56000 5//// 81814=
94129 35/// /1308 10279 30103 40126 52018=
94210 35/// /1908 10247 30141 40146 52018=
94289 35/// /1225 10240 30141 40150 52016=
94307 35/// /1014 10226 30143 40183 52018=
94371 35/// /1716 10209 30166 40172 52008=
94379 35/// /1914 10205 30159 40168 52006=
96011 31559 72906 10282 20238 30064 40087 52008 70292 84233
333 10326 56000 57805 58014 82820 82620 80857=
96035 11456 70304 10290 20252 30047 40079 53011 60011 70562 85976
333 10320 56000 57901 59001 81918 84618 80958=
96073 01458 70000 10274 20252 30072 40079 53006 60021 70562 84972
333 10308 56000 57902 59005 69967 84915 80960=
96109 31457 70000 10314 20257 30009 40059 53003 70521 82522
333 10341 56000 59011 82618 83462=
96145 32468 40000 10298 20243 30062 40067 51005 84210
333 10350 56400 57843 59001 84817 80859=
96163 32562 70000 10288 20240 30071 40078 52004 85831
333 10312 56000 57803 59012 81820 84625 80830=
96195 31457 50000 10290 20253 30043 40078 52006 70522 82101
333 10334 56000 57805 59014 82820 80830=
96237 11458 62702 10264 20243 30036 40077 52012 60061 70162 83271
333 10324 56000 57801 59006 83819 80856=
96509 31460 40000 10276 20246 30069 40076 52019 71321 83901
333 10340 56000 57971 59020 81915 82815 80960=
96633 31560 51612 10294 20242 30084 40092 52027 71311 82911
333 10314 56000 58000 82925 80980=
96645 31459 71803 10276 20262 30051 40082 53013 72992 85932
333 10334 56000 57902 59003 81913 85614 80982=
96655 01456 70000 10242 20235 30074 40102 52019 60181 72196 85972
333 10327 56600 57962 59003 60177 81912 85610 80981=
96685 32560 60000 10265 20238 30063 40090 52018 83221
333 10302 56000 57802 59001 83820 80862=
96749 01457 81803 10240 20233 30081 40095 51022 60031 71392 8392/
333 10326 56000 59004 69927 82618 81925 88460=
96805 32560 71209 10290 20250 30086 40096 51017 83231
333 10320 56000 57801 58001 83820 80841=
96839 01450 81404 10234 20219 30089 40094 51022 60051 79596 86976
333 10322 56000 57922 58004 60057 82918 80977 84620 86459=
96933 32560 30903 10280 20246 30093 40096 52014 81111
333 10302 56200 58014 81820=
97014 01558 80000 10250 20239 30004 40097 52009 60061 76096 8492/
333 10245 56009 57902 58014 60067 81920 80980 83822 88460=
97048 11558 70000 10254 20245 30060 40084 51018 60051 71096 84372
333 10320 56000 57903 57801 58010 81920 80980 83820=
97072 31458 53407 10283 20232 30006 40108 53029 71321 83231
333 10352 56000 57801 59001 82819 80860=
97086 11458 72303 10264 20222 30076 40099 51020 60031 71562 83270
333 10288 56000 57000 58015 83617 86460=
97120 32459 40000 10282 20241 30058 40091 52025 82931
333 10314 56000 57903 57805 59006 81917 83360 80980=
97180 32558 60000 10261 20238 30067 40085 51020 82572
333 10313 56000 59009 82620=
97230 01460 41107 10276 20253 30089 40096 52023 69951 70261 82131
333 10300 56000 57802 58002 69957 82820=
97260 32560 40000 10267 20245 30085 40092 53021 83501
333 10318 56000 59001 83620=
97270 32440 20000 10262 20241 30100 40104 53021 82101
333 10316 56000 58004 82813=
97430 32560 62403 10254 20236 30068 40098 52018 84232
333 10294 56300 57832 58012 84820 80860=
97600 01450 80000 10244 20232 30109 40114 58018 60041 72162 82221
333 10310 56400 57844 60047 82815 88458 80857=
97900 32462 71112 10278 20229 30091 40121 52005 86975
333 10304 56200 57921 58004 83917 86820 80980=
96033 31458 40305 10288 20254 30072 53008 71321 82901
333 10304 56000 57902 57803 58014 81920 82817 80980 80860=
96075 31460 72708 10270 20253 30073 40083 51007 72992 85971
333 10310 56000 57902 58001 82916 83618 80960=
96171 32560 50000 10306 20251 30035 40059 51005 82511
333 10340 56000 59016 82620=
96751 01530 82702 10218 20203 39045 48920 52048 60071 71396 889//
333 10257 56400 58005 82920 86620 80980=
96783 01459 60000 10238 20212 39209 48791 52016 60051 71562 85901
333 10305 56000 57900 58000 60017 81918 84628 80980=
96797 31458 70000 10292 20243 30077 40080 52014 71522 84921
333 10325 56400 57940 59007 81915 80981 84817=
96837 32559 60105 10295 20253 30066 40068 52004 83231
333 10328 56000 57800 58008 83823=
83334 32998 20902 10264 20145 3//// 4//// 80004 333 20140 5////=
83383 32598 10000 10206 20154 3//// 4//// 81001 333 20133 5////=
83384 32998 00000 10212 20164 39566 40151 333 20146 59017=
83386 32998 10000 10209 20158 39600 40154 80004 333 20138 59019=
83388 32997 33204 10258 20180 39440 40108 80004 333 20196 59016=
83393 32996 30501 10246 20203 39416 40136 82012 333 20175 59014=
83437 31997 12701 10200 20135 39411 40134 70540 80004
333 20133 59022=
83442 32997 02302 10210 20164 39792 40137 333 20157 59020=
83479 32597 33604 10204 20141 39354 40152 83200 333 20156 59016=
83483 32997 02301 10182 20131 39555 40151 333 20131 59022=
83488 32996 03202 10195 20163 39117 40129 333 20100 59023=
83492 32998 00000 10206 20158 39747 40132 333 20150 59017=
83514 32597 50000 10214 20176 39459 40154 85520 333 20175 59009=
83531 32597 52701 10186 20157 39084 40133 82443 333 20141 59016=
83574 21597 50000 10200 20181 39529 40151 59015 72160 85570
333 20178 60024=
83577 21497 80000 10182 20165 39294 40154 71062 85370
333 20150 59005 60064=
83579 32597 32702 10186 20173 39012 40140 82100 333 20149 59004=
83582 21899 21801 10188 20162 39374 40144 52023 76200 82080
333 20111 69924=
83587 32695 72702 10194 20138 39132 40139 87400 333 20168 59019=
83592 32598 42701 10196 20163 39442 40131 82141 333 20/// 59029=
83595 32997 03201 10228 20188 30043 40128 333 20170 59027=
83642 32496 70000 10182 20167 39339 40118 52016 87200 333 20145=
83683 21697 20501 10190 20173 39150 40112 52016 70260 81240
333 20146 60064=
83687 21697 12303 10170 20160 39116 40126 53004 70262 81400
333 20138 60034=
83692 21497 80000 10168 20158 39104 40152 53009 72126 887//
333 20137 60064=
97182 32559 50903 10280 20257 40088 52024 81231
333 10326 56000 57802 59008 81820 83360 80875=
97722 01459 70000 10249 20243 30101 40115 52015 60061 70262 86970
333 10309 56200 57920 58002 60067 82917 86458=
64700 32665 52812 10374 20191 39744 40070 83202 91155
333 0//00 59001 83840 83075 94939=
64706 31862 71806 10255 20219 4//// 72996 82365 91155
333 0//00 58000 82840 87365 81365 81950 94942 95832=
64709 32665 81616 10340 20192 4//// 8427/ 940//
333 0//00 5//// 84840 88365 94939=
64750 32965 61810 10344 20170 39683 400084 86032 91200
333 0//00 58002 86365 83075=
64754 32962 01804 10374 20224 4////
333 0//00 5////=
64756 32762 33210 10385 20217 4//// 82102 950//
333 59012 52850 82075 94919=
64758 32965 22004 10380 20232 4//// 81132 940// 83075
333 0//00 5//// 81840 81365 94919=
80009 31460 40000 10268 20218 30077 40082 7050/ 81805
333 20256 30/// 55063 561/0 59013 81812 83070=
80022 31960 89902 10254 20243 30084 40086 70510 88004
333 20252 30/// 50680 55073 56//9 58000 88070=
80028 31460 60703 10273 20256 30072 40089 70500 81610
333 20258 30/// 50310 55079 5649/ 59007 81715 83457=
80063 31450 80000 10262 20254 7052/ 8331/
333 10336 20240 30/// 5600/ 83612 88458=
80097 32570 80000 10273 20193 39455 40094 82507
333 20262 30/// 50950 55091 56/9 59008 82623 88270=
80112 12057 80000 10141 20134 37913 60144 75095 8442/
333 20135 32/// 55095 56099 57990 59001 60144 84910 88456=
80144 01120 80000 10232 20232 61074 7959/ 889//
333 20230 32/// 5//// 55031 660// 57982 61072 87740 81905=
85196 12584 60000 10185 20165 39582 40154 55005 60054 86500
333 20175 31/// 56400 58001 70050 86620=
85207 12584 80000 10192 20180 39684 40160 52015 60344 8452/
333 20185 32/// 55063 56790 58001 70340 84630 88457=
85247 32480 60000 10215 20193 39838 40163 52010 86500
333 20200 30/// 56700 58002 86517=
85268 32580 60000 10210 20195 39855 40161 52015 86400
333 20188 30/// 56400 58000 86636=
85289 32480 70000 10196 20184 39988 40148 52008 87500
333 20190 30/// 56100 58006 86610 83640=
85315 31558 80000 10162 20146 39278 40185 52015 71522 8752/
333 20151 30/// 55000 56409 59009 87623 88457=
85245 32570 71810 10197 20155 39670 40154 52012 86530
333 20184 30/// 56409 58000 86630 87357=
64400 32570 51804 10281 20204 30101 40121 83202
333 0//00 59002 83820 94902 95832=
64450 32559 82406 10266 20216 39756 40104 888//
333 0//00 59007 83820 88626 94919 95879=
64458 32560 62606 10312 20226 39701 40091 85241
333 0//00 59002 85826 94939 95835=
16643 32570 62108 10270 20099 30145 40149 58004 85834 333
82825 84635 90730 91115 555 40000 47645 44260 50000 50174=
16648 32660 60815 10290 20073 30060 40145 57019 83106 333 83840
86068 90730 91119 555 30000 10272 20252 30230 40216 50184
60192 40000 47583 44265 50000 50172=
16650 32965 20213 10248 20141 30144 40147 57010 80006
333 90725 555 30000 20318 30292 40248 50234 60216
40000 47643 44255 50000 50184=
16684 32960 60106 10216 20156 30115 40141
57012 80008 333 90730 91110 555 40000
47623 44260 50000 50180=
16732 32965 63608 10222 20148 30130 40142 58011 83034 222// 00194 333
83360 84170 90730 91120 555 40000 47630 44220 50000 50178=
16614 32575 31807 10240 20121 39402 40137 57014 83100 333 90730
91110=
16627 32960 30410 10290 20133 30146 40150 57024 80001 333 90730 91115
555 30000 10280 20264 30248 4//// 50226 60193 40000 47645 44255 50000
50196=
16667 32565 43205 10266 20189 30133 40138 58008 81206 333 81820 84068
90730 91110 555 30000 1//// 20350 30330 4//// 5//// 6//// 40000 47634
44240 50000 50216=
16675 32565 50913 10284 20110 30120 40141 58017 81142 333 81825
83068 90730 91117 555 30000 10290 20272 30246 40238 50228 60199
40000 47626 44240 50000 50184=
16710 11564 60000 10150 20062 39392 40146 54000 60031 70262 84270 333
84820 86358 90730 91112 555 30000 10218 20242 30202 40204 50212 60192
40000 47072 44200 50000 50106 60000 60027 60130 70000 77/// 7R///=
16723 32465 63412 10276 20144 30122 40130 58014 81208 333 81818 86268
90730 91116=
16738 32560 63608 10248 20096 39953 40142 56004 82156 333 82820
83358 85270 90730 91111=
16746 32960 30707 10262 20116 39964 40140 57003 83030 333 90730
91110 555 40000 47509 44240 50000 50178=
42123 32996 02705 10424 20128 58025 =
42479 31995 02910 10424 20128 49943 333 10437 58005=
42542 32996 02710 10394 20183 39436 49975 333 10396 58009 =
40001 3297 0 00000 10332 20059 40049 57010=
40007 32570 31907 10310 20080 40066 56012 82202 333 82830=
40045 32970 02805 10334 20042 40075 58014=
40061 32970 02703 10316 20036 40069 57019=
40080 32965 01905 10306 20038 39398 40073 52023=
40095 32970 00204 10284 20070 39482 40091 57015=
22271 41478 80605 10010 21013 30126 40136 52025 70272 886//   333
88711=
22887 41565 73206 10141 20062 30042 40109 52010 78082 85930   333
85931=
23205 41384 80706 10019 20008 30090 40105 52027 70252 886//   333
88708=
23219 41398 80106 10048 20026 39950 50053 52014 70262 585// 333 88612=
23418 41770 63201 10154 20068 39969 40039 53008 70281 82260=
23711 42598 72204 10157 20038 39881 40045 58013 84530=
23804 41698 62902 10109 20082 39933 40075 53008 78082 84930 333
84934=
27037 42571 72605 10201 20034 39996 40148 57004 83930=
27199 42598 63103 10183 21005 40102 53001 86400=
27271 42798 12707 10214 21007 39971 40116 57011 81100=
27459 42998 13404 10226 20017 39969 40151 57013 80001 10037=
27730 42965 03003 10245 20029 30001 40182 58017=
22165 42471 80511 10008 21012 30092 40154 52023 885//=
22422 42479 70902 10092 20059 30111 40126 52010 87500   333 87615=
22471 42384 83408 10073 20048 30091 40114 52028 889//   333 86709=
22954 42984 72705 10184 21007 39900 40136 57002 87030=
23405 41581 73405 10146 20061 39960 40054 52010 70282 86931 333 86930=
23412 41498 60106 10147 20070 39948 40039 52007 72582 86300 333 84913=
23803 41599 82703 10112 20085 39894 40066 54000 72522 889// 333 88930=
27066 42598 73305 10191 20040 39953 40120 58002 85330=
27083 42499 62803 10165 20023 39891 40102 57001 86900   333 86917=
27113 42697 72701 10209 20084 30017 40153 57006 82330=
27242 42884 62704 10238 20041 30025 40145 57008 82039=
27329 42999 32804 10241 20025 30049 40166 57013 82031=
27355 42984 02706 10219 20043 39990 40141 58022=
27665 42984 42803 10224 20048 39911 40164 57009 80001=
27823 42982 02702 10244 20067 39952 40192 57012=
28009 42698 72905 10179 20002 39882 40080 57001 87900=
28411 42797 63207 10200 20169 39898 40081 54000 83430=
22292 41369 80708 10018 21001 30105 30105 40110 52032 70252 886//=
22365 42468 83606 10032 20008 30101 40128 52028 888//=
22438 42580 62701 10099 20050 30108 40129 51007 81201=
22641 42684 22702 10128 20074 30117 40132 52007 81131=
22695 41584 33204 10114 20040 39882 40071 52010 72581 82901=
22854 42584 62405 10180 20025 39848 40120 52002 83106=
22867 42689 73202 10177 20059 30021 40128 58001 83530=
22939 41697 72103 10187 20062 39996 40150 57004 70282 875//   333
84932=
22996 41570 73005 10163 20019 39911 40090 54000 70282 84970=
27051 42665 63407 10180 20041 39966 40123 58003 82530=
27225 43882 52205 10230 20098 30037 40159 57011 83032=
27252 42584 22708 10220 21017 39958 40132 57011 81101=
27369 42699 72705 10226 20036 30004 40132 57014 87100=
27393 42598 72904 10198 20006 39950 40109 57007 86101=
27479 42999 22803 10223 20030 30007 40131 57015 80003=
27532 42997 02605 10234 20059 39969 40168 57013=
27648 42963 02905 10243 20025 30015 40171 57015=
27679 42975 62705 10223 20056 39942 40151 58025 80001=
28214 42699 62905 10183 20011 39886 40085 57004 85360   333 85933=
31285 /13// 80502 10014 20014 40034 52003 69950 78088 889//   333
10082=
31561 32598 80803 10149 20099 49941 57002 82502   333 10210=
42103 31995 03404 10398 20171 49942 70600 333 10410 58018=
43181 31597 62903 10344 20208 39984 40011 71799 83902 333 10418
57941 57961 57980 58006=
43311 21597 82709 10284 20261 40064 70265 8487/ 333 10287
58003 6001/ 83620 88458=
42516 22596 82303 10186 20152 38351 48443 83822 333 10217 58013
6006/=
43053 32996 32311 10308 20286 40005 81031 222// 20701 333 10332
58005=
16059 31456 61202 10208 20142 39795 40129 57011 71022 86200
333 83812 83830=
16080 31558 62304 10234 20171 30008 40127 57014 71022 83830
333 83830 84357=
16153 32597 62525 10194 20183 39881 40138 58009 84209 91145 333
55300 84830 555 0314/=
16105 11458 63204 10211 20194 30131 40137 58007 71021 83840 333
83815 83358=
16191 32562 20509 10246 20168 30123 40140 58004 82200
333 82825=
16158 32570 42813 10224 20153 30160 40167 51001 84100 91145 333
55303 84822=
16242 32460 42407 10228 20170 30156 40159 58001 84100
333 84818 555 0////=
16310 32697 40806 10250 20198 39940 40152 51002 82204 91145 333
55310 82840 555 0100/=
16261 32568 20914 10300 20116 30054 40122 57012 82230 91145 333
55310 82830 94907 95000=
16320 32560 30706 10262 20196 30126 40138 55005 82230 91145 333
55310 82830 83357 555 0100/=
16420 32597 30108 10260 20160 30083 40146 51002 81900 91145 333
55310 81930 94961 555 0200/=
16429 32470 53114 10230 20207 30154 40165 51003 84930 91145 333
55310 83810 82915=
16470 31256 63014 10208 20182 39942 40172 51009 71011 86500 91145
333 55304 22234 86605 95080=
16410 32568 20907 10256 20148 30015 40150 51001 82200 91145 333
82825=
16560 32582 33409 10266 20148 30158 40164 58006 82201 91145 333
55310 82830=
16066 31540 82407 10214 20135 39886 40135
57011 71022 83520 333 83620 85435=
16084 31556 80205 10242 20172 39969 40128 58013 71022 8426/ 91145
333 55307 84825 84358=
16120 32570 81413 10206 20164 30149 40152 58004 8424/
333 84820 88457 97075 555 0300/=
16090 32660 41603 10236 20137 30051 40130 58008 83230 91145 333
55310
83840=
16170 31658 62509 10225 20169 30103 40147 58003 71022 84270
333 84835 86357=
16206 32462 52707 10246 20181 30147 40155 58003 85200 91145 333
81818 85820=
16460 32558 40807 10248 20143 30130 40150 58002 82270
333 82830 84357 95011=
16362 31557 52509 10237 20200 30132 40149 51004 71011 83250
333 83820 85362=
91165 12966 00511 10233 20194 30132 40181 58007 69901 91153 333
20228 555 92812=
91182 12666 60605 10239 20200 30170 40175 56014 69901 91153 333
20233 555 92812=
91190 32566 40609 10228 20167 30148 40178 91154 555 92812=
91212 12566 20909 10272 20233 30042 40141 51015 69901 91154 333
20272 555 92812=
91285 12566 82604 10211 20189 30166 40180 56014 60021 91153 333
20211 70020 555 92812=
91334 11472 80000 10265 20264 30108 40111 52012 60051 70286 8317/
333 10322 5692/ 58003 70064 555 92812=
91356 11474 60706 10276 20241 30092 40099 51007 69901 70282 83206
333 10311 562/9 59006 70036 83816 83080 555 92812=
91366 32474 20715 10275 20235 30093 40102 51005 81171 333 10297
56235 59009 555 92812=
91369 32474 81011 10261 20246 30081 40084 86181 333 20311 56229
86115 81860 81180 555 92812=
91413 32469 61004 10283 20244 30095 40114 52022 83271 333 10317
56299 58019 70010 555 92812=
91765 32566 23006 10238 20227 30098 40102 56008 82100 333 10317
567// 58000 70010 555 92812-
91245 32466 20711 10270 20250 30147 91150 555 92812=
16008 41450 81711 10098 20088 38510 48471 57007 71022 885// 91145
333 88615=
16020 32565 63004 10234 20154 39828 40104 57024 82236
333 82830 83358=
16110 32570 72602 10236 20164 30113 40136 58003 81250 91145 333
55300
81825 86358 555 0100/=
16134 31156 52516 10082 20045 37848 48511 51005 71022 85200 91140
333 55303 83802 95010 95150 444 38//6=
16149 32570 50707 10232 20169 30121 40137 58004 85200 91145 333
85825=
16181 31559 52609 10240 20160 39907 40142 58003 71011 84230 91145 333
55308 84820 95090=
16219 11/00 90000 10130 20112 38154 48523 51001 69981 76064 91145
333 55300 89/00 95096 95197=
16280 32997 02914 10222 20182 39932 40145 50002 91145 333 55310
555 0217/=
16230 32465 20609 10258 20177 30108 40121 55015 81930
333 81915 81357=
16252 32564 52204 10222 20109 39236 42794 58003 84302 91145 333
55308 81920 83822 94929 95001=
16270 32660 70509 10250 20161 30093 40143 55007 82150
333 82835 87359=
16325 32997 21609 10252 20182 30120 40134 56001 82030 91145 333
82359 98265 555 0214/=
16360 32597 42508 10238 20197 30021 40151 51003 81130 91145 333
55310 81825 83359 555 0////=
16400 32597 63408 10242 20205 39879 40157 51003 83230 91145 333
55303 22/// 83820 84360 555 0100/=
16453 32597 52610 10248 20154 30077 40152 58001 85500 91145 333
55306 85625 98077 555 0100/=
16480 32997 00308 10244 20156 30085 40144 52005 91145 333 55310
555 0311/=
16520 32575 29907 10234 20124 30149 40176 58004 82101
333 82825=
16522 32498 32905 10194 20148 39947 40186 51001 81101 91145 333
55310 81815 555 0200/=
16539 32998 43008 10194 20168 30064 40176 51001 80001 91145 555
0200/=
16550 31596 41206 10252 20186 39982 40154 58001 71000 84200 91145
333 55310 82825 83830 555 0200/=
16564 32498 32612 10220 20178 30021 40159 51001 81101 91145 333
81815 555 0316/=
48826 32497 61404 10275 20272 39907 40034 52008 862// 333
00031 10326 58008 70000 86895=
48839 32998 51806 10276 20265 39981 40045 53011 80008 222//
2//02 333 00/// 10308 58012 70000 85299=
48845 32798 71402 10312 20259 30031 40038 52011 82508 333
00032 10354 58014 70000 82697 87299=
48848 32598 70902 10298 20261 30043 40051 52011 82208 333
00032 10362 58023 70000 82895 87299=
48855 32598 70701 10294 20270 30043 40051 52013 82908 333
00032 10330 58009 70000 82895 81995 87299=
48870 32498 42301 10304 20271 30044 40051 53011 82101 333
00032 10340 58000 70000 82894=
48877 32598 50000 10297 20265 30054 40059 53012 81208 333
00031 10329 58006 70000 81895 85299=
48887 31598 62503 10290 20265 30058 40064 52012 70392 81106
333 00031 10332 58012 70002 81895 86299=
48900 32497 32002 10309 20262 30049 40059 52008 83800 333
10339 58005 81894 83696=
48914 11598 70000 10287 20260 30073 40075 52005 69912 70398
82208 333 01028 10336 58011 70001 82895 87299=
48917 32598 52704 10298 20260 30060 40065 53001 85200 222//
00307 2//00 333 00/// 10313 59006 85895=
48918 32498 72501 10291 20253 30058 40069 53003 82208 222//
00296 2//01 333 00030 10322 58001 70000 81894 87299=
20046 42579 72703 11043 21074 30193 40221 52007 83530=
20069 32981 13403 11061 21088 30209 40222 52006 80001 333
11046=
20087 12877 73504 11043 21074 30191 40202 52006 69902 8703/
333 11041=
20292 32480 72301 10001 21020 30178 40197 52002 875// 333
10006 87613=
20667 41297 80707 11018 21029 30144 40152 52005 70282 886//
333   91110=
20674 31257 70605 10001 21014 30068 40127 57002 71022 875//
333 10002 85705=
20744 42998 10508 10007 21054 30172 40190 52012 81030 333   91115=
20891 32997 03505 10008 21012 30127 40169 57002 333 10020=
23022 42297 80307 10000 21008 30045 40105 52012 885// 333
86607 91111=
23032 41466 83404 10013 21009 30048 40080 52008 70252 885//
333   88617 91106=
23256 42699 81203 10108 21017 30029 40061 57004 8257/=
23330 42598 83606 10127 20071 30006 40023 52009 8443/=
23552 42997 31003 10183 20062 30016 40048 57002 80009=
23631 42699 21303 10224 20065 39964 40002 57014 81201=
23734 42698 21601 10212 20030 39923 40006 57016 82200=
23849 42596 60406 10212 20104 49987 57011 86900   333 86920=
23933 42597 20603 10203 20070 39949 40003 57018 82201=
28275 42599 63201 10197 20110 39932 49987 57015 83302=
28493 41498 81303 10158 20146 39855 49939 57015 78082 889//   333
86712=
28698 41458 80000 10137 20119 39802 49945 57008 79598 889//=
23426 41562 73305 10145 20107 39998 40021 52007 78081 87900=
28367 42596 33402 10219 20080 39884 40000 57019 83300=
28382 41462 83205 10159 20145 39894 49959 57011 78082 889//   333
88914=
28481 41596 83305 10144 20122 39878 49970 57001 78186 883//=
28491 41598 83605 10162 20141 39830 49931 57010 70282 883//   333
88926=
28573 41589 73104 10161 20119 39888 49984 57005 70262 87900   333
86632=
28593 41582 70000 10167 20139 39841 49931 57017 72998 82966=
28786 41598 62605 10184 20127 39818 49962 57004 70262 85232=
28797 42597 72904 10192 20120 39809 49952 57007 85301   333 83925=
28799 41597 82402 10168 20140 39827 49960 57006 78082 889//   333
86922 91112=
23929 42698 31401 10222 20027 40005 57017 82101=
28383 41498 80102 10158 20144 49950 57012 78082 889//   333 86714=
28465 42681 51202 10210 20127 40005 57009 82101=
28586 41599 82902 10177 20143 49943 57004 72580 889//   333 88925=
28588 41567 72902 10154 20138 49961 53002 72582 86970=
28688 41598 73207 10173 20114 49967 57003 70282 86330   333 85930=
28696 41599 82303 10132 20121 49947 57012 72598 82902   333 91112=
28791 41599 62604 10178 20139 49949 57011 70298 85909=
29367 31584 71803 10218 20098 39813 40019 53024 71222 84903   333
10264=
30117 32660 89901 10126 21009 39604 40074 57005 8295/   333 10157=
23662 42999 81303 10141 20062 30011 40050 57002 83031=
23788 32998 70901 10172 21027 39977 40050 57002 80002   333 10182=
23986 41499 80000 10063 20049 40059 57003 60092 70282 8432/   333
10075=
29149 11598 80204 10231 20104 40010 56001 69902 72522 889//   333
10281=
36087 12599 63104 10210 20064 40153 53001 69902 86900   333 10230
95000=
36096 32699 53304 10215 20048 49986 57001 82901   333 10238 91112
95000=
36103 31699 72303 10168 20081 40025 58001 72992 86902   333 10189
95000=
36231 12599 60000 10188 20071 40078 58006 69902 82571   333 10195=
36259 11599 52701 10111 20040 38169 48430 53006 69930 72582 85900
333 10153=
36307 11599 71802 10153 20073 38812 48409 53009 69902 72598 85901
333 10219 85933 95000=
38954 42899 83406 10260 20175 37897 48420 57012 86930 555
10034=
38933 42699 60502 10370 20173 39512 49966 57022 82284 555
10047=
43201 21497 52515 10286 20217 39337 40038 72065 83832 333 10297
56699 58013 6992/ 82615 83075=
43329 32597 31602 10316 20260 30019 40034 82201 222// 20401 333
10373 57862 58005=
31801 11598 80000 10115 20111 39713 49924 54000 60020 70262 8252/
333 10163=
48802 11091 80000 10193 20192 38381 52004 60082 70264 886//
333 01020 10223 48/06 11698 50000 10249 20242 60042 70282
85500 333 01026 10305 70137 85696=
48831 11497 60000 10282 20268 30003 40039 53009 60022 79598
869// 333 01029 10330 58020 70036 83894 86995=
48838 32598 80000 10288 20266 30048 40054 53010 82208 333
00029 10321 58014 70000 82895 88299=
48863 32998 40000 10297 20269 30041 40050 53010 80008 333
00033 10342 58004 70000 84299=
48866 32598 50000 10255 20220 39220 40078 52017 82901 333
00024 10305 58008 70000 82995 82099=
44210 11699 63203 10157 20036 38416 54000 69902 70262 83860
333 10191=
44217 11698 60000 10058 20058 37848 40155 53009 60012 72162
82274 333 10118=
44229 32599 63206 10116 20032 37847 49999 53024 86700 333
10190=
44263 32598 80000 10083 20006 37996 40095 53001 85900 333
10109=
44266 32699 62712 10102 20013 37718 40032 54000 84540 333
10133 91214 555 96108=
44286 11698 82308 10240 20009 38504 49922 57012 69902 72162
885// 333 10279 91214=
44317 32998 63207 10242 20015 38814 49960 52007 86070 333
10286 91214=
44325 11699 52710 10232 20107 38727 49982 53001 69942 70296
82280 333 10264 91212 555 96108=
44329 32598 51807 10150 20036 37701 49974 53001 85500 333
10185=
44338 32499 52307 10242 20043 38374 49842 56004 82548 333
10264 91114=
58968 11665 30603 10259 20240 30103 40110 51014 60112 70198
82430=
58974 12560 80713 10240 20230 30002 40120 51020 60052 885//=
59358 31658 50402 10279 20238 30091 40102 51016 71022 85500=
59559 32570 70703 10280 20238 30080 40108 52025 81108=
59792 32560 30902 10280 20267 30088 40093 51011 83200=
59997 12562 62602 10286 20273 30039 40051 52014 60012 84200=
59158 11562 40402 10278 20239 30009 40106 52015 69922 70182
84200=
59562 32665 63101 10278 20225 30099 40110 52027 86500=
59567 32370 51907 10258 20243 39749 40118 51027 85400=
10205=
98232 31570 21402 10302 20261 40103 53018 70244 82200 333
10330 56999 58001 82820=
58001=
10215 85640=
38613 42999 82601 10282 20136 39195 40013 57016 8802/=
44210 11699 63203 10157 20036 38416 54000 69902 70262 83860
333 10191=
44217 11698 60000 10058 20058 37848 40155 53009 60012 72162
82274 333 10118=
44229 32599 63206 10116 20032 37847 49999 53024 86700 333
10190=
44263 32598 80000 10083 20006 37996 40095 53001 85900 333
10109=
44266 32699 62712 10102 20013 37718 40032 54000 84540 333
10133 91214 555 96108=
44286 11698 82308 10240 20009 38504 49922 57012 69902 72162
885// 333 10279 91214=
44317 32998 63207 10242 20015 38814 49960 52007 86070 333
10286 91214=
44325 11699 52710 10232 20107 38727 49982 53001 69942 70296
82280 333 10264 91212 555 96108=
44329 32598 51807 10150 20036 37701 49974 53001 85500 333
10185=
44338 32499 52307 10242 20043 38374 49842 56004 82548 333
10264 91114=
58968 11665 30603 10259 20240 30103 40110 51014 60112 70198
82430=
58974 12560 80713 10240 20230 30002 40120 51020 60052 885//=
59358 31658 50402 10279 20238 30091 40102 51016 71022 85500=
59559 32570 70703 10280 20238 30080 40108 52025 81108=
59792 32560 30902 10280 20267 30088 40093 51011 83200=
59997 12562 62602 10286 20273 30039 40051 52014 60012 84200=
59158 11562 40402 10278 20239 30009 40106 52015 69922 70182
84200=
59562 32665 63101 10278 20225 30099 40110 52027 86500=
59567 32370 51907 10258 20243 39749 40118 51027 85400=
44203 32599 70000 10111 20040 38309 40025 54000 83816 333
10186=
44213 11698 72305 10162 21131 38662 49999 53007 69902 76162
87500 333 10212=
44215 32698 73605 10150 20038 38315 40000 54000 87500 333
10165=
44225 11597 82702 10085 20066 38170 40039 56009 60012 76162
885// 333 10155=
44230 11596 83405 10103 20079 38674 40044 52003 60032 79598
889// 333 10234 91112=
44237 11598 73605 10127 20081 38371 49992 53023 69942 76162
87500 333 10237=
44256 32999 70205 10171 20053 39206 40002 53012 86052 333
10227=
44265 32699 52703 10146 20085 38774 40076 56004 82204 333
10165=
44275 32698 62905 10138 20040 37666 40100 56003 86500 333
10189=
44302 32599 50504 10200 20030 38978 49997 54003 82340 333
10265=
44313 32699 70000 10195 20034 39205 49963 56002 84570 333
10250=
44336 32999 62305 10256 21022 38565 49934 56005 80003 333
10283=
23074 32998 31405 10082 21014 40112 57004 82031 333 10090=
23711 42598 72204 10157 20038 39881 40045 58013 84530=
23804 41698 62902 10109 20082 39933 40075 53008 78082 84930
333 84934=
24125 32999 33607 10080 21028 39836 40108 57001 80001 333
10092 91112=
24143 32699 63607 10014 21034 30006 40054 53009 86200 333
10040=
24343 32799 33504 10093 21047 39919 40031 53006 81232 333
10121=
24738 12699 63101 10137 20071 39878 40045 53003 69902 84530
333 10151=
24951 11599 70000 10130 20056 39845 49985 52010 69902 70282
84941 333 10178=
24959 11499 80703 10106 20081 39879 40000 52009 60022 70286
8693/ 333 10150 84916=
24966 12599 80602 10117 20056 39790 49991 53020 60030 82941
333 10152=
29313 11598 61705 10199 20120 39857 49969 58018 69902 70282
86900 333 10248 86923=
29612 11598 61106 10175 20129 39828 49966 57017 60232 70292
86300 333 10180=
29698 32998 83601 10231 20058 39563 40024 57007 80002 333
10233=
30758 32999 30102 10174 21074 39250 40004 54000 80001 333
10205=
32027 11597 80904 10060 20051 39993 40005 57007 60050 78082
889// 333 10123=
35406 42697 33202 10281 20041 40181 58017 83200=
38062 42799 83007 10308 20045 83201=
38232 42598 70203 10335 20027 39985 40084 57003 87900=
38388 42998 00000 10369 20006 39995 40064 57005=
38413 42998 00605 10341 20017 39790 40051 57007=
38457 42998 52702 10328 20045 39492 40019 57002 83054=
38507 42998 23005 10255 20142 39992 40088 54000 82030=
38545 42998 60101 10338 20136 39890 40047 57012 84073=
38656 42998 03401 10365 20068 39962 40060 57014=
38687 42997 23604 10343 20046 39813 40024 57009 80001=
38880 42699 13402 10350 20080 39720 40063 57013 81200=
38895 42997 03504 10366 20118 3//// 4//// 5////=
38927 32997 22803 10404 20019 39637 49967 55011 82004=
38974 42998 03404 10360 20002 39723 40022 57017=
98135 31475 61402 10287 20262 40101 53018 70544 82202 333
10324 56399 58006 82819 85076=
98232 31570 21402 10302 20261 40103 53018 70244 82200 333
10330 56999 58001 82820=
98329 31470 30702 10280 20255 40083 5/017 71344 82902 333
10332 56999 58009 83918=
98653 31470 51403 10270 20250 40095 52020 70544 82270 333
10303 56199 58010 82818 83358=
20046 42579 72703 11043 21074 30193 40221 52007 83530=
20069 32981 13403 11061 21088 30209 40222 52006 80001 333
11046=
20087 12877 73504 11043 21074 30191 40202 52006 69902 8703/
333 11041=
20292 32480 72301 10001 21020 30178 40197 52002 875// 333
10006 87613=
20667 41297 80707 11018 21029 30144 40152 52005 70282 886//
333   91110=
20674 31257 70605 10001 21014 30068 40127 57002 71022 875//
333 10002 85705=
20744 42998 10508 10007 21054 30172 40190 52012 81030 333   91115=
20891 32997 03505 10008 21012 30127 40169 57002 333 10020=
23022 42297 80307 10000 21008 30045 40105 52012 885// 333
86607 91111=
23032 41466 83404 10013 21009 30048 40080 52008 70252 885//
333   88617 91106=
29328 32498 82106 10218 20084 39878 40004 57005 8492/   333 10262=
29348 11597 71602 10250 20105 39876 40006 57013 69902 78081 84931
333 10291=
29405 11396 81106 10135 20126 39811 49947 57026 60122 79598 8793/
333 10164 87908=
29937 32599 72304 10222 20119 39852 40053 57006 85530   333 10243=
22113 41484 81204 10054 20016 30057 40120 57002 70252 885//
333 91007=
22271 41478 80605 10010 21013 30126 40136 52025 70272 886//
333 88711=
22820 41568 81601 10135 20089 30004 40137 52002 76186 8357/=
22887 41565 73206 10141 20062 30042 40109 52010 78082 85930
333 85931=
26781 41597 22004 10260 20126 39893 40163 57017 70281 82200=
27037 42571 72605 10201 20034 39996 40148 57004 83930=
33345 42798 11402 10277 20166 39992 40182 57012 81200=
33393 42697 20000 10283 20118 39767 40127 57015 82100=
33658 42997 21106 10286 20078 39868 40145 57015 82030=
33791 42597 49901 10294 20114 30028 40169 57017 84100 333
84830=
33837 42998 01803 10250 20105 30131 40180 58014=
33946 42697 30407 10278 20091 39955 40160 56012 83400=
34300 42697 69902 10287 20109 30005 40181 57013 86200=
34560 42962 40000 10267 20085 30021 40175 57013 84030=
34691 42698 53204 10303 20048 30174 40163 5/009 85200=
34866 42998 60902 10292 20090 40180 58011 86030=
34880 42597 53401 10289 20086 40172 57011 85100=
37472 42598 82904 10230 20125 30201 40179 58002 8697/=
48325 31556 80000 10303 20246 39806 40042 71722 83907
333 10345 59010=
48357 32560 80000 10291 20260 39879 40044 82546
333 10345 58007=
48403 32562 50000 10315 20247 39833 40039 82245
333 10345 58000=
48405 32962 30000 10325 20236 39870 40028 80001
333 10349 59013=
48425 32560 73101 10305 20247 30034 40044 83976
333 10365 58001=
48426 32560 50000 10325 20249 30029 40042 82546
333 10357 59001=
48430 32560 40000 10327 20257 30034 40042 82246
333 10357 59004=
48450 32560 50000 10302 20245 30016 40048 84903
333 10365 59001=
48459 32565 21802 10320 20243 30049 40052 82501
333 10350 58004=
48550 32560 50000 10300 20258 30065 40070 81206
333 10338 58001=
48551 11460 60000 10274 20256 30067 40075 60142 70296 82346
333 1//// 58008 70144=
48565 01410 82805 10253 20249 30075 40086 60302 76362 83877
333 10312 58015 60306 70394=
48568 01462 62103 10286 20259 30067 40075 69902 70192 81236
333 10345 58000 69906 79999=
48569 11460 70000 10280 20236 30038 40078 69952 70362 82946
333 10353 58007 70005=
48583 31559 60000 10300 20255 30069 40075 71322 83906
333 10336 58002=
96011 31559 72903 10282 20238 30064 40087 52008 70292 84233
333 10326 56000 57805 58014 82820 82620 80857=
96035 11456 70302 10290 20252 30047 40079 53011 60011 70562 85976
333 10320 56000 57901 59001 81918 84618 80958=
96073 01458 70000 10274 20252 30072 40079 53006 60021 70562 84972
333 10308 56000 57902 59005 69967 84915 80960=
96109 31457 70000 10314 20257 30009 40059 53003 70521 82522
333 10341 56000 59011 82618 83462=
96145 32468 40000 10298 20243 30062 40067 51005 84210
333 10350 56400 57843 59001 84817 80859=
96163 32562 70000 10288 20240 30071 40078 52004 85831
333 10312 56000 57803 59012 81820 84625 80830=
96237 11458 62701 10264 20243 30036 40077 52012 60061 70162 83271
333 10324 56000 57801 59006 83819 80856=
96509 31460 40000 10276 20246 30069 40076 52019 71321 83901
333 10340 56000 57971 59020 81915 82815 80960=
48327 01562 53202 10280 20223 39653 40033 69902 70161 83906
333 10331 58001 69907 79999=
48331 32565 40000 10284 20245 39813 40039 82556 333 10338
59010 70002=
48353 31562 60000 10310 20240 39752 40033 71722 83966 333
10352 59002=
48356 31562 30000 10305 20263 39848 40040 70191 82235 333
10338 58002=
48375 32562 60000 10282 20235 39823 40046 83946 333 10335
59002=
48378 32560 50000 10322 20251 39987 40038 83906 333 10350
59002=
48381 32562 62102 10315 20237 39818 40035 81346 333 10342
58001=
48407 31558 62402 10313 20249 39904 40042 71033 82246 333
10350 58009=
48431 01560 70000 10296 20246 39734 40043 69932 70262 84376
333 10351 59001 69937 70003=
48432 32560 20000 10315 20254 39877 40041 81945 333 10348
58001=
48455 32562 52202 10315 20251 30045 40050 82146 333 10350
59002=
48456 32460 72006 10311 20269 30031 40047 82936 333 10362
59004=
48480 32560 60000 10297 20272 30055 40059 83245 333 10338
58000 79999=
48500 01565 83201 10273 20249 30053 40058 60022 70396 83546
333 10333 59002 60026 70024=
24266 32699 72603 10051 21014 39912 40079 52002 87500 333
10069 87639=
24329 32599 23601 10142 21036 39778 40055 53002 82200 333
10154=
24507 11698 81201 10108 21014 40099 57003 69902 70282 885//
333 10112=
24671 32699 80000 10101 20055 39556 40028 53018 8657/ 333
10169=
24908 32581 50601 10119 21030 39773 40082 57010 85900 333
10135=
24944 11699 83303 10119 20056 39757 40028 52019 70298 84932
333 10154 91114=
29594 32999 63201 10206 21005 39683 40033 57010 82031 333
10216=
29634 32657 81905 10213 20086 39815 40017 57014 8555/ 333
10215 85640=
29676 32999 70301 10213 20068 39647 40030 57007 80001 333
10230=
30054 12598 60302 10117 20006 39864 40090 52007 69932 85901
333 10156=
30393 32599 53503 10066 21018 38992 49975 52018 82901 333
10096=
30433 32699 42701 10110 21012 39526 40089 57002 82531 333
10127=
30469 32699 23402 10094 21064 39323 40034 52016 82400 333
10132=
30521 32998 22401 10183 20000 39556 40043 57007 80001 333
10218=
30554 32698 13603 10103 21071 39024 40049 53009 81400 333
10136=
30603 32998 81701 10192 20048 39517 40037 57006 80002 333
10225=
30612 32599 62102 10186 20029 39558 40044 57009 81101 333
10204=
30635 32999 20605 10100 21005 39540 40082 54000 80001 333
10153=
30692 32599 82902 10090 20009 39505 49972 53006 883// 333
10137=
30802 32698 80306 10112 20056 38603 48402 53003 85330 333
10215 95750=
30879 31999 23101 10128 21014 39291 49998 53005 70230 80001
333 10172=
30925 32898 83402 10169 20029 39125 40014 57006 82041 333
10209 91116=
35700 42698 20502 10286 20038 30171 40145 57008 82100=
35925 42998 50502 10301 20000 30009 40109 57004 85040=
36034 32698 81805 10230 20076 39785 40034 57024 8595/ 333
10234 84933=
36061 11699 81102 10203 20117 39695 40068 57012 69972 70298
82251 333 10204=
36982 42699 62705 10082 21078 36510 47100 54000 85250=
38001 42998 03618 10228 20185 30182 40155 52013 333 91018=
38353 42698 22801 10296 20167 39176 49984 54000 81101=
38392 42998 60704 10348 20053 39978 40070 57001 86060=
38613 42999 82601 10282 20136 39195 40013 57016 8802/=
38696 32999 51103 10302 20059 39231 40003 58004 84073=
38750 42597 62709 10229 20167 30145 40118 52003 86500=
3FGR5 28124 99056 10859 41698 62418 10300 20270 40070 54000 70122
86/// 22263 00300 2//// 3//// 4//// 80280=
VRVN6 28124 99238 11278 41498 32003 10260 20246 40129 58015 70182
83/// 22265 00260 2//// 3//// 4//// 80250=
DGCP 28124 99406 11388 /1497 82540 10120 20102 49960 53055 70222
887// 22254 0//// 20808 324// 41210 5//// 6//// 80110=
3FHN 28121 99038 11112 41498 32804 10300 20274 40090 53012 70000
82140 22223 02300 20402 323// 40301 80280=
PGDM 28120 99070 10745 41498 73105 10280 20242 40078 56005 7////
86208=
PJKP 28124 99227 71150 41/97 63610 10198 20123 40133 51008 70300
8//// 22223 02207 2//// 330// 41204 8////=
PCKU 28123 99287 11307 41497 82808 10237 20193 40118 50013 70282
887// 22273 04246 20503 329// 40603 80207=
PFRX 28120 99277 11361 41/96 82409 10236 20230 40123 52008 70011
88/// 22214 00240 20402 80232=
ZCBO 28123 99265 30572 42398 70816 10240 20193 40177 56020 87880
22263 00240 20603 322// 40603 80210=
V7AG 28123 99050 10876 41398 72316 10290 20251 40098 53012 70322
87150 22223 02295 20302 327// 40604 80263=
FNHV 28124 99052 10979 41398 63108 10285 20274 40075 5//// 70322
85261 22274 00314 20201 80277=
9KWH 28123 99105 30929 41398 41209 10280 20236 40077 55000 70221
82362 22274 00280 80250=
SHIP 28124 99051 31194 32559 50903 10280 20257 40088 52024 81231
222// 00/// 20000
333 10326 56000 57802 59008 81820 83360 80875=
LAOT4 28124 99454 11629 41/95 92405 10075 2006/ 40193 51008 70442
8//// 22214 00050 20402 330// 40503 5//// 6//// 80065 ICE=
3EYX9 28124 99121 70916 41498 60908 10280 20253 40090 54000 70311
83233 22235 00280 20301 310// 40602 80260=
WBWK 28123 99221 71543 43498 20615 10233 2021/ 40181 57015 824//
22253 20202 306// 40805 80217=
C6OT8 28123 99057 70800 41295 82027 10260 20245 40093 55020 75314
88620 22253 00275 20604 320// 40806 80250=
WTEJ 28124 99435 71245 41297 82614 10123 2011/ 40198 52007 7032/
886// 22221 00133 20203 326// 40406 5//// 6//// 80118 ICE=
SHIP 28124 99141 31443 41/98 17225 10220 40126 70001 314// 40101=
ZCBH6 28123 99258 30828 41498 80509 10195 20162 40160 54000 75152
88700 22223 02210 20403 32315 40806 50806 80176=
SHIP 28121 99289 70785 46/// /2305 10266 40175 91220 22200 00261
10402 70008
333 91205=
SHIP 28121 99606 71468 46/// /3003 10100 40106 91220 22200 00098
11701 70003
333 91204=
SHIP 28124 99281 11263 46/// /0109 10226 20181 40131 52014 8////
22200 06249 11201 70007 80196=
SHIP 28124 99289 11349 46/// ///15 10234 20231 40094 52008 8////
22200 06225 10703 70015 80232=
03026 11470 70304 10085 20068 40025 52016 60031 72582 873// 333
82915 86635=
03171 31580 61302 10122 20029 40003 52005 71522 868/2 333 82826
86656=
06660 34268 82505 10151 20077 39458 40111 54000 76062 8852/ 333
81805 87636 91131=
08284 32982 72405 10296 20052 30087 40158 58006 84041=
08314 32361 72207 10216 20170 30072 40172 50001 876//=
08515 32475 72804 10197 20154 30161 40284 52012 878//
222// 00183
333 82817 87630=
08538 32870 23405 10200 20163 30204 40234 52005 8////=
11782 32668 32106 10248 20149 39799 40093 57026 82242
333 82840=
12882 32780 31603 10295 20121 30003 40127 58018 83200 333 83856=
15480 32560 11401 10242 20206 30175 40190 57012 81200 222// 00166
2//// 333 92417=
16641 32570 53005 10276 20093 30140 40145 55000 81252
333 81820 84360 90730 91115 555 40000 47637 44230 50000 50174=
17038 31456 74952 10200 20176 40163 58004 71022 86750
333 83715 85830 87360 92426=
3FGR5   28124 99056 10859 41698 62418 10300 20270 40070 54000 70122
86/// 22263 00300 2//// 3//// 4//// 80280=
VRVN6   28124 99238 11278 41498 32003 10260 20246 40129 58015 70182
83/// 22265 00260 2//// 3//// 4//// 80250=
02186 41270 51303 10080 20070 30003 40028 50005 72864 85700
333 85705=
02226 42674 61903 10107 20038 39541 49981 53015 86500 333
86640=
02464 46/// /1804 10158 20060 30080 40097 58004=
02590 46/// /2105 10160 20044 30056 40116 56014=
02836 11456 81702 10069 20061 40073 56003 60031 76362 8772/=
02935 47984 02502 10160 20050 40095 52008 70060 80/// 91150=
03005 32581 73508 10086 20011 49988 52021 875// 333 87625=
03772 11562 72606 10128 20048 40032 52027 60021 72586 85961
333 82925 83830 85080 90710 91129=
03917 31468 62904 10133 20036 40020 52010 70241 85973 333
82918 83828=
03953 11575 52804 10129 20072 30034 40070 52017 69931 70381
85300 333 85921 92438=
04018 42485 53606 10062 21034 40093 57001 83708 333 81818
83632 85267=
04077 41360 80506 10035 20014 40109 52002 71566 886//=
04320 32689 13305 11022 21073 30160 40175 51005 81530 333
42020 91115=
04360 32987 80203 10030 21001 30082 40147 51010 80007 333
42999=
06610 35780 82006 10164 20089 39555 40119 50001 8357/ 333
82656 88362 91129=
07149 01575 62609 10143 20078 39997 40104 51025 69921 72586
85902 333 69927 82933 84840 91139=
07510 01565 72504 10167 20116 30085 40157 50011 60021 72065
8683/ 333 69907 83820 85636 86360=
07650 01582 72604 10216 20135 30112 40149 55008 69901 70162
82532 333 69907 82626 83360 87075=
07761 32575 62407 10225 20138 30157 40167 58003 82142 333
82830 86075 95010=
08509 32561 33303 10214 20157 30201 40267 52008 83800 333
81825 91110=
10385 32782 71703 10199 20087 30001 40059 56038 8117/ 333
55305 81850 87362 91114=
10637 11584 82105 10162 20083 39930 40063 53002 69901 70262
8482/ 333 55300 81825 84632 88465 91120 91213 96460=
10870 32586 62702 10186 20074 39589 40097 56008 82832 333
55301 81830 83360 85075=
16560 32582 33405 10266 20148 30158 40164 58006 82201 91145
333 55310 82830=
17609 32582 12108 10275 20147 30115 40117 58008 81100 333
81830=
12330 32565 71206 10184 20112 39994 40098 57033 878//=
12375 32670 29902 10248 20163 39993 40116 57029 82200=
12843 32682 41705 10302 20109 39956 40113 58016 82189 333
82846=
13272 32780 11506 10314 20143 30008 40119 57011 81100 333
81850=
10325 59004 82818 85460=
42361 32996 02701 10432 20220 49958 333 10443 58014=
10143=
85930 333 10222=
58007 81358 555 04410 50003=
41196 32960 03305 10357 20215 39941 49979 333 59007=
41216 32960 03105 10383 20197 39974 49978 333 59011=
42675 32596 23202 10420 20141 49964 82100 333 10426 58006
82830=
42754 31596 41408 10334 20193 39384 49987 71722 84900 333
10391 58006 84825 81930=
42559 32597 22303 10408 20162 49968 82200 333 10415 58009
82825=
42667 32596 32904 10392 20172 39424 49971 83200 333 10408
58007 83830=
42779 32597 33201 10398 20147 39309 49956 82430 333 10421
58006 82830=
42867 32597 51603 10416 20181 49964 84801 333 10424 58004
81625 83830 85075=
43014 31596 71805 10326 20197 39387 40006 70292 85330 333
10356 58014 83620 83825 81930 85360=
43117 32597 42001 10328 20210 40016 84400 333 10345 58022=
85836=
42410 22497 70000 10268 20239 40017 83580 333 10289 58013
6006/ 83618 86458=
42492 32996 60702 10328 20246 49969 80001 333 10349 58019
86075=
42634 32596 12307 10352 20207 40010 81500 333 10380 58012
81630=
42886 32596 31802 10414 20169 49962 81501 333 10442 58009
81620 83075=
42895 32996 01805 10326 20280 49984 333 10386 58013=
42971 32596 42006 10336 20264 49995 81331 333 10386 5796/
58001 81930 83075=
43198 21397 72306 10256 20203 39239 40049 70265 84670 333
10276 56509 58011 6993/ 83615 86458=
43201 21497 52508 10286 20217 39337 40038 72065 83832 333
10297 56699 58013 6992/ 82615 83075=
43213 32597 62702 10358 20204 39711 40015 84838 333 10372
58015=
43329 32597 31601 10316 20260 30019 40034 82201 222// 20401
333 10373 57862 58005=
43353 32496 43203 10302 20239 40074 83831 333 10324 56799
59011 82616 84075=
43369 32596 82702 10296 20254 40071 8447/ 333 10315 59008
83620 88458=
43424 32478 62304 10296 20260 30062 40065 82140 333 000//
10325 59004 82818 85460=
43436 32498 21402 10315 20257 30051 40054 81130 333 0////
10348 58000 81818=
43467 32480 2//// 10303 20239 30077 40082 82101 333 01025
10318 59002 85818=
43497 32476 72310 10284 20247 30046 40063 84570 333 10317
59004 84625 86458=
42361 32996 02701 10432 20220 49958 333 10443 58014=
21802 32999 20103 10016 21022 30159 40183 54000 82030 333
10021=
23256 42699 81203 10108 21017 30029 40061 57004 8257/=
23274 32998 51106 10125 21005 30068 40105 58001 83031 333
10135=
23330 42598 83606 10127 20071 30006 40023 52009 8443/=
23383 32999 20702 10088 21044 39780 40115 57006 80001 333
10090=
23472 32999 51004 10122 21025 30048 40093 54000 80001 333
10135=
23552 42997 31003 10183 20062 30016 40048 57002 80009=
23631 42699 21303 10224 20065 39964 40002 57014 81201=
23678 32998 21602 10121 20021 30011 40066 52001 82030 333
10142=
23734 42698 21601 10212 20030 39923 40006 57016 82200=
23849 42596 60406 10212 20104 49987 57011 86900 333 86920=
23884 12584 51803 10146 20076 39980 40049 53002 69902 83830
333 10165=
23891 32698 40804 10136 20002 39760 40069 57005 82101 333
10143=
23933 42597 20603 10203 20070 39949 40003 57018 82201=
23966 32597 83301 10227 20089 39897 40011 57005 82342 333
10229=
25400 11898 82702 10033 20026 30109 40162 53005 69900 76162
8802/ 333 10056=
28275 42599 63201 10197 20110 39932 49987 57015 83302=
28382 41462 83205 10159 20145 39894 49959 57011 78082 889//
333 88914=
28493 41498 81303 10158 20146 39855 49939 57015 78082 889//
333 86712=
28573 41589 73104 10161 20119 39888 49984 57005 70262 87900
333 86632=
28698 41458 80000 10137 20119 39802 49945 57008 79598 889//=
28722 42598 62905 10231 20085 39956 40076 57014 85101=
28786 41598 62605 10184 20127 39818 49962 57004 70262 85232=
29253 11599 73602 10230 20098 39848 40005 53021 69902 70292
84931 333 10250=
29263 11597 72702 10180 20090 39925 40017 53003 69912 79598
85930 333 10222=
29282 11597 80703 10118 20040 39892 40050 57017 69902 78082
889// 333 10156=
29430 32498 82302 10242 20093 39852 40011 56006 82971 333
20265=
35067 42698 3//// 10228 20043 39788 40039 57008 83200=
35121 42598 72707 10262 20100 39971 40105 57019 83902=
38763 42698 12508 10315 20162 39977 40073 57002 81100=
38911 42998 03104 10383 21033 39731 49992 57009=
38954 42899 83406 10260 20175 37897 48420 57012 86930=
38987 42996 00305 10365 21033 39334 49997 57014=
40356 32960 02705 10330 21030 39142 48494 333 58015
555 04410 50072=
40361 32960 02204 10356 20010 39329 40052 333 58019=
40375 32960 03302 10350 20040 39219 40040 333 58006=
40400 32960 03108 10292 20230 30034 40061 333 58009=
40405 32960 03403 10420 21010 39304 49987 333 58016=
40416 31960 03610 10410 20140 39976 49996 333 59013=
40439 32960 02508 10352 20210 30026 40038 333 58011=
40703 32660 50309 10242 20069 38871 40076 57016 84305 91150 333
81935 83842 83270=
41036 32960 13303 10366 21020 38523 48472 81040 333
58007 81358 555 04410 50003=
41136 32960 00509 10420 21060 39235 49997 333 58011=
41170 32960 03411 10432 20069 39982 49995 333
59017=
41196 32960 03305 10357 20215 39941 49979 333 59007=
41216 32960 03105 10383 20197 39974 49978 333 59011=
41256 32962 00507 10369 20211 39959 49968
333 59008 =
41268 32460 10404 10374 20239 39968 49983 81500 333 59007
81620=
42675 32596 23202 10420 20141 49964 82100 333 10426 58006
82830=
42754 31596 41408 10334 20193 39384 49987 71722 84900 333
10391 58006 84825 81930=
42559 32597 22303 10408 20162 49968 82200 333 10415 58009
82825=
42667 32596 32904 10392 20172 39424 49971 83200 333 10408
58007 83830=
42779 32597 33201 10398 20147 39309 49956 82430 333 10421
58006 82830=
42867 32597 51603 10416 20181 49964 84801 333 10424 58004
81625 83830 85075=
22845 42998 72703 10182 20045 39986 40134 52001 85032=
23205 41384 80706 10019 20008 30090 40105 52027 70252 886//   333
88708=
23219 41398 80106 10048 20026 39950 50053 52014 70262 585// 333 88612=
23418 41770 63201 10154 20068 39969 40039 53008 70281 82260=
23711 42598 72204 10157 20038 39881 40045 58013 84530=
23804 41698 62902 10109 20082 39933 40075 53008 78082 84930 333
84934=
27271 42798 12707 10214 21007 39971 40116 57011 81100=
27707 42982 02001 10244 20078 39919 40192 57010=
27962 42997 43306 10242 20053 40164 57010 80001=
28711 42998 82907 10206 20030 39754 40104 57009 82031=
34391 32697 42904 10291 20103 30122 40150 57014 82202=
35121 42598 72707 10262 20100 39971 40105 57019 83902=
43014 31596 71805 10326 20197 39387 40006 70292 85330 333
10356 58014 83620 83825 81930 85360=
43117 32597 42001 10328 20210 40016 84400 333 10345 58022=
06011 32582 73306 10084 20026 39948 40015 52011 87800 333
81825 87633=
06180 32581 71411 10150 20099 30052 40058 57030 84878 333
81820 83656 85361 91130=
07110 32675 52506 10137 20061 30013 40126 51015 85230 333
85836=
08001 11220 82402 10168 20158 30085 40165 52007 69951 75155
8477/ 333 92434=
08221 32565 62606 10221 20087 39519 40174 52002 86531=
08306 32465 62109 10240 20180 30169 40175 58005 82801=
08495 32780 12006 10269 20146 40201 54000 81501 333 81650=
08589 32475 50509 10250 20164 40148 82500 333 58003 82610=
08594 32465 50208 10242 20154 40157 85500 333 59004 85613=
10338 11684 71806 10159 20075 39932 40002 56034 69901 70262
8387/ 333 55300 81835 83645 87460 91114 91211=
16242 32460 42404 10228 20170 30156 40159 58001 84100 333
84818=
16320 32560 30703 10262 20196 30126 40138 55005 82230 91145
333 55310 82830 83357=
16420 32597 30104 10260 20160 30083 40146 51002 81900 91145
333 55310 81930 94961=
16597 32565 10108 10255 20163 30064 40149 50001 81500 333
81625=
16716 32565 62304 10268 20177 30120 40138 57017 82186 333
82830 83360 86070 90730 91121=
16754 11565 20403 10250 20135 30096 40141 58004 69911 70161
81230 333 90730 9111029=
17060 32960 00407 10260 20131 40155 57010=
17128 32670 30000 10226 20087 39077 40136 57011 83200 333
83840=
17170 32670 22704 10176 20102 38325 48486 56002 82100 333
82835 10107=
17200 32670 43204 10250 20124 39162 40095 57006 84200 333
84840=
11518 32681 61703 10198 20113 39663 40079 57020 81246 333
81833 86272=
15420 36560 21102 10282 20077 30061 40164 57015 82100 333
91003 91204=
15614 31698 30704 10256 20076 39473 40132 57016 70300 82240=
21908 32999 43605 10076 21034 30054 40140 53012 80001 333
10107=
24982 12598 80000 10047 20047 39631 40110 53017 60020 889//
333 10108=
25325 32999 20204 10045 21088 30004 40163 52011 80001 333
10094=
28255 41599 32703 10230 20093 39876 49994 57026 70281 83300=
28642 41597 83112 10224 20089 40036 57012 78082 8635/ 333
91116=
29557 31698 32401 10248 20089 39790 40029 57006 70291 82201
333 10256=
29846 32597 52005 10224 20104 39694 40043 57007 83231 333
10234=
30777 32999 22703 10157 21144 39406 40005 53003 80002 333
10183=
31174 31399 80205 10011 20000 30024 40035 53007 70341 886//
333 10132=
31263 31599 83103 10085 20045 39463 49965 53005 70192 86904
333 10166=
31624 32599 52401 10180 20094 49922 53006 85900 333 10281=
36087 12599 63104 10210 20064 40153 53001 69902 86900 333
10230 95000=
36096 32699 53304 10215 20048 49986 57001 82901 333 10238
91112 95000=
36103 31699 72303 10168 20081 40025 58001 72992 86902 333
10189 95000=
36231 12599 60000 10188 20071 40078 58006 69902 82571 333
10195=
36259 11599 52701 10111 20040 38169 48430 53006 69930 72582
85900 333 10153=
36307 11599 71802 10153 20073 38812 48409 53009 69902 72598
85901 333 10219 85933 95000=
36974 42798 71801 10202 20036 37927 48440 57005 86903=
58006 82830=
50564 11570 70208 10175 20031 49935 52022 69911 70080 879//
333 91121 91525=
63624 31682 42309 10352 20176 40083 70300 82101
333 58003 82835 83080=
71841 36/// /1106 10107 20061 39805 40196 51001 333 10197 20033
70000=
71433 36/// /0613 10092 20074 39957 40187 53019 333 10163 20064=
41150 32964 03218 10349 20207 40004 333 59012=
41194 32960 03111 10342 20226 39969 49981 333 59009=
41217 32960 03212 10386 20228 39949 49978 333 59012=
58010 81625 =
43157 21597 62302 10264 20221 39421 40043 70252 84470 333 10290
58007 6993/=
42571 32697 12904 10430 20123 49952 81100 333 10443 58010=
42874 31596 62504 10408 20160 49959 71702 84934 333 10431 58004
82625 83830 81930 86075=
43041 32597 72304 10320 20230 39410 40002 84932 333 10377
59003 83625 81930 85360 87075=
43110 21497 72305 10276 20238 40055 70262 85970 333 10301 58005
6001/ 82712 83822 81930=
42071 31696 42503 10412 20152 49945 70600 82402 333 10427
58025 82640=
42101 31995 02701 10412 20184 49946 70600 333 10420 58019=
42131 31995 02701 10434 20108 49949 70600 333 10438 58019=
42182 31994 02905 10414 20203 49948 70700 333 10424 58019=
42339 31995 02302 10404 20139 49977 70500 333 10416=
42379 32996 00901 10320 20255 49960 333 10333 58017=
42571 32697 12902 10430 20123 49952 81100 333 10443 58010=
42701 32496 62303 10370 20165 39272 49953 85301 333 10400
58012 83618 83825 81930=
43041 32597 72302 10320 20230 39410 40002 84932 333 10377
59003 83625 81930 85360 87075=
43110 21497 72303 10276 20238 40055 70262 85970 333 10301
58005 6001/ 82712 83822 81930=
43314 32597 32902 10300 20240 40074 81131 333 10320 59006=
43333 21596 60000 10272 20255 40070 70296 84431 333 10308
58000 6010/ 82620 83825=
43450 32476 32303 10296 20238 30057 40065 82130 333 00025
10316 59008 70009 82816 83358=
43473 32498 33203 10180 20148 38123 48485 81130 333 01013
10208 58003 79999 81810 83360=
44416 31465 82602 10340 20237 39222 49961 71011 8461/ 333
10348 58011=
44438 32558 70000 10308 20266 39851 49974 83470 333 10322
58020=
44454 31456 52604 10252 20190 38571 48410 71700 83960 333
10285 58011=
91165 12966 00506 10233 20194 30132 40181 58007 69901 91153
333 20228=
91245 32466 20706 10270 20250 30147 91150=
91285 12566 82602 10211 20189 30166 40180 56014 60021 91153
333 20211 70020=
91334 11472 80000 10265 20264 30108 40111 52012 60051 70286
8317/ 333 10322 5692/ 58003 70064=
91348 11474 71303 10263 20239 30063 40115 52010 69901 70282
83106 333 10300 563/9 58002 70074=
91356 11474 60703 10276 20241 30092 40099 51007 69901 70282
83206 333 10311 562/9 59006 70036 83816 83080=
91366 32474 20708 10275 20235 30093 40102 51005 81171 333
10297 56235 59009=
91369 32474 81006 10261 20246 30081 40084 86181 333 20311
56229 86115 81860 81180=
91376 11474 80805 10266 20244 30103 40107 50003 60011 70282
85871 333 10300 56229 59003 70038=
91408 11474 61204 10267 20243 30081 40119 52027 60051 70282
83202 333 10322 562/9 58020 70046=
91413 32469 61002 10283 20244 30095 40114 52022 83271 333
10317 56299 58019 70010=
VRVS5   28124 99360 11705
41198 80212 10150 2012/ 40220 52010 70322 889//
22223 00200 80130=
58025 82640=
58012 83618 83825 81930=
58005 6001/ 82712 83822 81930=
58020=
10317 56299 58019 70010=
41198 80212 10150 2012/ 40220 52010 70322 889//
22223 00200 80130=
86500 22200 10504 70018 333 91109=
84202=
48602 31564 73009 10289 20246 30079 40082 70592 83832 333 10320 81824
83630 87078=
48603 31470 70000 10282  20257 30081 40086 71322 82942 333 10318
81917 87078=
48632 11362 70000 10178 20172 38458 60021 71398 83942 333 10225
81908 83612 87078=
48674 31560 70000 10285 20254 30026 40075 70522 81452 333 10335 81625
85364 86077=
48679 11564 60000 10286 20246 30030 40075 69931 70182 81542 333 10331
81622 86080=
87828 32980 30000 10048 20023 30086 40139 52009 80002 333 10085
20005 30000 56007 83070=
71421 46/// ///// 10015 20011 39492 40208 53024=
65528 32460 4//// 10288 20213 39649 40116 83230
333 59003 83813 83360=
65536 32460 3//// 10295 20231 39701 40125 83200
333 58003 83813=
65548 32460 42604 10290 20212 39742 40122 84200
333 59002 84815=
65555 32560 61808 10295 20239 39687 86200
333 59006 86820=
65557 32460 60000 10297 20233 39879 40116 86200
333 59009 86815=
65562 32460 6//// 10310 20236 85230
333 85813 83360=
65578 11460 71804 10298 20258 30108 40117 69961 70396 86831
333 59010 82813 86620=
65592 32460 5//// 10291 20249 30096 40119 84902
333 59015 84813 81923 83076 95333 95334=
65599 32462 6//// 10295 20239 30040 40114 85962
333 59015 85915 95334=
51076 11680 32702 10190 20065 39251 40093 57007 69901 70080
82462 333 00003=
51133 32680 11403 10234 20050 39458 40073 57013 81102 333//
05407=
51243 32880 12202 10266 20045 39544 40057 57005 81402 333
05107=
51288 11680 62903 10105 20020 38299 57004 69901 70080 85202
333 00153=
51431 32680 10902 10272 20038 39299 40046 57013 81102 333
05402=
51463 32680 13607 10201 20017 39042 40091 57004 81100 333
00253=
51495 32680 43615 10234 21003 40116 57011 81102 333 00255
91124 91534=
51644 32980 12202 10277 20055 38835 40014 57016 80002 333
05203=
51656 32780 22503 10288 20033 38994 40017 57011 82100 333
05100=
51709 32880 72705 10285 20049 38633 40013 57002 84962 333//
05201=
51716 32970 10902 10302 20029 38795 49998 57013 81062 333//
05203=
51765 32980 52702 10307 20043 39082 40006 57012 80002 333
05102=
51777 32972 70000 10288 20095 39049 40016 57012 80002 333
05151=
51811 32965 70000 10301 20054 38688 40001 57008 83032 333//
05203=
51573 32880 52902 10342 20006 39952 49994 57005 83462 333//
00000=
51828 32970 13401 10304 20041 38551 49996 57012 80002 333//
05104=
51855 11780 60000 10258 20087 40019 52002 69901 70098 85402
333 00052=
51931 32970 72501 10297 20140 40015 57006 80002 333// 00003=
52203 32780 52503 10268 20000 39198 40013 52003 81102 333
00252=
52267 32980 70000 10290 21020 38968 49989 57003 80002 333//
05401=
52495 32975 11607 10248 21091 38605 40029 57005 80002 333//
05503=
53502 31959 72207 10271 21037 40027 57001 70700 83032 333//
05503=
55228 32780 62906 10149 21199 36034 57005 86900 333 00100=
55279 32780 42904 10085 21096 35730 54000 82402 333 00101=
55299 11780 72004 10060 21012 35876 52003 60021 70098 86902
333// 00201 93901=
55472 31680 73205 10094 21055 35762 52004 71400 86902 333
00251=
55578 31780 71102 10134 20052 36356 57004 70090 879// 333
00354=
55591 11579 80702 20049 36519 52015 69901 78000 889// 333//
00100=
55664 11880 21406 10135 20046 35998 52003 69901 72598 82900
333// 00153=
55696 11580 70903 10103 20056 36338 54000 60021 72580 8624/
333// 00356=
55773 11470 71103 10058 20032 36017 54000 60021 70080 874//
333// 00152=
56106 11680 82911 10061 20014 36241 52020 69951 78000 889//
333// 00454 91120 91529=
56116 11679 82910 10088 20026 36349 52014 69931 79198 889//
333// 00102 91121 91527=
56137 32780 72003 10163 20036 36793 57005 86902 333// 05107=
56312 11480 81802 10116 20106 37062 52001 60021 78080 889//
333// 00252=
98526 31570 80000 10279 20255 40069 52014 71322 83977 333
10314 56999 59007 83920 86359 88275=
48820 32598 71602 10299 20267 30031 40039 52016 71792 85908
333 00030 10338 58031 70000 83895 82995 87299=
48826 32497 61404 10275 20272 39907 40034 52008 862// 333
00031 10326 58008 70000 86895=
48838 32598 80000 10288 20266 30048 40054 53010 82208 333
00029 10321 58014 70000 82895 88299=
48839 32998 51806 10276 20265 39981 40045 53011 80008 222//
2//02 333 00/// 10308 58012 70000 85299=
48845 32798 71402 10312 20259 30031 40038 52011 82508 333
00032 10354 58014 70000 82697 87299=
48848 32598 70902 10298 20261 30043 40051 52011 82208 333
00032 10362 58023 70000 82895 87299=
48855 32598 70701 10294 20270 30043 40051 52013 82908 333
00032 10330 58009 70000 82895 81995 87299=
48870 32498 42301 10304 20271 30044 40051 53011 82101 333
00032 10340 58000 70000 82894=
48877 32598 50000 10297 20265 30054 40059 53012 81208 333
00031 10329 58006 70000 81895 85299=
48887 31598 62503 10290 20265 30058 40064 52012 70392 81106
333 00031 10332 58012 70002 81895 86299=
48900 32497 32002 10309 20262 30049 40059 52008 83800 333
10339 58005 81894 83696=
48914 11598 70000 10287 20260 30073 40075 52005 69912 70398
82208 333 01028 10336 58011 70001 82895 87299=
48917 32598 52704 10298 20260 30060 40065 53001 85200 222//
00307 2//00 333 00/// 10313 59006 85895=
48918 32498 72501 10291 20253 30058 40069 53003 82208 222//
00296 2//01 333 00030 10322 58001 70000 81894 87299=
98748 11468 82201 10278 20/// 40082 51024 69901 71544 8452/
333 10328 56999 59007 84618 88458=
98526 31570 80000 10279 20255 40069 52014 71322 83977 333
10314 56999 59007 83920 86359 88275=
98748 11468 82201 10278 20/// 40082 51024 69901 71544 8452/
333 10328 56999 59007 84618 88458=
40180 32960 03306 10270 20187 30071 40117 56002=
40362 32962 04405 10350 20070 39560 40057 333 58033=
40373 32960 03402 10420 21010 39628 40013 333 58004=
40430 32960 02603 10410 21020 39330 40004 333 59003=
40438 32960 02705 10440 21020 39349 40002 333 59012=
40582 31956 03506 10435 20025 40027 57019 70500 333 00049=
41024 32960 03107 10360 20190 30016 40035 333 58002=
41114 32560 21603 10327 20058 37952 48461 82100 333 59001
82825=
41128 32960 01104 10390 21040 38750 48469 333 58013=
41140 32960 03107 10350 20280 30007 40015 333 58003=
41150 32964 03209 10349 20207 40004 333 59012=
41194 32960 03106 10342 20226 39969 49981 333 59009=
41288 31957 01906 10356 20254 39970 49993 70600 333 59009=
41316 32562 12006 10321 20247 39988 40013 81501 333 58008
81625=
40743 32962 03404 10348 20000 38958 400/2 91150=
40745 32965 11506 10332 20059 38950 40010 56012=
40766 32960 03008 10320 20044 23863 40031 57013 91150=
40769 32660 12706 10302 21034 38252 40010 56007 81100 91150
333 /6840=
40809 32665 12305 10376 20046 38438 49954 56009 81100 91150
333 81850=
40821 32960 01502 10356 21007 38712 49983 5702/ 91150=
40841 32960 03305 10360 21004 38190 49962 57020 91150=
40848 32960 01103 10372 20018 38448 49961 57022 91150=
40856 32660 31206 10394 20081 38542 49934 57017 83400 91150
333 83640=
40875 31950 01905 10372 20192 39968 49972 57023 70500 91150=
41136 32960 00509 10420 21060 39235 49997 333 58011=
41196 32960 03305 10357 20215 39941 49979 333 59007=
41256 32962 00507 10369 20211 39959 49968 333 59008=
40007 32570 31907 10310 20080 40066 56012 82202 333 82830=
40045 32970 02805 10334 20042 40075 58014=
40712 32660 20305 10242 20052 38646 40059 57012 82100 91145
333 82840=
40718 32960 30703 10228 20213 301/0 40129 54000 80005 91150
333 83270 90202=
40732 32560 61606 10246 20166 30149 40129 51004 82250 91150
333 82830 86360=
40736 32560 22804 10252 20174 30159 40132 54000 82200 91150
333 82830=
40739 32965 06005 10286 20042 38608 40022 56006 91150=
70200 11262 82405 10006 20000 30184 40191 51008 69901 753// 91153
333 10017 20000 70010 555 92812=
70273 32966 44952 10067 21017 30077 40127 53009 91153 333 10172
20056 555 92812=
70326 31648 40000 11017 21017 30179 40199 53010 710// 91152 333
10156 21017 555 92812=
72223 32461 42903 10244 20233 30088 40164 51017 91156 333 10328
20239 555 92812=
72235 12266 44952 10206 20206 30028 40144 56004 60051 91154 333
10333 20200 70051 555 92812=
72240 31959 01802 10244 20239 30136 40155 55003 710// 91153 333
10311 20233 555 92812=
72251 12966 00706 10239 20217 30119 40138 58001 60141 91151 333
70137 555 92812=
72253 12966 80103 10200 20183 39868 40144 53019 60021 91153 333
70066 555 92812=
72261 35966 20503 10206 20178 39791 40143 53003 91153 333 10350
20206 70053 555 92812=
72389 32966 03104 10189 20111 30025 40140 56001 91156 333 10339
20189 555 92812=
72414 11459 62002 10194 20189 39725 40071 50001 69931 710// 91154
333 10222 70447 555 92812=
72428 11356 80902 10156 20150 39773 40064 56005 60131 761// 91151
333 10189 70163 96010 555 92812=
72438 12461 82303 10167 20150 39783 40069 51010 69901 91155 333
20167 555 92812=
10156 21017 555 92812=
96747 01550 72203 10252 20235 40084 69901 72996 84931
333 10332 56000 58001 69907 79999 81920 83620=
VRVS5 28124 99360 11705 41198 80212 10150 2012/ 40220 52010 70322
889// 22223 00200 80130=
C6FE5 28124 99258 71785 41498 40612 10230 2019/ 40260 56015 70200
8311/ 22264 00283 20302 306// 40804 80200=
SHIP 28124 99152 31078 41/97 31210 10260 40127 70111 222// 00289
20101 312// 40303 5////=
96747 01550 72203 10252 20235 40084 69901 72996 84931
333 10332 56000 58001 69907 79999 81920 83620=
71043 32383 60000 10017 20001 30093 40185 51015 84601 333
10175 20011 55141 01112 22520 70000=
71078 11374 82304 10083 20082 39607 40037 53012 69901 70265
885// 333 10139 20082 55005 70106 90937=
71600 46164 32905 10104 20081 30038 40044 51012 333 10128
20077=
71624 32674 80804 10114 20064 39928 40136 50000 81572 333
10194 20081 55111 70000=
71749 36964 00804 10114 20054 39940 40182 53009 333 10166
20068 70000=
71863 36664 81704 10118 20100 39357 40030 55007 333 10218
20117 70005=
71877 11786 63605 10051 20036 38839 40079 53023 69901 70388
81550 333 10202 20017 55110 79999 90961=
71913 36964 01409 10024 21028 30087 40124 56015 333 10034
20006 70005=
71917 32786 11502 11058 21117 30208 40222 51007 81570 333
11032 21090 42007 55166 00849 22883 70000=
71940 11782 83203 10068 20038 39332 40129 53018 69941 76172
885// 333 10095 20062 70018 90925=
71957 36964 60803 11002 21031 30116 40204 50000 333 10024
21005 70000=
72206 32361 62605 10240 20230 30135 91203 333 10350=
72208 32966 02505 10267 20222 30096 40111 52003 91156 333
10356 20250=
72211 32566 42803 10267 20239 30151 40163 51013 91153 333
10350 20239=
72231 31556 80000 10250 20239 30151 40164 53010 710// 91153
333 10339 20239=
72248 32466 82902 10210 20200 30058 91204 333 10328=
72250 32261 63402 10260 20250 30135 91214 333 10350=
72259 32964 63404 10206 20183 39958 40158 53014 91153 333
10350 20200 70058=
72265 32966 00903 10194 20161 39186 40147 53007 91153 333
10356 20194=
72270 32966 00103 10217 20094 38838 40122 51011 91151 333
10350 20217=
72274 32966 01603 10244 20044 39230 40105 53008 91155 333
10383 20233=
72290 32962 00000 10178 20156 30111 40122 56003 91151 333
10222 20178=
72304 37356 80603 10211 20200 30101 40103 53016 710// 91151
333 20206 70117=
72326 12666 62205 10194 20189 39758 40105 53006 69931 91153
333 10300 20183 70135=
72353 32966 20000 10161 20150 39708 40168 51016 91153 333
10294 20150=
72363 32966 02005 10139 20106 38956 40171 53007 91153 333
10278 20122=
72365 32966 03502 10161 21011 38413 40140 53010 91156 333
10300 20150=
72386 32966 01905 10300 20061 39343 40081 56002 91156 333
10400 20294=
72405 31758 80203 10156 20133 30091 40115 52012 710// 91151
333 10194 20144 70028=
72440 32966 04952 10156 20139 39695 40143 53012 91154 333
10256 20133 70036=
72451 32966 02204 10161 20106 39271 40164 53013 91156 333
10272 20128=
72532 32366 82704 10130 20120 39831 91159 333 10233=
72537 31664 80804 10110 20100 39861 761// 91203 333 10178=
72654 11040 20000 10056 20056 39698 40165 53015 69931 710//
91155 333 10172 20028 70005=
71082 36056 81202 11068 21086 30176 40217 50004 333 11070
21086 70000=
71120 11432 80305 10082 20077 39408 40046 53011 60081 76188
885// 333 10190 20082 55111 70080 90973=
71627 36564 80104 10108 20064 30094 40137 53013 333 10172
20098 70005=
71803 11156 80504 10057 20046 39906 40090 51013 60041 71086
887// 333 10175 20048 55036 70074 90921=
71811 11683 70204 10082 20021 30077 40145 52024 69921 70162
86530 333 10089 20051 55000 20855 70004 90931=
71816 11374 70408 10037 20015 30156 40218 52023 69901 70388
87700 333 10035 20025 55000 79999 90961=
71821 36264 83204 10017 21001 39861 40209 53005 333 10057
20007 70000=
71836 36056 83603 10005 20005 30216 40228 51002 333 10097
21003 70005=
71867 31559 71202 10098 20097 39722 40047 58007 71041 81578
333 10160 20047 55015 20559 70052=
71896 11264 83605 10059 20056 39292 40110 53013 69941 76166
887// 333 10122 20059 55006 70006 90973=
71909 36664 33310 10013 20000 30221 40264 51002 333 10033
20008 70000=
71915 31108 81105 11068 21073 30229 40314 56004 74522 886//
333 11010 21083 44008 55183 20821 70000=
71918 460// /2104 11041 39855 40276 56002 333 11047 21052=
71924 11374 82605 11120 21141 30116 40206 53005 69901 70372
885// 333 11101 21134 42036 55017 70004 90923=
71925 32474 60205 11125 21140 30224 40261 50000 86500 333
11049 21133 42033 55141 23624 70000=
71926 11362 81112 11022 21032 30173 40196 56022 69901 75675
886// 333 10006 21022 44038 55007 10412 21943 79999 90973=
71934 11128 83105 10019 20019 39863 40117 53004 69901 75165
887// 333 10114 20018 55020 21222 70022 90946=
71938 32374 80205 11075 21091 30231 40261 52001 885// 333
11049 21083 42006 55000 79999=
71945 31683 60000 10008 20007 39688 40154 52016 74111 86500
333 10156 21003 55139 70000=
72226 11566 82203 10222 20211 30078 40149 51019 60111 761//
91153 333 10356 20222 70170=
72308 32366 80803 10178 20150 30101 40108 53015 91151 333
10300 20172 70246=
72334 32366 62703 10200 20189 30038 40139 53010 91153 333
10322 20200 70076=
72374 35966 01102 10133 21028 38541 40148 53014 91156 333
10322 20133=
72476 32966 01105 10156 20028 38558 40130 53003 91156 333
10289 20139=
72486 35966 00000 10067 20039 38111 40129 52006 91153 333
10278 20067=
72488 32966 04952 10133 21006 38672 40143 56004 91156 333
10306 20133=
72520 11548 80903 10122 20111 39652 40097 53001 69951 761//
8/57/ 91151 333 10161 20117 70066 96010=
72547 11032 83607 10122 20122 39687 40074 51014 60011 710//
91155 333 10156 20122 70023=
72562 32966 01103 10089 20067 39184 40150 50003 91156 333
10250 20061=
72645 11761 80806 10089 20072 39871 40127 51013 60111 761//
91156 333 70147=
72662 32966 01102 10111 20067 39015 40110 55006 91155 333
10233 20094=
72681 32966 03003 10139 20117 39147 40137 53007 91156 333
10272 20139 70005=
72764 32361 21705 10110 20100 39529 91209 333 10233=
72773 32966 00000 10050 20039 39045 40158 51015 91156 333
10244 20050 70010=
72793 11662 82104 10094 20089 30008 40173 51008 60021 761//
91156 333 10172 20094 70053=
70026 32266 81106 11072 21078 30208 40214 51007 91153 333
11044 21072 4/010=
70231 32766 82803 10044 20006 30065 40193 51009 91153 333
10128 20044 70003=
70261 32866 40802 10028 20000 39997 40169 53006 91153 333
10128 20022=
70308 12566 81304 10033 20006 30239 40250 56009 69901 91153
333 10061 20028=
70316 12466 83404 10028 20011 30233 40271 56004 69901 91153
333 10078 20028 70008=
70350 32966 43008 10089 20011 30118 40160 51002 91153 333
10156 20089=
70361 32766 20000 10017 20011 30070 40087 53005 91153 333
10161 20006=
71051 46/// /0808 11132 21183 30177 40289 53001 333 11094
21135=
71081 17432 82306 11024 21033 30276 40287 53003 69951 7454/
333 11008 21035 70005=
71090 36264 81002 11039 21039 30246 40281 55002 333 11009
21095 70000=
71145 11774 61804 10134 20076 39856 40142 56001 69901 70182
83230 333 10201 20129 79999 90941=
71603 32574 73606 10107 20043 30028 40080 51012 87830 333
10139 20075 55122 79999=
71709 11166 80505 10066 20059 30056 40069 52019 69982 761//
88700 333 10120 20052 55077 70008 909//=
71825 11369 80506 10016 21003 39539 40212 53014 69901 71652
887// 333 10056 20004 55002 70002 90938=
72394 35966 00000 10111 20100 30041 40129 56004 91151 333
10256 20111=
78897 32570 71207 10269 20216 40155 51012 86831 333 02396
10316 20242 59013 70016 83820 84646=
76225 32940 00000 10189 20040 38605 40084 5//// 91150 333
10350 20189 30/// 58037 70000=
76342 32840 80401 10198 20183 39462 40143 57001 70322 84070
91140 333 10380 20198 31019 56050 58084 70409 84356 84458=
76382 32570 40000 10204 20166 38892 40075 52013 82470 91145
333 10375 20200 31018 56550 58051 70152 82630 82357=
76458 32958 03201 10236 20192 30084 40094 54000 91150 333
10317 20230 30021 59011 70000=
76548 32465 40201 10268 20255 30092 40122 5//// 81204 91155
333 10312 20264 30/// 56204 58032 70000 81813 81917=
76556 32960 70000 10178 20164 39086 40086 56004 8705/ 91135
333 10315 20178 30015 5604/ 58029 70000 87360=
76581 01965 60101 10220 20176 39053 40112 52/// 69903 70596
86070 91210 333 10319 20199 31019 55093 56060 58028 69903
79999=
76644 11560 71102 10241 20226 30125 40135 51008 69901 72000
8702/ 333 10400 20240 30023 5603/ 58012 79999 87435=
76805 31865 71301 10257 20234 30110 40110 52005 70322 8707/
91150 333 10320 20253 30025 56/9/ 58006 70000 87356=
78016 32464 82509 10239 20224 30105 40146 52015 86808 333
10277 20224 70081=
78325 31561 20801 10250 20225 30097 40154 53007 70400 81903
333 10328 20240 30/// 55105 56909 59009 81920=
78384 32560 30803 10276 20252 40142 81254 333 10315 20253
59008 81820 83074=
78397 32574 73602 10268 20246 30124 40140 85832 333 01200
10330 20256 59009 81822 85632=
78526 31556 84953 10240 20230 30136 765// 91208 333 10300
96010=
81405 01430 80904 10234 20229 40141 60304 76362 8887/ 333
20234 58006 60077 84813 85820 88360=
80022 31960 89902 10254 20243 30084 40086 70510 88004 333
20252 30/// 50680 55073 56//9 58000 88070=
11032 21090 42007 55166 00849 22883 70000=
86530 333 10089 20051 55000 20855 70004 90931=
10161 20006=
76225 32940 00000 10189 20040 38605 40084 5//// 91150 333
10350 20189 30/// 58037 70000=
76342 32840 80401 10198 20183 39462 40143 57001 70322 84070
91140 333 10380 20198 31019 56050 58084 70409 84356 84458=
76382 32570 40000 10204 20166 38892 40075 52013 82470 91145
333 10375 20200 31018 56550 58051 70152 82630 82357=
76458 32958 03201 10236 20192 30084 40094 54000 91150 333
10317 20230 30021 59011 70000=
76644 11560 71102 10241 20226 30125 40135 51008 69901 72000
8702/ 333 10400 20240 30023 5603/ 58012 79999 87435=
78016 32464 82509 10239 20224 30105 40146 52015 86808 333
10277 20224 70081=
70133 32566 82302 10006 21006 30176 40181 53004 91153 333
10028 20000 70005=
70219 11266 82805 10011 20006 30188 40244 51007 69901 91153
333 10050 20011 70003=
70381 32966 80000 10061 20044 30069 40076 51004 91153 333
10200 20056=
70398 12166 80000 10083 20083 30064 40105 53016 60081 91153
333 10167 20083 70099=
71918 460// /2104 11041 39855 40276 56002 333 11047 21052=
72203 32566 42803 10250 20233 30162 40167 53014 91153 333
10333=
70174 32766 84952 10022 21022 39925 40170 53008 91153 333 10117
20006 555 92812=
72278 32966 00902 10272 20100 39714 40091 53007 91156 333 10400
20272 555 92812=
72327 32466 82504 10194 20172 39901 40109 53005 91153 333 10306
20189 70030 555 92812=
72344 11000 92803 10183 20183 39997 40161 53014 69931 741// 91153
333 70124 555 92812=
72445 32566 62806 10150 20130 39797 91215 333 10267 555 92812=
72465 32966 02509 10156 20061 38889 40135 56004 91156 333 10261
20111 555 92812=
72503 32966 60604 10156 20083 30100 40111 53014 91151 333 10206
20139 555 92812=
72518 32766 80104 10122 20072 30018 40125 53015 91151 333 10211
20089 555 92812=
72528 32966 80705 10106 21006 39866 40124 55000 8/007 91154 333
10189 20083 555 92812=
72572 32966 41303 10200 20072 38698 40098 53012 91156 333 10300
20194 555 92812=
72576 35966 03104 10100 20044 38283 40097 55000 91156 333 10256
20106 555 92812=
72578 32966 02405 10128 20067 38629 40121 51014 91156 333 10289
20106 555 92812=
72583 35966 00702 10100 20011 38693 40141 53001 91156 333 10311
20083 555 92812=
72606 32766 83604 10150 20061 30085 40104 51010 91151 333 10206
20122 555 92812=
72693 32666 81802 10100 20094 30062 40199 53004 91156 333 10194
20078 70036 555 92812=
48601 32462 72202 10284 20241 30081 40085 82942 333 10316 81917
87078=
48615 31468 71001 10298 20248 30067 40073 71322 83942 333 10337
81917 87074=
48620 31464 72702 10286 20251 30078 40087 70522 84946 333 10326
81917 83633 85276=
48647 31468 72702 10285 20231 30058 40083 71322 81942 333 10327
81917 87078=
48657 31564 71102 10290 20259 30052 40070 70522 81541 333 10343
81624 86078=
48665 32466 52802 10288 20239 30062 40072 81932 333 10327 81917
85080=
96001 32560 70000 10276 20238 39952 40095 57002 84522
333 10302 56600 59001 84620=
96033 31458 40303 10288 20254 30072 53008 71321 82901
333 10304 56000 57902 57803 58014 81920 82817 80980 80860=
96075 31460 72704 10270 20253 30073 40083 51007 72992 85971
333 10310 56000 57902 58001 82916 83618 80960=
96171 32560 50000 10306 20251 30035 40059 51005 82511
333 10340 56000 59016 82620=
96195 31457 50000 10290 20253 30043 40078 52006 70522 82101
333 10334 56000 57805 59014 82820 80830=
96413 11460 70000 10248 20236 30064 40090 69911 76096 85931 333
10338 81915 84624 86365=
96421 11265 81003 10238 20231 30062 40098 60231 76198 8592/ 333
10336 81705 81915 85617 88465=
96441 32468 71203 10268 20239 30085 40090 81531 333 10321 81616
83365 87080=
96449 32468 60000 10285 20253 30058 40078 82541 333 10321 82616
85080=
96471 31470 71302 10282 20239 30076 40079 71322 81948 333 10324
81815 81917 87277=
96491 32465 70000 10278 20248 30064 40077 82842 333 10299 81816
87078=
96633 31560 51606 10294 20242 30084 40092 52027 71311 82911
333 10314 56000 58000 82925 80980=
96645 31459 71802 10276 20262 30051 40082 53013 72992 85932
333 10334 56000 57902 59003 81913 85614 80982=
96685 32560 60000 10265 20238 30063 40090 52018 83221
333 10302 56000 57802 59001 83820 80862=
96797 31458 70000 10292 20243 30077 40080 52014 71522 84921
333 10325 56400 57940 59007 81915 80981 84817=
96805 32560 71205 10290 20250 30086 40096 51017 83231
333 10320 56000 57801 58001 83820 80841=
96837 32559 60103 10295 20253 30066 40068 52004 83231
333 10328 56000 57800 58008 83823=
24688 32699 62103 10101 20002 39207 40059 52021 86500 333
10156 91110=
96001 32560 70000 10276 20238 39952 40095 57002 84522
333 10302 56600 59001 84620=
96491 32465 70000 10278 20248 30064 40077 82842 333 10299 81816
87078=
24688 32699 62103 10101 20002 39207 40059 52021 86500 333
10156 91110=
91503 01470 20503 10265 20251 40104 52016 60021 78082 82800
333 10320 55/// 56200 59005 60027 82816=
91520 32480 30000 10254 20252 40093 52009 81902
333 10324 55/// 56900 5//// 81816 81916 83080=
91527 31470 10000 10236 20231 4//// 5//// 70500 81100
333 10325 56000 5//// 81814=
91555 31560 21306 10260 20217 40112 5//// 705/1 82100
333 10290 563// 59002 82820=
91565 32580 20903 10218 20181 40145 5//// 82200
333 10275 563// 59006 82825=
91570 16/// /0710 10250 20232 30125 40128 51008 69921
333 10282=
91574 36/// /1816 10226 20223 30128 40134 51010
333 10270=
91577 36/// /0106 10224 20188 40134 50003
333 10283 55099 21725 59009=
91582 36/// /0000 10179 20164 40140 51004
333 10267 55083 21597 59006=
91592 36/// /0504 10213 20194 40136 54000
333 10272 55088 21641 59008=
91610 31499 31304 10268 20245 40099 54000 70300 83100 333 10312
563//=
91631 11599 41005 10275 20250 40098 69911 70381 81105 333 10305
562//=
91636 31499 60505 10285 20250 5//// 70301 82276 333 10307 56199=
91643 31599 20904 10282 20251 40098 58001 70200 82100 333 1031 562//
8
2
8
2
0
=
91652 36/// /1614 10252 20210 40118=
91659 31598 21405 10247 2020/ 40116 58005 70110 82100
333 10278 563// 82828=
91680 31598 20905 10220 20192 40125 54001 70200 82100
333 10285 569// 82828=
91683 11598 70000 10228 20208 40136 58003 69931 70288 878//
333 10280 569// 84822 84650=
91691 36/// /1304 10235 20193 40130=
91697 36/// /1604 10229 20175 40137=
91699 36/// /1807 10214 20151 40141=
91754 06/// /1306 10251 2//// 40108 58007 60031
333 10292 55007 2//// 58003 60017=
91811 31599 10704 10266 2024/ 40095 70200 81100 333 10321 562//=
91843 11498 73306 10252 20238 40093 57011 69971 70228 8427/ 333
5679/ 84818 87458=
40394 32960 00304 10356 20010 38979 48479 333 58031 555 04410
50030=
40762 32965 12405 10338 20062 GEIRUO 49974 56012 80002 91150
333=
40831 32960 03207 10436 20039 30018 40026 57017 91150 333=
41084 32560 11101 10390 21040 38801 48471 81200 333 58007 81830
555 04410 59999=
94120 46/// /1408 10257 20134 30100 40135=
94151 35/// /2116 10240 30131 40151 52011=
94203 46/// /1411 10230 20131 30144 40155=
94207 35/// /0317 1//// 30139 40150 52016=
94212 46/// /1008 10165 20037 39699 40180=
94238 46/// /1309 10126 21009 39783 40216=
94268 46/// /1710 10209 20038 30130 40145=
94287 46/// /1613 10222 20135 30151 40160=
94290 35/// /1421 10229 30156 40163 52017=
94294 46/// /2008 10170 20048 30181 40191=
94298 35/// /1520 10236 30143 40149 52009=
94299 46/// /1624 10253 20214 30128 40139=
94300 46/// /1205 10189 20112 30171 40181=
94302 46/// /0507 10195 20167 30169 40175=
94312 46/// /1506 10172 20107 30163 40173=
94326 46/// /1506 10049 20037 39618 40254=
94332 46/// /1507 10118 21039 39814 40207=
94346 46/// /1705 10066 20000 39998 40224=
94363 46/// /2306 10092 20009 39981 40203=
94367 46/// /1912 10162 20072 30147 40185=
94394 35/// /2115 10198 30145 40153 52008=
94403 46/// /0410 10161 20013 30160 40201=
94430 46/// /1008 10106 20027 39623 40221=
94461 46/// /0707 10094 20014 39561 40251=
94510 46/// /0000 10029 21015 39860 40217=
94515 46/// /2402 10034 21008 39849 40206=
94578 46/// /2819 10120 21044 30150 40161=
94601 46/// /0717 10152 20046 30216 40233=
94610 46/// /0611 10149 20020 30203 40228=
94638 46/// /0607 10114 20083 30268 40301=
94659 46/// /2012 10115 20036 30059 40259=
94693 46/// /2410 10083 20071 30130 40193=
94776 46/// /3019 10086 20019 30087 40097=
94791 46/// /3007 10105 21022 30123 40130=
94802 46/// /0608 10089 20049 30185 40269=
94804 46/// /2022 10137 20082 30203 40242=
94821 46/// /2213 10072 20057 30085 40168=
94842 46/// /2325 10092 20032 30007 40106=
94865 46/// /2716 10058 20021 30086 40111=
94907 46/// /2713 10063 20044 30058 40068=
94910 46/// /2808 10038 20020 39861 40115=
94926 46/// /3008 10033 21045 39396 40068=
94975 46/// /2312 10076 20009 39957 49990=
94983 46/// /2611 10061 20026 39961 49986=
94995 46/// /2720 10168 20056 30084 40092=
94996 41270 80207 10190 20184 30007 40136 58013 70585 876//
333 10207=
91652 36/// /1614 10252 20210 40118=
91659 31598 21405 10247 2020/ 40116 58005 70110 82100
333 10278 563// 82828=
91680 31598 20905 10220 20192 40125 54001 70200 82100
333 10285 569// 82828=
91683 11598 70000 10228 20208 40136 58003 69931 70288 878//
333 10280 569// 84822 84650=
91691 36/// /1304 10235 20193 40130=
91697 36/// /1604 10229 20175 40137=
91699 36/// /1807 10214 20151 40141=
28240 41599 63105 10202 20103 39712 40008 57013 70392 85360=
28419 42698 62904 10209 20036 39946 40065 57011 84331=
31285 /13// 80502 10014 20014 40034 52003 69950 78088 889//   333
10082=
31561 32598 80803 10149 20099 49941 57002 82502   333 10210=
60020 32570 31105 10230 20142 30166 40210 53007 83500
333 92437=
60101 12560 32604 10226 20175 40217 51006 69921 82202
333 82820 83070=
60115 32575 23604 10280 20120 40179 57006 81101
333 81826=
60127 32970 00000 10282 20157 39613 40178 57013=
60135 32458 23406 10226 20159 40209 56003 80002
333 82070=
60155 32958 20803 10216 20160 40204 56004 80002
333 82070=
60620 32960 00607 10355 2//// 40144 58006
333 0//00=
60715 32560 50207 10250 20170 30167 40172 58004 85800
333   50291 85820=
60765 32560 40602 10250 20187 30177 40183 58006 84800
333   50451 82820 83630=
61024 32660 62602 10406 20129 39529 40066 83202
333 0//00 58005 83840 85080 94932 95872=
61421 32958 00803 10420 20016 39840 40084
333 0//00 59006=
61442 32958 03205 10250 20188 30110 40114
333 0//00 59006=
61497 31956 00406 10400 20068 3//// 4//// 706//
333 0//00 5////=
61641 32459 73206 10234 20189 30100 40133 875//
333 0//00 58000 87610=
61695 32960 02803 10298 20219 30100 40126
333 0//00 59003=
62002 32660 33605 10230 20126 39469 48547 53003 83200 333 83835=
62010 32558 43308 10240 20173 40155 54000 84400 333 84625=
62019 31957 03008 10235 20174 40116 58004 70700=
62053 32960 03305 10290 20162 40112 56008=
62103 32968 00605 10266 20131 40163 55005=
62124 32960 20103 10344 20089 39619 40092 57007 82040 333 82360=
62131 32966 03305 10300 20139 39806 40106 57016=
62161 32960 41708 10360 20156 40109 58014 84070 333 84360=
62259 32970 51803 10414 20083 40080 58014 85040 333 85360=
62271 32970 02104 10395 20093 40115 58010=
62306 32960 40406 10267 20165 40140 58008
80006=
62318 32960 03306 10260 20186 40134 55006=
62366 32960 00106 10328 20119 40113 58012=
62405 32960 03204 10388 20080 40062 57013=
62414 32960 00306 10400 20060 40057 56022=
62420 32960 00406 10354 20077 40109 57015=
62641 32970 00407 10355 20200 300009 40083 333
58007 =
62660 32970 03402 10430 20080 39/// 4////
333 5//// =
62680 31968 00202 10430 20100 39662 40030
70600 333 58018 =
62721 31968 73201 10405 20075 39627 40042 70622
80007 333 56009 58006 87275 =
62730 32770 12103 10390 20110 39/// 4//// 81100
333 56400 5//// 81850 =
62760 32770 71402 10376 201235 39254 40020 83137
333 56949 58004 83850 82365 87275 =
62772 32970 70000 10380 20175 39641 40052 80007
333 56009 58000 87275 =
62781 32770 70000 10370 20160 39449 40052 81507
333 56909 58002 81850 87275 =
62805 32770 71403 10335 20155 39518 40027 82570
333 56290 58000 82650 87365 =
62840 32770 70601 10330 20200 39641 40076 81147
333 56729 59004 81850 82365 87275 =
62880 32770 72202 10320 20220 39592 40082 82247
333 56579 59002 82850 82365 87275  =
65306 32560 71810 10320 20205 39776 40099 83802
333 58006 81620 83830 85076 94919 95818=
65548 32460 42602 10290 20212 39742 40122 84200
333 59002 84815=
65578 11460 71802 10298 20258 30108 40117 69961 70396 86831
333 59010 82813 86620=
65592 32460 5//// 10291 20249 30096 40119 84902
333 59015 84813 81923 83076 95333 95334=
60030 32570 40311 10225 20172 30141 40196 53002 84500
333 92447=
60107 32960 03604 10227 20165 40201 52003
333 95300=
60185 32470 23606 10262 20146 40190 58004 82500
333 82616=
60230 32560 21002 10270 20139 40171 55000 82200
333 82826=
60265 32670 13203 10295 20058 38926 48576 58005 81200
333 81840=
60338 32982 00803 10250 20158 30128 40192 52002
333 92418=
60602 32970 0//02 10333 20048 40153 58005
333 0//00 95900=
60725 32565 43603 10261 20155 30013 40176 58007 84200
333   50261 84826=
60735 32562 63603 10270 20136 30099 40177 57003 85232
333   50521 85826=
60760 32560 12802 10294 20116 30057 40163 58007 81200
333   50701 81830=
60769 32560 23304 10244 20171 30170 40175 58002 82800
333   50441 81826=
60775 32562 40305 10270 20080 39826 40168 58003 84200
333   50711 84826=
61052 32965 51807 10375 20170 39842 40086 80002
333 0//00 58018 85080=
61075 32965 72604 10363 20188 39786 40085 80008 91148
333 58014 87280=
61090 32960 52807 10360 20184 39590 40080 80002 91145
333 58008 85080=
61415 32960 03607 10240 20177 30124 40129
333 0//00 59024=
61498 33960 00402 10420 20110 39959 40084
333 0//00 58001=
61600 32462 73205 10242 20198 30124 40129 875//
333 0//00 58001 87613=
61627 32960 03002 10311 20197 30085 40108
333 0//00 59005=
61630 32960 02803 10372 20182 30077 40096
333 59013=
61679 32962 02803 10296 20198 30125 40133
333 0//00 59002=
61687 32957 52805 10345 20196 30054 40110 80002
333 0//00 69002 85073=
62007 32558 53606 10230 20191 40163 53006 85500 333 85625=
62055 32960 53607 10297 20130 40108 56004 80005 333 85270=
62056 32960 31805 10300 20111 39426 48527 57011 83030 333 83360=
62059 32960 31006 10255 20193 40117 57009 83050 333 83360=
62120 32970 00308 10265 20089 39573 48532 55011=
62600 32970 00303 10390 20070 39855 40054
333 58000 =
62640 31968 00204 10428 20096 39644 40027
70600 333 58004 =
62650 32970 03402 10420 20018 39787 40040
333 59002 =
62751 32970 72901 10394 20180 39630 40067 82047
333 56069 58017 82365 87275 =
62752 32770 71802 10375 20145 39402 40042 81107
333 56909 58010 81850 87275 =
62762 32970 72303 10375 20180 39585 40034 87070
333 56090 58007 87365 =
62770 32970 72302 10360 20100 39204 40054 81107
333 56309 58001 81856 87275 =
62771 32770 70000 10375 20125 39429 40043 82107
333 56409 59005 82856 87275 =
62795 32770 72702 10370 20170 39555 40043 82107
333 56709 58013 82856 87275 =
62810 32770 73601 10345 20210 39539 40081 81107
333 56209 58008 81856 87275 =
61421 32958 00803 10420 20016 39840 40084
333 0//00 59006=
61442 32958 03205 10250 20188 30110 40114
333 0//00 59006=
61497 31956 00406 10400 20068 3//// 4//// 706//
333 0//00 5////=
62420 32960 00406 10354 20077 40109 57015=
62641 32970 00407 10355 20200 300009 40083 333
58007 =
62660 32970 03402 10430 20080 39/// 4////
333 5//// =
62680 31968 00202 10430 20100 39662 40030
70600 333 58018 =
62721 31968 73201 10405 20075 39627 40042 70622
80007 333 56009 58006 87275 =
62730 32770 12103 10390 20110 39/// 4//// 81100
333 56400 5//// 81850 =
62760 32770 71402 10376 201235 39254 40020 83137
333 56949 58004 83850 82365 87275 =
62772 32970 70000 10380 20175 39641 40052 80007
333 56009 58000 87275 =
62781 32770 70000 10370 20160 39449 40052 81507
333 56909 58002 81850 87275 =
62805 32770 71403 10335 20155 39518 40027 82570
333 56290 58000 82650 87365 =
62840 32770 70601 10330 20200 39641 40076 81147
333 56729 59004 81850 82365 87275 =
62880 32770 72202 10320 20220 39592 40082 82247
333 56579 59002 82850 82365 87275  =
65306 32560 71810 10320 20205 39776 40099 83802
333 58006 81620 83830 85076 94919 95818=
61415 32960 03607 10240 20177 30124 40129
333 0//00 59024=
61498 33960 00402 10420 20110 39959 40084
333 0//00 58001=
62600 32970 00303 10390 20070 39855 40054
333 58000 =
62640 31968 00204 10428 20096 39644 40027
70600 333 58004 =
62650 32970 03402 10420 20018 39787 40040
333 59002 =
62751 32970 72901 10394 20180 39630 40067 82047
333 56069 58017 82365 87275 =
62752 32770 71802 10375 20145 39402 40042 81107
333 56909 58010 81850 87275 =
62762 32970 72303 10375 20180 39585 40034 87070
333 56090 58007 87365 =
62770 32970 72302 10360 20100 39204 40054 81107
333 56309 58001 81856 87275 =
62771 32770 70000 10375 20125 39429 40043 82107
333 56409 59005 82856 87275 =
62795 32770 72702 10370 20170 39555 40043 82107
333 56709 58013 82856 87275 =
62810 32770 73601 10345 20210 39539 40081 81107
333 56209 58008 81856 87275 =
64700 32665 52806 10374 20191 39744 40070 83202 91155
333 0//00 59001 83840 83075 94939=
64706 31862 71803 10255 20219 4//// 72996 82365 91155
333 0//00 58000 82840 87365 81365 81950 94942 95832=
64750 32965 61805 10344 20170 39683 400084 86032 91200
333 0//00 58002 86365 83075=
64754 32962 01802 10374 20224 4////
333 0//00 5////=
64758 32965 22002 10380 20232 4//// 81132 940// 83075
333 0//00 5//// 81840 81365 94919=
65319 32460 7//// 10317 20208 39600 40106 84802
333 58001 82613 83820 85076 94914 95839=
65330 32570 72202 10295 20200 39684 40119 82132
333 58012 82823 85363 94906 95816=
65335 32462 7//// 10304 20226 39892 40116 87802
333 58005 82613 86826 85076 94912 95832=
65352 32460 72204 10328 20228 39944 40119 83202
333 59004 83816 87076=
65361 32470 71803 10290 20220 39686 40124 85232
333 58003 85816 83362 87076=
65376 32460 72201 10295 20214 39672 40130 84202
333 58007 84813 87076=
65387 32462 71402 10318 20232 30100 40128 83202
333 58000 83816 87073=
65528 32460 4//// 10288 20213 39649 40116 83230
333 59003 83813 83360=
65536 32460 3//// 10295 20231 39701 40125 83200
333 58003 83813=
65555 32560 61804 10295 20239 39687 86200
333 59006 86820=
65557 32460 60000 10297 20233 39879 40116 86200
333 59009 86815=
65562 32460 6//// 10310 20236 85230
333 85813 83360=
65599 32462 6//// 10295 20239 30040 40114 85962
333 59015 85915 95334=
JFYD 28124 99137 11305 41698 41516 10270 20250 40100 52023 70322
844// 22284 00293 20301 309// 40502 5//// 80255=
C6FE5 28124 99258 71785 41498 40612 10230 2019/ 40260 56015 70200
8311/ 22264 00283 20302 306// 80200=
SHIP 28124 99152 31078 1/97/ 31210 10260 40127 7011/ 222// 00289
20101 312// 40303=
SHIP 28111 99543 70110 41/98 3//06 10105 20044 52037 22200 20702
33425 40802 50702 80075=