ZCZC 000
SMCI10 BENJ 300000
AAXX 30001
304057 304072 311087 322089 334067=
52740 16/// /3206 10034 29058 36884 60000
555 1/133 2//02 /////=
57957 11540 71401 10241 20238 39885 40075 52007 60331 71098
8744/ 333 05201 70660=
59082 11665 62205 10275 20235 30018 40092 52016 69901 72598
82442 333 05102 70039=
59117 32965 10000 10264 20234 30006 40108 52011 81040 333
05102 70010=
59211 31558 20000 10265 20242 39855 40054 52007 71000 81142
333 05202=
59265 31957 10902 10273 20242 39960 40093 52010 71000 81040
333 05103 70014=
59287 11550 71401 10278 20248 30054 40104 52009 69901 71080
86202 333XX 05100 70015 =
59316 32560 80402 10259 20236 30099 40108 52008 884// 333
05200=
59431 32570 71803 10274 20259 39933 40077 52011 83142 333
05102 70017=
59644 32565 71404 10279 20261 30063 40078 52007 879// 333//
05100=
59758 32475 71603 10282 20260 30063 40084 52008 83102 333//
00000=
59293 32565 12202 10279 20236 30055 40102 52010 81800 333
05100 70001=
59417 11570 70000 10265 20252 39927 40074 52010 69941 70080
878// 333 00000 70008=
59501 32565 20402 10280 20243 30094 40110 52005 82100 333
05100=
59663 11472 71403 10284 20247 30065 40092 52008 69971 70080
85202 333 00051 70007=
59838 32980 71402 10303 20229 30061 40075 52003 81062 333//
05101=
59948 11976 60000 10278 20261 30072 40080 52006 60081 70080
80002 333// 05152 70077=
59981 32580 20904 10297 20261 30068 40074 52002 81102 333//
05200=
59985 32580 30402 10297 20265 30065 40070 52004 83102 333//
05100=
58633 31420 80000 10214 20203 39978 40074 52003 71000 885//
333 05502 70062=
58847 31550 70201 10234 20213 30008 40107 52009 71000 875//
333 05303 70002=
59023 11461 70902 10247 20238 39821 40061 52010 69911 70098
875// 333 05200 70072=
57265 11730 70000 10177 20169 39960 40067 52002 69901 71060
875// 333 05702 70050=
57447 11440 81801 10160 20155 39571 40101 52013 60241 76066
8272/ 333 05351 70254=
57461 11430 80000 10179 20171 39918 40075 57003 60111 76098
8572/ 333 05551 70105=
57476 11460 82203 10186 20171 40084 52011 60051 76060 8672/
333 05502 70047=
57562 11435 80000 10185 20170 40073 52007 69911 76060 885//
333// 05501 70002=
57583 11462 82702 10182 20171 40080 52006 60011 76060 8577/
333 05400 70091=
57662 31758 80000 10196 20163 30039 40080 52006 71000 885//
333 05502 70037=
57669 31950 80000 10185 20167 40090 52020 71000 8807/ 333
05302 70004=
57766 11430 80000 10194 20186 40081 52004 69921 76060 887//
333 05401 70006=
57845 11458 80202 10215 20212 40063 52003 60041 76098 8672/
333 05403 70194=
57894 11470 70000 10223 20213 40090 52013 69901 76000 875//
333 05201 70098=
58102 31658 82502 10168 20156 30002 40051 52005 71000 8657/
333 05853 70045=
58122 11970 82703 10177 20165 40055 52002 60011 70060 8807/
333 05852 70118=
58215 11757 82903 10176 20163 40064 52002 69911 71060 8657/
333 05752 70055=
58221 11950 82704 10186 20166 30029 40063 52003 60061 71060
8807/ 333 05851 70200=
58314 11956 80202 10184 20168 39981 40066 52009 69901 71060
8807/ 333 05600 70035=
58338 11525 81801 10209 20204 40059 52001 60121 76066 8802/
333 05600 70122=
58402 11558 82202 10185 20182 40088 52012 60051 76166 8272/
333 05451 70223=
58424 11540 82203 10218 20213 30033 40056 52003 60091 78186
889// 333 05600 70278=
58531 11462 80000 10210 20201 40065 54000 60231 70066 887//
333 05500 70265=
59046 11568 81602 10263 20244 40077 52012 60011 70080 888//
333 05101 70054=
59058 11464 70702 10253 20243 40088 52013 60021 72586 875//
333 00001 70141=
59087 32565 72702 10274 20238 40100 52013 82142 333 00001
70053=
59209 11563 70000 10235 20202 40061 52010 69901 70080 878//
333 05101 70210=
59254 31558 70000 10263 20252 40084 52009 71000 878// 333
05100 70050=
59278 32564 70000 10274 20251 40099 52010 8724/ 333 00000
70063=
59456 32578 21601 10272 20241 40089 52004 81102 333 05101
70023=
59493 11570 70903 10284 20246 40097 52008 69931 70060 87200
333 05100 70003=
59632 11563 70000 10253 20236 40080 52010 60081 71798 8796/
333 05152 70443=
59647 32570 83602 10278 20258 40076 52007 889// 333// 05100=
59658 32467 61403 10288 20257 40084 52003 82101 333 05100=
59673 32580 61402 10290 20252 40094 52008 81102 333
05100=
59845 32975 71601 10274 20235 40078 52008 82062 333// 05101
70046=
59855 32575 62201 10285 20263 40079 52005 85102 333// 05100=
58543 11762 83201 10214 20202 40077 52003 69941 70098 8657/
333 05602 70046=
58569 11463 82206 10205 20200 40086 57002 69901 70060 8617/
333 05600 70009=
58646 32662 70000 10224 20196 40092 52005 875// 333 05502
70010=
58660 32760 70000 10204 20178 40088 57002 875// 333 05600
70083=
58834 32963 70000 10237 20219 40104 52011 8704/ 333 05201
70049=
50468 32675 62903 10093 20011 39878 40078 52014 86502 333
01154 30031=
50745 32966 70905 10207 21023 39874 40044 52009 80002 333
00202=
54337 31956 72203 10214 20149 39939 40020 54000 70400 85032
333 05355=
54342 32965 72006 10238 20099 39959 40018 57002 80002 333
05351=
54471 32760 71805 10214 20137 30029 40034 52005 875// 333
05400=
54497 32962 70202 10176 20110 30056 40070 57002 80002 333
05353=
54662 11970 82207 10187 20121 39946 40062 52011 69901 76000
8807/ 333 05457 79999=
58138 11950 81802 10177 20174 40053 57005 60161 76060 8802/
333 05952 70246=
58259 11957 82003 10199 20190 40068 54000 60031 76060
8807/ 333 05800 70033=
58343 11420 81603 10196 20190 40058 54000 60031 76066 8772/
333 05852 70052=
58358 11420 81603 10197 20192 40062 57001 60061 76060 8772/
333 05851 70055=
58464 11565 81603 10203 20195 40073 52006 60021 76060 8257/
333 05851 70023=
58549 32763 71801 10232 20201 40073 52004 8354/ 333 05603
70097=
58665 31650 72003 10212 20190 40083 57001 71000 8154/ 333
05601 70094=
58667 32562 82505 10208 20186 40099 52001 885// 333 05501
70138=
53463 32980 00903 10184 20082 38841 49995 52003 333// 05801
70002=
53513 32975 02903 10193 20001 38878 40005 52011 333// 05303=
53588 32980 02204 10111 20054 37739 52009 333 05652=
54218 32970 72204 10230 20032 39354 49983 57004 80002 333//
05651=
54511 32975 32203 10199 20114 39994 40031 52004 80002 333
05552=
51468 16/// /3100 11011 29071 36569 60001
555 1/123 2//00 /////=
58345 11920 80000 10201 20195 40058 57001 60081 76060 8802/
333 05851 70077=
58944 32460 72203 10239 20217 40107 52002 875// 333 05302=
59096 32563 41803 10272 20232 40100 52010 84400 333 05102
70028=
58265 11465 81605 10198 20189 30056 40067 57004 60041 76066
8772/ 333 05851 70039=
58472 11262 81810 10203 20194 39981 40076 57003 69901 76000
887// 333 05801 79999 91118 91520=
58477 11368 81403 10212 20198 30039 40082 57001 69901 76000
887// 333 05804 70003=
58725 32760 80000 10235 20225 39845 40096 52011 885// 333
05200 70068=
58921 11640 80000 10242 20232 39866 40102 52012 69901 71060
885// 333 05101 70230=
59072 32680 70000 10268 20241 40087 52009 84440 333 05102
79999=
58040 11558 81402 10163 20156 30056 40060 57003 60061 76066
885// 333 05756 70078=
58144 11308 81401 10170 20163 30033 40055 57009 60071 76064
8372/ 333 05954 70135=
58926 31757 70000 10256 20233 40108 52012 71000 8254/ 333
05101=
11010 70048 333 91220 555 11177 22190=
57504 11915 81802 10189 20176 40095 52007 69981 71060 8807/
333 05101 70009=
57584 11440 83602 10184 20178 40084 52008 60031 72160 885//
333// 05402 70135=
57793 31830 82701 10213 20201 40078 52005 71000 885// 333//
05351 70004=
53754 32975 61403 10193 20095 40023 52004 80002 333 05603=
57036 32966 02002 10196 20149 39609 40063 52007 333 05503=
58659 31750 70000 10218 20190 30059 40093 54000 71000 8653/
333 05501 70184=
58457 11320 72003 10207 20199 30015 40065 57002 60021 76060
875// 333 05801 70027=
54284 32970 71605 10180 20007 40063 57005 80002 333// 00151=
54292 32962 70000 10205 20106 39844 40048 57003 80002 333//
00453=
54285 32970 61403 10183 20077 40065 52003 80002 333// 00352=
54263 32975 81807 10206 20083 40034 52001 80007 333// 00151=
54374 32968 70000 10165 20080 39686 40069 57004 80002 333//
00002=
54276 32965 71602 10187 20067 40055 57002 82032 333// 00253=
54377 32970 80000 10158 20084 40077 57014 80007 333// 05251=
54063 32670 81102 10205 20051 49998 52002 875/2 333// 00252=
54049 32970 81806 10210 20121 49996 52001 8802/ 333// 05253=
54363 32970 82203 10198 20045 40052 57010 80007 333// 05151=
54157 32766 72008 10237 20099 40009 52006 83502 333// 05102
91117 91520=
54171 32980 71804 10217 20067 40029 57002 80002 333// 00201=
54195 32975 70000 10164 20092 40058 57001 80002 333// 00557=
50948 32970 71404 10220 20098 49999 54000 8701/ 333// 05351=
54266 32970 71803 10205 20063 40038 54000 80002 333// 00153=
54181 32962 70000 10175 20110 40048 52002 80002 333// 00354=
54186 32970 72004 10185 20049 40049 57001 80002 333// 00353=
54161 32970 71808 10216 20084 39736 40007 57002 80002 333//
05101=
54365 32975 71404 10185 20054 40075 57002 80002 333 05153=
54236 32962 71806 10210 20138 39907 40004 57001 80002 333
05353=
54493 32974 70000 10176 20098 40075 57001 8703/ 333 05253=
54326 32980 62505 10230 20086 40001 52006 80002 333 05553=
59228 32562 71802 10267 20250 40074 52010 8614/ 333// 05101
70003=
51628 11770 60403 10206 20079 40004 52017 69901 72580 84962
333 00005 79999=
57522 11412 80000 10182 20176 40107 52010 60201 76064 887//
333// 05100 70219=
56386 31940 81102 10184 20164 40094 52009 71000 8804/ 333
05100=
59134 11458 81402 10235 20223 39958 40118 52008 69901 76060
885// 333 05201 79999=
59126 31656 81701 10252 20219 40120 52010 71000 884// 333
05202 79999=
58634 31601 80000 10210 20205 40078 52010 74240 885// 333//
05401 70184=
57598 11359 80000 10203 20197 40078 52011 60111 78080 889//
333// 05352 70107=
58606 11730 82201 10239 20235 30012 40065 52010 60021 72580
885// 333// 05403 70020=
50788 32970 03206 10168 20023 39952 40033 52010 333 00851=
50854 32970 70705 10211 20017 40036 52007 80002 333 00201=
50758 32970 10705 10199 21013 40057 52010 80002 333 00401=
50756 32970 10404 10184 21016 39780 40059 52008 80002 333
00600=
50658 32980 21802 10185 21010 40053 52009 80002 333 00501
30036=
50888 32980 03205 10191 21038 40039 52004 333 00851=
50968 32670 40203 10167 20095 40047 52021 84500 333 00455
79999=
50557 32970 13402 10152 20030 39783 40068 52007 80002 333
00651 30023=
50136 32670 22701 10102 20035 39576 40085 52003 81102 333
00701 31014=
50877 32980 20000 10183 20050 40055 52007 80002 333 00752
30047=
50853 32970 60904 10191 21003 40052 52012 81032 333 00400=
50349 32670 50403 10110 20046 40083 52006 85500 333 00801
30000 79999=
50983 32970 02902 10181 20035 40041 52002 333 01051=
54096 32970 62903 10181 20039 40048 52006 82031 333 00853=
50844 32962 70705 10202 20060 40027 52007 80002 333 00000=
50862 32680 10702 10184 20006 40052 52007 81500 333 00502
30023=
50246 32680 61802 10110 20037 40092 52013 84102 333 01000
30005 79999=
53519 32980 01101 10186 20102 40032 52003 333 05306 79999=
53615 32970 02701 10186 20053 40025 52005 333 05303 79999=
59317 32562 20702 10270 20241 40106 52006 82400 333 05100
70009=
57996 32660 30000 10269 20239 40090 52011 81102 333 05204
70013=
59271 31530 20000 10253 20239 40096 52009 71000 81140 333
00000 70035=
59664 32470 71603 10290 20251 40086 52003 86102 333 05100=
59754 32473 71405 10281 20259 40079 52007 86102 333 05100
79999=
59453 32561 30902 10275 20245 40087 52011 82430 333// 05100
70020=
56096 32780 70201 10177 20133 38901 40084 52015 82502 333//
00101 79999=
57067 32970 72501 10161 20146 39421 40070 52004 82042 333//
05501 79999=
57181 11940 72203 10183 20155 40056 54000 69901 71060 8703/
333// 05801 70002=
57006 32762 80000 10160 20119 40084 52010 885// 333// 00003=
57993 32873 72901 10273 20234 39941 40083 52011 8654/ 333//
05202 70001=
56151 32980 10000 10051 21007 36684 52012 80002 333 00351
31008=
52267 32980 63203 10170 21057 38990 40018 52014 80002 333//
05153 79999=
52495 32980 02203 10194 21041 38600 40013 52006 333// 00003
79999=
52378 32980 12203 10210 21058 40017 52012 80002 333// 00051
79999=
53602 32980 00000 10187 20014 38381 52005 333// 00005=
52576 32975 00000 10182 20024 38422 52004 333// 05100=
53502 32965 02003 10183 21015 40021 52008 333// 05101=
52707 32980 63203 10060 21064 37272 52009 80002 333 05351
31016 79999=
56886 32680 52205 10201 20164 38241 52012 82440 333// 00001=
56838 32675 10701 10212 20198 40078 52009 81400 333// 00000
70002=
56969 32460 70000 10226 20222 40076 52010 8653/ 333// 00051
79999=
56543 11680 50000 10082 20062 36871 52010 69951 70080 85400
333// 00152 70005=
56994 32568 71404 10217 20193 40057 52006 87432 333// 05101
79999=
59007 32570 70000 10205 20190 40052 52008 81132 333// 05200
70002=
56856 32678 70000 10194 20180 40063 52009 879// 333// 05100=
56875 32680 70000 10203 20165 38334 52013 8713/ 333// 00000=
56533 11470 80000 10156 20153 38392 52006 60011 78088 884//
333// 00151 70051=
56946 32680 20000 10202 20188 40060 52007 82100 333// 05101=
56786 32565 72502 10183 20160 38088 52015 86442 333// 00000=
56751 32675 72903 10170 20141 37999 52017 86442 333// 00151=
56778 32575 60000 10193 20154 38085 52013 81102 333// 00001=
56954 31257 70000 10199 20187 40072 52008 71000 874// 333//
05101=
56741 32580 70000 10177 20153 38178 52008 86440 333// 00001
79999=
56966 11770 60000 10251 20222 40046 52013 69911 70080 81432
333// 00000 70021=
56664 32580 70000 10220 20150 40016 52019 83430 333// 05100=
56748 11580 70000 10187 20161 38321 52008 69911 70080 8744/
333// 05102 70018=
54401 11961 01102 10204 20099 39204 40003 52002 69901 70080
333// 05802 79999=
54646 33975 71604 10201 20149 40055 52004 8703/ 333 05500
91117 91525=
50632 32980 70000 10106 20000 39217 40068 52002 80002 333//
00353 31001=
50434 32980 12901 10103 20017 39227 40074 52001 80002 333//
00451 31025=
50425 32980 13601 10131 20008 40063 54000 80002 333// 00151
31005=
50514 32980 50701 10139 21033 40040 54000 80002 333// 05100
31003=
50548 32980 23601 10136 20033 40066 52002 80002 333// 00600
30020=
50603 32980 40705 10154 20031 39388 40023 52002 82032 333//
05201=
58527 11240 83402 10220 20215 39988 40061 52002 60011 76060
857// 333// 05451 70029=
58626 32662 70701 10229 20216 40073 52016 8454/ 333// 05302
70067=
54857 11575 81605 10162 20114 39987 40076 57003 69911 72160
8672/ 333 05555 70001=
53543 32980 02904 10185 21003 38451 40000 52004 333 05604=
54736 11960 81607 10209 20133 40054 52008 69901 72100 8807/
333 05652 79999=
58238 11410 80000 10189 20184 30045 40054 52005 69951 76060
8277/ 333 05852 70053=
57816 11464 80000 10152 20142 38753 40093 52014 60091 76060
885// 333 05101 70230=
54237 32962 82204 10219 20128 40000 52002 8801/ 333 05454=
54339 32962 71603 10241 20096 40032 57001 83032 333 05400=
54324 32970 22005 10250 20088 40003 52005 80002 333 05551=
54454 32670 82002 10213 20147 40033 52007 8652/ 333 05454=
52418 32980 70000 10141 20005 38772 49998 52001 83042 333
05453=
52754 32980 03401 10031 21019 36828 52010 333 00201 31033
70017=
53915 32965 70000 10167 20102 38598 40057 52006 80002 333
05206=
52652 32970 02002 10146 20048 38453 40040 52008 333 05251
79999=
52787 32980 01401 10081 21004 37046 54000 333 00200 31020
70001=
57034 31958 02001 10171 20151 40064 52003 71000 333 05502=
56043 32980 00000 10014 21003 36515 52007 333 00353 70015=
52984 32970 00000 10134 20083 38070 52001 333 00202 70034=
57947 11561 80000 10253 20240 40073 52012 69901 70060 888//
333// 05203 70149=
57144 32565 70000 10150 20136 40087 52010 8363/ 333 05301=
53738 32980 30000 10156 20103 40051 52009 80002 333 05303=
57037 32961 10204 10169 20124 40054 52001 80002 333 05401=
57046 32974 72505 10136 20045 37908 52007 81032 333 05106=
58251 11358 81102 10180 20175 30052 40058 57003 60121 76166
8772/ 333 05953 70150=
59242 11561 71802 10262 20248 40078 52012 69941 70060 8783/
333// 05101 70173=
57193 32961 72503 10179 20162 40054 54000 8704/ 333// 05801
70016=
56985 11580 71602 10210 20180 38667 40059 52011 69921 70098
87442 333// 00051 70002=
56986 11/62 80000 10200 20193 40061 54000 69941 72580 8844/
333// 05151 70019=
56684 32570 80902 10137 20119 37881 52010 885// 333// 00001=
54346 32967 83202 10218 20081 40040 54000 80007 333 05254=
59065 32575 70901 10264 20238 40087 52013 85402 333// 05102
70045=
54518 32965 22503 10206 20127 40045 54000 80002 333// 05553=
53399 32980 51606 10156 20065 40001 57011 80002 333// 05752=
56287 11980 80000 10189 20158 40095 52005 69901 70060 8807/
333 05102 79999=
51705 32880 22910 10113 21019 37795 57001 81402 333// 00052
70028=
51839 31958 72503 10223 20003 49974 52012 70600 82032 333//
05107=
51931 31920 92904 10215 20068 40001 52008 70600 89//2 333//
00007=
51573 32880 70000 10266 20069 39970 40012 52021 81532 333//
05205=
57143 32960 73401 10148 20134 40075 52009 85032 333 05501
79999=
53564 32980 01604 10208 20096 39065 40005 52011 333// 05701=
53882 32962 21101 10180 20094 40051 52007 80002 333// 05601=
53487 32962 31601 10188 20078 49996 57001 80002 333// 05802=
53868 31956 22201 10201 20119 40045 52004 70400 80002 333//
05603=
53863 32970 02503 10203 20121 40032 54000 333// 05703=
53853 32970 00000 10163 20094 40050 52004 333// 05451=
53959 32970 20000 10205 20143 39627 40054 52003 82030 333//
05502=
53673 32980 00401 10193 20098 40015 52003 333// 05701=
53787 32970 30000 10158 20086 40038 52005 80002 333// 05600=
53478 32975 22703 10172 20088 49999 52002 80002 333// 05802=
57649 11420 82202 10179 20171 40083 52008 69981 76060 8377/
333// 05501 70008=
59218 11570 71604 10230 20194 40074 52012 69921 70080 8714/
333// 00000 70354=
54405 32665 61603 10191 20109 40015 52005 83430 333// 05701=
54423 32980 60000 10198 20123 39591 40027 57002 86030 333//
05602=
54449 32765 72502 10220 20154 40043 52007 8653/ 333// 05452=
58931 31/00 92212 10165 20165 38362 52006 74544 333 05100
91117 91520=
54135 32780 72005 10227 20101 39777 49980 52005 83402 333//
05353=
54259 32980 72702 10226 20073 40038 57005 80002 333 05151=
58519 11660 81802 10225 20219 40069 52010 60061 79560 889//
333// 05400 70061=
57071 32966 71801 10179 20117 40049 52004 80002 333// 05752=
57077 32967 72902 10167 20129 40061 52007 82042 333// 05503=
57083 32960 72001 10213 20140 39912 40042 54000 82032 333//
05901=
57091 31958 72003 10178 20153 40048 52006 71000 83042 333//
05853=
57290 32962 72704 10178 20151 40056 52001 80002 333// 05801
70089=
57297 11765 61801 10184 20164 39931 40066 52004 69921 70060
86500 333// 05703 70131=
53336 32980 02906 10175 21004 38607 49987 52009 333// 05501=
53149 32680 22509 10158 21014 38655 49973 52005 81502 333//
05654=
53231 32980 02903 10153 21020 38407 52012 333// 00054=
53276 11959 62508 10179 21005 38729 49972 52004 69901 70680
83032 333// 05752 79999=
53352 32980 22202 10160 21005 49985 52002 80002 333// 05651=
53391 11680 72704 10137 20073 38403 49991 52002 69911 76060
86502 333// 05752 70001=
53083 11680 70402 10146 20097 49956 57006 69931 70080 87902
333// 05555 70003=
53529 32980 03205 10190 21009 38545 40014 52010 333// 05306=
53362 32678 62501 10141 20006 49999 52003 84532 333// 05752
79999=
53068 11780 72706 10176 20037 38906 49954 52008 69901 78000
87902 333// 05652 79999=
53614 32965 01604 10180 20094 38816 40024 52004 333 05304=
53798 31958 00000 10182 20135 39946 40036 52009 71000 333//
05653=
54618 32961 22203 10209 20125 30022 40039 57003 80002 333//
05651=
54308 32980 51603 10176 20102 40019 52001 81032 333// 05602=
56029 32980 00000 10028 20014 36552 52007 333 00353 31010
79999=
52955 32980 01402 10065 21006 37007 54000 333 00251 31031
70001=
56125 32980 00000 10030 20020 36578 52007 333 00254 31004
79999=
52825 32980 10703 10064 21006 37267 52001 80002 333 05151
31033 79999=
52876 32961 03403 10123 20071 38170 57001 333 00300 70003=
56018 32980 00000 11003 21021 36247 52004 333 00252 31039
70001=
52856 32980 00000 10084 20019 37241 52005 333 00252 31017
79999=
56033 32980 10701 11014 21057 36087 52003 80002 333 00201
79999=
52836 32980 01104 10063 21033 36930 52002 333 00000 31003
70005=
59446 32575 71404 10276 20248 40079 52009 87902 333// 00000
70109=
53740 32965 00000 10179 20080 40023 52003 333 05502=
53646 32978 00000 10182 20065 38870 40022 52008 333 05602=
53845 32970 02502 10184 20107 38994 40047 52005 333 05403=
59021 32568 72203 10258 20223 40052 52008 8584/ 333// 05203
70004=
54041 32970 81403 10213 20110 49982 52003 80007 333// 05352=
54142 32970 82007 10220 20123 49995 52004 80007 333// 05200=
50949 32668 71103 10199 20069 39852 40011 54000 875// 333//
05152=
54273 32970 70000 10217 20080 40039 57005 80002 333// 00201=
54386 32970 70000 10121 20063 40080 57004 80002 333// 00100
30045=
50936 32670 70404 10208 20035 49998 57001 84502 333// 05300=
56571 32780 80000 10196 20147 38379 52029 884// 333 00203=
56188 11656 80000 10171 20151 40094 52008 69901 72580 8247/
333 05100 79999=
57405 32962 70000 10188 20173 40102 52017 8703/ 333 05102=
56492 11956 70000 10192 20169 39708 40100 52007 60011 71060
8704/ 333 00000 70082=
57313 31327 70000 10174 20166 40096 52015 71000 8664/ 333
05200 70001=
56196 32962 70000 10195 20164 40094 52010 8704/ 333 05102=
56193 32574 60000 10180 20142 40093 52008 81642 333 05101
70001=
56294 11956 80000 10196 20167 39519 40095 52008 69901 72160
8807/ 333 05101 70001=
57411 11930 81401 10185 20174 39743 40101 52011 69901 72160
8807/ 333 05102 79999=
54027 32680 70902 10191 20041 39441 49983 52003 83202 333//
05458=
54134 32670 72902 10195 20042 49978 52008 81132 333// 05356=
54026 32680 70203 10222 20012 39689 49988 52012 82102 333//
05352=
50834 32980 70000 10155 20014 40034 52002 86032 333// 00000=
50727 32680 71407 10135 21074 38880 40023 52008 82962 333//
05202=
54115 32680 72204 10212 20041 49984 52018 84502 333// 05452=
54226 32980 72005 10237 20074 49983 52002 80002 333// 05454=
54213 32680 73402 10194 20047 49977 52012 83102 333// 05559=
57237 31920 80000 10156 20144 40100 52011 71000 8807/ 333
05202 70005=
56459 32880 70000 10161 20097 37634 52023 874// 333 00152=
54725 32965 82202 10214 20137 40047 52003 80007 333 05651
79999=
54836 32662 81104 10158 20122 40059 52004 885// 333 05755=
54843 32965 81609 10172 20126 30035 40061 52003 8807/ 333
05555=
54808 32968 71804 10186 20166 40043 57002 80002 333 05854=
54826 11/00 92006 10090 20090 38382 52006 60011 76164 333//
05852 70012=
54909 32966 72003 10180 20149 39986 40047 57002 80002 333
05853=
54823 32966 81404 10198 20132 39852 40047 54000 8802/ 333
05854=
58236 11640 81602 10188 20178 40051 57002 69981 76066 885//
333 05900 70048=
58311 32565 82902 10181 20166 40065 52006 885// 333 05651
70019=
58436 11662 81101 10210 20198 40056 52001 60081 70060 885//
333 05700 70083=
58326 11420 82703 10196 20185 40063 52005 69981 76060 8772/
333 05652 70074=
54945 11462 81404 10148 20141 40078 57001 60021 76066 8772/
333// 05557 70031=
54534 11965 72702 10218 20124 40047 52007 69901 70060 8703/
333// 05552 79999=
54916 11660 81403 10167 20165 40058 52002 69921 76060 885//
333 05855 70002=
54863 11980 81405 10175 20109 40079 57005 69911 72160 8807/
333 05554 70001=
54824 32665 81603 10198 20128 40049 52005 885// 333 05754
79999=
57099 70010=
57169 70010=
57175 70020=
57178 70020=
57179 70020=
57186 70010=
57187 70040=
57188 70020=
57189 70070=
57192 70040=
57194 70050=
57195 70030=
57196 70060=
57197 70100=
57198 70030=
57271 70030=
57273 70040=
57274 70040=
57281 70090=
57285 70110=
57292 70100=
57293 70110=
57294 70120=
57295 70130=
57296 70100=
57298 70110=
57299 70110=
57396 70030=
58007 70030=
58017 70020=
58100 70050=
58101 70040=
58104 70100=
58111 70050=
58205 70090=
58207 70090=
58208 70110=
58301 70060=
57089 31956 72003 10180 20157 40049 57001 71000 80002 333//
05801 70005=
57156 32770 72702 10178 20146 40068 52001 8554/ 333// 05701
70001=
58715 32580 71604 10256 20233 40079 52017 8484/ 333// 05202
70258=
54705 32962 21805 10194 20135 40039 54000 80002 333// 05753=
54606 32965 61804 10194 20135 40031 54000 80002 333// 05652=
58362 11665 82003 10204 20195 30058 40068 57003 60041 76060
885// 333// 05851 70036=
57432 31830 80000 10189 20174 40097 52011 71000 885// 333
05200 70024=
57348 11758 82203 10152 20149 40109 52015 69911 72166 885//
333 05100 70084=
57633 11460 80000 10162 20159 39332 40089 52008 60101 78096
889// 333 05301 70103=
57426 31756 82701 10173 20163 40101 52009 71000 885// 333
05202 70002=
53192 11580 71402 10138 20098 38752 49977 52002 69951 72580
83902 333// 05755 70005=
54102 32680 72703 10181 20068 38890 49967 52007 86502 333//
05600=
56374 11156 80902 10094 20094 37446 52006 60041 71080 885//
333// 00302 70065=
56565 32680 72701 10152 20104 37479 52018 8146/ 333 00152=
56671 32780 20000 10195 20139 38178 52016 81142 333 00001=
56485 11570 80000 10141 20134 40127 52014 60021 76066 8277/
333 00101 70074=
56475 11470 80000 10132 20127 38341 52017 60251 78098 884//
333 00301 70332=
56385 11680 70206 10088 21057 37038 52012 69901 70060 875//
333 00204 79999=
59298 32564 50903 10281 20238 40098 52009 81142 333 05100
79999=
56173 11680 60000 10048 20030 36700 52008 69901 70080 81102
333 00351 30013 70037=
56079 32980 11602 10029 20019 36736 52006 80002 333 00352
31012 70007=
56178 11580 70000 10154 20096 37679 52016 69901 70080 87400
333 00403 70017=
56182 32780 60402 10085 20053 37233 52012 85502 333 00301
30049 70010=
56172 32880 60000 10089 20076 37383 52012 82402 333 00451
79999=
58150 11230 81604 10180 20175 30050 40058 57002 60111 76066
8772/ 333 05954 70125=
54624 32964 62203 10219 20129 40048 52001 86030 333// 05600=
54539 11765 72201 10206 20151 30033 40047 52009 69901 72100
875// 333// 05553 79999=
54429 32975 72505 10214 20108 40038 52005 87030 333// 05500=
57245 32962 70000 10170 20158 39758 40098 52006 83032 333
05402 70010=
58005 32962 81803 10177 20152 40047 57001 86037 333// 05952
70003=
58015 11962 82001 10174 20159 40051 52002 69951 70060 8807/
333 05854 70016=
58319 11940 81103 10196 20193 40057 52006 69991 71060 8807/
333 05652 70071=
58562 11665 82203 10219 20191 40074 52001 69901 70080 884//
333 05804 70048=
58760 11750 81802 10213 20193 40096 52003 69901 71060 885//
333 05501 70093=
58556 32965 70000 10204 20182 40079 57002 8704/ 333 05601
70015=
45007 11475 41303 10298 20247 30087 40096 52008 69972
70181 84200  333  20275 59009 70007 81815 83830 =
57259 11970 70000 10167 20147 40088 52004 69901 70060 87042
333 05503 70115=
57355 11762 82502 10169 20156 40091 52012 69911 70060 8657/
333 05300 70068=
57545 11530 80000 10169 20167 40088 52006 60671 79198 889//
333 05400 70705=
57554 11420 80000 10174 20167 40086 52007 60041 79160 889//
333 05501 70072=
57671 11760 80000 10186 20183 40079 52012 60111 70060 885//
333// 05401 70175=
57682 11460 80000 10184 20178 40087 52010 60031 76060 887//
333// 05300 70048=
57687 11320 80000 10189 20183 30002 40081 52010 60031 76060
8772/ 333// 05401 70040=
57745 11840 80000 10175 20170 39770 40088 52015 69911 76060
8802/ 333 05400 70014=
57776 11/00 92212 10191 20191 40085 52019 69901 76064 333
05201 70005 91127 91520=
57853 11420 83201 10201 20193 40077 52004 60101 76086 887//
333 05402 70101=
57866 11420 82702 10207 20205 39881 40081 52008 60091 78186
889// 333// 05301 70099=
57965 11564 71402 10248 20236 40075 52012 69901 76060 8114/
333 05201 70057=
57972 32962 72204 10271 20223 39866 40079 52011 8704/ 333
05306 70003=
59102 11565 71803 10249 20224 40107 52011 69901 72160 878//
333 05101 70084=
56080 11680 10000 10060 20034 37181 52005 69911 70080 81540
333 00300 30015 70041=
53772 31957 01403 10183 20107 39168 40032 52004 70400 333//
05703=
50953 11670 70202 10186 20106 39872 40042 52008 69921 70060
81832 333 00351 70002=
53480 32980 22503 10165 20077 49997 52002 80002 333// 05700
30042=
53898 32961 62003 10180 20144 40043 52005 80002 333// 05857=
54602 32970 01602 10191 20132 40033 57001 333// 05653=
54751 11965 82004 10184 20133 40066 52005 69901 70060 8807/
333// 05553 79999=
58241 11308 81602 10178 20175 40058 57001 60141 76064 8772/
333 05952 70182=
56651 32680 32704 10160 20094 37618 52012 83400 333 00001=
56951 32780 20000 10190 20164 38478 52012 81102 333 00000
79999=
57328 11820 82001 10179 20169 39701 40100 52013 69901 71060
885// 333 05202 70012=
58027 11315 81401 10166 20163 30005 40054 52001 60021 76066
8772/ 333 05854 70069=
50527 32970 60905 10140 20004 39336 40034 57002 80002 333//
05100 30025=
58730 11462 70000 10233 20223 40093 52009 69901 70060 87500
333 05202 70361=
58731 32768 81401 10221 20214 40097 52010 8257/ 333 05202
70148=
58754 31456 70000 10220 20203 40104 52007 71000 875// 333
05402 70054=
58911 11460 81403 10245 20228 40108 52013 69901 70060 885//
333 05102 70176=
50353 11570 23603 10113 20002 39869 40082 52011 69901 70080
81132 333 01251 79999=
50978 32980 22905 10189 20052 39772 40047 52006 80002 333
00953=
56666 32780 31101 10257 20150 40000 52023 82542 333 00002=
56977 11270 80000 10216 20201 40067 52008 69911 70080 884//
333 00001 70053=
57206 31940 70000 10170 20148 40101 52016 71000 80002 333
05100 70002=
57602 11820 71801 10190 20182 40103 52010 60041 71098 875//
333 00001 70042=
57713 11465 83402 10163 20151 40100 52013 60031 70086 8552/
333// 05101 70050=
58820 31618 70000 10232 20229 40090 52009 72840 8154/ 333
05201 70129=
58647 31658 70000 10216 20204 40098 52009 71000 875// 333
05302 70093=
58737 32762 70000 10235 20222 40096 52013 87500 333 05201
70141=
58846 31458 70000 10228 20205 40108 52009 71000 8553/ 333
05403 70007=
59133 32662 82003 10240 20224 40112 52013 885// 333
05101 79999=
57251 31958 70000 10179 20157 40073 52008 71000 82032 333
05500 70001=
57279 11963 70000 10173 20153 40079 52005 69921 70060 8707/
333 05602 70103=
57378 11460 81802 10172 20162 40086 52013 60011 76060 8777/
333 05502 70016=
57399 11960 82003 10185 20172 40081 52007 69931 70060 8807/
333 05451 70057=
57494 11460 82501 10185 20169 30050 40079 52012 69971 76160
8772/ 333 05400 70074=
57574 11961 80000 10186 20175 40077 52009 69911 70060 8807/
333 05503 70086=
57655 11430 81401 10170 20165 40090 52011 60011 76160 8272/
333 05451 70038=
57774 11750 80000 10195 20188 40080 52011 60011 76060 885//
333 05401 70020=
57799 31756 72701 10255 20239 39996 40076 52014 71000 875//
333 05203 70009=
58203 11558 72704 10177 20167 30016 40061 52009 69921 71060
8257/ 333 05700 70168=
58321 31550 83404 10187 20172 40058 52001 71000 885// 333
05751 70010=
58407 11420 83203 10186 20176 40074 52005 60081 76166 8772/
333 05452 70222=
58437 11/00 92707 10165 20163 38136 52004 60111 79564 333
05305 70178 91118 91522=
58608 31940 72702 10243 20232 40070 52012 71000 87030 333
05303 70003=
57127 32961 42001 10158 20144 39511 40097 52009 84030 333
05302 79999=
56046 32980 00000 10014 21047 36325 52009 333 00452 31037
79999=
52533 32980 02202 10155 20029 38453 40018 52006 333 05253
30043 79999=
53923 32980 72203 10158 20124 40065 52008 80002 333 05206=
52986 11970 00000 10122 20084 38014 52002 69901 70080 333
00303 70014=
52943 32680 13201 10027 20012 36845 52005 81500 333 00354
31032 70006=
54527 32962 52003 10208 20132 40043 52004 80002 333 05551=
53764 32970 10000 10176 20101 40036 52001 80002 333 05802=
53975 32960 62001 10164 20106 40056 52002 80002 333// 05651=
54436 32980 22505 10221 20093 40036 52010 82032 333// 05500=
47401 32/65 62709 10145 20063 39942 49955 53025 81232 333
20124=
47412 32/80 23006 10231 20014 39972 40001 53016 81230 333
20142=
47420 32/65 32108 10190 20074 39910 49954 58004 81202 333
20111=
47426 11/60 42802 10142 20096 39986 40029 51015 69902 70281
81232 333 20098=
47582 32/86 11907 10227 20095 30066 40090 50002 81101 333
20168=
47590 32985 12002 10249 20088 30042 40091 58002 80002 333
20163=
47600 32982 12205 10259 20070 30090 40106 51001 80002 333
20137=
47648 32975 32106 10226 20173 30094 40126 51004 81032 333
20179=
47662 31956 31602 10248 20187 30077 40118 58003 70511 80002
333 20204=
47678 32560 32403 10218 20197 30034 40127 51003 82201 333
20169=
47740 32986 72303 10227 20095 30070 40106 50006 81036 333
20113=
47778 32970 70604 10243 20109 30034 40120 51008 80001 333
20170=
47807 32970 71304 10221 20137 30091 40108 58005 85032 333
20175=
47827 32962 70202 10205 20157 30088 40124 51006 8707/ 333
20164=
47843 11965 70401 10202 20146 30085 40116 52005 69902 72111
86032 333 20120=
47898 32/65 70702 10217 20162 30088 40126 51008 85402 333
20181=
47909 11260 80901 10218 20192 30114 40123 50005 60022 76186
8587/ 333 20202=
47918 32480 61905 10290 20252 30108 40116 52013 83232 333
20270=
47936 31/65 71805 10267 20240 30058 40118 51007 70242 8627/
333 20225=
47945 32/65 71604 10267 20247 30106 40129 51008 81179 333
20228=
47971 32/82 71903 10263 20232 30134 40143 51004 81232 333
20237=
47991 32/80 21105 10291 20234 30148 40158 51005 82332 333
20258=
58918 32470 81403 10246 20230 40109 52011 888// 333
05101 70178=
56586 32470 80000 10122 20099 38044 52015 885// 333 00102=
56763 32680 11802 10250 20176 40019 52019 81402 333 00002=
56768 32680 20000 10205 20142 38199 52013 81402 333 05101=
56959 32970 00000 10229 20220 40061 52011 333 05101 70001=
57306 31940 80000 10178 20172 40098 52010 71000 8807/ 333
05201=
86500 333// 05703 70131=
54774 11975 82210 10189 20102 40072 52004 69901 70060 8807/
333 05555 79999=
54871 11480 82205 10168 20119 40089 52005 69901 76060 8272/
333// 05452 79999=
54776 11970 82008 10172 20122 30027 40083 52009 69901 72160
8807/ 333 05451 79999=
54563 32965 81802 10169 20130 40055 52009 8807/ 333 05455=
53663 32580 12207 10177 20074 40013 52002 81100 333// 05603=
53664 32970 01803 10196 20154 40022 52003 333// 05704=
54311 32975 61602 10175 20082 40007 57006 81032 333// 05703=
58813 32563 71802 10265 20233 40074 52007 8646/ 333// 05202
70033=
59321 32575 80403 10251 20232 40117 52013 888// 333 05201=
54753 32965 81806 10197 20110 30058 40064 52008 8807/ 333
05554=
54929 11940 81403 10158 20148 40061 57002 60011 71086 8807/
333 05855 70018=
50915 32580 72205 10219 20039 39032 49940 52003 84902 333//
05503=
54208 11580 71102 10137 20072 38649 40003 52007 69901 78000
86902 333// 05655 30039 79999=
54012 32580 72206 10188 20042 38881 49961 52006 86202 333//
05652=
53195 11956 71809 10183 20064 49947 54000 69901 70780 80002
333// 05654 79999=
54715 32965 21806 10200 20144 40050 57002 80002 333 05751=
54936 11560 81604 10152 20143 40064 57006 60011 76060 8572/
333// 05756 70020=
52765 32980 02502 10042 20003 37199 52005 333 00152 31027=
51818 31859 72203 10188 20066 40016 52006 70600 86502 333//
00201 79999=
57134 32680 73402 10143 20124 40070 52006 8353/ 333 05203=
52895 32980 00000 10179 20102 40057 52003 333 00104 79999=
57106 32563 40000 10143 20129 40108 52007 84600 333 05101=
53929 32962 20000 10149 20134 40078 52009 80002 333 05204=
52674 32980 02702 10128 20037 37979 52005 333 05101 30025
79999=
53821 32980 70000 10151 20072 40057 52006 82042 333 05202=
56074 32980 10000 10036 20004 36709 52005 80002 333 00352
31012 30028=
53942 32960 00000 10169 20102 40066 52008 333 05303=
52661 32962 01101 10124 20030 38178 52003 333 05252=
50656 32975 20701 10179 20018 40065 52010 80002 333 00602
30014=
50742 32965 20404 10201 21015 40054 52004 80001 333 00401
30047=
50564 32970 20402 10117 20032 40069 52013 80002 333 00953
30000=
89054 32860 82704 11038 21049 40314 52006 8807/
333 11037 21076 76059 88457=
89056 31359 82808 11040 21043 40332 52005 74822 885//
333 11035 21058 76799 88606=
89057 32460 82802 11041 21050 40331 52008 886//
333 11041 21062 76099 88710=
89058 11463 83208 11038 21046 30309 40325 52002 69921 77070 885//=
89059 31420 61707 11048 21065 40325 52004 71044 886//
333 11038 21048 75099 88710=
89251 32562 63210 11032 21049 40310 52010 86500
333 11026=
60115 32970 02202 10180 20111 40199 50001=
60156 32350 30404 10187 20165 40189 51002 83600
333 83706=
60230 32960 00000 10255 20136 40178 51016=
60127 32960 00000 10225 20100 39618 40196 51007=
60191 32965 02405 10231 20115 40166 52013=
60195 32565 3//// 10200 20110 38563 48579 51006 83200
333 83833=
60210 32965 03203 10266 20102 39023 48568 53004=
60265 32670 11408 10256 20063 38937 48581 51015 81200
333 81840=
60318 32960 00000 10190 20167 40189 52002=
78583 11465 70305 10271 20241 40111 69941 70388 84833 333
01119 10290 20215 58000 70479 81816 83635 87359=
78858 11474 80711 10265 20239 30091 40147 69961 72582 85820
333 10294 20223 58004 70069 85815 88462=
81405 11458 51304 10246 20234 40112 69921 70386 82232
333 10294 58000 82813 83360=
96315 35470 72004 10264 20229 40082 82963
333 20237 50016 8181681917 86080=
33815 42998 01502 10176 20089 39893 40103 58003 555   19015=
78970 11457 80805 10263 20245 30093 40118 60081 70682 81177
333 01299 10305 20249 59004 81818 85460 88278 90945=
61901 36/// /1215 10179 20133 40185 5////=
61902 11580 61013 10259 20191 40136 69901 78081 868// 333 59004
84820 85640=
88889 11475 51709 10010 20001 40286 52014 69941 72687 85800 333
10027 82813 85624=
48698 11457 72602 10274 20248 30058 40076 69914 71792 84932 333
20257 59011 70001 82612 81916 86080=
68906 32598 60513 10098 20048 30067 40133 57014 86500
333 10106 20069 91021 555 91013=
60710 32960 10000 10196 20183 30122 40200 58001 80002
333 55140 81070=
60714 32965 02804 10190 20158 30188 40195 54000
333 55137=
60720 32960 02806 10197 20161 30153 40189 51002
333 55133=
60738 32960 03204 10170 20109 38993 48569 51002
333 55136=
60740 32960 00000 10214 20184 30191 40194 58002
333 55131=
60745 32960 00310 10244 20137 39827 40187 51007
333 55133=
60750 32556 12904 10212 20206 30160 40194 58004 81500
333 55131 22920 81620=
81408 16/// /0000 10237 20234 40112 69941
333 10261 58002=
68994 11297 42746 10033 20014 39659 49685 52133 60101 75105 84500
333 10106 20027 60035 91078 555 20096 90968=
78897 32562 70906 10272 20232 40148 51016 84802
333 02266 10304 20248 58003 70012 84820 85076=
61701 32960 23405 10222 20204 40115 80002
333 59009 82073=
63980 41480 51410 10259 20230 40106 72581 84802 918//
333 58001 84818 83075 943// 91120=
88963 32965 01803 11136 21158 30305 40336 53005
333 11117 21136 92407 95010
555 10321 64111 65205=
88968 11320 81424 11130 21151 30166 40182 58007 60021 77177 8772/
333 11056 21133 56339 87707 88525 90062 90237 90976 91050 91514
92435 92813 92962 94070 96038
555 64090 65082 DIEBEL/INV=
89053 32462 42705 11036 21054 30317 40331 52003 84600
333 11036 21065 56000 84710 92417 92840 93503 94070 95090
555 64205 65182=
89055 31904 03407 11180 21201 30064 40343 57004 74244
333 11155 21206 90092 92722 92843 95199
555 10303 64225 65180=
89066 32970 20000 11082 21105 30320 40328 52008 80002
333 11060 21089 56009 82070 92427 92840 95000
555 64127 65205=
89009 41661 10811 11649 36947 57008 77670
333 11639 21688 81241=
91570 06/// /0508 10289 20249 30116 40119 58003 69964
333 20247 59001 69927=
91574 36/// /1512 10236 20199 30131 40137 58005
333 20214 59005=
91598 06/// /1324 10187 30095 40127 58010 60034
333 20156 59010 69947=
89642 41901 01856 11147 21165 30069 40126 50023 73930
333 01693 11142 21166 91080 91193=
53782 32975 10000 10212 20098 40017 52007 80002 333// 05701=
16059 32662 23403 10174 20040 39781 40118 52015 82500
333 82656=
16080 32960 30000 10204 20044 39989 40109 51014 83030
333 83359=
16153 32597 40415 10188 20183 39862 40119 52010 84500 92345 333
84630 555 0////=
16105 32565 50418 10153 20100 30137 40143 51015 83430
333 83630 83358=
16066 32960 00103 10177 20003 39870 40120
57007=
16084 32870 50710 10188 20139 39961 40123 52023 85030 92345 333
85358=
16120 32975 00302 10182 20156 30125 40128 52004
333 97080 555 0313/=
16090 32960 00920 10171 20139 30039 40119 52023 92345=
16110 11580 80518 10130 20097 30115 40139 51015 60191 76096 8687/
92345 333 82825 84630 555 0////=
16134 32062 62410 10066 20000 37831 48497 50008 82208 92340 333 82801
=
16149 32970 01403 10202 20122 30097 40112 52005 92345=
16008 42970 00306 10060 21006 38540 48499 51007 92345=
16020 36/// /0207 10174 20009 39849 40131 51019=
16061 32975 00603 10154 20060 39290 42746 52010 92345=
16114 32965 01508 10158 20158 39469 42757 52007 92345=
16033 32560 30807 10062 20036 38787 48497 52012 83200 92345 333
83825=
16088 32670 41112 10163 20111 30013 40128 51034 84500 92345 333
84640=
16098 32965 50718 10154 20109 30091 40142 51016 85050 92345 333
85359=
16108 11660 80305 10132 20103 30139 40160 51013 60131 70296 885//
333 88650=
11036 32980 63006 10119 20039 39953 40181 53009 8602/ 333 86463
91115 91211=
11120 368// /9901 10076 20071 39512 40215 52003=
11150 167// /9902 10081 20057 39671 40209 57002 69901=
11240 362// /9901 10111 20109 39780 40192 52012=
11816 32970 63005 10113 20052 30021 40183 51009 86040
333 55004 86360 =
11826 32980 63003 10097 20068 39980 40178 52012 82031
333 55005 82362 86070 =
11903 32970 20802 10091 20067 39781 40158 52006 82030
333 55014 82360 =
11934 11465 52707 10079 20052 39338 42774 52011 69901 70162 83530
333 55000 81712 84362 =
11968 11970 13302 10106 20080 39868 40145 52002 69901 70181 80001
333 55014 81070 =
11841 11970 02601 10079 20065 39793 40168 51009 69971 70186
333 55004 =
11916 46/// /3413 11010 21013 37940 48446 57009 6///1 =
11927 35/84 /2804 10120 20059 39889 40146 52008
333 55024 =
11930 46/// /2804 11047 21052 37345 47023 57007 6///1
333 55011 =
11993 36/// /3103 10106 20087 39929 40142 52002
333 55063 =
11855 35/84 /3004 10101 20079 30012 40176 52011
333 55013 =
11867 17/63 /0201 10099 20075 39862 40175 52010 69901 70066
333 55010 =
11880 36/// /2501 10098 20086 39993 40163 52007
333 55010 =
11918 16/// /2802 10068 20050 39351 42788 52014 60011 =
11933 36/// /3401 10024 20022 38614 48465 52002
333 55002 =
11938 36/// /0901 10050 20046 39099 42770 52013 =
11976 36/// /3602 10095 20087 39887 40148 52004
333 55024 =
11978 36/// /3403 10124 20098 30012 40139 52003
333 55015 =
12772 11970 73002 10126 20107 39867 40146 52008 69931 70182 81048=
12822 32968 73202 10107 20062 30037 40178 52009 8707/=
12843 32984 73305 10128 20068 39990 40157 50009 8707/=
12882 11665 80503 10130 20118 30002 40133 52003 69961 70182 8327/
333 83833=
12925 32970 83501 10112 20103 30016 40188 52012 8807/=
12942 32670 63307 10128 20049 39930 40173 52009 83570 333 83633=
12982 32975 73205 10136 20080 30055 40155 52009 8707/=
91366 11466 80716 10285 20254 30081 40090 58008 60124 72582 83873
333 20246 56226 59012 70122 555 93000=
16310 32697 33406 10190 20181 39946 40163 51004 83200 92345 333
83840 555 0////=
16242 32564 22505 10168 20159 30146 40149 58001 82100
333 82823 555 0////=
16158 32970 03601 10188 20149 30132 40140 56001 92345 333 55300=
16560 32975 03308 10200 20183 30175 40181 56001 92345=
91376 12474 70812 10292 20250 30093 40097 58014 60014 84871 333
20256 56229 59006 70010 555 93000=
17601 32965 40510 10215 20161 40089 57008 84080 333 84365=
10004 46/60 ///10 10104 20062 30135 40135 52005
222// 00117
333 55300 91114 91212=
10015 32482 42810 10100 20057 30114 40124 53005 84800
333 553// 83816 83633 91114 91211=
10020 11580 52811 10094 20045 30070 40106 51007 69901 70182 85200
333 55/// 21627 55300 2//// 85822 91115 91212=
10035 11560 32504 10076 20055 30060 40119 51007 69961 72581 82832
333 55/// 21104 55300 81820=
10055 32580 32510 10098 20074 30099 40109 51008 83200
333 55300 83825 91116 91213=
10147 32780 42303 10078 20059 30111 40129 51005 84500
333 55300 84650=
10162 16/60 /2204 10066 20066 30042 40125 51007 69901
333 55300=
10184 11782 52404 10085 20071 30108 40115 52007 69921 72582 85500
333 55300 85656=
10224 11581 52304 10063 20056 30136 40142 53003 69901 70282 85801
333 55/// 21218 55300 81825 85650=
10270 11781 42602 10073 20059 30087 40142 53009 69911 70381 81531
222// 06160
333 55300 81650 83073=
10338 11780 42303 10080 20063 30073 40146 51006 69941 70381 84500
333 55300 84656=
10361 11980 02203 10066 20048 30050 40154 51005 69921 70181
333 55300=
10384 11782 62604 10088 20069 30084 40144 53009 60011 70298 86500
333 55300 86656=
10393 11682 62504 10082 20062 30021 40148 53008 69911 70381 82550
333 55/// 22192 55300 20000 30000 82646 85360=
10400 32680 51602 10068 20046 30117 40167 50001 8453/
333 55300 84644=
10438 12685 61903 10057 20040 39893 40177 53004 69901 70381 862//
333 55/// 21981 55300 86836=
10469 11880 52103 10074 20056 30000 40166 50003 69911 70181 83530
333 55300 83656 83363=
10488 11683 32604 10074 20050 39884 40166 52007 69901 70281 82802
333 55/// 22101 55300 81840 83072=
10548 11980 02202 10052 20041 39636 40184 50003 60031 70281
333 55300=
10637 11770 42002 10070 20057 30054 40193 51003 60011 70398 81531
333 55300 81650 83360=
10685 32970 32402 10044 20036 39508 40190 52004 80001
333 553// 83080=
10738 11986 22101 10063 20040 39728 40201 50000 69901 70181 81032
333 55300 81360=
10763 12980 11102 10056 20050 39810 40197 52005 60011 70281 80001
333 55/// 21735 55300 20000 81080=
10788 11782 62302 10070 20056 39756 40190 51005 69901 83550
333 55300 83656 85359=
10852 32780 61001 10044 20035 39635 40213 51005 86500
333 55300 86650=
10946 32880 60000 10076 20050 39376 40207 51003 86500
333 55300 86657=
10091 11568 72712 10103 20060 30052 40103 53007 69901 76186 878//
333 55/// 21111 55300 20000 30000 81820 87631 91117 91212=
10113 11480 73008 10104 20062 30113 40132 52004 69911 70381 878//
333 55/// 21793 55300 82816 87657 91211=
10129 11781 32406 10093 20080 30122 40135 51004 69941 72181 83500
222// 2//01
333 55300 83656 91114 91211=
10131 32580 72705 10099 20047 30112 40127 51004 878//
333 55300 82823 86650=
10170 11580 62204 10084 20063 30098 40113 51008 69911 70382 86300
333 55/// 20774 55300 86924=
10253 16/60 /2303 10076 20076 30122 40144 51007 69941
333 55300=
10280 16/60 /2406 10072 20068 30029 40127 53007 69941
333 55300=
10291 32980 32506 10080 20064 30068 40135 53008 81032
333 55300 81360 83076=
10305 16/// /2001 10066 20066 30123 40155 53005 60021
333 55300=
10315 32980 02202 10063 20052 30091 40156 53004
333 55300=
10348 11582 62403 10075 20060 30048 40155 51003 60011 72582 85830
333 55/// 21958 55300 82830 84650=
10385 11784 32403 10072 20055 30084 40146 53007 60021 70181 83500
333 55300 83656=
10427 11380 52606 10026 20017 39162 48461 53001 60011 70282 85200
333 55300 85808 91114=
10453 11/90 92511 10011 20009 38820 48449 58003 69951 74782
333 55300 91119 91216 96488 96486 96441=
10474 11682 32303 10082 20062 30027 40157 53005 69901 70181 83500
333 55/// 22204 55300 20002 83643=
10490 36/59 /2404 10081 20066 30037 40159 53009
333 55/// 22245 55300 20000=
10499 12580 52604 10079 20046 39867 40155 52001 69901 85500
333 55300 85630=
10501 11684 12103 10083 20056 39925 40173 51001 69901 70198 81500
333 55300 81641=
10513 11682 71803 10085 20067 30054 40176 52003 69901 72581 878//
333 55300 82835 86650 96413=
10532 11960 21702 10069 20069 39946 40184 51005 60021 70198 80001
333 55/// 21689 55300 82080 96495 96481=
10544 11/03 92504 10027 20025 39099 48472 50002 69911 74584
333 55300 89/01 96480=
10554 11982 12104 10043 20030 39782 40175 50001 60021 70181 81030
333 55/// 22308 55300 20006 81360=
10577 11984 02405 10050 20039 39666 40175 52003 69981 70181
333 55/// 22079 55300 20000 30000 91115=
10578 11/90 92712 10005 20005 38765 48461 51004 69941 74784
333 55/// 21873 55300 20006 30006 91128 90253 91218 90352 91218 96486=
10609 11980 12201 10058 20056 39856 40190 51004 60031 70298 80001
333 55/// 21829 81076 95137 =
10655 11980 01201 10063 20059 39859 40190 52006 60011 70181
333 55/// 22169 55300=
10688 11680 51802 10051 20044 39662 40191 55002 69971 70386 82541
333 55300 82637 83080 91114=
10708 32980 01701 10049 20036 39809 40199 50000
333 55/// 21765 55300=
10729 11982 11302 10058 20043 30068 40191 50000 69901 70181 80001
333 55/// 21926 55300 81075=
10776 32980 02201 10065 20052 39752 40201 51005
333 55300=
10803 32985 11302 10107 20057 39845 40204 50003 81031
333 55/// 21582 55300 81360=
10836 11989 42604 10055 20030 39325 40198 50001 69911 70198 82031
333 55300 82361 83074=
10929 32983 70101 10098 20069 39671 40202 52002 8703/
333 55/// 2//// 55300 87358=
10961 11/00 93107 11075 21075 37074 47044 55004 69961 77874
333 55300 91117 96049=
10962 11683 72807 10063 20032 39066 48511 53002 69901 70286 8353/
333 55300 83646 85360 96487=
16170 32960 01203 10182 20158 30092 40136 58001=
16206 32975 03608 10158 20140 30130 40139 50001 92345=
11101 36/// /1803 10117 20074 39678 40196=
11022 36/// /3205 10083 20049 39789 40178=
11028 36/// /2303 10088 20050 39846 40188=
11130 36/// /2001 10069 20063 39617 40207=
11157 32762 79901 10057 20052 39430 40201 53001 865/2 333 86656=
11172 32665 80000 10041 20021 52012 885// 333 88640=
11204 36/// /1301 10084 20081 39401 40182=
11231 162// /0000 10096 20089 39636 40201 52007 60011=
60715 32960 03008 10225 20126 30183 40188 58004
333 55138=
60725 32958 02004 10181 20163 30037 40204 51003
333 55119 22954 30184=
60735 32960 00000 10221 20139 30122 40202 54000
333 55132=
60760 32958 00502 10272 20124 30057 40163 52009
333 55133=
60765 32960 00608 10237 20204 30182 40188 52008
333 55130 22892=
60769 32556 11004 10220 20195 30180 40185 52002 81500
333 55134 23191 81626=
41170 32965 02910 10299 20126 39996 40009 333 58018=
11423 11184 42605 10033 20033 39303 42794 53003 69951 70381 82671
333 55073 82703 9512/=
11464 32984 13010 10039 20030 39184 42779 52001 80001
333 55090 81077=
11487 11789 12604 10059 20041 39564 40189 52002 69911 70181 81541
333 55055 81650=
11518 32989 22604 10060 20033 39740 40182 52005 80001
333 55081 82076=
11603 11970 20000 10050 20040 39689 40172 55000 69911 70198 81031
333 55072 81358=
11659 32670 22202 10055 20043 39545 40187 53002 82400
333 55037 82633=
11782 32970 02302 10065 20055 39859 40175 52006
333 55009=
57004 70010 88/// 92350=
83362=
17600 32970 33411 10228 20103 30078 40094 56014 81082
333 81362 83075=
17609 32980 03506 10233 20107 30090 40092 58009=
15260 32562 82704 10154 20154 39611 40125 50008 8437/=
15004 01558 80000 10148 20139 39800 40124 50004 60091 78092 889// 333
60097 96029=
15020 32565 62705 10162 20139 39912 40102 52016 83470=
15090 32960 10502 10210 20086 39975 40096 58003 81040=
15108 32681 22314 10078 20078 38075 48478 58007 81041 333 91120 95100
=
15120 01556 80000 10139 20139 39645 40125 54000 60041 76198 8472/ 333
60037 96010=
15150 32960 00000 10190 20149 39872 40092 57006=
15200 32970 63204 10150 20095 39995 40134 52005 86070=
15280 31/00 92004 10028 20028 37501 47056 58008 74744 333 41998=
15292 01560 80000 10154 20149 39872 40157 52003 60021 70298 889// 333
69927=
15310 32970 02002 10196 20133 30019 40101 58005=
15346 32962 70000 10183 20126 39822 40098 51002 87070=
15350 32960 02302 10176 20131 39986 40100 52004=
15360 32980 02304 10214 20179 30094 40104 56004 333 92418=
15410 31560 62904 10164 20159 30023 40116 58004 70292 86900=
15420 32960 01601 10155 20117 39983 40090 57005 333 91001 91202=
15450 01560 82708 10176 20176 39880 40108 58004 69921 70198 8492/ 333
69927=
15460 32960 01401 10187 20122 30077 40101 58005=
15470 32960 73203 10185 20143 39982 40103 51002 87070=
15480 32960 00000 10176 20149 30097 40112 57009 333 92417=
16219 32965 02411 10072 20024 38146 48522 51006 92345=
82825 85834 91115=
17195 11970 50000 10114 20053 38954 48497 58006 69911 70391 85030
333 85362 10110=
17219 32965 00000 10147 20100 40119 56005=
17244 11670 69902 10128 20101 38970 48488 52010 69921 70282 84250
333 84835 86359 10102=
17022 32670 51601 10176 20157 40105 58003 83250 333
83834 85360 92428=
17038 32670 31601 10170 20157 40107 57011 83250
333 83835 92428=
17050 32970 00102 10176 20154 40105 58002=
17060 32660 50104 10182 20160 40102 58004 82130 333 82840 84360=
17096 32970 00708 10078 20036 38228 48487 56004 333 10096=
17124 11665 40000 10146 20137 39237 40126 56004 69911 70281 82250
333 82840 84360=
17128 32670 40000 10143 20102 39045 40088 56005 84200 333 84840=
17170 32670 21706 10114 20052 38329 48493 56002 82100
333 82835 10091=
17200 32970 02303 10140 20027 39149 40081 54000=
17240 11975 00000 10122 20114 39009 40115 58005 69911 70291=
17280 32970 03305 10174 20040 39310 40053 57003=
17350 32660 43604 10200 20184 40105 58007 84200 333
84835=
17034 32970 01603 10158 20145 40124 53008 333 92428=
17070 32565 70000 10154 20141 39267 40093 58005 87200
333 87833=
17210 32975 01102 10202 20067 39080 40044 54000=
17290 32970 30000 10217 20161 40103 57008 83030
333 83360 92408=
17084 11670 31803 10144 20103 39232 40092 56006 69901
70281 83200 333 83835=
17098 11970 31602 10074 20059 38210 48503 57008 60011 70198 83030
333 83360 10124=
17150 32960 00000 10136 20110 40106 58002=
17160 32970 20203 10130 20110 39004 48504 54000 82040
333 82360 10118=
17190 11670 40000 10124 20110 39000 48492 57010 69961 70192 84200 333
84835 10117=
17234 32970 30000 10195 20131 40102 58003 83030 333
83360=
17056 32970 03203 10167 20157 40104 58002 333 92418=
17115 32960 00000 10154 20094 40102 50000=
17248 32975 01404 10130 20117 38950 48490 57010 333
10091=
17112 32970 00000 10170 20166 40115 54000 333 92418=
17116 32562 60000 10180 20166 40112 58002 84250
333 84830 86359=
17202 32970 00000 10164 20026 39102 40078 51004=
17292 32670 30000 10172 20101 39375 40093 57005 82130
333 82840 83360=
17300 11565 42601 10208 20193 40098 57011 69901 70291 84200 333 84830=
17042 32970 00702 10165 20154 40118 57012 333 92428=
17085 32670 30000 10164 20135 40104 51001 83200 333
83840=
17205 32680 40000 10104 20031 38320 48487 56010 84200 333 84840
92418 10086=
17100 11570 72701 10150 20058 39160 40111 54000 69981 70292 85970
333 81930 84836 87359=
17237 32970 03602 10196 20135 40096 58002=
17250 32975 00401 10116 20090 38784 48491 57011 333
10097=
17270 32970 02905 10230 20139 39456 40053 58002=
17375 11670 51702 10226 20193 40096 57020 69931 70181
83250 333 83836 85360 92417=
12205 32670 52204 10088 20080 30121 40129 53009 85500=
12560 11965 22302 10071 20063 39827 40172 52010 60041 70198 80001
333 91112=
12120 31498 42205 10086 20068 30098 40105 52004 70191 82532=
12250 32597 72502 10102 20053 30042 40130 52014 875//=
12295 31458 63101 10090 20082 39937 40120 53001 71022 86500=
12330 32670 72303 10090 20051 30032 40139 51009 875//
333 91112=
12375 11770 82605 10116 20080 30004 40133 53010 69901 76122 8757/=
12424 12999 02702 10063 20048 30005 40158 50002 69901
333 91113=
12105 32998 12002 10082 20070 30071 40112 52003 81030=
12135 32498 32503 10089 20083 30107 40110 53007 83200=
12195 32560 82702 10099 20090 39889 40113 55000 885//=
12235 32997 22203 10062 20047 39915 40125 53007 82030=
12270 32597 72603 10102 20073 39942 40121 53006 873//=
12360 11698 71602 10094 20086 30001 40133 52015 60011 72522 879//=
12385 32997 42402 10108 20104 39940 40127 52003 84030=
12400 32984 12403 10075 20057 39914 40149 52005 81050=
12435 31560 72603 10101 20061 39977 40147 51010 70292 875//=
12495 32597 82502 10108 20103 39848 40136 53002 885//=
12510 11/90 92723 11013 21015 38330 48452 53005 69951 74984=
12520 11580 22102 10050 20041 39739 40176 52003 69941 70398 81530
333 91111=
12570 11996 73004 10090 20068 39834 40149 51008 69951 71082 8707/=
12595 11596 70000 10108 20101 39880 40136 51003 69961 71082 875//=
91324 32474 80406 10320 20247 30088 40090 85201 333 20222 561/9
59007 85818 88075 555 93000=
91339 12574 80406 10306 20253 30088 40094 51010 60024 84202 333
20239 561/9 59007 84820 88075 555 93000=
80002 333// 05152 70077=
12160 32597 70000 10076 20072 30062 40115 53007 83232
333 91110=
12230 32960 52301 10066 20056 30044 40134 52011 80002
333 91112=
12399 31496 62501 10113 20102 39960 40126 51003 71022 86500=
12418 32997 02601 10066 20051 30034 40149 52007 =
12469 11597 72604 10092 20074 39921 40150 51015 69921 72582 879//
333 91110=
12540 11997 32101 10077 20067 39919 40170 51006 60011 70381 80002=
12566 11980 32302 10087 20071 39876 40164 53015 60011 72581 83030
333 91117=
12625 11480 72802 10064 20058 39170 42786 52013 69921 70382 872//=
12690 11/01 93101 10095 20095 39648 40152 53001 69921 74782 =
12115 32497 62005 10089 20067 30093 40106 52005 86500=
12200 32470 62203 10082 20068 30114 40121 52008 86500=
12272 32570 82202 10112 20071 39947 40111 55000 885//=
12280 32965 72403 10109 20092 39953 40112 55002 85031=
12285 36/// /9902 10104 20091 30005 40119 54000 60081=
12345 11565 72302 10110 20069 39998 40140 52016 69901 72522 879//=
12415 11998 12505 10080 20060 30003 40155 52002 69961 70381 81030
333 91116=
12455 11565 82502 10091 20073 39912 40156 52006 60011 70382 875//=
12497 11565 72902 10110 20108 39915 40131 53002 69921 70182 875//=
12500 31656 30000 10031 20026 39751 40174 52003 71011 83500=
12530 11997 01901 10076 20066 39964 40163 52007 60021 70298 =
12580 32765 62402 10114 20105 39904 40145 53004 86500=
12585 32697 52704 10105 20101 39885 40148 53006 85500=
12600 11570 32002 10083 20059 39690 40170 51011 69901 70186 81501=
12660 32560 53101 10107 20074 39809 40163 52020 85500=
33506 42997 00000 10178 20124 39942 40130 58002=
33587 42965 00000 10141 20117 39861 40115 58003=
33658 42697 72906 10152 20128 39821 40109 52010 85330 333 85933=
33711 42095030000 10178 20120 39924 40124 52002 83030=
33791 42997 00000 10191 20125 39970 40115 58005=
33837 42999 02701 10174 20139 30063 40113 58003=
33910 42998 03602 10182 20167 30095 40113 57005=
33924 42963 01804 10168 20142 30100 40112 50000=
33946 42959 00804 10137 20124 39895 40108 56002=
34504 42997 70000 10202 20090 39957 40127 53002 87050=
34519 42960 30000 10187 20076 39863 40125 57013 83030=
34601 42997 50000 10196 20094 40123 56006 85030=
11406 32970 12402 10048 20036 39616 40185 51002 80001
333 55084 81070=
11457 11982 12606 10028 20022 38888 48487 55001 69911 70381 81040
333 55036 81358=
11520 32984 02202 10066 20030 39813 40182 51005
333 55061=
11636 32970 09901 10054 20041 39505 42796 51004
333 55027=
11679 11970 01201 10052 20044 39688 40180 53009 69941 70281
333 55042=
11723 32975 09901 10069 20065 39883 40182 50007
333 55020=
11774 01975 50000 10067 20065 39902 40175 50006 69901 70381 84052
333 55073 69905 84360=
11787 11/00 92907 10019 20014 38651 48471 50002 69951 74584
333 55005 89/00=
26038 41598 71802 10096 20082 30038 40083 52005 70282 87500   555
11009=
26045 41497 82501 10099 20091 30078 40082 57005 70282 889//   555
11012=
26058 41496 83003 10089 20083 40081 54000 78198 889//   333 87918=
26135 41596 82302 10098 20090 30005 40083 53003 78098 889//   333
88921   555 12010=
26247 41497 82701 10094 20084 30013 40093 58002 78082 883//   555
11012=
26215 42997 72005 10106 20081 30072 40077 58004 87030   555 11008=
82100 22213 02248 2//// 3//// 80205=
83378 22244 02260 2//// 3//// 80230=
62402 30004 99548 10046 41/98 /2713 10091 20057 40183 54000 7////
8//// 22200 00100 20304 334// 40305 5//// 80074=
56146 32680 70000 10086 20045 36785 52010 81102 333 00203
00049 79999=
56251 32687 70000 10073 20056 36997 52009 86401 333 00200
30048 70010=
56462 11580 70401 10102 20077 37160 52019 69951 70080 874//
333 00352 70018=
56167 32780 50000 10101 20065 37134 52015 81102 333 00202
70005=
58506 11/00 92005 10189 20189 40072 52003 60161 78064 333//
05303 70176=
56257 11680 70000 10055 20018 36331 52013 69901 70080 82402
333 00453 30033 70024=
56357 11680 70000 10070 20036 36493 52010 69971 70080 874//
333 00353 70022=
56152 32480 80000 10011 20005 36372 52008 885// 333 00353
70014=
56144 32580 13601 10046 20030 36921 52007 81100 333 00353
30034 70043=
58666 11660 82002 10206 20204 39995 40094 52003 69931 70084
885// 333 05601 70052=
51701 11475 71802 11007 21033 36643 54000 69901 78580 86902
333// 05152 70035=
51716 32970 10000 10156 20073 38796 49995 52005 81060 333//
00051=
54351 32970 82003 10233 20095 40035 57002 80007 333// 05253=
56739 11573 71801 10175 20164 38328 52007 69911 70080 874//
333// 00000 70002=
56548 11580 70000 10139 20131 37693 52001 69921 70080 874//
333// 00000 70003=
59462 32572 10902 10281 20244 40092 52009 81102 333 05101=
52797 32980 00000 10196 20030 38320 52002 333 00106=
52996 32980 62904 10111 20027 37569 52005 81042 333 00306=
52436 32980 70000 10126 20039 38398 40019 52009 81032 333
05352 30045=
53705 32965 02903 10184 20080 40028 52001 333 05103=
56065 32680 10000 11002 21022 36677 52010 81500 333 00355
31034 70020=
52908 32980 62501 11024 21064 35824 52008 81042 333 00101=
56021 32980 01403 11006 21044 36141 52007 333 00251 79999=
52645 32980 03401 11004 21028 36824 52008 333 00051 31036=
52737 32980 00401 10073 21012 37109 52004 333 00151 31003
70002=
56093 11580 10000 10120 20092 37712 52005 69991 70060 81500
333 00303 70009=
52446 32980 70000 10158 20047 40027 52011 80002 333 05253
30017 79999=
52447 32980 00000 10139 20026 40032 52008 333 05253=
52424 32980 70902 10166 21043 40009 52011 82042 333 05301=
56067 32480 42501 10013 20000 36588 52009 84602 333 00455
31010 70002=
52842 32980 00000 10058 21026 37016 52008 333 00100 31044=
57232 32970 73402 10157 20150 40102 52015 8703/ 333 05301=
53810 32975 01603 10169 20043 40045 52006 333 00003=
53817 32980 62905 10177 20024 38205 52005 80002 333 00009=
53903 32980 22502 10151 20050 38053 52005 80002 333 00106=
52868 32980 00000 10098 20047 37781 52008 333 00352 30023
70021=
52657 32980 01401 10044 21005 37279 52007 333 00002 31008
79999=
52974 32980 00000 10105 20050 37550 52006 333 00251 30020
70014=
52681 32980 72002 10157 20054 38571 40037 52008 80002 333
00154=
52889 32972 00000 10182 20084 38453 40065 52001 333 00204
79999=
52323 32980 72503 10121 21062 38195 52011 82042 333 00102=
53723 32965 02707 10196 20067 38583 40017 52004 333 05307=
52713 32980 12201 10051 21057 36934 52001 80002 333 00051
31044 79999=
56004 32980 22202 11022 21032 35886 52003 80002 333 00100
31041=
52818 32980 40000 10080 21032 37237 52001 80002 333 05300
31046 79999=
52866 32970 00000 10092 20049 37711 52005 333 00352 30033
79999=
51886 32978 20000 10086 21058 37117 52008 80002 333 05304
30013=
52602 32980 10000 10052 21066 37280 52008 80002 333 05203
31003=
53698 32961 53402 10191 20138 40029 57001 80002 333// 05656=
53593 11770 40000 10175 20078 40014 54000 69911 72500 84900
333// 05752 70001=
56137 32480 60402 10045 20027 36869 52009 82601 333// 00252
30031 70002=
56116 32680 70000 10025 20015 36403 52007 878// 333// 00251
31001 70003=
56223 32580 71403 10034 20009 36591 52010 875// 333// 00201
30022 79999=
56331 32580 70000 10042 20026 36456 52007 81608 333// 00353
30039 70051=
54852 11675 81805 10183 20099 40075 52001 69901 70080 885//
333 05453 79999=
59303 32564 22202 10273 20231 40104 52011 81102 333 05102
70102=
56247 11880 70000 10115 20091 37464 52013 60021 70080 82442
333 00552 70051=
51288 32980 10000 10139 20029 38307 52008 80002 333 00205
30048=
51463 32780 72003 10174 20067 39046 40079 52007 81462 333
00204=
51656 32770 80704 10245 20003 38994 49997 52011 889// 333
05307=
52203 32980 50000 10179 20065 39209 40026 52012 80002 333
05101=
51334 32980 21601 10164 20086 40080 52006 81032 333 00101
70002=
51467 32980 50000 10128 20025 38230 52001 80002 333 00001=
51542 32680 72502 10028 20019 37565 57004 83462 333 00102
30003 70023=
51365 32980 52201 10175 20095 40072 52009 81032 333 00105=
51437 32780 70701 10049 20038 38128 52001 81402 333 00255
30045 70004=
51477 32680 53406 10161 20045 40067 52004 82402 333 00008=
51526 32980 62001 10218 20037 40014 52013 83032 333 05108=
55591 32680 10702 10061 20024 36567 52010 81102 333 00151
30011=
55585 32780 10000 10036 20007 36437 52013 81102 333 00253
30011=
55493 32980 50000 10003 21003 36077 52012 80002 333 00153
31023=
51709 32980 11801 10137 20081 38645 40045 52006 80002 333//
00152 70004=
50774 32966 03602 10131 20053 39770 40059 52012 333 00853
30025=
51133 32680 13403 10135 20057 39467 40075 52005 81402 333//
00351=
54094 32560 70000 10163 20067 39769 40051 52001 878// 333
00757=
56034 32980 00000 11028 21061 35979 52004 333 00252 79999=
52633 32980 10000 10020 21021 36775 52007 80002 333 00001
31028=
59478 32573 40902 10287 20249 40100 52010 82202 333 00051=
61990 42470 60000 10217 20205 40163 86800
333 58001=
61995 42470 71301 10206 20197 39682 87800
333 58005=
61988 41458 61203 10220 20195 40170 71581 85800
333 58000=
76243 32482 60902 10382 20203 39803 40077 57017 86220 92349
333   10392 20239 30/// 50100 56220 59028 70000 83830 83445
=
76305 32970 11602 10348 20156 30046 40056 57019 80009 92345
333   10370 20268 30/// 50734 56006 59015 70000 81170 90801
=
76393 32566 81002 10332 20187 39512 40093 57011 875/1 92355
333   10335 20222 30/// 50570 563/5 59024 70000 85630 82840
=
76499 31457 31402 10316 20197 30077 40107 54001 70244 83120
92330 333   10370 20118 30/// 51040 5693/ 59015 70000 81612
82357=
76519 12560 80000 10258 20124 38324 40056 57008 60103 8736/
92335 333   10320 20160 31/// 50420 56220 58/// 70105 81925
86628=
76556 01565 82705 10263 20213 39060 40048 57009 69901 85520
92331 333   10300 20195 30/// 50390 56510 59005 69901 70003
85615=
76585 32680 30901 10331 20240 39943 40092 57024 83300 92338
333   10334 20222 30/// 51150 563// 59020 70246 83933=
76593 32370 40502 10282 20238 30106 40122 57010 82570 92345
333   10302 20220 30/// 50630 5611/ 59018 70000 82620 82330
92011=
76612 31758 60000 10256 20136 38436 40047 57003 70544 81230
92355 333   10290 20177 30/// 50130 56220 58/// 70000 81833
81630 82358=
76640 32456 50801 10300 20237 30096 40126 57009 82408 92340
333   10370 20222 30/// 50530 569/9 50805 70000 82619 83270
=
76662 11670 70000 10198 20159 38438 40075 57001 60011 70555
87500 92340 333   10277 20156 32/// 50610 56200 58017 70010
87633=
76675 01565 73201 10148 20101 37365 40060 57017 60021 70596
85360 92352 333   10210 20101 32/// 50080 56990 58002 60027
70074=
76741 31556 53603 10289 20250 30078 40098 56009 70544 81906
92338 333   10302 20236 30/// 56909 57935 58018 81927 85270
98356=
76762 31980 71803 10218 20184 38740 40086 56008 74121 8702/
92340 333   10277 20180 31/// 50280 5602/ 58001 70992 87560
93016=
76840 32756 80000 10310 20242 30065 40115 57011 88040 92350
333   10340 20225 30/// 50440 56090 58008 70117 88460=
76848 11470 80000 10204 20164 38357 49970 54000 69901 76022
8222/ 92340 333   10250 20158 31/// 50220 5659/ 59003 70007
82820=
76855 32580 51103 10280 20259 3//// 4//// 5//// 82250 92340
333   10300 20242 31/// 5//// 56990 58/// 70177 82820 83358
92001=
76903 31675 62701 10300 20243 39969 40099 55001 71722 84908
92335 333   10335 20220 30/// 5//// 56801 58003 70304 82933
=
91925 32480 71012 10280 20231 30025 40082 56026 83201
333 20227 56209 59006 83818 86075
555 11221=
91938 12580 53414 10306 20238 30068 40071 56023 69904 85200
333 20244 56800 59023 85820
555 13419=
91943 12570 20212 10302 20236 30082 40085 56022 69924 82200
333 20262 56800 59010 82823
555 10317=
91948 01570 73506 10253 20222 30014 40115 56013 69924 71581 878//
333 20214 56799 59003 69927 87820
555 13423=
91954 01350 83229 10240 20224 30011 40014 55025 61064 76198 8487/
333 20215 56799 59067 60567 82808 84813 86358 91147
555 12947=
91958 01560 83319 10225 20191 30014 40016 55010 60204 76062 8487/
333 20197 56799 59052 60017 83820 88360
555 13437=
11035 21058 76799 88606 =
13585 42997 00000 10155 20114 39363 40130 54000=
13598 12698 80000 10129 20118 48466 58003 60051 885//=
61600 32460 83608 10204 20193 30110 40115 885//
333  0//00 59008 88613=
61641 32358 63610 10215 20197 30088 40121 86600
333  0//00 59001 86708=
61695 32960 02804 10244 20208 30089 40115
333 0//00 59005=
81401 12460 60902 10245 20229 40110 69941 86800
333 10283 59002 84813 83656=
60020 32965 00702 10196 20152 30139 40183 51008
333 924/7=
60030 32565 20224 10202 20179 30113 40168 53006 82500
333 924/6=
76050 31350 32905 10200 20160 30095 40105 51004 705// 83100
92350 333   10210 20160 30///=
76113 32970 02708 10410 20206 39579 40029 5//// 92350 333
10428 20212 30/// 51160 59018 70000 93578=
76118 32580 53001 10396 20021 38819 49975 57028 85200 92346
333   10415 20214 30/// 51290 56800 57892 58/// 70000 85830
=
76122 32680 20901 10358 20003 38500 40012 57018 81202 92350
333   10370 20136 30/// 50790 56609 59020 70000 81835=
76225 32460 20701 10335 20092 38550 40029 57023 82100 92345
333   10347 20160 30/// 51050 56500 59034 70000 82820=
76323 11565 81204 10260 20131 38245 40026 57006 69991 86350
92345 333   10320 20160 30/// 50080 56770 59013 69991 79999
82930=
76342 31562 60901 10320 20181 39414 40082 57015 70322 42210
92342 333   10345 20032 30/// 51100 56330 59017 70000 82820
84458=
76373 01378 81201 10170 20149 38207 40127 51024 60117 76165
887// 92343 333   10312 20118 32/// 50490 565// 58007 60111
70114=
76390 31556 30504 10232 20139 38208 40055 57019 70544 81570
92342 333   10242 20160 30/// 50080 56480 59015 70000 81625
=
76402 31958 03203 10274 20154 30036 40096 57009 70744 92345
333   10330 20145 30/// 5//// 58/// 70000=
76405 32981 01405 10367 20132 30051 40061 57014 92344 333
10400 20214 30/// 50110 59005 70000=
76423 32570 71104 10240 20110 38149 40080 57002 87564 92350
333   10280 20168 30/// 50390 56999 58002 70002 81820 84622
81357=
76471 01480 81608 10157 20139 37690 40050 54000 60025 76092
8432/ 92350 333   10245 20111 31/// 50380 5611/ 58010 60025
70061=
76539 31670 10804 10228 20152 38099 40018 57012 70544 81200
92350 333   10268 20126 30/// 50560 56200 58000 70000 81837
91108 91507=
76654 31466 22003 10297 20229 30092 40096 57002 70544 82200
92350 333   10317 20250 30/// 56460 56800 58000 70000 81820
=
76656 31575 81502 10228 20173 38485 40055 57004 71722 8592/
92346 333   10295 20152 30/// 50400 5615/ 59003 70000 82620
82822=
76665 01458 82301 10171 20143 38091 40081 52003 60171 76066
85320 92345 333   10270 20154 32/// 50290 56330 57932 59004
70170=
76680 01557 82704 10150 20144 37740 40071 53020 60031 75665
84820 92355 333   10258 20130 32/// 50211 56870 57961 59013
60037 70121 83625 83457 81927=
76683 32665 73601 10188 20136 37796 40065 56001 85970 92350
333   10257 20110 31/// 50210 56880 58005 70121 85945 82360
=
76685 31560 72301 10200 20134 37845 40033 53006 70444 87400
92350 333   10240 20114 30/// 50330 56900 58002 70000 87624
=
76687 11562 71801 10196 20179 38628 40103 57004 69941 75565
873// 92338 333   10246 20165 31/// 50010 563// 59002 70170
81923=
76698 02660 70000 10253 20242 30072 40087 55007 60071 8457/
92354 333   10338 20225 32/// 50560 562// 59014 60027 70068
84620=
76723 32965 60003 10304 20210 30047 40077 57015 80007 92345
333   10322 20231 30/// 59008 86280 92301=
76726 01460 40000 10260 20162 38366 40039 55012 60041 70195
83130 92345 333   10294 20167 31/// 50480 56760 58006 60016
70048=
76737 01375 71402 10202 20184 38749 40097 55006 69965 79596
873// 92345 333   10250 20170 30/// 50310 562// 57992 59009
69965 70076 83709 83626 81926 91303 91515=
76743 31559 72301 10276 20229 30083 40103 55004 70102 8423/
92350 333   10325 20240 30/// 50460 5650/ 58004 70022 84819
83356=
76773 21564 82501 10232 20152 38371 40112 57001 715// 85345
92337 333   10282 20130 30/// 50251 56399 58/// 70010 82920
83820=
76775 01460 80401 10180 20168 38488 40126 52003 60091 79244
86362 92350 333   10286 20170 32/// 56999 58010 60091 70150
83924=
76843 01965 89901 10252 20207 39508 40145 52008 69941 70162
85077 92350 333   10308 20206 32/// 50290 58005 69941 70004
85663=
78792 32460 80000 10254 20230 30081 40096 52007 83155
333 10291 20239 30/// 560// 59005 83818 83359 85280=
78793 11340 80106 10236 20230 30071 40102 52021 60561 79598 8592/
333 10308 20228 32/// 568// 57911 58005 70571 81908 84810 88458=
78795 11357 80000 10232 20220 39993 40093 52014 60032 75055 84620
333 10316 20226 31/// 5600/ 58002 70035 84704 86456=
91554 31581 21605 10285 20227 40106 58009 70511 84200 333
20226 563// 59011 84825=
91555 31560 20000 10284 20227 40108 58007 70511 82200 333
20/// 563// 59005 82826=
91557 32582 30000 10275 20224 40122 58008 83101 333
562/9 59005 83826=
91565 01470 51404 10265 20236 40139 58003 69934 71522 85800 333
20209 561// 58000 69934 81716 84820 85640=
91568 01581 30000 10275 20227 40130 58004 69964 70288 83801 333
20203 563/9 59002 69964 83820
83924=
61697 32958 03606 10230 20213 30108 40122
333 0//00 58001=
71397 32474 80307 10079 20046 30189 40223 51015 88500 333
10103 20060 79999=
71398 36/64 /3606 10057 20028 30180 40230 51019 333 10100 20057
70000=
71400 36/64 /0402 10021 21009 40181 333 10077 20021 70000=
71410 36/64 /0106 10057 20018 30210 40239 51014 333 10078 20055
70008=
71411 36/40 /0602 10081 20054 30210 40220 51023 333 10135 20070
70000=
71412 46/// /0116 10043 20017 30206 40219 53014 333 10062 20043=
71430 36/64 /0903 10148 20086 30094 40190 333 10163 20099 70000=
71431 36/// /1106 10130 20085 30094 40188 58004 333 10140 20105
70000=
71432 36/64 /0814 10121 20117 30082 40178 333 10124 20101 70000=
71436 36/60 /1706 10173 20086 39827 40180 55004 333 10194 20083
70000=
71441 36/// /2908 10178 20039 39819 40120 56002 333 10184 20083
70000=
71474 17564 31003 10107 20051 38959 40185 58001 60021 7//4/ 333
10127 20026 70040=
71538 32974 61508 10175 20106 39945 40172 53004 80004 333
10206 20095 70000=
71600 46562 80217 10068 20040 30184 40190 51025 333 10079 20066=
71601 32474 73511 10088 20061 30149 40212 51023 87500 333
10132 20066 70000=
71043 32683 62610 10131 20014 30142 40235 55004 82201 333 10134 20062
70002=
71045 36/// /0000 10116 21022 39362 40216 56009 333 10116 20023
70000=
71066 32774 10612 10163 21049 39786 40202 57004 81100 333 10164 21013
70000=
71069 17964 03108 10150 21038 39485 40184 56010 69951 7//4/ 333
10153 21020 70005=
71077 36/64 /3612 10054 21005 39636 40163 51010 333 10108 20028
70000=
71078 11574 83113 10059 21001 39654 40090 51010 69901 70262
885// 333 10090 20041 70210 90960=
71079 11474 73110 10097 20050 39787 40058 52012 69941 76162 87701
333 10105 20041 70192 90977=
71081 36464 80609 11013 21021 30178 40189 58001 333 11010 21034
70000=
71082 36564 63104 11082 21095 30197 40238 56002 333 11064 21088
70005=
71083 31274 81014 10012 21001 30027 40064 55001 70242 82571
333 10022 20002 70002=
71090 17556 83220 11041 21047 30212 40247 51021 69951 7//4/ 333
10018 21042 70005=
71092 46964 60909 11015 39559 40222 56008 333 11011 21062=
71093 460// /0503 10008 39723 40216 56003 333 10025 21017=
71094 460// /2306 10000 39309 40201 56005 333 10005 21010=
71095 36964 00903 11051 21128 30174 40247 53006 333 11019 21081
70000=
71101 36964 00508 10113 20041 30245 40253 58001 333 10121 20081
70000=
71104 11674 70305 10117 20005 39087 40189 57003 69961 70292 87300
333 10125 20033 70032 90960=
71108 32583 32606 10168 20079 30122 40192 57010 82870 333 10176 20094
70008=
71109 32780 63313 10126 20057 30197 40224 57006 82501 333 10136 20116
70000=
71114 36764 32813 10175 20074 30130 40177 56007 333 10179 20096
70000=
71119 36/// /2402 10146 21037 333 10151 20041 70002=
71120 32974 03314 10160 21088 39506 40156 56009 333 10163
20108 70004=
71122 17/64 /0408 10051 20028 38597 40202 51010 69921 7//4/ 333
10110 21027 70002=
71125 32774 13213 10161 21045 39561 40138 57008 81101 333
10165 20009 70000=
71129 32774 20210 10160 21063 39337 40155 55001 81101 333
10171 20040 79999=
71130 32774 13116 10144 21018 39672 40121 57003 81100 333
10152 20058 70020=
71138 32874 23416 10165 20001 39531 40125 55003 81101 333
10179 20058 70048=
71140 32774 73010 10172 20029 39634 40125 56011 81101 333 10185 20078
70000=
71141 11474 62811 10126 20058 39810 40082 51014 69921 78062
86270 333 10138 20072 70086 90927=
71145 11474 62916 10103 20063 39781 40068 53026 60011 70182
85501 333 10122 20072 70018 90936=
71148 36/// /3108 10158 20035 39568 40135 58007 333 10162 20062
70000=
71182 36964 0//// 10104 21038 39679 40215 55001 333 10137 21029
70000=
71187 36964 00102 10080 20033 30199 40226 58001 333 10131 20063
70000=
71188 32974 00702 10074 20018 30188 40229 53005 333 10113
20037 79999=
71196 37040 6//// 10008 21009 30125 40162 58003 745// 333 10053
20004 70000=
71865 36/64 /3407 10150 21014 39466 40136 56003 333 10160 20054
70000=
71866 36964 03212 10174 21043 39535 40138 56004 333 10184 20042
70000=
71867 32774 33119 10116 20001 39768 40096 51004 83500 333
10134 20076 70052=
71868 36764 32814 10145 20008 39682 40113 55000 333 10155 20070
70010=
71869 32774 22914 10153 21016 39615 40131 57005 82010 333 10154 20035
79999=
71870 36564 33308 10128 20040 39200 40160 58003 333 10142 20011
70005=
71871 32974 03414 10140 21043 39369 40165 55003 333 10147 20041 70000
=
71872 11583 20308 10129 20051 39323 40169 57008 69961 71582 82201
333 10141 20053 70078 90937=
71874 36964 00215 10128 20017 39089 40172 53001 333 10153 20044
70025=
71876 32974 13212 10160 21047 39492 40146 56005 80001 333
10175 20045 79999=
71877 11580 72908 10084 20051 38933 40202 50002 69961 72186
83570 333 10115 20034 70008 90936=
71878 32674 63605 10130 20006 39127 40192 55002 83171 333 10142 20037
70000=
71879 17964 03609 10156 21061 39381 40177 56008 69951 7//4/ 333
10160 20024 70010=
71880 31682 72812 10127 20025 39064 40157 55004 71511 87300
333 10142 20010 70000=
71881 36564 63306 10109 21002 39103 40193 55003 333 10139 20029
70010=
71882 36964 03605 10182 20036 39624 40150 56017 333 10186 20073
70005=
71883 36/// /2108 10143 20035 39361 40170 55002 333 10187 20038
70000=
71887 31783 63207 10169 20043 39751 40165 55005 71511 83370
333 10196 20083 70009=
71889 32774 60312 10189 20046 39738 40150 55006 83270 333 10206 20024
70018=
71891 36964 31707 10199 20045 39891 40164 56012 333 10203 20090
70000=
71892 32583 22507 10148 20094 30187 40192 56012 82271 333 10154 20105
70040=
71894 36/// ///// 10156 30196 40205 58013 333 10166 20072 70000=
71896 32689 60206 10147 20019 39368 40189 58007 82270 333 10154 20065
70150=
71897 32585 83218 10121 20083 30200 40232 58004 81271 333 10130
20071
70000=
71898 36964 02812 10117 20031 30206 40250 58001 333 10127 20068
70005=
71899 32574 82312 10110 20053 30210 40260 52005 888// 333 10123
20060
70000=
71905 32674 70102 10124 20045 30096 40109 56015 82571 333 10174 21017
70000=
71906 32974 20307 10028 21010 30142 40190 57011 80001 333 10083 21033
79999=
71907 36964 61209 10128 20014 30072 40104 56019 333 10166 20023
70000=
71909 36964 01310 10021 21016 30170 40213 56013 333 10032 21001
70000=
71910 17264 80909 11005 21005 30109 40174 56012 69951 7//4/ 333
10009 21026 70005=
71911 46059 /0322 11064 30156 40213 53006 333 11056 21077=
71912 11574 82814 10051 20038 39834 40012 52040 69961 78082
885// 333 10144 20049 70078 90957=
71913 17028 83410 10011 21021 39946 49982 50001 60011 7434/ 333
10045 20006 70010=
71915 32274 81111 10004 21003 30062 40144 58006 886// 333
10009 21035 70000=
71917 32686 53003 11037 21102 30239 40253 58004 85570 333
11036 21070 70000=
71922 11774 63220 10100 21025 39668 40128 58003 69941 70182 83530
333 10104 20053 70010 90941=
71924 32974 03605 11096 21132 30207 40298 50000 333 11072
21155 70000=
71925 11462 80415 11085 21109 30239 40276 53002 69901 77177
885// 333 11080 21110 42033 79999 90983=
71926 11261 80313 10011 20003 30073 40096 51007 69901 70252
886// 333 10011 20000 44038 79999 90926=
71928 36/64 /0000 10111 20017 39037 40193 56007 333 10114 20044
70004=
71725 36964 01909 10179 20060 39763 40170 56010 333 10201 20010
70005=
71726 36/64 /1803 10151 20048 39670 40199 55000 333 10189 20010
70000=
71727 32780 50711 10142 20024 30015 40210 55000 82501 333
10172 20042 70000=
71728 32786 61202 10140 20062 39985 40204 55003 81501 333 10165 20055
70000=
71731 33/// /2406 10194 20070 39728 40070 55007 333 10209
20072 70000=
71733 36964 01405 10142 20081 39930 40164 58015 333 10179 20086
70000=
71735 32974 41809 10200 20140 39861 40154 56009 82051 333
10230 20095 70000=
71738 32974 22706 10166 20075 39801 40148 55009 82070 333
10184 20039 70000=
71739 32874 71906 10207 20075 39771 40125 57015 81076 333 10232 20022
70000=
71749 36864 32709 10195 20105 39870 40111 53008 333 10235 21015
70000=
71799 32583 21508 10155 20076 30170 40193 57012 82801 333
10162 20091 70006=
71801 31259 83513 10006 21004 39971 40145 53002 71022 886//
333 10046 20005 70005=
71803 11359 83312 10001 21022 39986 40174 55002 69921 77787
887// 333 10052 20000 70004 90936=
71807 36/// /0115 10034 21013 30145 40161 53011 333 10077 20034
70000=
71808 36964 01006 10007 21013 30158 40205 53007 333 10076 21013
70000=
71809 32974 20000 10055 20020 30163 40190 51007 80001 333 10109 20021
70004=
71810 36/64 /0000 10056 20008 30165 40229 53003 333 10124 20017
70000=
71811 32583 10000 10066 20039 30160 40229 50000 81401 333 10100 20049
79999=
71813 36964 02807 10052 20018 30199 40212 56001 333 10106 20005=
71814 36/// /2204 10062 20029  333 10075 20024 70000=
71815 32974 00210 10095 20012 30155 40187 52015 333 10139
20045 70000=
71603 32574 71905 10103 20069 30159 40212 52022 87500 333
10175 20072 70000=
71607 36/// /0505 10101 20054 30199 40231 53016 333 10141 20074
70000=
71609 32574 70608 10085 20033 30096 40230 52014 87500 333 10105 20052
70000=
71610 36964 00303 10154 20070 39908 40200 53007 333 10185 20043
70005=
71621 32674 10902 10181 20088 30087 40187 52005 81501 333
10200 20069 70000=
71623 32974 30708 10184 20101 39839 40171 55003 81401 333 10209 20075
70000=
71624 32974 11207 10160 20061 39973 40182 58006 80001 333
10190 20073 70000=
71625 36964 01304 10179 20078 30025 40183 56004 333 10198 20033
70000=
71627 36764 30705 10180 20075 30150 40194 53001 333 10193 20086
70000=
71628 32882 11004 10176 20071 30057 40195 53004 81031 333
10193 20089 70000=
71630 32774 11608 10176 20097 39839 40177 57007 81500 333
10200 20058 70000=
71631 36/64 /1702 10160 20090  333 10177 20057 70000=
71632 36/64 /2601 10141 20075 39954 40184 58003 333 10192 20076
70000=
71633 32674 33503 10153 20081 39906 40174 55004 81501 333
10188 20062 70000=
71700 32574 21204 10078 20041 30207 40232 51009 82500 333 10107 20061
70003=
71705 32474 73604 10050 20030 30142 40230 53009 87500 333
10078 20044 70009=
71706 32474 20105 10031 20012 30167 40228 52009 82500 333 10071 20030
70006=
71707 32574 23405 10044 20004 30125 40202 53012 82500 333 10084 20042
70030=
71709 32480 13410 10034 20012 30204 40217 50007 81100 333 10088 20034
70008=
71711 32874 60907 10075 20032 30178 40228 51004 86070 333 10130 20070
70000=
71714 36/// /1006 10133 20060 30125 40216 53004 333 10170 20066
70000=
71715 36/64 /0404 10102 20028 30040 40222 58001 333 10134 20047
70000=
71718 32783 00603 10089 20057 30157 40222 56003 81501 333 10135 20023
70000=
71719 36/// /3204 10046 20014 30227 40233 53006 333 10077 20042
70000=
71816 32974 10605 10110 21014 30150 40211 55001 80001 333
10153 21021 70000=
71817 36364 80311 10004 21028 30191 40206 53006 333 10039 21005
70000=
71821 36764 31607 10185 20069 39813 40150 56011 333 10211 20022
70005=
71822 36764 31607 10153 20045 39712 40179 58009 333 10181 20079
70000=
71825 32974 21708 10128 21025 39538 40200 55004 80001 333 10158 21022
70000=
71827 32774 72403 10177 20055 39882 40119 57017 81478 333 10203 20080
70000=
71828 36964 01704 10097 21028 39572 40205 56003 333 10148 21036
70000=
71831 32774 82310 10200 20043 39842 40115 56012 81116 333
10235 20036 70000=
71832 36/64 /2212 10202 20068 39793 40109 55005 333 10227 20018
70000=
71834 11574 82512 10164 20086 39697 40116 53016 69901 78022
86274 333 10219 20012 79999 90910=
71836 46064 /1907 10223 20084 30071 40082 56023 333 10237 21006=
71842 32774 63012 10160 20047 39631 40096 52004 81171 333 10232 20117
70006=
71845 11674 62609 10156 20046 39622 40082 51029 69901 70182
81111 333 10239 20137 79999 90960=
71850 32974 73209 10161 20044 39624 40110 53003 82031 333 10194 20129
70004=
71852 17764 32207 10176 20054 39823 40110 58003 69951 7//4/ 333
10190 20099 70010=
71854 32674 72610 10156 20044 39636 40095 55001 84472 333
10167 20128 70004=
71855 36864 32911 10191 20013 39739 40104 51001 333 10204 20086
70000=
71856 36964 02508 10172 20050 39826 40103 58004 333 10181 20089
70000=
71858 36/64 /3113 10137 20010 39827 40102 50003 333 10153 20080
70142=
71861 17664 62208 10128 20072 39424 40139 50001 69951 7//4/ 333
10163 20062 70005=
71862 31774 72507 10162 20030 39450 40139 57014 71522 81268
333 10175 20053 70000=
71863 17764 62505 10146 20069 39454 40144 58004 69951 7//4/ 333
10171 20020 70005=
71103 46764 33406 10153 20028 39531 40184 58004 333 10166 20057=
71121 17964 03605 10150 21074 39362 40179 56009 69951 7//4/ 333
10159 20009 70005=
71127 46964 03414 10148 21082 39428 40154 56006 333 10156 21008=
71143 36/// /3317 10162 20060 39789 40097 55000 333 10167 20105
70000=
71930 32774 30000 10155 21044 39254 40180 58009 83100 333 10160 21004
79999=
71931 36/64 /3312 10152 21070 39492 40170 56011 333 10152 20025
70000=
71932 17964 03413 10138 21092 39712 40162 55002 69951 7//4/ 333
10145 20012 70005=
71933 36564 80214 10065 21040 39907 40197 53012 333 10076 21006
70005=
71934 32674 73615 10075 21027 39952 40210 51008 85506 333
10082 21012 79999=
71935 32674 10907 10077 21094 30030 40239 56002 81570 333 10086 21030
70000=
71936 32774 10801 10115 21082 39972 40231 57003 81101 333 10116 21015
70000=
71940 32882 61805 10154 21059 39387 40187 56007 86100 333 10175 21007
70000=
71943 32774 60000 10161 21063 39358 40185 57006 84271 333 10164 20008
70000=
71944 17664 63607 10115 20053 39378 40206 50000 69951 7434/ 333
10122 20007 70005=
71945 32683 71106 10175 21014 39725 40190 56004 83170 333 10194 20004
70000=
71946 31774 53603 10181 21039 39993 40203 56004 71611 83271
333 10194 20021 70000=
71948 46964 00712 11078 30185 40300 51012 333 11074 21113=
71949 36/64 /1309 10128 20004 39347 40211 53004 333 10146 20000
70000=
71950 32782 73510 10133 21011 39584 40211 56007 82101 333 10140 21001
70000=
71951 32780 42105 10141 21013 39954 40220 57011 82101 333 10152 20023
70000=
71957 36964 00711 10014 21044 30180 40269 54000 333 10014 21053
70000=
71958 36864 62305 10099 21031 39281 40248 50000 333 10099 21008
70055=
71964 11786 62705 10119 20038 39359 40208 51005 60161 71598 85270
333 10126 20033 70016 90930=
71968 462// 80707 11044 30204 40269 51001 333 11041 21100=
71918 460// /0625 11034 39784 40201 53003 333 11031 21051=
71923 16/// /3619 10000 21002 39629 40067 58004 69921 333 10012
21025=
71434 36/// /2205 10142 20123 39946 40010 333 10173 20063 70000=
71846 17/64 /2415 10169 20040 39742 40046 69961 7//4/ 333 10228
20077 70023=
71702 36/// /0206 10051 20030 40228 333 10069 20051 70023=
71717 32974 00502 10052 20016 30195 40236 53006 333 10098
20039 70024=
71851 36/// /2705 10182 20026 39785 40111 56004 333 10186 20109
70000=
71873 36/64 /3210 10144 21063 39245 40183 56001 333 10148 20045
70000=
71875 36664 30115 10104 20013 38808 40187 55002 333 10132 21006
70000=
71450 36/// /2313 10134 20069 39434 40143 56002 333 10173 20041
70000=
71490 36/// /0000 11063 21064 39893 40207 51016 333 11048 21076
70000=
71075 36/// /3109 10015 21038 39507 40105 51003 333 10031 20004
70022=
71096 460// /1504 10008 39496 40223 56009 333 10030 21005=
71201 36/// ///// 10168 333 10171 20101 70000=
71629 36764 32003 10158 20093 39958 40189 50000 333 10198 20068
70000=
71952 36/// /3105 10133 21019 39352 40202 56009 333 10148 21028
70002=
71197 36964 0//// 10081 20012 30136 40185 53016 333 10099 20057
70015=
71261 36/// /3602 10168 20114 39913 40170 333 10191 20065 70000=
71265 36964 00710 10134 20067 30091 40184 56003 333 10157 20112
70000=
76382 32480 73101 10314 20158 38839 40015 57015 87270 92351
333   10347 20205 30/// 5//// 56550 59016 83820 84359=
76491 32656 10901 10334 20171 39713 40109 57004 81200 92355
333   10388 20210 30/// 50780 56800 59026 70000 81850=
76750 01560 80501 10260 20235 30091 40101 57008 60041 70162
8227/ 92351 333   10385 20229 32/// 50240 56250 59002 60386
70180=
76548 32475 20905 10290 20247 30081 40111 56012 81204 92359
333   10330 20236 31/// 50580 56205 59007 70059 81813 81920
=
76581 31660 30904 10276 20161 39012 40076 57012 705// 82270
92351 333   10294 20188 31/// 5//// 56220 59012 82835 98560
=
76644 32460 70502 10298 20230 30106 40116 52006 87530 92355
333   10367 20229 30/// 50540 5622/ 59013 70000 82820 83620
82330=
76647 11365 80000 10234 20226 30090 40121 52019 60037 76162
8222/ 92350 333   10356 20222 32/// 50351 562// 59011 70116
82810=
94120 46/// /1314 10205 20014 30108 40143=
94150 46/// /1512 10236 20199 30069 40130=
94203 46/// /1012 10168 20027 30152 40163=
94207 35/// /0819 1//// 30136 40147 52007=
94216 46/// /1413 10185 21024 30128 40179=
94268 46/// /1309 10218 20068 30124 40139=
94287 46/// /1614 10209 20073 30161 40170=
94298 35/// /1316 10220 30143 40149 57001=
94299 46/// /1521 10236 20195 30133 40144=
94300 46/// /0506 10133 20054 30169 40179=
94302 46/// /0515 10198 20079 30178 40184=
94312 46/// /1114 10171 20047 30175 40185=
94317 46/// /0707 10102 20035 39613 40210=
94319 46/// /1311 10126 20051 39876 40215=
94326 46/// /1110 10100 20040 39630 40267=
94332 46/// /1216 10144 21012 39818 40212=
94346 46/// /1412 10143 20025 30001 40227=
94363 46/// /1613 10127 20029 39985 40207=
94367 46/// /1615 10163 20043 30153 40191=
94374 46/// /2114 10156 21006 30179 40196=
94394 35/// /2205 10218 30150 40158 52003=
94403 46/// /0417 10162 21011 30151 40192=
94429 46/// /0410 10107 20005 39754 40228=
94430 46/// /0612 10108 20006 39624 40222=
94462 46/// /1113 10095 20028 39698 40271=
94510 46/// /2208 10117 20008 39860 40217=
94515 46/// /2411 10102 20024 39850 40207=
94552 46/// /2414 10088 20002 39706 40180=
94578 46/// /2612 10137 21010 30152 40163=
94584 46/// /2308 10124 20015 30053 40164=
94601 46/// /0519 10138 20034 30175 40192=
94610 46/// /0512 10152 20004 30191 40216=
94637 46/// /0604 10092 20010 39844 40282=
94638 46/// /0309 10085 20042 30274 40307=
94647 46/// /3602 10119 20104 30195 40318=
94651 46/// /0000 10132 20079 30242 40321=
94653 46/// /3202 10131 20116 30289 40308=
94659 46/// /1812 10106 20066 30091 40292=
94672 46/// /1906 10124 20040 30276 40281=
94693 46/// /2112 10090 20038 30182 40245=
94703 46/// /2013 10118 20046 30083 4////=
94729 46/// /2515 10024 21005 39267 40125=
94767 46/// /2718 10119 21010 30096 40102=
94776 46/// /2819 10128 20040 30106 40116=
94791 46/// /2803 10126 20016 30128 40135=
94802 46/// /0508 10108 20028 30157 40240=
94804 46/// /1916 10133 20078 30255 40294=
94842 46/// /2026 10106 20036 30100 40200=
94850 46/// /1815 10098 20066 30147 40193=
94865 46/// /1708 10081 20059 30162 40187=
94907 46/// /2713 10077 20054 30131 40141=
94910 46/// /2510 10050 20019 39905 40160=
94926 46/// /3407 10039 20012 39444 40120=
94954 46/// /1931 10093 20044 30060 40171=
94956 46/// /1510 10074 20055 30161 40188=
94968 46/// /1611 10081 21001 39926 40141=
94983 46/// /1931 10113 20058 30067 40092=
94995 46/// /2516 10174 20105 30107 40115=
94996 41582 72107 10191 20118 30008 40137 58005 70322 81805
333 20168=
95711 46/// /2109 10073 20024 39896 40205=
95719 46/// /2415 10069 20020 39833 40170=
96995 46/// /1312 10255 20231 39816 40110=
96996 41480 51211 10267 20229 30116 40120 53006 70311 81239
333 20265=
89564 41980 51625 11158 21231 39884 49905 57040
333 21194=
89571 41530 82010 11092 21101 39704 49733 57065 77072 8252/
333 21124=
89611 45/// /0855 11051 21054 39875 49930 57023
333 21162=
94934 35/// /2529 10096 30063 40087 52005=
94974 37/// /1210 10071 30159 40182 52017 7//44=
95288 35/// /1622 10235 30132 40147 52017=
89002 41/90 90850 11109 21124 39877 49930 52017 73933
333 00863 11106 21110 92992=
78894 36/// /1110 10271 20229 30095 40154 53015
333 10299 20226 58004=
84628 34350 21705 10175 20148 30113 40129 71044 826//
333   10213 563// 59002 82710=
84455 31962 00000 10271 20237 39750 40100 70101
333   10353 59020=
84752 31960 00000 10128 20018 37524 70200
333   10242 59006=
84782 31562 82506 10138 20108 39648 40188 70300 885//
333   10205 569// 58010 88623=
84515 31960 00104 10284 20230 39902 40077 70200
333   10340 59018=
84501 31962 01506 10185 20162 30097 40138 70200
333   10245 58005=
84452 31960 01714 10195 20162 30078 40109 70200
333   10250 59010=
84370 31560 82706 10250 20207 30054 40082 70222 83540
333   10310 56000 59016 83620 85075=
84390 31965 61913 10200 20172 39994 40096 70320 86030
333   10295 56000 59015 86365=
84401 31960 01916 10240 20197 30050 40118 70200
333   10300 59018=
84531 31965 01615 10180 20146 30098 40110 70200
333   10219 59004=
84691 31958 02209 10183 20154 30108 40115 71044
333   102420 58008=
84686 31960 00000 10150 20053 36860 70300
333   10205 59013=
84377 31460 50000 10270 20243 39976 40081 70322 8253/
333   10334 5600/ 59010 82615 83360=
84564 31960 00610 10210 20162 38130 70200
333   10277 59004=
84735 31966 00304 10100 21010 36420 70200
333   10196 59006=
85406 32960 81905 10170 20112 40167 52010 885//
333 10190 56099 88630=
85418 32562 81903 10157 20107 40154 53015 885//
333 10172 56099 88630 =
85432 32984 00506 10123 21164 37762 48456 57008=
85442 32575 11704 10129 20104 40151 53013 81500
333 10174 56000 81620=
85469 42570 60808 10200 20125 40197 52003 82101
333 56202 82820 85080=
85470 32960 02806 10116 20095 40137 52009
333 10200=
85488 31958 01404 10114 20105 40155 52003 71000
333 10170=
85585 32997 51806 10122 20108 40183 53006 80009
333 10178 56003 85175=
85586 31905 00000 10106 20097 40176 54003 74400
333 10166=
85629 32562 11805 10116 20108 40189 54004 81500
333 10180 56400 81620=
85672 32980 02102 10086 20084 40206 53006
333   10129=
85682 32660 32105 10104 20090 40205 53006 83500
333 10157 56500 83633=
85743 31457 50000 10093 20089 40222 52010 70522 85500
333 10130 56600 85620=
85766 42460 30000 10082 20078 40218 52011 83400
333 56500 83615=
85782 32565 50000 10089 20079 40213 52015 83501
333 10142 56707 83620 84070=
85799 32460 61403 10088 20077 40227 52015 86500
333 10125 56500 86610=
85864 32580 62404 10030 20002 40246 57020 86200
333 10083 56600 86830=
85874 32580 80000 10036 20013 39619 40254 52029 885//
333 10060 56699 88630=
85892 12560 60000 10034 20024 40244 52019 69941 86200
333 10068 56600 86830=
47575 32/82 22409 10255 20089 30049 40053 53012 81101 333
20190=
47585 32982 32403 10280 20015 30009 40061 55000 80009 333
20183=
47598 32960 61702 10189 20137 30109 40115 50001 80002 333
20147=
47602 32975 01904 10220 20092 30089 40108 55002 333 20165=
47618 32965 02502 10189 20077 39425 40114 58007 333 20100=
47624 32982 23202 10239 20091 39987 40116 58005 80001 333
20154=
47636 32965 12701 10243 20123 30060 40124 50001 80001 333
20169=
47655 32965 10403 10223 20152 30069 40123 50001 80002 333
20179=
47750 32980 62503 10241 20100 30095 40120 50000 80002 333
20124=
47755 32975 72102 10232 20113 30087 40110 50004 82032 333
20141=
47772 32960 52501 10246 20081 30027 40121 52005 80002 333
20179=
47800 32965 71502 10238 20151 30082 40103 50001 83032 333
20157=
47815 32/80 61701 10211 20109 30105 40120 50002 82102 333
20141=
47817 32965 72901 10217 20160 30074 40115 50000 87032 333
20162=
47830 32/70 60902 10229 20150 30106 40123 50006 81232 333
20164=
47837 32/65 62702 10235 20182 30103 40124 51008 81172 333
20188=
47891 32975 70502 10229 20113 30110 40121 50003 80002 333
20159=
47899 32982 72801 10228 20106 39910 40123 51009 81032 333
20190=
47927 32/80 61905 10277 20253 30071 40117 51011 86202 333
20251=
50963 32770 62204 10174 20083 39919 40048 52012 86500 333
00655=
41598 22215 10048 20030 49892 57004 70100 8113/
22200 06015 10806 20602 324// 40805=
44229 32999 02503 10039 20021 37801 40119 53011 333 20000
555 31040=
44291 32598 50000 10096 20041 38628 40073 53012 84560 333
20037=
44317 32998 73204 10154 20036 38785 49968 52006 80008 333
20107 555 30085=
44329 32598 10000 10103 20040 37694 40005 52004 81044 333
20033 555 31025=
44338 32999 00000 10124 20073 38404 40050 52008 333 20049
555 30039=
44348 32997 43209 10118 20068 38565 40002 52009 84080 333
20109 555 30097=
44374 32999 32705 10163 21019 38191 49999 53005 80004 333
20096 555 30054=
44385 32999 33212 10162 20015 38783 49999 52016 80004 333
20125 555 30107=
44386 32699 72510 10162 20059 38879 40946 52015 87500 333
20138 91212 555 30128=
56444 11680 80702 10078 20046 36833 52007 69921 70060 881//
333 00151 70049=
56691 11464 83602 10107 20096 37766 52015 69901 70060 887//
333 00101 79999=
56964 32465 70000 10208 20193 38670 40058 52004 86942 333//
00001 70009=
57902 32675 71402 10210 20191 38579 40045 52013 87502 333
05103 79999=
54623 32970 72003 10213 20115 40043 52002 8703/ 333 05552=
57385 11558 72701 10174 20161 40077 52014 60011 71060 8753/
333 05401 70147=
57458 11440 83401 10156 20154 40087 52010 60131 76066 887//
333 05401 70163=
57872 11740 80000 10206 20194 40075 52007 69901 76060 885//
333// 05402 79999=
57707 11462 80000 10137 20114 38471 52013 69901 76060 885//
333 00002 70006=
57731 11357 80000 10176 20171 40094 52007 60081 78096 887//
333 05251 70086=
57832 11466 80000 10166 20163 40094 52021 60211 76060 887//
333 05301 70016=
57916 31658 70000 10244 20235 40050 52014 71000 878// 333
05303 70001=
57922 32566 81402 10220 20202 40059 52011 886// 333 05305
70043=
57932 11463 80000 10225 20218 40062 52009 69901 70060 885//
333 05402 70090=
10401 70005
333 91206=
80001 22215 00160 20302 399// 40504 5//// 6//// 80165 ICE=
82240 22283 00296 20302 310// 40603 80255=
54587 32965 71102 10077 20141 40022 52001 8704/ 333// 05450=
50442 32970 02901 10120 20023 40076 52008 333 00851 30010=
92011=
92001=
10152 20058 70020=
83570 333 10115 20034 70008 90936=
10193 20089 70000=
10235 20036 70000=
61832 31465 62704 10285 20250 40113 71791 83970
333 58003 83615 82923 84361 95371 95374=
78866 11470 71111 10269 20231 30153 40157 52013 70382 85275 333
10304 20224 58002 69901 70128 85818 87459=
60101 32960 00901 10173 20150 40185 50001=
60107 32960 02802 10192 20172 40183 50000
333 95300=
86330 32998 70000 10131 20098 40138 51007 83036
333 10192 20086=
86360 11596 80000 10136 20121 40141 53012 69931 79695 82970
333 10175 20088=
86460 32998 80000 10136 20117 40135 51005 8807/
333 10174 20099=
86560 11897 80216 10144 20112 40122 50000 69901 76022 8802/
333 10192 20131=
86565 32997 60202 10123 20098 40136 53001 83036
333 10186 20095=
86580 11597 80209 10136 20109 40128 56001 69901 70262 82477
333 10178 20100=
71967 36/// /0105 10099 20047 39259 40228 56004 333 10123 20008
70000=
71131 17/64 /0114 10104 20047 38922 40168 55005 60011 7//4/ 333
10123 20017 70010=
71135 17/64 /0205 10090 20057 39091 40166 55001 60021 7//4/ 333
10145 20044 70020=
71200 36/// /2208 10138 20095 333 10155 20093 70002=
78397 32570 40504 10283 20256 30106 40122 83903 333 06200 10329 20252
59001 83820 81924=
71475 36/// /2102 10154 20080 30108 40201 56006 333 10165 20092
70010=
64400 32558 50000 10240 20225 30085 40109 85500
333 0//00 59016 85630=
64450 32958 00000 10230 20221 39745 40096
333 0//00 59013=
78906 32478 71107 10280 20205 30131 40136 83272
333 10311 20239 58006 83818 86360 87076=
60351 32970 00000 10174 20157 40202 50002
333 95990=
60425 32960 00706 10223 20088 40195 58002
333 95990=
60444 32965 00606 10200 20116 39177 48591 51008
333 95990=
60468 32960 01008 10158 20123 39275 48572 50002
333 0//00 95990=
60581 32965 01008 10256 20117 40179 50000 =
71068 32774 10907 10160 21051 39503 40190 57008 81100 333 10168 20006
70000=
71076 46/// /0113 10001 21041 39782 40177 51010 333 10006 21017=
71107 36/// /3316 10101 30146 40259 5/001=
71893 32680 61302 10156 20062 30162 40193 56011 82801 333
10168 20090 79999=
71966 46/// ///// 10140 333 10144 20039=
71473 36/// /2105 30162 58011 333 70024=
91353 32574 70508 10296 20258 30084 40089 51007 84270 333
20217 5619/ 59006 84819 83364 555 93000
91425 11574 20405 10294 20249 30087 40088 51005 60134 70282
82201 333 20233 561/9 58000 70167 82819 555 93000
91434 11474 21005 10311 20267 30100 40103 51014 69904 70282
82200 333 20211 562// 59001 70000 82818 555 93000=
47101 32665 80700 10144 20101 30015 40105 57003 8251/ 333 20100
30019=
47105 32975 82007 10249 20063 30034 40063 55001 8801/ 333 20210
30025=
47108 31950 81102 10196 20140 39993 40094 53002 71022 8801/ 333
20156 30021=
47115 32965 62309 10227 20041 39820 40069 55004 80002 333 20192
31027 92043=
47133 32960 23404 10169 20119 30023 40103 55004 80001 333 20129
30020=
47138 32968 72308 10221 20090 30086 40089 57003 86032 333 20197
30025 92022=
47159 32657 81806 10196 20134 30018 40098 52003 69902 71022 8252/
333 20156 30022 92022=
47165 11558 81803 10186 20138 30060 40104 52001 69902 76066 8552/
333 20166 31020 70000 92022=
47168 32960 81603 10199 20123 30025 40102 53001 69902 8802/ 333
20178 30023 92022=
47184 11480 81803 10215 20095 30083 40109 55002 69902 8472/ 333
20176 30022 70000 92022=
47090 32970 60902 10205 20083 30039 40059 50004 82032 333 20164
30031 92022=
47095 31959 70000 10162 20105 39916 40096 55004 71022 82012 333
20103 30021=
47100 32970 62912 10149 20058 39140 40087 57007 80001 333 20099
31018=
47106 32668 71805 10250 20061 30024 40066 57001 83042 333 20180
30028=
47112 31930 82006 10190 20157 30016 40095 55001 71022 8801/ 333
20166 30020 92011=
47114 32662 80000 10166 20096 39929 40103 57003 8251/ 333 20109
31023=
47119 31650 71803 10187 20136 30059 40099 55002 71022 84210 333
20152 3/021=
47121 32962 72902 10135 20103 39832 40110 57008 80006 333 20078
31020=
47129 31930 82305 10166 20149 30079 40108 53002 71022 8802/ 333
20132 31018=
47130 32968 72708 10239 20053 30011 40067 57004 80002 333 20193
30025 92013=
47131 32662 83202 10161 20124 30034 40101 55003 8451/ 333 20131
31019=
47135 32668 80000 10172 20106 39815 40099 53004 8452/ 333 20109
31022=
47136 32670 83202 10154 20118 39936 40101 57007 8451/ 333 20109
30018=
47140 31657 80906 10189 20136 30067 40102 55002 71022 8252/ 333
20159 31026 92011=
47143 32568 80000 10189 20098 30033 40099 57005 8551/ 333 20162
30020=
47146 32661 81102 10197 20129 30038 40102 55003 8802/ 333 20148
31021=
47152 32568 83201 10194 20106 30058 40096 53001 8352/ 333 20161
30022=
47155 32962 80902 10207 20105 30097 40101 55000 8802/ 333 20165
31023 92011=
47156 31657 80000 10185 20128 30021 40106 53001 69902 71000 8451/
333 20149 31020=
47162 32665 81801 10198 20124 30064 40101 55001 8631/ 333 20155
31021 92022=
47170 11562 80201 10180 20151 30065 40104 52002 69902 76066 8472/
333 20157 31020 92022=
47185 11565 81407 10167 20128 30024 40107 52005 69912 76166 8372/
333 20159 31017 70001 92033=
47189 11565 80901 10196 20162 30053 40112 53006 69912 76066 8572/
333 20179 31020 70001 92022=
47192 32665 80901 10174 20123 30079 40104 55003 8352/ 333 20123
31019=
16252 32968 02405 10168 20137 39230 42789 5001/ 92345=
83703 86640=
26229 41584 81401 10091 20082 30083 40090 58003 70382 8397/=
26314 42997 61703 10087 20048 30080 40084 57004 80001=
26348 41499 83004 10096 20088 39914 40085 58003 70296 8661/   333
86714=
26406 42564 61703 10078 20053 30082 40091 58003 82530=
26422 41097 81702 10108 20099 30071 40103 56001 70282 8805/=
26446 41442 82704 10147 20136 39896 40080 51001 78082 889//   333
88915=
26544 41460 83102 10124 20111 39939 40086 51002 72582 883//   333
85914=
16520 32970 02401 10180 20158 30165 40192 50/04=
16539 32997 03006 10192 20184 30079 40191 51003 92345 555 0////=
16522 32998 00314 10188 20144 39958 40197 52004 92345 555 0////=
86068=
36911 42699 81103 10192 20064 39675 40081 53005 85950 555
10017=
38613 42999 50102 10141 20103 39265 40132 54000 80002 555
66}12=
36982 42598 72202 11021 21024 36500 47042 57010 86552=
38353 42597 81202 10205 20115 39219 40059 53001 70282 889//=
36974 41597 80000 10065 20063 37972 48503 78188 889// 555
12008=
38345 42999 00901 10111 20041 38765 48477 57005 555 11007=
13272 32670 73104 10156 20106 30036 40153 53012 87500 333 87640=
13376 11698 80000 10165 20155 39895 40149 52008 69921 76162
885//=
13388 11697 60000 10156 20148 39900 40137 51002 60051 70126
86500=
26231 41497 81402 10104 20081 30085 40094 58002 72582 883//   333
86710   555 11011=
40022 52001 8704/ 333// 05450=
12465 11560 82303 10093 20082 39918 40149 51012 60011 78082 8697/=
12300 32960 02603 10088 20058 30049 40138 52010 =
33261 42569 21301 10190 20134 39951 40124 58002 81530=
33275 42997 01002 10158 20111 39920 40133 54000=
33301 41497 82705 10133 20124 39845 40118 53007 78081 8637/
333 85914=
33377 42965 00000 10166 20139 39942 40128 54000 555 10016=
33415 41497 82706 10148 20133 39724 40107 52010 78098
8633/ 333 86917=
33429 42997 43405 10159 20123 39694 40101 54000 84030=
33466 42568 11603 10190 20122 39932 40110 58007 81500=
33526 41560 83206 10122 20106 39793 40123 52007 78098 883// 333
87920=
33562 42997 51604 10187 20089 39756 40098 58003 83031=
33614 42966 81302 10180 20142 40120 54000 8807/=
33761 42975 00901 10171 20090 39886 40110 57001=
33889 42998 00000 10144 20114 30067 40103 58004=
33902 42999 01602 10165 20134 30049 40112 56001=
33990 41964 02901 10158 20146 30028 40112 57007 70251=
34415 42997 30000 10149 20138 30041 40134 58001 83030=
34523 42997 29901 10148 20111 30069 40143 52001 80002=
34712 42998 60703 10228 20141 30031 40111 57003 86030=
17090 32665 60000 10122 20084 38700 48485 56003 83250
333 83840 86360 10090=
37549 42797 63003 10177 20138 39588 40132 55003 83530=
12488 11596 72503 10112 20095 39981 40133 53004 69901 78022 879//=
12650 11/00 93404 11011 21012 37970 48474 52003 69971 74984 =
60025 88/02=
26554 41550 82402 10155 20148 39917 40072 58006 72598 83937   555
11015=
26666 41660 51704 10200 20137 39881 40083 58001 70291 85900   333
85940   555 10019=
26850 41960 22002 10155 20141 39825 40086 54000 70398 82020   555
10013=
26863 41960 51404 10150 20130 39866 40092 54000 70198 80002
555   11014=
26941 41459 83102 10125 20118 39887 40117 52010 78098 8872/
333 88512 555 11012=
26951 42960 42202 10131 20120 39905 40098 52001 84030   555 10013=
33008 41570 72801 10112 20092 39948 40123 52002 70282 87500
555 11011=
33019 41460 83602 10135 20114 39931 40100 54000 70282 886//
333 86711 555 12014=
33036 41960 22902 10186 20125 39877 40097 54000 70191 82030   555
10015=
33041 42965 71401 10190 20139 39958 40105 58006 87030   555 11016=
60390 32965 00000 10182 20172 40206 50000
333 95990=
60402 32960 02402 10184 20161 40199 51002
333 95990=
60419 32970 00000 10166 20139 40198 53002
333 95990=
60475 32965 00000 10170 20128 39283 48577 51002
333 95990=
60490 32970 00000 10188 20140 40187 50003
333 95990=
60525 32960 01804 10269 20085 40167 50002
333 0//00 95990=
60531 32975 00000 10205 20116 40189 51005
333 0//00 95990=
60566 32965 01810 10266 20092 40177 51006=
60580 32960 00610 10270 20137 40167 50002
333 0//00 =
60590 32965 00912 10270 20080 40169 53007
333 0//00=
60630 32960 05022 10306 20016 40122 53015=
60656 32760 23616 10316 20060 40121 53006 82200
333 0//00 82840=
60670 32965 02705 10263 20059 39079 48553 51004
333 95990=
61036 32960 7//// 10337 20192 39841 40070 80008 92345
333 58007 87280=
61045 32960 7//// 10300 20127 39778 40053 80008 92345
333 59003 87280=
61052 32965 30210 10325 20176 39829 40073 80002
333 0//00 59002 83080=
61075 32965 73202 10325 20174 39760 40056 80008 92349
333 59016 87280=
61090 32960 50000 10305 20086 39573 40060 80002 92345
333 58002 85080=
61096 32960 70000 10320 20154 39690 40055 80008 92345
333 58001 87280=
61099 32965 5//// 10288 20218 39/// 4//// 80002 92347
333 5//// 85080=
41240 31959 01604 10310 20269 39990 49993 70500 333 58000=
41244 36/// /0204 10284 20083 39667 40018
333 0E030 58000  =
41246 31458 31603 10304 20272 39998 40003 71000 83601
333 58018 83710 82070 =
41256 31450 50000 10300 20289 39992 40001 70500 85500
333 58012 85710 =
41262 36/// /1110 10278 20226 39812 40004
333 0E031 58000  =
41268 32960 02322 10320 20250 39981 49996 333 58007=
41304 36/// /1208 10239 20223 39695 40012
333 0E024 59000  =
41312 36/// /9902 10288 20243 39986 40027
333 0E/// 58001  =
41314 32960 01818 10264 20200 39519 40030 333
59014 =
41316 32561 52405 10289 20245 30000 40026 85500
333 58002 85625 =
38609 MPL=
26645 41496 82803 10122 20117 39834 40085 53008 71082 886//   555
12014=
26659 42460 31301 10167 20150 39884 40088 54000 83500   555 11015=
26763 41960 21802 10163 20134 39873 40089 58011 70198 82030   555
11015=
26832 41450 82803 10120 20111 39918 40105 52010 78098 883//   333
86710   555 12014=
26887 42870 21705 10189 20125 39916 40110 58003 82040   555 10017=
33027 42960 10000 10136 20120 39941 40102 58001 80005   555 10013=
11414 11980 09901 10044 20035 39457 42789 52001 69911 70181
333 55079
555 394// 50118 60124 70128 80127=
11438 11980 12602 10055 20031 39783 40182 53005 69901 70181 81030
333 55097 81360
555 384//=
11502 36/// /9902 10077 20034 39715 40170 52003
333 55084
555 374// 50127 60137 70148 80141 90128=
11538 32986 02802 10059 20033 39580 40189 52002
333 55042
555 383// 50136 60155 70160 80139=
11628 11970 02404 10062 20033 39545 40182 52002 69901 70260
333 55049
555 382//=
11643 16/// /2202 10041 20031 39203 42779 53001 60021
333 55000
555 393// 50111 60119 70127=
11683 11986 02405 10042 20032 39304 42789 55000 69921 70281
333 55039
555 394//=
11693 32970 33103 10054 20045 39697 40190 50001 80001
333 55027 83076
555 394//=
11698 36/// /3002 10065 20046 39777 40187 50004
333 55029
555 388// 50142 60149 7//// 8//// 9////=
11710 16/// /2402 10060 20039 39559 40178 53003 69901
333 55016
555 386// 50123 60126 70147 80142=
59626 11461 72201 10267 20257 40075 52006 60021 72598 879//
333 05152 70243=
59849 32580 10000 10259 20230 40082 52002 81102 333// 05100=
59954 32570 70000 10285 20263 40081 52002 81202 333// 05101=
38262 32998 00000 10190 20139 30997 40164 57004   555 10016=
38264 35998 01702 10212 20077 39985 40072 57008   333 00014   555
10016=
38396 42996 01101 10175 20095 40085 57006   333 00013   555 10013=
38457 42599 20901 10166 20084 39517 40075 57008 82540   555 10012=
38565 329// 00000 10169 20076 40097 57010   555 10013=
38579 32999 31702 10170 20086 39663 40060 57003 83040   333 00012
555 10012=
38583 42997 00901 10152 20143 39779 40097 57001   333 00010   555
10012=
38611 42997 23403 10168 20074 39571 40116 56002 82040   333 00015
555 10014=
38618 42999 33201 10157 20112 39432 40089 57010 83080   333 00013
555 10013=
38683 42997 00000 10179 20095 39804 40067 57006   333 00014   555
10016=
38696 32999 01602 10187 20062 39259 40066 57006   333 00013   555
10015=
38812 42997 00703 10185 20076 40063 53002   555 10018=
41883 11350 80502 10222 20210 30028 40048 60143 79596 8632/ 333 56299
58025 70447 84709 85615 88458 81930=
41907 32356 80904 10258 20250 30029 40047 8672/ 333 56299 58018 70000
85708 83615 88458=
41923 32340 80901 10255 20245 30037 40047 8562/ 333 56299 58012 70001
84708 84615 88458=
41943 32440 70000 10244 20230 30050 40059 83520 333 56990 59006 70010
83615 86457=
41950 32430 80000 10266 20260 30037 40041 85320 333 56399 59018 70060
82708 83614 88460=
41978 32440 50000 10260 20250 40050 83530 333 56990 59003 70140 83615
84360=
26825 41960 72501 10101 20097 39952 40113 53010 70282 8703/   555
11011=
40360 32960 03011 10200 20070 39518 40076 333 59012=
40362 32962 01507 10250 20100 39546 40032 333 59016=
40405 32960 00000 10270 21060 39333 40023 333 58005=
40416 32960 03310 10300 20150 39984 40004 333 58008=
40430 32960 00506 10320 20060 39335 40004 333 59015=
40437 32960 00108 10280 21080 39365 40018 333 58007=
40438 32960 00000 10290 21030 39378 40037 333 58009=
40439 32960 00000 10242 20200 30008 40020 333 59017=
41030 32960 03602 10302 20150 39746 40010 333 59016=
41112 32960 00000 10190 21011 37923 48470 333 59006 555 04410
59986=
41114 32960 01604 10207 20100 37961 48471 333 59004 555 04410
59998=
41128 32960 00000 10260 21070 38752 48472 333 59005
555 04410 59996=
41136 32960 00000 10290 21030 39245 40005 333 58002=
83650 91127 =
28679 41597 83202 10133 20127 39777 49943 53002 71098 889//   555
11013=
28766 41496 83602 10134 20132 39777 49955 57002 78182 883//   555
12012=
28966 42598 82306 10104 20088 39724 49992 58011 885//   333 88695
555 11008=
36152 41598 82304 10152 20130 39834 40009 53008 70288 889//   555
11015=
36177 41597 71202 10150 20111 39787 40016 53003 70282 87331   555
11013=
36859 42599 63603 10149 20081 39359 40093 53004 82944   555 10011=
36864 42699 50000 10196 20041 40065 53005 83501   555 91104=
38222 42997 20000 10170 20062 39546 40069 54000 80002   555 10010=
38341 42999 11801 10186 20061 39342 40074 57005 81040   555 10011
91111=
38343 42998 01602 10156 20085 40078 57001=
60355 32960 01807 10195 20171 40201 53001
333 95990=
60445 32965 00000 10181 20081 39056 48583 50009
333 95990=
60511 32965 00000 10159 20069 39111 48571 50001
333 95990=
60549 32960 00000 10224 21040 38918 48556 55000
333 0//00 95990=
60555 32970 01606 10267 20132 40175 51001=
60559 32960 00000 10270 20161 40170 54000=
60607 32960 01111 10260 21031 40167 51002
333 0//00=
60620 32960 00618 10280 21023 40128 58003
333 0//00=
60640 32960 00906 10260 20059 40167 50005=
54335 32965 81807 10199 20148 40013 52002 8801/ 333 05354=
33631 41697 70000 10129 20118 40126 54000 70282 87300
333 87933=
33345 42573 51601 10191 20143 39915 40110 58007 85900=
34300 42997 20000 10178 20135 39952 40133 58001 82030=
33663 42997 00901 10185 20112 30003 40094 54000=
33393 41460 83303 10114 20103 39752 40134 52006 78082 883//
333 84912=
11858 36/// /2903 10111 20085 30030 40179 52013
333 55005 =
17184 32970 00000 10168 20150 40104 54000=
47407 12/82 12412 10207 20039 39848 49980 51015 69902 81230
333 20151=
47409 32/60 22615 10234 20005 39895 49943 53001 82100
333 20163=
47418 32/65 42217 10126 20071 39921 49964 58005 81032
333 20098=
47421 11/70 62406 10173 20059 39987 40031 53014 69952 72582 84272
333 20120=
47430 11/70 63010 10189 20102 39994 40045 53015 69902 70282 81202
333 20140=
47570 32983 13502 10190 20106 39875 40121 58006 80001
333 20104=
47605 32982 10103 10246 20064 30072 40110 53001 80002
333 20149=
47663 32970 20607 10238 20137 30090 40121 50001 80001
333 20160=
47675 32/75 12604 10252 20155 30030 40120 58002 81101
333 20143=
47741 32980 73102 10223 20126 30082 40107 58001 82076
333 20138=
47746 32975 71408 10260 20110 30094 40111 58001 80002
333 20134=
47887 32/70 73004 10222 20122 30082 40121 50004 81132
333 20152=
40155 32960 02706 10202 20160 30077 40087 57013=
40180 31959 00503 10190 20159 30047 40094 57012 71000=
40199 32970 00211 10277 20081 30080 40083 56005=
44210 32999 00000 10119 20025 38455 53011 333 20100 555
30050=
44216 32599 33407 10174 20038 38876 40046 52016 83500 333
20160 555 30130=
44217 32998 50000 10057 20057 37864 40168 53009 80003 333
20014 555 21033=
44242 32998 20000 10115 20034 39190 40044 52011 80002 333
20034 55/// 555 30020=
44243 32999 30000 10126 20080 39273 40044 51006 80008 333
20085 555 31066=
44254 32598 70503 10101 20017 38928 40042 53007 86560 333
20065 555 30041=
44257 32998 80206 10120 20023 38865 40034 52011 8805/ 333
20064 555 30034=
44263 32998 10000 10061 21005 38019 40137 52003 80008 333
20042 555 30000=
44266 32999 70000 10081 21009 37743 40077 53013 84084 333
20070 555 30026=
44286 32998 02703 10122 20032 38555 40056 53012 333 20063
555 30032=
44325 32999 70903 10152 20071 38734 40020 53007 87080 333
20107 55/// 555 30008=
56066 36/// ///// 10012 21011 36660 4//// 52006
555 10040 2//// 3//// 40111 51001 60/// 7//// 80000
9//// ///// 1/020 2//00 30000=
52634 36/// /0000 10027 21035 36766 4//// 52003
555 10040 2//// 30126 41111 51011 60/// 7//// 80000
9//// ///// 1/118 2//00 30000=
57528 16/// /2000 10155 29756 37563 61430
555 1/135 2//00 30191 12100
11101 10100 10111 01110 1111/
/////
2//// 3//// 6//// ///// ///// 8//// 9//// ///// ///// //004
11101 11111 1011/
11111 110//=
84200 333 20275 59009 70007 81815 83830=
45011 32470 61306 10293 20261 40102 52006 86201 333 20266
59009=
59995 32480 72907 10282 20244 30052 40060 52011 8313/ 333// 05202 70484=
47008 32960 80000 10217 20122 30012 40062 52041 80007 333
20173=
47016 32570 80000 10134 20065 39253 40083 58003 80002 333
20075=
47020 32965 80000 10159 20073 39736 40095 58008 8802/ 333
20116=
47025 32965 80000 10229 20152 30013 40040 52017 80007 333
20148=
47035 32970 80202 10165 20118 30064 40072 52001 8802/ 333
20140=
47041 32770 80000 10200 20154 30032 40059 52005 88030 333
20125=
47055 32970 82301 10242 20090 30028 40070 58005 82032 333
20166=
47058 32566 81402 10183 20110 30040 40085 57002 82532 333
20144=
47069 31519 81403 10161 20154 39997 40092 57003 71022 886//
333 20138=
23914 42999 03201 10077 20034 39919 40170 52007=
23921 42599 33504 10076 20041 30040 40156 52011 81101=
23955 12598 80605 10111 20067 39923 49981 57001 69902 885//
333 20109 55000 88626=
24641 32599 70101 10119 20067 39934 40067 58001 83331 333
20083 55118=
28440 42998 23605 10119 20078 39755 40087 52015 80009=
28748 41560 83606 10131 20114 39811 40036 52006 70262 87961=
29231 11498 81302 10142 20140 39882 49971 53005 60132 70282
8733/ 333 20134 55022=
29838 11597 81601 10142 20111 39807 40022 57002 69902 72581
8633/ 333 20135 55075=
30372 11758 80901 10047 20040 39187 40017 57018 60022 76162
8352/ 333 20016 55080=
30673 32699 80901 10083 20011 39334 40063 58007 82383 333
21026 55143=
30823 32999 60000 10110 20030 39451 40049 52005 80001 333
20053 55131=
30935 32699 50603 10110 20074 39175 40055 53010 82541 333
2//// 55041=
30965 32999 40503 10133 20004 39277 40048 53006 80002 333
20015 55071=
31004 12699 62304 10102 20036 39266 40049 53004 69902 83101
333 20010 55006=
31088 32599 32301 10100 20055 30049 40056 52005 82011 333
20052 55110=
31300 32599 71802 10129 20050 39814 40085 52014 82532 333
20062=
31329 32599 70201 10078 20004 39419 40056 52013 83530 333
21002 55000=
31369 11397 83607 10028 20018 39891 49974 52027 60250 78082
8596/ 333 20025 85910 91012 91113=
31371 32999 60901 10104 20030 39843 40094 52010 84051 333
20062 55108=
31388 32699 80203 10102 20019 39814 40062 52010 86501 333
20045 5066/=
31416 11599 83606 10068 20035 39945 40033 51008 60010 70262
889// 333 20022 55000=
31510 329// 82702 10104 20021 39911 40068 52011 8805/ 333
20061=
31594 32999 03505 10101 20032 39897 40059 52026 333 20024=
31707 32999 02701 10157 20050 39955 40042 52016 333 20058=
31735 31698 70106 10127 20046 39944 40027 52037 72582 82930
333 20060=
31866 32599 72702 10161 20032 39945 49950 53026 87900 333
20082=
31873 32999 03006 10174 20040 39913 40030 51010 333 20072=
31909 32999 12809 10201 21012 39908 49979 50000 81040 333
20140 55126 91016 91123=
31960 12999 71701 10197 20061 39835 40052 52008 60010 80005
333 20163 55075=
32053 11195 80212 10026 20021 39825 49865 52025 50180 78082
889// 333 21003 87703 91015 91121=
32061 11456 83510 10047 20047 39848 49885 52026 60110 78082
889// 333 20028 91014 91114=
32098 11497 83206 10064 20002 39845 49854 53023 69910 78082
84973 333 20042 84917 91110=
32150 31598 72804 10085 20017 39888 49916 52025 70282 87900
333 20082 91110=
32165 32599 22009 10128 20043 39889 49947 58002 81101 333
20096 91014 91114=
31137 32699 63201 10064 20413 39109 40083 52009 83930 333
11007=
58008 82820
83360 808//=
47003 32980 80000 10224 20161 30049 40053 52008 80002 333
20156=
47005 32980 82002 10140 20036 38560 58002 80007 333 20067=
47028 32967 83402 10156 20107 39985 40075 57008 80007 333
20109=
47031 32970 80000 10112 20061 80007 333 20035=
47037 32967 80000 10168 20098 39964 4082/ 53003 8802/ 333
20112=
47039 32960 80000 10138 20113 39917 40100 57006 8803/ 333
20096=
47046 32969 50000 10185 20076 30017 40040 53001 80002 333
20076=
47050 32965 70902 10169 20143 30042 40074 57009 87030 333
20119=
47060 32960 81403 10179 20150 30023 40077 54000 8803/ 333
20155=
47061 32980 60000 10329 20068 30021 40062 52012 86030 333
20178=
47065 32965 71406 10186 20141 30028 40090 57020 87010 333
20142=
47068 32960 81104 10175 20153 30057 40090 57002 885// 333
20139=
47070 32965 80000 10163 20129 30021 40104 57003 80002 333
20121=
47075 32980 80000 10161 20114 39698 40108 57001 80007 333
20094=
98325 11461 41402 10274 20264 40090 53007 60114 70544 81271
222// 20000 333 20244 56999 58009 70110 81817 98308=
98328 31461 71401 10196 20178 38518 40081 53013 70544 81208
333 20174 56299 58002 81813 87279=
98429 11558 51204 10294 20236 40109 52019 6///4 70544 82230
333 20256 56999 58012 7//// 82823 84360=
98440 11470 72202 10254 20249 40104 53019 69904 78020 85972
333 20246 56999 58011 79999 82915 84816 85358=
98444 11465 71201 10274 20256 40109 52021 69904 70282 83238
333 20263 56999 58011 79999 82818 84460 86270=
98637 11468 80000 10264 20245 40091 52006 60114 70522 81977
333 20240 56999 58006 70109 81912 83358 88272=
98755 11570 60000 10270 20257 40105 53017 60034 70522 81930
333 20245 56999 58016 70030 81920 86359=
44207 32999 02003 10052 20025 38262 40102 53006 333 21013
55///=
44212 32999 53605 10170 20011 39006 40053 52019 85040 333
20150 55197=
44231 12999 00000 20055 38641 40073 52010 69912 333 20061
55058=
44232 32999 00000 10065 20044 39012 40102 54001 333 20019=
44239 32999 23403 10117 20050 38701 40039 52007 80004 333
20043 91006 91110=
44241 32999 30000 10126 20048 39131 40045 52016 80001 333
20112=
44259 32998 70507 10154 20019 39173 40012 53002 82088 333
20106 55089=
44277 32999 62303 10092 20051 37771 40064 53004 84054 333
20009 55///=
44282 32999 10000 10095 20015 38288 40078 53009 81040 333
20050=
44284 32999 00000 10010 21004 37817 40134 52002 333 21025=
44285 32899 10000 10088 20050 38258 40066 52011 81040 333
20055=
44287 32999 03203 10085 20041 38071 40074 52014 333 20034=
44288 32599 33604 10092 20051 38104 40051 53011 83200 333
20070=
44294 32998 20505 10105 20048 38452 40024 52011 82040 333
20050=
44298 32999 20210 10111 21027 38571 49981 54001 80006 333
20063=
44305 32999 50502 10149 20048 38997 49992 54000 85030 333
20121=
44314 32598 80707 10150 21033 38985 49990 57007 8852/ 333
20110=
44341 32999 23410 10116 20021 38496 40027 53018 80004 333
20070 91012=
44347 32999 03209 10123 20051 38607 40038 52015 333 20085=
44352 11699 70000 10116 20094 38461 49969 58008 60032 72166
87500 333 20123=
44354 11599 71802 10158 20090 38930 49941 51006 69912 83570
333 20144=
44358 31998 70906 10151 20107 38987 49975 53010 70244 87030
333 20140=
44373 32999 03208 10126 20065 38450 40044 52008 333 20091
55036=
28661 83609 10143 20128 39907 49994 52017 72582 8533/ 333
85924=
28879 41597 82408 10102 20085 39688 49959 57008 72582 8697/
333 86930=
28952 41597 83203 10131 20118 39824 40007 57003 78082 889//=
29023 11496 80903 10102 20094 39898 49990 54000 69952 75185
886// 333 20100 55000=
29122 12298 80704 10115 20110 39896 49966 54000 69942 886//
333 20112 88704=
29807 42597 52303 10104 20065 39836 49948 58010 85500=
30230 12599 31803 10078 20051 39777 40088 52029 60062 82201
333 20031 55000=
30309 42998 80405 10063 20029 39523 40103 52016 85037 333
20046=
30385 32999 80000 10063 20041 39540 40046 58003 86026 333
20000 55049=
30650 32999 82303 10098 20017 38986 40032 57002 80001 333
21015=
30710 42960 51801 10107 20034 39448 40040 53010 80001 333
20031=
30844 31999 30000 10068 20027 39133 40060 53007 70340 80001
333 21002=
31829 32599 83103 10114 21022 39927 49957 51041 889// 333
20096=
31989 32999 61702 10178 20051 39986 40036 51008=
35078 42798 72104 10063 20056 39639 40002 56002 87500 333
87655=
35108 42997 00000 10081 20046 40165 52004=
35188 42998 22404 10074 20056 39593 40007 57001 82081=
35229 42997 20000 10099 20050 39848 40110 54000 81031=
35394 41996 50000 10104 20092 39380 40019 58005 71041 83042=
35416 42997 13402 10096 20059 80001=
35671 42998 30000 10110 20081 39644 40052 54000 83040=
35746 42998 53502 10148 20048 39985 40061 52001 85030=
35796 42998 22502 10192 20170 39630 40029 57006 80002=
36003 42998 32404 40131 20081 39848 49991 52003 82031=
36870 41597 70000 10194 20082 39132 40069 53008 70282 87900
333 87930=
38198 42999 30701 10173 20032 83080=
44214 32998 22702 10102 20027 38230 40087 52009 80008 333
20083=
44292 32699 51403 10095 20061 38590 40036 52011 83560 333
20065 55102 30033=
44304 32599 60509 10125 21030 38849 49998 52016 83947 333
20105=
44218 32998 50000 10153 20044 38508 40031 52004 85040 333
20115=
44272 32998 20701 10076 20029 38156 40061 52005 80004 333
20043 55095 333 30017=
42348 31996 22503 10314 20173 40017 70500 82030 333 58003
82630=
42361 31996 52705 10330 20232 40001 70600 80001 333 58002
85080=
42369 31595 40704 10282 20257 40008 70521 84300 333 58013
84620 81930=
42559 22596 52302 10268 20210 4//// 70196 82532 333 58///
6003/ 82620 83360 85070=
42647 31996 42303 10286 20227 40046 70522 81031 333 58003
81360 83070=
42667 21596 70000 10260 20226 39481 40058 71796 85930 333
58018 6004/ 84625 82930 85360=
42724 22596 50201 10250 20244 40052 82531 333 58001 6990/
82620 83360 85070=
42737 22596 22303 10274 20251 40042 81501 333 58005 6990/
81625=
42779 32597 41801 10290 20195 39348 40022 81531 333 58004
81620 83825=
42809 21495 70000 10274 20260 40019 70522 85530 333 56390
59012 6990/ 85618 87360=
42867 32996 51802 10266 20195 40043 82031 333 58003 82360
85070=
42909 31496 32005 10292 20252 40047 70221 83300 333 56500
58007 81618 81930=
43003 21495 71402 10264 20258 40060 75065 85931 333 58013
6013/ 83618 84822 81930=
43063 32596 72701 10252 20208 39449 40063 83531 333 58012
83628 85356=
43117 32296 52303 10250 20230 40067 82032 333 58007=
43128 315/6 62705 10280 20207 39461 40055 71322 84930 333
57922 58005 83620 81930 85360=
43185 32596 42701 10296 20245 30040 40043 71392 83330 333
57962 57951 58003 82620 82925=
43189 32596 70000 10300 20233 30033 40042 82832 333 59007=
43192 21495 81802 10236 20230 40090 76196 8592/ 333 57942
58021 6030/=
43245 32596 43201 10306 20237 30023 40045 82501 333 58000=
43279 32596 42302 10294 20257 30038 40055 83301 333 57922
59014 82620 81930 84065=
43284 32596 30000 10246 20228 39975 40090 83800 333 58009
82620 83825=
43295 32996 22903 10220 20190 39078 48487 80001 333 58008
82078=
43321 31496 52303 10236 20221 39636 40082 70511 83631 333
56699 58005 81710 83615 85070=
43344 315/6 42904 10282 20211 39968 40067 70500 81501 333
58001 81620 83075=
43371 32596 13203 10258 20241 30019 40092 80001 333 59001
81075=
44219 32998 40905 10132 20041 38529 40046 52013 84094 333
20110 555 30074=
44221 32999 30000 10082 20043 38511 40089 52007 82048 333
20043 555 30016=
44224 32698 70000 10092 21057 38080 40110 53002 87500 333
20014 555 31008=
98223 31565 21801 10300 20269 40100 52015 70544 81201 333
20264 56999 58003 81820=
98836 31565 30201 10280 20246 40095 52014 70544 81201 333
20240 56999 59005 81820=
22550 42997 51303 10143 20084 30123 40133 57008 81031=
22583 42984 00000 10064 20046 30098 40178 52002 80001=
22768 42997 21802 10147 20055 30099 40153 54000 80001=
22845 42998 71601 10173 20134 39988 40136 53003 84031=
26063 41597 30101 10167 20129 30063 40070 57006 70191 83400=
26298 42997 01601 10174 20141 39889 40107 58003=
26477 42970 00000 10180 20117 39953 40074 53001=
26702 41496 72802 10114 20085 30078 40103 52005 71022 87500
333 87617=
26997 42966 71201 10195 20139 39914 40121 58003 84032=
27595 42997 13503 10118 20084 30048 40188 51004 80001=
27612 429// 00000 10150 20139 39963 40147 53002=
27947 42997 00000 10134 20105 30006 40160 54000=
27962 42997 50903 10146 20117 40177 52006 85050=
34009 42997 61301 10203 20121 39834 40120 58001 85030=
34172 42960 61203 10158 20068 39996 40181 52005 84031=
34247 42969 00000 10129 20100 30050 40160 53001=
34391 32997 00702 10114 20062 30140 40170 52005=
37054 42697 61201 10149 20131 39742 40112 57011 86400=
83526
22264 00300 20402 329// 40603 80245=
42599 52205 10298 40104 52012 82404
22234 00310 20302=
41697 51911 10240 20236 40155 53009 70112 83433 92350
22243 00240 20301 309// 40603 5//// 80220 B/RGDS=
80048=
15562 18000 19001 22235 23025 35052 36069 50055 51250 52001 53101
70001 71999 72808 73128 74012 75412 76900 80120=
62120 30004 99564 10021 46998 ///// 10273 40116 52005 22200 80068=
62103 30004 99499 70029 46/99 /1508 10115 20100 40157 57010 22200
00119 10902 70009 555 05006 07146 10041 11051 12415 13419 14881
15574 17403 35088 36035 05005 07171 10053 11059 12414 13418 14888
15575 17403 35083 36036=
62301 30003 99523 70045 46/// /2003 1//// 2//// 40148 22200 00136
10501=
15561 17287 35074 36051 05004 07115 10034 11061 12404 13419 14783
15561 17292 35075 36063=
81100 22213 00160 20202 32700 40505 50000 80164=
81200 22229 0//// 20303 309// 40504 5//// 6//// 80258 ICE /////=
56038 32980 00000 10009 21026 36159 52003 333 00352 31042
70004=
55578 32980 20000 10038 20032 36411 52008 80002 333// 00051
30029 79999=
55773 32470 50000 10004 21002 36046 52004 82402 333// 00154
31011 70005=
55680 32880 30000 10016 20016 36272 52006 81102 333// 00053
31013 79999=
55655 32574 70000 10072 20048 36500 52003 875// 333// 00102=
55572 42980 00000 10037 20017 36291 52006 333// 00000 31003
70007=
55569 32780 30000 10057 20007 36269 52006 81102 333// 00051
30030 70002=
55664 32980 10000 10023 20009 36045 52008 80002 333// 05151
31002 70009=
51243 32980 13403 10198 20064 39559 40068 52013 80002 333
00102 79999=
51431 32980 70000 10138 20095 39335 40085 52002 80002 333
00154=
51765 32975 70704 10229 20041 39073 49986 52014 82032 333
05305=
51777 32975 70903 10192 21021 39009 49965 52008 82032 333
05602=
51642 32770 70000 10230 20002 49983 52012 86402 333 05208=
52101 11780 72003 10134 20032 38327 52006 69901 72580 85902
333 00004 79999=
51356 32670 71801 10185 20095 40075 52006 81962 333 00205=
54764 11975 82207 10202 20107 40070 52001 69901 70060 8807/
333// 05500 79999=
48300 32560 20000 10254 20242 39757 40060 82505
333 20241 59018=
48327 32660 33603 10244 20231 39702 40056 81546
333 20236 59017=
48331 31565 80000 10253 20235 39830 40059 70392 86776
333 20243 59015 70271=
48356 01460 82204 10269 20232 39874 40068 60034 79521 84976
333 20255 59006 60035 70030 =
48407 01460 82002 10245 20236 39926 40067 60024 76196 82377
333 20235 59008 60026 70017=
48456 12560 61602 10274 20263 30041 40058 69904 81836
333 20270 59019 79999=
48480 31558 40000 10269 20256 30058 40062 71011 82201
333 20261 59016=
48565 01560 72502 10265 20243 30071 40082 60184 70262 82366
333 20251 59003 69947 70179=
48569 32460 60000 10254 20241 30038 40078 82836
333 20239 59009=
48583 11558 60000 10248 20236 30065 40071 60044 71022 82206
333 20235 59009 70041=
56434 11580 70000 10107 20095 37696 52009 69951 70060 86802
333// 00153 70065=
56227 31/04 91401 10051 20049 37358 52014 74740 333 00254
30041 70082=
56317 42478 70402 10085 20067 37168 52010 874// 333 00352
70118=
55696 32580 73401 10050 20027 36388 52005 8784/ 333 00251
30027 70014=
55598 32780 10000 10061 20024 36647 52010 81142 333 00100
30035 70033=
55690 32680 70000 10027 20023 36029 52011 8144/ 333 00251
31021 70009=
55681 42680 60000 10026 21009 35955 52004 86400 333 00102
30002 79999=
56307 42580 70000 10068 20053 36894 52012 87502 333 00252
70001=
55228 32780 22501 10027 21073 36058 52007 82140 333 05202=
55248 32780 50000 11025 21125 35949 54000 81102 333 05301=
55437 32780 50000 10070 20013 36368 52004 83802 333 05204
30026=
51811 32962 40000 10173 20043 38701 40019 52002 82032 333//
00103=
51828 11950 62702 10201 20059 38564 40001 52003 69901 70660
80002 333// 00100 79999=
51644 32670 73604 10229 20029 38835 49986 52009 85962 333
05208=
51379 32780 71804 10149 20089 40089 52006 81402 333 00104=
51495 32780 73414 10240 20006 40100 52011 81542 333 05105
91121 91536=
51730 32675 70000 10173 20129 49998 52014 86962 333 00001=
52118 32980 72507 10144 21019 38226 52008 83032 333 00004=
51330 32980 12702 10106 20039 40104 52005 80002 333 00251
70004=
51633 11680 83409 10205 20031 40024 52019 69901 78000 889//
333 00108 79999=
51720 32580 10000 10151 20069 49997 52005 81902 333 05152
79999=
51567 32780 70000 10183 20071 40024 52013 82902 333 05104=
64552 32960 0//// 10222 20219 39453 40092
333 0//00 59009=
91577 12581 71808 10261 20213 40122 58008 69924 8483/
333 20211 59003 81826 83656=
91579 36/// /0806 10271 20197 40127 58008
333 20156=
91582 32575 21004 10261 20195 40129 58010 81102
333 20136 56200 59002 81830=
91583 32575 70204 10262 20214 40130 58005 878//
333 20208 59002 83823 87650=
91590 32580 62706 10269 20210 40124 58012 84831
333 20193 56000 59001 82830 84650=
91592 11575 61208 10252 20207 40126 58011 69904 70362 82831
333 20212 56366 58000 81823 83361=
91753 32482 11510 10285 20213 40097 58017 81100
333 20250 59001 81818=
91754 32582 11708 10281 20191 40108 58014 81800
333 20246 58000 81820=
91811 31598 72710 10293 2024/ 40081 70310 8687/ 333 20260 5669/=
91843 11498 32722 10258 20207 40024 58010 69951 70118 83800 333 566//
8
2
8
2
5
=
61970 36/// /1814 10246 20188 30143 40155
333 59001=
61976 11465 51912 10245 20231 40136 60021 7008/ 85800
333 59011 82813 84650 924/7=
61980 32465 41804 10195 20175 40168 84800
333 58005 81816 83650 924/7=
67005 36/// /2212 10253 20218 40137
333 59004=
61996 32584 52616 10136 20113 40171 83830
333 58075 81823 83650 92449=
61998 32680 83410 10014 21004 39985 40021 56024 875//
333 58010 87633=
71073 16/// /3411 11003 21003 39755 40178 53002 60051 333 11000 21019
70061=
71443 36/// /3007 10165 20009 39714 40117 53003 333 10173 20074
70000=
64387 32660 50000 10180 20160 38513 48507 81530
333 59003 81633 84360 1019=
78947 31568 71011 10274 20239 30129 40132 70622 86208 333 02209 10303
20260 59002 70026 86820 86277=
78948 31560 80715 10275 20241 30125 40133 70522 8384/ 333 02249 10299
20257 58000 70015 83823 88459=
91944 36/// /0220 10277 20235 30090 40096 56019 333 20254 59009=
91945 16/// /3416 10283 20225 30071 40076 56016 60024 333 20237
59019 555 1//21=
80022 31465 62702 10284 20235 30087 40089 71522 82301
333 10324 561/0 58005 82915 85070=
80094 31464 60000 10204 20192 38804 70522 84830
333 10247 5600/ 58001 84815 83360=
80097 31568 73602 10276 20226 39737 40083 71722 81905
333 10318 562/9 57911 58007 81920 83823 84070=
80112 31465 80000 10166 20143 37889 70522 8487/
333 20219 5600/ 59008 84815 87358=
80222 41565 72803 10127 20116 37511 71565 84875
333 10186 56669 58000 84620 86357=
80259 80259 11457 82202 10222 20194 39032 60064 71596 8457/
333 10280 5686/ 58004 84612 88458=
80315 31564 50000 10269 20206 39565 40051 70521 81470
333 10324 5609/ 59019 81633 84358=
80398 32970 10000 10258 20247 39984 40079 81030
333 10315 56/1/ 59007 81359=
85972 32497 40520 10038 20024 40321 52020 84500
333 10050 56100 84614=
65338 33960 50000 10250 20236 39925 40112 80002
333 59001 85076=
71051 46/// /0509 11089 21089 30216 40329 53004 333 11089 21161=
82863 32995 00000 10248 20234 39892 40103 333 10347 59003=
83064 32998 00000 10258 20197 39832 40100 333 10347 59003=
83228 32997 00000 10246 20211 39832 40114 333 10341 59007=
83235 32998 00000 10248 20168 39430 40091 333 10339 59005=
83332 32997 00000 10234 20144 39203 40103 333 10301 58003=
83368 32996 00000 10241 20186 39748 40114 333 10322 58000=
83374 32995 03204 10227 20177 39540 40109 333 10317 58000=
83376 31597 20502 10186 20160 39268 40085 70541 82100 333 10297
58006=
83377 31697 30000 10200 20137 38866 40119 70540 83400 333 10262
58007=
83423 326// 30000 10237 20176 39299 40116 83200 333 10303 58005=
83470 32996 00000 10209 20147 333 10292=
83522 32997 00000 10195 20170 39271 333 10285 58001=
20107 55/// 555 30008=
20046=
59012 6990/ 85618 87360=
57962 57951 58003 82620 82925=
58021 6030/=
58001 81620 83075=
44203 32999 00000 10077 20011 38342 40081 52018 333 20006=
44213 32699 72705 10143 20097 38687 40043 52015 87500 333
20131=
44215 32998 22709 10121 20030 38337 40055 52006 82040 333
20100=
44225 32998 30000 10052 20025 38215 40127 53006 80001 333
20013=
44230 32998 00201 10085 20045 38716 40110 52004 333 20034=
44237 32999 02301 10062 20053 38419 40094 52006 333 20009=
44256 32999 20502 10120 20043 39226 40039 53004 80002 333
20041=
44265 32999 20000 10156 20074 38770 40072 53013 80002 333
20136=
44275 ///// /55/8=
44302 32599 70507 10134 21022 38967 40002 52005 86810 333
20100=
44313 32999 71406 10167 20000 39223 49993 57003 85074 333
20093=
44336 32999 63203 10118 20058 38610 40064 52021 86030 333
20077=
23074 31498 83105 10003 20000 30097 40121 52004 886// 333
20001 42013 88710=
23804 42999 10000 10060 20049 30040 40187 52011 80001=
24125 32499 80501 10003 21010 39857 40130 52001 885// 333
21009 41001 55060 86617=
24343 32999 60602 10115 21017 39973 40084 57002 83031 333
20021 55187=
24738 32999 73602 10101 20043 39876 40046 57002 81035 333
20033 55129=
24951 11999 60902 10107 20102 39910 40052 57005 69902 70262
86030 333 20090=
24959 32999 81402 10146 20078 39941 40061 57006 80003 333
20098 55055=
24966 32999 80000 10149 20050 39880 40082 58002 80001 333
20047 55107=
29313 12998 30901 10118 20112 29829 49943 54000 60022 81059
333 20099 55012 333 12012 32009 53008 7020/=
29612 32598 71607 10136 20106 39785 49925 57005 87300 333
20135 55048=
29698 32697 81101 10111 20080 39589 40071 52007 83942 333
20098 55121=
30758 32999 62101 10084 20006 39279 40058 52004 80001 333
20020 55158=
30949 32699 73101 10125 20055 39015 40035 53007 83850 333
20068 55///=
32027 11597 83610 10043 20043 39909 49917 52027 60130 78082
889// 333 20023 91015 91118=
35406 42997 00201 10122 20068 40177 52007=
38062 42999 21802 10167 20032 80001=
38232 42998 03605 10197 20056 30006 40096 54000=
38388 42998 00000 10180 21082 30019 40090 53010=
38507 42996 00000 10161 20138 30006 40105 57002=
38545 42998 38302 10181 20125 39900 40066 58005 83070=
38656 42998 00502 10258 20094 39965 40066 57003=
38687 42996 00202 10169 20127 39839 40063 57006=
38880 429// 73103 10254 20109 39731 40084 57004 87030=
38895 42997 03201 10232 20105 3//// 4//// 5////=
38927 32997 01202 10173 20076 39692 40051 53002 333 00013=
38974 429// 23203 10223 20038 39746 40059 53007 80002=
23711 42998 33402 10036 20007 30028 40201 52009 80001=
98135 31475 61403 10292 20260 40107 53015 70544 84205 222//
20301 333 20268 56399 59005 84819 83076=
98329 11465 51402 10285 20244 40098 5/012 69944 70544 82262
333 20247 56999 58004 70004 82818 84075=
98653 31470 60000 10270 20243 40105 52016 70544 82270 333
20253 56999 58020 70006 82818 84358=
20069 32474 70903 11059 21078 30228 40241 54000 875// 333
21097 44037 55087 87618=
20087 32475 70305 11065 21073 30215 40226 53006 875// 333
21066 44037 55025 87615=
20292 11480 70707 11027 21034 30170 14018 9 57003 69902 70272
875// 333 21027 42/// 55000 87613=
20667 42497 80305 11035 21053 30229 40238 52008 885// 333   91108=
20674 11256 83610 11018 21029 30092 40151 52014 69942 77373
8872/ 333 21013 42030 55000 86706 91114=
20744 42998 51103 11030 21064 30216 40234 53002 85030 333   91106=
20891 32597 50405 10022 21038 30077 40118 57004 82531 333
20006 41/// 55194=
23022 41396 80701 11044 21053 30182 40244 58003 78582 889//
333   85908 91104=
23032 42565 83005 11026 21036 30199 40232 52004 885// 333   88625
91107=
29328 32998 51402 10120 20103 39839 49969 54000 83031   333 20100
55016=
29348 12997 22002 10141 00124 39862 49997 52003 60012 82030   333
20126=
29405 31696 80901 10116 20108 39776 49912 57012 71011 8633/
333 20097 55033=
29937 11597 82202 10146 20120 39818 40022 57005 69992 70281 884//
333 20110 88626=
48325 11220 80000 10245 20233 39822 40063 60124 71022 886//
333 20235 59014 70122=
48352 12560 80000 10254 20238 39871 40069 60064 8457/
333 20248 59003 70060=
48357 32561 80000 10265 20233 39908 40076 84546
333 20261 59005=
48403 32560 80000 10271 20248 39858 40067 83546
333 20246 59010=
48405 11560 80000 10280 20263 39898 40059 60024 70392 82237
333 20271 59011 70023=
48425 32960 70000 10284 20256 30043 40053 80006
333 20265 59015=
48426 32560 60000 10274 20254 30037 40050 82546
333 20264 59019=
48430 12560 50000 10276 20261 30043 40051 69904 82546
333 20262 59021 79999=
48450 12560 80000 10264 20244 30024 40057 60074 82547
333 20260 59010 70069=
48459 32962 21201 10282 20258 30052 40055 80006
333 20277 59017=
48550 32562 62703 10275 20236 30058 40063 81906
333 20265 59022=
48551 12560 50000 10240 20233 30066 40074 60044 81906
333 20235 59019 70042=
48568 12460 62201 10262 20242 30072 40079 60024 82806
333 20257 59009=
96035 12560 70000 10239 20232 30054 40086 52009 60054 84536
333 20237 50770 55036 56000 59006 84620=
96163 01562 30000 10240 20237 30091 40098 51001 60204 70262 83531
333 20238 56000 59003 60137 83627=
96509 12560 60000 10250 20244 30077 40084 55001 60234 81131
333 20238 50180 55049 56000 59004 81820 83363=
96607 12458 80000 10256 20238 30094 40109 52014 69984 8652/
333 20244 50450 55056 56609 59002 86615 88458=
96739 11520 60000 10234 20232 30038 40087 52008 60694 71021 82532
333 20226 50/// 55091 56000 59002 82630=
22113 41583 81901 10109 20086 30028 40089 58007 70282 889//
333 91003=
22271 42580 61105 10023 20013 30149 40159 57004 82530=
22820 41567 31601 10147 20140 39971 40103 54000 70298 82301=
22887 41959 29901 10054 20042 30114 40184 52003 71000 80001=
26781 42997 01403 10156 20111 39831 40110 58003=
27037 42998 11402 10144 20114 39999 40154 52005 80001=
34560 42962 00905 10174 20098 39992 40151 55000=
34691 42998 00502 10150 20078 30158 40146 5/019=
34866 42998 01202 10172 20105 40135 58001=
34880 42997 00503 10194 20105 40129 58002=
37472 42984 02701 10138 20130 30137 40115 58006=
59017=
48353 11458 80000 10240 20230 39778 40067 60114 71022 85676
333 20234 59004 70109=
48375 31458 80000 10251 20237 39827 40052 71022 84627 333
20248 59012=
48378 32560 60000 10265 20239 30002 40054 82205 333 20255
59010=
48381 31558 81002 10259 20239 39843 40065 71791 8697/ 333
20254 59008=
48431 31958 60000 10270 20245 39852 40064 71010 80006 333
20263 59010=
48432 31950 80000 10277 20260 39900 40067 71011 86946 333
20271 59009=
48455 32564 61201 10292 20255 30050 40055 83846 333 20283
59020=
48500 32561 60000 10265 20239 30058 40064 81106 333 20257
59007=
24266 32699 72002 10116 20043 39945 40110 54000 87500 333
20039 55013=
24382 32698 83102 10057 20009 39906 40146 54000 885// 333
20037 55050 85637=
24507 32998 30000 10059 21020 39909 40136 52004 80001 333
21007=
24688 32699 60303 10148 20021 39222 40061 58003 85201 333
20012 30102 55150=
24817 11599 70202 10123 20027 39711 40053 57002 69982 70282
85931 333 10155=
24908 32982 00501 10079 21007 39802 40115 52011 333 21018
55096=
24944 32699 80000 10121 20062 39751 40022 57014 81547 333
20045 55099=
29594 11599 81103 10085 20059 39711 40077 50001 69912 72522
8497/ 333 20076 55089=
29634 12757 81806 10150 20117 39782 49987 57003 60012 84531
333 20135 84650=
29676 32698 70000 10110 20094 39646 40044 52004 87800 333
20090=
30054 11498 83306 10079 20077 39786 40013 53009 60052 78002
8697/ 333 20058 55074=
30393 11599 81905 10080 20032 39078 40064 52004 60012 70284
84931 333 20040=
30433 11599 51903 10076 20046 39500 40066 52028 60062 70282
84901 333 20035 55031=
30469 32699 80000 10073 20009 39283 49996 58040 8557/ 333
20012 55116=
30521 11598 82902 10085 20059 39581 40085 52025 60022 78082
889// 333 20085 55118 88923=
30554 32698 80000 10052 20022 38975 40014 57020 86931 333
21004=
30612 32999 23202 10130 20086 39558 40054 52017 80001 333
20101 55135=
30635 32899 62401 10075 20032 39504 40047 53013 84032 333
21006=
30692 32699 20000 10114 20047 39713 40080 52002 81101 333
21002 44095=
30802 32999 10000 10066 20035 38613 48408 53001 80001 333
21009 55090=
30879 32999 00000 10122 20048 39357 40070 52018 333 20010
55148=
30925 32999 63602 10137 20046 39135 40034 53010 80006 333
20060 55073=
35700 42998 00504 10162 20102 30149 40123 52009=
35925 426// 22502 10166 20081 39994 40099 53006 82500=
36034 11598 81607 10161 20111 39755 40009 57006 69902 70282
889// 333 20152 85932=
36061 12699 81102 10105 20090 39690 40076 54000 60062 86489
333 20094 55069=
38001 42997 00000 10210 20177 30144 40116 58013=
38392 42997 01503 10202 20061 39983 40080 57002=
38750 42997 00902 10177 20148 30148 40121 58006=
58968 31550 50702 10284 20244 30095 40102 50005 71022 83231=
58974 31540 62506 10259 20251 39991 40108 52010 71022 81501=
59358 31658 20101 10280 20259 30090 40101 50005 71000 82500=
59559 32575 31107 10304 20246 30076 40103 50008 82101=
59792 32563 50907 10293 20273 30088 40094 52012 85200=
59997 12565 62005 10286 20258 30038 40051 52005 60132 82221=
59158 32960 22401 10284 20229 30004 40101 50005 80001=
59562 32580 21902 10299 20234 30096 40107 51010 81140=
59567 32270 42008 10268 20248 39747 40114 50008 84200=
96109 31450 70000 10240 20230 30034 40075 52009 70521 81572
333 20223 50730 55072 56000 59015 81613 83361=
96237 11558 51802 10260 20245 30038 40080 52007 60064 70521 82131
333 20236 55027 56000 57802 59008 82820 80858=
16641 32960 00000 10204 20170 30118 40123 54000 333 90730 91105 555
40000 47622 44235 50000 50184=
42410 21495 80000 10234 20231 40063 76062 8433/ 333 58043
6003/ 83615 81918 86358=
42492 31396 70506 10252 20234 40022 70522 85630 333 56190
58023 83708 85615 86360=
42634 32496 32303 10284 20247 40041 82601 333 58008 82710=
42754 22996 02907 10260 20207 39429 40051 333 58009 6990/=
42934 22596 42301 10250 20223 40056 81530 333 58017 6006/
81630 84360=
42971 31496 82005 10290 20276 40026 70522 86601 333 56590
59002 84712 84618=
43198 32496 72703 10216 20207 39262 40085 84631 333 56699
58014 82710 83615 85358=
43201 32496 42703 10224 20209 39364 40081 83602 333 56609
58011 82618=
43213 32996 62702 10276 20213 39755 40063 83036 333 58008=
43329 32596 50000 10280 20243 30045 40058 82236 333 57822
58003=
43353 32496 40000 10264 20244 40094 81501 333 56709 58002
81618 84075=
43369 21596 62702 10276 20250 40087 70262 83470 333 59002
6998/ 82620 85458=
58006=
83264 328// 20000 10236 20222 39680 40195 81038 333 10336
59007=
83309 319// 03605 10234 20226 39791 40114 71040 333 10341
59007=
83358 329// 00000 10238 20205 39699 40099 333 10322 59008=
83361 32595 20000 10262 20218 39926 40130 82030 333 10336
59012=
83405 319// 01403 10248 20221 39967 40101 71044 333 10330
58001=
89022 42998 51006 11260 21277 39980 40021 53023 80002
333 11231 21293 85060=
83766 32997 00000 10152 20077 39496 40163 58003 333 10///=
83767 31996 40000 10152 20077 39531 40169 53010 70540 80001
333 10240=
83783 32997 01801 10108 20071 39463 40156 53011 333 10222=
83811 32997 01402 10094 20063 39237 40142 53001 333 10194=
83813 32997 00000 10084 20084 39044 40145 51009 333 10220=
83836 32997 00501 10061 20044 39151 40142 51008 333 10200=
83840 31957 51003 10067 20045 39129 40150 51010 71011
80001 333 10212=
83844 32597 10000 10132 20116 30152 40159 51005 81100 333 10228=
83872 31996 00000 10093 20084 30095 40180 53010 71000 333 10224=
83881 31996 00902 10106 20090 39840 40152 51009 71000 333 10198=
83883 32597 70000 10124 20091 39356 40141 52011 87500 333 10204=
83887 32997 00510 10100 20014 39076 40141 51003 333 10202=
83899 32870 20000 10112 20100 30165 40165 51009 82050
333 10202=
83907 32997 80903 10153 20054 39832 40122 54000 8807/ 333 10205=
83912 32997 01402 10124 20062 39590 40149 52010 333 10184=
83914 32997 00000 10098 20012 39366 40168 53008 333 10188=
83919 32997 03601 10061 20023 38958 40163 58004 333 10170=
83927 32597 80902 10160 20127 30046 40129 52013 88500 333 10192=
83936 31996 00503 10108 20097 39998 40125 50000 71040 333 10182=
83948 32997 02704 10128 20079 30116 40154 51003 333 10197=
83953 32597 40502 10116 20095 39761 40146 51003 84200 333 10169=
83964 32597 51802 10104 20083 39652 40160 52002 85200 333 10166=
83980 32997 00502 10112 20035 39855 40146 50000 333 10189=
83995 32497 83202 10126 20105 30150 40154 54000 886// 333 10166=
83997 32997 12302 10115 20098 30110 40154 51001 80001 333 10164=
83612 32570 40904 10208 20145 39489 40104 51014 84500
333 10295=
83716 32970 01206 10166 20081 39608 40114 50001 333
10265=
83722 32970 00000 10172 20073 39445 40141 53012 333
10228=
83780 31959 00804 10138 20100 39254 40151 51010
70500 333 10204=
83827 32970 61103 10164 20124 39852 40136 51007 86031
333 10228=
83550 325// 4//// 10206 20185 30118 40148 70112 82204 333
10235 58044=
83695 326// 80000 10200 20154 30044 40184 5//// 885// 333
10240=
83698 32/// 00000 10194 20159 30148 40162 50218 333 10274=
83718 325// 80000 10128 20115 3//// 4//// 5//// 70222 88800
333 10236=
83738 32/// 03604 10160 20118 39648 40159 52008 333 10220=
83248 32470 31106 10261 20240 40140 83200 333 10288 58018=
83349 32570 71710 10256 20238 40143 83204 333 10286
58027=
82287 21795 10905 10234 20226 30049 40075 71350 81030 333 10316
59006 69911=
82392 32596 13601 10244 20225 39991 40094 81030 333 10311 59004=
82398 32470 60905 10282 20240 40113 84530 333 10324
58003=
82400 21470 31004 10250 20234 40129 70161 83100 333 10290 58006
69911=
82480 21595 80505 10246 20230 39908 40090 75866 88900 333 10334
59004 60031=
82493 32593 605// 10266 20243 30090 40104 84870 333 10321 59006=
82579 31570 63602 10278 20240 40092 71311 82230 333 10334 59012=
82583 32596 63603 10265 20204 39773 40110 86800 333 10329 58000=
82586 21594 80000 10244 20234 39867 40106 70362 887// 333 10315
58000 60031=
82599 21470 71709 10238 40137 76062 85234 333 20304 58011 60201=
82678 329// 00000 10250 20240 39944 40102 333 10333 59002=
82683 32594 30504 10270 20194 39660 40110 83100 333 10332 59006=
82686 32593 60502 10272 20215 39860 40104 86200 333 10330 59008=
82689 326// 50902 10252 20202 39833 40096 85030 333 10346 59003=
82693 32694 80509 10280 20218 39858 40111 8357/ 333 10345 59001=
82780 32996 01401 10250 20205 39851 40104 333 10353 58000=
82784 32595 61401 10226 20198 39655 40122 86200 333 10323 59002=
82789 32994 90000 10230 20148 39007 40116 333 10288 59003=
82791 32594 61407 10300 20164 39811 40092 86200 333 10349 58001=
82798 32596 30905 10280 20231 30130 40151 83400 333 10300 59007=
82879 32992 01404 10246 20197 39838 40103 333 10348 58001=
82882 32993 01804 10280 20208 39674 40088 333 10360 59001=
82886 32694 51407 10271 20160 39713 40092 82205 333 10343 58002=
82893 32693 81409 10208 20205 39222 40121 885// 333 10277 58003=
82899 32570 51506 10276 20228 40134 85100 333 10300 58007=
82900 32595 61405 10276 20219 30114 40123 86200 333 10294 59003=
82975 32594 51807 10260 20192 39725 40118 81232 333 10327 58002=
82976 32594 03201 10226 20179 39520 40101 333 10328 58002=
82983 32995 00906 10278 20170 39695 40109 333 10334 58000=
82993 32570 10904 10230 20228 40133 81100 333 10290
58008=
82098 32/96 80000 10256 20253 30083 40100 8587/ 333 10288
29091 55006 59004=
82141 21997 00903 10262 20237 30089 40101 70096 80000 333
10305 29085 55045 59002 60021=
82145 21595 40000 10242 20235 30057 40099 76262 83200 333
10321 29093 55052 59011 60031=
82178 32/97 60000 10260 20250 30042 40085 8471/ 333 10284
29088 55/// 58008=
82181 21497 80510 10250 20215 70265 888// 333 10310 29061
55041 60021=
82184 22698 40000 10266 20256 30088 40106 84200 333 10296
29092 55021 58016 69931=
82191 21596 73603 10256 20240 30087 40093 75122 85930 333
10319 29084 55057 58003 69911=
82193 60705 10260 20255 40083 81104 333 10320 59013=
82198 32795 30905 10262 20237 30033 40084 83060 333 10318
29085 55057 59002=
82246 32597 81402 10254 20249 39930 40128 887// 333 10301
29096 55017 58008=
82263 32598 43602 10258 20251 83201 333 10310 29090 55038=
82280 21498 2//// 10244 20234 30040 40098 70196 81230 333
10314 29087 55064 59007 60021=
82281 21470 70000 10260 20240 40104 70262 84230 333
10310 59006 69921=
82353 32999 0//// 10265 20230 80000 333 10324 29086 55079=
82361 32/96 62302 10260 20251 30063 40100 86700 333 10325
29089 55058 59001=
82445 31597 20000 10268 20261 30064 40116 71321 81401 333
10334 29092 55032 59002=
82460 32597 63203 10279 20246 30056 40086 83520 333 10///
29077 55070 59008=
82562 32998 00000 10274 20231 30015 40126 333 10317 29075
55024 58032=
82564 32097 00000 10277 20230 80000 333 10348 29103 55064=
82571 31797 12302 10252 20245 39910 40109 713// 81040 333
10313 29089 55054 59008=
82861 32999 00504 10277 20238 39900 40077 333 10350 29075
55101 58005=
82022 32570 60000 10282 20233 40096 81101 333 10320
59003=
82824 32470 11504 10274 20245 40084 81500 333 10334
59002=
82917 32970 00000 10244 20213 40085 333 10308 59012=
65306 32960 51804 10277 20231 39754 40077 80002
333 59020 85076=
65319 33960 5//// 10260 20224 39525 40090 80002
333 59011 85076=
65330 32960 51404 10270 20227 39703 40094 80002
333 59006 85076=
65335 33960 5//// 10249 20229 39876 40099 80002
333 59012 85076=
65344 32460 61806 10282 20211 30091 40101 82502
333 58010 82613 85076=
78988 32482 41012 10285 20248 30098 40107 52015 82201 333 10345 20266 59004 8281
78982 32482 60816 10281 20246 30093 40098 52016 83201 333 10329 20266 59005 8381
78990 32480 60916 10280 20236 30104 40111 52016 83231 333 10321 20264 59004 8381
81225 11470 70000 10253 20243 40106 69901 72992 86933
333 10303 56199 59001 82810 81915 84625 85080=
81202 32470 30106 10254 20237 40103 82832
333 10278 56229 59002 82812 83075=
81251 11470 30000 10236 20233 40108 69911 71381 81903
333 10296 56209 59009 81915 83080=
83552 326// 23606 10257 20212 39927 40103 82030 333 10307 59024=
83565 32994 00000 10200 20112 39651 40128 333 10278 59004=
83623 32996 00000 10186 20056 39544 40130 53016 333 10272=
83630 32997 00000 10148 20064 39034 40148 52017 333 10234=
83676 32994 01802 10190 20109 39514 40152 52006 333 10266=
83704 32997 00904 10190 20065 39607 40018 56003 333 10283=
83773 319// 80000 10194 20051 39156 40052 53011 7//22 8001/ 333
10205=
83821 32993 00000 10122 20116 30162 40167 51007 70000 80000 333
10212=
71826 36/// /2505 10014 21007 30177 40206 57008 333 10035 21006
70000=
91772 31499 41804 10276 20179 40115 70200 84800 333 20193 564//=
91784 31599 11809 10256 20166 40106 70200 81100 333 20221 564//
81820=
91785 31598 41312 10255 2022/ 70122 842// 333 20228 563//=
91786 31598 61809 10248 2017/ 40103 70222 864// 92030 333 20220
564//=
91792 31599 52010 10249 20167 40121 58010 70300 85100 333 20201
564// 85820=
31168 32699 70502 10135 20029 30039 40049 52001 87500 33320   033
55000=
40100 31558 10503 10225 20132 40091 58016 70344 81500 900//
333 81626 92427=
40103 32960 01602 10179 20170 40097 57019=
40706 32960 11003 10178 20073 38620 40060 58001 81030 92345 333
81359=
40732 32960 00000 10174 20158 30113 40093 56008 92345 333=
40745 32960 02302 10196 20076 38978 40036 55004 92350 333=
40754 32960 03002 10210 20128 38754 40011 56002 92355 333=
40766 32960 00000 10136 21000 38650 40047 55000 92350 333=
40800 32960 00000 10196 21040 38395 40000 53002 92350 333=
40811 32960 03005 10274 20080 39984 40010 58006 92350 333=
40841 32960 01903 10206 21044 38204 49976 52009 92350 333=
40848 32960 03005 10206 21013 38464 49982 56004 92350 333=
40875 31950 20102 10286 20270 39983 49995 54000 71000
82500 92350 333 82630=
33177 41566 83301 10129 20114 39901 40132 52009 70282 889//=
33325 42597 81804 10186 20151 39842 40102 58003 8653/ 333
86622=
33246 42964 31501 10172 20150 39967 40115 58004 83030=
33983 42997 00000 10180 20142 30048 40106 57008=
40356 32960 02908 10210 21010 39140 48488 80006 333 58006 82070 555 04410
50057=
41024 32960 00000 10250 20210 30002 40021 333 59017=
33135 41997 61803 10188 20139 39937 40107 53002 70282 82031=
38149 32998 00902 10190 20103 30017 40089 52002   555 10018=
40250 32970 00000 10196 20060 39321 40068 54002=
40265 32960 00000 10166 20115 39341 40100 57006=
40296 32960 00000 10282 20156 40120 54002=
40270 32960 00000 10198 20057 39231 40085 57007=
40272 32960 00000 10134 20070 39286 40086 57011=
40340 32960 03405 10250 20138 40069 57007=
40703 32560 50000 10154 20108 38877 40065 54000 85300 92348 333
82930 83635=
40712 32960 00000 10146 20062 38651 40051 56002 92350 333=
40729 32960 00000 10100 20054 38316 40065 54000 92345 333=
40736 32960 00000 10198 20179 30129 40102 56001 92345 333=
40743 32962 00603 10232 20066 38981 40040 54000 92350 333=
40762 32960 00000 10180 20027 38502 40007 58006 92350 333=
40768 32960 01502 10118 21007 38230 40039 56002 92350 333=
40769 32960 00000 10168 21062 38256 40014 54000 92350 333=
40785 32962 00000 10202 20066 38973 40006 51011 92350 333=
40809 32965 30605 10222 20034 38447 49958 56007 80002 92350
333 83070=
40821 32960 00000 10222 21012 38708 49978 52002 92350 333=
40831 32960 03205 10282 20094 30014 40022 57009 91750 333=
48303 32565 60000 10245 20232 39625 40066 82506
333 20235 59001=
48328 12560 50000 10253 20241 39780 40055 69984 81506
333 20245 59012 70008=
48330 31540 70000 10258 20242 39875 40059 71022 85536
333 20254 59010=
48354 01456 80000 10240 20228 39858 40061 60154 79191 84777
333 20222 58002 60157 70150=
48376 32562 80000 10265 20239 39918 40062 83536
333 20256 59007=
48379 31550 60000 10261 20249 39915 40047 71022 82506
333 20256 59011=
48400 12960 70000 10262 20255 30015 40055 60024 81046
333 20257 59011 70016=
48462 31958 82503 10270 20258 30011 40067 71010 80006
333 20265 59015=
48475 32562 60000 10263 20232 30047 40058 81536
333 20252 59018=
48567 01453 80000 10251 20247 30062 40079 60184 72162 85877
333 20237 59006 69917 70179=
12215 36/// /1802 10056 20042 39954 40133 52007 69911=
10022=
23966 11597 80203 10090 20076 39900 40019 53001 69952 78082 889//
333 20090 55000=
28255 42399 83602 10106 20077 39944 40067 52017 85301   333 85710=
28722 42997 03403 10127 20067 30003 40128 53005=
38462 42699 70000 10102 20059 38725 48475 57004 87900   555 10009=
28867 41497 82702 10117 20082 39718 49969 57023 78082 883//   555
11011=
29802 41497 82003 10106 20090 39805 49939 57004 76162 8872/   555
11010=
35067 42998 8//// 10095 20085 39741 40002 57004 8802/   555 11010=
35376 42998 32503 10074 20035 39612 40028 58004 82031   555 10005=
35426 42999 03002 10080 20056 39833 40115 52004   555 10008=
35497 41/93 90000 10085 20070 39284 40043 53001 74741   555 11005=
35532 42998 00000 10084 20045 39632 40107 52005   555 10004=
36208 42699 71101 10115 20082 39137 40058 57008 82241   555 12009=
36397 42999 21616 10138 20105 39519 40044 53001 80001   555 10013=
36535 42999 20000 10073 20053 39477 40082 58005 80001   555 10005=
36821 42598 30000 10168 20070 40055 54000 82982 555 91105=
38196 42998 00000 10140 20002 40078 56005=
38328 42999 21303 10190 20046 40066 57013 82030=
38334 42599 10903 10176 20019 39178 40080 57009 81500   555 10012=
38439 42597 21406 10216 20132 39762 40067 57003 82900   555 10019=
38403 429// 00000 10234 20067 39968 40082 57003   555 10019=
28978 42398 82705 10080 20071 39523 49991 57002 886//   555 11007=
35173 42996 22302 10059 20047 39648 40013 57001 82960   555 12005=
30781 31699 20000 10070 20029 39638 40086 52009 70340 81081   333
21020=
31478 12584 72601 10065 20004 38995 40030 52020 69900 84501   333
20009=
23909 42998 82802 10049 20037 39939 40183 52007 80001=
28116 42997 23102 10060 20029 39940 40167 52002 80002=
28419 42998 03403 10115 20062 30021 40144 52005=
28621 42980 00000 10115 20064 39916 40139 53007=
29430 12998 21701 10143 20117 39826 49989 52002 69962 82030   333
20128 55075=
29524 32484 71403 10131 20112 39793 49943 57008 87900   333 20116=
29605 11598 72203 10120 20109 39774 49906 57001 60052 70298 86530
333 20117 55045=
29631 32597 51503 10148 20121 39805 49976 57002 83930
333 20115=
29706 11497 82007 10109 20109 39794 49930 53002 60012 78182 883//
333 20109=
29736 32998 81101 10120 20109 39784 40019 53002 83031
333 20103=
28216 42999 23202 10090 20043 39891 40165 52008 80001=
28321 42984 20204 10104 20046 39953 40149 52008 80002=
28451 41598 53207 10123 20092 39901 40051 52011 70282 85500=
28537 42982 13601 10112 20048 39712 40113 52008 81040=
28541 41984 33602 10104 20088 39611 40080 52009 70281 82031=
28642 41997 83408 10124 20119 40059 51013 70182 8805/=
28925 42599 10303 10127 20093 39912 40127 52003 81400=
29557 32698 72103 10152 20109 39781 40027 52007 85550   333 20122
55016 85647=
29625 32598 31906 10141 20109 39804 49968 57001 83500
333 20120=
29642 32997 31405 10124 20105 39719 40025 51003 82031   333 20119=
29813 32999 22005 10129 20124 39774 49943 53002 82030
333 20128=
29822 32597 81802 10160 20139 39833 49983 53004 885//   333 20103
55104 88626=
29846 32597 61804 10125 20113 39682 40043 53002 8/531   333 20113=
29915 32999 22005 10134 20099 39831 49979 58001 81032   333 20131=
36020 69912   333 20144=
17330 32970 03402 10200 20185 40089 57009=
26898 42965 01401 10158 20081 39877 40131 52003=
27703 42984 01402 10117 20068 39905 40145 53002=
27707 42980 01601 10168 20086 39852 40131 58005=
27719 42997 00501 10132 20097 39913 40154 53003=
27786 42997 02803 10062 20041 30038 40198 52006=
27906 42997 21203 10167 20107 39911 40141 53001 82030=
27928 42967 00000 10143 20115 39957 40156 53006=
27983 42972 02801 10096 20061 30057 40182 52006=
28711 42997 22703 10101 20055 39802 40166 52001 80001=
28807 42997 00000 10081 20063 30129 40179 53005=
34047 42962 00601 10153 20111 39986 40160 52003=
34123 42980 01201 10158 20099 39978 40154 54000=
34152 42995 01103 10168 20098 39975 40161 53005=
34186 42981 10202 10108 20051 30045 40179 52006 80001=
34336 42998 00303 10174 20100 30050 40149 54000=
35121 42998 12803 10105 20050 39993 40135 52002 81030=
22217 41998 82101 10095 20085 30045 40074 57008 70282 8805/   333
91003=
22235 41571 71002 10102 20081 39919 40108 58013 78082 87900   333
91004=
22349 42999 70503 10105 20076 30111 40122 57020 86031   333 91004=
22408 41480 70000 10134 20102 39922 40065 58003 70282 875//   333
87615=
22602 41474 81402 10153 20146 39841 40154 55010 70298 889//=
22721 42499 80000 10131 20120 30010 40107 53004 8695/   333 85714=
22802 41558 71103 10138 20130 30052 40074 58032 71098 82931=
26059 41497 83101 10109 20095 30044 40067 58005 78098 889//   333
85710=
26094 41982 01603 10192 20151 30025 40096 58002 70291=
26258 41565 83403 10135 20122 30021 40074 52006 71792 889//   333
88929=
26585 42997 01802 10159 20084 39851 40111 58008=
27402 41997 01001 10150 20139 39960 40132 54000 71100=
22028 42982 71706 10095 20062 30059 40095 58004 87040   333 91008
91110=
22106 41597 80601 10104 20080 39996 40072 58017 72582 889//   333
84630 91002=
22127 41598 70801 10098 20073 39908 40103 58010 70282 85530   333
85620 91001=
22324 41499 81306 10123 20104 30027 40074 57031 78082 889//   333
91009 91110=
22621 42998 82103 10178 20128 39968 40099 53003 8805/=
22831 42998 60000 10171 20139 30056 40113 54000 83031=
22892 41496 81902 10145 20139 30057 40072 53017 78098 883//   333
91111=
26275 42997 01403 10193 20125 30048 40077 58001=
26389 42997 01401 10169 20113 39849 40099 57006=
26695 42997 01601 10153 20081 39837 40131 58005=
26882 42918 51202 10159 20117 39856 40120 57004 85030=
21432 32998 21405 10017 21034 30228 40238 57002 80001 333
21052 42998 55168=
21647 32371 71206 11047 21052 30214 40253 57001 87600 333
21071 44029 87708=
21824 11469 80705 10006 20000 30129 40138 52010 69932 76062
885// 333 20006 41998 55111 88611=
21921 32999 80000 10070 20027 40110 58004 8355/ 333 20034
41/// 55195=
21946 32499 61205 11020 21070 30161 40239 54000 86500 333
21040 42001 55133 86614=
21982 42482 80906 11001 21012 30182 40188 54000 885//   333 88613
91109=
25123 32998 53503 10039 21070 30141 40177 58012 85030 333
21030 55124=
25173 41998 61406 10002 21042 30147 40151 53007 70282 81031   333
91108=
25248 32699 73402 10020 21023 39727 40160 57009 85501   333 21060
55000=
25399 41463 81913 10002 21009 30190 40194 52011 70282 87501   333
87617 91116=
25551 42999 20201 10063 21044 30121 40151 57008 82100=
25563 42499 72606 10014 21045 30083 40160 53004 88900=
25594 41226 82005 10009 20004 30183 40205 52006 77772 886//   333
91108=
31054 32999 50000 10129 20051 40087 58006 80008   333 20005 55114=
31123 32699 82001 10105 20059 39788 40091 58001 83507   333 20041=
57608 11740 80000 10183 20175 40111 52010 60031 71060 885//
333 00000 70056=
31754 11497 83605 10052 20027 39538 40018 52030 60060 70282 889//
333 20004=
48601 11462 70000 10246 20234 30090 40094 60034 72196 83958 333
20244 50310 59007 81710 81917 83625 85364=
48620 11368 70000 10254 20248 30087 40096 69934 76062 84946 333
20241 50580 59006 81708 81917 83633 86276=
48647 31465 70000 10260 20240 30065 40090 70522 81242 333 20250
50540 59006 81818 87078=
48657 31030 70000 10253 20253 30063 40081 71022 81141 333 20250
50540 59013 81700 86078=
48665 31478 70000 10252 20238 30075 40085 70392 81942 333 20245
50660 59008 81917 83364 85080=
96413 11058 71003 10238 20230 30063 40089 60124 71022 81641 333
20226 50430 59010 81700 86080=
96421 12280 71404 10247 20235 30057 40093 69904 84963 333 20233
50410 55094 59009 81705 81915 86080=
96441 31458 71107 10268 20233 30089 40094 70592 81941 333 20235
50480 55090 59008 81915 86080 81810=
96449 32480 51307 10276 20232 30064 40084 81241 333 20241 50470
59010 81814 85080=
25621 32699 12903 10081 21047 39293 40090 57008 81100   333 21027
55122=
25703 32799 70204 10087 21014 39864 40118 57001 84530   333 20052
55094=
25913 32699 40906 10156 21005 39897 40034 57010 81101   333 20056
55119=
25954 /2599 81501 10040 20012 30135 40139 57002 69900 8697/   333
20007 45100=
32215 11318 81703 10026 20023 49979 51014 60180 75365 886//   333
20026 41998=
32389 11496 80906 10037 20030 30018 40054 57003 60030 78088 889//
333 20016 55017 85714 91113=
32583 11497 83504 10040 20033 39960 49990 53010 60210 78082 889//
333 20019 91112=
32618 11497 81504 10030 20022 30034 40057 57018 60020 78082 889//
333 20020 41998 55000=
40373 32960 00000 10265 21020 39638 40029 333 59005=
40420 32960 03303 10288 20030 39827 40021 333 58010=
41036 32960 02808 10266 21010 38516 48462 333 59006 555 04410
59984=
48310 31556 70000 10240 20231 39609 40057 71022 83536
333 20231 58000=
48329 32960 30000 10260 20246 39725 40010 80006
333 20248 59009=
48380 12560 80000 10246 20245 39967 40062 60634 83877
333 20240 59009 70625=
48383 11550 80000 10259 20245 39911 40069 60084 79562 8597/
333 20248 59005 70076=
48501 01560 30705 10270 20256 30061 40069 60024 72162 82231
333 20258 59011 60026 70020=
48564 01450 80000 10257 20243 30071 40076 60054 76162 84276
333 20256 59013 60036 70053=
48570 01450 80000 10248 20239 30079 40086 60234 76062 84877
333 20226 59003 60236 70231 =
65528 11460 8//// 10218 20206 39652 40120 60231 79596 889//
333 58002 88913 85379=
65536 31960 00000 10237 20219 39675 40099 70191
333 59018=
65548 32960 00000 10235 20228 39735 40114
333 59006=
65557 32460 20000 10230 20223 39882 40120 82500
333 58004 82613=
65562 11456 8//// 10220 20213 60161 79596 8597/
333 85913 88460 95339=
65578 32560 42402 10273 20253 30100 40109 82502
333 58001 82813 84076=
65599 32460 5//// 10265 20236 30021 40104 81202
333 59003 81813 85076=
62306 32960 02912 10217 20166 40087 56002=
62318 32560 21404 10227 20139 40071 57014
82800=
62337 32960 00000 10181 20147 40092 56010=
62366 32960 00904 10264 20105 40082 57006=
62393 32960 00805 10272 20096 40067 57015=
62405 32960 00901 10280 20097 40049 58001=
62414 32960 03502 10300 20082 40061 58003=
62417 32960 02909 10258 20156 40099 58010=
62440 32960 00805 10248 20108 40085 57021=
62463 32960 00107 10278 20057 40060 58008=
62465 32960 03404 10285 20172 40058 58010=
26313 42997 81703 10079 20061 30081 40087 54000 88030=
48820 11597 83602 10256 20248 30066 40074 52009 60122 72198
888// 333 01026 20243 3/024 59004 84895 88697=
48826 32597 71602 10276 20269 39939 40067 53012 872// 333
00029 20264 3/027 59002 87895=
48839 32998 71805 10279 20265 30006 40070 53010 80008 222//
2//01 333 00/// 20271 59008 87299=
48845 32998 70000 10274 20260 30058 40065 52012 80008 333
00030 20269 3/026 59006 87299=
48848 32570 70000 10284 20257 30058 40066 52013 81908 333
00031 20266 3/027 59010 81995 87299=
48855 32970 72001 10270 20241 30062 40070 53004 80008 333
00030 20254 3/026 59010 87299=
48870 32498 70000 10279 20259 30058 40065 53016 878// 333
00029 20272 3/027 59020 82894 86696=
48877 32598 79901 10260 20234 30063 40068 52012 879// 333
00027 20249 3/025 59020 82995 87697=
48887 12770 73402 10273 20231 30069 40075 53013 69912 82558
333 00029 20247 3/024 59009 82697 87299=
48900 11696 40701 10268 20252 30066 40076 52012 60031 71061
83501 333 20239 59010 83696 83099=
48914 11598 70000 10277 20263 30078 40080 52016 60072 72582
81948 333 02028 00028 20268 3/025 59014 81895 81995 87299=
48917 32598 62303 10292 20261 30060 40065 52005 83208 222//
00301 2//01 333 00/// 20283 3//// 59014 83895 84299=
48918 32470 72902 10288 20254 30068 40079 52012 82908 222//
00281 2//00 333 00029 20274 3/027 59010 81894 82995 87299=
48920 11598 82006 10273 20246 30041 40041 53010 60012 70382
8592/ 222// 00290 20302 333 20252 59014 82895 83995 88499=
48803 11460 80000 10254 20247 39952 40063 53006 60032 76196
888// 333 01027 20251 3/025 59004 86894 88696=
48808 32470 71604 10243 20225 39794 40072 52011 878// 333
01025 20235 3/024 59005 82894 87696=
48823 31497 71602 10281 20267 30060 40063 42009 70292 83808
333 00029 20271 3/026 59001 81894 86299=
48830 71803 10256 20230 39780 40079 52016 69902 70362 8433/
333 00028 20249 3/025 58002 83895 81995 86399=
48840 31497 70000 10271 20264 30068 40074 52011 878// 333
00030 20269 3/028 58006 83894 87697=
48852 32970 50000 10273 20235 30058 40068 53005 80008 333
01029 20245 3/025 59006 85299=
48916 32498 72501 10274 20253 30030 40080 53014 872// 333
00/// 20273 3//// 81894 87895=
48919 11497 82711 10253 20249 30068 40090 53020 60392 76182
888// 22200 2//05 333 20217 59010 84894 88696 91120 91527=
48838 11498 80000 10267 20258 30069 40075 52008 69972 72598
889// 333 01028 20267 3/026 59005 86894 88995=
48846 32798 70000 10271 20262 30063 40066 52014 875// 333
00028 20265 3/026 59003 87697=
48863 32698 70000 10274 20248 30057 40066 53003 82508 333
00033 20259 3/026 59017 82696 86299=
48866 31493 60000 10217 20217 39228 40102 52008 74241 82108
333 01024 20207 3/020 59011 82894 86299=
48875 32570 60000 10223 20215 39556 40090 53013 8253/ 333
00024 20214 3/024 59008 82696 84399=
48907 11598 73203 10272 20234 30075 40077 53011 60022 78098
879// 333 01/// 20268 3/// 59006 83895 84995=
80420 32960 80206 10267 20202 30079 40085 8387/ 333 10313
30/// 5629/ 59002 83813 85460 1009=
80425 32460 41901 10324 20248 30046 40077 84500 333 30324
30/// 56900 59005 84813 1008=
80427 32560 83102 10223 20214 39841 40095 8452/ 333 10206
30/// 5699/ 58012 84620 85456 1010=
80431 11960 80901 10230 20225 39600 40102 60101 70292 8162/
333 10296 32/// 5699/ 58011 81617 88956 1010=
80475 32458 80202 10228 20157 39745 40117 887// 333 10284
30/// 569// 58006 88713 1012=
80403 32465 51107 10285 20245 30092 40111 81506 333 10348
30/// 56909 59012 81616 84075 1011=
80407 32960 30503 10289 20219 30006 40078 838// 333 10321
30/// 56900 59003 83816 1007=
80410 32460 80704 10226 20209 39410 40090 8152/ 333 10278
30/// 5699/ 58007 81816 87456 1012=
80413 11460 30701 10243 20222 39700 40087 69951 70195 333
81520 333 10274 31/// 5699/ 58010 81613 1010=
80415 11460 60000 10279 20248 30052 40106 69991 72929 865//
333 10306 30/// 569// 59006 86616 1010=
80419 32360 63602 10263 20210 30069 40078 83505 333 10294
30/// 56909 58011 83610 83080  1007=
80421 32462 80705 10256 20210 30090 40112 8287/ 333 10298
30/// 5629/ 58005 82816 87458 1011=
80428 32560 80000 10255 20233 39899 40083 8357/ 333 10280
31/// 5699/ 58003 83620 86357 1011=
80435 11460 80402 10254 20216 30033 40109 69941 70252 8857/
333 10301 31/// 5629/ 58006 82617 88457 1011=
80438 11340 80701 10180 20165 38509 48506 60141 76329 889//
333 10260 32/// 569// 58009 81910 88613 1019=
80444 32360 60704 10275 20222 30039 40092 82508 333 10328
30/// 56909 59005 82610 84280 1008=
80447 31460 80000 10270 20202 39652 40069 71729 8592/ 333
10320 30/// 5699/ 5805 82917 83620 86459 1012=
80457 32460 30000 10261 20204 30022 40107 83500 333 10279
30/// 56900 59004 83610 1010=
55299 32980 00000 10015 21041 35910 52005 333 00100 31044=
56106 32980 00000 10013 21018 36271 54000 333 00253 31030
79999=
55472 32880 12202 11007 21046 35792 52006 81102 333 00052
31021=
55279 32980 00000 10002 21069 35761 57001 333 00000 31043=
56202 32480 60000 11001 21014 35927 52007 82402 333 00151
31036 70002=
55294 32780 10000 11007 21042 35781 52007 81400 333 00100=
51087 32980 50000 10133 20072 39176 40083 52010 81062 333
00003=
51156 32980 03603 10122 20032 38665 40076 52006 333 00103
30020 79999=
51711 32780 42503 10137 20007 39969 52007 86502 333 05101=
51068 32680 13201 10163 20102 40089 52010 81402 333 00104
79999=
51232 32980 13203 10206 20067 40092 52013 80002 333 00202
79999=
51855 32880 72201 10180 20008 49972 52033 86402 333 05301=
52313 32980 21110 10167 21093 38357 52004 80002 333 05203=
51053 32980 60000 10164 20100 40075 52010 81062 333 00201=
51186 32680 40000 10097 20056 40093 52013 84400 333 00101
30015=
51241 32980 11802 10152 20045 40082 52001 81032 333 00303
79999=
51346 32780 21602 10202 20080 40075 52006 81402 333 00304
79999=
56312 32480 80000 10087 20053 37121 52007 884// 333 00202
70082=
65545 31960 30000 10246 20229 39692 40106 70291 80002
333 59003 83076=
65560 32958 2//// 10250 20239 39803 40112 82030
333 58001 82360=
65585 11460 3//// 10260 20253 60011 70261 83500
333 83613=
65594 31460 51412 10260 20239 76111 85500
333 85613=
63894 32980 00000 10197 20185 30081 40147 92350
333 55300 58009=
37985 42996 01801 10156 20120 30118 40104 58003 555   10014=
91650 11599 61208 10289 2026/ 40102 58010 60051 72588 86800
333 20256 569// 85820=
91659 31599 41509 10261 2018/ 40114 58013 70300 84100
333 20226 563// 84825=
91670 36/// /0906 10278 20222 40115=
91680 31599 12405 10280 20188 40115 58012 70110 81100
333 20195 569// 81828=
91683 31599 40000 10264 20181 40129 58014 70111 84800
333 20180 569// 83825=
91691 36/// /1707 10258 20188 40121=
91697 36/// /2005 10265 20182 40128=
91699 36/// /1705 10263 20181 40132=
89050 11460 83304 11038 21050 40330 51008 69912 77072
885// 333   88610 93699=
89512 42980 81336 11056 21208 39902 40052 58006 8807/=
89606 32982 22403 11715 21761 36446 47487 52008 80008
333 21746=
82795 32597 60508 10223 20203 39508 40124 86200 333 10293 58003=
82376 32493 30504 10264 20237 30051 40103 83200 333 10338
29075 55101 59002=
82765 32998 00000 10261 20214 39878 40117 333 10338 29064
55082 58000=
71123 32874 13305 10143 21026 39327 40186 57008 81102 333
10151 20022 70022=
83649 32570 60000 10236 20195 40167 51015 83530 333 10250=
82979 326// 20000 10254 20195 39652 40111 82060 333 10330 58000=
82986 329// 01409 10256 20219 39815 40099 333 10344 58000=
83076 32593 51803 10247 20223 39599 40101 81130 333 10304 58005=
83090 329// 01404 10239 20209 39599 40114 333 10317 58009=
83096 326// 10903 10264 20227 30114 40121 81500 333 10288 58010=
83097 329// 0//// 10242 20228 30095 40118 333 10310 59005=
83179 329// 92304 10270 20188 39649 40095 333 10331 58004=
83182 32793 80907 10241 20166 39286 40116 81041 333 10314 58005=
83186 329// 01402 10237 20191 39543 40096 333 10300 58017=
83190 329// 00905 10226 20211 39720 40138 333 10291 58012=
83195 329// 005// 10229 20216 39884 40124 333 10293 58006=
83229 325// 10503 10250  20229 30078 40138 81100 333 10290 58016=
83236 328// 40000 10201 20180 39611 40107 84030 333 10331 58001=
83242 329// 00901 10230 20192 39623 40104 333 10302 58002=
83244 329// 00904  10260 20194 39822 40114 333 10341 58015=
83286 329// 0//// 10216 20159 39449 40104 333 10326 58008=
83288 329// 02302 10260 20148 39600 40110 333 10344 59001=
83339 324// 21403 10240 20138 39149 40120 82200 333 10299 58010=
83344 326// 20906 10203 20181 39132 40128 82090 333 10284 58026=
83398 325// 32302 10235 20224 30129 40134 82240 333 10288 58031=
83408 329// 02303 10242 20125 39588 40082 333 10326 58010=
82024 32897 30000 10280 20252 82042 333 10316=
82042 32397 60000 10275 20256 84430 333 10315=
82113 21396 83202 10240 20235 70357 887// 333 10286
333 69931=
82212 31697 81404 10274 20252 30015 40077 71322 889//
333 10324 59012=
82317 32397 40000 10270 20259 83303 333 10332=
82326 21393 83604 10252 20236 30078 40133 72161 887//
333 10325 58016 60061=
82331 21595 80000 10242 20225 30042 40124 76166 8672/
333 10323 58012 60021=
82336 21693 72302 10244 20241 70066 863// 333 10324
60011=
82410 32695 20502 10276 20260 82100 333 10322=
82425 21495 81804 10242 20235 30054 40110 75060 887//
333 10326 58010 60241=
82533 32099 00000 10290 20262 30044 40099 333 10344
59012=
82610 32097 00000 10268 20246 333 10340=
82704 32098 00000 10280 20231 39846 40039 333 10350
59005=
82723 32096 00000 10254 20236 333 10352=
82807 32096 00000 10274 20254 333 10338=
11155 21206 90092 92722 92843 95199=
10320 30/// 5699/ 5805 82917 83620 86459 1012=
61415 32360 43614 10190 20174 30120 40125 84600
333 0//00 59003 84706=
61442 31450 13006 10192 20189 30107 40111 71011 81600
333 0//00 58001 81713=
61450 33958 00804 10323 20046 39667 40102
333 0//00 58003=
61499 33958 00406 10330 20007 39846 40090
333 0//00 58011=
68174 36/// /2004 10054 20021 38810 48537 54000
333 10204 20046 91006 555 91021=
68262 32960 00000 10037 20016 38746 48553 57001
333 10208 20037 91001 555 91024=
68263 32970 02206 10067 21022 38519 48542 57003
333 10183 20058 91000 555 91023=
68368 32982 02605 10068 21063 38333 48536 57006
555 91023=
68372 36/// /0000 10006 21040 38485 48547 57007
333 10177 20005 91003 555 91024=
68424 36/// /0000 10026 21046 39243 48533 54000
333 10220 20026 91003 555 91021=
68438 36/// /3208 10031 21041 38855 48542 57004
333 10187 20008 91008 555 91022=
68442 32/// /0000 11022 21047 38691 48532 57005
555 91022=
68461 36/// /2104 10026 21012 38342 48534 57011
333 10152 20004 91005 555 91022=
68512 32982 00000 10084 20055 39055 48532 57001
333 10171 20084 91003 555 91021=
68588 32982 00000 10103 20078 30109 40126 57007
555 91012=
68618 16/// /2508 10063 20056 39080 48518 54000 69961
333 10160 20059 91009 555 20006 91020=
68668 36/// /2815 10145 21033 3//// 48/// 5////
333 10234 20090 91019 555=
68714 16/// /3410 10134 20131 30139 40176 52929 69961
333 10150 20134 91017 555 20006 91017=
68752 36/// /2810 10144 21070 39446 48488 57002
333 10221 20113 91013 555 91013=
68816 11340 73315 10156 20147 30095 40145 51003 60193 76166 87500
555 91014=
68828 32/// /2605 10163 20074 39889 40116 52002
555 91012=
68842 32980 62511 10150 20123 30041 40114 50003 86070
555 91011=
68858 320// /3109 10154 20046 39974 40121 50001 80005
555 91012=
93004 16/// /2307 10168 40118 52001 60184=
93023 16/// /2203 10181 20159 40112 57012 60434=
93196 36/// /0312 10151 20095 40181 57007=
93305 41598 83625 10165 20138 40098 51008 70266 885//=
93334 16/// /0208 10105 20076 39168 57013 69964=
93404 16998 /1007 10144 20096 40109 57015 60034=
93498 36/// /0219 10123 20104 40117 57009=
93527 16/// /3608 10151 20130 40097 57002 60174=
93597 36/// /3624 10126 20108 40089 57003=
93615 16/// /0613 10116 20109 40060 52005 60534=
93678 369// /0426 10125 20104 40043 52028=
93709 16/// /3214 10130 20100 40015 52005 60234=
93831 16698 /3404 10088 20068 49992 57008 60034=
93896 11698 83610 10109 20087 49979 58006 60024 70522 8357/
333 83630 88356=
93947 16/// /3605 10102 20083 49986 57021 60034=
93994 36/// /1009 10199 20107 40150 57007=
63612 31980 21607 10281 20166 40079 70200 80001
333 58007 82080=
63661 32980 20704 10135 20126 48530 80001
333 59005 82078=
63714 31582 10000 10146 20125 48506 70300 81500
333 59005 81620=
63740 31370 60000 10160 20147 48513 70352 865//
333 58006 83709 86619=
61627 32958 02806 10255 20202 30072 40095
333  0//00 59005=
61630 32960 00000 10328 20185 30068 40087
333  0//00 58002=
61679
333
61687
333
61695
333=
63723 32982 01805 10235 20193 40130
333 58009=
63766 32580 31404 10180 20168 48520 83500
333 58006 83616=
40030 32970 00000 10194 20081 40072 57007=
40039 32970 02505 10217 20097 40059 58005=
40066 32970 00000 10204 20121 40089 58018=
40072 32970 02703 10244 20042 40072 54000=
40083 32970 02801 10142 20053 48470 58008=
83721 31960 01310 10142 20061 39401 40158
51010 70500 333 10246=
83334 325// 21802 10200 20148 3//// 4//// 82100 333 10319 5////=
83383 329// 00000 10220 20176 3//// 4//// 333 10325 5////=
83384 329// 01802 10232 20174 39543 40125 333 10323 58007=
83386 32998 12303 10212 20153 39584 40138 80004 333 10331 58011=
83388 329// 00000 10244 20166 39425 40094 333 10331 58010=
83393 325// 71406 10218 20197 39420 40141 84630 333 10295 58025=
83437 32997 02702 10220 20144 39397 40117 333 10316 58009=
83442 329// 00000 10222 20184 39790 40137 333 10338 59038=
83479 329// 00000 10224 20173 39336 40130 333 10311 58002=
83483 32996 01802 10220 20184 39536 40125 333 10306 58006=
83488 325// 71406 10187 20174 39123 40133 87200 333 10262 58020=
83492 32/// 90504 10206 20182 39771 40159 333 10230 58044=
83514 32997 01802 10206 20101 39443 40137 333 10292 59004=
83531 329// 00000 10188 20134 39076 40125 333 10277 58006=
83538 329// 01402 10177 20149 38741 40159 333 10250 58011=
83543 32597 80903 10230 20187 30003 40177 88500 333 10266 58064=
83574 326// 21802 10168 20100 39511 40135 59012 82020 333 10294=
83577 329// 00504 10136 20091 39284 40149 333 10264 58004=
83579 325// 21803 10182 20117 39004 40134 82100 333 10261 58008=
83582 329// 00000 10124 20110 39372 40150 52019 333 10276=
83587 32996 00901 10193 20160 39128 40137 333 10251 58012=
83592 325// 80904 10193 20173 39459 40149 885// 333 10/// 59025=
83595 325// 71802 10220 20172 30071 40172 85250 333 10255 58047=
83642 329// 03602 10154 20138 39363 40148 51014 333 10273=
83683 329// 00000 10115 20085 39156 40151 52018 333 10243=
83687 32996 00901 10138 20073 39125 40145 51006 333 10232=
83692 324// 80000 10144 20098 39115 40183 53008 887// 333 10198=
35849 42598 63403 10182 20087 39975 40055 57003 86900   555 10015=
35953 42999 63202 10162 20021 39941 40063 57008 85032   555 10012=
35969 42999 00000 10134 20023 39909 40073 58001   555 10010=
38069 42998 00000 10149 20093=
34824 41596 80902 10192 20151 30101 40106 57005 72998 86900=
34858 42961 00000 10164 20112 30019 40121 54000=
15502 11998 63202 10172 20158 40114 55001 60011 70182 86050 555 70063
86359=
15525 31997 71801 10173 20130 40125 51001 70392 87050=
15552 31998 00000 10158 20120 40111 58001 70200 555 92010 92418=
15614 11697 70000 10148 20128 39444 40124 52003 69921 70382 87900 555
70071 95031=
15615 31/91 93402 10011 20009 37136 47079 56007 74144 555 95110=
15625 31960 41303 10162 20100 40114 52006 70220 84050 555 95490=
15627 31/91 92704 10040 20036 37625 47078 58007 74144 555 95199=
15640 31998 00000 10158 20124 40119 54000 70200=
15655 31998 80000 10178 20157 40104 57006 70211 80004 222// 309//
4//01 555 92024 92428=
15712 11698 70000 10166 20158 40118 58006 60141 70198 86930 555 95000
=
15730 31998 00000 10172 20137 40108 58006 70200=
34240 42973 20801 10147 20099 30027 40159 52002 80001=
34357 42998 01001 10161 20094 30005 40158 52002=
34363 42998 10903 10168 20081 30027 40169 52006 80002=
34545 41998 00702 10164 20114 30035 40141 54000 70290=
34655 32997 01102 10150 20100 30095 40151 54000=
34759 42998 11401 10160 20113 30004 40130 58004 81050=
34838 41597 70702 10206 20144 30021 40111 57005 78082 86960   333
86923=
34929 41964 22302 10174 20155 30070 40110 52005 70181=
34954 42998 60000 10156 20127 39958 40124 58007 80001=
37085 42996 10000 10161 20143 30152 40117 57009 80001=
37145 42998 20901 10158 20136 39956 40117 58008 82030=
37171 42596 20902 10167 20159 40117 57005 82500=
37228 42597 71701 10146 20129 39312 40114 58012 87400=
26167 41650 20000 10112 20138 39962 40069 52001 71090 82500=
27857 42997 00000 10140 20106 30006 40163 54000=
28909 42999 03502 10082 20059 30068 40166 52005=
37061 42974 70000 10161 20119 39970 40131 53005 80004=
28049 42999 83208 10086 20055 39947 40105 52009 8807/=
28319 42999 20302 10120 20068 39991 40148 52006 80001=
28334 42999 20000 10096 20025 39831 40124 52013 80002=
28434 42999 03303 10113 20058 39874 40120 52010=
29111 11397 80303 10109 20102 39873 49955 57001 69962 76062 8672/
333 20109 86706=
29209 11994 81401 10108 20106 39815 49933 57003 60112 74241 8805/
333 20096=
29602 11599 61706 10120 20103 39777 49907 57010 60042 71798 86900
333 20119=
29636 32599 71502 10133 20100 39801 40004 53001 87300
333 20110=
29654 12397 81803 10107 20103 39457 40031 52003 60182 86971   333
20102 85709=
29712 32598 41808 10128 20099 39815 49948 53004 84900
333 20128=
29724 11999 72103 10140 20107 39784 49977 53003 69952 84052
333 20115=
29726 12598 71903 10154 20111 39833 49989 54000 60012 85379
333 20141=
29814 32999 21504 10116 20092 39825 49962 53001 82030
333 20111=
29827 32697 81805 10165 20115 39842 49990 57003 883//   333 20152=
29923 11598 81803 10144 20117 39754 40010 57005 69952 78081 889//
333 20142 55076=
29939 11597 80000 10140 20102 39779 40047 53005 69942 78082 8635/
333 20127=
36021 32999 62904 10154 20098 39826 49994 57002 86080   333 20151=
36022 36022 11998 81803 10140 20122 39757 40000 58016 69962 70282
84085   333 20138=
36038 32598 71704 10158 20081 39613 40021 57016 83502   333 20139
55047=
36058 32699 71102 10108 20081 39598 40091 53002 86902   333 20091
55049=
29068 11597 80904 10089 20056 40061 53004 60032 78082 883//   333
20085=
29274 11562 80706 10090 20068 40073 53004 60012 78082 889//   333
20074 91112=
29363 11498 81003 10100 20095 40039 53004 60042 72162 8872/   333
20090=
29456 32999 60000 10129 20104 40028 52010 80001   333 20124=
29467 11698 81802 10137 20104 40034 52009 69902 70281 86505   333
20132=
29477 12999 61303 10128 20100 40046 52005 60012 80001   333 20114=
29576 11597 80502 10102 20102 40055 53010 60052 72582 86907   333
20095=
29587 32598 70502 10119 20095 40048 53004 86940   333 20086=
29894 32798 83402 10072 20038 39010 40062 52003 82507   333 20022
55104=
30157 11598 80602 10072 20059 39743 40012 52011 60062 70282 87903
333 20063 87930=
30320 12598 63102 10067 20046 39720 40111 52017 69942 85901   333
20054 55012=
30713 32998 80503 10127 20025 39433 40040 52004 82031   333 20022=
37031 42997 30000 10160 20131 39931 40119 54000 83030=
24639 12999 80503 10129 20095 39919 40061 53002 69982 82031   333
20049 55106=
24652 32699 82601 10097 20065 39963 40078 57008 82331   333 20059=
24656 32999 81002 10130 20048 39981 40076 57009 82037   333 20034=
30102 55150=
24724 32999 13301 10114 20009 39571 40066 52004 81080   333 20053
41001 55151=
24768 32999 70000 10161 20082 39855 40073 58003 80006   333 20045=
24923 11698 80503 10092 20086 39742 40029 53005 69972 78082 8695/
333 20066 86936=
24962 32999 80601 10145 20077 39904 40077 52005 80007   333 20062
55077=
25400 32999 83505 10036 21017 30115 40168 55003 82031   333 20011
55000=
17092 32670 20902 10154 20060 38834 48487 58001 82100
333 82840 10075=
40718 32960 00000 10204 20111 30134 40103 56003 92350 333 =
40856 32960 00000 10198 20020 385(0 49979 53001 92350=
56793 32563 70000 10200 20182 38438 52018 878// 333 05102=
57606 11440 82702 10146 20143 40111 52012 60101 76098 885//
333 05101 70114=
57803 11558 80000 10145 20140 40108 52010 60101 71098 885//
333 00001 70179=
57806 11570 80401 10149 20136 40081 52022 60051 72186 885//
333 00001 70047=
57825 11457 81601 10179 20176 40092 52028 60061 79560 889//
333 05201 70064=
57906 32568 70000 10254 20231 40043 52013 878// 333 05204
70002=
24988 32999 10203 10182 20043 39817 40046 57003 80001   333 20045=
25325 32599 10405 10059 21046 39993 40149 57011 81200   333 20000
55175=
25378 41597 71705 10016 21035 30131 40164 54000 70272 83631=
31489 11597 83605 10063 20045 39924 40035 52027 60280 78088 889//
333 21002=
31959 32999 22605 10211 20023 39966 40005 51005 82040   333 20114
55132=
32509 11495 83608 10008 20005 39975 40009 57049 60200 78688 889//
333 21001 42001 55///=
26324 42997 81901 10106 20098 30092 40100 52003 8807/=
26961 42960 31201 10133 20109 39917 40101 52003 83030   555 10///=
50775 32970 02503 10171 20004 40049 52014 333 00851 30045=
38178 429// 02703 10187 20036 39792 40061 57003   555 10014=
32076 11960 83404 10030 20036 39987 49927 52015 60080 70282 889//
333 20074 41998=
42111 21996  20000  10218  20174  39262  40014  70296  82030
333  58011  6001/  82360 =
42131 32996 02301 10316 20168 49994 333 58005=
42182 31995 22903 10336 20166 49993 70600 80001 333 58004 82070=
42189  61403 10290 20244 49994 71322 83931 333 5794/ 58004 83630
81935 85360 86070=
42379 31496 80908 10258 20219 40026 70521 8662/ 333 56290 58023
83715 86620 88458=
38763 42997 02704 10223 20174 39992 40090 53002 555   10020=
38987 429// 01601 10181 20051 39362 40070 53006 555   10011=
38911 42998 00402 10219 20064 39769 40045 57005 555   10017=
38647 429// 03003 10203 20151 30056 40099 54000 555   10119=
38774 429// 00901 10222 20155 39933 40117 57006 555   10021=
38799 42997 20000 10189 20027 39640 40060 57005 80001 555
10018=
38806 42997 00000 10185 20115 39808 40056 56901 555   10053=
38886 4299/ 02402 10213 20183 39850 40066 57005 555   10015=
38915 42999 03001 10228 20117 39749 40052 57002 555   10021=
35217 42997 03602 10138 20080 30100 40139 52003   555 10012=
35302 429// 00502 10124 20088 30137 40157 54000   555 10011=
23274 32398 73404 10043 20004 30063 40101 53005 8673/   333 20042
41998 55133 85707=
23383 32999 60000 10002 21030 39781 40024 54000 82031   333 21020
41998 55176=
23472 32999 70902 10089 21005 30049 40095 53003 80001   333 20046
55167=
23678 32998 01202 10135 20002 30025 40080 53001   333 20101=
23884 32984 61302 10127 20036 30003 40072 52002 80001   333 20047
55164=
23891 32998 40000 10053 20015 39807 40127 52006 80001   333 20004
55170=
29263 11597 80903 10086 20068 39959 40055 53003 60052 78082 8695/
333 20086 55000=
29282 32598 80502 10068 20042 39951 40112 52014 86931   333 20023
55001=
29570 12598 70000 10115 20110 39719 40044 52004 60062 86940   333
20093=
29862 11598 82502 10128 20117 39761 40062 52003 60162 78198 8697/
333 20120 55123=
23973 32599 71403 10107 20034 30015 40074 58001 85550   333 20073=
29253 11499 81102 10100 20100 39852 40015 54000 60102 70262 8872/
333 20077=
29471 12599 71103 10114 20092 39836 40050 52004 60022 83534   333
20107=
29481 12599 70902 10084 20080 39844 40070 52005 60032 85330   333
20077=
29553 32872 72002 10130 20124 39699 40019 52009 82076   333 20120
55023=
29562 11598 81601 10124 20106 39676 40033 5//// 69932 70282 889//
333 20122 88923=
29581 11498 70701 10101 20090 39827 40070 52005 60042 70282 8595/
333 20101=
29653 32598 71802 10125 20107 39593 40044 52010 87300   333 20106=
29675 11860 80000 10092 20084 39502 40061 53015 69982 76162 8802/
333 20092=
29759 11599 82301 10100 20077 39088 40052 52003 60032 72582 84905
333 20095=
29766 11598 82701 10126 20111 39735 40067 52016 60052 78082 889//
333 20126 55126=
29864 11599 73203 10110 20106 39442 40083 57001 70287 86902   333
20086 95005=
29869 11697 70000 10122 20109 39724 40074 51005 60042 70298 87500
333 20115 95030=
29956 11699 71901 10105 20089 39553 40083 53003 60102 70282 86901
333 20095 55104 86937 95000=
30504 32498 80301 10089 20074 39461 40073 52006 883//   333 20083
55136 88914=
30622 32998 62901 10124 20093 39430 40027 52013 83530   333 20068=
30499 31684 21001 10094 20051 39469 40088 52005 70242
82100   333 20028=
31295 32999 71202 10110 20061 39655 40092 52013 82031 333 20050=
31439 11498 83510 10059 20027 39911 49953 52030 60100 70262 889//
333 20015 88917 91115=
31442 32599 20302 10107 20017 39734 40066 52008 81101  333 20005=
31445 32999 20104 10105 20032 39834 40073 52017 80001 333 20021=
31474 12599 80000 10086 20050 39584 40037 52018 60010 8277/   333
20020=
31534 32999 60000 10100 20041 39777 40051 52020 80001   333 20028=
31587 32998 13204 10111 20019 39930 40068 52021 81050  333 20044=
31632 32998 82401 10102 20051 40028 52040 8801/   333 20047=
31702 32699 29902 10114 20046 39736 40039 52019 82100   333 20011=
31725 32498 80902 10152 20061 39954 40016 52033 83502   333 20096=
31801 32598 83201 10092 20027 39808 40023 52034 885//   333 20073=
30455 11698 81101 10060 20046 38771 48354 53004 60032 72165 8651/
333 20016=
30542 32599 73202 10120 20017 39367 40015 57013 87900   333 20010
87932=
30549 32899 53206 10121 20009 38557 48361 57010 85030   333 21010=
30669 32999 20000 10069 20049 39233 40057 52003   333 20020=
30726 32999 22702 10080 20041 39512 40055 53009 81031   333 21004=
30731 32599 60000 10110 20030 39475 40042 53011 82931   333 20022=
30739 32999 30601 10096 20002 39279 40050 53003 80002   333 20029
10019 30003 50133 53007 7000/=
30745 32999 31903 10127 20027 38970 40037 54000 80001   333 20023
55157=
30764 32999 30000 10076 20006 39286 40040 58004 80001   333 21033=
30811 32999 00000 10113 20055 39226 40051 52005   333 20020 55102=
30822 32999 20000 10121 20030 39502 40045 57001 80002   333 20014
55140=
30824 32999 00902 10059 20019 39501 40063 53012   333 21016=
30829 32999 80000 10090 20023 39409 40059 53012 80001   333 20035=
30846 32999 30000 10104 20058 39204 40056 53007 80003   333 20031=
30859 32999 52402 10079 21012 39253 40059 52002 80001   333 20012=
30862 32999 22401 10083 21005 39350 40047 58003 80001   333 20025=
30957 32999 50000 10081 20038 39216 40063 53005 85040   333 20001=
30967 32999 80000 10137 20019 39303 40012 53007 80006   333 20070=
31825 32699 83105 10100 20011 39779 49975 52032 83107   333 20060=
31845 12699 22704 10160 20045 39963 40117 52012 69930 82100   333
20026=
31878 32999 12402 10177 20032 39925 40040 51006 80001   333 20082=
31915 32998 62501 10203 22098 39802 40045 52028 02031   333 20138=
31917 32999 82402 10194 20086 39919 40046 57020 81037   333 20108=
31921 32999 32102 10201 20082 39952 40043 53003 80001   333 20121=
31969 32998 82302 10212 20140 30009 40054 82033   333 20173=
31981 32999 62201 10181 20103 39817 40033 55001 80001   333 20101=
31987 32999 80302 10205 20050 39809 40047 50003 80006   333 20145=
32069 11498 83312 10040 20030 39975 49805 52031 60110 78082 889//
333 20025 91014 91128=
42415 22596 40000 10230 20221 40063 82530 333 58021 6009/ 82620
84360=
83708 85615 86360=
42798 31595 40000 10290 20247 40014 70500 83430 333 58014 82620
84360=
16405 32960 01805 10201 20135 30129 40169 56009=
24856 32598 81803 10109 20089 39928 40066 53002 82207   333 20078
55035=
30777 32998 33601 10092 20002 39444 40058 58003 80002   333 21004
55150=
30961 31996 21001 10086 20004 39312 40055 53003 70400 80008   333
20039=
30971 23502 10088 21009 39130 40056 58007 80001   333 21029=
30978 32999 42202 10093 20004 39448 40043 52006 80001   333 20060=
31513 32999 10501 10100 20019 39853 40065 52020 80001   333 20027=
31624 32999 60000 10144 20082 40019 52030 80001   333 20068=
31832 32599 22705 10176 20070 39934 40013 52009 81502   333 20065=
24982 32999 01703 10164 20019 39592 40051 58007   333 20048=
31913 32999 02902 10195 20123 39931 40033 54000   333 20077=
31939 32999 20000 10174 20055 39747 40047 51001 80002   333 20065=
32121 11498 82913 10060 20021 39891 49912 52034 69930 78082 8692/
333 20050 91019 91119=
32128 11598 73106 10076 20002 39877 49930 52033 69940 78082 87300
333 20066 91013 91114=
29756 11898 82103 10122 20088 40064 52003 60032 76162 8802/   333
20116 55083=
29962 11599 72302 10135 20085 40074 53006 60142 70282 87900   333
10109=
16429 31358 20000 10174 20173 30163 40174 58003 71011 82200 92345
333 55300 82808=
43110 21496 81402 10244 20235 40084 76196 8692/ 333 58017 6024/
81932 85710 87456=
98336 12480 63602 10264 20254 40105 53014 60234 81274
333 20232 56199 58001 70230 81815 84078
555 20130=
98431 11470 70000 10278 20254 40097 51019 69944 70584 83230
333 20248 56999 58010 70004 83818 87360
555 20004=
98536 11468 70000 10259 20244 40098 53015 60094 70584 82270
222// 2////
333 20243 56999 58007 70085 82818 87357
555 0//// 20039=
98550 11470 80000 10265 20253 401
40001 32970 00000 10173 20039 40066 51007=
40007 32970 02505 10211 20083 40058 58002=
40045 32970 03006 10244 20153 40084 55006=
40080 32965 02401 10180 20100 39403 40074 57008=
40095 32970 00000 10170 20096 39472 40075 58009=
48351 11556 80000 10266 20257 39983 40057 60014 71062 85536
333 20262 59008 70013=
48377 32562 60000 10265 20242 39893 40057 84536
333 20260 59010=
48477 32562 60303 10283 20269 30049 40062 81246
333 20254 59018=
48517 32560 60000 10255 20242 30061 40066 81106
333 20252 59020=
48532 11557 80000 10256 20244 30061 40070 60114 71022 8582/
333 20255 59018 70112=
48421 11550 70000 10250 20243 39954 40067 60064 71022 83536
333 20235 59014 70059=
48465 32561 60000 10268 20241 30053 40057 82506
333 20261 59015=
48552 32562 60000 10254 20245 30063 40070 83846
333 20235 59012=
48566 11562 83613 10280 20251 30074 40083 60014 70262 84877
333 20260 59019 70014=
48315 11558 60000 10250 20235 39800 40068 60304 72922 84976
333 20230 59012 70304=
48413 31957 70000 10278 20257 39973 40052 71022 83076
333 20273 59015=
48416 31558 80000 10284 20257 39918 40065 71020 84876
333 20272 59011=
48418 31557 80000 10255 20248 39997 40053 71022 8352/
333 20246 59012=
48460 32562 60000 10270 20256 30028 40059 83506
333 20265 59015=
48461 32560 60000 10285 20257 39992 40061 84576
333 20268 59010=
48478 31559 50000 10290 20262 30053 40058 71022 82545
333 20275 59017=
48561 11459 50000 10245 20239 30073 40077 60284 71062 84245
333 20235 59014 70277=
48580 11558 60000 10261 20242 30070 40077 60034 71022 81106
333 20252 59009 70033=
30493 11699 61301 10086 20045 39087 40074 52006 60022 70262 86502
333 20041 55051=
40310 32960 00000 10178 20040 38918 48486 58010=
40255 32960 00000 10200 20082 39412 40102 57009=
98646 11560 83401 10264 20248 40120 52014 60104 72562 82237
333 20251 56999 58012 70104 82820 84360 87275
555 20046=
98741 11470 50000 10250 20239 40096 52013 60064 70544 82230
333 20205 56999 58006 70060 82817 84358=
98747 11470 10000 10255 20236 40098 50017 60184 70544 81131
333 20230 56999 58014 70176 81818=
98753 11468 63602 10273 20248 40096 52014 60024 70544 83231
333 20242 56899 58008 70022 83816 83359=
16622 32665 30000 10206 20121 30111 40116 53004 81130 333 81835 83358
90730 91107 555 40000 47620 44270 50000 50158=
16682 32960 00000 10176 20166 30114 40131 54000 333 90730 91106 555
40000 47621 44240 50000 50170=
16716 32962 30000 10190 20164 30090 40107 58010 80002 333 90730 91105
555 40000 47604 44250 50000 50174=
16734 32560 42905 10202 20186 30061 40122 56005 84200 333 90730
91112 555 40000 47580 44225 50000 5012 70000 77/I/ 7/I//=
16743 32960 00000 10210 20118 39919 40115 58008 333 90730 91106 555
40000 47475 44230 50000 50158=
16749 32560 30000 10204 20182 30077 40090 57014 81150 333 81820
83358 90730 91102 555 40000 47593 44245 50000 50198=
16754 32965 01704 10178 20147 30062 40109 56005 333 90730 91105 555
40000 47584 44250 50000 50160=
43150 21596 63206 10294 20254 39961 40035 71322 83931 333 57943 59006
6026/ 82620 81925 83360=
43314 32596 30502 10264 20244 40091 81201 333 57862 58001=
30695 12999 11403 10118 20034 39770 40084 51006 69902 80001   333
20021=
29418 11498 80601 10122 20115 39771 49919 57015 60012 79198 889//
333 20103 55048 88910=
31263 32999 80000 10105 20040 39534 40077 51010 82047   333 20017=
87078 32970 30000 10178 20138 39955 40107 53019 83030 333 10229
20156=
87097 32970 80503 10153 20135 39822 40141 53007 8807/
333 10214 20086 88360=
87155 32960 71405 10162 20122 30066 40128 52012 87070 333 10204
20145 56070 87360=
87162 32970 30705 10156 20134 30040 40111 54004 83070 333 10207
20136 56060=
87166 32970 81409 10158 20118 30054 40128 52012 8807/ 333 10197 20137
56069 88360=
87178 31965 71402 10180 20098 39984 40132 52011 70422 87070 333
10220 20101 56060 87360=
87270 32965 60705 10142 20108 30064 40127 52007 86070 333 10194 20140
56060 86360=
87289 32970 80000 10154 20093 30059 40143 52016 8807/ 333 10182
20098 56049 88360=
87374 32965 80000 10150 20117 30046 40139 52015 8807/ 333 10182
20138 56060 88360 94130 94239=
87393 32970 70000 10150 20105 30072 40136 53001 87070 333 10184 20098
56070 87360=
87395 11560 80000 10139 20117 30104 20149  52015 69901 75022 8752/
333 10177 20114 56599 87620 82540=
87480 32965 60702 10149 20127 30112 40142 52017 86070 333 10186
20134 86360=
87497 32465 60000 10134 20119 30110 40135 51004 83670 333 10171
20114 56660 83715 85360=
87534 32960 00000 10129 20094 39981 40146 52016 333 10194 20090=
87548 11956 00000 10106 20098 30018 40115 52004 69901 71061 333 10150
20106=
87563 31565 23404 10126 20122 30070 40115 53001 71311 82303 333 10185
20102 56706 57955 82920=
87576 11860 73606 10143 20119 30098 40122 51004 69931 72162 82570
333 10187 20136 56660 82658 87360=
87582 11760 73204 10146 20128 30120 40127 58003 69901 76062 87020
333 10172 20128 56060 87550=
87593 32960 83406 10150 20130 30102 40130 50005 8807/ 333 10177
20112 56009 88360=
87623 32982 42306 10119 20047 39920 40149 52017 80003 333 10187
20085 56005 84070=
87645 31965 33204 10116 20101 39885 40095 51001
71300 83070 333 10168 20080 56060 83360=
87692 11450 82003 10128 20128 30081 40106 52013 60091 79698 8492/
333 10166 20098 56669 57900 84612 82940 88540=
87715 32970 02705 10090 20060 39853 40181 52021 333 10146 20063=
87750 32965 52010 10134 20107 30021 40120 52015 85070 333 10167
20117 56000 85360=
87765 32980 02710 10070 20035 39232 48512 52025 333 10116 20050=
89061 32/// /1002 11074 30315 40325 54000 92336 333 11061 21085=
89063 41/93 90000 11063 21070 30323 40338 51006 74744 92341 333
11052 21072=
89062 42/98 13102 11063 21073 30282 40325 52003 333 11051 21072=
61226 32960 00000 10346 20115 39779 40059
333 58005=
61230 32965 00000 10310 20064 39825 40084
333 58009=
61257 32970 00000 10330 20230 30072 40093
333 0//00 58040=
61265 32960 52008 10320 20091 3//// 4//// 80002
333 0//00 5//// 85075=
61272 31958 00000 10295 20234 39764 40079 70600
333 59014=
61277 32970 00000 10325 20208 39764 40072
333 0//00 59021=
61291 32960 32204 10296 20189 39671 40069 80002 980//
333 0//00 59015 83080=
61296 31670 71806 10272 20199 30713 40097 713// 82372
333 0//00 59010 82940 84465 94943 95833=
87016 32965 20000 10172 20162 39687 40098 52037 80005 333 10238
20174=
87022 32660 80000 10190 20170 39591 40100 52031 8657/ 333 10235
20165 86635=
87046 32565 72308 10176 20117 39102 48482 52033 83570
333 10218 20134 56330 83630 84357=
87047 32568 60000 10141 20111 38778 48491 52029 82530 333 10215
20103 56170 82625 84360=
87121 32665 23608 10154 20122 39614 40140 52030 82500 333 10232
20124 82640=
87129 32970 11403 10157 20111 39894 40125 52025 81070 333 10234
20130=
87217 32970 02705 10141 20096 39640 40144 52029
333 10235 20100=
87222 32770 70506 10132 20098 39601 40130 52028 85570
333 10218 20113 56680 85650 82390=
87257 32965 70000 10158 20137 30021 40126 52015 87070 333 10218 20114
56070=
87311 32965 72006 10142 20056 39482 40171 53028 87070
333 10190 20092 56000 87360=
87320 32665 20000 10167 20103 39610 40143 52028 82500 333 10217 20107
56900 82640=
87349 32470 21807 10146 20100 39762 40160 52031 82500 333 10215 20104
56500 82615=
87371 32562 70000 10152 20142 30120 40140 52016 82570
333 10203 20130 56650 82630 85360=
87416 32970 00000 10102 20050 39410 40154 52023 333 10185 20099=
87418 31960 02704 10114 20076 39368 40183 52023 70400 333 10182
20102=
87448 32970 02702 10088 20053 39596 40171 52016 333 10174 20088=
87453 32970 02503 10120 20076 39660 40149 52020 333
10182 20146=
87467 32970 02303 10122 20100 30000 40136 52016 333 10194 20235=
87506 32970 02712 10091 21048 38586 48506 51017 333 10150 21003
95090=
87509 32970 01408 10100 20033 39307 40178 52020 333 10186 20062=
87791 11980 31811 10110 20084 30122 40131 52015 69901 70162 82072
333 10163 20046 56000 82360=
87803 32580 22312 10042 21015 39166 40197 52024 82800
333 10093 20016 56600 82830=
87828 32480 81410 10100 20079 30130 40183 52025 8646/ 333 10135
21025 56339
86610 83360=
87852 11550 80000 10031 20024 39734 40259 52005 60091 765// 8452/
333 10050 20018 56999 84620 86550=
87860 11358 81412 10085 20075 30168 40224 52025 60101 75866 8562/
333 10104 20060 56349 82707 83712 88540=
87896 11365 81117 10058 20029 30164 40263 52039 69941 74154 886//
333 10087 20058 56399 88709=
87903 11465 80516 10038 20033 30014 40289 52012 60021 75054 8567/
333 10053 20028 56559 85715 83659 90087=
87909 11460 31411 10040 20030 30226 40305 52031 69941 75152 82620
333 10065 20040 56300 82718=
87925 11580 50703 10028 20018 30296 40320 52017 69901 70262 83570
333 10060 20020 56200 83620=
87938 32980 02703 10000 21014 30254 40327 52012 333 10032 20000=
70026 32266 81210 11056 21061 30252 40257 53003 92353 333 11050
21072 555 93000=
70133 12766 81609 10028 20000 30237 40243 50002 69901 92353 333
10033 20006 555 93000=
70200 32666 81407 10022 20011 30231 40240 55001 92353 333 10022
20006 555 93000=
70231 32766 49904 10139 21017 30089 40219 58007 92353 333 10150
20017 555 93000=
70261 32766 40000 10150 20017 30047 40218 58005 92353 333 10156
20033 555 93000=
70273 32866 62907 10161 20028 30158 40205 56001 92353 333 10161
20078 555 93000=
70308 11258 80614 10050 20033 30148 40157 58006 69951 710// 92353
333 10050 20033 555 93000=
70316 11356 81421 10072 20056 30132 40170 58004 60171 763// 92353
333 10072 20033 91029 96010 555 93000=
70326 32666 81809 10139 20028 30192 40212 56004 92352 333 10139
20011 555 93000=
70350 32766 81008 10117 20039 30195 40236 50003 92353 333 10122
20033 555 93000=
70361 32566 61808 10122 20083 30212 40230 53015 92353 333 10133
20067 555 93000=
70398 32566 22505 10122 20028 30212 40254 58001 92353 333 10122
20072 555 93000=
70341 32966 02514 10111 20044 30200 40228 51008 92353 333 10117
20022 555 93000=
70194 32866 61909 10130 20000 30059 90015 333 91016 555 93000=
72201 32566 23207 10283 20222 30114 40122 55000 92353 333 10300
20250 555 93000=
72202 32666 62508 10300 20217 30103 40109 53004 92356 333 10339
20239 555 93000=
72203 32766 62712 10317 20183 30094 40101 53001 92353 333 10356
20233 555 93000=
72205 32466 42915 10310 20190 30053 40089 55003 92353 333 10333
20228 91018 555 93000=
72206 32966 20805 10278 20156 30085 40094 53012 92356 333 10328
20244 555 93000=
72207 12966 60311 10261 20161 30090 40107 53011 69901 92353 333
10306 20211 555 93000=
72208 32966 00308 10233 20150 30102 40118 53019 92356 333 10294
20206 91018 555 93000=
72212 35/// /2810 10278 20172 30079 40095 53007 92353 333 10328
20250 555 93000=
72214 32966 03311 10322 20133 30071 40091 53003 92353 333 10350
20222 555 93000=
72217 32866 23405 10267 20133 39983 40110 53004 92353 333 10289
20167 555 93000=
72218 32966 40505 10250 20128 30061 40111 53012 92353 333 10294
20194 555 93000=
72219 32766 23209 10228 20139 39759 40125 53005 92353 333 10250
20161 555 93000=
72223 32966 03608 10300 20122 30041 40118 55002 92356 333 10322
20194 555 93000=
72226 32766 23609 10267 20139 30051 40122 53003 92353 333 10294
20167 555 93000=
72231 32966 02806 10322 20139 30100 40116 55010 92353 333 10344
20239 555 93000=
72234 32966 00110 10278 20144 30019 40127 55003 92353 333 10306
20144 555 93000=
72235 32966 03605 10289 20178 30011 40128 56007 92354 333 10311
20150 555 93000=
72240 32666 60000 10289 20233 30106 40127 55008 92353 333 10333
555 93000=
72243 32666 61311 10311 20250 30075 40114 56013 92353 333 10333
20222 555 93000=
72248 32966 01304 10300 20172 30031 40123 56012 92356 333 10322
20178 555 93000=
72250 32966 01213 10300 20228 30107 40114 56008 92356 333 10350
20250 555 93000=
72251 32966 01612 10294 20239 30095 40113 56010 92351 333 10317
555 93000=
72253 32766 41909 10322 20194 39825 40100 56016 92353 333 10333
555 93000=
72254 35966 01107 10317 20200 39890 40101 56014 92353 333 10339
555 93000=
72255 35966 01811 10306 20250 30076 40115 56011 92351 333 10333
555 93000=
72256 32966 01408 10322 20206 39930 40106 56016 92353 333 10333
20194 555 93000=
72259 32966 21708 10322 20194 39908 40106 56016 92353 333 10339
20206 555 93000=
72261 35866 21313 10350 20178 39725 40077 56019 92353 333 10367
20228 91019 555 93000=
72263 32966 41911 10344 20150 39430 40084 56020 92353 333 10361
20200 555 93000=
72265 32966 01710 10339 20106 39118 40073 56020 92353 333 10350
20206 555 93000=
72266 32966 01812 10344 20133 39477 40086 56019 92353 333 10350
20200 555 93000=
72267 32966 01714 10344 20083 38994 40067 56017 92353 333 10350
20194 555 93000=
72270 32966 21905 10367 20067 38765 40034 56023 92351 333 10372
20211 555 93000=
72274 32966 23214 10411 20011 39161 40025 56021 92355 333 10422
20239 91018 555 93000=
72278 32966 22611 10428 20061 39648 40019 56024 92356 333 10433
20267 91018 555 93000=
72280 32966 /2910 10433 20194 39952 40020 56025 92356 333 20270
555 93000=
72290 32466 41709 10189 20150 30107 40117 58015 92351 333 10194
20161 555 93000=
72295 31458 42510 10200 20178 30073 40110 56009 705// 92350 333
10228 20178 555 93000=
72304 37/58 /0219 10160 20150 30057 761// 90014 333 91030 96010
555 93000=
72308 11456 80426 10133 20111 30138 40145 51025 60281 761// 92351
333 10156 91032 96010 555 93000=
72310 32966 40409 10233 20128 30046 40126 53015 92356 333 10272
555 93000=
72311 32966 80907 10239 20139 39837 40121 53012 92353 333 10283
20167 555 93000=
72314 32666 60312 10178 20117 39877 40149 53018 92351 333 10239
20156 555 93000=
72317 32666 60510 10139 20094 39841 40164 51014 92354 333 10172
20139 555 93000=
72324 32666 20108 10211 20139 39902 40146 53005 92353 333 10233
20172 555 93000=
72326 32666 63105 10206 20150 39794 40144 53005 92353 333 10217
555 93000=
72327 32661 23503 10217 20133 39941 40149 55003 92353 333 10228
20156 555 93000=
72334 32966 00308 10278 20172 30031 40132 55006 92353 333 10294
20161 555 93000=
72340 32966 01605 10300 20200 30032 40126 55009 92353 333 10317
20167 555 93000=
72344 32966 02204 10317 20156 39950 40113 56013 92353 333 10333
20161 555 93000=
72351 32966 01615 10339 20139 39731 40086 56018 92353 333 10361
20183 555 93000=
72353 32966 01712 10322 20144 39640 40093 56015 92353 333 10339
20161 555 93000=
72356 32966 21910 10311 20178 39867 40103 56007 92353 333 10328
20200 555 93000=
72363 32966 02016 10344 20072 38870 40063 56015 92353 333 10361
20156 555 93000=
72365 32966 41810 10350 20028 38335 40031 56022 92356 333 10361
20194 555 93000=
72374 35966 02518 10356 21006 38471 56017 92356 555 93000=
72384 32966 03009 10328 20056 39913 40085 56026 92356 333 10328
20178 555 93000=
72386 32966 42220 10406 20067 39270 40004 56017 92356 333 10417
20294 555 93000=
72389 32966 23011 10328 20006 39978 40093 56022 92356 333 10328
20178 555 93000=
72394 32966 02920 10167 20083 30034 40122 56009 92351 333 10206
20094 91024 555 93000=
72401 12766 60506 10139 20089 30109 40174 53011 60011 92354 333
10144 20117 555 93000=
72403 32666 60505 10161 20106 30065 40181 53010 92351 333 10183
20117 555 93000=
72407 32566 60709 10130 20090 30168 90002 555 93000=
72408 32766 40709 10161 20078 30167 40187 53012 92354 333 10194
20128 555 93000=
72411 32666 80504 10144 20094 39755 40176 53011 92354 333 10161
555 93000=
72412 17448 81406 10117 20111 39286 40168 53009 60021 710// 92351
333 10189 20111 555 93000=
72414 32466 60000 10170 20160 39807 90011 555 93000=
72421 32566 61008 10178 20128 39844 40161 53003 92351 333 10194
20122 555 93000=
72428 31558 80000 10160 20130 39872 705// 90015 555 93000=
72429 32666 61407 10183 20128 39807 40166 53006 92352 333 10211
20100 555 93000=
72432 32966 00000 10233 20122 30007 40146 55001 92354 333 10244
20144 555 93000=
72434 32966 21214 10228 20167 39927 40126 58008 92353 333 10239
20150 555 93000=
72438 32966 41306 10211 20122 39863 40154 53004 92355 333 10228
20106 555 93000=
72440 32966 01908 10283 20144 39669 40114 56009 92354 333 10306
20150 555 93000=
72445 32966 21308 10278 20200 39787 40107 56011 92354 333 10289
20111 555 93000=
72446 32966 21911 10306 20217 39720 40076 56010 92353 333 10317
20150 555 93000=
72450 32966 21817 10328 20183 39602 40067 56015 92356 333 10350
20161 91022 555 93000=
72451 32966 01921 10333 20139 39165 40042 56017 92356 333 10367
20172 91030 555 93000=
72456 32966 01711 10322 20217 39762 40070 56008 92356 333 10339
20172 555 93000=
72458 35966 01812 10328 20183 39529 40039 56016 92355 333 10350
555 93000=
72464 32966 00000 10344 21017 38483 40019 55007 92354 333 10389
20128 555 93000=
72465 32966 02610 10372 20078 38780 49999 56024 92356 333 10394
20161 555 93000=
72476 32966 02016 10367 20039 38452 49987 56023 92356 333 10383
20167 91026 555 93000=
72486 35966 02321 10294 21039 38026 40019 56018 92353 333 10306
20061 91027 555 93000=
72492 32966 02616 10289 20039 30098 40106 56020 92356 333 10300
20122 555 93000=
72503 32766 41610 10150 20110 30182 90000 555 93000=
72508 32766 21206 10156 20078 30127 40200 53015 92351 333 10194
20111 555 93000=
72509 32666 60908 10106 20078 30219 40224 53015 92354 333 10139
20083 555 93000=
72515 32766 80705 10156 20072 39613 40194 51008 92356 333 10172
20089 555 93000=
72518 32866 82005 10167 20094 30089 40195 51011 92351 333 10194
20117 555 93000=
72519 32866 80606 10183 20089 30040 40185 51009 92354 333 10206
20072 555 93000=
72520 32966 41207 10172 20089 39734 40183 53003 8/008 92351 333
10189 20106 555 93000=
72524 32666 40307 10167 20111 39893 40175 56002 92351 333 10183
20094 555 93000=
72528 32766 20613 10183 20089 39916 40177 52006 8/200 92354 333
10217 20067 555 93000=
72530 32966 60807 10189 20094 39904 40150 55008 92356 333 10194
20067 555 93000=
72532 32966 01508 10200 20139 39891 40134 56013 92354 333 10217
20122 91015 555 93000=
72533 32966 01305 10189 20128 39866 40165 53002 92354 333 10211
20089 555 93000=
72537 32666 61708 10172 20111 39931 40173 53004 92354 333 10211
20089 555 93000=
72546 32966 21311 10250 20178 39741 40084 57013 92354 333 10250
20111 555 93000=
72547 32962 01311 10180 20140 39743 90002 555 93000=
72552 32966 01710 10339 20244 39383 40022 56024 92356 333 10356
20161 555 93000=
72556 35966 01209 10306 20189 39494 40032 56024 92354 333 10322
20144 555 93000=
72557 32966 01410 10300 20172 39662 40051 58021 92355 333 10300
20133 555 93000=
72562 32966 01109 10300 20167 39062 40002 56034 92356 333 10350
20150 555 93000=
72564 32966 43211 10272 20017 38061 40014 56012 92356 333 10328
20139 91021 555 93000=
72565 32966 41105 10322 20067 38255 49995 56023 92353 333 10333
20117 555 93000=
72569 32966 00319 10211 20106 38303 40053 55003 92355 333 10278
20072 555 93000=
72572 32966 43611 10294 20056 38609 40004 56029 92356 333 10300
20139 555 93000=
72576 35966 02719 10278 21033 38229 40024 56007 92356 333 10294
20089 91023 555 93000=
72578 32966 03011 10228 20011 38579 40065 56015 92356 333 10250
20133 555 93000=
72583 35966 02917 10261 20000 38625 40068 58016 92356 333 10261
20061 91023 555 93000=
72591 32966 22205 10283 21033 39980 40100 56019 92355 333 10289
20122 555 93000=
72597 32966 02909 10200 20033 39684 40158 56015 92356 555 93000=
72606 32966 01704 10117 20067 30200 40220 53013 92351 555 93000=
72617 32966 00105 10172 20067 30068 40193 53004 92354 333 10200
20067 555 93000=
72635 32966 81703 10189 20122 39871 40162 53006 92356 333 10206
20061 555 93000=
72636 32966 23003 10161 20100 39932 40162 53003 92355 333 10200
20067 555 93000=
72637 32766 21507 10189 20111 39883 40163 55006 92353 333 10217
20072 555 93000=
72638 35966 01806 10178 20100 39743 40162 55001 92355 333 10211
20044 555 93000=
72640 32966 61404 10144 20089 39907 40159 55004 8/031 92352 333
10161 20044 555 93000=
72641 32666 41409 10194 20122 39829 40140 58009 92353 333 10206
555 93000=
72644 32466 61510 10167 20128 39651 40129 55011 92354 333 10172
555 93000=
72645 32966 01609 10178 20111 39894 40151 53001 92356 333 10206
20044 555 93000=
72651 32966 00809 10239 20178 39555 40059 56018 92356 333 10250
20117 555 93000=
72654 32666 80706 10239 20189 39610 40064 56010 92355 333 10256
555 93000=
72659 32666 80419 10172 20128 39626 40089 50004 92356 333 10244
20139 555 93000=
72662 32566 80113 10206 20156 38990 40081 53003 92355 333 10244
20100 555 93000=
72666 32566 80107 10122 20072 38761 40125 55004 92356 333 10156
20100 555 93000=
72677 32666 80409 10133 20039 38897 40130 55009 92356 333 10150
20106 555 93000=
72681 32966 03610 10217 20017 39116 40104 58011 92356 333 10228
20089 555 93000=
72683 35966 03108 10172 21056 38701 40125 56013 92353 333 10189
20061 555 93000=
72688 32866 42806 10189 20017 39605 40140 56013 92356 333 10206
20100 555 93000=
72693 12566 83311 10156 20078 30066 40201 56009 69901 92356 333
10178 20089 555 93000=
72694 11566 62709 10156 20083 30122 40195 56009 69901 761// 92356
333 10172 20100 555 93000=
72698 32666 63010 10172 20061 30187 40196 58011 92355 333 10178
20106 555 93000=
72712 32766 41803 10122 20050 39985 40217 53003 92354 333 10150
20067 555 93000=
72745 32966 62307 10189 20117 39600 40116 58007 92355 333 10206
20044 555 93000=
72747 17566 82204 10144 20122 39686 40117 51008 60011 761// 92355
333 10228 20100 555 93000=
72753 12866 80111 10144 20117 39787 40117 58002 60051 92353 333
10194 20117 555 93000=
72764 12866 80110 10133 20083 39538 40134 53002 60021 92352 333
10189 20111 555 93000=
72767 32666 61704 10161 20072 39458 40137 58015 92352 333 10167
20089 555 93000=
72768 32966 20000 10167 20044 39319 40135 56018 92356 333 10172
20089 555 93000=
72772 11661 83514 10094 20067 38787 40149 55000 69901 761// 92356
333 10150 20083 555 93000=
72773 32866 63612 10178 21017 39014 40123 57005 92356 333 10194
20072 555 93000=
72776 12666 60314 10122 20033 38874 40147 51002 69931 92356 333
10161 20078 555 93000=
72777 15966 00315 10156 21006 39228 40150 56006 69951 92356 333
10178 20022 555 93000=
72779 35866 69906 10183 20011 39097 40141 55007 92356 333 10183
20006 555 93000=
72781 32966 02406 10217 21006 39748 40140 56014 92356 333 10222
20022 555 93000=
72785 32866 63615 10150 20039 39311 40152 55002 92356 333 10194
20050 555 93000=
72793 32566 42206 10150 20078 30028 40194 58013 92356 333 10156
20100 555 93000=
72306 32566 80408 10130 20090 30006 90012 333 91017 555 93000=
72315 32866 83606 10178 20122 39389 40145 53010 92354 333 10217
20133 555 93000=
72402 35566 60520 10130 20090 30162 90001 333 91029 555 93000=
72405 32666 80807 10167 20083 30158 40180 53011 92351 333 10183
555 93000=
72406 32666 60711 10172 20083 30122 40178 51012 92354 333 10194
555 93000=
72423 32766 60909 10228 20122 39974 40149 53001 92356 333 10244
20150 555 93000=
72425 11248 80000 10150 20144 39862 40164 53009 69901 710// 92351
333 10156 555 93000=
72504 32966 01009 10139 20100 30193 40200 53015 92354 333 10167
20133 555 93000=
72507 32566 40710 10117 20067 30190 40214 51019 92351 333 10167
20089 555 93000=
72513 32966 09903 10150 20078 39845 40182 53011 92354 333 10178
20122 555 93000=
72521 32566 61407 10178 20100 39726 40170 53006 8/108 92351 333
10200 555 93000=
72529 32766 20306 10172 20072 39984 40188 53004 8/400 92354 333
10194 20089 555 93000=
72535 32966 01607 10200 20111 39878 40159 53002 92354 333 10217
20061 555 93000=
72536 32966 01105 10178 20122 39917 40168 53004 92352 333 10211
20089 555 93000=
72544 32966 01609 10200 20144 39913 40128 56018 92355 333 10211
20122 555 93000=
72592 32966 01804 10278 20011 39919 40096 56018 92356 333 10283
20156 555 93000=
72605 35966 01405 10133 20072 30090 40217 53020 92351 333 10189
20089 555 93000=
72783 32966 02908 10206 20050 39629 40146 56007 92356 333 10211
20072 555 93000=
72791 35666 63009 10139 20061 30211 40218 57004 92356 333 10156
20100 555 93000=
10156 20056 555 93000=
62309 32960 02403 10242 20173 40056 56006=
62325 32960 01205 10231 20180 40078 58022=
62387 32960 00000 10242 20141 40065 56011=
62332 32960 01009 10239 20194 40088 58018=
62459 32960 03111 10232 20181 40048 58009=
96009 01460 82404 10240 20228 30063 40097 60144 72162 8592/
333 20226 50440 55049 56009 57904 60147 81915 84615 80950=
96073 01420 80000 10237 20233 30093 40100 51013 60244 76366 8792/
333 20232 50650 55/// 56009 57901 58010 60077 87913 80958=
96179 32460 70000 10250 20239 30055 40092 52005 83238
333 20210 50450 55/// 56000 57802 58005 83817 80850=
96633 11458 72704 10256 20236 30082 40090 52017 69964 70296 83871
333 20249 50550 55088 55508 51312 56000 58002 82618=
96645 01440 80000 10238 20238 30068 40100 52024 60264 71796 8592/
333 20234 51300 55067 56009 57902 58004 60087 81912 85613 80982=
96655 12457 70103 10248 20239 30081 40109 52014 69914 86572
333 10242 50620 55075 56700 59005 86610=
96685 11458 70000 10244 20238 30071 40097 57020 60034 70562 84571
333 20224 50000 55020 56000 58002 84615=
96749 01520 82004 10238 20237 30077 40090 51004 60114 71062 8392/
333 20233 56000 59007 60087 79999 81920 83620 87460=
96805 11459 80000 10257 20243 30081 40092 51006 60154 71462 85220
333 20256 50511 55086 56000 57801 59007 85818 84460 80959=
96839 11558 50000 10250 20238 30093 40098 51019 60054 70592 82141
333 20247 55089 56000 59003 82825=
96933 32560 20000 10258 20240 30993 40100 52012 81111
333 20234 55090 56000 59014 81820=
94103 35/// /0817 10254 3//// 5////=
94147 37/// /1423 10266 30096 40115 52014 7//44=
94151 35/// /2214 10248 30124 40144 52011=
94290 35/// /1317 10220 30149 40156 52001=
97014 12562 30000 10270 20229 30000 40093 52015 60014 81111
333 20224 50370 55050 56000 57802 58001 81830 80860=
97028 12565 70000 10266 20236 30068 40075 52020 69904 83521
333 20232 50640 55068 56000 57604 58002 83620 86460 80660=
97048 11350 70000 10260 20238 30070 40094 52023 60124 71522 84532
333 20234 50190 55054 56300 58012 84610=
97072 11558 71003 10254 20236 30009 40111 51010 69954 71522 83471
333 20250 50760 56000 58004 83620=
97086 12462 70000 10268 20226 30074 40097 51017 60024 83271
333 20242 50650 55057 56000 57000 58008 83619 85460=
97120 31460 70908 10267 20240 30061 40094 52019 71522 84971
333 20264 50410 55061 56200 57903 57821 58002 81917 83818 80980
80859=
97146 01520 80000 10232 20229 40101 50/// 60484 76166 8557/
333 20220 56000 57600 58012 60187 85620 80660=
97180 32560 40602 10269 20227 30073 40091 52022 81531
333 20228 55105 56000 58012 81620=
97192 11464 70000 10248 20242 30055 40119 52015 60064 71522 83220
333 20240 55095 56000 57803 58007 83817 87460 80857=
97230 01460 70908 10252 20243 30090 40097 52013 60034 76062 85271
333 20248 50690 55099 56000 57801 59003 60027 85619=
97270 31458 51510 10264 20222 30098 40102 51012 70510 84271
333 20242 50420 55085 56000 57802 59001 83815 80858=
97340 32570 71005 10254 20217 30109 40120 52016 81232
333 20222 50310 55060 56000 57809 58008 81820 80857 86360=
97430 12565 30103 10286 20234 30064 40093 60258 82202
333 20242 50660 55080 56000 57800 59003 82825 80860=
97600 12462 71804 10269 20248 30091 40096 60164 83971
333 20220 5//// 55078 56300 57933 59011 82915 84460 80958=
97748 01458 80202 10271 20257 30090 40097 50/// 60134 70562 85972
333 20218 50009 55000 56800 57980 59009 60137 80913 86458 80940=
97900 01460 81509 10254 20228 30085 40116 53002 60104 71562 8582/
333 20238 50500 55012 56309 57831 59009 60017 84615 88458 80873=
91503 12481 11802 10290 20247 40101 54001 60204 81200
333 20226 56200 58000 81817=
91507 11480 20502 10295 20245 40097 52001 60074 70500 82200
333 20240 56900 58001 82818=
91517 31480 30903 10310 20244 40087 54000 70510 82246
333 20234 56200 58001 82818=
91520 32480 10504 10310 20252 40092 52003 81201
333 20226 56000 58002 81818=
91527 31470 40508 10320 20260 4//// 5//// 71510 84231
333 20230 56100 5//// 84816=
91541 12482 31406 10300 20250 40096 57004 60024 83200
333 20240 56200 59003 83818=
94129 35/// /1209 10245 30107 40130 52009=
94210 35/// /0914 10257 30141 40146 52017=
94289 35/// /1221 10234 30139 40148 52005=
94307 35/// /0924 10204 30146 40186 52011=
94371 35/// /1617 10204 30165 40171 52004=
94379 35/// /1714 10194 30156 40165 57001=
96015 01420 82509 10233 20221 30096 40102 5//// 61407 76366 8652/
333 20216 50000 55080 55508 50840 56009 58015 61377 86614 88456=
96171 11505 60000 10230 20222 30052 30076 52002 69944 74242 82521
333 20225 50840 55052 56000 59017 82620=
96525 12463 60000 10243 20234 30081 40088 60364 83531
333 20233 50870 55094 56200 59001 83615=
96529 11408 70000 10240 20234 30082 40101 53010 60504 74042 84121
333 20230 5//// 55092 56000 58000 84813 85458=
96595 01340 80000 10235 20232 30053 40100 60254 76166 8552/
333 20/// 50550 55092 58006 60187 85608=
96695 02456 70000 10252 20246 30085 40090 60034 84220
333 20250 50380 55046 56000 59004 60038 83620 83463=
96751 12558 62601 10190 20267 39050 48920 60064 82534
333 20171 50600 55062 56000 58000 79999 82620 83360=
96783 32560 60000 10200 20179 39218 48791 84531
333 20196 50190 55070 56000 57600 59005 84628 81360 81080 80680=
96791 31459 60000 10248 20239 30036 40097 52004 70511 82511
333 20235 50364 55085 56000 58003 82618=
96797 31459 62202 10260 20245 30088 40092 52014 70522 84921
333 20246 50440 55/// 56400 57942 57841 58007 81918 80981 83820
80880=
96837 11557 70000 10260 20237 30083 40086 52005 60014 70596 84246
333 20252 50052 55080 56000 59007 83823=
96853 31557 30000 10248 20234 39966 40092 52011 70511 81531
333 20248 56000 59002 81620=
96935 32958 30000 10263 20239 30090 40096 52012 80001
333 20254 50500 55100 56000 59010 83080=
97008 12460 30000 10265 20247 30072 40119 52009 60064 82231
333 20/// 50/// 55012 56000 57801 59001 82819 80860=
97016 12563 30000 10275 20238 30084 40086 52011 69904 81931
333 20226 50070 55018 56000 57803 59004 81820 80860=
97126 11460 70000 10250 20231 30014 40072 52021 69944 70262 82970
333 20220 50420 55078 56000 57902 58007 81916 85460 80980=
97182 32560 40202 10279 20244 40091 52020 83831
333 20258 50500 55095 56000 57800 58008 82820 83360 808//=
97240 31460 50000 10250 20227 30081 40101 52017 70521 81231
333 20230 50450 55088 56000 57801 59002 81817 80860 83074=
97460 11459 60803 10264 20247 30067 40076 69954 70522 82232
333 20238 50500 55099 56600 57864 59006 81818 84358 80858=
97700 11565 62208 10267 20231 40/// 60014 70262 81272
333 20234 5//// 55093 56300 57232 81820 84060 80858=
97722 12460 63602 10264 20240 30094 40109 50/// 60124 83832
333 20222 50870 55030 56200 57822 59004 82819 80857=
85930 22997 01210 10074 20045 40227 54002 333 10084=
85934 11480 50815 10037 20016 40036 52014 69901 85500
333   10047 56200 85615=
71472 36/// /3210 10082 30257 40275 51003 333 10087 20078 70000=
83971 32970 40000 10090 20079 30157 40157 51005 80001
333 10188=
31253 32599 70000 10092 20041 39658 40091 52017 87500   333 20046
55000=
16650 32970 00000 10158 20144 30102 40106 54000 333 90703 555 40000
47610 44245 50000 50150=
16732 32965 00000 10184 20123 30100 40111 58005 333 90730 91103 555
40000 47607 44220 50000 50150=
23205 42984 61501 10011 20000 30189 40204 54000 82031=
27199 42998 20000 10090 20058 40187 52005 80001=
27271 42998 11601 10046 20041 30035 40190 53007 80001=
27459 42998 01501 10140 20090 39998 40186 52007=
27730 42965 01401 10156 20134 39973 40158 52001=
22165 42570 71812 10055 20041 30088 40150 56003 87500=
22954 42967 71802 10156 20115 39910 40147 54000 82041=
27066 42998 01801 10069 20051 30017 40192 52006=
27083 42999 00000 10055 20041 39973 40194 52006=
27113 42997 20901 10133 20125 39997 40137 53001 80001=
27242 42984 00000 10142 00009 30044 40167 52002=
27329 42965 61701 10157 20141 30036 40156 52006 82038=
27355 42984 02302 10144 20092 30012 40169 54000=
27373 42999 11902 10088 20027 39976 40190 52005 80001=
27665 42997 20801 10134 20080 39927 40188 53005 80001=
28009 42998 80000 10045 20040 39983 40193 52009 80006=
28411 42997 33002 10070 20015 39972 40166 52004 80001=
22282 42585 70802 10022 20006 30167 40175 57003 85501   333 85625=
22365 42482 71601 10085 20059 30119 40145 57008 86806=
22438 42570 81002 10116 20092 30071 40092 57009 8653/=
22641 42684 81402 10164 20093 30091 40106 58006 82231=
22854 42984 20000 10140 20110 39869 40145 52003 80001=
22867 42989 21601 10126 20086 30050 40160 52005 80001=
27051 42965 70000 10101 20082 30009 40172 52010 80001=
27225 43996 30902 10163 20140 30019 40143 52001 80002=
27252 42978 00000 10106 20085 39998 40179 52005=
27369 42999 00000 10096 20076 30048 40183 52005=
27393 41998 30000 10108 20056 30026 40191 52002 71200 80001=
27479 42984 00000 10131 20062 30057 40186 52004=
27532 42997 61502 10152 20119 39954 40158 52003 82031=
27648 42997 20801 10149 20144 30019 40180 53014 82030=
27679 42975 00703 10087 20023 39975 40195 53006=
28214 42999 33101 10079 20064 39967 40174 52002 80006=
31561 11497 83507 10057 20036 40023 52037 60110 76162 8672/   333
20015 86712 82519 91015 91115=
32010 11396 80111 10029 20029 49931 52018 60450 78082 889//   333
20010 87707 91016 91118=
16614 11570 50000 10146 20118 39382 40150 52005 69931 70262 83250 333
83825 85358 90730 91110=
16627 32960 00000 10156 20127 30101 40105 56001 333 90730 91106 555
40000 47610 44250 50000 50140=
16667 32970 00000 10192 20136 30106 40111 58003 333 90730 91106 555
40000 47614 44240 50000 50160=
16675 32965 01412 10180 20127 30090 40111 57004 333 90730 91114 555
40000 47603 44240 50000 50150=
16723 32965 20000 10186 20141 30097 40105 56008 82040 333 90730
91104=
16738 32560 23006 10194 20115 39918 40110 56006 82100=
16746 32960 00000 10184 20157 39934 40113 57010 333 90730 91104 555
40000 47488 44250 50000 50168=
42123 31995 02302 10312 20145 49991 70600
333 59005=
43157 32596 42701 10240 20220 39446 40076 81501 333 58008=
42103 32996 00000 10278 20183 49989 333 58007=
43181 22596 42303 10284 20225 30018 40045 81530 333 58001 6014/=
43221 32596 60000 10310 20215 30030 40043 82530 333 58000=
43311 32596 32703 10284 20262 40078 83800 333 58001 83620=
43053 32596 72005 10294 20289 40025 84430
333 59004=
41530 31696 10000 10290 20172 49976 706// 81500
333 56900 58017
41598 NIL=
41640 39EEE 31994 010EE 01303 10286 20150 39738 49976 70500
333 58009
41660 NIL=
41675 319// 32310 10320 20182 39833 49969 70710 82030
333 56090 59019 83360
41712 NIL=
41780 326// 42704 10290 20248 30003 40030 84500
333 56900 58006 84630=
91165 12566 20715 10272 20189 30121 40173 58013 69901 92353 333
10278 20233 555 93000=
91182 32666 20515 10294 20189 30153 40158 57014 92353 333 10300
20233 91023 555 93000=
91190 32966 00722 10278 20178 30128 40157 92354 333 91029 555
93000=
91212 12566 40911 10294 20250 30025 40123 51009 69901 92354 333
10300 20267 555 93000=
91285 32566 80311 10256 20200 30156 40167 56013 92353 333 10278
20206 555 93000=
91334 11474 80511 10305 20245 30090 40093 51005 60074 70282 83201
333 20251 562/9 59005 70074 555 93000=
91348 11474 81208 10285 20248 30046 40098 58002 60064 70282 85331
333 20222 56399 59006 70058 555 93000=
91356 11574 70909 10294 20242 30080 40087 50000 60144 70286 85275
333 20239 56299 59006 70137 85821 555 93000=
91408 11574 31305 10300 20247 30064 40102 52010 60064 70181 83101
333 20244 562/9 59005 70058 555 93000=
91413 11469 40706 10305 20267 30081 40100 51008 60104 70282 82201
333 20239 562/9 59007 70104 555 93000=
91765 12674 42115 10283 20197 30086 40090 57020 60094 84400 333
20238 565// 59008 70091 555 93000=
91245 32566 40719 10300 20240 30147 92350 555 93000=
41891 11340 80000 10222 20220 40066 60014 76122 8532/ 333 56529 58015
70036 84707 81930 88458 90511 91035=
41936 31340 71410 10272 20260 40034 71022 85630 333 56990 59010 70000
82708 83615 85562=
11766 11986 19902 10042 20028 39289 42788 52006 69901 70381 80001 90040
333 55008 81070=
42101 32996 00000 10284 20169 49996 333 58011=
42339 31996 02305 10312 20207 40021 70500
333 58005=
23256 42297 80104 10008 20008 30114 40148 52012 885//   333 84704=
23330 42598 83605 10017 21011 30191 40210 52003 8383/   333 91112=
23552 41597 80305 10053 20026 30068 40102 52009 70732 885//=
23631 42498 73408 10038 20007 30135 40176 52010 86550   333 86617
91114=
23734 42498 60104 10048 20012 30043 40130 52010 85130=
23849 42996 40204 10122 20073 40014 52003 80001=
23933 42597 80308 10087 20064 30003 40060 52010 889//   333 91013
91113=
28275 42499 83606 10144 20120 39938 49994 52008 84032=
28493 42298 80303 10128 20126 39830 49916 57007 886//   333 88704=
28698 41559 82701 10131 20127 39751 49893 57004 78098 889//=
23662 42999 60701 10117 20006 30038 40067 52001 80001=
23788 32998 20000 10070 21011 30031 40108 51003 80002   333 21019=
23986 32999 81303 10093 21030 40088 52002 8801/   333 20087=
29149 11498 80901 10112 20112 39879 40004 54000 60092 70282 889//
333 20106 55010=
29203 60232   333 20124=
29745   333 20110=
36087 12599 30401 10096 20062 40190 52002 69902 83900   333 20094
55133 95000=
36096 11698 72701 10135 20095 40046 52019 60012 78181 86901   333
20123 55142 95000=
36103 32699 70000 10060 20044 40095 53018 82502   333 20006 95000=
36231 11599 60000 10090 20064 39148 40106 53002 69902 70282 82501
333 20066=
36259 32699 30000 10040 20020 38184 48449 52010 82902   333 20015
55096=
36307 32699 70902 10118 20017 38830 48417 53016 86902   333 20104
86930 95005=
23426 42579 80508 10030 20006 30180 40204 52014 888//=
23625 42599 63301 10029 20011 30154 40187 52007 86500=
28367 42996 83604 10129 20104 39911 40033 52027 8803/=
28382 42498 70204 10133 20114 39891 49957 52007 87500   333 87613=
28481 41497 83605 10135 20122 39853 49945 54000 76162 885//=
28491 41498 83504 10134 20130 39815 49917 57007 70242 886//   333
88716=
28573 41374 83405 10138 20127 39845 49942 53002 72582 889//   333
86708=
28593 41578 80502 10127 20121 39809 49900 57006 78022 889//=
28598 41498 80000 10134 20123 39811 49906 57004 70282 889//   333
88919=
28786 41398 82904 10123 20123 39770 49916 57005 70262 886//   333
88707=
28797 41497 82704 10119 20118 39763 49910 56004 70282 883//   333
88913=
28799 41496 82303 10116 20109 39783 49918 57012 78198 889//   333
86711=
23929 42981 73606 10085 20073 40106 52008 87050=
28383 41456 83402 10127 20121 49940 52001 78082 889//   333 85710=
28465 42580 85507 10147 20123 49995 52015 889//=
28586 42599 73304 10132 20123 49911 54000 87500   333 87627=
28688 41598 83403 10134 20125 49917 52001 70298 86333   333 86920=
28696 41260 81402 10121 20115 49900 57013 78098 889//   333 86706=
28791 41496 82808 10126 20119 49907 57001 76198 8872/   333 88712=
29367 12984 81202 10139 20122 40028 52006 69982 8801/   333 20124=
30117 32960 29901 10085 20046 39638 40115 50015 80001   333 20025
55035=
22695 42983 20000 10053 20039 39986 40181 57006 82030=
22996 41970 00000 10068 20050 30004 40191 52003 71100=
42701 31596 52306 10280 20223 39294 49997 70522 82501 333 58002
82620 84075=
43333 21496 32902 10258 20255 40070 75165 8542/ 333 59010 6028/
82618 83820 86458=
23219 42998 80704 11010 21016 30108 40215 52002 8802/=
42874 31596 70508 10280 20172 40042 71792 85937
333 58014 83625 83830 81930 87070=
43041 31596 62702 10260 20210 39223 40049 71722 84930
333 58006 83625 81935 84360=
91369 12474 60810 10289 20259 30081 40084 61304 85230
333 20272 5622/ 85815 555 93000=
91371 12474 70912 10289 20269 30125 40128 60094 86238
333 20244 56229 58000 86815 84280 555 93000=
23405 42981 61004 10068 20032 30090 40195 53009 86030=
16643 32560 12608 10212 20193 30129 40133 58003 81200 333 90730
91115 555 40000 47631 44240 50000 50200=
16648 32660 40000 10200 20114 30018 40105 55001 81150 333 81840
84358 90730 91105 555 40000 47550 44260 50000 50152=
16684 32960 01607 10220 20117 30058 40083 53008 333 90730 91109 555
40000 47580 44255 50000 50162=
48806 11305 70000 10223 20219 39320 40077 53007 60032 74664
878// 333 01025 20219 3/023 59004 84893 87696=
51076 32980 40000 10137 20068 39252 40084 52011 80002 333
00100 30050=
71900 46/// /0306 30215  56004=
71800 46/// /3618 30102  53023=
71403 36/// /3610 10083 20074 30199 40211 53023 333 10089 20073
70000=
23803 42999 20101 10034 20019 30030 40210 53019 80001=
44416 42680 80000 10234 20220 39266 49985 82130 333 58011=
44454 41459 60000 10173 20165 38610 48450 79599 84933 333
58014=
44477 42058 70000 10188 20186 38766 48480 87600 333 58014=
34579 42979 00903 10175 20077 30109 40150 52006=
23226 42360 80304 11024 21040 30007 40226 52004 886//   333 88707=
98531 12480 80901 10264 20254 40084 53010 60094 83277
333 20246 56999 58007 70092 83818 85359 88280=
16480 32997 00201 10204 20168 30099 40159 52002 92345 333 55300
555 0////=
16460 31958 02604 10160 20156 30134 40154 55001 71000
333 95090=
28552 41597 60303 10131 20106 39935 40041 52026 70282 86300=
33088 42597 62801 10140 20134 39927 40112 52007 86500=
23701 41870 20000 10044 20042 30070 40198 52012 71111 82040=
41859 11350 80906 10230 20220 30018 40058 60149 76196 8672/ 333 56299
58019 70632 83708 86618 88458=
44438 41530 81205 10210 20210 39917 40040 796// 8492/ 333 58022=
48615 12470 72604 10261 20247 30074 40080 69944 82132 333 20248 50590
59011 82818 87075=
96465 32480 71705 10281 20232 30053 40087 81842 333 20261 50380
59008 81814 87080=
96471 11475 71204 10266 20229 30082 40085 60134 70522 82848 333
20237 50390 59019 81815 84364 87277=
96481 11462 70000 10242 20231 30073 40096 60314 70162 8387/ 333
20227 50400 59004 81817 87364=
96491 11475 80000 10260 20252 30079 40092 69954 70362 86707 333
20252 50260 58001 83710 84640 88276=
58011 82618=
58003=
31174 12599 83602 10082 20049 30050 40061 52013 69940 82508
333 20018 55000=
96091 32460 60000 10246 20237 30067 40090 53004 83933
333 20240 55050 56000 57952 57852 59010 81920 82817 84080 08980
80860=
96253 31357 80000 10242 20231 30060 40081 52006 71622 83922
333 20238 56000 59010 60247 83620=
96295 31456 50000 10234 20225 30011 40115 51018 70511 82221
333 20226 50570 55080 55508 12289 56000 57802 58003 82812 80850=
96581 32458 70000 10246 20237 30085 40092 52004 84930
333 20236 50450 55089 56600 57962 57862 59008 81913 83814 85362
80980=
96781 31550 60000 10202 20179 39285 70520 82531
333 20195 56000 59012 82620 84080=
61972 16/// /1304 10199 20159 30172 40187
333 58008=
91487 11498 70912 10286 10/// 20/// 40086 72528 8436/ 333 20///
5629/=
91490 31599 20806 10313 2024/ 40076 70200 82100 333 20267
562//=
91601 11498 71108 10302 2027/ 40096 60071 71528 84368 333 20244
56299=
91610 31599 21208 10299 20245 40092 5//// 70200 81100 333 20261
562//=
91701 31599 20708 10296 2025/ 40085 70200 82100 333 20260 562//=
78388 32575 31801 10278 20204 40124 83800 333 01000 10319 20249 59005
82822=
71841 36/// /2912 10204 20064 39698 40083 53015 333 10233 20021
70000=
61986 42575 10812 10249 20221 40143 81100
333 58005=
61974 42470 30000 10220 20213 40114 82202
333 58000=
71433 36/// /1408 10073 20069 39920 40150 55002 333 10106 20042
70000=
71115 36/// ///// 10182 20058 333 10190 20040 70000=
17370 32965 00304 10220 20158 40104 57012 333 92427=
16022  32765 50000 10018 21040 37852 48486 53004 85050 92345 333
85356=
41150 32970 03216 10303 20205 40009 333 58008=
41184 32960 02102 10254 20186 40001 333 58002=
41194 32960 02003 10265 20199 39987 49999 333 58005=
41196 32960 01902 10243 20167 39960 40000 333 58004=
41216 32962 02706 10290 20245 39997 40001 333 58007=
41217 32960 02602 10261 20222 39972 40001 333 58006=
23418 42970 20000 10018 20005 30127 40201 52005 80001=
31285 12599 80000 10052 20046 40098 52009 60050 885//   333 20000=
31348 11998 83603 10078 20038 39879 40064 52012 60090 70262 8807/
333 20020=
23606 42962 20000 10033 20009 30028 40200 53012 80001=
31418 11598 83402 10088 20029 39981 40051 51016 60070 70182 8272/
333 20028=
31484 11599 80000 10090 20021 39724 40044 52024 60020 70282 865//
333 20047=
17188 32970 03603 10135 20110 39081 40098 57004=
41140 32960 00000 10300 20260 30018 40026 333 58010=
58002 82620 84075=
58022=
98232 31575 41803 10291 20246 40107 53009 70544 81232 222//
299// 333 20270 56999 59014 81820 84075=
98543 31465 80000 10267 20244 40106 51014 71592 85507 333
20258 56999 58020 85618 88272=
98618 11475 62701 10258 20239 40091 53013 60274 70544 82968
333 20232 56999 58014 70272 81918 82819 83358 86275=
98630 11470 80000 10266 20242 40104 53025 60224 78188 8522/
222// 20000 333 20242 56999 58016 70221 85818 88458=
98526 11570 80000 10260 20254 40103 52026 60174 72166 8527/
333 20234 56399 58018 70172 84820 88358 98315=
42886 32596 61802 10322 20209 40019 83500 333 58005 83620
85360=
96881 11558 82108 10260 20228 40108 69904 70511 81531
333 20196 56000 59002 79999 81620=
96925 32465 61104 10285 20243 30091 40098 52014 83232
333 20245 50470 55033 56200 57820 59014 83817 80860=
98748 11470 32001 10262 20/// 40100 51018 60394 70544 81231
333 20235 56999 58014 70394 81818 83358=
41288 31357 42106 10273 20254 30006 40028 70500 84600 333
58017 84708=
41715 329// 11302 10295 20240 39922 49985 81030 333 56090
59003 81360=
58012 85710=
42071 31696 40000 10276 20116 49989 70622 81402 333 58012
81640 83070=