ZCZC 000
SMCI10 BENJ 141200
AAXX 14121
81100 22264 00283 20403 313// 40604 5//// 6//// 80233 ICE /////=
82100 22200 00270 20201 312// 40301 5//// 6//// 80232 ICE /////=
58314 32970 00901 10230 20160 30040 40125 52015=
50968 32970 00403 10200 20138 40176 52014=
50888 32980 13404 10173 20027 40194 52030 81030=
54455 32965 10000 10203 20182 40157 52005 80002=
59087 32961 01401 10270 20225 40079 52009=
58549 32963 01102 10243 20189 40107 52016=
59072 32975 01401 10286 20234 40084 52011=
57996 32968 20000 10280 20202 40089 52012 82040=
59673 32564 11602 10283 20253 40079 52012 81100=
59462 32970 00000 10304 20254 40073 52007=
54094 31958 01102 10203 20149 39881 40165 52018 70400=
53853 32965 81102 10208 20148 40131 52009 8802/=
53975 32962 71402 10232 20151 40141 52009 8703/=
53673 32960 71402 10231 20137 40132 52004 8703/=
57016 31940 80000 10212 20181 40129 52016 71000 8807/=
54602 32960 50402 10255 20181 40143 52007 80002=
54471 32960 03601 10215 20148 30139 40156 52007=
57245 31958 82702 10218 20193 39795 40131 52013 71000 8807/
333 00301=
57866 32970 00703 10291 20194 39897 40095 52007=
57972 32964 00000 10294 20201 39880 40093 52010=
54623 32970 01404 10243 20180 40155 52006=
58933 32575 10000 10206 20128 40098 52009 81500=
58921 32664 10902 10263 20214 39851 40087 52014 81400=
58737 32965 22702 10259 20203 40091 52018 82040=
57259 32965 70402 10246 20181 40120 52019 8704/=
56571 32780 70000 10240 20179 38364 52011 874// 333 00103=
54339 32962 21101 10234 20127 40133 52006 80002=
57522 31740 82901 10280 20227 40076 52011 71000 885//=
57494 32968 00201 10295 20187 30080 40108 52014=
53543 32980 81805 10186 20119 38532 40112 52010 8802/=
54662 32970 23204 10229 20182 30039 40155 52006 80002=
54266 32965 00000 10184 20154 40162 52005=
54273 32970 00000 10173 20142 40165 52007=
54186 32970 02901 10173 20126 40169 52008=
54386 32970 00402 10164 20112 40167 52017=
54337 32960 02701 10221 20175 30083 40166 52008=
54135 32980 20204 10214 20079 39973 40184 52011 80002=
50442 32770 60202 10125 20011 40237 52012 86500=
57602 31730 83201 10227 20204 40100 52014 71000 885//=
54476 32965 03202 10197 20179 40168 52008=
59317 32962 00000 10277 20240 40077 52008=
59298 32962 00000 10300 20235 40072 52013=
59478 32963 10000 10299 20217 40077 52013 80002=
59287 32965 20901 10296 20221 30033 40082 52009 80002=
59303 32668 73202 10298 20209 40077 52011 874//=
67341 32570 81522 10194 20113 40279 57010 8687/=
41170 32970 01114 10357 20261 30017 40030 333 58000=
340036 346039 356050 350048 348048 341048=
78897 11575 31304 10283 20253 40159 53016 60011 70386 83202
333 02306 10331 20249 58017 70004 83823=
96315 35465 70204 10288 20245 40094 82968
333 10325 81816 81917 86364=
76243 32370 70802 10248 20228 39878 40158 57006 87700 91130
333   10344 20240 30023 56200 59033 70000 87707=
76256 32960 00000 10250 20233 30114 40128 5//// 91140 333
10337 20239 31/// 58003 70046=
76258 32950 21102 10246 20235 30088 40132 5//// 80002 91140
333   00003 10335 20246 30022 58006 70000 82075=
76342 32940 00000 10208 20130 39462 40149 57005 91135 333
10320 20205 30020 59003 70000=
76382 32960 02901 10215 20160 38898 40095 52001 91130 333
10335 20215 30019 58004 70000=
76405 32940 00000 10228 20218 30103 40124 54000 91150 333
10316 20228 30022 58054 79999=
76577 0000 10154 20130 38054 40124 57004 91145 333   10280 2
0145 30013 59005 70000=
76665 32956 00000 10137 20129 38129 40124 5//// 91140 333
10266 20128 32013 59002 70028=
76687 31560 42001 10160 20147 38648 40162 55002 71311 83930
91138 333   10247 20145 31014 5657/ 59020 70000 81923 81823
81623=
76843 32565 10000 10202 20187 39536 40184 52007 81500 91145
333   0/3// 10313 20192 30/// 30186 59004 70000 81633=
76845 31903 90000 10109 20104 37939 40158 52001 74744 89///
91145 333   10227 20104 31/// 30100 59010 70000=
76903 11675 70201 10232 20218 30033 40169 52008 69991 70252
83950 91145 333   0/590 10348 20230 31022 59003 70166 81933
82650=
76113 21770 60202 10234 20217 39670 40125 57018 86200 91140
333   10274 20222 31/// 56300 58006 70113 86834=
76412 32960 00000 10235 20225 30101 40146 52001 91145 333
10346 20220 30/// 58006 70000=
76640 11020 70000 10242 20239 30125 40137 52008 69956 72059
8267/ 91140 333   0/22/ 10350 20240 31/// 30236 59010 79995
82700=
76675 31560 73101 10078 20066 37388 40137 57008 70544 83460
91140 333   10223 20074 30006 56990 59008 70003 83626 84360
=
76726 31058 20000 10153 20153 38394 40108 57008 74044 82400
91145 333   10282 20144 31014 56100 59012 70001 82600=
76741 31540 52202 10246 20236 30076 40108 56010 70544 83220
91136 333   02890 10330 20232 30870 59030 70000 82820 81925
=
88963 31520 82327 11105 21137 39898 49928 52027 73631 886//
333 11083 21105 56599 88720 90015 92424 92812 92913 95035
555 19927 52333 64210 65090 90007=
88968 01350 80000 11076 21095 39843 49858 50008 69904 77072 887//
333 11056 21085 49001 56000 69901 84708 85615 90018 90921 92416
92800 94070
555 19857 6000/ 64210 65037 90134 D/E=
89034 32970 00000 11077 21333 39462 49781 57028
333 11077 21130
555 6061/ 64090 65003 90004=
89053 01606 80925 11044 21056 39900 49914 53033 60054 77172 8802/
333 11020 21044 47009 56029 60051 88540 90410 90966 91129 92423
92800 95003=
89055 31205 52534 11132 21148 39673 49927 52020 73732 82770
333 11119 21138 56560 82704 83358 90021 92836 92923 96010
555 19904 52341 60051 64221 65082 67116 72332 74001 90000
89066 11135 73202 11124 21139 30018 40027 52027 60044 71022 83770
333 11100 21152 43007 56780 83703 85360 90562 90973 92800 95060
555 6000/ 64211 65052 90144=
81405 02560 11604 10280 20240 40147 69924 81100
333 20216 58006 69927 81820=
89054 31220 71618 11035 21049 49907 52034 71022 86405
333 11025 21035 74404 86605 87270=
89056 11460 61823 11035 21057 49911 52028 69944 70152 86500
333 11022 21041 48998 55000 74400 86615=
89057 89057 12580 22502 11034 21054 49923 52033 69914 82500
333 11020 21039 43070 55000 75500 82625=
89058 11658 62014 11036 21059 49909 52024 69931 71070 86500=
89059 32760 32130 11072 21101 49899 52015 83070
333 02140 11042 21072 43030 55000 75000 83350=
89251 11125 81111 11039 21046 49900 52030 69922 77171 887//
333 21038=
48698 11466 71408 10287 20234 30072 40090 69901 70562 81832 333
10314 50520 55073 01276 21782 30749 70003 81818 86080=
60096 32960 00216 10242 20193 40161 50000=
60101 32458 22610 10246 20155 40142 58010 82500
333 82616=
60115 11560 43612 10264 20163 40110 58011 69931 70284 82282
333 82830 83073=
60135 32460 23010 10250 20148 40139 58008 82500
333 82616=
60150 32957 03002 10235 20158 39497 40121 58013=
60155 32450 60204 10250 20170 40142 58007 86800
333 83816=
60156 32458 63206 10238 20160 40147 57009 86200
333 86816=
60230 32558 53404 10225 20169 40139 58010 85500
333 85620=
60060 32458 23405 10215 20161 40136 58002 82500
333 82616 95300=
60105 32558 31805 10252 20173 40140 58013 83100
333 83813=
60106 32965 01608 10276 20169 40134 58016=
60107 32960 03610 10244 20170 40124 58009
333 95300=
60185 32470 53407 10234 20174 40143 58010 85200
333 85816=
60190 32959 02810 10247 20140 39547 40126 58012=
60191 32962 03206 10250 20125 40124 58011=
60195 32565 2//// 10243 20125 38498 48513 58005 82202
333 82840=
60220 32458 63410 10185 20147 40141 57006 86800
333 82813 85626=
60265 32958 01208 10315 20096 38859 48511 57012=
60318 32960 03009 10285 20146 40129 58012=
60340 32960 00410 10270 20207 40122 57008=
91772 31498 41315 10249 20203 40144 70221 84100   333 10/// 563//=
91776 31498 51410 10250 20223 40143 70221 851//   333 10295 563//=
91784 31598 41208 10225 20177 40167 70300 84800   333 10267 563//
82820=
91792 31499 11303 10190 20164 40192 50000 70200 81100   333 10254
563// 81818=
89664 41/06 90915 11137 21159 39888 4932 51021 73933
333 11117 21114 58164 89/03=
61901 11360 81217 10158 20129 40182 69901 72582 888// 333 59025
85808 88625=
61902 11580 20916 10258 20193 40150 69991 70181 82800 333 59009
82820=
88889 11284 62814 10052 20035 39868 49952 56013 60014 72052 865//
91150 333 20041 31003 81703 83625 85645=
63980 42482 11214 10289 20226 40096 81800
333 59003 81817 94315 91123=
91631 31599 20907 10275 20248 4//// 70112 82100 333
10317 562//=
91636 11497 71004 10275 20254 4//// 60091 79508 8297/ 333
10317 5629/=
91643 31599 21318 10270 20258 40108 58005 70200 82100 333
10310 563// 82820=
89532 42/80 13605 11202 21269 39842 49870 51002
81500 333 11192 21233=
89004 36/// /0508 11188 21211 38707 49772 57001
333 11188 21242 91008 555 90965=
78866 11582 41307 10299 20242 30164 40168 52016 70380 84270 333
10323 20270 58020 84823=
91570 36/// /1012 10239 20208 30158 40161 50004
333 10290=
91574 36/// /1210 10223 20179 30166 40172 51007
333 10264=
91598 36/// /0000 30149=
67665 41758 40000 10302 20146 48504 70500 84100 333 58021 84850
82360=
81415 16/// /05// 10255 20226 40153 69924
333 20200 58009=
65338 32465 70000 10288 20231 39925 40114 86802
333 59019 81613 86826 94919 95839=
60210 32960 01210 10312 20120 38957 48512 58008=
89642 41912 71341 11152 21171 39705 49760 58009 73831 84032
333 01260 11099 21163 84359 87073 91058 91160 92943=
68026 41960 00000 10260 21039 48521 57027 70400=
68029 41960 30909 10246 20078 48507 70400 83070=
68032 41660 20505 10259 20111 48511 57020 70411 81170=
68148 42560 80518 10144 20079 48529 57018 888// 555 465//=
68328 41660 20618 10208 21010 48527 57028 70522 82100=
91925 36/// /0504 10244 20195 30054 40114 56013
333 10284 59006
555 1//12=
91938 32570 11002 10224 20177 30137 40140 58019 81200
333 10297 56200 59008 81826
555 10706=
91944 36/// /0916 10248 20225 30150 40156 56016
333 10275 59003
555 1//21=
91948 36/// /0104 10199 20145 30087 40191 56023
333 10214 59014
555 1//17=
91954 16/// /3412 10231 20226 30133 40136 58015 69921
333 10241 59032
555 1//16=
91958 01459 80621 10183 20176 30159 40161 56020 60161 76166 888//
333 10194 56299 59077 60127 85818 88646
555 10733=
57584 32962 00403 10285 20202 40101 52010=
59948 11573 70202 10280 20253 30073 40081 52010 69901 70098
81102=
59855 11570 72001 10287 20258 40084 52016 69901 70080 871//=
59838 32770 21802 10280 20250 30071 40085 52011 81402=
57780 32964 03401 10290 20221 40095 52008=
55598 32780 60000 10165 20087 36621 52002 86900 333 00101=
54096 32968 00000 10175 20137 40176 52012=
50854 32970 00403 10159 20058 40201 52012=
50745 32965 23603 10160 20046 30041 40218 52009 80002=
50557 32970 20403 10128 20008 39942 40235 52009 80002=
50853 32970 00404 10165 20039 40199 52015=
50658 32980 00202 10146 20038 40220 52013=
56386 11420 82501 10215 20209 40107 52016 69931 76060 887//
333 00201=
56492 31858 80000 10229 20208 39713 40104 52018 71000 885//
333 00300=
57206 11759 80000 10206 20186 40108 52010 69901 71060 885//=
57328 31950 80401 10242 20214 39694 40087 52009 71000 8807/=
56287 31940 80000 10210 20195 40117 52018 71000 8807/ 333
00201=
53782 32960 70000 10222 20154 40148 52013 84032=
57483 32968 00000 10289 20178 30068 40109 52009=
57896 32980 02701 10271 20207 40093 52009=
57793 32967 10901 10284 20205 40102 52012 81040=
58527 32970 00202 10263 20175 30029 40102 52014=
57894 32965 03202 10203 20170 40125 52009=
58715 32968 03402 10252 20165 40100 52015=
56691 32575 70903 10181 20158 37782 52008 86442 333// 00200=
57707 11665 71102 10237 20177 38469 52017 69901 70080 87500
333// 00104=
57713 11968 11402 10283 20194 40069 52014 69901 70080 81040
333// 00102=
53463 32670 72001 10222 20131 38938 40111 52008 82902 333//
00002=
51628 32960 11802 10199 20059 40108 52010 80002 333// 00753=
50774 32960 00000 10097 20056 39932 40228 52023=
50136 11970 70000 10067 20051 39726 40255 52007 69901 70060
86032=
50950 32965 00404 10189 20035 40189 52013=
50844 32962 23603 10166 20052 40208 52009 80002=
50353 32970 10000 10063 20016 30040 40260 52015 81030=
50468 32975 13202 10080 20014 30052 40257 52021 80002=
50953 32970 03402 10187 20083 30010 40183 52012=
54909 32966 00000 10214 20186 30080 40141 52007=
57461 32965 33201 10262 20198 39963 40117 52011 80002=
59134 32564 11602 10267 20228 39919 40077 52011 81100=
57845 32961 13602 10252 20220 40089 52009 81040=
54401 31956 71102 10230 20135 39325 40144 52006 70400 80002=
59417 32576 10000 10295 20257 39923 40070 52007 81140=
51133 32680 22001 10146 21020 39564 40205 52009 81402 333//
00101=
58457 32668 73603 10258 20185 30061 40110 52005 874//=
58543 32970 20403 10249 20169 40114 52013 82040=
58633 32962 00903 10238 20198 30005 40101 52011=
58660 32970 53203 10264 20166 40090 52013 85040=
58666 32465 13411 10248 20193 39980 40077 52012 81100 333
91119 91534=
54646 32980 01106 10242 20141 40152 52002=
54236 32980 20203 10217 20161 30064 40163 52012 80002=
54237 32965 00702 10214 20147 40168 52011=
54324 32965 22002 10242 20170 40158 52011 80002=
54365 32965 03602 10229 20146 40158 52011=
54335 32960 00000 10196 20175 40159 52009=
57662 32965 00402 10295 20210 30065 40105 52011=
59126 32960 02101 10293 20230 40080 52014=
54857 32975 01603 10231 20173 30058 40146 52007=
50527 32970 00905 10173 20030 39475 40189 57012=
57037 11962 83402 10233 20154 40114 52014 69901 76000 8807/
333 00300=
57106 32763 80000 10188 20167 40134 52012 885// 333 00301=
53646 11970 81101 10204 20136 38953 40120 52005 69901 70060
8802/ 333 00300=
59644 32962 02702 10286 20257 30056 40071 52004=
59211 32962 20000 10286 20244 39866 40066 52009 82040=
59023 32962 20000 10316 20227 39829 40066 52009 82040=
59046 31950 00000 10320 20228 40070 52007 70400=
59632 32963 01803 10294 20255 40075 52007=
59631 32962 02201 10282 20251 40075 52011=
59058 31958 00000 10287 20246 40079 52012 71000=
59647 32561 12702 10280 20252 40077 52006 81902=
59265 31930 00901 10295 20236 39943 40076 52004 71000=
59209 32970 00000 10256 20208 40083 52010=
59254 32960 00201 10296 20253 40069 52002=
56964 32572 10000 10255 20192 38673 40063 52006 81100 333//
00101=
57583 32965 00000 10280 20187 40108 52008=
58311 32967 00902 10261 20153 40123 52012=
59954 11565 72701 10282 20257 40089 52020 69901 70098 879//=
56096 32780 83403 10227 20145 38917 40096 52018 885// 333//
00551=
57504 11950 80000 10226 20206 40096 52013 69901 76000 8807/
333 00201=
57313 11920 80000 10206 20201 40103 52008 60011 76060 8807/
333// 00101=
57405 11762 80000 10221 20204 40104 52014 69901 76000 885//=
56188 11858 80000 10201 20193 40116 52014 69941 76060 885//
333 00201=
57608 31730 80000 10228 20205 40104 52018 71000 885//=
57411 11930 80000 10209 20204 39745 40102 52011 69911 76060
8807/=
57306 11957 83201 10210 20199 40106 52010 69901 76000 8807/=
57251 32970 83201 10243 20179 40128 52014 8807/=
58846 32662 72901 10281 20209 40083 52023 875//=
58944 32561 11801 10273 20220 40083 52014 81500=
58926 32970 02001 10261 20188 40080 52015=
58918 32980 02702 10272 20191 40086 52015=
58754 32960 03601 10257 20177 40089 52019=
58725 32980 02502 10257 20170 39841 40093 52016=
58847 32964 01105 10273 20200 39981 40079 52020=
58731 32980 03401 10229 20145 40102 52015=
58834 32968 12701 10262 20201 40082 52015 81040=
58931 32962 03606 10166 20142 38356 52004=
57516 31940 82903 10238 20208 39788 40087 52012 71000 8807/
333 00103=
54351 32970 00402 10172 20152 40169 52009=
58321 32960 02502 10256 20165 40126 52012=
58424 32970 00203 10261 20175 30091 40114 52013=
58221 32963 00701 10238 20173 30101 40135 52009=
58326 32970 00401 10252 20163 40125 52014=
58203 32970 01102 10243 20160 30084 40128 52012=
58102 32970 00402 10251 20169 30082 40131 52010=
58437 31/00 90405 10116 20114 38172 52002 74540=
58436 32970 00000 10220 20181 40121 52013=
58215 32965 00702 10218 20175 40136 52005=
54157 32962 33601 10226 20173 40165 52007 80002=
50963 32960 00704 10186 20098 30052 40182 52025=
50756 32970 10205 10145 20033 39932 40219 52015 80002=
50564 32970 00000 10098 20026 40243 52020=
50983 32970 23205 10180 20083 40172 52018 80002=
50978 32980 00204 10218 20132 39897 40175 52029=
50873 32970 10405 10163 20041 40195 52028 81030=
57776 32970 03603 10201 20155 40109 52001=
57655 32960 70402 10277 20215 40093 52007 8704/=
57687 32962 00401 10289 20217 30020 40097 52011=
52652 32980 71402 10234 20107 38470 40059 57003 8703/ 333//
00207=
53845 32962 80000 10207 20163 39065 40129 52010 8807/ 333
00351=
50548 32980 70000 10119 20062 40231 52007 80002=
50434 32980 41603 10073 20042 39368 40244 52007 80002=
50632 32970 71403 10128 20022 39361 40228 52009 80002=
50603 32980 60904 10169 20065 39509 40155 57023 80002=
50246 32670 83202 10084 20033 40262 52014 889//=
50788 32970 03205 10133 20064 30110 40191 52023=
57476 32963 03401 10281 20197 40108 52009=
55591 32680 70000 10175 20064 36544 52003 86902 333 00005=
55585 32780 20000 10175 20085 36405 52001 82400 333 00005=
55493 11780 73202 10112 20055 36080 52010 69911 70080 87900
333 00204=
57816 32975 01404 10256 20169 38753 40066 52007 333// 00103=
57832 11775 73601 10246 20209 40094 52009 69901 70098 875//=
57932 32965 00000 10294 20225 40072 52014=
59493 31950 00901 10292 20233 40076 52009 71090=
59271 31958 00201 10284 20238 40076 52009 71000=
59082 32963 21102 10284 20219 30006 40080 52008 80002=
59501 11560 70000 10278 20248 30070 40086 52011 69901 70080
871//=
59316 32961 11101 10277 20241 30063 40072 52010 81040=
59117 32972 00000 10289 20205 39974 40076 52014=
59293 32962 02901 10298 20229 30028 40075 52012=
57265 32760 72501 10264 20207 30007 40112 52011 875//=
51431 32680 72906 10170 20023 39419 40196 52027 86902 333//
00001=
54102 32680 71604 10230 20071 39004 40103 57009 85402=
59431 32962 00000 10279 20252 39932 40076 52008=
59037 32960 01802 10300 20240 39869 40065 52005=
54218 32670 20405 10222 20087 39515 40166 52010 82100=
51573 32965 70000 10232 20111 30065 40106 52001 81032 333//
01056=
54916 32962 01603 10211 20177 40147 52011=
54843 32970 00202 10220 20182 30122 40148 52013=
54836 32968 00703 10220 20135 40156 52011=
59849 32565 61603 10273 20259 40089 52014 86100=
58519 32975 03602 10265 20170 40105 52007=
58634 32960 00000 10251 20196 40098 52012=
54497 32965 01101 10209 20192 30130 40144 52012=
54346 32965 00702 10200 20146 40166 52011=
54333 32960 10000 10213 20169 40161 52010 80002=
54342 32965 20901 10221 20165 30101 40159 52008 80002=
54493 32974 00000 10200 20159 40147 52009=
54584 32965 02703 10211 20195 40144 52006=
54511 32960 61803 10243 20185 30108 40146 52011 80002=
57554 32962 80701 10278 20177 40108 52010 8807/=
54208 32980 71603 10179 20078 38776 40163 52005 80002=
53192 32580 71604 10222 20068 38871 40114 57009 83902=
54012 32680 71103 10194 20052 39028 40150 57005 85502=
50915 32580 71105 10214 21018 39180 40130 57017 82902=
54527 32960 00000 10233 20186 40155 52011=
53480 32680 41802 10208 20079 40130 52004 82402=
56146 32780 50000 10173 20113 36752 52011 82402 333 00302=
56247 32880 70000 10196 20152 37399 57003 86442 333 00101=
56462 11580 72903 10163 20138 37152 52024 69901 72998 87900
333 00201=
56167 11780 20000 10172 20140 37086 52011 69901 70080 82400
333 00200=
56144 11780 10000 10142 20110 36883 52003 69901 70080 81402
333 00201=
56257 31680 81604 10140 20066 36321 52013 70090 889// 333
00201=
57902 32980 00903 10234 20180 38602 40075 52009 333// 00102=
57916 32675 20000 10283 20206 40070 52009 82500=
54776 32980 03605 10227 20158 30095 40149 52012=
57385 32970 00704 10279 20149 40113 52015=
52533 32780 10902 10209 20065 38469 40069 57001 81402 333//
00251=
51709 32880 11403 10237 20042 38668 40065 52012 81402 333//
00202=
51716 32865 20901 10210 20091 38857 40088 52004 82900 333//
00453=
51839 31758 70404 10235 20012 40066 52027 70600 879// 333//
00500=
57447 32962 22502 10259 20196 39586 40104 52007 82030=
54374 32962 00201 10206 20132 39770 40159 52019=
54276 32960 02502 10164 20123 40173 52009=
54161 32965 00404 10214 20125 39893 40171 52012=
54292 32970 00000 10178 20154 39954 40166 52009=
50949 32965 10203 10169 20095 30016 40179 52014 80002=
50948 32970 03603 10185 20092 40189 52013=
54181 32972 00000 10186 20128 40169 52007=
54377 32965 00000 10210 20155 40148 52010=
54049 32970 00402 10186 20099 40178 52007=
50936 32970 23601 10161 20058 40198 52012 80002=
58626 32970 03201 10264 20185 40099 52012=
57799 32980 00702 10281 20204 30012 40092 52008=
59102 32962 02201 10243 20191 40089 52011=
57993 32972 03601 10283 20190 39930 40088 52011=
58608 32960 00401 10254 20197 40102 52010=
58506 32975 00208 10166 20098 40130 52007=
57598 32968 00000 10270 20197 40109 52016=
53487 32960 71603 10217 20087 40126 52006 85032=
53564 32975 81802 10230 20128 39149 40110 52009 8802/ 333//
00103=
53868 32970 82201 10254 20165 40119 52010 8802/=
53772 32960 71104 10231 20177 39258 40132 52009 8703/=
53663 32970 72004 10203 20086 40130 52008 8703/=
53787 32965 71603 10213 20128 40147 52007 8703/=
53478 32770 70000 10199 20093 40128 52002 85502=
53959 32970 81403 10269 20165 39688 40113 52012 8807/=
53664 32970 81804 10228 20127 40122 52007 8807/=
59758 32478 60000 10283 20246 30060 40081 52008 81142=
58647 32964 00000 10231 20172 40105 52022=
58665 32965 23403 10259 20173 40082 52010 82040=
58667 32975 12907 10264 20161 40077 52013 80001=
58760 32966 23603 10276 20176 40082 52016 82032=
58556 32665 70000 10238 20192 40111 52013 875//=
58562 11662 83202 10252 20185 40103 52010 69901 70080 885//=
58646 32962 03602 10237 20194 40104 52016=
58752 32966 23602 10274 20154 30046 40090 52014 81042=
58569 32465 43204 10238 20192 40082 52007 84100=
54115 32980 70904 10193 20072 40173 52007 80002=
54027 32680 61401 10179 20084 39624 40186 52011 83202=
54226 32980 00202 10198 20097 40173 52009=
50834 32980 20903 10145 20033 40221 52015 80001=
54026 32980 20202 10188 20035 39883 40195 52014 80002=
50727 32980 71407 10146 21010 39026 40206 52004 80002=
51828 31858 80000 10217 20070 38606 40089 52020 70600 8792/
333// 00500=
56152 31680 71602 10133 20063 36354 52005 70090 86902 333
00302=
56357 11680 70000 10136 20072 36491 52009 69911 70098 874//
333 00200=
56374 32480 80403 10145 20134 37443 52022 889// 333 00201=
56444 32680 72501 10146 20090 36834 52014 85102 333// 00101=
56533 11680 70000 10209 20184 38386 52011 69901 70080 874//
333// 00251=
56586 32670 70204 10192 20165 38042 52020 879// 333// 00201=
56651 32680 30702 10198 20154 37619 52010 83400 333// 00103=
56684 32580 62001 10208 20163 37885 52007 86400 333// 00101=
56748 32580 61402 10245 20172 38323 52008 86400 333// 00102=
56751 11680 50703 10207 20156 37999 52009 69901 79190 85900
333// 00202=
56763 32680 21402 10281 20186 40009 52003 82402 333// 00100=
56768 32680 51802 10230 20172 38209 52007 81102 333// 00101=
56778 32580 52202 10222 20173 38092 52005 84402 333// 00100=
56786 11575 81802 10217 20161 38097 52004 69911 78080 889//
333// 00101=
56838 32680 12501 10283 20225 40050 57002 81402 333// 00002=
56875 32680 12201 10242 20159 38340 52002 81400 333// 00100=
56886 32780 12001 10203 20163 38278 52009 81400 333// 00151=
56951 11770 71802 10244 20180 38473 52010 69901 70080 879//
333// 00101=
56954 32580 61402 10270 20211 40056 52007 86262 333// 00004=
56959 32780 10000 10290 20232 40045 52005 81400 333// 00101=
56969 11670 10000 10268 20234 40060 52011 69901 70080 81400
333// 00201=
56977 32580 10000 10230 20204 40077 52009 81100 333// 00100=
56985 32980 01604 10243 20177 38673 40070 52007 333// 00101=
56986 32363 11601 10205 20187 40086 52005 81400 333// 00101=
56994 32970 01603 10237 20181 40078 52008 333// 00101=
59007 32578 11602 10248 20180 40079 52008 81100=
56946 31680 12901 10261 20206 40050 52001 70090 81462 333//
00151=
56966 32780 10000 10309 20231 40025 52007 81100 333// 00100=
56739 11575 51801 10225 20176 38321 52003 69901 70098 85442
333// 00001=
53513 32570 70000 10234 20155 38941 40078 52011 82902 333//
00001=
58251 32566 53202 10230 20197 30124 40130 52008 85500=
58343 32965 73604 10239 20188 40127 52012 85032=
58238 32970 00403 10246 20160 30118 40127 52014=
59663 32962 01802 10295 20256 30052 40079 52013=
59658 32963 22203 10298 20253 40077 52010 80002=
59664 32668 81802 10294 20259 40080 52009 884//=
59456 32570 21601 10297 20251 40074 52014 82400=
59754 11963 20000 10268 20254 40080 52007 60231 70098 80002=
59278 32961 01102 10293 20228 40075 52009=
59096 32970 02903 10260 20189 40092 52015=
57458 32965 30000 10228 20177 40123 52014 83040 333 00103=
56666 32780 20000 10276 20197 40021 52008 82400 333 00201=
56459 31780 71802 10224 20138 37627 52015 71700 87900 333
00200=
56565 32580 73201 10191 20143 37491 52014 879// 333 00201=
56479 32465 73402 10172 20158 37931 52014 875// 333 00201=
56485 11557 80000 10187 20178 40114 52021 69901 76060 8647/
333 00251=
56475 32580 80000 10202 20164 38313 52018 884// 333 00202=
56671 11780 43201 10220 20178 38187 52006 69901 70080 82442
333 00100=
56294 32961 83601 10220 20196 39538 40118 52016 8807/ 333
00201=
56385 31/00 90000 10097 20095 37054 52015 74540 333 00201=
57237 11962 80000 10201 20192 40122 52008 69901 70060 8807/=
56196 32864 80000 10224 20197 40111 52015 885// 333 00203=
54606 32961 51801 10230 20201 40142 52008 80002=
58730 32962 00401 10247 20182 40099 52015=
58820 32962 00901 10238 20187 40095 52014=
58911 32964 02701 10232 20190 40095 52012=
59321 32980 22202 10269 20231 40078 52011 80002=
54254 32965 00000 10181 20171 40165 52009=
54259 32970 00000 10190 20153 40170 52013=
54579 32980 02903 10235 20191 40146 52001=
54326 32975 00000 10223 20167 40160 52012=
54486 32968 03402 10209 20158 40156 52009=
54563 32970 03602 10226 20157 40151 52007=
53588 31/04 90705 10102 20093 37841 54000 74600=
56182 11680 80000 10165 20112 37220 52023 69901 70080 889//
333 00451=
56172 32880 70000 10185 20144 37328 52020 879// 333 00202=
56079 11880 80901 10121 20093 36733 52016 60021 79598 889//
333 00551=
56178 32880 20406 10228 20100 37647 52030 82400 333 00301=
56173 11880 80902 10122 20090 36684 52013 60051 70098 889//
333 00452=
59294 32962 10000 10273 20229 30043 40086 52010 81040=
53446 32968 81102 10211 20135 40110 52007 8802/=
52707 11675 21101 10196 20046 37229 54000 69901 70080 82200
333 05205=
52633 32680 70000 10132 20089 36761 57007 86942 333 00106=
50838 32980 00204 10179 20029 40207 52015=
53923 11980 81602 10156 20146 40134 52009 69911 72160 8802/=
57143 11540 80000 10180 20174 40153 52011 60031 76160 8172/=
57036 32965 80902 10249 20161 39658 40110 52014 8807/=
53929 11765 81402 10173 20154 40132 52012 69901 72160 885//=
57046 32360 80905 10144 20124 37974 52010 885// 333 00300=
53738 11630 80000 10157 20151 40136 52008 69901 71060 8452/=
57127 11558 82001 10191 20186 39546 40130 52010 69991 76060
8172/=
53915 11730 80902 10160 20152 38659 40137 52009 69901 71060
885// 333// 00452=
57348 32960 50902 10257 20166 40100 52004 85040=
57432 31958 60000 10273 20219 40077 52009 71000 86040=
57633 32962 50000 10248 20195 39363 40107 52014 85040 333
00104=
57426 32961 50701 10233 20198 40091 52008 85040 333 00004=
56065 11580 81102 10112 20089 36670 52016 69921 79580 889//
333 00553=
56034 11580 20403 10089 20043 35967 52006 69901 70080 82900
333 00203=
52765 11578 70901 10120 20093 37206 52016 69901 70098 86402
333 00652=
58362 11470 83606 10230 20215 30098 40108 52006 69901 76060
887//=
54618 32961 50902 10234 20177 30124 40141 52012 80002=
54423 32970 60000 10202 20161 39718 40168 52013 80002=
54863 32980 00403 10226 20162 40151 52012=
54823 31958 00904 10250 20135 39947 40143 52010 70400=
54715 32963 00902 10249 20176 40139 52007=
54826 32965 00906 10145 20087 38492 52004=
54808 32966 00000 10219 20191 40141 52007=
52889 32975 80702 10226 20144 38463 40078 52010 8807/ 333
00951=
52418 32980 53203 10250 20046 38790 40041 52005 80002 333
05207=
56093 11580 83601 10150 20119 37713 52012 69921 72580 889//
333 00651=
52674 32980 01403 10162 20092 38008 52004 333 00756=
57006 11765 80702 10180 20154 40121 52014 69901 70060 885//
333 00551=
52679 32780 61801 10200 20135 38443 52001 82442 333 00954=
52546 32980 10702 10215 20100 40045 57003 80002 333 00301=
52797 32980 70000 10220 20106 38353 52008 8704/ 333 00851=
52983 32980 81802 10178 20129 38114 52006 8807/ 333 00700=
57853 32960 73401 10284 20200 40096 52008 8704/=
57874 32965 00000 10303 20212 40088 52004=
58027 32970 00902 10237 20154 30092 40141 52011=
57378 32964 83403 10298 20190 40115 52012 8807/=
59981 32580 60202 10284 20254 30078 40084 52014 84202=
59845 32965 73601 10274 20250 40084 52014 80002=
57399 32965 00203 10278 20149 40115 52015=
59985 32580 13202 10278 20250 30074 40079 52010 81102=
58531 32980 00403 10250 20174 40109 52012=
58122 32970 00702 10253 20154 40137 52014=
58015 32970 00000 10238 20189 40140 52010=
58338 32965 00202 10230 20189 40122 52012=
57279 32965 00901 10279 20165 40119 52014=
54945 32980 03201 10219 20187 40144 52006=
57957 32960 70202 10295 20213 39890 40079 52009 8704/=
54534 11960 20000 10229 20174 40159 52009 69941 70080 80002=
53149 32970 72005 10198 20107 38747 40085 54000 80002 333//
05251=
53231 32965 12704 10190 20098 38460 52005 80002 333// 00251
91118 91525=
53068 11780 72004 10235 20081 39007 40077 57003 69901 70080
86902 333// 05351=
53083 11680 71807 10216 20057 40100 57008 69901 78000 87902
333// 05304=
53352 32680 71406 10193 20088 40103 52003 875//=
53529 32975 81604 10186 20132 38610 40109 52010 8802/ 333//
00251=
53391 32980 71606 10190 20085 38517 40128 52004 80002 333//
00002=
53336 32670 71802 10185 20144 38693 40098 52009 83502 333//
00152=
53276 32770 72205 10243 20072 38837 40089 52009 83502=
58477 11463 83204 10231 20219 30046 40089 52005 60011 72580
887//=
54705 32962 70000 10241 20188 40142 52010 80002=
53698 32961 61401 10260 20173 40139 52010 80002=
53798 32960 71401 10266 20184 30051 40140 52009 80002=
57355 32965 72001 10258 20169 40109 52013 82042=
58606 32965 03602 10269 20159 30050 40103 52010=
58813 32980 00401 10268 20200 40101 52014=
57922 32562 81403 10251 20196 40089 52010 888//=
59133 32560 11803 10277 20232 40074 52009 81100=
54871 32980 00404 10232 20171 40151 52013=
51232 11680 71805 10168 20056 40213 52011 69901 78000 85962
333 05102=
51356 32770 70401 10157 20057 40206 52014 82462 333 05105=
57545 32962 60000 10257 20186 40103 52014 86040=
54751 32980 00703 10225 20168 40153 52008=
57144 11570 80000 10182 20179 40149 52011 60041 72166 8172/=
57134 11260 80000 10176 20173 40139 52010 60051 76266 8752/
333 00300=
54311 32975 00000 10181 20110 40176 52013=
54405 32960 60904 10233 20159 40146 52012 82032=
54518 32962 31102 10241 20174 40158 52014 80002=
58265 11565 83606 10230 20220 30105 40116 52005 60021 78080
8547/=
58241 32980 00202 10226 20174 40137 52011=
54263 32972 02901 10175 20133 40166 52005=
53614 32970 23402 10204 20170 38873 40091 52011 80002 333
00352=
53705 32965 71806 10215 20144 40079 52008 87030 333 00400=
53723 32970 81805 10184 20139 38639 40107 52005 8807/ 333
00351=
53806 32980 71402 10175 20129 38141 52008 87032=
58150 11565 10403 10235 20194 30127 40135 52008 69901 70080
81400=
51804 32580 52704 10169 21167 36969 52008 83402 333// 00352
91120 91504=
51705 32780 31106 10188 21066 37816 52015 81102 333// 00201
91117 91525=
51811 32962 60000 10218 20098 38738 40083 52008 80002 333//
00351=
51818 32960 60403 10201 20067 40079 52009 80002 333// 00251=
56312 11680 52201 10179 20101 37097 52011 69901 70080 85900
333// 00105=
56227 11680 72902 10169 20135 37337 52011 69901 71480 879//
333// 00101=
56434 32680 62202 10212 20134 37684 52016 86400 333// 00200=
56317 32680 61401 10164 20114 37154 52011 82402 333// 00101=
58464 11570 83404 10239 20189 40109 52006 69901 70080 8347/=
58472 11362 80210 10247 20244 39990 40084 52007 60071 78080
887//=
58467 11662 83203 10240 20183 40104 52012 69901 78080 885//=
54624 32964 01101 10232 20167 40157 52009=
55690 11480 72205 10069 20048 36050 52005 69901 70080 81402
333 00100=
55696 32680 51403 10163 20004 36377 52006 82202 333 00102=
55681 11680 70000 10104 20051 35959 52007 69901 70080 873//
333 00202=
56307 32780 72701 10176 20115 36861 52008 84902 333 05104=
52495 32980 23403 10224 20092 38647 40072 52005 80002 333//
00402=
53602 32980 60000 10197 20137 38417 52009 80002=
52378 32980 10000 10225 20063 40088 52008 80002 333// 00656=
52576 32980 10902 10228 20044 38460 54000 80002 333// 00652=
53502 32970 61602 10228 20150 40075 52007 84032 333// 00400=
52267 32980 10000 10223 20094 39039 40083 52006 80002 333//
00757=
57731 32665 80202 10297 20209 40081 52014 885//=
58402 32980 00402 10267 20160 40119 52019=
58236 32980 00702 10240 20163 40129 52014=
58319 32965 03204 10231 20168 40122 52012=
58407 32965 01104 10276 20175 40107 52013=
53898 32962 01101 10253 20205 40144 52010=
53986 32961 00000 10242 20209 40138 52012=
57051 32962 82502 10248 20183 40139 52012 8807/=
57067 11462 80000 10197 20186 39488 40141 52008 60011 76060
8277/=
57071 32965 80903 10250 20182 40133 52009 8807/=
57083 32962 21201 10241 20192 30011 40141 52011 80002=
57178 32962 00401 10261 20174 39977 40128 52012=
57193 32970 00702 10253 20196 40132 52008=
57290 32962 00402 10247 20193 40132 52012=
57297 32970 00703 10273 20170 39991 40124 52008=
58208 32975 00903 10257 20167 40127 52008=
53764 32970 81402 10217 20165 40139 52004 8802/=
53963 11960 81404 10254 20174 40127 52012 69901 70060 8802/=
56033 11680 71403 10078 20050 36079 52007 69901 70080 83902
333 00351=
52836 32980 70000 10189 20051 36894 57007 80002 333 00102=
52754 32670 71105 10126 20089 36823 54000 875// 333 00400=
56125 31680 70000 10142 20099 36549 52008 70090 86902 333
00203=
57745 32960 00702 10286 20212 39783 40092 52013=
17601 32675 12311 10273 20156 30061 40090 57009 81100 91150 333
81830=
20087 38492 52004=
12772 32681 72002 10175 20127 39839 40113 57007 8557/ 333 85640=
12822 32975 82105 10213 20120 39935 40071 53003 8807/=
12843 32775 71503 10203 20128 39932 40094 58008 875// 333 87650=
12882 32682 71906 10219 20104 39990 40117 56008 81272 333 81833=
12925 32975 72104 10208 20121 39919 40082 55003 8707/=
12942 32975 62006 10211 20106 39862 40096 58007 83032=
12982 32980 41805 10237 20086 30011 40107 58008 81082=
11816 32560 82806 10175 20124 39915 40071 52008 8582/
333 81820 85636 88458=
11826 32670 71307 10172 20125 39882 40073 58001 86510
333 86647=
11903 11565 81204 10134 20102 39732 40101 58002 69901 76022 885//
333 83626 88640=
11934 11465 81601 10109 20085 39311 42751 51004 69961 76122 8752/
333 81710 87623 88458=
11968 11581 80901 10173 20122 39848 40117 56005 69901 76022 8582/
333 82830 84656 88460=
11841 11573 81402 10157 20109 39720 40081 50004 69911 76122 885//
333 88631=
11858 11681 81404 10200 20125 39931 40074 58003 69901 70262 8521/
333 85836 88460=
11916 11/00 91814 10021 20020 37925 48424 58001 60021 76144
333 89/00=
11927 11460 80504 10131 20125 39857 40112 58004 69931 76062 885//
333 81710 88650=
11930 11/00 92906 10001 21000 37338 47022 51001 60041 77184
333 89/00 91017 91120=
11993 32681 71804 10183 20097 39911 40118 57006 81170
333 81843 87360=
11855 11773 81008 10173 20130 39919 40078 50000 69901 70262 8452/
333 84650 88460=
11867 11462 83604 10132 20114 39781 40088 50002 60031 76122 885//
333 81710 88633=
11880 11660 70903 10166 20124 39931 40096 58004 69921 72122 8457/
333 84643 87459=
11918 11580 83004 10125 20099 39290 42730 50006 69931 76162 8557/
333 85625 88359=
11933 11365 83401 10067 20056 38597 48450 58001 69981 76122 8657/
333 81706 86620 88358 9513/
444 17126=
11938 11340 82306 10095 20076 39073 42744 51002 60031 76122 8557/
333 82706 85626 88458=
11976 32675 71702 10158 20116 39864 40118 57003 8457/
333 84640 87360=
11978 32680 72601 10185 20123 39992 40116 57011 87800
333 81843 87650=
11036 32570 83206 10162 20117 39856 40078 52022 8587/ 333 81825
85658 87363=
11010 11480 82604 10121 20100 39735 40104 52012 69901 76182 8787/
333 81812 83642 87657=
11120 11356 89901 10086 20085 39421 40118 52037 60071 76386 888//
333 82707 83820 87640=
11150 11370 81703 10109 20088 39582 40109 51003 60051 76166 8787/
333 81708 83828 86650=
11240 32781 71605 10204 20123 39661 40055 58001 82842 333 82850
83360 85077=
10015 01582 53008 10157 20105 30014 40023 52015 69931 72586 83230
333 31/// 55302 69937 83825 91114=
10020 01481 73108 10148 20111 39971 40006 53010 60031 70282 838//
333 31/// 55301 69917 83817 86640=
10055 32581 52404 10162 20102 30017 40027 51009 84801
333 30/// 55306 83825 83650=
10147 32680 32305 10169 20086 30014 40032 51008 83100
333 31/// 55310 83840=
10162 31565 22504 10161 20082 39947 40027 50005 70141 82200
333 31/// 55308 82820=
10184 01470 72102 10145 20113 30026 40033 51007 69901 72162 8525/
333 31/// 55302 69907 85816 87358=
10224 11580 62707 10145 20085 30035 40041 53010 69911 70361 85830
333 31/// 55302 83828 83656=
10270 11462 51903 10164 20119 39979 40032 53008 69901 70361 85202
222// 06161
333 31/// 55308 85813=
10338 01462 62604 10142 20095 39971 40041 51010 69941 72562 84831
333 31/// 55303 69907 83817 84360=
10361 01468 72803 10152 20106 39942 40042 53013 69991 72162 8527/
333 31/// 55303 69977 85818 85460=
10384 01462 71903 10133 20121 39982 40040 52009 60011 76162 875//
333 31/// 55300 69937 83710 87623=
10393 01475 62104 10143 20125 39923 40046 51008 69991 72562 86300
333 31/// 55301 20668 30589 69907 83916 84649=
10400 11560 62903 10154 20093 30025 40073 52014 69911 70162 85202
333 31/// 55305 69917 85822=
10438 01284 62901 10125 20099 39787 40061 51012 60021 78086 84831
333 31/// 55301 69957 83806 83642 85362=
10469 01584 72307 10139 20094 39883 40043 51014 69941 72586 878//
333 31/// 55300 69927 82820 86656=
10488 01584 72307 10143 20084 39785 40057 53013 69901 70182 8527/
333 31/// 55300 69907 85830 87463=
10548 01583 62705 10129 20072 39532 40058 51012 69961 70386 86200
333 32/// 55304 21569 69907 86823=
10637 01583 52203 10163 20088 39938 40071 51006 69901 70282 85931
333 31/// 55304 69907 83828 81930 83656 90920 96480 96415=
10685 11581 62404 10109 20090 39408 40065 51014 60021 72582 83231
333 31/// 553// 83820=
10738 11484 72204 10144 20081 39623 40077 51001 69901 70262 86831
333 31/// 55306 81815 84825=
10763 32582 72603 10135 20068 39708 40079 53005 878//
333 31/// 55301 21123 85830 85656=
10788 01465 82104 10117 20103 39665 40087 51006 60031 76162 888//
333 32/// 55300 60017 83810 85633 88650=
10852 01580 71703 10117 20090 39534 40089 53008 69961 72162 8687/
333 32/// 55300 69917 83820 85657=
10946 01475 81902 10091 20082 39278 40094 53007 60031 72162 8287/
333 32/// 55300 69917 81815 88358=
10091 01464 61803 10142 20115 39986 40036 51011 69911 78082 86332
333 31/// 55300 20760 30749 69917 84913 82650=
10113 01478 43108 10154 20112 30017 40035 51017 60021 72161 84830
333 31/// 55308 60027 83818 91114 91212=
10129 32584 62607 10155 20104 30019 40031 51008 86800
222// 2//01
333 31/// 55306 82825 85650=
10131 01482 62405 10149 20105 30014 40028 52010 69921 72581 85830
333 31/// 55305 69907 82816 84656=
10170 32568 52502 10163 20102 30013 40027 51005 84230
333 31/// 55304 84825=
10253 31675 42903 10170 20086 30017 40038 51007 70241 83231
333 31/// 55304 83835=
10280 11475 62401 10152 20114 39938 40032 51007 69901 70362 86300
333 31/// 55303 84917=
10291 01465 72004 10144 20109 39971 40036 51010 69911 72164 872//
333 31/// 55303 69907 87817=
10305 01562 82703 10135 20109 30026 40057 51013 69901 76188 878//
333 31/// 55300 69907 82820  87634=
10315 01460 72804 10139 20106 39992 40054 51011 69921 78062 879//
333 31/// 55303 69917 81911 83826 87650=
10348 32570 62503 10141 20093 39943 40046 51011 85231
333 31/// 55305 85825=
10385 01470 62005 10132 20119 39981 40041 51009 60021 78062 85870
333 31/// 55300 69997 83812 83835 85662=
10427 01/03 82705 10066 20066 39074 48392 51017 60011 75186 887//
333 31/// 55300 69987 87701 96041 96480 96458=
10453 11/60 72607 10057 20056 38745 48385 51018 60161 74164 872//
333 32/// 55301 878// 96260 96465 96463 96445=
10474 01481 72205 10156 20109 39912 40036 51008 60021 70386 873//
333 31/// 55304 21517 69907 87917=
10490 06/59 /2307 10150 20101 39930 40048 53006 69921 8////
333 3//// 55306 21606 69917 8//// 8//// 8////=
10499 01476 82404 10133 20097 39774 40054 53010 60011 78082 878//
333 31/// 55300 69907 84814 87650 91113=
10501 11568 23302 10141 20087 39833 40074 51015 69901 70161 81231
333 31/// 55304 81825=
10513 01456 72903 10120 20098 39962 40081 52019 60031 78165 878//
333 31/// 55300 60027 85813 86630=
10532 01482 73203 10132 20101 39838 40068 52012 69941 76186 86831
333 31/// 55303 69947 81814 84818 86630 96281=
10544 11162 72706 10070 20066 39011 48404 51016 60011 78054 872//
333 31/// 55300 87803=
10554 01470 72606 10118 20082 39679 40057 51018 69901 78082 873//
333 31/// 55300 20581 69907 81818 85923 86840 91115=
10577 11583 72406 10125 20087 39566 40055 51011 69901 70362 85806
333 31/// 55300 20826 30793 83829 83650 87270 91113=
10578 01/01 92510 10047 20045 38689 48394 50009 69961 74564
333 31/// 55300 20504 30460 69967 91117 91213=
10609 01480 73303 10136 20074 39767 40088 52014 69901 78086 873//
333 31/// 55304 69907 82816 82923 86650=
10655 01584 72605 10132 20083 39752 40070 53010 69901 76082 878//
333 31/// 55301 69907 83825 83640 87650=
10688 01584 72003 10115 20083 39558 40070 51011 69911 70286 8322/
333 31/// 55300 69907 83823 87457 96463 96461 96480=
10708 01381 72703 10127 20099 39707 40082 51011 69971 72585 86301
333 32/// 55304 69967 81808 84917 84635=
10729 11570 73005 10148 20095 39958 40076 53010 69941 76062 878//
333 31/// 55306 69947 86820=
10776 01575 72301 10118 20111 39659 40094 50011 69961 70262 8287/
333 32/// 55300 69917 81826 87360=
10803 01582 72504 10145 20086 39742 40092 53006 69981 72586 85373
333 31/// 55301 69907 81820 84831 81936 96463=
10836 01484 72505 10102 20088 39226 40074 51007 69921 72586 84972
333 31/// 55304 69907 82813 82915 84358=
10929 01480 72203 10137 20092 39568 40086 52004 69911 70362 84878
333 31/// 55302 69907 81817 83824 86277=
10961 11/00 93510 11052 21054 37004 47967 53001 60121 77387
333 3//// 49130 55300 91122 91212 96047 96787 96473 96449=
10962 11565 81906 10066 20058 38969 48425 53008 60081 76064 885//
333 32/// 55300 60037 88630 91118 91214=
48004 31456 70401 10304 20266 70255 87900 333 10340 56500=
48008 21556 60000 10320 20265 40050 83930 333 10345 56450 58005=
48010 32556 50000 10306 20267 40044 83131 333 10337 56559 59004=
48018 32556 60000 10310 20262 40026 84930 333 10335 56450 58009=
48019 32556 20000 10320 20265 40061 81201 333 10350 56406 58020=
48020 32556 50000 10320 20265 83530 333 10350 56550=
48025 32450 70000 10304 20242 40041 83322 333 10350 56440 58002=
48037 32557 50000 10350 20237 40027 83134 333 10370 56499 59012=
48042 32556 50000 10333 20244 40034 84950 333 10360 56440 58005=
48045 32158 50000 10220 20198 82303 333 10250 56819=
48048 32558 50000 10342 20257 40041 85900 333 10372 56400 58001=
48053 32456 82202 10300 20253 40040 84956 333 10348 56499 58008=
48057 21457 72701 10209 20195 71796 85956 333 10255 56669=
48060 32540 51802 10270 20211 40032 83901 333 10316 56509 58004=
48062 32560 62701 10284 20270 40056 83336 333 10306 56699 58004=
48071 32566 62302 10255 20248 40065 82336 333 10308 56499 48002=
48077 31458 61801 10260 20250 40064 75052 85970 333 10340 56690
58005=
48094 21450 80000 10240 20240 40089 70396 8592/ 333 10300 56599
58021=
48097 32456 82402 10245 20245 40085 70252 8497/ 333 10315 56499
58009=
48108 32456 72301 10280 20250 40096 84267 333 10305 56599 58011=
48109 32496 70000 10291 20259 40090 84970 333 10308 56590 58008=
48110 31596 80000 10280 20250 40092 82307 333 10315 56509 58004=
48112 31597 80000 10280 20250 40084 70152 84846 333 10315 56599
59008=
15004 32698 41503 10215 20088 39814 40132 57016 81141=
15020 32997 21402 10215 20081 39967 40155 57008 80001=
15090 32997 31604 10221 20074 30035 40155 57011 80004=
15108 32299 22906 10100 20073 38118 48524 52016 81201 333 95100=
15120 32698 31303 10199 20084 39659 40131 57012 81131=
15150 32997 01604 10215 20097 39934 40153 57008=
15200 32998 21607 10238 20092 39980 40116 57011 80001 333 91010=
15260 32699 21106 10209 20093 39621 40129 57013 82100 333 95000=
15280 42999 40000 10038 20026 37519 47077 52001 84200=
15292 32998 01607 10229 20071 39868 40147 57008 333 95000=
15310 32598 12002 10226 20077 30083 40165 58005 81200=
15346 32697 11802 10221 20106 39889 40162 57011 81100 333 95090=
15350 32997 02103 10234 20049 30047 40159 57012=
15360 32997 01803 10222 20106 30169 40180 58002
222 00221 20000  333 92407=
15410 32997 01002 10245 20066 30056 40145 57019=
15420 32997 00602 10241 20036 30040 40144 57008 333 91003 91202=
15450 32998 01407 10240 20058 39940 40164 58006 333 91012=
15460 32997 02102 10258 20038 30132 40154 57015=
15470 32997 01101 10253 21027 30035 40154 57013=
15480 32597 20502 10232 20146 30159 40174 57008 82200
222// 00180 2//// 333 92417=
11423 11182 82504 10081 20081 39219 42719 53014 69991 70264
876//
333 87703=
11464 11181 72410 10085 20079 39105 42706 52010 69991 70164 8157/
333 81601 87457=
11487 11486 82704 10110 20080 39476 40083 53009 60031 76066
8687/
333 81816 86623 88457=
11518 11484 82404 10128 20103 39647 40073 52012 69991 76062 8587/
333 83813 85657 88465=
11603 11465 81803 10130 20104 39599 40066 50008 60021 70262
888//
333 83811 86630=
11659 01430 83101 10113 20107 39465 40088 53008 60021 76164
885//
333 60025 88615=
11782 32680 82002 10162 20116 39771 40073 51009 885//
333 88635=
54587 32975 01102 10212 20163 40117 52012=
10317 562//=
11101 11565 71302 10105 20084 39583 40097 51008 60051 76086 8357/
333 83630 86360=
11022 32568 72905 10158 20060 39698 40073 87800 333 55300 86828=
11028 32662 82505 10138 20093 39757 40090 885// 333 55300 88635 90419
91113=
11130 11150 82701 10098 20092 39535 40114 52015 60071 76362 885//
333 81702 88640=
11157 11570 89902 10109 20060 39342 40091 52016 69931 76362 885// 333
83622 87650=
11204 36/// /1302 10159 20098 39296 40048 333 55300=
11231 32670 89901 10189 20114 39515 40054 57011 888// 333 81845
83856 86657=
40582 32960 03210 10452 21018 40039 56014 333 00046=
60715 32960 21508 10328 20169 30096 40101 56028 81102
333 50471 81826=
60725 32565 31808 10349 20096 39939 40096 56028 82202
333 50551 82823=
60735 32962 3//// 10336 20167 30043 40119 57024 80002
333 50691 83070=
60760 32660 21506 10340 20138 30021 40118 58016 82500
333 51101 82640=
60765 32960 31008 10294 20202 30122 40128 58020 80002
333 50481 83073=
60769 32962 32606 10332 20161 30119 40122 57022 80002
333 50521 83070=
60775 32975 21108 10340 20096 39782 40115 57024 80002
333 51021 82070=
11146 11/00 92313 11016 21022 36882 47976 52003 60011 74574
333 89/00 91141 92612=
11172 11558 80000 10093 20058 52018 69921 72162 885// 333 88626=
83818=
17600 32580 12509 10269 20185 30077 40093 57010 81100
333 81830 92438=
17609 32581 11713 10272 20167 30084 40086 57011 81800
333 81830=
71805 11230 80508 10166 20164 30075 40102 58009 60451 76364 885//
333 10166 20157 83703 85613 88630=
51581 16/// /2200 10046 29056 30016 69951
555 1/132 2//00 /////=
83828=
57001 70086 85/// 91152=
57021 76188 87/// 91151=
17022 32670 10310 10211 20156 40160 57010 81100 333 8//34 92448=
17038 32570 72807 10226 20188 40171 50003 84250
333 84830 87360 92438=
17050 32970 01704 10268 20066 40153 57027=
17060 32660 20513 10244 20088 40146 57014 82100 333 82840=
17096 32570 33205 10246 20049 38223 48473 57011 83100
333 83830=
17124 32965 00806 10240 20082 39243 40122 57014=
17128 32670 40310 10240 20108 39060 40101 56010 84200 333 84840=
17170 32970 03009 10240 20089 38325 48493 51004=
17195 32670 10303 10272 20077 38938 48494 57017 81100
333 81840=
17200 32670 20508 10312 20138 39140 40061 57013 82100 333 82840=
17240 32675 31305 10270 20124 38990 40069 57013 83200 333
83835=
17244 32670 10205 10252 20109 38961 48489 57013 81100 333 81840=
17280 32970 00807 10340 20053 39309 40046 57009=
17350 32560 42009 10304 20207 40075 57010 84200 333
84830=
17026 32670 73306 10218 20152 40167 57007 84270 333
84235 87359 92428=
17034 11670 70000 10194 20146 40174 54000 60011 72582
84270 333 84835 87359 92438=
17070 32965 02004 10230 20113 39292 40127 57011=
17084 32670 40908 10236 20136 39262 40126 57007 84200 333
84835=
17090 32665 32902 10250 20086 38701 48486 57016 83100 333
83840=
17098 32670 43206 10225 20101 38201 48487 56005 84200 333
84835=
17150 32660 10117 10276 20087 40122 57016 81100 333 81835=
17160 32670 42504 10256 20094 38997 48499 57013 84200 333
84840=
17184 32970 23408 10296 20097 40101 57020 80001 333
82070=
17190 32670 31012 10244 20092 38998 48491 57018 82101 333
82840 83070 91022=
17210 32975 02903 10332 20147 39091 40049 58008=
17234 32970 02705 10314 20136 40087 57016=
17260 32670 30000 10326 20148 39288 40050 57009 83100
333 83840=
17290 32970 02206 10294 20149 40093 58004 333
92428=
17370 32665 63406 10288 20220 40094 58002 83230 333
83835 86360 92427=
17024 32670 40404 10214 20147 40172 57006 81140 333
81835 84360 92428=
17056 32670 20806 10245 20140 40154 57014 82200 333
82835 92428=
17067 32670 10505 10260 20195 40151 57012 81100 333 81840 92418=
17092 32670 22205 10280 20127 38832 48487 57018 82100
333 82840=
17112 32970 00512 10256 20085 40146 57011 333 92428=
17115 32960 00320 10240 20156 40140 57013=
17116 32965 00406 10270 20100 40144 57013=
17188 32670 13403 10270 20089 39079 40088 57014 81100 333
81840=
17202 32670 31203 10330 20064 39102 40076 57011 83100
333 83835=
17248 32675 10402 10260 20149 38940 48482 57018 81100 333
81840=
17292 32670 21803 10288 20109 39367 40082 58003 82200 333
82840=
17300 32570 21709 10280 20193 40087 57007 82100 333 82830=
17330 32970 02005 10294 20224 40089 57008=
17074 32670 53608 10199 20098 39245 40148 57013 84230
333 84835 85360=
17085 32670 30204 10233 20127 40143 56010 83200 333
83840=
17100 32970 03403 10304 20108 39130 40061 57015=
17203 32670 20000 10324 20162 38872 48553 58006 82100 333
82840=
17205 32980 00703 10250 20068 38320 48477 54000 333 92418=
17250 32675 10203 10267 20099 38772 48480 57017 81100 333
81840=
17255 32970 00000 10340 20168 39423 40045 57014=
17270 32670 21605 10342 20185 39450 40045 57008 82100 333
82840=
17275 32980 02007 10311 20171 38940 48497 57003=
17375 32675 22007 10286 20208 40090 54000 82200 333
82836 92428=
11406 01470 89902 10129 20097 39503 40070 50008 69981 72582
8527/
333 69905 85811 87360=
11457 01384 82205 10065 20056 38809 48418 50005 60051 72162
8452/
333 69905 84607 88458=
11520 11580 82303 10136 20113 39721 40075 52016 60021 70262 8682/
333 83820 83640 87459=
11636 01772 82803 10106 20100 39422 42727 53012 60011 76111
8802/
333 69985 88456=
11679 11562 89902 10131 20099 39608 40079 53011 69911 72122
886//
333 88720=
11723 11562 81502 10154 20120 39785 40072 51006 69901 72122 8452/
333 84630 88456=
11766 01365 81903 10110 20098 39216 42722 52008 69901 72052
887//
333 69905 87806=
11774 32570 81702 10165 20112 39811 40072 51009 885//
333 88630=
11787 01/00 91710 10075 20074 38598 48422 53013 69901 74564
333 69905 89/00 91121=
17042 11670 62902 10233 20175 40169 53001 60031 70282 83250 333
83835 86360 92428=
26313 41497 62104 10163 20110 30047 40053 52013 78086 83930=
26348 41398 81404 10121 20111 39934 40105 52013 70265 886// 333
88708=
26406 42570 62005 10169 20115 30055 40061 52015 86200 333 86822=
26416 41599 72104 10164 20106 39929 40062 52014 70282 84931 333
91111=
26422 41497 81804 10158 20136 30053 40074 52013 70262 882// 333
88818=
26544 41563 71805 10156 20121 39962 40107 51010 70282 86330   333
83927=
33317 42988 31704 10189 20055 39825 40148 58004 83030=
33393 42997 31705 10187 20082 39744 40116 58003 83030=
33587 42697 30000 10209 20070 39922 40172 52001 83100=
33631 41997 61204 10196 20092 39986 40123
58011 70282 86030=
33658 42997 50904 10201 20099 39856 40141 57009 85030=
33711 42698 32702 10210 20074 39978 40178 58005 83100=
33910 42598 33602 10244 20067 30151 40168 58003 83100=
33924 42598 20303 10212 20093 30176 40188 54000 81101=
33946 42697 23102 10228 20066 40167 58004 82100=
34300 42597 63007 10181 20077 39985 40167 54000 85101=
34519 42660 43204 10205 20067 39891 40151 53003 84200=
34601 42697 53604 10208 20086 40173 51003 85200=
17140 82965 00605 10220 20118 38700 48497 57010=
12205 11565 62103 10146 20107 30034 40042 52009 60021 70362 86302=
12465 32665 71904 10185 20134 39846 40068 52009 8583/=
12560 32698 72005 10179 20114 39748 40077 52006 8527/=
12120 11498 72101 10153 20115 30031 40038 50002 69911 72582 8633/=
12250 11596 81902 10169 20129 39968 40053 53006 69901 78022 889//=
12295 11470 81205 10155 20121 39917 40096 51005 69901 70162 888//=
12330 11462 82206 10146 20115 39947 40051 52015 69901 70162 8217/=
12375 32965 61604 10171 20132 39953 40078 52007 85032=
12424 11599 72303 10149 20112 39919 40066 51012 69901 78082 8337/=
12100 11456 72101 10134 20115 30033 40039 50008 69961 71082 873//=
12105 11497 80000 10134 20118 39997 40037 52004 69931 78082 8492/=
12135 32497 71704 10163 20131 30043 40046 51003 872//=
12185 32470 71506 10158 20132 39941 40071 52002 878//=
12195 32570 61805 10162 20121 39867 40086 52006 862//=
12235 11497 81604 10144 20123 39835 40038 58003 69921 70286 885//=
12270 32597 61805 10181 20124 39891 40065 53004 863//
333 91110=
12300 11565 72302 10133 20117 39961 40048 51014 60021 70186 8357/=
12360 32698 71903 10180 20128 39936 40064 52005 879//=
12385 11598 71804 10193 20126 39907 40088 51002 69901 70382 8123/
333 91110=
12400 32684 71901 10133 20108 39830 40058 51019 8693/=
12435 11565 82405 10160 20133 39903 40068 52019 69901 78082 889//=
12495 32998 71504 10182 20119 39811 40090 50000 8707/=
12510 11/90 91609 10031 20031 38277 48398 51017 60031 74565=
12520 11598 82603 10123 20099 39657 40079 53009 69901 78082 879//  333 91111=
12570 32598 81503 10189 20122 39776 40078 53002 82237=
12575 32997 81703 10184 20102 39845 40088 53008 8807/
333 91110=
12595 36/// /1905 10200 20100 39845 40104 54000 60011=
16622 32660 22308 10268 20184 30153 40158 58013 82400 333 90730
91113 555 30000 10266 20272 30268 40254 50262 40000 47649
44250 50000 50214=
16641 32470 51705 10260 20099 30141 40146 57008 82250
333 82820 85358 90730 91108 555 40000 47638 44230 50000 50170=
16682 32460 2//// 10266 20077 30130 40147 58006 82200 333
90730 911// 555 30000 10320 20310 30266 40252 50270 60274
40000 47633 44245 50000 50164=
16716 32565 20310 10290 20067 30118 40136 57012 82200 555 40000 47629
44280 50000 50170=
16749 32960 02512 10268 20166 30077 40090 56001 333 90730
91114 555 40000 47596 44265 50000 50204=
16754 32575 23213 10254 20136 30082 40127 57004 82200 333 90730 91120
555 40000 47600 44255 50000 50184=
16732 32970 03524 10248 20152 30109 40120 58005 222// 00244 333 90730
91132 555 40000 47618 44250 50000 50190=
16614 32475 21306 10248 20120 39390 40128 57018 82200 333 90730
91108=
16667 32975 03411 10274 20187 30115 40120 58007 333 90730 91116 555
30000 1//// 20284 30266 4//// 5//// 6//// 40000 47624 44265 50000
50218=
16675 32570 11405 10282 20082 30119 40140 57017 81100 333
90730 91109 555 30000 10302 20272 30250 40250 50262 60255
40000 47622 44220 50000 50172=
16710 32564 12705 10258 20077 39404 40131 58006 81100 333 90730 91108
555 30000 10256 20248 30214 40206 50230 60238 40000 47084 44220 50000
50158=
16738 32960 03415 10264 20068 39940 40127 53002 333 90730 91119 555
40000 47493 44260 50000 50160=
16746 32560 33412 10256 20126 39959 40134 58005 83200 333
90730 91118 555 40000 47507 44250 50000 50180=
16743 32575 20000 10258 20134 39958 40150 57008 82100
333 90730 91110 555 40000 47504 44240 50000 50186=
81401 22274 02320 2//// 3//// 80300=
57004 72622 8567/ 22243 04065 20101 318// 40402=
82460 22253 00228 20504 33335 40804 51004 80190=
54929 32980 00000 10234 20164 40147 52013=
54725 32965 00903 10226 20158 40148 52014=
54454 32970 00000 10206 20168 40168 52002=
51243 32880 71803 10166 20026 39661 40194 52007 82402 333
00203=
51288 32980 72705 10072 21047 38358 52007 80002 333 00452=
51463 32780 72206 10114 20050 39122 40208 52009 83402 333
00203=
52203 32780 61801 10186 20137 39248 40083 52007 82902 333
00552=
51053 32680 70000 10122 20026 40220 52006 81462 333 00302=
51334 32980 73202 10169 20073 40196 52009 87032 333 05204=
51379 32780 70000 10125 20062 40204 52011 81402 333 00654=
51542 32680 72203 10019 21023 37589 52015 82502 333 00101=
51642 32770 70000 10202 20082 40097 52007 86402 333 00553=
51346 32780 70902 10160 20059 40199 52007 874// 333 05206=
54539 32970 00000 10223 20178 30148 40162 52009=
57766 32962 00901 10290 20188 40099 52011=
54308 32965 61402 10219 20147 40163 52010 80002=
53399 32965 31803 10184 20085 40149 52002 80002=
51931 11865 83402 10213 20072 40090 52028 69901 76000 8652/
333// 00551=
51711 32680 20701 10148 21029 37990 52021 82102 333 00353=
56080 11680 73402 10120 20100 37186 52014 69951 70080 879//
333 00755=
52323 32980 23407 10134 20012 38218 52009 81042 333 00355=
52681 32980 30000 10215 20106 38601 40077 52002 82042 333
00852=
52787 32780 70000 10106 20019 37072 52004 875// 333 00752=
52996 31/07 91102 10112 20112 37598 52013 74600 333 00701=
52986 32780 80000 10178 20136 38111 52010 885// 333 00852=
52436 32980 10904 10222 20043 38410 40053 54000 81032 333
05103=
52446 32980 10904 10227 20071 40071 57001 80002 333 00551=
52424 32980 20903 10250 20060 40034 52010 80002 333 05107=
53821 32970 81401 10172 20153 40122 52007 8807/ 333 00452=
52895 32980 61401 10218 20136 40081 52008 86040 333 00600=
56074 11680 73604 10131 20079 36702 52009 69991 70098 879//
333 00452=
52661 32980 10402 10208 20058 38199 57007 81042 333 00402=
53593 32961 21604 10216 20127 40146 52009 80002=
54436 32970 30000 10212 20182 40170 52013 80002=
53882 32962 81801 10211 20139 40149 52008 8807/=
53863 32961 82202 10215 20171 40141 52004 8807/=
54429 32961 60701 10235 20191 40157 52013 82042=
54753 32962 00903 10205 20162 30145 40151 52010=
52447 32980 50904 10244 20051 40064 57005 82042 333 00301=
56137 32780 70000 10169 20109 36820 52007 83902 333// 00201=
56116 11680 70000 10136 20076 36378 52001 60021 70080 84442
333// 00351=
56223 32680 21805 10168 20046 36559 52011 82400 333// 00201=
56331 11680 60000 10127 20067 36443 52012 69901 70080 86900
333// 00200=
55228 32780 22505 10125 21107 36049 52002 82102 333 00252=
55248 32780 22506 10167 21142 35934 52001 82102 333 00102=
55437 32780 32504 10125 20009 36394 52005 83900 333 00252=
51087 32980 12706 10120 21041 39261 40211 52008 80002 333
00500=
51656 32780 70703 10207 20018 39058 40095 52014 84402 333
00652=
51765 32880 70000 10221 20148 39137 40084 52017 8253/ 333
00653=
51777 32970 70703 10241 20074 39088 40078 52022 80002 333
00653=
51467 32980 80000 10132 21004 38243 52007 8802/ 333 00204=
51495 32780 73421 10162 21006 40206 52008 82432 333 00555
91129 91534=
52118 32680 73403 10101 21038 38271 52013 86902 333 00457=
51186 32980 23401 10097 21030 40203 52006 80002 333 00552=
51526 32780 61401 10203 20083 40105 52008 81902 333 00654=
52101 32780 80000 10086 20031 38378 52019 889// 333 00556=
51855 32975 50203 10230 20055 40086 52025 80002 333 00553=
52313 32980 70407 10194 20008 38381 52010 85032 333 00252=
58259 32966 83604 10236 20209 40121 52008 8807/=
58040 32965 01104 10232 20188 30136 40140 52004=
58141 32970 00402 10203 20165 30122 40139 52011=
58138 32962 00201 10220 20177 40135 52012=
58345 32962 40204 10237 20180 40126 52013 84040=
58358 32971 83603 10243 20170 40116 52010 8807/=
55664 11880 21803 10131 20025 36052 57001 69901 70080 82200
333// 00201=
55773 32470 71803 10088 20042 36072 52005 86102 333// 00105=
55680 11780 63203 10121 20049 36273 52008 69901 72500 86900
333// 00200=
55572 32780 60000 10132 20046 36283 52006 86400 333// 00102=
55569 11780 60000 10135 20050 36257 57001 69901 70080 86400
333// 00104=
55655 11578 71603 36525 54000 69901 70080 86902 333// 00201=
54449 32962 00000 10190 20172 40165 52005=
54764 32970 03602 10226 20169 40155 52013=
55299 11780 51403 10120 20021 35905 52007 69901 70080 84902
333// 00204=
56106 11780 70000 10096 20058 36266 52016 69931 70080 879//
333// 00303=
55279 11780 12203 10122 21036 35757 52003 69901 70080 81400
333// 00202=
55472 11780 21403 10128 20000 35787 52006 69911 70080 82200
333// 00300=
56202 32680 62505 10105 20019 35918 52009 86900 333 00201=
55294 11780 30905 10084 20014 35777 57003 69941 70098 83400
333// 00201=
52866 11675 80000 10161 20111 37711 52010 69901 72160 8752/
333 00752=
56067 11680 70000 10109 20094 36583 52013 60041 70098 87900
333 00452=
56018 11680 72701 10121 20058 36225 52005 69901 70098 879//
333 00103=
52856 11580 21402 10180 20105 37221 52008 69901 70080 82400
333 00651=
52833 32980 71403 10180 20053 37081 57005 80002 333 00453=
56046 32580 71401 10125 20064 36304 52003 879// 333 00300=
51076 32980 62702 10100 21010 39352 40224 52011 81062 333
00500=
51156 32780 71403 10090 21004 38745 40230 52016 86402 333
00402=
51644 32980 72702 10189 20094 38899 40104 52012 82032 333
00403=
51730 32970 22701 10211 20127 40104 52017 80002 333 00651=
51068 32680 60000 10129 20018 40218 52008 81462 333 00401=
51367 32780 70403 10151 20050 40191 52010 81462 333 00005=
13585 42998 02303 10238 20062 39378 40125 57022=
13598 42698 22002 10218 20009 48509 57010 82100=
78894 36/// /1108 10290 20248 30105 40164 53016
333 10335 20268 55115 58020=
60020 11580 63406 10269 20187 30143 40186 58007 69961 70162 868//
333 92418=
60030 31570 40226 10262 20162 30123 40177 58002 70255 84800
333 92448=
60338 32970 12910 10270 20144 30056 40119 58008 81030
333 92427=
60710 32965 33208 10323 20135 30025 40099 56016 80002
333 50681 83070=
60714 32968 41207 10325 20146 30096 40103 57025 80002
333 50491 84070=
60720 32560 31810 10275 20208 30089 40124 57017 83200
333 50521 83820=
60723 32965 01808 10339 20098 39934 40108 58021
333 50621=
60728 32562 21510 10270 20249 30121 40125 58021 81202
333 5//// 81820 92447=
60734 32565 42006 10331 20063 39612 40094 57019 82202
333 50541 82820 83070=
60738 32565 32910 10272 20083 38934 48528 58009 83202
333 50491 83823=
60740 32565 41812 10320 20178 30118 40121 58022 82102
333 50671 82820 83070=
60745 32660 31806 10314 20141 39773 40123 58021 82502
333 50561 82633=
60748 32962 31306 10316 20158 39730 40123 58015 80002
333 50381 83070=
60750 32565 41810 10295 20227 30104 40135 57017 82202
333 50821 82820 83070=
60764 32965 21004 10343 20126 30075 40123 57024 80002
333 50811 82070=
60770 32960 01208 10340 20121 39967 40097 57023
333 50861=
60780 32965 01016 10348 20100 39830 40115 58022
333 52401=
89009 41440 73616 11504 36962 58011 73872 87600 333 11492
21528 87710=
78988 32483 31210 10288 20247 30116 40125 52014 83201
33310325 20264 59003 83817=
78990 31482 51212 10287 20248 30125 40132 52019 703// 84201
333 10332 20278 58000 84817=
78982 32484 50911 10295 20242 40120 52008 81201
333 10329 20271 59008 81818 85081=
78873 32570 31006 10294 20232 30121 40167 52015 82200
333 10321 20256 58019 70006 83820=
71893 32980 53104 10114 20099 30149 40180 52009 80001 333
10240 20114 55112 70000=
71896 31/00 90000 10038 20033 39400 40222 53002 74711 333 10191 20033
55067 70000=
71897 31/00 90905 10117 20117 30154 40186 51004 742// 896// 333
10155
20108 70000=
71898 36964 01003 10080 20073 30141 40184 58005 333 10171 20080
70005=
71899 32359 81904 10119 20117 30143 40193 57011 887// 333 10148
20102
70000=
71902 11574 83210 10059 20033 30126 40134 51002 60053 7616/
8652/ 333 10113 20048 70054 90999=
71905 11574 53508 10050 20044 30212 40225 52014 69941 72085 82530
333 10095 20050 55013 70028 90920=
71906 11374 60000 10036 21005 30123 40173 52013 69921 70351 85630
333 10124 20021 55/// 70012 90951=
71907 36464 60000 10034 20007 30174 40206 51006 333 10104 20020
70045=
71909 36364 83212 10030 20018 30107 40150 58001 333 10042 21003
70000=
71910 36464 82307 11006 21041 30090 40154 56007 333 10034 21017
70000=
71911 46464 81211 10057 39919 49973 56023 333 10100 20044=
71912 33974 22109 10047 20036 30047 40228 58017 82070 333
10173 20036 70000=
71913 36964 32213 10092 20052 30112 40148 56031 333 10184 20084
70005=
71915 11102 81509 10033 20033 30026 40108 57027 69941 75162
887// 333 10036 20002 55051 20877 70004 90962=
71917 32574 63609 11092 21105 30081 40095 52011 82570 333
11023 21096 48004 55000 10039 20332 70012=
71922 32874 62003 10088 20062 39763 40224 57002 85071 333 10170 20088
70000=
71924 31262 81116 11005 21013 39934 40020 55001 74022 885//
333 10006 21009 47002 55000 00094 22810 70010=
71925 32474 62405 10038 20031 39934 49969 52008 81530 333
10110 20037 55072 29949 70000=
71926 11659 82205 10092 20074 39987 40009 56016 60021 78082
8322/ 333 10164 20085 55086 00600 21109 70017 90927=
71928 36/64 /0000 10015 21009 39080 40235 53004 333 10192 20015
70000=
71816 11474 72609 10097 20079 30050 40110 51009 69901 70281
87500 333 10106 20078 55003 00288 70046 90920=
71817 36164 80000 10106 20102 30092 40106 58007 333 10147 20091
70000=
71818 32574 62107 10115 20086 30088 40106 58006 81578 333
10153 20092 55093 70000=
71821 37364 63207 10067 20053 39915 40261 53019 743// 333 10125
20057 70010=
71822 17564 33209 10049 20028 39750 40225 53012 60011 7//4/ 333
10118 20044 70015=
71825 32474 63105 10034 20021 39512 40181 52009 86500 333 10042 20004
55000 70088=
71827 11148 72905 10033 20031 39994 40238 52015 69961 75185 87700
333 10102 20029 55017 70022 90916=
71828 36764 80000 10020 20012 39533 40171 51011 333 10051 21007
70060=
71831 31574 72805 10065 20054 30013 40295 52007 71422 87500
333 10132 20065 70002=
71834 32974 22402 10043 20027 39893 40324 53007 80001 333
10129 20040 70000=
71836 36964 03006 10049 20048 30259 40271 53012 333 10145 20034
70000=
71842 31969 61603 10048 20043 39847 40328 50003 71141 82071
333 10142 20029 70000=
71845 33974 62403 10055 20032 39840 40316 51002 81071 333
10144 20053 70000 555 33021 40190=
71850 32974 71404 10073 20046 39818 40314 58004 82071 333 10142 20068
70000=
71852 36964 01506 10068 20031 30001 40295 56006 333 10162 20058
70000=
71854 33674 70000 10038 20036 39841 40316 58004 82581 333
10142 20020 55007 70000 555 32917 40200=
71855 37964 02703 10007 20004 39914 40290 54000 743// 333 10159
20005 70000=
71856 36964 00000 10033 20023 30015 40301 55006 333 10146 20032
70000=
71858 36/64 /2005 10043 20042 39997 40278 56009 333 10156 20015
70000=
71861 36964 01408 10020 21022 39556 40285 55002 333 10167 20018
70005=
71862 32974 71104 10063 20040 39579 40279 55003 87070 333
10169 20047 55071 70000=
71863 36964 01108 10058 20041 39569 40265 55004 333 10187 20057=
71865 46/64 /17// 10038 20019 39595 40276 5/004 333 10154=
71866 36964 01605 10047 20047 39644 40254 54000 333 10200 20045
70005=
71867 32974 11906 10061 20040 39918 40251 57006 81071 333
10160 20047 55116 70000=
71868 36964 01905 10037 20031 39832 40272 53001 333 10165 20016
70005=
71869 31974 40000 10030 20015 39733 40257 57001 71111 80001
333 10151 20030 55009 70004=
71870 36664 32109 10076 20046 39274 40235 56001 333 10190 20072
70000=
71872 32983 10000 10076 20061 39385 40226 52009 80001 333 10241 20074
55115 70000=
71874 36964 02306 10040 20021 39147 40229 53005 333 10221 20035
70000=
71876 32974 21206 10038 20025 39586 40246 53004 80001 333
10178 20037 70010=
71877 32974 00000 10051 20029 38978 40235 52002 333 10218
20039 55112 70000=
71878 32974 00000 10031 20009 39173 40238 53004 333 10201 20023 70000
=
71879 36964 02104 10071 20039 39422 40215 51005 333 10202 20067
70010=
71880 32982 02607 10104 20030 39133 40209 53012 333 10275 20097 55114
70000=
71881 36964 02803 10025 20014 39139 40223 51005 333 10213 20019
70000=
71882 36964 00000 10078 20073 39682 40207 51011 333 10261 20078
70005=
71883 36/// /0000 10016 20016 39421 40229 51002 333 10243 20016
70000=
71887 32983 00000 10099 20052 39789 40199 52010 333 10283 20056 55114
70000=
71889 32974 03505 10106 20044 39784 40192 52011 333 10263 20105 55099
70000=
71891 36964 00000 10114 20074 39926 40196 51009 333 10327 20114
70010=
71892 32983 00000 10131 20120 30171 40176 51005 333 10195 20126 70000
=
71931 36/64 /1904 10054 20051 39541 40219 51003 333 10182 20052
70000=
71932 36959 00000 10033 20030 39741 40190 51002 333 10205 20027
70005=
71933 36964 02305 10076 20069 39871 40154 53006 333 10206 20075
70005=
71934 32974 22102 10091 20058 39877 40128 52006 80001 333
10192 20087 55099 21368 70000=
71935 32974 42307 10118 20049 39915 40117 52006 84072 333
10210 20116 70000=
71938 32674 62516 10074 20036 39981 40009 53013 81531 333
10161 20062 55040 70000=
71940 32982 00000 10065 20044 39416 40209 52004 333 10226 20039 70000
=
71943 32974 01403 10084 20053 39378 40200 53005 333 10210 20083 55103
70000=
71944 36961 00000 10033 20023 39406 40228 55000 333 10202 20033
70000=
71945 32974 01905 10073 20053 39710 40169 52009 81030 333 10234 20070
55108 21541 70000=
71946 32974 72003 10127 20062 39897 40103 52008 80001 333
10216 20126 55071 70000=
71948 46900 02814 10038 39892 40000 51016 333 10105 20038=
71949 36/// /1701 10076 20026 39283 40131 51009 333 10168 20076=
71950 31904 00000 10035 20035 39589 40211 58001 74600 333 10201 20031
55071 70000=
71951 32974 03504 10096 20077 39935 40198 56002 333 10211 20096 55107
79999=
71957 36964 01403 10062 20023 39944 40029 51018 333 10175 20025
70000=
71958 36964 00603 10028 20026 39270 40201 50003 333 10168 20013
70005=
71964 32786 30000 10073 20045 39298 40135 53002 81571 333 10183 20067
55038 70000=
71966 36/// ///// 11003 21050 333 10174 21003 70094=
71968 469// 02311 10031 39952 40014 51011 333 10057 21004=
71725 36864 62805 10062 20048 39849 40266 53008 333 10122 20052
70010=
71726 36/64 /2603 10048 20037 39707 40245 53004 333 10112 20018
70008=
71727 11474 72608 10069 20049 30022 40219 52010 69901 72581
85830 333 10134 20040 70002 90910=
71728 32582 22607 10072 20040 39999 40219 53006 81430 333 10147 20047
55071 70000=
71730 32974 10000 10039 20028 39878 40306 52013 81040 333
10125 20026 55078 79999=
71731 32474 13604 10049 20046 39841 40295 53014 81170 333
10119 20031 55038 70002=
71733 36964 00202 10093 20066 30072 40310 51012 333 10145 20072
70000=
71738 33974 00000 10002 21002 39966 40324 51003 333 10136
21002 79999=
71749 36964 02404 10014 21004 30092 40341 53005 333 10154 21010
70000=
71799 31980 11402 10114 20093 30154 40177 52008 71100 80001
333 10226 20101 55109 70000=
71800 36/00 /1414 10157 20152 30084 40116 58017 333 10153 20149
70007=
71801 11/04 91618 10154 20148 39968 40138 58017 60011 75154
333 10163 20135 55038 70012 90983=
71802 36/// ///// 10188 20184 30039 40097 58006 333 70027=
71803 11156 81408 10168 20159 39935 40117 58010 60061 76054
887// 333 10197 20125 55076 70080 90973=
71807 36/// /1416 10181 20167 30104 40120 58010 333 10202 20170
70000=
71808 36964 00103 10126 20101 30063 40108 56004 333 10180 20096
70005=
71809 11262 80000 10140 20129 30077 40104 58005 60031 70265 886//
333 10218 20140 70292 90933=
71810 36/64 /3104 10076 20047 30084 40147 51013 333 10117 20061
70054=
71811 32583 12806 10068 20031 30105 40173 53011 81171 333 10117 20019
55009 20299 70000=
71813 36008 63402 10073 20068 30113 40126 50008 333 10157 20065
70000=
71814 36/// /0000 10100 20100 30111 40121 58001 333 10143 20052
70000=
71815 11274 73614 10147 20128 30072 40103 50000 69941 70166
87500 333 10229 20143 55095 70126 90963=
71043 32780 60000 10045 20032 39975 40066 53009 81571 333 10164 20028
55057 10242 20783 79999=
71045 36/// /1506 10113 20059 39312 40151 53001 333 10162 20098
70000=
71051 46/// /0301 11005 21006 39881 49992 51018 333 10066 21007=
71066 32974 00000 10033 20012 39760 40172 51010 333 10204 20023 55099
70000=
71068 32974 10000 10038 20024 39518 40201 51011 81040 333 10214 20034
70000=
71069 36961 01902 10033 20007 39513 40212 53006 333 10180 20028
70005=
71076 46/// /2302 10108 20108 39766 40150 53002 333 10170 20081=
71077 36/64 /0000 10067 20066 39683 40206 56005 333 10153 20067
70000=
71078 32974 22306 10079 20047 39763 40199 57014 80001 333
10153 20078 55054 70000=
71079 32774 72208 10075 20051 39956 40231 56016 86570 333 10172 20045
55110 70000=
71081 36964 01410 10010 21023 30080 40091 58012 333 10011 21011
70000=
71082 36964 03302 11072 21085 30061 40101 53016 333 11040 21073
70000=
71083 11574 82012 10087 20062 30013 40049 58034 69901 78082 8257/
333 10157 20086 79999 90910=
71090 36764 83205 10011 21006 30070 40104 51006 333 10044 21002
70000=
71091 460// /2006 11016 39923 40129 53004 333 10023 21016=
71092 46264 82307 11041 39483 40141 51003 333 10013 21042=
71093 460// /2615 11004 39632 40121 50002 333 10000 21004=
71094 46904 03606 11015 39220 40106 51002 333 11010 21020=
71095 36964 01405 11018 21059 30022 40093 58008 333 10009 21048
70000=
71101 36019 62608 10107 20107 30183 40191 56006 333 10166 20107
70000=
71104 32974 00000 10038 20016 39119 40213 50000 333 10226 20037 55101
70000=
71108 32974 00000 10114 20077 30107 40177 52004 333 10251 20111 55088
70000=
71109 11259 82602 10106 20100 30169 40195 51001 69921 75155 886//
333 10147 20105 55002 20786 70006 90973=
71397 32874 23405 10128 20072 30126 40160 51010 81072 333
10248 20099 70000=
71398 36/64 /0104 10132 20092 30097 40145 50007 333 10213 20077
70000=
71400 17/64 ///// 10175 20146 39976 40102 58003 60121 7//4/ 333
10222 20131 4/200 70240=
71410 36/64 /3208 10106 20059 30138 40166 50006 333 10227 20082
70000=
71411 36/64 /0202 10152 20104 30148 40158 51015 333 10181 20089
70000=
71412 36/// ///20 10156 20141 30113 40126 53008 333 10163 20130
70000=
71430 36/64 /3610 10091 20076 30166 40262 53019 333 10221 20072
70000=
71431 36/// /3405 10094 20054 30182 40277 53020 333 10192 20080
70000=
71432 36/64 /0318 10129 20096 30181 40277 53021 333 10202 20128
70000=
71435 36/// /0000 11015 21166 39742 40346 5/003 333 10118 21017
70000=
71436 17/// /0104 10075 20060 39930 40291 53017 69921 7//4/ 333
10136 20059 70002=
71441 36/// /1103 10054 20036 39983 40292 56007 333 10162 20050
70000=
71443 36/64 /2302 10013 21017 39876 40290 56007 333 10161 20013
70000=
71474 36964 00000 10047 21004 38997 40209 55000 333 10246 20046
70005=
71538 32774 20509 10113 20037 30062 40293 52017 82500 333
10191 20095 70000=
71600 17461 83525 10175 20153 30054 40060 53015 69951 7//4/ 333
10189 20171 70015=
71601 32974 13411 10139 20091 30073 40135 50004 80001 333
10202 20122 55070 70000=
71114 36964 00807 10148 20111 30132 40179 53004 333 10288 20139
70005=
71120 32974 10000 10048 20032 39577 40229 51009 80001 333
10179 20048 55062 70012=
71122 36/64 ///// 10021 20007 38664 40247 51007 333 10225 20017
70000=
71123 32974 10000 10014 20010 39365 40224 50004 80001 333
10206 20011 55116 70000=
71125 33874 12405 10072 20029 39649 40229 53008 81500 333
10190 20068 55059 79999=
71129 32974 21606 10061 20053 39414 40235 52002 80001 333
10218 20059 55065 70000=
71130 33974 51910 10047 20026 39801 40256 54000 80006 333
10184 20044 55073 70000=
71131 36/02 /1506 10075 20075 38994 40236 53004 333 10179 20075
70000=
71135 46/06 /1407 10072 20070 39180 40261 55004 333 10136 20070=
71138 32966 11710 10030 20020 39675 40282 58007 81070 333
10162 20028 55070 70000=
71140 32974 20404 10021 20006 39795 40299 55003 80001 333 10165 20019
55097 70000=
71141 31974 20000 10030 20027 39990 40269 57009 71100 80001
333 10151 20021 70000=
71145 32674 72306 10091 20047 39991 40284 58006 85531 333
10157 20088 70000=
71148 36/// /0805 10067 20046 39723 40303 55004 333 10152 20057
70000=
71182 36464 83311 10031 20013 39624 40160 53014 333 10074 20023
70138=
71185 36564 60000 10144 20109 30082 40105 51001 333 10190 20133
70000=
71187 36964 03206 10080 20047 30162 40189 51006 333 10167 20000
70055=
71188 32574 62909 10089 20039 30109 40149 50006 86570 333
10192 20024 55040 70000=
71196 37016 81622 10153 20151 30098 40134 56012 743// 333 10168
20129 70000=
71200 36/// /0303 10117 20117 333 10238 20111 70000=
71603 32474 50107 10122 20092 30110 40162 50012 81131 333
10204 20108 70000=
71607 36/// /0503 10097 20043 30162 40194 51015 333 10240 20077
70000=
71609 32774 33611 10098 20039 30044 40177 52017 82570 333 10206 20084
70000=
71610 36964 02504 10057 20052 39934 40229 53016 333 10193 20034
70005=
71621 32974 03405 10079 20054 30166 40272 53022 333 10205
20062 70000=
71624 32574 13508 10077 20034 30073 40286 53020 81500 333
10190 20068 55049 70000=
71625 36964 02402 10056 20048 30117 40279 53016 333 10147 20028
70000=
71627 36964 03505 10095 20054 30200 40244 53019 333 10195 20062
70000=
71628 32180 13206 10087 20068 30122 40262 53018 81600 333
10175 20058 70000=
71630 32974 03404 10042 20036 39947 40294 52016 333 10133
20027 70000=
71631 36/64 /0000 10038 20038 39793 40298 53022 333 10127 20013
70000=
71633 32674 20203 10110 20059 30028 40300 52017 82500 333
10142 20093 55041 70000=
71700 32974 30000 10091 20042 30161 40186 51011 82031 333 10242 20045
70000=
71705 32674 23208 10087 20035 30075 40161 51006 81501 333
10244 20063 55116 70000=
71707 31474 83514 10159 20128 30032 40107 55000 70291 82502
333 10180 20155 70016=
71709 33480 73516 10133 20093 30118 40131 50010 83102 333 10174 20115
55111 70000=
71711 32974 52708 10079 20044 30128 40178 51008 83071 333 10197 20048
55026 70002=
71714 36/// /3304 10073 20047 30136 40228 51015 333 10166 20038
70000=
71715 36/64 /0000 10084 20055 30028 40210 53010 333 10183 20037
70016=
71718 32883 12307 10077 20050 30130 40195 51012 81071 333 10168 20045
55057 70022=
71719 36/// /3210 10101 20042 30142 40148 50008 333 10187 20082
4/999 70000=
71851 36/// /1002 10043 20042 39960 40297 55005 333 10152 20043
70002=
71873 36/64 /1603 10027 20007 39303 40244 53004 333 10222 20027
70000=
71875 36964 02711 10060 20044 38870 40232 51002 333 20046=
71197 36464 83411 10167 20138 30054 40102 55001 333 10167 20146
70090=
71702 36/// /3010 10124 20096 30118 40144 50000 333 10218 20094
70000=
71717 32574 23004 10090 20039 30127 40167 51006 81131 333
10229 20046 70000=
71732 36/// /1401 10065 20057 333 10120 20045 4/001 70000=
71826 36/// /3307 10048 20006 30080 40109 53002 333 10044 20036
70000=
71846 36/64 /2305 10045 20035 39979 40291 50002 333 10161 20038
70002=
71450 36/// /1308 10096 20081 39537 40248 55002 333 10195 20068
70000=
71475 36/// /3202 10089 20080 30093 40185 51007 333 10276 20089
70000=
71952 36/// /0000 10009 20009 39373 40216 50001 333 10214 20002
70000=
71967 36/// /1002 10043 333 10160 20000 70000=
71201 36/// ///// 10138 333 10203 20135 70002=
71075 36/// /2210 10082 20078 39575 40170 56012 333 10150 20077
70000=
71096 460// /3607 11014 39412 40136 53004 333 11003 21020=
71629 32574 13503 10082 20052 30047 40282 52018 81100 333
10179 20061 70000=
71434 36/// /2603 10010 30189 40255 58002 333 10123 20005 70000=
71261 36/// /0705 10084 20067 30034 40296 53017 333 10167 20048
70000=
71265 36964 03610 10107 20052 30189 40283 53020 333 10198 20096
70000=
71103 36002 80000 10057 20051 39567 40219 51004 333 10223 20041
70000=
71107 17/// /3116 10108 20108 30087 40199 58002 69921 7//4/ 333
20107 70002=
71115 36/// /0903 10098 20054 39622 40189 53009 333 10271 20097
70000=
71121 36964 02306 10073 20054 39403 40217 51005 333 10200 20056
70010=
71143 36/// /2109 10092 20064 39969 40284 56009 333 10140 20090
70000=
78384 32560 71910 10288 20251 40111 81139
333 0/669 10323 20278 59006 81822 84358 87070=
60141 32960 03204 10236 20136 39475 40115
333 95400 95800=
68024 41960 00205 10242 21025 48518 58020 70400=
68038 42960 61412 10230 20113 48544 57012 86080=
68040 41560 81116 10170 20091 48517 58012 70722 8757/=
68234 41560 80722 10150 20084 48537 57006 70722 8558/=
60285 32550 70220 10218 20173 40146 58004 875//
333 87616=
94120 46/// /2704 10271 20244 30094 40134=
94122 46/// /3305 10270 20228 30126 40135=
94150 46/// /0000 10227 20212 30070 40131=
94203 46/// /2005 10268 20159 30124 40135=
94212 46/// /1609 10297 20026 39667 40143=
94216 46/// /3606 10297 20209 30076 40126=
94238 46/// /1010 10249 20050 39747 40175=
94268 46/// /2105 10244 20229 30120 40132=
94283 46/// /3004 10202 20193 30132 40143=
94287 46/// /0000 10211 20194 30139 40148=
94294 46/// /3402 10216 20206 30150 40160=
94296 35/// /1310 10248 30142 40152 52008=
94298 35/// /0906 10239 30151 40157 52008=
94299 46/// /1211 10243 20201 30138 40149=
94300 46/// /1813 10197 20144 30170 40180=
94302 46/// /2105 10210 20151 30169 40175=
94312 46/// /2505 10230 20141 30150 40160=
94317 46/// /2106 10238 20037 39590 40187=
94319 46/// /1605 10225 20021 39830 40166=
94326 46/// /0603 10132 21002 39588 40216=
94332 46/// /1707 10205 20017 39793 40184=
94346 46/// /1907 10159 21029 39953 40177=
94363 46/// /2508 10206 20046 39921 40140=
94367 46/// /3509 10224 20210 30106 40144=
94374 46/// /0205 10219 20191 30137 40154=
94393 35/// /0308 10225 30151 40161 52012=
94394 35/// /0310 10223 30151 40159 52003=
94403 46/// /1405 10110 20098 30178 40220=
94429 46/// /1906 10214 21024 39714 40188=
94430 46/// /1605 10225 21069 39578 40173=
94461 46/// /1306 10194 21051 39517 40198=
94462 46/// /1101 10145 20000 39639 40204=
94510 46/// /0000 10173 20072 39838 40193=
94515 46/// /2417 10155 20118 39834 40190=
94552 46/// /0000 10108 20043 39694 40168=
94578 46/// /1603 10190 20175 30152 40163=
94584 46/// /3410 10189 20179 30042 40153=
94601 46/// /2925 10155 20124 30158 40175=
94610 46/// /2605 10168 20112 30182 40207=
94637 46/// /2604 10183 21025 39754 40188=
94638 46/// /3008 10147 20106 30137 40169=
94647 46/// /0107 10159 20049 30063 40185=
94651 46/// /0807 10114 20077 30124 40202=
94653 46/// /0505 10093 20079 30195 40214=
94659 46/// /1801 10165 20043 30019 40217=
94672 46/// /3306 10123 20098 30202 40207=
94693 46/// /2004 10115 20064 30143 40206=
94703 46/// /0000 10104 20084 30077 4////=
94710 46/// /0000 10087 20053 39951 40210=
94729 46/// /0000 10061 20044 39335 40202=
94750 46/// /1701 10129 20110 30054 4////=
94767 46/// /2508 10160 20064 30170 40176=
94776 46/// /3605 10148 20111 30171 40181=
94791 46/// /0000 10139 20129 30171 40178=
94802 46/// /2506 10148 20117 30077 40160=
94804 46/// /2918 10149 20124 30149 40188=
94821 46/// /3409 10113 20105 30087 40171=
94850 46/// /3022 10130 20095 30092 40138=
94865 46/// /3607 10109 20074 30153 40178=
94893 46/// /2912 10120 20077 30036 40153=
94907 46/// /3604 10101 20087 30162 40172=
94910 46/// /0000 10071 20058 39947 40203=
94926 46/// /0404 10080 20049 39512 40195=
94954 46/// /2916 10127 20094 30013 40125=
94956 46/// /3321 10127 20092 30069 40095=
94968 46/// /3414 10103 20063 39905 40120=
94975 46/// /3507 10130 20048 30043 40076=
94983 46/// /3013 10119 20084 30098 40123=
94995 46/// /2305 10178 20143 30170 40178=
94996 46/// /0105 10178 20165 30065 40196=
94998 46/// /0122 10061 20061 39957 49967=
95719 46/// /1905 10089 20062 39863 40202=
96995 46/// /1314 10237 20219 39825 40121=
96996 47/// /1114 10259 20225 30125 40130 52012 7//44=
89564 41750 71322 11158 21207 39856 49877 52009 77172 8152/
333 11131=
89571 41781 71504 11129 21186 39817 49846 52007 70222 8457/
333 11101=
89611 41560 71708 11111 21145 39718 49772 52009 70277 8157/
333 11047=
94974 35/// /3422 10129 30068 40091 57005=
95288 35/// /0908 10246 30123 40138 52007=
95872 46/// /0110=
89002 41/90 90953 11171 21193 39621 49674 53006 73933 89///
333 00877 11154 21178 92991=
78388 32578 52403 10265 20235 40119 81233
333 01009 10323 20243 58000 81822 84070=
68994 32497 53521 10071 20028 30176 40203 57004 84530
222// 00056 20000 300// 40000
333 10080 20003 91029 555 91020=
85406 32560 82502 10156 20110 40182 52011 885//
333 20149 30/// 55031 56099 88620=
85418 32560 61505 10142 20088 40187 53009 86500
333 20136 30/// 55097 56000 86623=
85432 32984 00818 10006 21066 37788 48506 53014
333 21022 30/// 5///0 55111=
85442 32565 62002 10133 20098 40199 53013 86500
333 20114 30/// 50470 55108 56000 86622=
85469 42570 83406 10202 20168 40190 57012 84200
333 56600 84820=
85470 31/05 90802 10071 20059 40193 52013 7454/
333 20045 30/// 50600 55099 89/01=
85488 11108 82903 10101 20095 40196 53021 69924 75042 886//
333 20067 30008 50100 55105 56099 70002 88703=
85574 31915 00000 10045 20038 40225 52010 71044
333 20025 32001 50020 55077 =
85585 32598 71505 10110 20061 40245 54001 69914 87800
333 20110 31/// 55002 56400 70001 83825 84630=
85586 32960 01203 10088 20080 40206 54///
333 20046 31/// 50130 55104=
85682 32965 02704 10089 20053 40228 53010
333 20065 70000=
85743 32960 00000 10017 20010 40261 50008
333 21010 31/// 50580 55///=
85766 33480 10000 10014 20012 40268 52006 81500
333 20004 30/// 55091 56000 81618=
85782 32460 81705 10070 20066 40267 54/// 885//
333 20010 31/// 56599 88615=
85799 31225 72303 10052 20049 40277 54001 71044 87500
333 20012 31/// 55087 56400 84704 87609=
85836 32670 62316 10086 20026 40250 53010 86200
333 20012 30/// 56600 86844=
85864 32680 21606 10072 20028 40208 53011 82100
333 20059 30/// 55096 56600 82835=
85874 32980 12820 10051 21009 39560 40184 52028 80001
333 20042 30/// 55091 56006 70000 81070=
85892 32670 62508 10082 20002 40176 57010 86200
333 20008 31/// 56600 86835=
85930 01596 82630 10040 20016 40176 52079 60244 71666 885//
333 20030 32/// 56599 70010 88722=
85934 12480 22312 10044 21020 40141 57094 69904 82100
333 20034 30/// 55019 56500 70000 82816 =
85972 01596 82725 10010 20005 40084 52078 60204 76066 887//
333 20005 31/// 56699 70196 88727=
61600 32960 33208 10323 20276 30100 40105 80002
333 0//00 59036 83073=
61627 32460 52404 10320 20271 30069 40092 83530
333 0//00 59035 83616 83363=
61630 32460 62804 10326 20257 30088 40107 86200
333 0//00 59002 86816 94939 95879=
61641 32462 43208 10306 20262 30080 40112 84230
333 0//00 59040 84817=
61679 32462 63212 10322 20282 30114 40122 86200
333 0//00 59031 86816 94939 95829=
61687 32460 62210 10306 20250 30060 40116 86200
333 0//00 59027 86815 94919 95879=
61695 32465 62408 10324 20269 30102 40128 83230
333 0//00 59006 83816 85363 94914 95834=
91753 36/// /1310 10264 20229 40131 50000
333 10300 55108 22450 58003=
91754 06/// /1006 10256 20231 40138 60021
333 10295 55059 2//// 60017=
91577 36/// /0000 10189 20161 40174 50006
333 10262 55101 22394 58008=
91579 36/// /0806 10212 20174 40175 51006
333 10270=
91582 36/// /1004 10205 20163 40177 51002
333 10260 55090 22229 58007=
91583 36/// /18// 10196 20170 40178 50005
333 10261 55093 22339 58007=
91587 36/// /2602 10126 20123 30136 40188 50002=
91590 32770 10000 10184 20158 40178 50006 81500
333 10287 55111 2//// 56000 58006 81650=
91592 32965 00812 10205 20165 40177 50005
333 10254 55114 22313 56000 58006=
78906 31580 10000 10277 20240 30156 40161 702// 81201
333 10312 20244 58021 81824=
78905 11480 40000 10273 20253 30140 40156 60103 725// 84201
333 10315 20235 58022 84819 90919=
71623 32974 00102 10068 20036 39955 40294 51023 333 10191 20049 70000
=
71706 32474 70107 10143 20111 30082 40141 50007 87800 333 10214 20107
70000=
71819 11274 81402 10118 20107 30067 40101 58008 69923 72022 886//
333 10161 20110 70002 90931=
71894 36/// ///// 10090 20089 30168 40177 53005 333 10184 20089
70000=
71473 36/// /2304 10147 20133 30143 40172 51006 333 10222 20145
70000=
65030 32470 72502 10276 20207 39332 40105 83238
333 59015 83815 86362 =
65134 12370 70414 10210 20178 38722 69941 72162 87208
333 59010 87809 =
65201 32458 71508 10265 20243 40131 879//
333 59011 87814 81920 94699 =
65208 32470 72405 10258 20229 40127 84238
333 59009 84813 87360 =
65243 11470 71608 10280 20242 4//// 69931 72162 86238
333 5//// 86814 =
65273 11465 71807 10265 20245 60011 72162 86938
333 5//// 86813 81922 94699 =
65306 11560 71806 10258 20217 39776 40104 60041 70162 83832
333 59011 82620 83363 85076 94908 95818 =
65319 11458 70000 10217 20192 39600 40116 60131 79596 8397/
333 59005 81613 81930 88461 94969 95834=
65330 11460 83004 10225 20209 39682 40124 60361 79596 8597/
333 59015 84610 81930 88461 94942 95832=
65335 32460 70000 10284 20234 39886 40111 878//
333 59011 83613 86826 94919 95839=
65344 32460 72414 10285 20235 30107 40117 85972
333 59019 83815 81923 85360 94968 95838=
68906 32598 42312 10119 20046 30118 40183 54000 83240
222// 00098 20000 321// 40502
333 10131 20079 91030 555 91018=
71735 32874 73007 10068 20034 39986 40287 52012 87050 333
10132 20050 79999 555 33321 40070=
71739 31774 72805 10062 20039 39929 40293 51012 71411 87500
333 10126 20043 79999=
45007 32556 70803 10297 20233 30067 40076 53013 8113/
333  10333 58005 70000 81830 87359 =
47101 32677 10000 10184 20132 30068 40157 52014 81500 333 10251
30019 55048 21333=
47105 32668 82704 10192 20146 30133 40163 52006 69992 8453/ 333
10238 31021 55000 20270=
47108 32973 70503 10225 20142 30044 40145 52014 87500 333 10260
31021 55047 21196=
47115 12562 70210 10175 20159 39879 40135 57006 60052 85720 333
10189 31017 55000 70102 92043=
47133 32970 01404 10200 20166 30060 40140 51009 333 10238 30020
55003 20730 70003=
47138 11662 83608 10206 20179 30135 40139 52003 60132 72166 8452/
333 10226 31020 27115 70143 92043=
47159 11580 70509 10204 20183 30045 40125 50006 60142 70262 87500
333 10215 31019 20313 70157 92022=
47165 11562 71104 10220 20217 30080 40123 52011 60072 70162 83520
333 10225 31024 20533 70229 92022=
47168 11568 50512 10223 20171 30048 40124 52008 60032 72166 82530
333 10230 31021 55000 70035 92022=
47184 12680 60904 10226 20194 30092 40118 52014 60052 83520 333
10231 30021 20313 70084 92033=
26038 41497 81404 10122 20113 30020 40064 52011 72582 889//   333
86914   555 11013=
26045 42698 81606 10148 20098 30083 40087 52007 885//   333 91112
555 11019=
26058 42598 71503 10164 20083 40098 54000 87900=
26115 41497 71902 10136 20127 30022 40035 52013 72582 85950   555
12016=
26135 41497 81404 10123 20104 39996 40073 52005 70282 889//   333
88917   555 11013=
26141 41498 81607 10128 20101 40079 53003 72511 883//   333 88917
91113=
26242 41498 81705 10128 20109 30008 40092 52008 70282 883//   333
83714   555 11013=
26247 41498 81702 10130 20113 30012 40091 52008 70282 885//   555
11014=
47090 32665 32703 10184 20145 30148 40168 52009 83500 333 10234
31018 92021=
47095 32975 00209 10175 20127 39977 40157 52017 333 10259 30016
55087=
47100 11260 80502 10141 20132 39208 40162 50004 69962 76064 8672/
333 10150 31014 20261 70006=
47106 11565 82703 10178 20148 30119 40163 53002 69992 72162 8672/
333 10197 31019 70009=
47112 32575 71103 10240 20152 30063 40141 52013 87500 333 10283
30024 21535 92022=
47114 32973 03604 10192 20135 39974 40147 52010 333 10240 30017
55016 20618=
47119 32675 60705 10224 20135 30104 40143 52011 86500 333 10256
30020 21402=
47121 12970 21402 10174 20130 39875 40150 53002 69922 82030 333
10206 31017 70002=
47129 32965 60704 10215 20145 30109 40147 52020 86030 333 10260
30022 55096 21870=
47130 11665 83206 10181 20160 30096 40154 53004 60042 72166 8252/
333 10189 31018 55000 70219 92022=
47131 32965 21801 10204 20157 30075 40141 52012 80001 333 10245
30018 55004 20766=
47135 12665 60702 10180 20159 39863 40147 52008 60052 86500 333
10195 31018 55000 20273 70409=
47136 12968 20000 10167 20151 39979 40144 51001 60042 80001 333
10200 31016 55023 20257 70330=
47140 32665 30913 10216 20175 30097 40132 52012 83500 333 10249
30020 55045 70000 92011=
47143 12668 81802 10207 20183 30075 40141 51008 60042 8452/ 333
10230 31019 20005 70111=
47146 12968 01403 10206 20180 30070 40134 52014 69952 333 10257
31020 20690 70294=
47152 11568 83603 10195 20173 30094 40133 58003 60192 8552/ 333
10211 31021 70214=
47155 12665 83605 10216 20163 30126 40131 52010 60232 8552/ 333
10229 31019 55000 70227 92022=
47156 12975 20503 10206 20183 30042 40127 52011 60182 82040 333
10229 31019 55005 20564 71106=
47162 12662 83604 10210 20183 30091 40129 52011 60022 8452/ 333
10240 31021 55001 70029 92022=
47170 12670 31107 10214 20179 30083 40123 52012 60022 83500 333
10225 31021 70022 92023=
47185 11575 82712 10239 20194 30015 40096 52010 69902 72160 8552/
333 10278 30024 21172 70001 92044=
47189 12665 70514 10232 20200 30048 40106 52011 60172 83530 333
10253 31021 70182 92022=
47192 12670 73602 10198 20171 30113 40138 52013 60122 87500 333
10225 31020 55000 20387 70280=
51468 16/// /2005 11018 29013 36573 60001
555 1/131 2//00 /////=
12160 11598 71504 10171 20135 39999 40050 55001 69901 70182 81236=
12210 11598 72701 10140 20112 39973 40039 52009 69951 70282 872//=
12230 11356 82303 10134 20125 39954 40041 53007 69901 71064 886//=
12310 11558 72002 10146 20117 30018 40047 51007 60031 71082 879//=
12399 32998 61703 10188 20120 39939 40100 54000 86030=
12418 11698 82402 10142 20110 39952 40063 51021 69931 70262 8157/=
12469 32698 71801 10181 20137 39849 40070 50005 8357/=
12488 32997 71604 10183 20124 39935 40083 50001 83038=
12540 32597 82503 10168 20117 39832 40073 51006 8457/=
12566 11665 71603 10167 20128 39805 40084 53012 69961 76122 8557/=
12625 11570 72503 10122 20084 39117 42736 52006 60011 78022 8527/
333 91113=
12690 32599 71404 10150 20088 39621 40113 50001 875//
333 91111=
12115 11497 72302 10143 20111 30027 40040 53007 69901 78082 873//=
12125 32597 81601 10153 20114 39990 40039 52002 8522/=
12200 32465 51802 10159 20106 30030 40036 51011 85200=
12215 16/// /9902 10125 20119 39872 40045 52003 60021=
12272 32470 71504 10160 20115 39901 40062 50003 8683/=
12280 11460 71704 10155 20121 39918 40074 50003 69901 70182 878//=
12285 36/// /9903 10167 20118 39968 40079 52007 60051=
12345 32570 72504 10177 20117 39924 40062 52011 879//=
12415 11698 82302 10160 20100 39917 40064 51014 69901 70182 8437/=
12455 11665 72202 10172 20121 39835 40070 51014 69911 70182 8127/=
12497 32470 71906 10203 20179 39892 40101 58001 84538=
12500 11598 82601 10137 20083 39663 40066 51010 69911 70182 875//  333 91110=
12530 32598 72002 10179 20120 39879 40070 51011 8483/=
12550 32570 62003 10187 20105 39726 40067 51005 8227/=
12580 32780 81503 10176 20108 39866 40101 53006 8457/
333 91112=
12585 32698 71705 10176 20112 39835 40090 55001 8357/=
12600 11558 82203 10149 20105 39615 40080 52016 69901 76522 8457/=
12650 11/00 92110 10033 20033 37939 48434 52003 60051 78044
333 91020 91124=
12660 11570 82602 10154 20107 39753 40099 52014 69931 72582 883//
333 91112=
36911 42698 83002 10162 20040 39254 40177 52008 889//=
36982 42598 62212 21111 36540 47092 53020 84230=
38345 42799 52405 10154 20009 38831 48538 52019=
38613 42999 02702 10220 21012 39293 40142 54000 555 10036=
83708 87613=
16597 32570 12208 10269 20178 30071 40155 55006 81202 333 81822 =
16059 32569 71602 10196 20080 39678 40009 57034 87200
333 84824 83830=
16080 11565 50909 10193 20155 39906 40025 57023 60031 70292 85100
333 85830=
16045 11450 80000 10172 20168 30002 40064 58022 60041 76162 889//
91145 333 55300 83915 85820=
16105 31557 80208 10190 20148 30049 40055 57018 71022 8353/
333 83630 85458=
16191 32580 81309 10218 20142 30070 40087 57017 81152
333 81820 83358=
16158 11456 82019 10240 20191 30059 40066 58020 69921 79592 889//
91145 333 55300 83818 83920=
16242 31558 61414 10249 20183 30114 40117 58013 71011 83230
333 83220 84350 555 0////=
16310 32698 21309 10246 20168 39916 40128 58002 82100 91145 333
55310 82840 555 0100/=
16261 32975 22110 10290 20102 30039 40107 57013 81031 91145 333
55310 81362 95000=
16320 32560 31215 10250 20217 30113 40125 58018 83100 91145 333
55310 83830 0323/=
16420 32598 33505 10282 20187 30075 40136 58010 83200 91145 333
55310 83830 555 0200/=
16429 32570 32010 10278 20206 30127 40137 58013 83500 91145 333
55310 83620=
16470 32465 41922 10258 20189 39901 40127 58019 84200 91145 333
55310 22/// 84817 95010=
16410 32970 01007 10252 20155 39998 40133 58010 91145=
16560 32975 21415 10258 20197 30102 40108 57024 81031 91145 333
55308 81360=
16650 32965 00311 10250 20104 30137 40141 57016
333 90730 91119 555 30000 20334 30308 40276 50284
40000 47639 44265 50000 50168=
84710 88640=
16734 32570 13214 10258 20149 30082 40144 56005 81200 333 30///
90730 91118 555 40000 47599 44250 50000 50192=
16066 31660 71005 10189 20139 39779 40026
56026 70221 84240 333 84835 83357=
16084 32570 72005 10234 20136 39860 40017 57026 84530 91145 333
55305 84625 85358=
16120 31570 71418 10223 20182 30025 40028 55028 70262 83270
333 83820 86358 97070 555 0340/=
16090 11665 70908 10186 20174 39968 40048 58014 60041 70262 84250
91145 333 55300 84840 84358=
16170 32560 82011 10243 20168 30015 40058 57022 8427/
333 84235 85657=
16206 11450 81925 10220 20196 30084 40092 57015 69941 76162 8532/
91145 333 81918 83623 85463=
16289 32560 32107 10238 20166 30047 40130 57011 83200 333 83830=
16405 32960 00308 10252 20163 30097 40136 57015=
16460 32570 31207 10291 20137 30117 40136 57014 81102
333 81830 95000=
16362 32560 22711 10245 20148 30119 40136 57013 82200
333 82820=
26554 41965 71503 10157 20098 39965 40122 52006 70286 87030   555
11016=
26666 42660 51704 10183 20077 39945 40150 54000 83250   333 91110
555 10022=
26850 42670 71804 10169 20102 39875 40136 52004 84530   333 91110
555 11020=
26863 42560 61806 10183 20077 39931 40157 53002 83102 333
91110 555 11023=
26941 42660 52105 10188 20111 39895 40120 52001 70282 84201   333
91110   555 11023=
26951 42565 61706 10191 20093 39949 40139 52002 81231   555 11026=
33008 42965 71404 10187 20117 39931 40102 54000 87030 555 11023=
33019 42665 22004 10205 20082 39963 40128 58001 82100   555 12025=
33036 42970 22203 10194 20074 39938 40158 58002 82030   555 10035=
33041 42665 31802 10183 20089 30028 40177 54000 83200   555 11024=
16008 11456 80814 10088 20055 38446 48409 53006 69961 71064 885//
91145 333 88615=
16020 31659 83501 10152 20135 39769 40051 55006 76122 888//
333 82840 88657=
16040 11560 82201 10138 20139 39178 42712 58006 60021 76162 882//
91145 333 88830=
16110 32598 81611 10214 20159 30068 40072 57012 888// 91145 333
55300 83830 85635 555 0314/=
16181 32562 81717 10210 20130 39852 40089 58019 8457/ 91145 333
55306 84626 84358 95060=
16219 31/00 92413 10072 20070 38118 48496 58002 74544 91145 333
55300 89/00 95090 95190=
16280 32598 21507 10234 20151 39926 40139 54000 82200 91145 333
55308 82820 555 0214/=
16230 32982 60909 10268 20142 30082 40094 57015 82046
333 82360=
16252 32475 22410 10204 20099 39213 42773 57008 82101 91145 333
55310 82810=
16270 32960 00813 10245 20186 30068 40118 57020=
16300 32570 32211 10194 20087 39194 42793 58005 82101 91145 333
82830=
16325 32598 21314 10244 20169 30117 40130 58005 82100 91145 333
82825 98070 555 0223/=
16360 32598 11911 10240 20151 30008 40137 50001 81100 91145 333
55310 81820 555 0////=
16400 32598 32008 10236 20150 39866 40144 57007 83200 91145 333
55310 22/// 83820 555 0100/=
16453 31996 12208 10228 20175 30074 40150 58010 71000 80001 91145
333 55310 98066 555 0100/=
16480 32998 02613 10260 20177 30090 40149 58002 91145 333 55310
555 0200/=
16520 32575 79913 10229 20162 30078 40105 55016 85850
333 82820 84635 86358=
16522 32998 71910 10202 20156 39870 40106 58011 87050 91142 333
55302 87359 555 0300/=
16539 32998 62710 10244 20099 30002 40112 57018 81032 91145 333
81359 555 0100/=
16550 32998 41726 10240 20200 39920 40092 57027 82052 91145 333
55307 82360 555 0200/=
16564 32598 42009 10254 20205 39976 40111 58018 82282 91145 333
82828 555 0215/=
43555 21465 82711 10276 20244 40089 70362 83377 333 10282
58004 6004/ 82818 81919 85362 88275=
43577 22470 72916 10280 20246 40089 8327/ 333 10296 6990/
82818 87363=
43599 21475 83206 10272 20243 40092 72582 84337 333 10306
59006 6990/ 83817 81919 88274=
16061 32465 41505 10172 20146 39213 42676 57025 84900 91145 333
55307 81910 83815=
16076 12565 80305 10173 20143 39764 40036 57019 60041 8387/
333 83830 86357=
16114 31457 70000 10174 20174 39393 42690 57017 71011 84260 91145
333 84818 83357=
16119 11458 81816 10170 20125 39468 40022 57027 60021 71062 888//
91145 333 85810 83612=
16124 11/03 91827 10108 20085 38878 48401 58015 60031 76064 91145
333 89/03=
16138 31460 81909 10224 20137 30039 40049 57018 79596 883// 91145
333 82918 86820=
16021 11/09 92210 10048 20033 37909 48415 58010 60031 76064 91145
333 89/03=
16022 11/05 92314 10034 20034 37781 48408 58008 60021 76364 91145
333 55300 89/02=
16033 11559 80804 10108 20076 38704 48422 58009 69921 72162 888//
91145 333 85825 83630=
16088 11760 70710 10184 20145 39930 40043 58021 60011 72162 82570
91145 333 82650 84359=
16098 11562 60411 10200 20153 30011 40060 57014 69921 70262 84550
91145 333 84625 84358=
16108 32670 71911 10208 20160 30039 40058 57020 86510
333 86640 87459=
16140 11240 82706 10198 20170 39999 40047 58013 69901 79522 883//
333 81804 83930 84850=
16146 32998 81612 10220 20198 30048 40055 57024 8807/ 91145 333
85359 83460 98075 555 0313/=
16179 32465 72109 10206 20123 39420 42731 55005 85970 91145 333
82818 83922=
15502 31998 00000 10236 20130 40148 57018 70200=
15525 31998 20901 10263 20058 40141 58017 70300 80001=
15535 31998 00502 10262 20093 40148 58016 70200=
15549 31998 00000 10243 20065 40153 57012 70200=
15552 31998 10902 10252 20149 40163 57004 70200 81100 222// 00196
2//00 555 92010 92418=
15614 31798 13602 10234 20064 39467 40130 57017 70200 81100 555 95000
=
15615 31299 60000 10062 20017 37158 47110 54000 70321 86100 555 95100
=
15627 31399 21806 10066 20000 37653 47117 54000 70300 82140 555 95110
=
15655 31598 10907 10242 20133 40153 57016 70200 81100 222// 00232
20501 555 92024 92428 22/// 71239=
15712 31698 10905 10276 20099 40135 58020 70200 81100 555 95000=
40100 32560 72706 10279 20195 40097 58003 87200 912//
333 87826 924/7=
40103 32570 72606 10265 20216 40101 57002 87800
333 83827 85640  555  10286=
26645 41464 71404 10150 20117 39862 40110 52010 70262 85530   333
85617   555 12020=
26659 42597 71703 10167 20090 39933 40138 52002 87500   333 87626
91110   555 11018=
26763 42660 61805 10178 20078 39939 40157 52001 85201   333 85833
555 11022=
26825 41560 61705 10163 20115 39937 40095 52005 70282 84530   333
84620   555 11020=
26832 42560 61504 10168 20114 39922 40106 52007 85330   555 12021=
26887 42670 52004 10177 20086 39978 40176 53003 85200   555 11022=
26961 42565 21803 10191 20088 39969 40152 52001 82102   555 11///=
33027 42670 12004 10200 20081 39993 40152 54000 81100   555 11031=
40356 32960 02008 10330 20050 39130 48476 333 59010 555 04410 50049=
40357 32962 01306 10372 20070 39449 40046 333 59007=
40361 32960 02712 10350 20030 39329 40050 333 59001=
40362 42962 01805 10390 20080 39558 40044 333 59006=
40373 32960 03205 10401 20020 39640 40030 333 58000=
40377 42960 03602 10390 20010 39587 40034 333 59004=
40394 32965 00202 10356 20030 38978 48480 333 59001 555 04410
50029=
40400 32960 03016 10320 20290 30012 40039 333 59019=
40405 32960 01505 10402 21030 39315 40004 333 59012=
40416 32960 00108 10360 20170 39993 40012 333 58005=
40420 32960 03311 10426 20100 39829 40023 333 58004=
40430 32660 42708 10420 20030 39332 40001 82130 333 59010 82845=
40437 32960 01603 10400 20020 39373 40030 333 59007=
40438 32960 01005 10390 20010 39375 40037 333 59008=
40439 32960 22410 10410 20240 30020 40032 82030 333 59013 82360=
41024 32960 23306 10356 20250 30016 40035 82030 333 59029 82360=
41030 32560 52602 10446 20200 39749 40000 82530 333 59019 82640
83360=
41036 32560 42106 10352 20060 38525 48472 83430 333 59012 83625 82359
555 04410 50005=
41055 32660 31407 10340 21030 38331 48470 83400 333 59017 83640
555 04410 59996=
41084 32560 30208 10380 21040 38808 48469 82130 333 59015 82830 82360
555 04410 50015=
41128 32560 31206 10360 20010 38760 48478 83200 333 59007 83830
555 04410 50016=
41136 32660 50706 10414 21020 39243 40003 83530 333 59008 83635
83358=
41140 32660 12812 10357 20280 30012 40020 81100 333 59015 81830=
41240 32960 00707 10335 20266 30032 40035 333 58016=
41244 36/// /1806 10407 20108 39696 40048
333 0E030 58021=
41246 31658 40709 10313 20254 30044 40049 70500 84400
333 58014 84830=
41254 01562 73108 10225 20165 38026 48281 60042 72061 85901 333 58007 70038
84620 81930=
41256 32660 20509 10317 20241 30035 40044 82001
333 58008 82830=
41258 36/// /1212 10282 20264 30037 40043
333 0E/// 58000=
41262 36/// /1210 10386 20142 39834 40036
333 0E025 58027=
41268 32960 01415 10350 20228 30032 40047 333 58011=
41288 31959 11613 10298 20221 30035 40057 70600 81030 333 58022 81360=
41304 36/// /1317 10357 20157 39712 40029
333 0E026 58009=
41312 36/// /1906 10270 20230 30018 40058
333 0E/// 58014=
41314 32662 41620 10331 20185 39541 40054 82530 333
58006 82630 83359=
41316 32562 72011 10288 20216 30030 40056 84530
333 58013 84625 85359=
11414 01483 79901 10094 20083 39368 42713 51013 69951 72582
86870
333 69955 82813 85640 85359
555 393// 50124 60125 70126 80132=
11438 32581 72807 10132 20071 39684 40069 50009 8117/
333 81825 87460
555 367//=
11502 01589 72403 10117 20093 39620 40064 50011 69941 72586
8247/
333 69905 81821 87460
555 385// 50132 60130 70133 80139 90149=
11538 01582 82205 10113 20090 39492 40083 50008 60031 76162
8802/
333 69915 88526
555 12004 386// 50125 60126 70135 80144=
11628 11970 82902 10117 20093 39460 40078 52012 60011 76062 8807/
333 88360
555 385//=
11643 11240 82003 10086 20072 39132 42713 50012 60021 71062
885//
333 88606
555 12307 391// 50106 60103 70098=
11683 01460 82703 10094 20089 39233 42725 53013 69931 76064
8252/
333 69935 82610 88460
555 12703 397//=
11693 01566 83106 10152 20089 39611 40075 52011 69901 76062
888//
333 69905 86623
555 13007 366// 50156 60141 70134 80140 90151=
11698 32575 82904 10155 20075 39686 40079 52013 878//
333 87831
555 359// 50162 60141 70145 80143 90155=
11710 01458 89902 10129 20106 39477 40080 52009 69901 78022
8782/
333 69905 87813
555 386// 50140 60145 70131 80131=
41883 50000 10295 20250 30032 40052 82201 333 10330 56909 58012 70000
82825 84080=
41891 32456 60903 10275 20250 30018 40058 83370 333 10295 56990 58017
70656 83615 81923 85459=
41907 11356 82302 10262 20260 30037 40055 60153 79569 8692/ 333 10328
56599 58018 70150 85708 83615 88457 81930=
41923 32550 40000 10318 20240 30046 40056 81131 333 10336 56499 58008
70000 81825 83080=
41936 31457 60000 10310 20270 40049 70511 82830 333 10344 56990 58113
70000 82615 83362=
41943 32458 42303 10308 20250 30064 40073 84431 333 10334 56599 58011
70000 82618 83362 83080=
41950 32440 60000 10300 20270 30048 40052 85430 333 10336 56990 58009
70000 83618 84362=
41978 32456 62404 10290 20260 40056 83530 333 10327 56990 58006 7////
83615 85360=
41992 32450 30000 10290 20260 30053 40057 82430 333 10330 56990 58005
70000 82616 83362=
33088 42997 62105 10190 20074 39961 40143 58006 80009=
33177 42699 31804 10192 20100 39891 40117 58002 81140=
33246 42597 52402 10202 20078 30028 40176 54000 85200=
33275 42597 30203 10180 20085 39964 40177 58002 82201=
33301 42997 51505 10185 20086 39874 40143
54000 82031=
33325 42698 52005 10192 20070 39898 40160 58002 83101=
33415 42997 61406 10178 20094 39757 40138 58005 82031=
33429 42997 31805 10184 20078 39742 40146 58008 80001=
33466 42698 22602 10210 20071 39995 40173 58002 82100=
33526 41960 51305 10188 20093 39810 40135 58009 70282 85030=
33562 42697 32006 10192 20067 39812 40156 54000 83200=
33614 42597 23201 10196 20082 40176 58003 82200=
33761 42698 61803 10190 20056 39950 40163 57002 86200=
33889 42598 11802 10234 20071 30130 40165 57007 81100=
33902 42698 59902 10214 20090 30114 40177 58002 85200=
33983 42597 23307 10223 20073 30114 40171 52002 82100=
33990 42681 31502 10232 20129 30096 40179 52002 83200=
34415 42989 60204 10195 20071 30065 40157 54000 86030=
34523 41397 83002 10162 20143 30069 40142 52001 76165 8872/ 333
86709=
34712 42598 23306 10232 20103 30064 40145 58002 83900=
16627 32960 00710 10272 20134 30140 40144 57020 333 90730 91112 555
30000 10232 20232 30234 40240 50246 60236 40000 47639 44250 50000
50190=
26231 41598 81504 10135 20118 30059 40068 52009 70282 889//   333
86622   555 11015=
41859 32450 31802 10302 20270 40049 82430 333 10325 56999 58002 70000
82618 83362=
48300 01430 80000 10247 20235 39768 40073 60422 79192 8697/
333 10332 58023 60427 70859=
48327 01560 82205 10243 20229 39720 40075 60062 76096 84976
333 10303 58022 69997 70061=
48331 31565 52105 10273 20234 39847 40075 71721 83963
333 10325 58020 70003=
48353 31562 60000 10264 20235 39763 40063 71311 86903
333 10326 58001=
48356 01562 20000 10280 20253 39881 40076 69942 71761 82903
333 10320 58009 69946 70004=
48375 01562 80000 10235 20220 39852 40078 60352 70266 83576
333 10255 58010 69937 70551=
48407 31560 50000 10300 20241 39938 40077 71321 81943
333 10335 58010=
48456 32560 72212 10297 20268 30068 40082 82976
333 10349 58004 70029=
48480 31558 70000 10289 20248 30074 40078 71022 83576
333 10324 58005 70087=
48500 31560 43103 10256 20229 30077 40082 71392 81943
333 10350 58004=
48565 11560 60000 10290 20245 30060 40064 60042 71362 82946
333 10315 59001 70042=
48569 11460 60000 10290 20236 30041 40081 69912 70396 82836
333 10353 58003 70001=
48303 32565 30000 10279 20238 39623 40058 83145
333 10304 58012=
48330 01557 80000 10253 20237 39897 40083 60052 72996 83976
333 10287 58029 69927 70050=
48351 11562 70000 10271 20247 30002 40075 69932 70262 85536
333 10296 58023 70038=
48376 32562 82702 10262 20217 39943 40086 84536
333 10293 58028 70005=
48377 01560 80000 10250 20234 39918 40082 60052 72166 8682/
333 10280 58023 69966 70135=
48379 32563 70000 10277 20244 39929 40061 82836
333 10333 58016=
48455 32561 62503 10300 20250 30073 40078 82246
333 10328 58002=
48462 32560 60000 10305 20255 30022 40077 82576
333 10338 58004=
48475 32562 40000 10275 20249 30070 40082 81245
333 10316 58006=
48477 31560 62403 10290 20243 30066 40080 71322 81946
333 10340 58009 79999=
48532 01558 70000 10277 20256 30076 40085 60012 71062 84876
333 10333 58005 60016 70010=
48567 11560 70000 10260 20247 30065 40083 60222 71396 82946
333 10346 58013 70220=
40155 32560 42808 10280 20178 30083 40093 57006 84200=
40180 32660 33110 10289 20188 30039 40085 57014 83100=
40199 32975 00410 10357 20120 30061 40064 57022=
16648 32560 20000 10276 20060 30062 40146 57016 82100 333 90730
91108 555 30000 10302 20262 30242 40248 50262 60260 40000
47582 44250 50000 50162=
16643 32575 12608 10254 20110 30156 40160 58005 81200 333
90730 91111 555 40000 47652 44250 50000 50172=
16684 32960 00211 10248 20175 30104 40128 58002
333 90730 91115 555 40000 47614 44260 50000
50202=
16723 32965 03615 10286 20149 30090 40098 56008 333 90730 91127=
48310 01565 70000 10255 20231 39617 40061 60072 70366 83836
333 10315 58012 60077 70074=
48329 01560 80000 10240 20224 39738 40074 60072 70296 84836
333 10304 58024 69936 70076=
48352 32564 20000 10290 20247 39874 40069 84505
333 10327 58009 70002=
48380 01560 70000 10270 20241 39987 40081 69932 70296 84546
333 10300 58018 69937 70003=
48403 32562 40000 10292 20240 39869 40076 81245
333 10316 58018 70010=
48405 32563 40000 10295 20237 39910 40070 83205
333 10320 58014=
48421 01557 80000 10255 20238 39979 40093 60062 72162 84556
333 10320 58015 69967 70068=
48425 01556 80000 10241 20220 30069 40079 60162 79596 8697/
333 10345 58010 60166 70158=
48430 32560 40000 10305 20248 30063 40071 82245
333 10335 58001 70030=
48450 01559 80000 10276 20253 30047 40080 69942 76096 8557/
333 10352 58010 69945 70008=
48459 32565 30000 10301 20223 30074 40077 82903
333 10340 58003=
48465 31561 63401 10280 20244 30077 40081 70192 82943
333 10317 58008 79999=
48550 31558 60000 10298 20251 30074 40079 71022 82946
333 10310 59012 70177=
48566 32560 70000 10283 20271 30076 40084 82846
333 10320 58004 70117=
48568 31459 40000 10297 20246 30079 40087 71310 81906
333 10325 58011=
40706 32660 12402 10298 20049 38605 40028 57008 81100 91145 333=
40718 32960 02004 10268 20218 30138 40107 56006 91150 333=
40732 31557 33603 10266 20202 30113 40093 57010 70511 82430
91150 333 82625 83360=
40745 32960 00000 10248 20022 39035 40141 56010 91150 333=
40754 32660 11802 10302 20098 38792 40051 81400 91155 333 81640=
40766 32960 02107 10352 20074 38641 40028 57009 91150 333=
40800 32960 00303 10326 20026 38419 40014 57021 91150 333=
40811 31940 02402 10420 20103 39995 40021 57017 70500 91150 333=
40841 32660 13508 10316 21012 38222 40019 57016 81400 91150 333
81645=
40848 32660 11706 10346 21001 38479 40006 57016 81130 91150
333 81840=
40856 32960 00207 10298 21051 38597 40048 55009 91150 333=
40875 31530 21807 10340 20243 30033 40045 57016 70710 81400 91150
333 82630=
47401 12/75 62209 10185 20163 30133 40146 50000 69902 81602
333 10212=
47412 32/65 51405 10183 20152 30136 40166 51007 81102
333 10233=
47420 11/60 82105 10149 20138 30135 40181 58003 69902 75052 886//
333 10178=
47426 32/75 70603 10156 20143 30134 40178 58002 875//
333 10201=
47582 11/65 81304 10223 20211 30128 40153 51003 69902 76122 8257/
333 10264=
47590 11215 80901 10208 20198 30113 40164 50001 69952 75152 886//
333 10220=
47600 11/60 82103 10207 20199 30133 40149 52003 60152 78082 8527/
333 10224=
47648 11/04 90403 10220 20217 30130 40162 50006 69902 74784
333 10241=
47662 11/56 62205 10263 20222 30112 40153 50006 69902 71022 86100
333 10277=
47678 32/80 10804 10257 20220 30058 40150 50000 81200
333 10294=
47740 11058 80715 10234 20224 30072 40108 58003 60092 78088 882//
333 10235=
47778 11/65 71305 10248 20232 30050 40136 51010 60072 72582 872//
333 10265=
47807 11/65 82102 10233 20210 30090 40107 51005 60162 78086 8627/
333 10283=
47827 11/82 80406 10260 20227 30063 40098 53007 60092 70262 8117/
333 10291=
47843 11458 80508 10219 20198 30073 40103 51007 60092 78198 882//
333 10280=
47898 11/57 83504 10242 20228 30076 40114 50006 60912 78082 882//
333 10260=
47909 11/65 72801 10264 20239 30062 40070 53010 60062 70282 85202
333 10315=
47918 32/65 73015 10274 20210 30054 40062 53010 872//
333 10303=
47936 32/60 31706 10270 20239 39993 40053 53011 81202
333 10300=
47945 11/65 71211 10255 20241 30052 40075 53017 60012 78082 87201
333 10317=
47971 11/60 80809 10262 20248 30107 40116 50004 60022 78082 882//
333 10274=
47991 12/82 11009 10273 20244 30139 40149 50006 60022 81200
333 10301=
47407 32/65 32604 10172 20152 30033 40170 50010 82632
333 10228=
47409 32/70 42211 10163 20132 30106 40157 58001 81602
333 10226=
47418 32/70 62208 10151 20138 30133 40180 58003 86630
333 10183=
47421 11/70 71605 10176 20168 30123 40168 51006 69902 75152 866/2
333 10211=
47430 11/58 80805 10184 20172 30115 40166 58001 69902 75152 886//
333 10204=
47570 11/65 82101 10217 20203 39902 40147 50008 60012 72582 8627/
333 10279=
47575 31/58 80602 10200 20174 30153 40157 50000 71022 886//
333 10239=
47585 11/30 83101 10194 20194 30112 40167 50000 60012 76122 887//
333 10212=
47598 11/56 80303 10220 20201 30158 40164 50007 69902 76122 886//
333 10262=
47602 11/50 81103 10210 20205 30130 40150 50006 60052 78162 882//
333 10242=
47605 11/56 80910 10226 20211 30102 40140 50004 60122 76182 8252/
333 10254=
47618 11/60 83503 10214 20197 39458 40142 51009 60022 78082 8627/
333 10259=
47624 11/15 81401 10230 20216 30023 40153 50003 69952 78082 882//
333 10255=
47636 11/75 71405 10239 20222 30080 40144 50005 60082 70282 81132
333 10269=
47655 12/70 41003 10252 20238 30099 40152 51008 69902 82202
333 10279=
47663 11/60 72602 10237 20230 30113 40144 51008 60072 72582 872//
333 10263=
47675 12/65 21605 10242 20223 30066 40157 51008 69902 81201
333 10289=
47741 11/65 81007 10232 20216 30080 40105 51005 60022 78086 8627/
333 10247=
47746 11/65 81105 10225 20217 30096 40114 50004 60222 76188 8277/
333 10234=
47750 11360 80602 10229 20217 30102 40127 50000 60352 72598 882//
333 10270=
47755 11/58 80803 10235 20226 30076 40099 50006 60072 78122 882//
333 10286=
47772 11/65 70303 10261 20220 30031 40125 53007 69902 70282 8627/
333 10301=
47800 11/60 83407 10226 20198 30092 40114 53005 60452 78082 8422/
333 10238=
47815 11/70 81903 10253 20220 30093 40108 53011 60062 70282 8547/
333 10282=
47817 11/50 80304 10232 20213 30064 40105 51014 60162 79598 889//
333 10305=
47830 11/60 80406 10244 20228 30088 40105 53005 60282 78082 882//
333 10262=
47837 11/82 70904 10242 20228 30075 40096 53007 60352 70282 8627/
333 10276=
47887 11/56 81002 10254 20229 30072 40110 51014 69952 78082 882//
333 10287=
47891 11/65 81903 10246 20219 30107 40118 53011 60152 78082 8627/
333 10260=
47899 11/60 81420 10247 20245 39910 40122 51010 60062 72582 882//
333 10264=
47927 11/65 82710 10270 20228 30006 40052 53012 69902 70282 888//
333 10300=
48315 11558 80000 10275 20231 39804 40070 60042 71722 84976
333 10325 58019 70045=
48413 32562 50000 10295 20243 39995 40074 82205
333 10325 58010 70005=
48416 32563 20000 10295 20257 39932 40076 81205
333 10327 58016=
48418 31560 70000 10293 20249 30017 40073 71322 81956
333 10338 58013 70003=
48460 32562 70000 10290 20238 30051 40082 81146
333 10313 58007=
48461 31565 62303 10282 20240 30011 40080 71322 84976
333 10314 58004 70002=
48478 32562 3//// 10310 20247 30077 40082 82505
333 10368 58008=
48501 32562 60000 10290 20252 30079 40087 81246
333 10336 58009=
48561 11460 20000 10277 20259 30077 40081 69932 71391 81943
333 10334 58006 70003=
48564 32560 70000 10295 20242 30071 40075 82246
333 10320 58000=
48570 31560 60000 10287 20248 30073 40079 71792 83903
333 10329 58002 70002=
48580 31556 60000 10285 20251 30076 40083 71322 82906
333 10335 58009 70018=
12695 36/// /9902 10174 20097 39784 40110 54000 69911=
40703 32660 33003 10286 20082 38861 40043 57011 83200 91150 333
83835=
40712 32960 00304 10276 20044 38641 40040 57009 91150 333=
40729 32660 10905 10288 20036 38308 40035 57017 81100 91145 333=
40736 32960 00204 10288 20213 30120 40093 57010 91150 333=
40739 32965 00000 10276 20004 38651 40081 56012 91150 333=
40743 32968 00905 10290 20014 39026 40109 57017 91150 333=
40762 32970 00000 10250 21101 38547 40103 57011 91150 333=
40768 32960 02105 10316 21044 38230 40037 57010 91150 333=
40769 32660 10905 10300 21049 38266 40018 57010 81110 91150 333
81840=
40785 32965 03302 10348 20077 38994 40051 56021 91150 333=
40809 32970 03303 10286 21010 38486 40057 57012 91150 333=
40821 32660 13402 10348 20001 38742 40023 57019 81100 91150
333 81835=
40831 32960 03203 10424 20014 30019 40027 57012 91150 333=
30372 32684 23302 10024 21047 39414 40273 53007 81530   333 10080=
30433 32599 80203 10116 20045 39601 40165 57003 85031   333 10148=
30554 329// 80603 10084 20005 39149 40196 53006 82042   333 10150
53007=
30635 328// 60402 10131 20085 39588 40125 57006 83032   333 10173=
30673 12999 80000 10052 20020 39507 40258 53004 69902 8807/   333
10071=
30758 11684 80204 10132 20090 39368 40138 57001 69932 70262 8257/
333 10183=
30802 11596 83601 10065 20065 38633 48429 57002 60112 78082 887//
333 10100 95990=
30823 11597 80903 10120 20117 39518 40117 57003 60092 78082 889//
333 10161=
30879 11599 80000 10117 20086 39467 40189 53001 69902 70282 86903
333 10194=
30935 11697 80000 10102 20092 39214 40099 57011 60042 76162 8352/
333 10115=
30949 32699 81001 10160 20009 39080 40095 57019 8382/   333 10175=
30965 32679 81504 10167 20027 39388 40189 57004 8237/   333 10216=
31168 12999 70705 10046 21140 30157 40168 52014 69930 87070   333
10081=
31300 32984 03302 10072 21033 39977 40259 52019  333  10130=
31369 11497 82906 10044 20005 30094 40179 52045 60060 78082
8596/ 333 10191 85918 91113=
31416 32599 83601 10050 20015 30122 40212 52037 60010 87500   333
10112=
31484 129// 02702 10064 20017 39874 40202 52040 69900   333 10237=
31510 329// 00000 10102 20017 30082 40243 51021 333 10180=
31735 32997 02806 10152 20067 30059 40142 52018 333 10274
91112=
41697 51113 10270 2024/ 40158 51006 70111 85///
22215 00280 20402 312// 40702 5//// 6//// 80250=
41598 10509 10260 20218 40193 51007 70211 81100 91200
22264 00280 80230=
62120 14124 99564 10021 46998 /3311 10122 20084 40061 52002 22200
80101=
10401=
62103 14124 99499 70029 46/97 /2709 10145 2//// 40163 52010 22200
00170 10701 70007 555 05111 07274 10043 11062 12445 13470 15577
17112 18001 19010 35062 36025 70001 72857 73147 74019 75519 76401
80097 05112 07221 10046 11066 12446 13471 14646 15577 17112 18001
19010 35061 36025 70001 72858 73147 74019 75519 76406 80135=
62301 14123 99523 70045 46/// /2911 10139 20131 40150 22200 00169
10402=
17218 35072 36063 05004 07016 10021 11050 12438 13451 14737 15579
17229 35075 36088=
11163 12433 13438 14843 15524 18005 19020 22115 23027 35051 36095
50056 51599 52009 53530 70001 71000 72578 74012 75447 76900 90557=
15514 18003 19006 22115 23023 35055 36110 50059 52011 53228 70001
71000 72826 73141 76900 91020 05362 10104 11163 12422 13429 14753
15511 18002 19006 22115 23023 35055 36109 50059 51040 52011 53228
70001 71000 72826 73133 74012 75440 76900 87281 90765=
15601 18008 19005 22105 23025 35068 36123 50050 51597 52013 53200
70001 71000 72701 73138 74012 75471 76900 90301 05422 07284 10079
11106 12460 13470 14781 15601 18008 19004 22105 23025 35067 36114
50050 51597 52013 53200 70001 71000 72701 73144 74012 75474 76900
90567=
87480 22215 02231 20302 317// 40504=
83208 22274 02278 20301 30000 80254=
52908 11580 40000 10072 20024 35820 52002 69911 70080 84902
333 00301 91120 91527=
52955 32680 32201 10155 20098 36988 52004 83400 333 00451=
52818 11680 70902 10210 20047 37202 57002 69901 70080 82942
333 05307=
56004 32680 71803 10110 20042 35873 54000 86902 333 00203=
52737 32980 10000 10190 20023 37069 57009 81042 333 00452=
52602 32980 23203 10198 21087 37236 57004 80002 333 05105=
51886 11980 20706 10192 21083 37085 57004 69901 70080 82042
333 05204=
52825 32980 21403 10205 20068 37225 57004 80002 333 00003=
52984 11765 80000 10174 20140 38079 52009 69901 72160 885//
333 00954=
56021 11580 70000 10108 20049 36126 54000 60011 79598 86902
333 00201 93904=
52713 32680 11804 10192 20012 36907 57002 81500 333 00104=
51720 32565 70401 10200 20071 40092 52007 85902 333 00554=
50639 32970 10902 10151 20022 40229 52012 80002=
50618 32680 70705 10178 21003 40157 57023 82932=
55578 11780 60000 10147 20074 36401 57003 69911 70098 82102
333// 00105=
56029 32680 70000 10149 20078 36514 52003 85902 333 00004=
80097 05112 07221 10046 11066 12446 13471 14646 15577 17112 18001
19010 35061 36025 70001 72858 73147 74019 75519 76406 80135=
10402=
15511 18002 19006 22115 23023 35055 36109 50059 51040 52011 53228
70001 71000 72826 73133 74012 75440 76900 87281 90765=
71871 32974 11603 10054 20015 39437 40235 52006 81070 333 10193 20048
79999=
61990 41462 60308 10229 20188 40161 71581 86800
333 59019 943//=
61995 41470 40909 10223 20179 39671 70182 84830
333 59017 94309=
61988 42580 20913 10240 20162 40154 82200
333 59023 91131=
61986 42580 41210 10271 20211 40135 84200
333 59015 94310=
61974 42575 41410 10275 20224 40116 84200
333 59005 94313=
71832 46/64 /3005 10058 20051 39980 40307 53003 333 10138 20045=
61612 32960 42204 10332 10258 30102 40110 84080
333 0//00 59031 84363=
61666 32462 62804 10315 20255 30098 40108 86200
333 0//00 59035 86815 94919 95879=
61697 32460 22404 10310 20224 30112 40126 82200
333 0//00 59008 82816=
61698 32960 71808 10310 20266 30114 40125 87070
333 0//00 59011 87363=
61699 33562 72408 10305 20233 39929 40116 86202
333 0//00 59018 86820 85073 94919 95839=
61980 32570 60706 10245 20182 40159 86800
333 59013 82820 85650 92438=
67005 32580 31708 10277 20200 40141 83800
333 58003 83823=
91943 36/// /1116 10264 20225 30129 40132 58016
333 10294 59009
555 1//23=
91945 36/// /0408 10245 20220 30149 40154 58020
333 10277 59014
555 1//16=
60430 32558 32606 10306 20140 40114 58002 81132
333 81826 95900=
60467 11558 70000 10210 20194 40128 51010 60031 76066 8227/
333 0//21 82833 87460 95990=
60581 32960 00910 10378 20133 40096 58015=
65352 32460 72208 10308 20237 3//// 40116 83202
333 59010 83816 87076=
65361 11465 71804 10265 20229 39696 40135 69951 70196 8324/
333 58001 83816 87362=
65376 31460 73204 10265 20206 39663 40125 70392 8427/
333 59012 84813 87363=
65387 32465 72010 10286 20226 30091 40119 84232
333 59020 84816 83360 86073=
33815 42698 42102 10213 20061 39956 40165 58006 82101 555
11030=
86011 31958 11810 10246 20151 40141 52028 70511 81030 333 20242 =
86033 21865 02302 10226 20169 40112 52020 70500 333 20218 60024 =
86065 32570 80000 10206 20125 40173 53029 885// 333 20170 =
86068 32870 61610 10230 20102 40137 52025 86070 333 20210 =
86086 31965 51804 10206 20124 40140 51040 70511 80006 333 20206 =
86097 21000 92010 10176 20176 40138 52020 74544 333 20176 69944 =
86134 32870 71810 10194 20135 40136 52013 87070 333 20175 =
86192 22470 62303 10168 20151 40106 52019 86500 333 20164 69994 =
86210 21330 82304 10194 20185 40121 52024 71022 885//
333 20190 60104 88607 =
86218 21858 61807 10188 20098 40153 52021 70422 86070 333 20158 60024
=
86233 21458 81803 10166 20136 40134 52013 71022 8557/
333 20128 60014 85620 88456 =
86234 31662 72210 10172 20152 4//// 5//// 71022 83430 333 20150 =
86255 32970 31402 10172 20092 40154 52012 83030 333 20128 =
86260 22870 30000 10146 20112 40141 52029 83050 333 20126 60014 =
86268 22470 81402 10170 20150 40162 52030 8457/ 333 20140 60014 =
86285 21250 80000 10146 20137 40147 52022 71044 886//
333 20128 60074 88706 =
86288 22970 02705 10164 20130 4//// 5//// 333 20146 60034 =
86297 32470 60000 10140 20139 40146 52036 83550 333 20100 =
71936 32974 12606 10096 20065 39840 40092 52014 81031 333 10172 20089
70000=
64387 32570 40404 10275 20133 38486 48479 83232
333 58003 83833 1015.9
78397 11578 61605 10282 20223 30109 40125 69901 72500 82902 333
06000 10316 20271 81822 81924 85070 90910=
78970 31568 30706 10283 20248 30125 40150 71500 81202 333
02209 10324 20243 58011 70150 81820 83080=
78962 31472 50812 10300 20240 30145 40153 70522 83802 33
CHECK
TEXT
NEW ENDING ADDED KATLYTAA
89022 42999 01009 11254 21292 39730 49770 58010
333 11162 21285=
83378
21450 60000 10226 20192 38994 48544 71062 81134 333 20191 58039
60064=
83362 31958 53208 10304 20199 40143 70511 83030 333
20286 58025=
83768 21430 70106 10182 39481 40131 55003 72196 84570 333
20182 60184=
83840 22970 73009 10201 20170 39101 40126 50011 83046
333 20148 60074=
83899 21665 50109 10212 20175 30099 40105 50008 71022
82530 333 20177 60024=
83971 22557 73002 10161 2//// 30121 40126 51007 7//22
87500 333 20148 60134=
83612 21356 80208 10202 20202 39501 40125 51033 79596
8592/ 333 20248 60174=
83721 21540 70000 10188 20176 39404 40142
52015 79596 85923 333 20177 60074=
83722 31550 81305 10212 20194 39443 40132 53018 71022
84466 333 20194 60064=
83780 21340 81803 10190 20168 39267 40160 53023 76096
8551/  333 20180 60074=
83827 21130 71806 10166 20152 39840 40120 50010 71052
85630 333 20165 60144=
83649 21570 50214 10262 20221 40175 51010 70152 82234 333
20224 69014=
83650 31697 60613 10240 20197 40209 52008 7152/ 8640/
02228 20301=
83248 21470 40711 10270 20230 40186 70261 84200 333 20226 59012
60024=
83349 32570 40802 10252 20222 40180 83204 333 20203
59016=
83497 21570 50405 10258 20221 40180 7036/ 85200 333 20216
59018 60014=
82287 32595 10512 10289 20202 30082 40108 81100 333 20225 59015=
82392 32499 60904 10282 20199 30042 40144 84430 333 20210 59009=
82398 21570 40906 10285 20208 40148 70261 84100
333 20250 59008 69934=
82400 32470 61206 10250 20219 40156 84530 333 20244 59010=
82480 32997 01404 10288 20183 39956 40137 333 20208 59011=
82493 32599 11410 10294 20176 30138 40152 81100 333 20224 59015=
82579 32970 00504 10266 20204 40150 333 20234 59003=
82583 32599 70904 10265 20190 39812 40148 87800 333 20217 59004=
82599 21570 41414 10269 20198 40158 70361 84200 333 20216 59014
60014=
82678 32596 43201 10290 20204 30012 40169 82101 333 20264 58001=
82689 32998 00908 10268 20170 39898 40162 333 20200 59007=
82780 32698 20906 10287 20168 39919 40168 82260 333 20220 59007=
82789 32599 21408 10196 20161 39039 40154 82200 333 20160 59011=
82791 32599 50916 10272 20174 39877 40164 82101 333 20217 59011=
82879 32598 30910 10290 20172 39884 40148 83100 333 20243 59003=
82882 32698 21415 10265 20168 39737 40153 82100 333 20230 59001=
82886 32699 71409 10237 20187 39788 40172 85840 333 20220 59002=
82893 32695 8//// 10186 20179 39256 40170 885// 333 20167 59010=
82899 22579 21611 10280 20200 40174 82200 333 20253 59010 60034=
82900 22597 21810 10271 20208 30165 40174 82200 333 20223 58001
60024=
82976 32996 01408 10264 20195 39572 40150 333 20164 59008=
82983 32595 60908 10254 20171 39751 40165 86200 333 20224 59006=
82993 32570 41310 10268 20230 40175 84200 333 20218
59003=
82026 32470 20305 10234 20193 40142 82500 333 20187 58006=
82193 32570 30911 10291 20246 40138 83100 333 20228 58000=
82281 32570 50714 10290 20236 40140 85200 333 20258 59007=
82332 42970 31008 10286 20235 40136 80001 333 20252
59002=
82917 31956 30502 10260 20255 40132 71000 83030 333 20232 58008=
83377 21697 60902 10217 20170 38891 40141 70544 84550 333 20192 58007
69914=
58025=
86330 32998 40000 10135 20102 40136 53015 80001
333 10139 20076 31006=
86360 32497 72006 10122 20099 40153 52018 87500
333 10156 20090 31005=
86460 11396 82105 10112 20102 40138 52016 69904 71052 885//
333 10124 20076 310//=
86500 11497 72803 10115 20103 40122 51005 60024 70142 87400
333 10122 20073 31005=
86560 11497 82116 10106 20062 40152 52008 69914 70352 885//
333 10156 20101 31009=
86565 12497 72005 10112 20088 40118 52012 69944 87500
333 10126 20100 31003=
86580 11497 72409 10114 20068 40130 51007 69904 72262 86475
333 10134 20100 30///=
85041 31820 40000 10235 20228 39870 40186 52020 70440 81041
333 20220 30020 55053 56000 58018 81358 84070=
85043 31940 50000 10255 20220 39952 40113 52022 70420 80001
333 20210 30021 55103 56000 58007 85070=
85104 31857 53603 10266 20230 39966 40123 52018 70422 85030
333 20220 30/// 55100 56000 58023 85358=
85114 31830 63204 10250 20222 39965 40128 52022 70422 84034
333 20214 30020 55096 56078 58013 84358 86070=
85123 31956 00000 10248 20223 39960 40125 52020 70400
333 20226 30021 55097 58019=
85154 31850 40000 10247 20228 39947 40125 52021 70400 84030
333 20221 30021 55090 56080 58017 84358=
85140 31930 50000 10231 20224 39882 40124 52022 70422 80001
333 20200 30/// 56000 58012 85070=
85141 31840 30000 10222 20219 39928 40156 52028 70440 83030
333 20207 30021 55021 56070 58023 83358=
85152 31940 40000 10245 20224 39913 40136 52013 70400 80001
333 20200 30/// 55105 56007 58015 84070=
85201 11130 82208 10047 20034 36313 52016 69984 76062 8577/
333 20029 31000 55100 56000 58010 70008 81702 84613 88457 96040
85230 32984 00000 11028 21089 36288 52006
333 21048 30/// 58006=
85242 32584 70000 10028 20004 36561 52011 81540
333 21033 3//// 56700 58010 81620 86357=
68054 41460 81022 10147 20086 48541 55018 70722 885//=
68226 41960 00609 10216 21047 58515  70400=
68240 42960 81408 10148 20079 48542 57009 885//=
83264 22997 20504 10251 20200 3//// 4//// 80008 333 20205
5//// 60014=
83309 32895 83603 10256 20208 39827 40146 84050 333 20240
58017=
83358 32696 80000 10244 20211 39754 40154 885// 333 20216
58046=
83361 31896 83604 10286 20206 39959 40158 70444 83538 333
20244 58023=
83405 21896 60503 10268 20237 39980 40112 70444 85058 333
20243 58040 60044=
44277 32699 72709 10074 20002 37794 40109 52007 84540 333
10110 91214=
44288 12999 21803 10133 20122 38106 40033 54000 60062 80008
333 10184=
44292 114// 80000 10108 20094 38623 40066 56002 60102 71562
8872/ 333 10129 93010=
44373 12999 23201 10173 20122 38481 40055 53004 60042 80008
333 10195=
33135 42698 31905 10206 20071 30006 40176 51001 83200=
33663 41998 21203 10220 20086 30067 40159 57005 70241 80001=
33345 42598 61402 10205 20085 39982 40177 58001 85901=
34504 42697 53405 10217 20113 39997 40165 50003 85200 333 85833=
33791 42697 29902 10214 20059 30031 40177 57004 82100=
33506 42598 63403 10191 20097 39990 40178 54000 86100=
38880 42997 01006 10276 21060 39913 40151 55013 555   10034=
38507 42998 01503 10305 20117 30034 40128 57008 555   10045=
38392 42998 00606 10227 20032 30110 40208 57012 555   10034=
38750 42997 03205 10301 20203 30122 40096 57017 555   10041=
38763 41994 00916 10292 21012 30022 40120 57015 73130 333
91018 555   10037=
38895 42997 03502 10252 21019 39900 40176 57007 555   10045=
38987 42996 00205 10250 21122 39435 40134 57011 555   10038=
38774 42998 01103 10286 20009 39965 40146 57013 555   10040=
38799 42997 03603 10272 20053 39940 40156 57015 555   10141=
38806 42997 03202 10262 20027 39909 40153 57007 555   10034=
38886 42994 00502 10268 20107 39945 40158 57016 555   10043=
38687 42997 03603 10247 20036 39945 40166 57014 555   10035=
38647 42997 00910 10300 21144 30082 40121 56010 555   10040=
38911 42998 02804 10266 20009 39868 40143 57010 555   10037=
38915 42998 02703 10275 20006 39838 40140 56011 555   10038=
38545 42998 00105 10234 20111 30013 40178 57009 555   10035=
28679 42699 60302 10113 20004 30082 40256 52006 82539   555 11012=
28766 42498 60902 10118 20021 30067 40249 52001 84331   555 10015=
28867 42998 20905 10128 20029 39980 40238 52003 80001   555 11020=
28952 42998 70904 10164 20071 30044 40229 58004 82031   555 1/021=
28966 42598 30202 10116 20017 39964 40238 52004 83300   555 11021=
35108 42697 51002 10272 20093 40215 57010 85200=
35217 42698 11604 10277 20093 81100   555 10033=
35229 42698 60601 10238 20104 39956 40209 57007 82331   555 10029=
35302 42998 02303 10283 20027 40211 57012   555 10041=
35406 42997 01803 10269 20082   555 10041=
35416 42697 11102 10265 20015 81100   555 10040=
35532 42698 70502 10237 20081 39758 40212 57007 87100   555 10033=
36152 42598 82004 10153 21036 30017 40196 53005 889//   555 10018=
36177 42997 70801 10152 21025 39967 40200 53003 82031   555 10019=
36428 42999 71802 10126 21025 39724 40201 53004 83041   333 95000
555 10013=
36535 42999 50000 10129 20041 39598 40198 53010 85030   555 10017=
36821 42698 10000 10168 21022 40210 52014 81100=
36859 42598 82701 10166 20070 39448 40185 53020 85977   555 10022=
36870 41597 83602 10136 20053 39245 40215 52027 78082 889// 333
88932 555 10015=
38222 42998 20000 10180 21009 39689 40218 53027 80002   555 11025=
38341 42698 30102 10189 20006 39455 40197 52011 83500   555 10029=
38343 42798 50000 10190 20019 83201=
38149 32998 00306 10230 20067 30136 40208 57011   555 10038=
38178 42998 03606 10221 20011 39930 40200 57001   555 10031=
38262 42998 01405 10226 20045 30134 40211 55010   555 10036=
38264 35998 00605 10233 21019 30121 40209 57010   555 10035=
38396 42997 00605 10230 21022 40210 57010   555 10034=
38403 43998 00506 10241 20046 30087 40200 57007   555 10031=
38457 42998 03601 10234 21041 39610 40162 54000   555 10033=
38462 42999 02305 10185 21064 38760 48514 53004   555 10027=
38579 32998 00802 10223 20041 39777 40172 52001   555 10030=
38583 42997 03402 10240 20065 39872 40175 53001   555 10035=
38611 42997 02302 10235 20034 39617 40153 54000   555 10034=
38618 42999 13101 10238 20058 39488 40132 53003 81040   555 10036=
38683 42997 03607 10252 21019 39904 40163 57014   555 10038=
38696 32999 00904 10226 20017 39329 40132 53001   555 10037=
38812 42997 03503 10267 20090 40135 57006   555 10040=
38927 32997 02202 10277 20046 39779 40128 57025   555 10038=
40360 32960 03108 10326 20080 39505 40065 333 59024=
33261 42675 52301 10187 20077 30007 40182 54000 85200=
33377 42697 32702 10215 20081 39997 40181 58003 83200 555 11026=
40250 32970 00000 10330 20215 39330 40065 57016=
40265 32960 02706 10286 20182 39334 40095 57014=
40296 32965 00000 10372 20224 40122 57018=
40310 32960 00000 10304 20074 38988 48466 54000=
40255 32960 33112 10280 20146 39413 40097 57005 83100 333 83830=
40260 32960 00000 10320 20158 39339 40081 57012=
40270 32960 02410 10294 20179 39224 40080 57008=
40272 32960 03110 10282 20156 39285 40084 57010=
40340 32960 03514 10344 20208 40052 57023=
40001 32970 02103 10350 20087 40041 57011=
40007 32970 02802 10327 20151 40045 58008=
40045 32970 02902 10360 20087 40066 58007=
40061 32970 02701 10327 20092 40052 57015=
40080 32970 02105 10322 20082 39388 40058 57017=
40095 32970 02804 10292 20140 39476 40078 58011=
40009 32970 01701 10348 20118 40042 57006=
40016 32970 02603 10360 20237 40057 58012=
40022 32565 41506 10280 20198 40104 58004 84200 222// 20501 333
84830=
40030 32970 03202 10326 20126 40053 57008=
40039 32970 02901 10335 20163 40046 58013=
40066 32570 53002 10268 20171 40090 58004 85500 333 85626=
40072 32970 02403 10356 20062 40026 57003=
40083 32970 01601 10268 20101 48456 58005=
44212 11599 60203 10096 20002 39087 40171 52028 69962 70262
83530 333 10153=
44213 11698 72707 10085 20021 38749 40143 52019 69972 70262
87500 333 10114=
44215 32998 22708 10078 21067 38377 40130 52017 82040 333
10121=
44232 11598 80905 10127 20118 39020 40085 57004 60012 71562
8802/ 333 10186=
44239 11597 80000 10108 20094 38727 40079 55004 69932 76162
885// 333 10140=
44275 32698 72705 10083 20009 37707 40241 52008 84570 333
10126=
44284 32899 73202 10128 20015 37825 40037 53006 84040 333
10177=
44285 12699 20000 10137 20119 38239 40008 57011 60042 82500
333 10174=
44287 32599 52705 10160 20004 38082 40026 53002 84540 333
10215=
44298 116// 80000 10124 20099 38633 40040 57003 63162 72166
8802/ 333 10151=
44336 12999 00000 10168 20084 38616 40049 54000 60015 333
10183=
44341 11599 23202 10118 20104 38541 40074 53004 60062 70261
82040 333 10146=
44347 11999 00000 10156 20099 38651 40063 53006 60022 71021
333 10187=
60390 32558 43410 10314 20189 40112 58011 81832
333 0//00 81826 84070 95900=
60402 32558 81210 10301 20175 40092 58010 8387/
333 82826 87359 95900=
60490 32460 40204 10300 20170 40118 58009 83502
333 83616 95490=
60531 32557 20204 10280 20170 40122 57013 81530
333 0//00 81826 95970=
60566 32960 40110 10338 20123 40120 58007 80002
333 0//00 84073=
60571 31930 01216 10338 20097 39201 48510 57012 70600
333 95990=
60580 32960 00508 10372 20158 40095 57013=
60590 32960 21017 10370 20091 40080 58016 82030
333 0//00 82360=
60611 32960 00000 10398 20068 40060 58020=
60656 32960 03212 10320 20109 40051 58007=
60511 32565 33010 10295 20073 39041 48514 58011 81132
333 81826 95900=
60535 11670 42204 10215 20148 38837 48519 58017 60021 70162 84200
333 0//23 84833 95900=
60549 31930 42110 10292 20094 38860 48512 57013 70610 83081
333  0//00 83360 95960=
60550 11660 61808 10278 20057 38669 48519 56015 69921 70396
85202  333 0//15 85833 95900=
60555 32965 30804 10340 20154 40122 58008 82032
333   0//00 82360 =
60559 32960 21203 10330 20180 40121 58011 80001
333 82073=
60560 32960 50614 10306 20103 38924 48493 57009 82084
333 82360 85073 95900=
60607 32760 20000 10390 20087 40051 58011 82200
333 82856=
60640 32760 41910 10421 20098 40052 58016 83202
333 0//00 83850=
43413 32498 82306 10286 20243 3//// 4//// 82976 333 0//// 10314
5//// 82920 87458=
43418 32498 7//04 10290 20243 39966 40054 82906 333 10345 58012
70096 81818 82920 87278=
43421 21498 80000 10264 20238 39959 40061 71798 8597/ 333 00023
10384 58009 60037 70035 84818 82920 88458=
43424 32478 72306 10282 20251 30054 40056 83107 333 00024 10334
59001 83818 87280=
43436 32998 52304 10295 20249 30050 40053 80001 333 000// 10328
58008 85080=
43450 32476 82315 10284 20231 30055 40063 8412/ 333 00024 10318
58010 84818 88460=
43467 32480 6//// 10290 20235 30061 40066 86931 333 00024 10320
58009 84818 82920=
43473 21497 80000 10174 20162 38119 48482 70198 882// 333 02012
10213 58009 69927 70115 88807=
43497 32476 72317 10286 20246 30057 40074 84906 333 10306 58027
83818 81920 86280=
48378 01458 80000 10262 20237 30021 40074 69922 71562 84976
333 10314 58020 69917 70179=
48381 32562 60000 10287 20245 39852 40072 81206
333 10327 58011 70052=
48431 32560 50000 10303 20230 39865 40074 83506
333 10335 58011 70002=
48551 31560 63103 10275 20236 30071 40079 71792 82903
333 10339 58000=
48583 32560 50000 10288 20241 30082 40086 82246
333 10318 58004 70325=
48328 01562 80000 10250 20238 39803 40080 60132 70296 85763
333 10315 58029 69967 70131=
48354 31562 20000 10300 20243 39862 40061 71310 81943
333 10337 58008 70049=
48400 11560 80000 10288 20253 30034 40074 69972 70362 83937
333 10322 58007 70333=
48432 32962 20000 10294 20245 39913 40080 80005
333 10325 58015=
48517 01560 40000 10265 20248 30079 40085 60032 70196 82205
333 10320 58000 69927 70040=
10177=
10215=
61024 32960 53206 10346 20166 39540 40089 82082
333 0//00 59010 82364 83080=
61036 32570 7//// 10343 20231 39866 4//// 85502 91145
333 59013 85630 83080=
61043 32962 73006 10286 20208 39647 40080 87072 91145
333 59019 87465=
61045 32670 7//// 10315 20214 39606 40093 81132 91148
333 59008 81840 85080 94902=
61049 32670 63604 10311 20241 39781 40102 81282 91145
333 58008 81833 83364 85080 94912 95832=
61052 32665 61606 10314 20212 39848 40096 82282
333 0//00 59014 83840 83364 94919=
61075 12965 73602 10291 20200 39780 40084 69931 70262 87072
333 59021 87463=
61080 11665 70000 10292 20200 39668 40083 69921 81172 91145
333 59014 81833 87464=
61090 32665 70404 10295 20198 39600 40103 81572 91145
333 59011 81633 87464=
61096 32670 72204 10308 20228 39720 40096 83202
333 59007 83840 86080 94939 95879=
61099 11665 7//// 10262 20212 39/// 4//// 60051 70292 81572
333 5//// 81633 86464=
62306 32560 33314 10282 20173 40133 58004
83500=
62318 32560 43013 10293 20159 40111 57009
84800=
62337 32960 03307 10290 20172 40097 58005=
62366 32560 23510 10304 20170 40105 57011
82200=
62393 32960 03116 10338 20140 40088 57016=
62405 32960 03112 10386 20157 40053 57021=
62414 32960 03612 10397 20050 40048 56020=
62417 32960 03005 10318 20138 40127 58015=
62440 32960 03510 10310 20151 40093 58017=
62463 32960 03623 10344 20159 40059 58019=
23914 42999 50902 10154 20088 39997 40243 52012 85070=
23921 41699 70402 10139 20055 30161 40276 53001 70252 87500=
23955 11798 80503 10098 20034 30200 40260 53009 69902 78082 889//
333 10126 86656=
23966 11597 81803 10077 20034 30148 40272 52009 69992 72582 889//
333 10090=
28255 42999 30000 10124 20040 30137 40262 57002 80001=
28440 41498 81503 10096 20090 39896 40235 54000 76162 887//=
28722 41597 62303 10218 20154 30084 40206 57010 71798 86900=
28748 42560 80902 10178 20102 39980 40207 57009 8397/=
29231 11498 61002 10089 20051 30143 40236 52017 60012 72582 85341
333 10101=
29313 11598 83601 10090 20064 30111 40229 53010 69992 72582 84941
333 10121=
29612 32998 62801 10110 20008 30087 40233 52003 86030
333 10121=
29634 11557 82603 10090 20040 30008 40222 52007 6990/
70382 8633/ 333 10094 86930=
29838 32597 60000 10115 21014 30011 40234 52006 83331   333 10122=
36061 11699 82501 10078 20048 39844 40240 52015 69902 70282 86531
333 10106=
23909 41498 21304 10142 20107 30004 40241 52020 70181 82230=
28116 42698 63202 10178 20135 39984 40203 53004 84510=
28419 42698 22704 10234 20092 30063 40182 57011 81130=
28621 42981 03002 10230 20123 39984 40200 57011=
29023 11498 80603 10084 20058 30164 40257 53018 69972 70282 86932
333 10101=
29122 11599 70203 10077 20058 30176 40248 52010 69932 72582 85330
333 10086 85624=
29328 11598 73302 10068 20050 30089 40225 52012 60022 70282 85901
333 10096=
29348 32997 50000 10098 20050 30088 40228 52011 85030   333 10121=
29405 32697 73605 10102 21041 30108 40250 53009 85530
333 10116=
29418 32798 63101 10117 21015 30077 40230 53005 82930
333 10121=
29430 11598 62401 10093 20053 30051 40221 52012 69912 70281 86900
333 10127=
29524 12498 52803 10112 20000 30064 40220 53004 69902 85900   333
10130=
29605 32598 70602 10109 21003 30099 40236 52006 87500
333 10129=
29631 11596 80000 10063 20056 40223 52010 60072 78082 889//
333 10091=
29706 32699 70204 10113 21042 30086 40227 52007 83509
333 10130=
29736 12598 80000 10093 20001 39990 40233 52007 69902 884//
333 10103=
29937 32697 60801 10103 20027 30013 40226 52002 86500   333 10128=
36034 32698 81204 10126 21002 39951 40214 53005 82502   333 10132=
28216 41599 30000 10183 20149 39927 40192 53005 70181 83300=
28321 41484 33201 10185 20134 30003 40196 58005 70282 83200=
28428 41481 70502 10216 20140 30013 40186 57007 70298 87900=
28451 42598 71103 10126 20043 30092 40245 54000 875//=
28537 41482 73403 10192 20123 39798 40189 57005 70282 87300=
28541 41565 73103 10108 20088 39743 40218 57002 78082 87300=
28615 42598 22705 10253 20065 30058 40202 57007 82400=
28642 41596 81005 10113 20102 40229 51001 78082 8637/   333 84926=
28925 41599 70000 10197 20134 30007 40219 55001 72582 87900   333
87923=
29557 32698 72301 10091 20036 39967 40224 52013 86550
333 10107=
29625 11598 53003 10110 20018 40226 52006 69902 70282 85500
333 10121=
29642 32660 72802 10086 21009 40229 52009 82230   333 10100=
29813 32699 83601 10121 21011 40218 52003 82201
333 10124=
29822 32597 20000 10116 21009 30063 40220 53004 82400   333 10137=
29846 32697 53102 10093 20011 39854 40226 52011 83930   333 10115=
29915 32399 81004 10124 21025 40199 53004 889//   333 10135 84708=
40102 36/// /2210 10290 20115 39074 48501 57013 912//=
38388 42998 20906 10251 21022 30116 40182 57009 80001 555
18032=
38656 42998 00504 10267 20004 30067 40169 57015 555   10040=
48325 01220 80000 10241 20229 39842 40086 60272 76166 887//
333 10290 58028 60167 70819=
48357 01560 60000 10254 20251 39913 40082 60332 72162 83976
333 10338 58017 60336 70356=
48383 11562 50000 10260 20252 39913 40070 60212 71392 82946
333 10327 58004 70211=
48426 32562 60000 10307 20236 30062 40075 83546
333 10331 58012 79999=
44216 11599 33605 10138 21012 38928 40106 53018 69902 70262
84700 333 10170=
44266 32699 62312 10060 21009 37769 40135 53007 85870 333
10115 91214 555 96108=
44291 11597 80000 10106 20097 38661 40111 54000 60182 76166
8852/ 333 10120 93018=
44325 32699 72707 10186 20081 38788 40070 53012 84560 333
10226=
44329 32598 32707 10124 20070 37766 40091 52010 82540 333
10163=
44338 12899 22309 10169 20103 38428 40055 52007 60042 82040
333 10197 91114=
44374 32999 20000 10157 20058 38239 40060 53010 80002 333
10200=
44385 32999 20000 10207 20124 38836 40046 52013 82040 333
10257=
37395 42698 62707 10248 20184 39983 40160 52001 84530   555 11031=
37432 42697 51001 10200 20104 38943 48560 57005 85500   555 11025=
30385 32984 50000 10032 21042 39744 40187 52008 85030   333 10088=
30469 326// 20101 10038 20023 39509 40249 53013 81540   333 10111=
30650 32584 80000 10120 20021 39102 40152 57003 86901   333 10172
86995=
30664 32599 80603 10107 20064 39238 40174 53007 8395/   333 10172=
30781 32699 82701 10065 20061 39791 40246 52004 885//   333 10185=
30925 11598 81601 10101 20089 39177 40091 57016 60162 72582 889//
333 10127 88930=
31371 329// 20000 10059 21001 39999 40258 52008 80001 333 10135=
31388 32999 03603 10029 20008 39967 40240 53022   333 10120=
31478 11684 32704 10032 20016 39142 40206 52019 66900 70282 82900
333 10140=
31594 32983 03502 10068 20050 30058 40224 52017   333 10206=
31754 11599 00000 10136 20115 39662 40139 52019 60060 70281   333
10261=
38954 42899 12802 10230 21057 37909 48460 51002 81100 555
10052=
38599 42998 02409 10239 20002 39675 40158 52005 555   10031=
28240 41458 80004 10193 20022 39940 52008 78082 889//   333 11011=
26898 42698 22301 10186 20050 39924 40177 58001 82101=
26997 42977 22702 10191 20090 39980 40184 54000 82200=
27595 42997 12507 10256 20073 30071 40204 57006 80001=
27612 42597 72301 10165 20111 30009 40194 52005 86830=
27703 41597 69902 10172 20089 39955 40192 58001 70242 83101=
27707 42682 40000 10176 20103 39906 40186 52003 83201=
27719 42697 73601 10150 20103 39946 40187 54000 84550=
27786 42798 22205 10263 20056 30073 40221 53007 82100=
27906 41560 63604 10178 20094 39950 40180 58003 70242 82101=
27928 41296 83602 10129 20125 39963 40163 52002 76162 8772/   333
87706=
27947 42697 71302 10212 20102 30012 40162 54000 84530=
27962 42997 01607 10248 20038 40193 57002=
27983 42698 32403 10254 20051 30097 40216 57008 81130=
28506 42998 22702 10256 20067 40208 57002 80001=
28711 42698 52603 10229 20065 39862 40212 57005 85200 333 85840=
28807 42697 31402 10258 20086 30172 40219 57005 82201=
34009 42668 73505 10173 20078 39884 40174 58002 81501=
34123 41440 83602 10142 20134 39979 40156 52002 78182 887//   333
88916=
34152 42999 71505 10240 20058 39984 40167 54000 80001   333 91010
91112=
34172 42970 51406 10253 20062 30017 40196 57009 83031=
34186 42698 21303 10259 20067 30082 40211 57013 82100=
34247 41467 81701 10163 20136 30044 40153 52006 70282 883//   333
85914=
34336 41497 80802 10167 20157 30053 40152 53002 78082 8732/=
34391 32997 31804 10269 20034 30174 40202 57012 82042=
35121 42598 63602 10255 20090 30077 40213 57010 86900=
22113 42984 21705 10201 20112 30038 40097 57018 81041   333 91008=
22217 41396 81404 10130 20123 30063 40092 57011 78082 889//   333
84709 91008=
22235 42480 71304 10158 20125 39947 40133 57009 87500   333 87614
91006=
22349 41999 50807 10163 20127 30129 40140 57018 70242 83039   333
91009 91113=
22408 41499 72002 10133 20114 39963 40107 52025 70282 87500   333
87619=
22602 41498 62003 10139 20098 39879 40095 52011 70182 83930=
22721 42499 81301 10140 20118 30049 40146 52016 86909   333 86915=
22802 42575 71804 10145 20121 30109 40131 52011 85530=
22820 42599 62003 10165 20111 30017 40149 52013 83331=
26059 42598 71503 10169 20078 30076 40099 53003 86909=
26063 42697 61902 10179 20092 30118 40125 52003 84201=
26094 42584 61903 10170 20084 30087 40159 52006 86100=
26258 41460 81804 10140 20104 30060 40113 52003 78082 8695/   333
86915=
26298 42598 51802 10169 20082 39945 40165 52006 85200=
26477 42670 22104 10174 20085 30020 40142 52008 82100=
26585 42699 51802 10176 20077 39910 40170 52006 85200=
26702 41596 91601 10175 20117 30027 40052 52001 71011 87500=
26781 42597 52003 10178 20082 39888 40167 52004 85200=
27402 41596 71602 10141 20119 30021 40194 52008 71042 86530=
22028 42580 51409 10201 20110 30083 40117 57019
81501 333   91010 91113=
22106 42998 71402 10184 20125 30012 40086 57016 86031 333 91003=
22127 42999 71102 10171 20122 39926 40116 57020 85031   333 91006=
22324 41540 81309 10127 20127 30069 40116 56004 72582 889//   333
91014 91118=
22831 41598 72401 10152 20109 30109 40167 52010 70282 83930=
22892 42598 61707 10165 20082 30089 40104 52003 85101   333 91111=
26275 42598 71403 10178 20088 30111 40140 52002 82202   333 11022=
26695 42597 51202 10183 20086 39883 40175 54000 83180=
26882 26702 10902 10186 20088 39913 40175 54000 82200=
21824 11977 82211 10003 21015 30030 40039 57029 69922
70287 8807/ 333 10003 91119=
21908 11598 82704 10042 20014 40065 40142 57017 60032 76166 8673/
333 10042=
21946 32984 62304 11060 21087 30031 40110 57020 86030
333 11025=
21982 42984 70302 11017 21044 30030 40036 52003 87030   333 91102=
25123 32583 80300 11014 21056 30055 40087 52015 885//
333 1003  88625=
25173 42476 82304 11055 21073 30060 40065 58001 8653/   333 86617
91107=
25399 42584 12203 11025 21034 30078 40081 52007 81500   333 91104=
25551 41998 52002 11007 21028 39932 49962 58033 70262 85030=
25563 41461 81111 10036 20023 39920 49995 57017 76162 8572/   333
91118=
10035 31575 72205 10152 20099 39960 40016 52006 70242 86832
333 31/// 55302 85820=
58005=
58021=
58009=
26389 42670 51803 10167 20088 39907 40159 52003 85100=
25703 32999 03401 11046 21144 39879 40146 58009   333 10032=
25913 32499 80707 10019 21031 39898 40042 57022 8462/   333 10075
82713 91113=
25954 12998 53603 10032 21032 30067 40071 54000 69900 80001   333
10109=
31088 32599 73104 10045 21122 30063 40070 57006 84541   333 10102=
31829 32998 23104 10172 20142 30071 40101 53009 80002   333 10187=
31873 32998 02703 10184 20125 30034 40152 52018   333 10269=
31909 32998 02901 10158 20155 30068 40141 53011   333 10239=
31960 32999 01404 10182 20164 39939 40159 51001   333 10231=
32053 11597 83106 10080 20043 30086 40127 52054 60080 70298 84932
333 10265 91010 91114=
32061 11475 83609 10101 20062 30107 40145 52047 60020 70298 889//
333 10236 88916 91013 91118=
32098 32598 82904 10192 20146 30093 40102 53038 82943   333 10242
91112=
32150 12596 71303 10170 20153 30106 40134 53002 69900 84530   333
10210=
32165 32599 81905 10151 20122 30121 40179 57003 889//   333 10170
91110=
32215 32996 03001 10079 20070 40138 57017   333 10163=
32389 11598 82902 10078 20061 30027 40062 58024 69900 70282 889//
333 10163=
32583 32999 23401 10098 20061 30071 40100 58015 80001   333 10172=
28879 42597 80206 10100 20059 39965 40244 52006 86901   555 10014=
35067 42698 20504 10137 20041 39969 40233 52008 82200   555 10018=
35078 42799 43503 10114 20029 39869 40234 52006 84400   555 10015=
35085 41599 70202 10081 20056 39768 40231 52014 70282 87900   555
11010=
35188 41598 73404 10113 20041 39799 40216 52011 70382 87900   555
10017=
35376 42698 30207 10148 20040 39790 40202 53004 83200   555 10021=
35394 41697 72903 10087 20058 39539 40195 52002 70262 85530   555
11012=
35497 41597 83401 10069 20028 39434 40211 53006 78082 889//   555
11005=
35671 42598 63207 10199 21033 39811 40212 54000 86900   555 10027=
35746 42999 12004 10242 20067 30143 40217 57007 80001   555 10030=
35796 41697 72007 10148 20021 39795 40208 53001 70282 81232   555
10022=
35849 42998 00000 10222 20013 30151 40231 57005   555 10036=
35925 42998 01407 10247 21033 30122 40225 57006   555 10030=
35953 42999 00903 10225 20045 30112 40232 57008   555 10036=
35969 42999 03602 10218 20011 30059 40222 57001   555 10034=
36208 42799 60000 10079 21022 39261 40207 58003 86300   555 11011=
36397 42699 61103 10144 20006 39668 40201 51005 85302   555 10029=
36639 42599 60000 10139 21025 39620 40194 57013 84532   555 10018=
36864 42699 42903 10162 20021 40203 58023 84200=
38001 42998 02308 10252 20151 30204 40177 57006   555 10037=
38062 42999 00301 10218 20004   555 10033=
38069 42998 00803 10219 21067=
38196 42998 01403 10164 21022 40193 53006=
38198 42999 02902 10240 21017   555 10031=
38232 42998 01108 10263 21014 30088 40180 57008   555 10033=
38328 42599 10000 10217 21022 40164 53001 81100=
38334 42999 10805 10190 20004 39269 40176 52007 81030   555 10029=
38439 42998 00501 10250 20051 39863 40177 54000   555 10035=
28978 42798 53603 10096 20030 39761 40238 52004 85500   555 11014=
28984 42599 63602 10091 20027 39763 40237 52009 86900   555 11011=
35173 42596 53602 10114 20032 39857 40224 52007 85200   555 10016=
15640 31998 00000 10251 20115 40151 58015 70200=
15730 31699 21403 10261 20058 40144 57019 70200 82100 555 95000=
40375 32960 00706 10346 20080 39219 40046 333 59024=
41112 42560 42304 10291 21048 37920 48468 83930 333 59011 83825
81930 555 04410 50009=
41114 32560 40606 10302 20064 37957 48468 83230 333 59006 83825
81359 555 04410 59999=
31054 32699 60000 11016 21032 39952 40221 52009 83503   333 10030=
31123 31999 00101 11026 21120 39939 40264 54000   333 10068=
28049 42598 60303 10115 20034 30114 40273 53008 85550=
28319 41499 60501 10184 20155 30039 40193 57004 72522 83950=
28334 41599 80901 10115 20103 39907 40199 54000 75096 8872/   333
88720=
28552 42597 71302 10127 20036 30138 40247 58001 85502=
28825 41597 70000 10173 20147 30056 40219 57008 71798 87900   333
87924=
29111 32599 70203 10102 20030 40256 53007 85931   333 10123=
29209 32598 60201 10107 21005 40245 53008 86900   333 10129=
29551 32497 62502 10088 20057 40224 53010 84330
333 10124=
29602 32599 70304 10110 20008 40235 52010 87800
333 10134 87627=
29636 12598 51701 10082 20004 40226 52009 69902 85300
333 10108=
29654 32699 72401 10068 21011 40229 52012 87901   333 10093 83925=
29712 32998 20204 10105 20014 40230 53006 82071
333 10133=
29724 32599 33302 10119 21026 40226 52005 82330
333 10137=
29726 32598 83302 10116 21002 40227 52006 883//
333 10127 88928=
29814 32999 80306 10122 21003 40222 52002 83042
333 10140=
29827 32698 83602 10121 21014 40227 52004 82935   333 10140=
29923 32599 70000 10104 21025 40228 52010 85401   333 10121=
29939 11598 20000 10093 20038 40241 52004 69902 70181 82300   333
10105=
35026 42598 62402 10211 20126 39619 40212 57008 84301=
35037 41599 70802 10198 20139 39811 40205 57002 72522 84931=
36021 12599 81204 10120 20015 40207 53005 69942 8195/   333 10141=
36022 11698 80703 10113 20000 40219 53005 69902 70282 8246/   333
10177=
36038 32598 70000 10117 20009 40212 57001 82530   333 10126=
36058 11597 80000 10067 20051 40241 53024 60022 78082 889//   333
10102=
29467 11497 82603 10036 20034 40235 52014 60212 78088 889//   333
10045=
30157 32998 23002 10063 20024 39971 40247 53006 80001   333 10105=
30713 32697 80705 10138 20053 39493 40101 58004 8297/   333 10176=
45011 32456 52005 10284 20256 40085 53009 851//
333 10329 58004=
86575 22233 04210 20402 323// 40503 80160=
83700 22233 02140 20402 30622 41408 51408 80137=
82240 22264 00300 20302 330// 40803 80250=
81200 22284 00260 20201 308// 40502 5//// 80211=
58004=
81225 32470 10804 10252 20229 40150 81100
333 20222 56200 58010 81815=
81202 32470 10902 10276 20245 40136 81100
333 20244 56200 58006 81812=
81209 32470 30000 10264 20226 40160 83201
333 56209 58011 83815=
81251 32470 40906 10254 20198 40153 80001
333 56009 58004 81080=
82979 32998 21407 10267 20160 39704 40164 80005 333 20212 59006=
82986 32496 61413 10263 20182 39881 40168 84280 333 20202 59008=
83076 32594 30903 10373 20197 39644 40133 81130 333 20191 59017=
83090 32598 81404 10238 20174 39635 40155 885// 333 20199 59010=
83096 32695 20905 10266 20207 30167 40174 82100 333 20199 59005=
83097 32597 51408 10262 20210 30152 40175 85200 333 20208 58008=
83179 32898 11406 10283 20160 39693 40138 81001 333 20200 59006=
83182 31995 10913 10239 20154 39329 40165 70511 80001 333 20187
59008=
83186 32597 61406 10224 20173 39636 40173 85501 333 20198 59004=
83190 32497 70907 10242 20193 39767 40187 87200 333 20205 59011=
83195 32598 40902 10257 20199 39940 40178 84200 333 20212 59006=
83229 21598 20503 10267 20222 30120 40179 7016/ 82240 333 20226
59012 60064=
83236 32996 00505 10272 20156 39645 40131 70504 333 20195 58004=
83242 21494 81802 10200 20192 39680 40178 71060 887// 333 20193
59011 60024=
83244 21497 81403 10218 20210 39897 40184 70362 887// 333 20202
59004 60024=
83286 32998 00505 10270 20157 39495 40135 333 20218 58005=
83288 32898 10903 10281 20160 39644 40155 81030 333 20218 59002=
83339 32497 61413 10217 20147 39179 40155 86200 333 20180 58006=
83344 32498 70906 10217 20157 39204 40169 82109 333 20141 59011=
83398 32596 53604 10256 20223 30180 40186 84540 333 20197 59020=
83408 32798 30909 10268 20170 39640 40137 80300 333 20218 59002=
82586 32598 50507 10280 20208 39886 40123 85100 333 20222 59007=
82795 32597 61407 10233 20174 39560 40181 86200 333 20190 59009=
82975 32992 01805 10271 20183 39771 40155 333 20208 58001=
82024 22797 30506 10273 20228 30040 40122 82001 333 20221 58000
60084=
82042 32397 43204 10258 20240 3//// 4//// 82122 333 20225 5////=
82106 32597 60000 10260 20230 39996 40094 84220 333 20217 59004=
82212 32898 40000 10266 20256 30062 40125 84008 333 20230 58011=
82317 32597 20000 10276 20256 3//// 4//// 81101 333 20232 5////=
82326 22497 50000 10244 20209 3//// 4//// 84342 333 20222 5////
60114=
82331 32897 20504 10286 20237 30080 40162 80009 333 20239 58016=
82336 22998 50504 10276 20248 3//// 4//// 80008 333 20229 5////
60024=
82410 22697 60000 10241 20228 3//// 4//// 82162 333 20224 5////
69921=
82425 32397 60000 10268 20252 30087 40146 82462 333 20244 58003=
82533 32497 50000 10256 20244 30075 40131 84260 333 20217 58008=
82610 32696 20000 10225 20218 3//// 4//// 81052 333 20216 5////=
82704 32798 60000 10234 20231 39878 40072 86090 333 20226 58004=
82723 32998 00000 10266 20256 30055 40137 333 20226 58009=
82807 32692 80000 10226 20222 3//// 4//// 8807/ 333 20221 5////=
89050 21396 81812 11040 21060 49908 52033 71072 886//
333   60012=
89512 41997 61238 11154 21214 39618 49770 56002 73732
82044=
89592 31999 01628 11187 21259 49840 52022 73730=
89606 42998 01605 11636 21658 36304 47643 52004 333
11555=
91652 36/// /1311 10248 20211 40154=
91660 36/// /1219 10248 20203 40153=
91670 36/// /0809 10250 20230 40153=
91676 36/// /1314 10240 20183 40161=
91680 31699 31107 10230 20194 40157 51005 70121 83800
333 10289 569// 82830=
91683 11598 80000 10235 20196 40176 55004 69911 72522 888//
333 10260 569// 85820 87645=
91691 36/// /1207 10235 20205 40169=
91697 36/// /0808 10229 20187 40174=
91699 36/// /3109 10219 20178 40180=
48602 11330 80612 10244 20226 30094 40097 60231 79596 8692/ 333
10323 82706 81917 84623 88468=
48603 11330 80305 10259 20239 30086 40091 60071 79596 85947 333
10340 81707 81917 84625 88276=
48618 31464 71303 10286 20242 30077 40084 71322 82942 333 10340
81917 87077=
48625 11458 70000 10258 20252 30044 40089 60121 79596 84948 333
10345 82916 83626 87276=
48632 31366 70309 10186 20159 38464 71322 83942 333 10250 81908
83612 87078=
48674 32568 71705 10275 20235 30040 40089 82572 333 10318 82625
84364 87077=
48679 11564 60000 10267 20254 30046 40092 69951 70296 82542 333
10330 82623 85080=
61996 11462 83016 10134 20131 40185 69901 72822 875//
333 59004 87610 92437=
61998 11465 83327 10025 20009 39869 49904 56063 69961 78086 8683/
333 59123 84816 83623 87358 91147=
64504 11470 6//// 10264 20228 30120 40135 69961 70182 86800 907//
333 0//16 59005 84815 86630 94909 95839=
82863 22597 60000 10245 20221 39928 40140 86800 333 20214 58004
60134=
83064 22694 41803 10259 20227 39859 40131 70540 83230 333 20210
58000 60134=
83228 31799 32302 10262 20218 39863 40144 70500 83200 333 20209
59004=
83235 32998 00908 10278 20158 39468 40130 333 20219 58006=
83332 21896 60904 10249 20162 39252 40154 70542 86080 333 20219
58005 69914=
83368 31796 80000 10246 20201 39760 40124 70544 85230 333 20215
59031=
83374 31998 03206 10240 20186 39567 40137 70544 333 20202 59004=
83376 31896 62704 10235 20185 39300 40111 70542 84041 333 20177
59003=
83423 31896 73603 10238 20184 39323 40139 70542 85071 333 20189
58007=
83470 32898 63208 10254 20173 3//// 4//// 83034 333 20201 5////=
83522 31998 20902 10247 20188 39291 40132 7054/ 80002 333 20207
58004=
83526 21498 60503 10253 20196 39206 40136 70362 86500 333 20208
58002 60024=
89061 32473 83001 11104 39955 49965 52037 886// 91140
333 11052 21119 88710=
89062 32399 13408 11111 21147 39982 40025 53034 81670
333 11052 21114 81708=
89063 31394 82309 11113 21126 39965 49979 52032 71022 886// 91141
333 11068 21113=
83550 21597 6//// 10246 20213 30148 40178 70216 86500 333
20201 59026 60044=
83695 32696 70000 10230 20179 30037 40175 5//// 8455/ 333
20178=
83698 32999 63606 10260 20182 30142 40156 50111 8601/ 333
20203=
83718 31595 7//// 10220 20165 39595 40172 52111 70544 87700
333 20156=
83738 31697 80904 10186 20157 39640 40139 52002 70162 8471/
333 20160=
62309 31558 32915 10284 20144 40109 58006
70720 83200=
62325 32560 33209 10284 20191 40111 58008
83100=
62332 32560 33611 10289 20180 40107 57011
83100=
62387 32960 03214 10330 20141 40097 58015=
62459 32960 03122 10304 20222 40064 58012=
64500 32470 82812 10256 20226 30106 40122 885//
333 0//00 59006 84611 88630=
64501 32460 72410 10270 20211 30016 40126 878//
333 0//00 59010 83811 86626 94929 95839 =
64510 32470 7//// 10284 20208 3//// 40/// 8627/
333 0//00 5//// 86816 87461 94939 95839=
64550 32465 7//// 10262 20205 39014 40116 878//
333 0//00 59013 83813 87630 94919 95839=
64551 32465 7//// 10276 20211 30095 40124 878// 913//
333 0//00 59003 84813 87623 94937 95837=
64552 32470 7//// 10270 20295 39465 40110 888// 920//
333 0//00 59013 84815 87623 94939 95839=
64556 32470 8//// 10254 20196 39528 40095 888// 911//
333 0//00 59011 84811 88616 94929 92839=
64565 31470 8//// 10250 20190 39471 40104 70152 888/// 910//
333 59008 85810 88620=
61701 32460 63013 10316 20254 40118 86800
333 59018 85614 83815=
61721 32460 62307 10310 20267 4//// 85830
333 5//// 84612 83813=
63705 32580 41610 10264 20197 38835 48492 82905
333 59010 81824 81927 83280
555 10215=
82113 32497 61402 10272 20245 3//// 4//// 82320 333 20223 5////=
93023 36/// /0315 10151 20132 40232 57002=
93196 16/// /3414 10124 20110 40280 52002 69941=
93334 36/// /0407 10072 20051 39280 57006=
93404 36798 /9901 10078 20060 40246 52003=
93498 36/// /3405 10109 20069 40237 57003=
93527 16/// /0908 10120 20108 40226 57006 69941=
93597 36/// /3416 10119 20085 40212 57007=
93615 36/// /1205 10107 20073 40213 57009=
93678 36998 /0306 10095 20054 40193 57005=
93709 36/// /0805 10118 20072 40188 57013=
93831 36998 /0306 10100 20025 40164 57010=
93896 31498 80115 10093 20081 40171 57010 70222 886//
333 10100 88715=
93947 16/// /3310 10088 20078 40112 57007 60011=
93994 36/// /1009 10171 20119 40246 52005=
91843 31498 72102 10216 20167 40153 57007 70211 878// 333 10269 565//
8
4
8
1
7
87650=
84628 24356 82502 10147 20138 30140 40156 71044 886//
333   20143 566// 59008 69904 88707=
84735 31562 80000 10052 20010 36468 7022/ 884//
333   20010 569// 59002 88633=
84377 21960 50000 10235 20221 30007 40113 70122 8503/
333   20214 5600/ 58003 60024 85360=
84452 31460 51709 10156 20138 30120 40152 70122 8253/
333   20150 5649/ 59005 82615 83365=
84691 21458 20000 10128 20107 30126 40133 71040 82600
333   20122 56000 59020 69904 82712=
84501 31359 81508 10150 20143 30125 40166 7102/ 886//
333   20138 560// 59018 86707 846610=
84782 31460 80000 10118 20102 39666 40210 702// 886//
333   20110 569// 58008 88710=
84455 31330 40000 10230 20216 39822 40176 7100/ 84700
333   20220 56000 59010 84714=
84752 31965 03302 10140 21058 37538?70100
333   20094 58009=
84515 31440 80000 10239 20226 39939 40117 710// 8552/
333   20225 5699/ 59001 85615 83460=
84658 31562 40000 10250 20222 39861 40085 71044 841//
333   20230 569// 58011 84820=
84472 21665 60000 10090 20045 37418 7012/ 8272/
333   20064 5600/ 58008 60014 82743 84662=
84686 31759 60000 10090 20040 36900 70540 82501
333   20060 56909 58005 82650 84073=
84401 31560 80000 10170 20154 30131 40201 70222 8553/
333   20168 5600/ 59008 85615 83360=
84673 31668 80000 10121 20080 37364 702// 888//
333   20110 560// 58009 83850 85856=
84534 31520 80000 10210 20198 39400 40125 710// 8452/
333   20183 5699/ 58000 84630 88460=
84564 31560 50000 10155 20138 38190 701// 82130
333   20135 56000 59011 82830 83360=
84370 31560 80000 10210 20195 30099 40128 702// 885//
333   20194 560// 59011 8862)=
82098 32597 40506 10291 20229 30112 40129 84200 333 20231
58003=
82141 32698 50505 10292 20232 30109 40121 85200 333 20248
59013=
82145 32598 33605 10280 20229 30107 40149 82240 333 20238
58009=
82178 32698 53601 10274 20207 30058 40101 83241 333 20227
58005=
82181 32497 30509 10259 20210 30011 40152 81201 333 20240
59003=
82184 32798 60502 10258 20244 30123 40141 84470 333 20232
58000=
82191 32598 50502 10274 20234 30128 40134 85200 333 20230
58005=
82246 32697 51402 10258 20237 39951 40150 83230 333 20217
58002=
82263 21598 10508 10274 20238 30130 40158 70354 81100 333
20244 59001 60024=
82280 32497 5//// 10276 20223 30075 40133 84204 333 20221
59002=
82353 32698 83212 10269 20230 30014 40098 83245 333 20226
58005=
82376 32497 50904 10281 20224 30082 40134 85200 333 20212
59002=
82562 32598 33607 10271 20202 30026 40115 81101 333 20240
58001=
82564 32697 30507 10280 20192 30000 40139 80008 333 20228
58005=
82571 32497 60502 10259 20212 39958 40155 86200 333 20223
58000=
82765 31597 71402 10270 20220 39936 40175 704// 8582/ 333
20237 58006=
59004=
82861 31996 01804 10255 20236 39934 40103 70444 333 20217
58001=
89066 11135 73202 11124 21139 30108 40027 52027 60044
71022 83770 333 11100 21152 43007 56780 83703 85360
90562 90973 92800 95060=
64400 11460 82204 10248 20209 30105 40125 69941 70165 888//
333 0//54 59003 83810 84620 88640 94902 95812 =
64401 32565 82806 10262 20182 39/// 40/// 885//
333 0//00 5//// 88620 =
64402 32465 82802 10241 20182 39537 40103 888//
333 0//00 58003 82812 88616 94906 95816 =
64450 32459 82206 10264 20191 39750 40102 888//
333 0//00 58001 85816 88626 94909 95835 =
64452 32560 50402 10290 20204 39/// 40/// 82280
333 0//00 5//// 82823 85363 94922 95832 =
64453 32465 43602 10255 20178 39237 40/// 84200
333 0//00 58000 84820 94922 95832 =
64456 31460 53606 10260 20208 39/// 40/// 70366 82130
333 0//00 5//// 82816 85363 =
64458 32565 53206 10293 20230 39694 40086 82230
333 0//00 59013 82820 85363 94918 85838 =
64459 32565 62802 10303 20214 39/// 40/// 84230
333 0//00 5//// 84820 86363 94919 95834 =
67017 32581 3//12 10265 20168 30130 40136 57012 83800
333 0//00 82823
555 82640=
67020 32582 12404 10350 20158 30073 40100 57027 81200
333 0//00 81820=
67023 32582 21406 10260 20186 30136 40142 57016 81230
333 0//00 81820
555 82360=
67037 32582 2//// 10296 20193 3//// 4//// 5//// 82800
333 0//00 82820
555 10310 81640=
67107 32581 40000 10230 20079 38483 48521 57012 82970
333 0//00 82820 81920 83360 94993 94996 95833 95836=
67131 32582 12421 10270 20210 30135 40140 57019 81100
333 0//00 81820 91129=
68174 32580 80910 10122 20052 38838 48563 57009 885//
333 10137 20088 91019 555 91024=
68242 32578 70427 10151 20056 38768 48543 57011 875//
333 10157 20071 91028 555 91022=
68262 32460 81004 10135 20064 38772 48582 57006 8357/
333 10140 20081 91008 555 91026=
68263 32470 80719 10097 20049 38549 48572 57008 887//
333 10104 20050 91029 555 91026=
68350 36/// /0712 10134 20087 38716 48559 57012
333 10142 20071 91021 555 91024=
68368 32482 81121 10082 20062 38361 48566 57008 885//
333 20043 555 91026=
68372 17/// /1215 10067 20037 38514 48576 57011 69921 7216/
333 10073 20002 69925 91025 555 20002 91027=
68424 32780 63615 10205 20024 39215 48516 57034 84400
333 10207 20097 91017 555 91018=
68438 31574 71006 10155 20092 38863 48544 57028 70566 82570
333 10156 20066 91008 555 91023=
68442 32682 40415 10188 20027 38705 48557 57024 82102
333 20075 555 91024=
68461 32580 40817 10103 20045 38394 48584 57003 83530
333 10110 20010 91033 555 91028=
68512 32782 51115 10136 20025 39034 48514 57020 82180
333 10142 20053 91033 555 91019=
68588 11356 71810 10149 20098 30329 40346 57008 60011 76166 876//
333 20138 555 91034=
68618 11565 80615 10098 20035 39115 48553 57022 69901 72165 8457/
333 10105 20048 91026 555 20000 91024=
68668 11580 41112 10133 20064 39453 48619 57019 69961 70150 84500
333 10136 20061 91022 555 20006 91032=
68714 31566 30813 10234 20011 30186 40223 57031 70500 81144
333 10235 20086 91022 555 91022=
68816 32682 10913 10216 20056 30181 40231 57035 81500
333 20133 555 91023=
68828 32670 11226 10165 20058 30060 40291 57029 81500
333 20120 555 91029=
68842 11682 30818 10173 20060 30261 40336 57017 60031 70360 83500
333 20110 555 91033=
68858 32582 40714 10183 20053 30201 40350 57017 84500
333 20133 555 91035=
68180 32483 80906 10155 20099 39617 48562 58011 885//
333 1//// 20140 555 91023=
68268 32474 81306 10165 20065 38946 48565 57015 885//
333 1//// 2//// 555 91024=
68322 32987 30000 10186 20060 39167 48523 58011 83200
333 1//// 20061 555 91018=
68338 31430 80511 10146 20097 38804 48534 57013 72022 886//
333 1//// 2//// 555 91021=
68362 42480 41308 10119 20032 38584 48585 58006 82550
333 1//// 2//// 555 91028=
68400 42681 82307 10175 20108 30227 40303 58006 888//
333 1//// 20147 555 91030=
68408 42980 00912 10232 20198 30153 40163 57035
333 1//// 20150 555 91016=
68416 42684 60712 10140 20035 39061 48526 57024 83680
333 1//// 20080 555 91020=
68478 42589 51804 10110 20043 39011 48627 57011 85500
333 1//// 20035 555 91033=
68488 41475 42007 10118 20065 39408 48612 57011 71522 84700
333 1//// 20101 555 91031=
68524 42486 80916 10140 20021 39121 48546 58025 885//
333 10145 20060 555 91022=
68530 32875 80908 10114 20053 39095 48758 58018 886//
333 1//// 2//// 555 91049=
68570 42898 80504 10045 20007 38653 48635 58010 884//
333 1//// 20011 555 91034=
68580 41680 71315 10102 20050 39091 48627 57012 70252 8452/
333 1//// 20067 555 91033=
68614 32480 70914 10208 20066 30177 40220 58014 875//
333 20145 555 91022=
68624 11682 61616 10090 21010 38817 48575 58020 69901 70280 86600
333 20040 555 91026=
68674 42474 32320 10167 20060 30285 40342 54000 83300
222// 2//// 313// 41304
333 1//// 20124 555 91034=
68712 32772 21115 10216 20015 30146 40227 57029 82040
222// 323// 41203
333 20106 555 91022=
68718 42689 11414 10200 20047 30016 40257 57040 81100
333 1//// 20096 555 91026=
68722 41720 81330 10059 20028 38621 48568 58012 76062 8802/
333 20024 555 91026=
68832 32785 10916 10149 21004 39322 48614 57024 81200
333 20071 555 91030=
68916 42370 11440 10170 20061 39950 40239 57030 81100
222// 20201 323// 41204
333 1//// 20116 555 91024=
68920 42470 10930 10167 20111 30275 40285 57029 81200
222// 20302 323// 41204
333 1//// 20151 555 91028=
68928 42570 30932 10165 20063 30230 40304 57029 83500
222// 316// 41005
333 20144 555 91030=
68938 42464 30928 10174 20089 30325 40333 58014 83200
222// 2//// 318// 41205
333 1//// 20160 555 91033=
83334 22598 33606 10254 20160 3//// 4//// 82104
333 20186 5//// 69924=
83383 32797 50502 10276 20180 3//// 4//// 85020 333 20221 5////=
83384 32997 00506 10272 20170 39579 40149 333 20222 58001=
83386 32998 20906 10265 20180 39623 40164 80004 333 20203 58001=
83388 32597 80904 10256 20150 39470 40143 82104 333 20216 59004=
83393 21596 53601 10218 20180 39448 40175 70365 83322
333 20190 59014 60024=
83437 32999 20506 10246 20161 39436 40152 80004 333 20186 59008=
83442 32597 50502 10250 20182 39814 40155 81205 333 20219 59017=
83479 21797 80504 10240 20182 39367 40157 70385 8801/
336 83605 10167 20153 38748 40182 74042 887//
333 20143 59009=
83483 32597 53603 10252 20194 39574 40155 81164 333 20209 59001=
83488 32596 83602 10193 20173 39157 40173 885// 333 20143 59015=
83492 21498 81802 10222 20207 39795 40183 70352 8872/
333 20190 59024 60014=
83514 32598 51801 10247 20183 39450 40130 83135 333 20199 58000=
83531 32597 70506 10218 20165 39102 40143 87500 333 20185 58002=
83538 31596 83605 10167 20153 38748 40182 74042 887//
333 20143 59009=
83543 32695 70000 10234 20185 30034 40205 87590 333 20210 59015523
40131 59011 88070 333 20234=
83570 32596 53602 10230 20153 39383 40156 80004 333 20192 59003=
83574 32894 80502 10266 20168 39523 40131 59011 88070 333 20234=
83577 31596 30506 10258 20177 39287 40132 70500 82577
333 20224 59002=
83579 21597 40904 126 40176 53014 8536/ 333 20133=
83582 21595 80000 10188 20168 39400 40168 52033 76092 886//
333 20172 60014=
83587 32697 70501 10211 20150 39154 40160 87100 333 20178 59008=
83592 32598 83603 10205 20170 39487 40174 885// 333 20160 59021=
83595 32597 73602 10244 20197 30090 40175 82550 333 20210 59030=
83642 32896 83605 10192 20151 39390 40165 51014 8802/ 333 20175=
83683 21598 80901 10176 20166 39180 40145 51010 72065 887//
333 20152 60094=
83687 32697 80503 10172 20152 39149 40160 51012 886// 333 20155=
83692 32498 83606 10174 20147 39126 40176 53014 8536/ 333 20133=
67261 31559 11810 10330 20188 40100 70400 81500 333 58064=
67283 32580 11616 10282 20210 40149 81200 333 58064=
67315 11450 82116 10205 20191 40208 55002 60011 75155 8572/=
67323 11470 81713 10190 20160 40231 58002 69981 72055 882//=
61711 32460 60905 10326 20257 4//// 86800
333 5//// 83612 84813=
61712 32460 63408 10325 20271 4//// 86800
333 5//// 84612=
61731 32460 72208 10308 20259 40099 86832
333 59027 84612=
71472 36/// /1202 10108 30183 40200 58011 333 10140 20108 70000=
71194 17/63 ///// 10161 20140 30081 40096 56009 60171 7//4/ 333
10175 20154 70960=
63602 32570 41105 10290 20168 82901
333 82820 81925 83080
555 10207=
63674 32675 30506 10315 20186 39017 48487 83933
333 59027 83830 81932
555 10225=
63658 32580 61106 10302 20156 38844 48480 84905
333 59014 84820 81925 86280
555 10208=
63630 32580 41402 10302 20145 38876 84905
333 59018 84824 81925
555 10202=
80001 01570 50604 10272 20256 30115 40116 60122 7025/ 81236
333 05100 10317 20248 32/// 50440 55081 56100 57863 59004 69958
70160 81823 84070=
80002 14121 80002 32570 80802 10279 20249 83206
333 05290 10312 20279 30/// 50430 55066 56290 57821 70001 83820
88070=
80009 11459 60000 10252 20238 30107 40112 60014 7052/ 82832
333 20246 55049 56000 58003 82815 85359=
80022 31460 71702 10259 20239 30118 40120 70522 83221
333 20256 30/// 50110 55025 56500 58008 83912 83457=
80028 11458 60000 10244 20244 30107 40124 60174 70511 82620
333 20239 31/// 50600 55008 5649/ 58009 82712 86457=
80063 21465 70000 10242 20234 7052/ 83410
333 10336 20221 31/// 5600/ 60053 83618 86460=
80094 11310 80000 10180 20173 38837 60064 7414/ 8377/
333 20176 32/// 50330 55059 5600/ 58017 83708 86457=
80099 11462 60000 10230 20227 39925 40069 60194 7052/ 85602
333 20224 31/// 50390 55059 569/9 58026 85714=
80144 01230 80000 10228 20225 60194 7102/ 8671/
333 20226 31/// 50390 55031 56009 60162 86705 88458=
63740 32680 10201 10286 20163 48467 81362
333 59020 81930=
63820 32582 21410 10274 20198 40124 82200
333 58001 82828=
63612 32680 2//05 10355 20118 40051 81101
333 59011 81833=
63641 32580 11218 10249 20133 81100
333 81824=
63723 12681 71707 10320 20162 40102 69901 8523/
333 59010 85833 85360=
63766 32580 31406 10255 20162 48515 83200
333 59001 83826=
34560 41797 81207 10232 20009 30007 40162 51001 8437/=
34824 42597 33203 10220 20139 30150 40155 52004 83200=
34858 42662 60602 10238 20155 30040 40140 54000 82332=
34880 42997 61505 10233 20080 40181 57001 80001 333 91112=
37018 42698 62803 10235 20172 30105 40153 52002 82230=
37054 42698 62805 10257 20148 39776 40133 52002 84360=
37472 42599 31104 10251 20194 30151 40130 52009 83200=
34240 42672 81804 10209 20100 30026 40154 54000 8657/=
34357 42498 81903 10213 20103 30009 40159 58001 8435/=
34363 42980 61009 10244 20040 30043 40181 57007 80002=
34545 41698 81005 10163 20152 30037 40143 58004 78082 889//   333
88935=
34579 42998 61006 10250 20017 30139 40179 57007 80001=
34759 41498 81603 10203 20165 30025 40149 52005 70282 889//=
34838 41597 82401 10221 20136 30063 40154 52003 70282 83461=
34929 42664 53305 10237 20154 30118 40157 52004 85200=
34954 42698 63301 10238 20151 39978 40140 58004 85430=
37031 42497 73101 10208 20139 39968 40153 52002 86960 333 86919=
37085 41598 70000 10212 20107 30173 40148 52005 70298 869//=
37145 41598 53603 10207 20178 39982 40140 52005 70182 82269=
37171 41698 73203 10240 20180 40155 52008 70182 82930=
23226 42980 21408 10133 20038 30100 40309 52009 82030=
23606 42962 61005 10187 20062 30077 40239 53006 82031=
23701 42699 61603 10205 20085 30104 40226 54000 83201=
26167 42970 81806 10160 20085 30026 40131 52011 8807/   333 91111=
27857 42998 21707 10252 20077 30018 40168 54000 80001   333 91114=
28909 42697 43601 10266 20086 30124 40215 57009 82240=
37061 41698 60903 10229 20167 39978 40135 53007 70282 82230=
17237 32670 23203 10291 20136 40092 57015 82100 333 82840=
24125 11997 82906 10027 20019 39930 40204 57021 69962 76162 8802/
333 11007 91112=
24143 12497 82307 10003 21005 30135 40184 57015 60022 78682 889//
333 10026=
24266 32998 52503 11020 21065 39994 40168 57025 80001   333 10025=
24329 32599 62803 10045 21044 39964 40256 57019 86800   333 10056=
24639 32999 22602 10006 21116 30132 40284 57013 80001   333 10082=
24641 329// 12402 10013 21121 30128 40269 57013 80001   333 10071=
24652 32984 43305 11012 21094 30108 40230 57023 81031   333 10020
91111=
24671 32999 80000 11061 21125 39698 40208 57020 8805/   333 11022=
24688 32799 13304 11075 21165 39254 40172 58008 81500   333 11019=
24724 32999 02703 10023 21097 39781 40304 57009   333 10070=
24738 32999 12401 11005 21079 30121 40301 57007 80001   333 10124=
24768 11598 52802 11025 21099 39997 40230 53003 69902 70272 82501
333 10026=
24923 32999 09901 10008 21082 39999 40304 57003   333 10080=
24944 32999 02301 11021 21092 30012 40305 57007   333 10074=
24951 32999 02901 10019 21094 30133 40284 56005   333 10065=
24959 32999 23102 10000 21077 30105 40233 57011 80001   333 10036=
24966 32684 12902 11030 21084 30000 40218 58004 81400   333 10047=
30054 32798 60202 10061 21014 30040 40275 56002 86530   333 10082=
30393 32999 03502 11012 21133 39256 40300 52005   333 10035=
30493 32999 20000 11027 21106 39248 40299 52006 80001   333 10048=
31004 32999 00000 11034 21099 39466 40310 53004   333 10033=
31137 11599 20000 11092 21109 39240 40302 52003 69922 70281 82900
60281 82900   333 10005=
38974 42998 00202 10268 21057 39836 40149 57012 555   10043=
48552 31458 62904 10287 20254 30074 40079 71322 82946
333 10325 58002 70001=
44231 11598 70000 10098 20070 38651 40085 53003 60022 71562
87800 333 10117=
44259 32698 81405 10173 21012 39284 40126 57032 85570 333
10202=
44304 115// 81409 10137 20126 38904 40046 56032 60042 78098
889// 333 10231=
44354 115// 80000 10178 20169 39013 40022 56009 60062 72162
86920 333 10252 555 20287=
30815 32092 89903 10062 20049 38493 48436 58016 886//   333 10088=
24988 32699 73004 10022 21134 39831 40075 57001 86501   333 10083=
31174 11599 13304 10035 21072 30193 40204 52019 60060 70261 81500
333 10066=
31263 12999 00000 11003 21052 39677 40253 52018 69902   333 10067=
31959 32998 22701 10174 20160 30098 40138 54000 80002   333 10217=
32027 11598 73621 10088 20048 30141 40119 52042 60080 70298 87900
333 10166 87925 91017 91122=
32076 32998 53505 10111 20093 30089 40099 53065 85030   333 10297=
32408 32999 80202 10097 20050 30032 40069 57030 8805/   333 10165=
32509 32998 33201 10080 20065 30040 40073 57013 80001   333 10151=
32594 32598 41808 10086 20004 30096 40131 57017 84500   333 10129
91010 91112=
29802 42497 70703 10124 21014 30077 40215 52005 86931   555 10015=
29807 42597 60802 10120 20068 30091 40205 52006 86300   555 10014=
36003 41497 81502 10107 20053 30062 40210 53016 78082 889//   555
11010=
37228 42497 70000 10197 10248 39343 40128 52005 87300=
42071 22996 00000 10270 20226 40097 333 10282 58050 6009/=
42131 21696 51103 10241 20237 40072 72196 85500 333 10376
58050 6006/=
42182 21695 73411 10270 20193 40064 70562 85330 333 10365
58046 6002/ 85630 81935 87360 91060 91933 99958=
42189 31595 53201 10310 40048 70522 83831 333 10344 58032
83630 84360 85070=
42260 21596 50906 10308 20239 40043 70362 82331 333 10374 58028
6990/=
42475 31595 43202 10310 20247 40043 70510 83401 333 10339
58027 83630 83070=
44203 11596 80000 10052 20043 38345 40101 50000 60162 71562
8862/ 333 10086 93016=
44207 11999 71603 10060 20046 38259 40094 56002 60032 70262=
44225 11698 70000 10079 20038 38234 40113 53004 69962 70262
87500 333 10100=
44230 11596 82302 10110 20100 38712 40074 54000 60042 78082=
44237 11599 70000 10096 20070 38422 40068 53008 60022 70262
87500 333 10155=
44256 32999 61402 10152 20030 39323 40126 58007 80006 333
10204=
44272 11598 60000 10080 20044 38138 40085 53006 60012 70286
84280 333 10110=
44282 11599 61101 10120 20081 38237 40064 53016 69942 70298
83508 333 10170=
44294 116// 80000 10112 20088 38451 40005 56004 60092 70262
885// 333 10145=
44302 115// 82302 10145 20111 39045 40078 53009 69902 76362
885// 333 10218=
44305 115// 83204 10168 20077 38999 40093 56008 69932 76162
8852/ 333 10223=
44313 32999 51805 10177 21014 39364 40142 57020 85070 333
10230=
44314 32598 81402 10181 21047 39108 40123 58018 885// 333
10209=
44317 326// 88806 10177 20061 38914 40100 57016 885// 333
10221=
44352 115// 81805 10160 20115 38872 40082 57011 60012 76098
887// 333 10247=
44358 11698 82703 10227 20136 39002 40046 57001 69912 70266
885// 333 10270 555 20410=
35700 42998 11209 10240 21009 30238 40212 57012 80004   555 10033=
34691 42998 21108 10262 20004 30210 40198 5/003 80002   333 1/035=
30439 32599 70000 10104 20084 39608 40157 57001 81103   333 10160=
38413 42998 00703 10206 20044 40209 57005   555 10034=
42314 21596 60000 10270 20253 40059 70522 83331 333 10287 57940
58016 6001/ 83620 81925 85360=
42410 31596 60000 10280 20257 40049 70592 82431 333 10326 58011
82620 85074=
42415 31596 50000 10296 20262 40044 70522 83330 333 10311 58012
83825 81930 84360=
42724 32596 60000 10306 20261 40058 83401 333 10335 58009
81620 83825 85070=
42809 21495 71402 10292 20243 40047 79596 85320 333 10340 58013 6990/
83615 81930 85358=
30537 325// 82901 10113 20058 39597 40142 57010 8357/   333 10149=
48601 31459 72804 10290 20249 30087 40091 71792 83932 333 10322
81917 83364 87077=
48615 31468 71105 10281 20245 30082 40088 72992 82932 333 10327
81916 87075=
48620 31463 71803 10295 20253 30069 40078 71792 83948 333 10333
81916 83632 87276=
48647 11465 73305 10260 20243 30054 40079 60041 71798 83948 333
10346 81710 81917 86362=
48657 31465 70000 10279 20248 30066 40084 71322 82941 333 10328
81917 86079=
96413 11265 72506 10236 20230 30066 40092 60431 72998 84972 333
10320 81703 81915 85365=
96421 32465 60000 10257 20244 30068 40103 82941 333 10328 81915
85080=
96441 31468 73204 10283 20237 30092 40097 71322 8297/ 333 10310
81915 87365=
96449 32468 73403 10281 20244 30072 40092 82571 333 10312 82614
85365=
96465 31465 71104 10276 20259 30063 40097 70192 81842 333 10310
81812 83364 87080=
96471 31468 71108 10268 20251 30093 40096 71392 83948 333 10317
81814 81917 83364 87277=
96491 31465 72101 10285 20242 30089 40102 71322 83942 333 10340
82816 81917 87078=
47058 32966 00504 10224 20088 30108 40152 53015 333 10293=
47008 32970 00000 10189 20153 30114 40165 53005 333 10242=
47014 32950 00000 10199 20138 39760 40127 52013 333 10310=
47020 32965 00000 10213 20159 39800 40155 53017 333 10302=
47025 32960 03202 10182 20144 30139 40167 52006 333 10239=
47035 32970 00000 10227 20196 30148 40156 52012 333 10320=
47041 32970 00503 10178 20153 30144 40170 53005 333 10245=
47055 32965 02302 10173 20139 30132 40175 53005 333 10227=
47069 32965 00000 10223 20160 30046 40140 53006 333 10284=
23074 32698 72803 10081 20023 30328 40352 54000 875// 333
10090 87639=
23274 32698 63503 10098 21041 30312 40350 53004 81231   333 10118=
23383 32999 63208 10088 21007 39983 40325 53001 80004   333 10096=
23472 32999 20502 10108 21033 30291 40338 53003 80001   333 10119=
23678 32998 00602 10105 21022 30252 40309 52008   333 10117=
23884 32970 20502 10108 21005 30210 40281 52007 80001   333 10140=
23891 32698 70902 10066 21021 39995 40319 53006 87500   333 10087=
24507 32998 02301 10078 21071 30097 40327 57006   333 10100=
24908 32982 00602 10060 21125 39966 40289 57002   333 10090=
29263 32699 70901 10100 20017 30142 40239 53013 82501   333 10122=
29282 32598 80000 10065 21019 30089 40255 53005 82031   333 10091=
29570 11597 82901 10056 20054 39863 40200 52014 60102 78182 889//
333 10084=
29698 11597 83101 10079 20079 39680 40171 53005 60092 78082 889//
333 10106=
29862 12599 71303 10093 20019 39901 40210 52015 69902 82932   333
10127=
30230 32999 20405 10064 21001 39923 40241 54000 80001   333 10102=
30521 325// 80602 10106 20056 39649 40152 57007 8695/   333 10134
86923=
23973 12999 20504 10111 20000 30222 40282 53012 69902 80001   333
10132=
23975 32999 80000 10100 20011 4//// 8801/   333 10115=
23987 12999 10904 10121 21012 30188 40258 53008 69902 80001   333
10138=
29253 12899 80000 10082 20056 30068 40236 52010 60072 8807/   333
10094=
29471 32599 80503 10074 20017 30003 40224 52013 889//   333 10082
88923=
29481 32599 80204 10073 20043 39990 40221 53010 8672/   333 10086=
29553 11568 80000 10042 20022 39879 40238 52010 60022 78082 8792/
333 10063=
29562 11596 80501 10051 20044 39813 40219 52018 60202 76162 8872/
333 10060=
29581 32598 80504 10089 20043 39955 40202 53009 885//   333 10110=
29594 32599 80502 10091 20056 39818 40188 53004 8691/   333 10112
85932=
29653 32597 60502 10061 20013 39760 40231 52017 83201   333 10088=
29675 11556 80000 10047 20045 39645 40224 52035 60092 76165 8802/
333 10067=
29676 11596 83102 10078 20078 39767 40173 52010 60152 76366 8802/
333 10090=
29759 11599 80000 10045 20012 39232 40233 53013 69902 70282 885//
333 10065=
29766 12699 73201 10070 20043 39869 40212 53022 69942 87500   333
10086=
29864 32699 73203 10086 20004 39585 40212 52014 86530   333 10116=
29869 11698 70000 10092 20059 39854 40213 53017 60012 70282 87900
333 10100 95030=
29956 32698 71901 10090 20034 39679 40221 52014 879//   333 10107
87940 95050=
30603 11598 83202 10092 20081 39590 40132 57003 69972 78082 8692/
333 10113=
30612 11599 70302 10107 20080 39626 40129 57008 69952 70262 8397/
333 10117=
30622 32698 80202 10116 20045 39518 40124 54000 8393/   333 10158=
42571 32597 33202 10324 20232 40032 81131 333 10342 58019=
42675 32996 20000 10316 20222 40042 81101 333 10332 58017
81835=
42754 32596 50204 10264 20202 39436 40058 71799 83930 333
10328 58016 82620 83825 81930=
42867 31596 73203 10300 20240 40047 72992 84330 333 10342
58016 83620 81930 86360=
33837 42598 71502 10198 20094 30135 40184 54000
81101=
35426 42499 52501 10243 20099 39947 40216 56005 84960   555 10030=
44219 11698 42903 10137 21020 38570 40094 53007 69902 70262
82270 333 10166=
44221 11599 72303 10061 20023 38540 40137 52002 60032 72162
87500 333 10084=
44224 11998 22701 10052 20036 38020 40122 51005 60032 70261
80004 333 10070=
44229 11999 52705 10079 20019 37889 40084 53012 69972 70262
85030 33(( (((((
44254 115// 80000 10129 20056 38980 40086 56021 60062 76162
883// 333 10179=
44257 115// 83204 10118 20109 38917 40102 55011 60012 76162
885// 333 10175=
44286 12698 30000 10106 20098 38571 40073 52001 60082 86200
333 10137=
44386 126// 72307 10235 20111 38957 40027 56006 69902 87800
333 10252=
42647 32596 22502 10336 20212 40062 82500 333 10347 58012 82620=
42737 32597 30000 10340 20203 40053 83800 333 10341 58011 82620
83825=
42840 32996 22303 10306 20249 40064 82030 333 10318 58005 82360=
42909 32597 22005 10294 20233 40068 82500 222// 20000 333 10314
58008 82620=
43014 32596 50000 10290 20218 39417 40046 85300 333 10330 57912
58012 82620 83825 81930=
43063 32597 42903 10298 20201 39439 40045 82801 333 10329 58004
81626 83070=
43110 32598 53203 10290 20216 40071 81502 333 10312 58004 81620
85080=
43117 21597 70000 10290 20231 40038 75096 85301 333 10355 57990
58017 6995/=
43192  31596 52706 10294 20236 40063 70500 83402  333 10321 59002=
30499 32998 00000 10002 21057 39637 40290 52016   333 10087=
30683 32999 80202 10076 21009 40260 53026 889//   333 10124=
30695 32999 50000 10052 20034 39927 40255 52005 85020   333 10127=
31253 32999 03603 10014 21092 39815 40264 52017   333 10090=
31295 329// 00302 10049 21042 39810 40265 52014 333 10119=
31348 125// 70000 10022 21006 30038 40230 52027 60030 875//   333
10094=
31418 11589 80202 10045 21003 39976 40225 52036 60020 70382 889//
333 10136=
31439 125// 83406 10062 20062 30128 40171 52042 60020 86970   333
10233 91106=
31442 329// 00000 10034 20019 39899 40246 52011 333 10131=
31445 32984 00000 10050 20012 30001 40248 52019 333 10156=
31474 32998 00000 10024 20016 39748 40221 52019   333 10136=
31587 32982 03402 10097 20019 30097 40238 52017 333 10185=
31632 32998 00000 10075 20050 40169 52020   333 10240=
31713 329// 00000 10112 20070 30085 40182 52021   333 10246=
31801 32998 02901 10117 20106 39312 40119 52002   333 10266=
30455 326// 73504 10066 20047 38952 48520 52006 87900   333 10118=
30549 328// 31402 10066 20014 38693 48486 57003 83060   333 10123=
30726 11699 80504 10112 10092 39578 40119 54000 69902 76362 8352/
333 10126=
30731 32999 82002 10135 20082 39545 40111 57013 83052   333 10190=
30739 116// 80000 10114 20094 39366 40137 53004 60022 78082 8597/
333 20174=
30741 119// 80000 10100 20085 38692 48471 57028 69902 72162 80003
333 10131=
30745 11597 80702 10106 20077 39067 40151 53001 69932 78082 8536/
333 10169=
30764 11598 80902 10131 20089 39406 40152 53006 69902 78082 8592/
333 10185=
30811 11598 70902 10099 20099 39267 40099 57011 60012 72588 8597/
333 10122 85930=
30822 32598 70000 10137 20082 39553 40095 56004 84952   333 10175=
30824 32599 70000 10123 20099 39545 40095 57008 87300   333 10142=
30838 11596 80702 10100 20095 39191 40117 57018 60102 76366 8672/
333 10103=
30846 32699 80000 10130 20103 39279 40128 54000 83943   333 10174=
30859 32899 81002 10148 20087 39361 40140 55002 82041   333 10210=
30862 32984 82905 10146 20076 39463 40150 57005 8802/   333 10195=
30957 32684 80000 10160 20034 39291 40121 56002 8691/   333 10193=
30975 32598 81502 10167 20036 39576 40178 55002 82507   333 10218=
31825 12684 33401 10156 20138 39912 40106 52017 69900 83500   333
10274=
31845 31598 50301 10170 20153 39996 40149 52020 70282 85900   333
10278=
31878 32981 00302 10195 20145 30044 40159 52020   333 10279=
31915 32998 01201 10172 20140 39909 40156 52009   333 10286=
31921 32972 52204 10198 20172 30064 40156 53012 80002   333 10282=
31969 32998 01302 10192 20165 30119 40165 51007   333 10250=
31981 32999 02302 10161 20140 39928 40149 52012   333 10285=
31987 32999 00000 10166 20156 39919 40162 51003   333 10240=
32069 31599 83604 10140 20120 30115 40120 52049 72598 889//   333
10204 91116=
47003 32980 00000 10170 20150 30158 40162 53002 333 10231=
47028 32966 00000 10215 20192 30055 40145 53011 333 10294=
47031 32970 00000 10121 20095 38960 52009 333 10246=
47037 32970 10000 10227 20186 30026 40140 53006 80001 333 10314=
47039 32560 20000 10226 20187 39972 40150 52022 82500 333 10303=
47046 32969 02301 10180 20140 30149 40172 53003 333 10237=
47050 32565 40000 10299 20138 30104 40136 52013 84500 333 10310=
47052 32965 00904 10187 20112 39841 40163 52012 333 10257=
47060 32965 02701 10205 20170 30093 40148 53012 333 10276=
47061 32680 70902 10187 20162 30126 40168 52007 82530 333 10223=
47065 32965 00000 10217 20151 30095 40156 53005 333 10294=
47067 32965 00703 10206 20105 30036 40150 52022 333 10285=
47068 32970 00000 10203 20147 30111 40144 52013 333 10274=
47070 32980 00504 10212 20126 30069 40151 52012 333 10271=
47075 32980 00000 10149 20113 39757 40170 52016 333 10251=
43086 32597 70000 10300 20243 39882 40056 84970 333 10338
57922 58025=
43128 21596 69903 10276 20225 39455 40049 72096 83931 333
10335 57953 58010 6995/ 83620 81930 83360=
43198 32497 42508 10292 20194 39238 40037 82501 333 10315
56769 58000 82615 83075=
43201 32597 50000 10334 20124 39329 40017 84802 333
10346 58003 82620 83822=
43213 32597 89902 10324 20208 39719 40026 83237 333 10366
57874 58008=
43233 32497 52304 10320 20171 39241 40019 82801 333 10333 58001=
43237 32597 60000 10346 20155 39650 40027 83802 333 10355
58009 82620 85075=
43245 32597 41104 10326 20265 30021 40043 82901 333 10376
57971 58007=
43279 32597 31610 10308 20236 30031 40048 82301 333 10351
57972 58006 81620 81930=
43284 32597 62910 10286 20224 39949 40063 83830 333  10315 58003
83625 85359=
43295 31497 70000 10240 20204 39057 48471 72992 84321 333
10308 56699 57930 58008 83618 81930 85458=
43314 21496 83203 10268 20245 40072 75095 8472/ 333 10306
58005 6990/=
43329 32597 41102 10300 20252 30032 40045 82931 222// 20501
333 10321 57973 58005=
43353 32497 73210 10280 20239 40074 83931 333 10302 56699 57983
58002 81616 81925 84358 86675=
43369 32597 43203 10298 20241 40076 82501 333 10317 58007
82620 83075=
43371 31597 83203 10282 20236 30004 40076 71792 8497/ 333
10334 57912 58012 83620 81925 86460=
24856 32698 52802 10006 21076 30093 40247 57005 85500   333 10049
91110=
30686 32699 80202 10072 20050 39898 40259 53016 8254/   333 10116=
30777 32698 50406 10111 20055 39571 40189 53004 83570   333 10173=
30961 32899 81401 10157 20145 39415 40144 56004 8802/   333 10214=
30971 32584 81804 10142 20084 39242 40159 57008 83902   333 10187=
30978 32584 71001 10160 20068 39539 40174 57012 82272   333 10215=
31624 32999 02701 10088 20055 40162 52011   333 10218=
24982 32699 73104 11005 21062 39588 40075 57006 87500   333 10062=
32121 32997 82011 10176 20143 30081 40102 53007 80001   333 10200
91015 91120=
32128 32599 62006 10184 20157 30073 40125 54000 84530   333 10210
91012 91114=
31513 32999 03401 10078 20019 30022 40238 52019 333 10157=
43157 32597 42702 10290 20202 39429 40047 81402 333 10310 58007=
30967 32999 81101 10177 20032 39387 40093 57008 88070   333 10214=
43221 32597 51403 10328 20246 30025 40038 82901 333 10365
57981 59005=
43311 32597 30000 10308 20255 40071 83800 333 10323 58000
83620=
98232 31565 82203 10280 20254 40068 53005 70244 82200
333 10345 56999 58001 82820=
98325 31458 83203 10276 20244 40068 54003 70342 8437/
333 10296 56999 59013 82916 82817 88359=
98329 11470 31801 10266 20245 40091 53009 60011 70564 82201
333 10310 56999 58006 82818=
98336 32475 30000 10274 20256 40070 53013 81270
333 10330 56999 59007 81815 83357=
98429 11557 83001 10267 20241 40097 53011 6///1 76066 8387/
333 10287 56999 59002 83822 88359=
98431 31456 72703 10278 20252 40092 51006 70242 83270
333 10325 56999 58015 83818 87459=
98440 31460 41801 10278 20265 40081 52019 70194 81230
333 10309 56999 58007 81815 83359=
98444 11465 72203 10274 20253 40092 52025 69921 71382 83378
333 10307 56999 58007 81918 87270=
98536 31465 62402 10276 20244 40094 53025 70142 8227/
333 10314 56999 58005 82818 84357=
98543 11470 72602 10276 20250 40093 53020 60031 70262 84208
333 10320 56999 58012 84818 87272=
98618 31468 63202 10282 20246 40106 53015 71344 82968
333 10322 56999 58014 82915 82820 84075=
98630 32470 80000 10286 20249 40099 53006 8322/
333 10328 56999 58020 83818 88459=
98637 31470 52202 10285 20252 40090 52014 70142 82208
333 10320 56999 59002 83822 88359=
98653 31470 60000 10280 20254 40085 52008 70544 82270
333 10320 56999 58000 82818 84358=
98741 31468 73601 10294 20262 40096 52016 71344 84970
333 10325 56999 58002 82917 82818 87358=
98747 31470 11802 10258 20236 40093 52015 70594 81100
333 10320 56999 59002 81818=
98753 31468 42001 10280 20254 40098 52027 70544 81231
333 10316 56999 58005 81816 83079=
98755 31570 60000 10298 20262 40101 51025 70500 82206
333 10335 56999 58004 82820 86080=
98836 32565 60000 10280 20246 40104 52020 82206
333 10346 56999 58000 82820 85081=
58016 6001/ 83620 81925 85360=
42516 31593 70000 10204 20195 38385 48478 71052 83421 333 10222
58008 6002/=
42619 32496 72302 10290 20247 40033 85520 333 10323 58018 85616
85458=
43053 32596 71804 10304 20271 40051 82441 222// 20801 333 10327
58006 =
48820 32998 51801 10303 20244 30065 40073 53015 85008 333 01028
10329 58010 70000 85299=
48826 32997 61603 10270 20259 39942 40070 53010 80008 333 00027
10328 58009 70000 86299=
48839 32998 00000 10273 20246 30002 40066 53006 222// 2//00 333
00/// 10304 58000 70000=
48845 32798 70000 10283 20260 30069 40076 52008 81508 333 01028
10309 58007 70003 81697 87299=
48870 31498 40000 10304 20255 30076 40083 53011 71311 84900 333
00031 10355 58015 70000 83894 81995=
48877 31598 60000 10268 20217 30077 40082 53014 71391 84901 333
00029 10333 58007 70000 81995 83697=
48887 32598 60000 10288 20245 30075 40081 53014 82206 333 00031
10327 58004 70000 82895 86299=
48900 32497 22503 10287 20250 30077 40087 52019 82200 333 10341
58003 82894=
48914 11598 70000 10287 20252 30084 40086 52012 69902 70382 81908
333 00029 10336 59001 79999 81995 87299=
48917 32598 50000 10292 20246 30083 40088 52008 82208 222// 00309
2//00 333 00/// 10309 59003 70000 82895 85299=
48918 32498 70000 10280 20254 30076 40087 53007 81108 222// 00306
2//00 333 00030 10317 59002 70000 81894 87299=
48920 32598 62303 10284 20249 30071 40071 53010 81108 222// 00298
20100 333 10309 58010 70000 81895 86299=
85543 22274 00200 20102 313// 40305 5//// 6//// 80180 ICE /////=
70200 83100 22235 00300 20403 31209 40605 50802 6//// 80260=
48803 32697 50000 10294 20259 39949 40058 50002 69912 85500 333
00029 10326 58009 70001 85696=
48808 32498 12702 10272 20243 39793 40067 53009 81100 333 00027
10338 58003 70000 81894=
48823 32997 01603 10287 20253 30065 40068 52006 333 01028 10331
58012 70000=
48830 32598 21801 10276 20249 39775 40072 53006 82800 333 00028
10326 58000 70000 81895=
48840 32998 00000 10280 20269 30068 40074 52006 333 01029 10314
58013 70000=
48916 32998 70000 10275 20252 30044 40091 53005 80008 333 00///
10321 58004 70000 87299=
48919 32998 72303 10288 20244 30071 40093 53011 80008 22200 2//02
333 10300 58003 70000 87299=
48838 32598 61802 10289 20265 30074 40080 53011 82208 333 00028
10318 58012 70000 82895 86299=
48846 31798 20000 10284 20241 30071 40074 53011 70291 82500 333
01029 10314 58009 70000 82697=
48907 32598 62703 10298 20250 30083 40085 53009 862// 333 00030
10321 59002 70000 86895=
81010 22273 00290 20203 332// 40405=
10320 56999 59002 83822 88359=
10328 58009 70000 86299=
58003 82894=
70026 12466 82210 10017 20011 30002 40006 51014 69901 91153 333
20006 70005 555 91412=
70133 12466 83211 10039 20020 30048 40055 51014 69931 91153 333
20033 70003 555 91412=
70231 32966 61405 10072 20050 39921 40048 51018 91153 333 20050
555 91412=
70261 32966 41203 10039 20028 39900 40069 51020 91153 333 20039
555 91412=
70273 11766 81004 10089 20067 30030 40078 52012 69951 761// 91153
333 20072 70010 555 91412=
70308 12566 80608 10072 20061 30040 40051 53003 69901 91153 333
20072 70003 555 91412=
70316 32566 41004 10072 20050 30013 40050 58006 91153 333 20044
555 91412=
70326 32266 82204 10089 20083 30027 40047 51018 91152 333 20056
70003 555 91412=
70350 12066 42604 10056 20050 30023 40064 51019 69931 91153 333
20050 70038 555 91412=
70361 12866 20000 10083 20078 30127 40144 51002 69981 91153 333
20083 70074 555 91412=
70398 32966 00000 10106 20100 30152 40192 58006 91153 333 20089
555 91412=
70341 32766 60000 10078 20072 30044 40071 51016 91153 333 20056
70018 555 91412=
70194 32966 02304 10050 20020 39882 91155 333 20020 555 91412=
78325 01558 82007 10235 20231 30025 40083 52011 60371 72598 8697/
333 05999 10281 20230 32/// 55000 57990 59023 60065 70458 84820
88459 819//=
72201 11559 62128 10272 20250 30053 40059 53017 60051 761// 91153
333 20244 70231 91034 96010 555 91412=
72202 12566 81913 10278 20233 30056 40060 53010 60021 91156 333
20233 70112 91026 555 91412=
72205 11364 80517 10222 20211 30012 40048 58031 60281 761// 91153
333 20217 70620 91025 555 91412=
72206 11566 40613 10228 20206 30095 40105 58002 60071 761// 91156
333 20200 70351 555 91412=
72207 32566 20506 10217 20200 30120 40137 53006 91153 333 20211
555 91412=
72208 32966 00407 10206 20194 30129 40144 51005 91156 333 20200
555 91412=
72211 11316 80221 10217 20211 39975 49988 58063 60541 765// 91153
333 20217 70658 91031 96010 555 91412=
72212 15/// /0313 10211 20200 30075 40089 58005 60051 91153 333
20206 70053 91019 555 91412=
72214 32964 00206 10211 20200 30091 40112 55000 91153 333 20211
555 91412=
72217 31956 00104 10167 20161 30027 40155 53010 710// 91153 333
20161 555 91412=
72218 31958 00000 10183 20167 30105 40158 710// 91153 333 20167
555 91412=
72219 31758 40804 10189 20150 39798 40163 53004 705// 91153 333
20178 555 91412=
72223 32964 00108 10194 20172 30072 40150 53008 91156 333 10306
20189 555 91412=
72226 31956 00000 10178 20167 30084 40158 53010 710// 91153 333
10306 20172 555 91412=
72231 32966 00609 10239 20189 30134 40148 53010 91153 333 10311
20239 555 91412=
72234 31004 90000 10178 20178 30056 40165 53009 741// 91153 333
10306 20178 555 91412=
72235 31928 00000 10200 20194 30051 40167 53009 710// 91154 333
10311 20194 555 91412=
72240 32962 00504 10217 20206 30147 40166 51009 91153 333 10328
20217 555 91412=
72243 32966 00000 10217 20211 30122 40160 53005 91153 333 10333
20217 555 91412=
72248 32961 00000 10217 20206 30075 40168 53009 91156 333 10322
20211 555 91412=
72250 31956 03405 10239 20239 30135 40139 55001 710// 91156 333
10322 20239 70003 555 91412=
72251 31959 00000 10233 20228 30129 40148 55000 710// 91151 333
10328 20233 555 91412=
72253 32661 23103 10222 20206 39878 40154 53002 91153 333 10317
20217 555 91412=
72254 35962 00000 10222 20211 39943 40156 53002 91153 333 10328
20217 555 91412=
72255 17948 00204 10222 20222 30117 40155 55001 69901 710// 91151
333 10328 20222 555 91412=
72256 32966 00000 10206 20194 39987 40165 53003 91151 333 10328
20200 70003 555 91412=
72259 32766 40000 10206 20189 39968 40167 53002 91156 333 10317
20206 555 91412=
72261 35962 01006 10233 20200 39791 40146 53000 91153 333 10322
20233 555 91412=
72263 32966 01903 10200 20172 39501 40164 53003 91153 333 10317
20200 555 91412=
72265 32966 01504 10200 20144 39189 40153 53004 91153 333 10317
20200 555 91412=
72266 35966 01606 10211 20178 39551 40165 53002 91152 333 10317
20206 555 91412=
72267 12966 61305 10206 20139 39065 40154 51003 69901 91153 333
10311 20206 555 91412=
72270 12366 80109 10194 20183 38844 40143 58004 60011 91151 333
10278 20194 70030 555 91412=
72274 11556 82104 10211 20206 39258 40146 53003 60041 763// 91155
333 10306 20211 70038 96010 555 91412=
72278 32966 60000 10272 20189 39746 40125 58004 91156 333 10367
20267 555 91412=
72280 32966 41206 10278 20222 30046 40117 54000 8/002 91156 333
20278 555 91412=
72290 31959 03405 10172 20172 30121 40132 55002 710// 91151 333
10222 20172 555 91412=
72295 31359 20000 10167 20144 30093 40129 56006 710// 91150 333
10233 20161 555 91412=
72304 35666 20105 10228 20183 30169 40170 53011 91151 333 20178
555 91412=
72308 32766 22403 10178 20167 30165 40171 52008 91151 333 20156
555 91412=
72310 32966 80000 10183 20156 30083 40162 53004 91156 333 20150
555 91412=
72311 31924 00000 10161 20150 39880 40168 53005 710// 91153 333
20150 96010 555 91412=
72312 31928 00000 10156 20150 39829 40166 50004 710// 91155 333
20150 555 91412=
72314 31959 60000 10161 20156 39897 40170 51007 710// 91151 333
20139 555 91412=
72317 31958 40000 10161 20150 39851 40173 53005 710// 91154 333
20150 555 91412=
72324 31964 00000 10183 20167 39932 40176 53010 91153 333 20178
555 91412=
72326 31004 80304 10183 20183 39827 40176 53014 741// 91153 333
20183 555 91412=
72327 31456 80308 10183 20172 39984 40193 51012 710// 91153 333
10311 20183 555 91412=
72334 32762 20405 10200 20156 30085 40184 53007 91153 333 10322
20200 70013 555 91412=
72340 32661 60106 10194 20156 30092 40188 53007 91153 333 10322
20194 555 91412=
72344 32764 80704 10194 20178 30020 40186 53003 91153 333 10311
20189 555 91412=
72351 32966 41004 10194 20156 39806 40168 53003 8/071 91152 333
10328 20194 555 91412=
72353 32966 81103 10200 20172 39718 40175 55000 91152 333 10306
20183 555 91412=
72356 32961 23303 10167 20161 39940 40180 53001 91153 333 10322
20161 555 91412=
72363 12966 82409 10194 20133 38956 40165 53001 69901 91153 333
10311 20189 555 91412=
72365 32566 60000 10189 20150 38422 40157 55000 91156 333 10228
20183 70013 555 91412=
72374 35966 20000 10167 20150 38550 40166 51007 91156 333 10311
20167 70218 555 91412=
72384 32966 03603 10172 20089 39959 40134 53005 91154 333 10311
20167 555 91412=
72386 32966 01609 10256 20183 39375 40120 53008 91156 333 10372
20256 555 91412=
72389 32966 00000 10183 20128 30015 40132 51002 91156 333 10317
20178 555 91412=
72394 37020 80000 10128 20122 30054 40144 53000 710// 91151 333
10222 20128 555 91412=
72401 32562 83609 10172 20161 30119 40184 51019 91154 333 20144
555 91412=
72403 32766 60112 10167 20106 30085 40200 51015 91151 333 20167
555 91412=
72407 35466 83315 10161 20139 30158 40182 53019 91154 333 20161
555 91412=
72408 11458 83609 10144 20133 30184 40205 53026 60041 761// 91154
333 20144 70041 96010 555 91412=
72411 31859 20207 10178 20150 39768 40184 53019 705// 91154 333
20156 555 91412=
72412 15966 03508 10117 20100 39330 40207 51018 69901 91151 333
20117 555 91412=
72414 12366 80000 10133 20128 39873 40225 53013 69951 91154 333
20133 70005 555 91412=
72421 12466 40414 10117 20083 39930 40249 53013 69901 91151 333
20117 555 91412=
72422 12666 80411 10133 20111 39881 40238 53017 69901 91154 333
20133 555 91412=
72428 32766 23605 10094 20083 39958 40256 53016 91151 333 20094
70081 555 91412=
72432 32866 80711 10150 20111 30091 40231 53009 91154 333 10294
20144 555 91412=
72434 32766 60810 10139 20094 30043 40243 53006 91153 333 10294
20139 555 91412=
72438 12466 40410 10100 20089 39972 40267 53015 69901 91155 333
20100 70003 555 91412=
72440 31958 00608 10156 20139 39760 40212 53012 710// 91154 333
10278 20150 555 91412=
72445 32966 00809 10122 20089 39919 40242 51009 91154 333 10294
20122 555 91412=
72446 32966 60814 10139 20117 39868 40231 51007 91153 333 10300
20139 555 91412=
72450 32966 20807 10178 20139 39716 40188 53004 91156 333 10311
20178 555 91412=
72451 32966 01509 10178 20133 39275 40163 55003 91156 333 10328
20178 555 91412=
72456 32966 00807 10156 20139 39907 40223 53008 91156 333 10289
20156 555 91412=
72458 37359 81011 10178 20167 39675 40198 51005 710// 91155 333
10300 20178 555 91412=
72464 12966 00000 10144 20089 38569 40125 56007 69901 91154 333
10339 20144 555 91412=
72465 32966 01713 10156 20111 38892 40132 56013 91156 333 10339
20150 555 91412=
72476 12966 00908 10150 20106 38579 40161 58001 69951 91156 333
10278 20144 70023 555 91412=
72486 35966 01706 10017 21022 38130 40175 51005 91153 333 10244
20006 555 91412=
72488 32966 00000 10117 21006 38693 40168 52006 91156 333 10283
20111 555 91412=
72492 35966 02505 10139 20111 30125 40134 53003 91156 333 10300
20133 555 91412=
72494 32162 82604 10128 20122 30142 40148 51002 91156 333 10189
20122 555 91412=
72503 11459 80313 10139 20128 30188 40200 53024 60191 763// 91151
333 20139 70246 96010 555 91412=
72508 11256 80308 10117 20111 30130 40203 51011 60101 761// 91151
333 20111 70104 96010 555 91412=
72509 12466 83411 10128 20117 30195 40201 53002 60081 91154 333
20128 70089 555 91412=
72518 12966 23205 10106 20094 30119 40228 53010 60071 91151 333
20100 70102 555 91412=
72519 32466 43406 10100 20072 30101 40248 53018 91154 333 20089
70020 555 91412=
72520 12466 63609 10111 20100 39803 40253 53022 60011 8/570 91151
333 20111 70135 555 91412=
72524 32666 40311 10133 20067 39986 40271 53018 91151 333 20117
70084 555 91412=
72528 32666 23606 10100 20072 30002 40265 53019 8/100 91154 333
20083 70003 555 91412=
72530 32666 60608 10128 20056 30047 40294 53008 91156 333 10200
20128 555 91412=
72532 32966 00711 10100 20083 30034 40280 53008 91154 333 10233
20100 70005 555 91412=
72533 32966 00307 10072 20056 39985 40289 51011 91154 333 20067
70028 555 91412=
72537 32766 40107 10100 20061 30047 40293 53015 91154 333 20089
70041 555 91412=
72546 32866 81008 10122 20094 39922 40272 51010 91154 333 10200
20122 70013 555 91412=
72547 32966 00406 10072 20056 39910 40308 53012 91155 333 10183
20072 555 91412=
72552 11132 81113 10156 20156 39544 40202 58008 69931 710// 91153
333 10256 20156 70003 91022 555 91412=
72556 17358 81311 10144 20133 39666 40221 58004 60031 710// 91154
333 20133 70030 555 91412=
72557 11456 81703 10122 20117 39862 40265 53008 60101 763// 91154
333 10161 20122 70155 96010 555 91412=
72562 11359 81017 10156 20150 39199 40164 58018 69931 710// 91156
333 10250 20150 70056 91026 555 91412=
72564 32966 03004 10106 20083 38157 40157 52003 91156 333 10256
20106 555 91412=
72565 32966 42904 10122 20100 38359 40141 53003 91153 333 10311
20106 70003 555 91412=
72569 32966 00208 10094 20089 38393 40158 58002 91153 333 10278
20078 70003 555 91412=
72572 32966 01004 10133 20106 38737 40156 53008 91156 333 10289
20133 70003 555 91412=
72576 35966 03507 10089 20061 38338 40168 56003 91156 333 10272
20089 555 91412=
72578 12964 01603 10050 20050 38680 40209 50006 69931 91156 333
10222 20050 70048 555 91412=
72583 35966 01303 10106 20061 38717 40166 53005 91156 333 10322
20100 555 91412=
72591 35966 03407 10194 20133 30014 40133 51000 91154 333 10306
20194 555 91412=
72594 15166 81404 10111 20100 30134 40159 55006 69931 91153 333
10156 20106 70003 555 91412=
72597 32966 00000 10139 20117 39690 40162 51005 91156 555 91412=
72606 11666 83105 10106 20089 30190 40211 51017 60011 761// 91151
333 20106 70010 555 91412=
72617 32566 40106 10100 20061 30108 40234 53017 91154 333 20089
555 91412=
72635 32666 40105 10056 20044 30009 40310 53009 91156 333 20044
70008 555 91412=
72636 32966 00305 10056 20033 30078 40314 51010 91155 333 20050
555 91412=
72637 32666 43603 10061 20056 30016 40301 51013 91153 333 20039
555 91412=
72638 35966 00304 10017 20011 39894 40324 51012 91155 333 20011
555 91412=
72640 32666 60709 10122 20056 30047 40303 53007 8/801 91152 333
10167 20122 70003 555 91412=
72641 32566 40206 10061 20056 39990 40309 51010 91153 333 10183
20050 70005 555 91412=
72644 32964 01207 10061 20056 39824 40311 53012 91154 333 10194
20061 555 91412=
72645 32966 00106 10056 20039 30060 40322 53006 91156 333 10167
20044 555 91412=
72651 12666 81313 10128 20100 39724 40241 56009 69951 91156 333
10156 20128 70086 555 91412=
72654 11558 81209 10128 20111 39756 40227 55006 60021 763// 91155
333 10167 20117 70061 96010 555 91412=
72658 32966 21409 10106 20083 39998 40305 53010 91153 333 10194
20100 555 91412=
72659 11648 80915 10111 20106 39766 40237 55023 60191 763// 91156
333 10194 20106 70196 96010 555 91412=
72662 11020 81404 10111 20106 39076 40190 58001 60121 710// 91153
333 10144 20106 70147 555 91412=
72666 15366 82911 10111 20100 38834 40192 53016 69931 91153 333
10233 20106 70003 555 91412=
72677 11262 80105 10106 20094 38971 40212 53013 69901 751// 91156
333 10194 20100 96011 555 91412=
72681 32966 00000 10122 20106 39187 40185 51005 91156 333 10256
20122 70086 555 91412=
72683 35966 42705 10117 20100 38764 40184 53003 91153 333 10233
20117 555 91412=
72688 32966 01308 10161 20083 39615 40142 51006 91156 333 10306
20144 555 91412=
72693 35966 00000 10122 20094 30032 40165 53003 91154 333 10294
20122 555 91412=
72694 32966 00000 10139 20128 30089 40161 53004 91156 333 10289
20128 555 91412=
72698 32966 03206 10150 20133 30160 40166 53006 91155 333 10289
20150 555 91412=
72712 35966 03105 10072 20056 39962 40196 53010 91154 333 20028
555 91412=
72745 32966 01205 10044 20039 39795 40329 53001 91155 333 10139
20011 70003 555 91412=
72747 35966 01404 10022 20017 39882 40327 51000 91155 333 10156
20000 555 91412=
72753 12966 81309 10117 20089 39942 40279 58007 69951 91153 333
10172 20106 70005 555 91412=
72764 11459 80909 10100 20100 39635 40240 58007 60051 761// 91152
333 10183 20089 70064 96010 555 91412=
72767 11666 80604 10089 20078 39567 40259 50000 60031 751// 91152
333 10150 20089 70061 555 91412=
72768 12366 81112 10089 20083 39407 40236 55004 60011 91156 333
10161 20089 70018 555 91412=
72772 32766 80000 10156 20078 38856 40201 53008 91153 333 10250
20156 70003 555 91412=
72773 32966 03403 10117 20072 39085 40190 53010 91156 333 10278
20106 555 91412=
72776 31004 90104 10089 20089 38944 40209 53011 741// 91156 333
10228 20067 555 91412=
72777 35366 80807 10089 20083 39301 40219 53007 91155 333 10244
20061 555 91412=
72779 35966 03504 10139 20056 39156 40186 53007 91155 333 10283
20100 555 91412=
72781 35966 02608 10128 20094 39768 40152 51009 91156 333 10322
20122 555 91412=
72793 32966 00000 10139 20122 30008 40172 52005 91156 333 10244
20133 555 91412=
72797 17004 90000 10106 20106 30108 40181 56001 69931 730// 91153
333 10200 20072 70003 555 91412=
72306 31956 60000 10150 20150 30020 40176 53010 710// 91151 333
20139 555 91412=
72315 11000 90000 10144 20144 69931 741// 91154 333 20139 70003
555 91412=
72402 32466 82604 10189 20172 30169 40169 53010 91154 333 20167
555 91412=
72405 32766 80313 10167 20122 30172 40196 51023 91151 333 20167
555 91412=
72406 12466 80207 10150 20128 30139 40196 50024 60031 91154 333
20144 70025 555 91412=
72423 32566 80712 10156 20106 30061 40236 53013 91156 333 20156
555 91412=
72425 12466 80305 10133 20111 39928 40229 53011 69901 91151 333
20128 555 91412=
72429 12966 00311 10083 20072 39905 40270 53010 69931 91154 333
20078 70020 555 91412=
72504 31661 80512 10128 20117 30186 40193 53018 761// 91154 333
20128 555 91412=
72507 12466 80212 10133 20117 30173 40197 53009 69901 91151 333
20128 555 91412=
72513 11366 80205 10111 20100 39875 40214 51022 60071 761// 91154
333 20106 70340 555 91412=
72521 32566 60108 10094 20094 39808 40257 53018 8/800 91151 333
20083 70140 555 91412=
72529 32666 60213 10122 20061 30057 40260 53020 8/500 91154 333
20111 555 91412=
72535 32966 00407 10067 20050 30014 40300 53005 91154 333 20050
70008 555 91412=
72536 32966 00108 10078 20056 30030 40287 51015 91152 333 20078
70061 555 91412=
72544 32966 00807 10094 20072 30072 40293 53016 91155 333 10211
20094 70013 555 91412=
72592 32966 03404 10206 20133 39956 40132 56003 91156 333 10311
20194 555 91412=
72605 17356 83604 10100 20094 30083 40211 51012 60061 761// 91151
333 20100 70056 96010 555 91412=
72783 35966 00000 10150 20056 39649 40157 53009 91156 333 10317
20144 555 91412=
72785 32966 00000 10122 20039 39333 40159 53010 91156 333 10306
20122 555 91412=
72791 37040 82104 10122 20117 30171 40177 50001 710// 91155 333
10167 20117 555 91412=
85196 31802 50000 10247 20226 39571 40128 52019 70422 85030
333 20225 30/// 56060 58020 85357=
85207 31530 50000 10249 20208 39666 40129 52022 70422 84240
333 20222 30/// 55060 56790 58022 84820 85357=
85245 11558 71910 10206 20154 39670 40148 52024 60014 72521 84970
333 20220 31/// 56490 58066 70010 84630 81933 87357=
85247 31830 50000 10260 20172 39815 40141 52012 70410 85030
333 20220 30/// 56000 58025 85357=
85268 31850 40000 10265 20185 39836 40140 52018 70411 84070
333 20250 30/// 56090 58038 84357=
85289 31820 60000 10270 20213 39956 40114 52020 70422 80030
333 20255 30// 56050 58014 86357=
85315 32684 61804 10223 20097 39273 40155 52019 84530
333 20220 30017 55095 56880 58075 84636 86357=
85223 31558 70000 10140 20092 37518 47146 52018 70421 82830
333 20093 30/// 55088 56060 58018 82830 85358=
85293 32984 00000 10046 21048 36363 52007
333 21048 30/// 58010=
85345 32984 00000 10210 20154 39672 40176 52006
333 20167 30/// 58072=
85364 31570 10000 10128 20048 38160 48197 53018 70400 81500
333 20082 30006 55102 56500 58060 81633=
85365 31856 51804 10195 20121 39440 40190 52015 70400 83031
333 20/// 30/// 56010 58070 83357 83070=
58012 70000=
58013 70000=
10321 58004 70000 87299=
87078 32470 40000 10202 20114 30009 40158 52015 84100 333 10238
20168=
87097 21225 82314 10159 20152 39810 40121
52008 60154 71062 8677/ 333 10195 20153 56559 60011 83704 85705
88360=
87155 31958 02008 10160 20128 30112 40174 52013 71000 333 10161
20093=
87162 31960 22302 10168 20129 30073 40143 52017 71011 82070 333 10180
20135 56060=
87166 31962 02504 10178 20136 30094 40167 52024 71000 333 10178
20117=
87178 11958 40000 10152 20129 30006 40153 52033 60034 71040 84070
333 10181 20117 56070 84360 96446=
87270 31360 82012 10140 20122 30110 40173 52024
70411 886// 333 10165 20120 30010 56499 84708
88612=
87289 32970 50000 10138 20100 30069 40153 52024 81076 333 10160
20094 56011 81365 85270=
87374 32465 72013 10104 20079 30096 40189 53017 84538 333
10162 20100 56499 84612=
87393 32970 12304 10136 20098 30090 40153 52020 80002 333 10162
20093 56007 81070=
87395 32465 62010 10126 20079 30113 40158 52024 86500 333 10140 20082
56400 86612=
87497 32565 21406 10123 20087 30141 40167 52013 82500 333 10148
20103 56300 52620=
87548 12962 02312 10090 20050 30082 40181 53009 69994 333 10125 20067
31006=
87576 02460 72310 10098 20071 30138 40163 53008 69944 87800
333 10128 20079 56500 69911 83817 86625=
87582 12460 82010 10100 20057 30156 40163 51007 69904 885// 333
10155 20095 56399 88619=
87593 12460 62508 10095 20067 30128 40156 50000 69904 84670 333
10134 20076 56550 84711 86363=
87623 12980 02702 10050 20026 39966 40199 57009 69904
333 10093 21005=
87645  12470 62310 10073 20051 39932 40143 57016 60064
86800 333 10094 20040 56500 84610=
87692 01330 82506 10068 20059 30109 40135 53003 60094 75052 8672/
333 10092 20062 32000 56559 69931 86707 88520=
87750 32970 03203 10049 20027 30070 40173 57012 333 10098 20010=
87765 32980 29903 10008 21035 39238 48510 57017 80006 333 10053
21028 30001 56006 82270=
85283 32484 40310 10120 20087 37216 47143 53024 84500
333 20095 30009 55090 56100 58026 84615=
87016 31556 73202 10182 20141 39753 40160 51023 70522 86500 333 10252
20166 56700 87630=
87022 32960 70000 10202 20085 39655 40164 52020 87050 333 10235 20158
56000=
87046 32665 71805 10174 20058 39154 48540 52023 82570
333 10214 20126 56330 82645 85360=
87047 31965 30504 10144 20059 38825 48540 51015 70521 83030 333 10179
20122 30010 56060 83360=
87121 31558 80912 10146 20102 39682 40200 52028 70422
885// 333 10200 20138 56800 84625 88640=
87129 32570 81805 10144 20081 39973 40207 52029 885// 333 10186
20103 56799 88625=
87217 32870 71813 10120 20053 39715 40215 52036 87800 333 10200
2//// 56500 85658=
87222 32770 71810 10155 20054 39662 40185 52037 87500 333 10184
20132 56600 87650=
87257 32470 81818 10118 20099 30093 40199 52037 84620 333 10158 20108
56450 84710 82535=
87311 32665 61405 10085 20036 39554 40253 52011 81570 333 10166 20079
56000 81640 85360=
87320 32670 60000 10122 20078 39674 40211 52036 86500 333 10110 20180
56900 86640=
87328 01460 81804 10082 20065 39549 40216 52017 60104 76166 8862/ 333
10147 20080 60011 84714 84550 95080=
87344 01558 82307 10089 20075 39662 40218 52016 60044 76162 8452/
333 10154 20088 56449 60041 84620 85530 94470=
87349 01350 82304 10092 20077 39824 40223 51025 60024 75052 886// 333
10157 20092 32008 56499 60021 88709=
87371 32562 82314 10120 20101 30177 40199 52019 8457/
333 10170 20116 56009 84620 84360=
87416 12975 02302 10071 20037 39473 40235 51004 60034 333 10156 20054
31004=
87418 01965 03602 10083 20048 39418 40235 53007 60064 70160
333 10155 20055 69911=
87436 12370 32004 10069 20046 39401 40230 53013 69914 83600 333
10143 20060 56399 83610=
87448 11465 40000 10066 20065 39653 40235 52008 60034 71044 84600
333 10118 20057 56199 84715=
87453 32470 62308 10089 20064 39716 40213 53010 86800
333 56500 83615 83818=
87467 32370 52012 10091 20085 30068 40206 52016 82670 333 10141 20065
56440 82708=
87506 12970 00000 11004 21031 38618 48537 56004 69904
333 10044 21030 95000=
87509 01980 02308 10060 20010 39357 40239 54000 69924 75266 333
10076 20024 31101 69921=
80211 01565 80000 10170 20167 60494 7152/ 8462/
333 20164 32/// 50470 55047 5688/ 60382 84725 85459=
80214 01220 80000 10182 20178 60044 76354 8577/
333 20174 31/// 50570 5600/ 60042 85702 88357=
80222 01240 82502 10111 20105 37531 69937 75154 8662/
333 20104 32/// 55011 5699/ 58001 60114 83606 85715 88457=
80315 11450 80000 10216 20206 39620 40109 60044 75352 8271/
333 20208 31/// 50620 55068 5689/ 58013 82715 88458=
80342 01570 80000 10148 20148 38233 60064 7415/ 8441/
333 20144 31/// 50570 55078 5600/ 58002 60062 84620 88458=
80398 12364 60000 10240 20232 30018 40114 60064 86630
333 20217 30/// 50290 55047 5600/ 58000 84708 84817=
87791 32980 53213 10052 20035 30122 40131 57033 80001
333 10065 20001 56004 85070=
87803 32580 41805 10068 21061 39265 40194 53007 82575 333 10091
20030 30100 56666 82630=
87828 32980 72014 10104 21012 30053 40106 57017 86076 333 10105
20000 30101 56000 86360 84270=
87852 32984 02922 10079 21015 39621 40131 5//// 333 1//// 20053=
87860 32580 22518 10122 21038 30063 40118 53019 81570 333 10138
20105 30009 56560 81630=
87896 32480 82328 10085 20018 39982 40080 53009 8767/ 333 10120
20068 56569 83718 85626=
87925 32580 42324 10052 20006 30066 40090 52048 82570 333 10080
20025 56550 82630=
87938 01570 72325 10026 21001 30026 40098 52083 60014 71552
86620 333 10053 20020 56550 69981 86720 84540=
94151 35/// /1804 10253 30117 40137 52013=
94290 35/// /0506 10244 30138 40145 52005=
94129 35/// /0304 10261 30102 40125 52013=
94289 35/// /0906 10246 30134 40143 52006=
94371 35/// /3508 10233 30145 40151 52008=
94379 35/// /0309 10230 30140 40149 54000=
96009 32458 80000 10288 20250 30060 40093 57010 8592/
333 10304 56009 57904 58009 81915 84615 80958=
96011 32460 70303 10292 20240 30055 40078 53009 83232
333 10332 56000 57803 58003 83817 80860=
96035 31440 71805 10278 20252 30053 40085 52018 72992 84976
333 10316 56000 57902 58013 81917 83617 80957=
96073 31457 70000 10288 20248 30075 40082 51025 71792 84972
333 10320 56000 57901 58007 84913 80958=
96091 32460 50000 10276 20240 30076 40099 51008 84831
333 10318 56000 58002 82613=
96109 31558 70000 10292 20257 30036 40075 51015 71322 82932
333 10348 56000 57902 58008 82922 80965=
96145 11468 21806 10266 20238 30076 40081 56004 69991 70162 81130
333 10312 56100 57/// 58006 81817=
96163 31458 80000 10275 20244 30079 40086 52016 71792 8792/
333 10305 56009 57902 58014 83918 80950=
96179 32460 70000 10274 20245 30052 40089 52009 82208
333 10308 56400 57843 58004 82817 80840=
96221 31958 50000 10264 20243 30081 40097 53002 70592 81032
333 10310 56099 59008 81362 85080=
96237 32558 50905 10282 20241 30042 40083 52024 82232
333 10316 56000 57801 59012 82820 80858=
96249 32560 61203 10272 20227 30025 40085 52013 82232
333 10324 56200 57822 59003 82820 80863=
96253 31458 80000 10278 20249 30084 40105 52023 70792 83932
333 10325 56000 57900 59006 81915 82820=
96581 31458 70000 10270 20247 30090 40097 52007 71322 84931
333 10320 56600 57962 57862 58001 81912 83813 80980 80860=
96749 31558 60610 10279 20252 30076 40084 53009 70522 82521
333 10330 56000 59009 82625 84462=
96805 32563 61207 10268 20232 30106 40116 51023 83270
333 10306 56000 57801 58012 83820 80860=
96839 32558 40000 10290 20235 30090 40095 51010 82101
333 10335 56000 58002 82823=
97014 32558 70000 10288 20243 30/// 40/// 82201
333 10322 56000 59/// 82820 80858=
97028 31563 30000 10258 20235 30086 40092 52010 70191 83411
333 10316 56000 58005 82620=
97048 01558 40000 10254 20234 30070 40094 69901 71596 82372
333 10330 56000 57904 58002 69907 81920 80980=
97072 32460 50403 10277 20234 30015 40117 53019 82271
333 10332 56000 57802 58004 82818 80860=
97086 32562 32507 10262 20217 30089 40113 51021 82211
333 10306 56000 57809 58006 82820 80858=
97120 31459 70505 10292 20221 30069 40102 51021 70521 83831
333 10326 56200 57823 58003 82818 85360 80860=
97180 31458 73304 10297 20198 30079 40097 51017 70522 83532
333 10339 56000 58008 83619=
97192 11456 80000 10260 20239 30072 40136 60051 70262 8552/
333 10312 56209 58010 85620 88460=
97502 32460 61806 10271 20248 30117 40124 52027 83238
333 10303 56000 57803 59014 83816 85278 80857=
97580 32458 20000 10282 20250 30124 40132 51022 82202
333 10310 56000 58021 82814=
97600 32460 60404 10260 20242 30120 40125 81131
333 10316 56000 57823 59002 82820 80860=
97686 32460 60000 10170 20163 38382 40113 52032 85845
333 10264 56000 58003 83812 82613 85279=
97690 32450 50000 10258 20221 30000 40102 52026 82841
333 10332 56000 57800 59002 81817 85080=
97760 31456 70000 10260 20245 30100 40110 52012 70544 86820
333 10286 56000 57801 59011 82816 83617 86460=
97796 11457 70000 10248 20241 30075 40114 58009 60131 70596 86968
333 10303 56000 57901 58002 82915 85616 87279 80980=
97876 32430 50000 10260 20246 30096 40129 51031 85500
333 10314 56000 58018 85610=
97900 31560 50803 10258 20230 30105 40136 53008 70521 85200
333 10300 56200 57821 58001 85820 80825=
96001 32558 70000 10276 20238 39956 40089 56010 84232
333 10306 56000 57802 58000 84820 80860=
96015 31457 72906 10287 20246 30070 40077 51010 72992 86972
333 10303 56000 57901 57802 58004 82915 84815 80958 80850=
96033 31458 60503 10288 20257 30071 40078 52011 70522 82916
333 10306 56000 57902 58010 81920 82617 80980=
96075 32559 62607 10276 20247 30077 40087 53007 83221
333 10322 56000 57802 58013 83816 80856=
96171 01456 70000 10266 20245 30052 40076 52009 60021 70596 84572
333 10332 56000 58001 69917 84616=
96557 01440 80000 10258 20238 30040 40076 52004 60051 70596 8592/
333 10328 56409 57942 57842 59006 69927 82913 80958 83814 80856
88460=
96559 31357 72705 10264 20237 30041 40074 52018 71792 84970
333 10330 56600 57962 57862 59005 81914 83814 84462 80973 80860=
96615 32459 60000 10280 20248 30070 40084 52001 82131
333 10320 56000 57802 58006 82812 84362 80856=
96737 31557 60000 10286 20234 30065 40114 52012 70522 83531
333 10318 56000 59002 83620=
96739 31550 50000 10284 20237 30037 40086 52016 70521 82422
333 10332 56000 59007 82620=
96751 32550 40000 10228 20186 39108 48920 52005 83510
333 10273 56200 83620=
96755 31450 60000 10246 20230 39904 40101 52022 70522 83531
333 10328 56000 57600 58003 83618 85462=
96791 31458 70903 10294 20233 30032 40093 51013 70521 84522
333 10352 56000 59007 84618 806//=
96797 32458 72703 10288 20248 30088 40091 52010 84971
333 10320 56200 57922 57821 58010 81918 80981 83820 80880=
96801 31450 60808 10246 20212 39744 40122 52014 70522 83531
333 10295 56000 57600 58001 80618 80660=
97016 32562 41905 10275 20241 30102 40104 52021 82232
333 10/// 56000 59001 82820 80860=
97126 01450 80000 10263 20237 30022 40080 69901 72162 8492/
333 10317 56009 57900 58007 69907 82915 82615 88460 80980=
97630 01450 70106 10248 20242 39963 4//// 52024 60011 76166 87943
333 10280 56000 57901 59003 60017 82914 85815 80980=
97722 31459 80000 10248 20239 30122 40137 52019 71622 8697/
333 10294 56209 57822 58006 81918 84620 86458 80859=
83970 12499 42404 10150 20134 40111 52015 83840 222// 02159 20501=
83552 31397 43606 10272 20226 39951 40124 70544 84906 333 20255
58020=
83565 32897 53606 10264 20177 39639 40095 85030 333 20223 58012=
83618 21599 80000 10246 20211 39599 40129 5//// 70296 825// 333 20209
60034=
83623 32596 83208 10270 20166 39535 40094 53020 8425/ 333 20243=
83630 21997 63608 10196 20179 39038 40141 51015 70396 80070 333 20188
60034=
83676 21596 60904 10240 20199 39522 40141 52012 70562 82150 333 20212
60024=
83704 21798 80502 10203 20197 39712 40121 53020 76022 8677/ 333 20190
60034=
83714 21592 83602 10144 20144 3//// 4//// 5//// 76196 885// 333 20125
60084=
83716 21396 81404 10212 20193 39632 40122 52035 79522 8497/ 333 20193
60014=
83726 21594 80507 10185 20178 39194 40161 51019 70366 887// 333 20172
60344=
83773 21296 81806 10168 20168 39164 40037 53038 79596 866// 333 20169
60114=
83821 21497 83609 10208 20198 30109 40124 58920 75055 887// 333 20180
60134=
82277 32697 41012 10270 20229 40142 84400 222// 333 20260 59008=
61202 32970 02804 10385 20136 39535 40058
333 59016=
61223 32960 62414 10358 20204 39792 40077 82082
333 0//00 59010 82363 84075=
61226 32660 52606 10355 20204 39800 40085 81270
333 59014 81840 87365=
61230 32560 42810 10323 20235 39826 40090 84500
333 0//00 59006 84630=
61233 32960 70000 10318 20236 3//// 4//// 83072
333 0//00 5//// 87365=
61240 32960 62206 10325 20216 39769 40085 84042
333 0//00 59012 84365 83075=
61250 32960 51804 10340 20187 3//// 4//// 80002
333 5//// 85075=
61257 32570 62806 10313 20250 30066 40119 86500
333 0//00 59008 86630=
61265 32570 62806 10312 20239 3//// 4//// 83240
333 0//00 5//// 83830 83365=
61270 32565 72206 10295 20238 39740 40112 85502
333 0//00 59019 85630 83075=
61291 32560 52010 10301 20236 39696 40100 83542 930//
333 0//00 59013 83630=
61293 32570 42204 10310 20238 39698 40104 84500
333 0//00 59002 84630=
61296 32570 60000 10312 20236 39725 40112 85402
333 0//00 59012 85630=
61297 32570 61804 10294 20217 3//// 4//// 82540
333 0//00 5//// 82630 84365=
82693 32599 11415 10279 20158 39898 40153 81100 333 20228 59011=
71900 36/// /3615 10059 30102 40115 53007 333 10103 20059 70000=
22271 41980 01607 10143 20099 30200 40210 57008 70741=
22550 41597 71103 10188 20139 30152 40162 57003 70252 83531=
22583 42684 11402 10191 20111 30144 40220 58011 81100=
22768 41697 81302 10180 20156 30115 40168 57003 70282 8695/=
22845 41798 82203 10160 20113 30023 40172 52017 70282 884//=
22887 42570 80603 10192 20153 30129 40195 52002 83531=
23205 42998 01302 10127 20046 30244 40260 57006=
23418 42780 21203 10174 20089 30195 40265 53004 81141=
23711 42998 61004 10181 20053 30099 40264 52014 80001=
23804 42497 71401 10142 20129 30085 40228 52008 87500 333 87616=
27037 41570 62302 10166 20117 30030 40184 52007 70182 83909=
27199 42598 70000 10216 20147 40197 58005 86340=
27271 42597 71602 10244 20076 30037 40182 53003 81939=
27459 42998 71702 10240 20082 39996 40177 52001 80001=
27730 41450 83503 10132 20128 39999 40187 52007 76362 8802/   333
88517=
22165 42980 01511 10144 20092 30138 40197 57007=
22422 41/02 91801 10102 20100 30095 40110 54000 74542=
22471 42984 21409 10184 20104 30167 40190 57012 82030=
22676 42882 31205 10207 20109 30119 40193 57004 81031=
22954 41467 72703 10144 20126 39940 40179 52009 78082 87900
333 84710=
23405 41980 21003 10165 20103 30155 40250 58002 70241 80001=
23412 42798 21203 10150 20085 30176 40270 53002 82100=
23803 42599 69901 10159 20126 30073 40244 53015 83260=
27066 42998 61602 10235 20121 30015 40180 57001 84032=
27083 42599 60000 10201 20163 39986 40196 53003 86500   333 86626=
27113 42597 71901 10169 20092 30041 40180 51006 83331=
27242 42584 80000 10181 20135 30061 40182 52009 889//=
27329 42572 73301 10148 20106 30070 40190 52010 83532=
27373 42599 61703 10223 20084 39977 40181 53002 82531=
27665 42984 21902 10242 10055 39934 40186 53003 80001=
27823 41478 83602 10128 20119 39929 40178 54000 76166 8872/   333
88714=
28009 42598 30502 10195 20106 30010 40209 52008 83200=
28411 42697 73005 10242 20076 30007 40190 57005 82331=
22292 41467 61505 10118 20109 30232 40237 58009 70242 86000=
22365 42998 01803 10146 20112 30156 40180 57009=
22438 42564 81808 10143 20132 30104 40125 53012 885//=
22446 42371 61706 10198 20127 30058 40149 52001 84962=
22563 42984 11104 10213 20114 30139 40175 57007 80001=
22798 42984 11002 10192 20112 30110 40218 53001 80001=
22854 41484 81504 10164 20141 39887 40161 52006 70282 889//   333
85617=
22867 41589 72002 10202 20130 30058 40165 53005 72582 82131=
22939 42597 60000 10153 20106 30020 40175 53004 86500 333
86623=
22996 42998 30303 10198 20145 30027 40206 52005 82068=
27051 42865 72002 10216 20154 30013 40169 54000 84031=
27225 43970 81202 10157 20086 30065 40191 52006 80001=
27252 42984 32303 10250 20088 39993 40165 58001 80007=
27369 41899 71403 10224 20109 30057 40185 54000 70282 87030=
27393 42998 62302 10237 20095 30046 40203 53001 86030=
27479 42999 12002 10252 20064 30067 40191 54000 81030=
27532 41396 83102 10142 20124 39990 40195 52012 71082 8637/   333
85708=
27648 42962 81802 10230 20129 30019 40176 52002 83031=
27679 42980 02004 10250 20129 39995 40202 57001=
28214 41599 72701 10194 20140 30002 40201 53001 70282 86330   333
86931=
31285 126// 30000 11007 21007 40256 52023 60080 83600   333 10070=
31561 12998 80107 10095 20048 40170 52041 60010 82032 333
10263 91012 91114=
32010 11597 73508 10062 20048 40120 52034 60020 70298 87900   333
10204 83922 84649 91013 91117=
62420 32960 03309 10316 20140 40109 57013=
62432 32960 03303 10372 20150 40078 58017=
62435 32960 03312 10386 20167 40068 58022=
62455 32960 03108 10316 20178 40086 58016=
41530 31696 70506 10295 20162 40065 70522 83430 333 10305
56990 58053=
41620 01+96 51313 10230 20092 38442 48458 72996 85500 333 10285
56900 58039 60027 85635=
58047=
41640 12997 00505 10275 20208 39832 40073 60262 333 10300
58052=
41660 31996 03232 10267 21079 83660 48440 70700 333 10289
58018=
41715 32997 01302 10335 20244 39974 40036 333 10345
58020=
41756 32997 01805 10250 20208 39995 40058 333 10255
58020=
41764 32696 22020 10330 20195 30001 40049 82500 333 10350
56900 58009 82635=
41768 32696?22310 10340 20208 30043 40049 82500 333 10360
56900 58015 82840=
41780 32597 22306 10310 20206 30037 40064 82600 333 10322
56900 58009 82720=
91165 12566 20508 10250 20189 30098 40148 58014 69901 91153 333
20244 70003 555 91412=
91182 32966 00105 10250 20194 30136 40140 58014 91153 333 20244
555 91412=
91190 15966 00000 10239 20206 30118 40148 58016 60011 91154 333
20228 70010 555 91412=
91212 32566 20504 10267 20239 30038 40121 51018 91154 333 20256
555 91412=
91285 12466 42306 10200 20106 30129 40142 58018 69901 91153 333
70003 555 91412=
91334 11466 81806 10261 20237 30115 40118 52007 60071 76082 8432/
333 10317 56419 58007 70071 555 91412=
91348 32474 89904 10249 20233 30073 40125 51008 82271 333 10322
56399 58009 555 91412=
91356 32474 81206 10261 20246 30113 40120 51014 83278 333 10317
56599 58004 83817 84363 555 91412=
91366 11469 82308 10270 20243 30125 40129 50008 60061 71586 83571
333 10309 56323 58024 70107 555 91412=
91376 11474 82307 10267 20235 30113 40117 58003 60031 70286 8487/
333 10300 56559 58012 70064 555 91412=
91408 11474 42404 10276 20248 30078 40116 52019 60041 72581 83201
333 10322 565/9 58003 70043 555 91412=
91413 32469 72504 10270 20251 30097 40116 52017 83201 333 10322
565/9 58002 70023 555 91412=
91245 32566 41208 10280 20260 30147 91150 555 91412=
91353 32574 33003 10278 20249 30103 40108 51015 83200 333 10333
567// 58014 83819 555 91412 91425 32474 82206 10278 20256 30103
30104 51007 882// 333 10306 56599 58000 88818 555 91412 91434
11474 43302 10278 20239 30130 40133 51010 60011 70282 84200 333
10306 567// 58009 70777 84818 555 91412=
28661 42699 61004 10126 20004 30168 40258 54000 82131=
42369 32596 50505 10304 20256 40043 85800 333 10338 58023 83620
84825 =
10156 20106 70003 555 91412=
42492 31495 70703 10312 20268 40040 70522 85330 333 10323 58017
83618 83825 81930 =
42591 21496 70000 10282 20236 40044 79592 85330 333 10334 58024
6990/ 84617 83825 81930 85360 =
42701 21496 72704 10244 20215 39337 40051 79596 84331 333 10302
58021 6990/ 83618 83825 81930 85360 =
42798 31495 70000 10310 20260 40036 70522 85330 333 10335 57960
58015 83618 83825 81930 87360 =
42895 32596 61403 10298 20253 40048 84330 333 10331 57960 58014
84620 81930 86360 =
42971 31496 61806 10300 20258 40046 70522 82401 333 10342 58007
81618 85075 =
41515 32697 52307 10247 20045 48472 82570 333 10270
58013=
41560 01696 71303 10150 20098 38274 48498 60012 79599 84930 333
10230 58030 60017=
41571 32597 31314 10272 20161 40078 82430 333 10283
56990 58062=
41594 12697 50908 10270 20210 40075 60062 83530 333 10285
56990 58052=
41718 32697 23602 10330 20230 39943 40041 82200 333 10362
58033=
41739 32997 03103 10355 20039 38976 48470 333 10360
58013=
41744 32997 03602 10320 21076 48439 333 10330
58020=
41749 31996 01810 10360 20215 30004 40037 70500 333 10385
58022=
20069 32274 834=
20292 12480 73105 11006 21012 30054 40073 52016 69992 8653/
333 10003 86613=
20674 32260 82609 10063 20048 30214 40272 52002 886// 333
10074 88705 91114=
20744 42998 62308 10074 20034 30254 40272 58005 80001 333
91111=
20891 11496 72809 10062 20053 30154 40195 53001 60042 78182
8635/ 333 10062 86910 91113=
23022 42497 20903 10088 20058 30245 40304 58001 82100 333
91108=
23032 42968 00806 10096 20051 30293 40325 52001 333 91109=
23256 42599 50201 10086 21030 30321 40354 52002 82531=
23330 42698 41601 10136 20040 30305 40323 52004 82830=
23552 42597 60401 10100 20041 30300 40334 52004 85209=
23631 42999 30902 10130 20043 30277 40317 52004 82031=
23734 42698 60801 10121 20011 30220 40309 53003 86500=
23933 42597 20501 10110 21005 30248 40306 53004 82500=
28064 42699 20902 10122 21002 30201 40289 54000 82100=
28275 42599 80802 10134 21014 30216 40275 58001 82102=
28493 42999 73402 10100 20006 30166 40256 53009 87070=
28698 42598 63601 10098 21009 30094 40245 52004 83550=
23929 42681 31101 10128 20019 40288 54000 83500=
28383 42998 70000 10095 20048 40274 52004 87040=
28586 42999 73603 10097 20015 40255 52004 87050=
28588 42582 60304 10103 21060 40263 52008 83550=
28688 42598 70506 10118 21033 40254 52008 83530=
28696 42999 70404 10108 21017 40245 53008 87080=
28791 42999 60303 10116 21002 40243 52010 86040=
29367 11584 80204 10070 20038 30001 40223 52016 60072 70282 87507
333 10083 87625=
30117 32960 80403 10052 21041 39756 40244 54000 82031   333 10089=
30253 329// 20504 10070 20038 39907 40250 53014 82030   333 10123=
30328 326// 60502 10070 20025 39791 40201 57004 82542   333 10114=
23426 42589 51601 10124 20084 30292 40315 52009 82270=
23527 41496 80000 10105 20103 30272 40308 52011 76165 8872/=
23625 42599 20000 10138 20068 30278 40311 52010 82500=
28367 42596 50703 10121 20000 30143 40267 57001 83101=
28382 42699 60202 10104 20004 30204 40273 52003 86500   333 86643=
28491 42998 73603 10094 21007 30151 40258 52005 87070=
28593 42584 70202 10103 21007 30154 40248 53008 85170=
28786 42598 70504 10109 21017 30091 40243 52012 83550=
28797 42597 60403 10111 21019 30082 40234 52011 85330   333 84626=
23662 42599 10702 10104 21041 30274 40314 52008 81500   333 10011=
23788 32598 20901 10096 21019 30232 40309 53009 82500   333 10122=
23867 42999 60702 10101 20043 30207 40278 52009 86030=
23986 32999 70605 10059 21042 40278 53009 85031   333 10090=
29149 11497 80601 10064 20060 40259 53020 69982 78082 889//   333
10104=
29745 32698 23302 10086 21038 40231 52012 82500
333 10112=
36103 11699 82704 10050 20009 40180 52015 60072 70282 889//   333
10076 95000=
36231 11599 60902 10077 20027 40209 52005 60012 70282 84301   333
10079=
36259 32599 60601 10053 21008 38221 48487 52016 85901   333 10070=
36307 12799 71803 10083 20015 38882 48464 53010 60032 84931   333
10109 84933 95000=
42559 22597 50000 10298 20221 40049 70262 83402 333 10358
58007 6991/ 81620 83825 85070=
42667 32596 61805 10280 20207 39479 40052 85830 333 10324
58019 83620 83825 85360=
43003 32596 42704 10300 20233 40065 82801 333 10315 58002 81620
=
41508 31596 80509 10228 20117 48511 71792 8592/ 333 1026
58032 =
41523?32697 30000 10280 20455 48516 82430 333 10300
58050=
41573 32697 51303 10161 20127 48486 84430 333 10180
58032=
41600?12696 20000 10273 20193 39790 40075?60152 81530 333 10276
58053=
41678 32997 00504 10350 20220
0059 333 10370 58034=
58002=
41725 31996?00503?10350 20220 39959 40033?70500?333 10355
58021=
41746 32997 00000 10360 20215 39985 40036 333 10365
58013=
41759 31995 02314 10300 20228 30052 40057 70500 333 10320
58011=
41785 32697 12302 10340 20208 40053 81500 333 10350
56500 58011 81635=
43150 31596 32003 10300 20261 39986 40060 70521 82903 222// 20000
333 10325 57982 58018 81825 81930 83075=
43185 31596 51402 10304 20265 30040 40043 70596 83531 333
10336 58010 6014/ 83620 84360=
43321 21394 81812 10246 20234 39622 40066 79796 8597/ 333 10355
5669/ 57912 57922 57931 58021 6006/ 83708 84615 89255 86458=
43344 32597 50000 10342 20229 39944 40040 84901 333 10346
57951 57971 57982 58010 82825 82925=
60360 32660 60112 10302 20174 40087 57022 82202
333 0//00 82833 85073 95900=
60419 32560 52416 10317 20123 40098 58016 85800
333 0//00 82830 84633 95900=
60475 32670 32612 10296 20133 39211 48518 58018 82202
333 82846 95900=
60525 32665 51808 10320 20144 40158 58007 83280
333 0//00 83840 83360 95900=
60630 32960 51906 10434 20047 58016 82231
333 0//00 82856 83362=
60670 32760 1//16 10371 2//// 39012 48542 58015 81100
333 0//00 81850 95900=
60680 32760 31514 10335 21019 38663 48532 58008 82203
333 0//00 82856 95900=
42479 31596 70703 10306 20264 40041 70222 83301 333 10342 58024
83625 81930 85070 =
42542 32596 62506 10272 20198 39494 40058 86400 333 10334 58015
84625 85830=
62002 32960 00910 10320 20097 39439 48538 58015=
62007 32960 00608 10300 20210 40123 56022=
62008 32970 01807 10305 20093 39375 48546 57012=
62010 32960 00000 10352 20139 40126 52002=
62012 32960 00910 10332 20205 4//// 5////=
62016 32562 10615 10281 20213 40147 58015 81500 333 81625=
62019 32960 0//// 10275 20224 40160 57002=
62053 32960 33010 10280 20159 40160 57008 83500 333 83625=
62059 33410 10275 20207 40162 53002 83500 333 83620=
62124 32960 21612 10365 20126 39626 40098 57020 82040 333 82360=
62131 32968 01312 10322 20152 39833 40134 57015=
62161 32970 00000 10320 20129 40164 58013=
62176 32970 02705 10315 20166 40125 58022=
62200 32960 42112 10415 20068 39591 40094 57001 80002 333 84070=
62259 32970 00000 10360 20144 40140 58017=
62271 32970 00415 10365 20072 40141 58015=
41700 32997?03104 10345 20231 39932
0053 333 10358 58038=
60355 32665 50000 10290 20225 40090 56010 84202
333 84840 84360 95900=
60445 32659 82214 10241 20120 38991 48522 58003 81572
333   81630 85461 95900=
60690 31918 00000 10375 20126 40147 57004 70600
333 0//00 =
24656 32999 03004 11004 21107 30120 40221 57013   333 10030 91110=
29789 11596 80000 10050 20041 39010 40149 53009 60042 78082 880//
333 10085=
42273 32596 60000 10300 20246 40052 83531
333 10316  56290 58023 83625 85360 86080=
43181 32597 50000 10308 20269 30019 40046 81102 333 10328
59009=
43360 21496 80916 10290 20216 39903 40049 79596 8492/ 333
10354 57904 57952 57962 58004 6002/=
48848 31598 72702 10272 20256 30072 40080 52009 71391 82908 333
00028 10312 58014 70000 81995 87299=
48855 32798 72001 10286 20255 30078 40086 52015 82408 333 01029
10323 58016 79999 82697 87299=
48806 11798 20000 10266 20219 39320 40071 53007 69902 70281 82500
333 00027 10316 58007 79999 82697=
48852 31598 70000 10269 20251 30069 40079 52008 71391 82908 333
01028 10331 58013 70000 82995 87299=
48863 31598 62701 10280 20247 30076 40087 53019 71391 82908 333
00031 10334 58014 70000 82995 85299=
48866 11598 72502 10236 20222 39238 40106 53011 60012 71322 86903
333 01025 10284 58007 70011 82895 86995=
48875 31598 61802 10245 20212 39557 40088 52010 71311 869// 333
00026 10311 58000 70015 84895 82995=
58974 32965 63107 10257 20188 39962 40079 52009 80008=
58968 32960 01802 10269 20190 30071 40078 52014=
59158 32960 20601 10265 20216 39978 40076 53010 82030=
59358 31956 03303 10270 20224 30061 40072 53011 71000=
59559 32560 43202 10275 20244 30042 40069 53009 84500=
59562 11560 83601 10266 20235 30065 40076 53018 60022 76062
887//=
59567 32562 21105 10246 20211 39715 40084 51014 82100=
59792 32560 21102 10278 20241 30073 40077 53010 82200=
44214 32698 52705 10071 21071 38261 40145 52018 83540 333
10098=
44218 11698 02303 10104 21056 38538 40084 52009 69952 333
10167=
44241 115// 80000 10116 20110 39153 40070 57010 60112 76066
8872/ 333 10123=
98328 11410 83402 10174 20168 38503 40083 53009 60011 74264
885// 333 10220 56999 58001 88612=
98550 11460 73201 10278 20238 40090 52015 69961 70588 82268
333 10320 56999 58006 82818 87272=
42348 32596 33204 10346 20180 40035 82130 333 10369 58014
82830 83360=
42361 31596 60503 10302 20209 40050 70592 83930 333 10367
58033 82620 83830 81940 86360=
58007 6991/ 81620 83825 85070=
57912 58012 82620 83825 81930=
57990 58017 6995/=
58001=
57971 58007=
44265 32999 72703 10108 21020 38866 40211 53014 80002 333
10143=
87616=
10124=
58008=
58011=
10325 58020 70003=
82445 32297 50506 10268 20243 30111 40163 82606 333 20241
58007=
71060 36/// ///// 10036 20036 38695 40243 53005 333 10197 20026
70000=
61085 32665 60000 10332 20217 39/// 4//// 81132
333 5//// 81840 83364 85080 94909=
61091 32665 71404 10306 20203 39662 40110 87232 91145
333 59008 82840 87364 94923=
83872 21394 72306 10190 20173 30036 40116 53008 71062 86570
333 20162 60074=
83883 21/93 92702 10134 20131 39370 40154 52027 74564
333 20132 60134=
82595 32498 31218 10300 20232 40162 83100 222// 02275 20904 333 20230
59013=
71403 36/64 /3520 10149 20125 30106 40118 51011 333 10179 20145
70000=
64700 32570 41806 10296 20222 39771 40107 83832 91155
333 0//00 59006 82630 =
64701 32965 42710 10330 20196 4//// 82032 91155
333 0//00 5//// 82365
64702 32662 22608 10324 20204 4//// 81130 91155
333 0//00 5//// 81840 82365 94904=
64706 32565 73010 10282 20212 40091 82572 91155
333 0//00 59020 82630 87365=
64709 31665 71810 10300 20237 4//// 70292 85232 91450
333 0//00 5//// 85840 84365 94939=
64750 11565 70406 10290 20217 39703 40110 60101 70396 82532 91155
333 0//21 59001 82620 85365 87075=
64754 32562 82204 10215 20208 4//// 8352/ 91150
333 0//00 5//// 83630 88464=
64756 32762 23604 10350 20167 40071 81102 91150
333 0//00 59022 81850 82075 94909=
64758 31665 72210 10305 20217 4//// 71739 84532 91150
333 0//00 5//// 83840 82365 83075 91950 94942 95832=
64115 32567 63205 10310 20238 29065 39543 40075 83232
333 55/// 58008 83832 84364=
83766 21496 83202 10180 20177 39488 40136 51009 71096 885//
333 20174 60194=
83767 21596 83202 10191 20180 39507 40119 55006 76296 8597/
333 20188 60344=
83783 21596 81402 10188 20185 39438 40103 53002 71796 8292/
333 20174 60274=
83811 21594 83602 10176 20170 39237 40121 5//// 74264 885//
333 20147 60164=
83813 21694 83202 10166 20160 39022 40114 55010 71092 8532/
333 20149 60344=
83836 21395 83206 10172 20157 39135 40102 51013 71598 887//
333 20164 60134=
83844 21597 81803 10196 20186 30076 40083 53012 70265 8572/
333 20183 60074=
83881 21496 82702 10154 20144 39855 40159 50030 71062 887//
333 20140 60054=
83887 21/92 90000 10138 20133 39068 40118 52012 74765
333 20138 60074=
83907 21497 23204 10134 20121 39886 40175 53036 72841 82600
333 20118 60154=
83912 21596 50902 10150 20125 39612 40159 52010 71010 85200
333 20122 60774=
83914 21595 61406 10146 20119 39346 40128 52008 71095 86600
333 20122 60464=
83919 21496 72702 10134 20113 38952 40136 52013 71596 87600
333 20092 60404=
83927 32997 42302 10130 20107 30063 40146 52013 80004 333 20096=
83936 21496 62704 10164 20148 30011 40135 53006 70042 86500
333 20140 60204=
83948 21495 32708 10186 20166 30070 40108 51011 71098 81264
333 20142 60374=
83953 21496 61806 10136 20118 39750 40131 53016 71021 83203
333 20092 69904=
83964 21596 42302 10146 20119 39632 40119 52012 71061 84100
333 20122 60164=
83980 21/92 92302 10105 20099 39850 40138 53007 74344
333 20104 60064=
83995 32697 62304 10132 20121 30111 40114 54000 86400 333 20119=
83997 21895 82312 10118 20109 30091 40135 53012 71021 8807/
333 20087 60054=
82683 32595 60904 10268 20197 39703 40153 86400 333 20228 59009=
82198 32797 50507 10291 20230 30085 40137 85200 333 20251
58003=
63661 32680 40504 10264 20100 48491 84200
333 59015 84830=
63695 32582 21803 10255 20167 81307
333 81925=
63793 32580 61407 10293 20143 40097 86200
333 59002 86829=
63799 32580 41510 10278 20214 40116 84100
333 59004 84824=
64600 11475 62804 10275 20213 39448 40090 69921 70362 84230
333 0//13 58004 84813 86365 94906 95836=
64601 11580 50606 10263 20166 38986 48500 69911 70362 84202
333 0//15 59012 84823 83080 94919 95839=
64605 32580 70000 10286 20214 39357 40087 85202
333 0//00 58008 85826 87080 94919 95839=
64650 32575 62704 10300 20229 39684 40092 85202
333 59008 85826 84080 94939 95879=
64655 32680 8//// 10292 20239 39441 40067 85232
333 0//00 59019 85833 85365 87080 94939 95839=
64656 32580 6//// 10306 20231 39527 40070 86200
333 0//00 59013 86830 94939 95879=
64659 32580 6//// 10310 20217 39359 40058 86200
333 0//00 59021 86830 94939 95879=
64660 32680 50404 10320 20213 39553 40071 85202
333 0//00 59006 85833 94939 95879=
67009 32581 51014 10271 20162 30008 40128 57013 85800
333 0//00 85823 91121
555 10306 81633=
67012 32582 2//// 10290 20190 30120 40130 56017 82200
333 0//00 82820=
67019 32582 12808 10295 20182 30057 40123 57018 81200
333 0//00 81823=
67025 32582 20812 10251 20196 30041 40142 56013 82800
333 0//00 82820
555 81640=
67027 32582 23014 10297 20175 30102 40123 57023 82200
333 0//00 82823=
67045 32582 12806 10342 20143 30020 40108 57031 81100
333 0//00 81823=
67072 32581 11808 10250 20190 30153 40157 56014 81100
333 0//00 81820 92428=
67073 32582 3//// 10282 20220 30114 40140 58021 83900
333 0//00 83820 81920 94992 95832
555 81630=
67083 32580 40802 10260 20094 38742 48515 56020 84800
333 0//00 84820
555 82623=
67095 32482 30806 10256 20177 30142 40149 57019 83800
333 0//00 83817
555 81640=
67113 32982 00408 10260 20187 30138 40144 57024
333 0//00=
67117 32582 1//10 10286 20195 30127 40136 57013 81200
333 0//00 81823=
67137 32475 60000 10268 20098 38897 48501 56013 85933
333 0//00 83817 83917 94994 94995 94996 95835 95836
555 10280 81360 82073=
67152 32582 62012 10299 20040 39224 48537 56017 84230
333 0//00 84820
555 82360=
67157 32981 0//// 10250 20211 30135 40142 57017
333 0//00=
67161 32582 52218 10266 20228 30153 40162 56009 85200
333 0//00 85820=
67197 32582 52616 10258 20200 30138 40148 57007 85800
333 0//00 84820
555 82633=
10143=
42328 32596 32303 10350 20189 40042 83800
333 10367 58015 81625 83830=
98646 31460 73401 10279 20245 40089 52013 71322 83908
333 10322 56999 58007 83918 87275=
64702 32662 22608 10324 20204 4//// 81130 91155
333 0//00 5//// 81840 82365 94904=
44210 32999 23605 10070 21047 38504 50026 82060 333 10108=
44217 32998 20000 10018 21076 37845 40179 53006 82040 333
10047=
44242 115// 80202 10114 20112 39285 40080 57006 60082 70262
882// 333 10122=
44243 115// 81802 10108 20094 39332 40114 57013 60092 72162
8852/ 333 10110=
44263 32998 23202 10052 21080 38067 40208 52012 80008 333
10074=
41150 32962 00305 10355 20188 40022 333 59002=
41184 32960 01205 10373 20258 40027 333 58024=
41194 32960 23409 10369 20257 30022 40027 82040 333 58008 82368=
41217 32962 03511 10390 20236 30000 40029 333 58005=
58006 82630 83359=
11019=
83231 333 69927 83826 91137=
58017 83618 83825 81930=
91554 32475 81106 10260 20244 40133 51003 888// 333
10290 562// 58005 83818 88640=
91557 31580 60000 10225 20210 40160 51003 70522 86800 333
20290 562// 58007 83824 86645=
71841 36/// ///// 10013 20013 39923 40326 51001 333 10145 21020
70000=
63671 32680 61807 10314 20170 862//
333 86830=
71433 36/// /3103 10128 30095 40326 53004 333 10143 20105 73842=
96747 31950 40804 10282 20238 40092 70521 80001
333 10327 56000 58000 84080=
71490 36/// ///// 10069 20059 39734 40034 53005 333 10123 20062
70000=
71923 36/// /2518 10105 20096 39659 40088 58009 333 10141 20103
70000=
68296 32180 82310 10180 20075 39950 48600 57015 886//
333 1//// 2//// 555 91027=
63624 32680 10902 10364 20142 40075 81100
333 59004 81837=
82022 22970 30610 10274 20242 40137 80001 333 59005
60124=
42379 22596 70000 10282 20254 40042 86820 333 10297 56199 58023
6002/ 86625 86458=
91203 32469 42705 10281 20254 30111 40116 52020 83900 333 10322
562// 58007 83915 555 91412=
91317 32469 43102 10300 20255 30116 40120 52011 82101 333 10339
567/9 58014 82816 555 91412=
58046 6002/ 85630 81935 87360 91060 91933 99958=
58028 6990/=
58024 6990/ 84617 83825 81930 85360=
57960 58015 83618 83825 81930 87360=
91425 32474 82203 10278 20256 30103 30104 51007 882// 333
10306 56599 58000 88818=
82784 32598 50906 10334 20129 39649 40111 85200 333 20230 58018=
60351 32560 73018 10304 20173 40098 58008 85802
333   82826 85640 95900=
60444 32560 72416 10232 20117 39115 48529 50003 872//
333   87830 95900=
60468 32565 72418 10281 20100 39204 48511 58009 84983
333 0//00 81930 83833 95900=
60515 11559 72012 10221 20182 40163 50004 60031 72961 872//
333 0//12 87830 95900=
60518 42960 33006 10267 20217 40111 57009 81032 222// 20000
333 0//00 81360 83073 91806=
78318 01558 82807 10241 20225 30083 40087 52019 60021 79598 85971
333 06999 10283 20239 32/// 50520 57921 59018 60027 70072 83820
88358 829//=
78333 11/10 42006 10293 20242 30090 40096 53014 70596 84903 333
06909 10327 20225 30/// 57913 59022 79999 838// 819//=
78338 32560 40000 10246 20216 30079 40092 53005 83942 333 06999
10300 20230 30/// 50710 57944 59027 82820 81922=
78349 31558 62004 10253 20236 39993 40105 53002 70511 85943 333
06499 10319 20242 30/// 50064 55107 57953 59017 85820 81921 555
11804=
78360 31465 61208 10290 20247 30106 40118 53010 71511 85903 333
06309 10323 20283 30/// 55100 57913 58001 87818 819// 92083 555
11304=
78369 31568 30000 10270 20236 30114 40126 51009 70500 82902 333
06909 10321 20246 30/// 55091 5794/ 58000 81820 819// 92000=
82686 32598 41806 10266 20204 39906 40151 83201 333 20227 59007=
78948 11582 41409 10283 20246 30149 40157 69901 70181 83232
333 01225 10316 20251 58019 70009 83822 90950=
78947 11579 41206 10286 20252 30158 40161 60042 70581 82430
333 01390 10325 20250 58020 70055 82823 83359=
78862 11580 51308 10295 20253 30137 40160 69911 70381 85801 333 10314
20268 58020 70001 85822=
91434 11474 43302 10278 20239 30130 40133 51010 60011 70282 84200
333   10306 567// 58009 70777 84818 555   91412=
62600 32970 00206 10404 20076 39846 40045 59020=
62640 32970 01103 10430 201309 39682 40015 59017=
62641 42970 00206 10390 20122 39996 409042 59028=
62660 32970 04006 10430 20040 3/// 4/// 840540
56090 5/// 84365=
62680 31965 72001 10420 209140 39643 40013 70622
56009 59016 87275=
62721 31765 71004 10410 20160 39593 40006 70622 82107
56209 59024 82850 87275=
62730 32770 11803 10375 20140 39479 40015 81100
56090 59021 812856=
62733 32970 72303 10385 20210 39569 40051 83144
56999 57894 59018 83856 82365=
62751 32770 71506 10375 20200 395495 40034 81107
56809 59026 81856 87275=
62760 311956 70403 10370 20060 39257 40022 70622
80007 56009 59007 87275=
62762 32970 71804 110365 20215 39572 40022 80007
56009 59021 87275=
62771 32970 72404 10355 10165 39413 40026 80007
A
56009 59027 87275=
62772 32770 72403 10390 20200 39396200 40029 82107
56509 59036 82856 87275=
60602  32960 01204 10363 20094 40058 58003
333 95900=
60620 31920 02213 10440 2//// 40043 58012 70600=
42101 21996 33601 10274 20230 40068 70196 82031 333 10330
58042 6021/ 82360=
98526 31568 80000 10258 20233 40100 52009 70544 82277 333
10298 56999 58011 82820 83358 88274=
58022=
78958 31570 31115 10287 20246 30137 40147 70600 82201 333 00209 10310
20240 58015 82821
71421 46/// /////=
60425 32558 22606 10309 20150 40113 57020 82200
333 82833 95990=
63619 32582 11404 10274 20146 48505 81200
333 59011 81828=
63714 31582 50810 10262 20108 48460 71722 85960
333 59007 81927 84828=
91324 32474 80000 10267 20252 30116 40118 83201 333
10333 56999 83819 88075 555 91412=
91339 11474 80000 10259 20247 30105 40111 52014 60011
70282 8482/ 333 10317 56317 58007 84818 88463 555 91412=
62650 31968 30410 10340 20040 397689 40039 70601 83030
56050 59015 83365=
62750 32970 72305 10385 20205 3/// 4/// 80007
56009 5/// 87275=
62752 32770 72204 10350 20220 39402 40050 84047
56090 57891 59011 84850 87275=
62770 32970 70510 10330 20085 39212 40071 82047
56049 59013 82365 872754=
62781 32970 7000 10355 20185 '9456 40061 80007
56009 59022 87275=
98132 31468 30000 10253 20238 40095 53010 70544 82201
333 10/// 56999 58001 82817=
98222 11575 11802 10260 20260 40094 51006 60011 70544 81500
333 10300 56999 58000 81625=
98233 11570 80000 10270 20222 40091 53019 60371 70564 885//
333 10335 56999 58015 88625=
98324 32470 80201 10266 20247 40088 53016 81277
333 10286 56999 58003 81815 83358 88270=
98425 11456 80402 10275 20243 40090 52013 69921 78098 8627/
333 10298 56999 58011 86816 88459=
98427 31475 40000 10268 20236 40092 53012 70142 83260
333 10313 56999 58015 83818 83357=
98428 11560 70000 10280 20251 40093 53013 60041 71396 82970
333 10300 56999 58016 82920 87359=
98430 11558 80000 10265 20238 40093 53014 69931 72160 8557/
333 10310 56999 58005 84620 88358=
98432 31568 61802 10278 20253 40096 52015 70544 82272
333 10300 56999 58010 82820=
98434 32465 40000 10260 20247 40088 53022 82201
333 10334 56999 58009 82818=
98435 31470 60000 10263 20243 40083 53017 70544 82270
333 10319 56999 58017 82818 85359=
98446 11462 83603 10272 20248 40086 52025 60141 79598 85907
333 10326 56999 58006 82818 87272=
98447 11470 83204 10260 20244 39824 40086 5//// 60051 79592
84907
333 10312 56999 58014 82916 82818 88270=
98538 31468 41801 10278 20254 40093 53019 71342 81906
333 10316 58008 81818 84072=
98546 31470 70000 10272 20247 40092 52013 71322 83908
333 10326 56999 58009 83915 87275=
98548 32465 50000 10285 20245 40084 53008 82208
333 10318 56999 58010 82816 84272=
98553 31465 50000 10272 20250 40100 52028 70242 82208
333 10324 56999 58004 82818 84272=
98558 31466 32601 10280 20247 40097 53010 70341 82970
333 10310 56999 58008 81915 83358=
98642 31468 70000 10280 20250 40087 52019 70522 82272
333 10326 56999 58030 82815 84358 84072=
98644 31468 80901 10286 20257 40092 51009 71342 84907
333 10333 56999 58003 81915 85358 88272=
98751 11470 30000 10230 20215 39424 40099 52023 60021 70544
82201
333 10295 56999 59011 81915=
98752 31465 40000 10281 20257 40084 52024 70144 81271
333 10328 56999 59001 81818 84075=
98851 31470 30901 10290 20251 40096 5/020 70544 81270
333 10333 56999 58004 81818 83358=
42103 21996 30000 10282 20210 40054 70196 83030 333 10346 58036
6005/ 83360=
48665 11564 70000 10250 20238 30078 40088 60071 79196 83578 333
10345 83625 84464 86277=
96481 31462 50000 10275 20239 30072 40095 71322 82941 333 10320
81916 85080=
67475 41765 60902 10277 20130 48498 70522 82130 333 58010 82856
84364=
67561 41750 50000 10305 20144 48491 70411 85200 333 58015 85857=
67633 41960 72004 10206 20049 48502 76062 8307/ 333 58031 87362=
67641 41970 82602 10227 20054 48502 71562 8807/ 333 58034 88462=
67663 41960 72603 10260 20122 48492 70522 8707/ 333 58014 87360=
67753 41950 71006 10226 20112 48/// 70522 8793/ 333 5//// 87360=
89014 46/// ///// 11166 39161 4//// 57014
333 11145 21219=
89816 46/// /1414 11239 38162 4//// 5////=
42634 32596 32003 10338 20238 40043 83800 333 10348 58012
81620=
82361 32597 13604 10266 20229 30106 40143 81100 333 20226
59002=
17219 32965 03412 10298 20117 40102 57011=
62408 14121 99529 10040 41/98 63409 10153 20117 40071 51014 70322
8/1// 22200 00167 20303 80132=
64860 32570 51404 10300 20212 39835 40101 84202
333 0//00 59017 84820 82080=
64910 42570 72204 10270 20137 30101 40111 87300
333 0//45 59019 87820 81923 94943 95835=
64971 41456 81404 10250 20240 30105 40113 79596 8492/
333 59011 84612 88462 82930 95377
87715 32970 22709 10057 21003 39868 40196 57007 80006 333 10102 20006
30101 56009 82270=
94997 46/// ///// 10006 39848 49864 57059 91238=
10161 20062 55040 70000=
10042 20004 55000 70088=
61976 32575 11208 10266 20200 40144 81100
333 59009 81820 92448=
61972 32570 71616 10255 20192 40186 872//
333 58051 87825 92448=
78016 32664 71201 10257 20204 30136 40177 51011 81170 333
10300 20237 70000=
37549 42796 61001 10293 20073 39574 40120 56013 85570=
43189 21596 82503 10286 20269 30052 40061 76062 8452/ 333
10334 58025 6002/=
41196 32960 00104 10390 20226 39991 40028 333 58007=
43303 32597 52302 10288 20209 39807 40045 82330 333 10354
58004=
43325 21496 70000 10250 20241 39743 40055 75062 84315 333
10336 58014 6010/=