ZCZC 000
SMCI10 BENJ 211800
AAXX 21181
50888 32980 01803 10052 21042 40242 52003 333 10139=
54094 32960 00000 10020 21008 39984 40282 54000 333 10145=
54455 32970 03401 10082 20035 40272 57009 333 10191=
57996 11665 80204 10249 20213 40140 57005 69901 70080 885//
333 10319=
59072 11663 83401 10226 20219 40148 57001 60111 78180 884//
333 10264=
54337 32960 00000 10093 20017 30195 40281 57009 333 10191=
53975 11930 80000 10117 20113 40275 57007 60051 76066 8802/
333// 10125=
53787 11759 82001 10103 20093 40279 57006 69911 71060 885//
333// 10149=
50788 32970 02504 10028 21035 30149 40234 54000 333 10134=
50953 32970 01801 10051 21039 30080 40260 57009 333 10154=
57584 11360 80404 10184 20177 40199 57005 60041 76060 887//
333// 10226=
54916 32760 20000 10153 20131 40263 57003 82500 333// 10252=
54662 32970 00000 10141 20057 30154 40273 57001 333 10212=
57972 11440 83601 10198 20193 39951 40170 57003 69931 76066
887// 333// 10212=
54471 32962 00000 10066 20043 30256 40273 57009 333 10179=
57799 32965 03403 10214 20182 30083 40164 57003 333// 10275=
58527 32962 73603 10220 20163 30106 40179 57005 80002 333//
10257=
59954 32565 50000 10249 20237 40092 57012 85200 333// 10326=
54292 32965 00000 10000 21018 30078 40299 52008 333// 10161=
50948 32970 02003 10069 21027 40250 57016 333// 10167=
54266 32970 02001 10012 21010 40290 57012 333// 10154=
54374 32962 03401 10000 21024 39904 40313 52001 333// 10170=
54273 32970 00000 11002 21014 40298 57001 333// 10159=
54186 32970 00000 11006 21043 40295 57001 333// 10133=
54049 32970 01803 10059 21020 40262 57015 333// 10160=
54386 32970 00403 11026 21057 40311 52005 333// 10142=
50442 32970 02701 10013 21021 40150 57028 333 10172=
58549 32964 01601 10208 20167 40195 57007 333 10267=
59087 11558 83601 10233 20226 40130 57002 60071 72598 884//
333 10272=
59293 11561 10000 10257 20237 30075 40122 57003 69911 70080
81100 333 10292=
59316 32966 00703 10255 20195 30107 40116 57009 333 10317=
58921 32665 61802 10231 20200 39908 40143 57007 86500 333
10312=
58730 32970 00701 10215 20151 40172 57005 333 10294=
57655 32860 80402 10190 20162 40199 57002 885// 333// 10212=
57687 11356 83203 10204 20183 30107 40186 57001 69901 71060
8772/ 333// 10225=
57447 11970 83202 10193 20158 39677 40200 54000 69901 72160
8807/ 333 10273=
58326 11960 80402 10206 20150 40223 57004 69901 70060 8807/
333// 10258=
58236 32965 80702 10200 20151 40229 57008 8807/ 333// 10265=
58203 11962 80703 10197 20171 30185 40230 57005 69911 70060
8807/ 333// 10242=
58531 32975 50402 10211 20135 40200 57001 85040 333// 10260=
58102 11960 83401 10188 20158 30191 40241 57001 69901 76060
8807/ 333// 10241=
58437 31970 00711 10074 20071 38220 57008 72840 333// 10141
91120 91507=
58319 32562 70205 10214 20148 40216 57005 875// 333// 10257=
59673 11465 20711 10274 20229 40105 57012 60171 70098 82200
333 10316=
59287 32665 73401 10247 20229 30074 40124 57012 874// 333
10262=
59117 32970 00000 10241 20226 30022 40124 57007 333 10333=
59501 32962 00000 10240 20230 30111 40127 57009 333 10292=
59096 11565 72702 10240 20227 40130 57005 60031 70080 874//
333 10302=
59294 11565 43402 10236 20230 30086 40130 57008 60161 72598
84400 333 10261=
59658 11465 70404 10262 20243 40104 57007 69901 70080 874//
333 10312=
59948 32568 70902 10273 20238 30081 40089 57010 81102 333//
10324=
50873 32970 02201 10043 21048 40241 57003 333 10139=
50844 32962 02008 10103 21055 40219 57015 333 10170=
50564 32970 02202 10030 21049 40190 57021 333 10145=
50853 32970 01603 10028 21038 40250 57012 333 10147=
54096 32970 02902 11006 21054 40284 54000 333 10118=
50758 32970 01803 10065 21056 40246 57018 333 10145=
50950 32965 02003 10040 21036 40247 57016 333 10157=
50658 32980 02001 10052 21048 40212 57022 333 10144=
50968 32970 02001 11009 21021 40283 57002 333 10147=
50468 32975 00000 10051 21050 39971 40174 57026 333 10147=
50557 32970 02003 10072 21070 39888 40181 57029 333 10156=
50745 32963 01805 10094 21022 30025 40203 57022 333 10168=
57259 11962 80903 10155 20135 40235 57011 69901 70060 8807/
333 10175=
54351 32970 00403 10011 21002 40289 57007 333// 10175=
54476 32962 01802 10027 20014 40286 57010 333 10187=
54135 32980 01603 10039 21027 30043 40263 57012 333// 10171=
56571 11680 80000 10199 20173 38423 57004 69911 70060 888//
333 00001 10265=
56287 11450 80000 10190 20185 40165 57009 60011 76066 8172/
333 00000 10220=
57306 32965 83202 10213 20190 40148 57003 8807/ 333 10268=
57245 32780 80403 10186 20140 39877 40219 57007 885// 333
00000 10204=
57016 11930 80000 10124 20120 40220 57015 60021 76166 8802/
333 10131=
51573 31950 80902 10212 20044 30131 40172 52004 70600 8802/
333// 00751 10280=
59849 32561 10000 10232 20223 40100 57009 81100 333// 10325=
53915 11765 80902 10098 20087 38694 40214 57012 69901 70060
885// 333// 05301 10101=
57522 31750 70000 10255 20171 40150 57001 71000 87500 333
10314=
58737 32970 03601 10208 20179 40166 57005 333 10311=
58846 32970 00000 10224 20180 40164 57008 333 10284=
58933 32970 00403 10161 20142 40165 57009 333 10240=
58918 32265 53401 10229 20223 40133 57007 85600 333 10321=
58754 32965 00000 10205 20181 40175 57006 333 10288=
58834 32766 20203 10233 20173 40157 57004 82500 333 10304=
58847 32668 20402 10243 20180 30054 40152 57010 82540 333
10292=
58911 32963 02501 10211 20196 40141 57006 333 10297=
58820 32961 00401 10213 20175 40155 57001 333 10289=
58556 32960 00202 10209 20144 40195 57007 333 10271=
58633 32962 00704 10202 20164 30093 40190 57004 333 10260=
58646 32660 50000 10205 20174 40194 57003 85500 333 10255=
58660 32570 73402 10222 20154 40184 57007 878// 333 10268=
58666 32770 73611 10231 20207 30067 40165 57006 875// 333
10254 91121 91536=
58667 32975 02909 10219 20154 40162 57011 333 10272=
53782 11960 80000 10145 20107 40264 57010 69901 70060 8802/
333// 10188=
57766 11460 83403 10188 20177 40188 57007 69931 76060 887//
333// 10212=
78711 11570 70302 10291 20247 30109 40120 58008 69971 70565 83208
333 02100 10291 20232 31/// 59006 83830 87275=
78717 11560 73304 10236 20185 38945 40117 57006 69962 70242 86202
333 10240 20184 32/// 56300 58009 86825 84075=
78724 32578 40209 10320 20212 30041 40097 58010 84201
333 02200 10320 20234 30/// 58005 84832=
89664 11316 80607 11198 21229 39797 49841 50005 69902
77772 886// 333 56399 88708 90977 93191=
16597 11256 70708 10240 20240 30036 40119 50000 69902 70182 876// 333
10280 87705 =
128055 107041 098035=
40809 61749 075075 081070 076070 075072 079074 075070=
70200 82076 22254 04180 20201 322// 40801 80180=
54339 32965 01401 10090 20000 40248 57012 333 10171=
57780 31957 83603 10209 20198 40183 57004 71000 8807/ 333//
10248=
51133 32980 03403 10066 20012 39631 40270 57003 333// 05151
10174=
59134 32970 00703 10237 20172 39972 40130 57007 333 10299=
58311 11562 80000 10196 20179 40222 57005 69941 76060 885//
333// 10239=
54623 32970 00000 10164 20112 40271 57009 333 10208=
54326 32980 00000 10073 20018 40263 57011 333 10183=
54497 32970 00405 10090 20022 30260 40275 52004 333 10203=
54335 32980 03201 10028 20007 40273 57009 333 10173=
59211 11460 80902 10240 20227 39925 40125 57003 69931 76060
8177/ 333// 10323=
59265 11930 00402 10231 20228 39988 40123 57007 69921 71060
333// 10248=
59254 11550 83201 10237 20225 40121 57004 60051 72580 889//
333// 10265=
59647 32561 70904 10266 20237 40099 57010 879// 333// 10314=
59023 11459 80702 10214 20192 39891 40134 57005 60041 76060
887// 333// 10279=
59632 11563 73602 10235 20219 40111 57007 69921 78080 879//
333// 10312=
59058 11464 80000 10227 20209 40138 57004 69941 72166 885//
333// 10255=
59209 11460 82702 10211 20191 40116 57003 69901 78080 889//
333// 10295=
59037 11460 83406 10218 20207 39924 40124 57007 69901 76060
888// 333// 10291=
56492 31756 80000 10219 20201 39762 40154 57003 71000 885//
333 00001 10245=
57608 31950 72901 10235 20210 40145 57005 71000 8704/ 333
10303=
56294 11461 82701 10195 20192 39580 40166 57007 60021 76060
8177/ 333 00001 10204=
57206 11740 80000 10175 20162 40161 57009 60021 72160 885//
333 10199=
58122 11968 80402 10201 20138 40241 57003 69901 76060 8807/
333// 10261=
58314 32960 80000 10192 20178 30139 40225 57004 8807/ 333//
10229=
58436 32965 00000 10176 20154 40216 57004 333// 10262=
58215 11960 80904 10198 20163 40241 57001 69911 72160 8807/
333// 10252=
51628 32970 00703 10158 20058 40160 52006 333// 00301 10236=
51431 32980 00000 10069 20054 39486 40271 57005 333// 05303
10175=
58027 32965 80702 10195 20149 30200 40250 57002 8807/ 333
10250=
56080 32680 70000 10116 20096 37184 57005 875// 333// 05103
10207=
59855 32570 62902 10249 20239 40095 57011 82102 333// 10324=
59838 32965 70903 10264 20242 30073 40087 57010 81062 333//
10307=
58813 32665 80402 10229 20190 40161 52001 885// 333// 10302=
58606 32762 73603 10221 20185 30124 40177 57004 875// 333//
10252=
57793 32660 80702 10225 20174 40184 57004 885// 333// 10255=
57896 11675 80401 10219 20201 40163 57006 69901 70060 885//
333// 10247=
59981 32580 40000 10279 20248 30073 40079 57017 81102 333//
10324=
50877 32970 00401 10034 21013 40258 52002 333 10151=
50854 32970 02205 10080 21029 40238 57015 333 10151=
50978 32980 02502 10030 21042 39970 40262 52002 333 10137=
50656 32970 02502 10056 21058 40217 57017 333 10134=
50136 32970 51802 10000 21026 39558 40075 57035 82032 333
10167=
50963 32960 00902 11014 21017 30131 40268 57001 333 10145=
50756 32970 01803 10039 21065 39946 40240 57015 333 10140=
53399 32980 02003 10079 20054 40239 57006 333// 10186=
54715 32970 00703 10132 20095 40266 57007 333// 10250=
54823 31950 01403 10153 20112 30060 40260 57007 70400 333
10249=
54909 32962 80000 10164 20157 30193 40255 57004 8807/ 333//
10194=
54843 32970 00000 10088 20069 30241 40268 57004 333// 10257=
54863 32980 00204 10156 20073 40267 52001 333// 10240=
54776 32980 03404 10194 20105 30211 40267 52002 333// 10223=
58343 32665 60204 10193 20155 40224 57007 82530 333 10268=
58241 32670 40403 10193 20154 40234 57009 84500 333 10277=
58141 32964 20201 10173 20145 30223 40240 57007 82040 333
10269=
58265 32572 30206 10213 20135 30209 40221 57005 83500 333
10267=
58150 32965 80204 10199 20122 30225 40233 57011 80007 333
10259=
58259 32962 70405 10198 20154 40221 57006 8704/ 333 10275=
58040 32960 00202 10179 20105 30243 40247 57004 333 10244=
58358 32970 73602 10195 20145 40212 57007 8704/ 333 10273=
58251 32965 03401 10175 20135 30226 40232 57008 333 10268=
58345 32960 80402 10195 20157 40223 57007 8807/ 333 10267=
58138 32960 80402 10191 20147 40233 57010 8807/ 333 10260=
53446 11965 80902 10123 20095 40209 57012 69911 76060 8802/
333// 10233=
50862 32970 01402 11001 21035 40255 57011 333 10136=
50774 32960 03401 11029 21050 39943 40247 57009 333 10134=
59663 11460 80702 10244 20232 30083 40111 57008 60111 79198
889// 333 10302=
54218 32970 00000 10077 20036 39583 40253 57009 333// 10207=
52652 32970 80000 10151 20115 38509 40116 52005 8802/ 333//
00101 10193=
59417 11567 81601 10248 20224 39967 40115 57005 69901 70060
888// 333// 10331=
50983 32970 00000 10019 21019 40252 52001 333 10136=
57461 11462 82901 10177 20173 30071 40230 57006 60021 76060
8277/ 333 10214=
54259 32965 00000 10006 21011 40300 57004 333 10163=
54333 32962 00000 10066 20009 40273 57008 333 10172=
54236 32975 00000 10012 21014 30171 40275 57008 333 10173=
54237 32960 00000 10030 21012 40278 57011 333 10180=
54324 32970 00000 10087 21001 40271 57007 333 10192=
54342 32962 00701 10043 20017 30217 40278 57006 333 10172=
54454 32970 03401 10081 20049 40288 57011 333 10186=
54493 32974 00000 10017 21005 40283 52002 333 10193=
54563 32970 00000 10092 20031 40268 57002 333 10220=
54579 32970 00903 10172 20139 40269 54000 333 10206=
53480 32980 01801 10084 20012 40226 57007 333// 10200=
53923 11570 81605 10098 20096 40217 57013 60011 76066 8772/
333// 10098=
53845 11562 80902 10116 20107 39131 40233 57013 69941 76066
8572/ 333 05251 10126=
54602 32960 03601 10148 20110 40275 57007 333// 10250=
57127 11561 80404 10157 20147 39612 40205 57006 60011 76060
8272/ 333 10180=
54527 31957 00000 10138 20131 40275 57008 71000 333 10222=
56096 32775 73201 10171 20150 38933 40137 57009 875// 333//
05402 10186=
54157 32962 01602 10041 21014 40277 57010 333// 10167=
57602 31740 82201 10221 20204 40142 57006 71000 885// 333
10292=
58477 32472 60204 10237 20176 30141 40184 57007 86100 333
10264=
58543 32966 00402 10208 20138 40208 57003 333 10269=
58562 32563 60702 10237 20148 40193 57007 86400 333 10268=
58665 32768 73404 10230 20163 40175 57012 875// 333 10273=
58647 32965 00703 10212 20139 40192 57002 333 10249=
58457 32967 00204 10214 20138 30158 40208 57004 333 10272=
57516 32865 31103 10254 20184 39845 40140 52001 83500 333
00101 10316=
53798 32960 70701 10176 20122 30173 40265 57006 8703/ 333//
10219=
54857 32980 20402 10164 20061 30167 40256 57001 80002 333//
10262=
53738 11470 81603 10108 20095 40217 57010 60021 72166 8272/
333 10112=
53646 11663 81104 10104 20089 39021 40231 57011 69971 76060
8652/ 333 05200 10139=
53929 11762 81406 10106 20102 40217 57014 60011 72166 885//
333 10108=
57134 11362 81601 10145 20133 40210 57005 69961 76060 885//
333 05100 10155=
57494 32963 80403 10192 20171 30180 40209 57009 8807/ 333
10242=
58944 32464 30208 10247 20181 40147 57011 83500 333 10269=
58731 32973 00000 10174 20157 40179 57008 333 10273=
59321 32980 20415 10250 20189 40122 57007 80002 333 10289
91120 91504=
58725 32980 01402 10221 20166 39914 40165 57003 333 10299=
59126 32962 51201 10243 20192 40137 57006 80002 333 10320=
57662 11456 83605 10179 20167 30172 40213 54000 60011 76166
8672/ 333// 10209=
57504 31940 80000 10217 20205 40137 57001 71000 8807/ 333
00001 10285=
58321 11560 81104 10211 20154 40224 57007 69911 70060 885//
333// 10241=
58424 32963 70406 10226 20147 30176 40199 57005 8707/ 333//
10257=
53806 32770 12902 10082 20078 38153 57006 81500 333 10096=
53705 32980 61605 10131 20088 40148 57015 80002 333 05501
10159=
53614 32870 83602 10129 20111 38921 40175 57014 8457/ 333
05551 10139=
53723 32968 81404 10114 20094 38682 40189 57013 8807/ 333
05400 10119=
56386 11820 80000 10198 20193 40159 57005 69981 71060 885//
333 00000 10224=
54511 32968 02201 10134 20107 30235 40274 57007 333 10225=
53588 32970 72004 10035 20012 37890 57010 80002 333 10098=
52424 11980 80000 10144 20118 40152 52013 69991 76060 8802/
333 00752 10223=
56093 32580 80000 10125 20103 37716 57006 889// 333 05203
10193=
52546 32965 72902 10153 20115 40108 52004 80002 333 00103
10188=
58362 32968 70404 10216 20166 30199 40209 57005 8703/ 333//
10265=
59431 11457 80000 10224 20217 39972 40116 57009 69951 76060
885// 333// 10301=
59644 32562 50203 10243 20221 30086 40101 57010 81102 333//
10324=
57957 11556 80204 10209 20190 39962 40155 57002 60011 72160
885// 333// 10241=
53882 11920 80000 10100 20098 40283 57005 69981 76066 8802/
333// 10118=
53487 32961 10902 10095 20051 40237 57005 80002 333// 10223=
53564 11980 81601 10147 20091 39235 40204 57010 69901 76060
8802/ 333// 05205 10251=
53863 11961 82002 10120 20107 40276 57005 69901 76060 8807/
333// 10132=
53764 11970 82701 10123 20095 40252 57008 69901 70060 8802/
333// 10147=
53772 11960 71601 10134 20108 39364 40261 57008 69901 70060
80002 333// 10195=
53663 32680 82002 10127 20058 40200 57012 889// 333// 10200=
53853 11962 81106 10110 20087 40255 57005 60011 76066 8802/
333// 10125=
53959 11565 81404 10152 20125 39801 40247 57010 60151 72166
8472/ 333// 10160=
53673 32960 80000 10143 20096 40256 57005 8807/ 333// 10203=
53868 11956 83402 10129 20118 40262 57006 60021 76066 8802/
333// 10136=
53664 32965 81603 10134 20074 40227 57003 8802/ 333// 10200=
54753 32965 00901 10118 20074 30262 40268 57005 333// 10223=
54751 32975 00703 10175 20076 40266 57003 333// 10213=
54725 32965 01101 10110 20094 40270 57007 333// 10250=
54808 32962 80402 10160 20129 40259 57003 8807/ 333 10225=
54263 32980 00000 11012 21018 40296 54000 333// 10147=
54276 32960 00000 11029 21039 40306 57006 333// 10143=
54181 32966 00000 11008 21020 40299 57001 333// 10149=
54377 32965 00000 10026 20005 40302 52001 333// 10191=
54161 32962 01603 10063 21032 39983 40273 57010 333// 10158=
57476 11960 80202 10178 20170 40221 57006 60021 76060 8802/
333 10199=
57265 11356 80702 10168 20158 30127 40236 57010 69911 76060
8772/ 333 10198=
54401 32962 01103 10141 20100 39415 40245 57008 333// 10240=
54102 32980 02504 10128 20009 39081 40198 57007 333// 10217=
51709 32880 60000 10165 20093 38743 40153 52002 86960 333//
00101 10237=
51839 32962 02202 10150 20080 40131 52003 333// 00402 10252=
53463 32980 70402 10130 20024 39020 40210 57006 87030 333//
05203 10233=
56374 11070 80901 10120 20117 37482 57005 60071 78080 884//
333 00000 10184=
50742 32965 02005 10073 21028 40204 57021 333 10159=
59758 32467 70902 10268 20239 30075 40096 57012 872// 333//
10325=
54423 32965 00000 10082 20071 39820 40278 57005 333// 10220=
59456 11573 50000 10242 20235 40110 57009 60011 70080 85400
333 10272=
56146 32980 00202 10098 20068 36794 52005 333 00053 10214=
56247 32880 60000 10149 20123 37467 52004 85402 333 05201
10250=
56462 11480 80000 10118 20111 37193 57006 60051 78088 884//
333 00000 10191=
56167 32980 00000 10118 20103 37148 57003 333 00151 10171=
56144 32780 21401 10102 20068 36920 52003 82400 333 00000
10226=
56257 32680 30000 10077 20058 36354 57004 83400 333 00000
10123=
56152 32780 23203 10049 20032 36387 52001 82400 333 00053
10171=
56357 11680 70000 10090 20073 36527 57003 69901 78000 87900
333 00000 10139=
56565 32580 81101 10143 20132 37536 57003 884// 333 00000
10194=
56479 31358 80201 10156 20146 37976 57002 71000 885// 333
00000 10206=
56475 11580 80000 10178 20166 38358 57005 69961 78080 884//
333 00000 10256=
56666 32770 20000 10199 20190 40118 57003 82400 333 00051
10253=
56485 11556 82501 10181 20175 40154 57009 60021 71060 8547/
333 00101 10225=
57313 32975 80902 10233 20162 40146 57002 8807/ 333// 00103
10292=
56188 11840 80000 10187 20185 40160 57007 60091 76066 885//
333 00000 10188=
57405 32962 03201 10230 20209 40139 57003 333 10301=
56671 32780 80000 10178 20170 38239 54000 884// 333 00100
10246=
57328 32965 80402 10238 20170 39760 40149 52003 8807/ 333
10307=
56193 11656 80000 10161 20159 40176 57009 69901 71060 8547/
333 05101 10167=
56385 11/00 90401 10096 20096 37080 57005 60051 76064 333
00000 10143=
57237 32970 80401 10174 20136 40189 57005 8807/ 333 10217=
57411 31957 70000 10231 20221 39785 40137 57004 71000 8704/
333 10295=
55591 32680 50902 10130 20065 36564 52006 85800 333 00001
10225=
56046 32980 00401 10062 20040 36330 57002 333 05103 10166=
56033 11680 20701 10065 20004 36092 57002 69921 72500 82900
333 05104 10149=
52707 32970 23204 10084 20021 37312 52022 80002 333 00500
10259=
52825 32970 12507 10145 20010 37267 52024 80002 333 05103
10283=
57399 11962 83603 10186 20173 40222 57007 60051 72166 8807/
333 10243=
58221 32962 80702 10201 20154 30204 40238 57004 8807/ 333//
10266=
58015 11965 70702 10189 20156 40248 57003 69901 70060 8704/
333// 10229=
50527 32970 01806 10111 21109 39438 40152 57018 333// 10161=
51828 32960 70000 10175 20073 38648 40140 52001 80002 333//
00352 10235=
54534 32965 00000 10131 20064 40279 57009 333// 10216=
57378 11940 83403 10170 20167 40229 57009 60021 76060 8807/
333 10200=
58519 32970 10202 10216 20174 40183 57005 81040 333// 10274=
58608 32960 20203 10217 20177 40177 57002 82030 333// 10256=
57993 32660 83202 10229 20208 39990 40149 57001 885// 333//
10308=
58715 32962 20000 10212 20187 40163 57001 82040 333// 10297=
58634 32962 00703 10208 20162 40183 57006 333// 10275=
58238 32964 70405 10206 20146 30212 40221 57011 87040 333
10265=
56444 32578 70000 10114 20099 36861 57001 874// 333// 00100
10198=
56533 32480 40000 10193 20182 38418 52005 84400 333// 00100
10289=
56586 32460 80000 10163 20146 38088 57002 884// 333// 00100
10234=
56651 32580 80901 10149 20141 37664 57004 889// 333// 00101
10194=
56739 32575 20000 10170 20161 38354 57001 82400 333// 00151
10231=
56748 32580 70000 10186 20175 38362 57001 874// 333// 00100
10245=
56751 31678 73201 10169 20160 38048 57002 70090 879// 333//
00101 10234=
56763 32680 80000 10224 20206 40093 57004 889// 333// 00001
10276=
56768 11680 80000 10188 20173 38246 57003 69901 72500 889//
333// 00001 10239=
56786 31957 00702 10147 20124 38151 52006 71000 333// 00152
10242=
56838 32670 80701 10228 20200 40098 57002 884// 333// 00000
10276=
56875 32665 70000 10197 20168 38383 57001 874// 333// 00101
10258=
56886 32965 03603 10150 20139 38317 57002 333// 00054 10232=
56951 32670 70000 10188 20171 38508 57006 874// 333// 00151
10240=
56964 32462 20000 10195 20184 38705 40109 57006 82100 333//
00151 10247=
56966 11759 80000 10248 20232 40091 52007 60041 78098 889//
333// 00000 10326=
56969 32660 80000 10227 20220 40100 57005 884// 333// 00100
10296=
56977 31470 80000 10200 20191 40108 57003 71700 889// 333//
00151 10264=
56985 32565 21101 10196 20160 38709 40113 57002 82400 333//
00051 10277=
56986 31360 21403 10180 20163 40116 57003 71390 82900 333//
00051 10248=
56994 32965 00000 10183 20161 40116 57002 333// 00051 10273=
59007 32665 83602 10195 20169 40121 57007 885// 333// 10264=
56946 11580 20000 10203 20197 40103 57004 60121 72598 82900
333// 00151 10271=
56778 32562 71102 10182 20146 38136 54000 874// 333// 00101
10230=
56137 32780 30000 10112 20074 36850 52002 81402 333// 05102
10236=
56116 32680 30000 10082 20048 36398 52007 83400 333// 05151
10190=
56223 32680 10000 10093 20033 36584 52005 81100 333// 00002
10213=
56331 11680 20000 10108 20063 36469 52003 69911 70080 82400
333// 05103 10192=
54208 32980 00000 10048 20037 38839 40240 57007 333// 10228=
53192 32980 02702 10111 21019 38952 40218 57001 333// 10221=
54012 32980 00403 10091 21018 39073 40206 57016 333// 10195=
50915 32980 02201 10038 21096 39237 40214 57010 333// 10193=
57776 11/00 90205 10143 20143 40179 57007 60031 76064 333//
10163=
57745 31958 80704 10195 20164 39870 40189 57002 71000 8807/
333// 10205=
58464 32965 23601 10174 20157 40209 57004 81042 333 10270=
58472 32480 10212 10227 20167 30097 40192 57001 81100 333
10257 91120 91504=
58752 32570 13403 10230 20136 30132 40176 57009 81100 333
10278=
58467 32562 20403 10215 20155 40195 57006 81102 333 10268=
58569 11465 70206 10218 20196 40176 57006 60011 70060 87800
333 10268 91118 91504=
59082 11665 70402 10252 20227 30059 40133 57003 69901 72580
874// 333 10288=
56196 11856 80000 10197 20188 40154 57006 69951 71060 885//
333 00001 10226=
57279 11960 80203 10175 20157 40235 57009 69901 70060 8807/
333 10208=
59046 11440 83201 10212 20204 40136 57008 60111 76066 885//
333// 10265=
59133 32565 10412 10256 20173 40128 57006 81100 333 10281
91120 91504=
58931 31/00 90913 10120 20120 38369 57015 74244 333 10194
91119 91509=
56079 32980 01803 10070 20055 36745 57006 333 00052 10174=
56172 32780 80000 10122 20112 37393 54000 885// 333 00151
10207=
56173 32980 10000 10080 20066 36711 57003 80002 333 00100
10188=
56182 32780 80000 10114 20093 37256 57001 885// 333 00151
10189=
56178 11780 80000 10153 20139 37714 57002 60011 70080 884//
333 00152 10231=
58626 32968 00904 10235 20156 40172 57004 333// 10297=
57894 11640 83403 10172 20172 40186 52001 69921 71060 885//
333// 10196=
57598 11660 80000 10198 20169 40193 57013 69901 70080 885//
333// 10254=
59102 11960 00000 10222 20219 40131 57007 69901 70060 333//
10325=
53543 11975 81807 10096 20047 38588 40198 57013 69901 70060
8802/ 333// 10187=
54436 32980 00000 10077 20057 40286 57007 333// 10216=
54311 32980 03601 10075 20058 40266 57006 333// 10191=
54606 32962 01403 10128 20105 40269 57010 333// 10250=
59845 11965 70902 10246 20225 40093 57011 69901 70080 80002
333// 10318=
54365 32965 00000 10015 21004 40302 54000 333 10183=
54346 32965 00702 10045 20014 40285 57004 333 10185=
54584 32965 02902 10074 20044 40270 52002 333 10215=
54826 32970 10204 10098 20051 38564 57005 81040 333// 10127=
57144 11570 83201 10151 20141 40228 57005 69911 76000 8172/
333 10165=
57037 11570 80203 10130 20115 40225 57012 60021 76066 8672/
333 05202 10137=
57106 11761 81404 10156 20130 40189 57008 69901 76060 885//
333 05102 10169=
57036 11550 80403 10140 20133 39741 40212 57013 60011 76066
8672/ 333 10153=
52533 11980 82905 10122 20099 38539 40166 52016 69911 76000
8802/ 333// 00303 10163=
59985 32575 20901 10270 20254 30077 40082 57015 82100 333//
10320=
57845 11760 83202 10192 20169 40171 57002 69901 72100 885//
333// 10213=
57554 32660 80201 10194 20150 40211 54000 885// 333// 10223=
53513 32768 81603 10135 20090 39015 40177 57009 8452/ 333//
05401 10228=
59664 11465 80905 10253 20239 40111 57006 60051 79598 889//
333 10289=
59278 32563 73401 10255 20235 40121 57009 874// 333 10261=
50425 32980 01604 10098 21028 40140 57022 333// 10148=
50603 32980 32502 10091 21032 39493 40139 57021 80002 333//
10202=
52836 32980 82504 10146 20010 36923 52017 8802/ 333 05205
10251=
56065 32980 00000 10059 20052 36677 57003 333 05200 10176=
52633 32980 02901 10065 20036 36785 52012 333 05300 10184=
52765 32980 00000 10065 20054 37207 54000 333 05200 10211=
56034 32980 22501 10026 20002 35986 57002 80002 333 05103
10141=
52856 32980 00000 10098 20061 37227 57003 333 05301 10201=
54539 32970 00201 10120 20058 30263 40278 57011 333// 10194=
54429 32965 00000 10111 20073 40280 57009 333// 10227=
54705 32960 70901 10125 20108 40269 57002 80002 333// 10245=
54618 32961 21402 10130 20097 30249 40267 57008 80002 333//
10243=
58760 32968 03608 10231 20164 40159 57015 333 10272=
54871 32980 02902 10177 20083 40261 57003 333// 10219=
57426 32865 80904 10240 20150 40154 52002 885// 333 00201
10298=
57432 32970 80402 10256 20153 40161 52002 8807/ 333 10306=
57348 32762 81103 10189 20142 40191 57002 885// 333 10262=
57633 11456 80000 10171 20164 39443 40205 54000 69961 76066
887// 333 00254 10233=
54945 32978 03605 10158 20096 40258 57005 333// 10243=
56029 32980 00000 10074 20048 36544 52003 333 05201 10218=
56125 32780 20000 10078 20064 36569 52001 82500 333 05202
10196=
50834 32980 02703 10026 21069 40226 57013 333// 10178=
54226 32980 00000 10038 21037 40271 57009 333// 10174=
50727 32980 00901 10049 21097 39028 40213 57018 333// 10153=
54026 32980 00000 10048 21002 39917 40238 57021 333// 10181=
54115 32980 00000 10037 20012 40253 57016 333// 10167=
54027 32980 03401 10031 21001 39668 40249 57021 333// 10185=
56312 32580 70000 10122 20109 37133 52004 874// 333 00000
10208=
56227 32680 70000 10113 20101 37364 52007 874// 333 00001
10236=
56434 32480 71802 10188 20134 37708 52006 87800 333 00001
10286=
53593 32970 02501 10117 20065 40250 57011 333// 10215=
51716 32965 70000 10159 20096 38914 40147 52001 83062 333//
00152 10253=
51811 32962 00000 10153 20122 38798 40149 54000 333// 00000
10239=
51705 32980 10401 10103 20006 37879 52001 80002 333 00151
10182=
51931 32970 00000 10119 20083 40151 52003 333// 00452 10236=
51804 11580 53204 10070 21010 37048 52001 69901 70080 85900
333// 00102 10135=
51818 32965 00000 10129 20080 40160 52006 333// 00154 10233=
59493 32665 20403 10268 20236 40113 57012 82400 333 10278=
50936 32970 01804 10074 21051 40228 57019 333// 10179=
54254 32970 00000 11003 21009 40280 57010 333 10170=
54486 32968 00000 10042 20027 40288 52002 333 10213=
54929 32970 20901 10178 20108 40257 57004 80002 333// 10255=
54836 32961 00000 10133 20103 40273 57006 333 10230=
52866 32668 70000 10129 20117 37715 52001 879// 333 05301
10248=
56021 11680 82502 10076 20028 36147 52010 69951 78900 889//
333 05106 10162 93905=
52754 32980 00403 10063 20042 36835 57002 333 05202 10166=
52955 32980 01402 10075 20049 36998 57004 333 05302 10196=
56067 32980 11601 10059 20048 36593 57005 80002 333 05152
10190=
58338 32963 70402 10205 20154 40217 57005 8707/ 333// 10263=
53963 11540 80000 10126 20122 40261 57006 60031 76066 8572/
333// 10135=
57874 11750 83202 10195 20190 40175 57003 60011 76066 885//
333// 10211=
56459 32780 70000 10156 20139 37685 57001 874// 333 00000
10227=
59631 11460 83604 10235 20216 40108 57009 69901 76060 888//
333// 10323=
51156 32980 00000 10035 21011 38803 40294 57005 333 00001
10103=
51463 32978 11401 10080 20052 39195 40291 57010 80002 333
00000 10107=
52203 11980 20401 10112 20095 39337 40184 52006 69901 70080
80002 333 00660 10216=
51720 32975 20000 10155 20101 40155 52008 80002 333 00252
10255=
51356 32970 01601 10077 20057 40282 57010 333 05153 10157=
51777 32970 00703 10169 20038 39149 40141 54000 333// 00554
10267=
52101 32780 32903 10062 21046 38430 57007 81102 333// 00152
10132=
52118 11680 60000 10083 20009 38312 57003 60011 70080 86900
333// 00053 10144=
51656 11780 80708 10202 20004 39119 40148 52005 69901 78000
884// 333// 00552 10269 91121 91504=
52313 32980 80907 10122 21029 38450 54000 8802/ 333// 00452
10218=
50838 32980 00000 10089 21036 40217 57015 333// 10183=
58506 31/00 90410 10132 20130 40216 57002 74540 333// 10163
91117 91504=
78897 11582 30908 10302 20243 40127 56020 69961 72586 83201
333 022/8 10325 20230 59008 70006 83830=
88963 11958 52728 11047 21074 39681 49709 57017 69901 73673 85050
333 56050 85360 90009 92426 92813 92913 95010
555 19710 52736=
88968 31360 73414 11012 21021 39782 49797 57035 71022 87700
333 56600 87708 90047 92416 92870 94070
555 19796 D/N=
89034 32570 81616 11131 21244 39586 49917 56004 885//
333 56399 88620=
89053 11450 82345 11040 21052 39784 49798 51020 69901 72272 885//
333 56599 88615 90125 90931 91142 92436 92801 94063 95003 96010
555 52352=
89055 32965 33215 11032 21036 39444 49683 57012 80006
333 56007 83270 91133 91534 92417 92853
555 19671=
89066 11001 83222 11148 21165 39776 49785 52073 60011 77377 887//
333 56099 84700 84701 90562 90650 90973 92803 92911 93001 93102
95080 96038=
78858 31581 40509 10300 20231 30079 40135 83802 333
10307 20254 59008 79999 83823=
81405 32680 40910 10313 20220 40108 84200
333 58005 84833
555 10324 20218=
96315 15260 71703 10253 20236 40091 69923 81848
333 81705 85364=
76243 32473 61304 10324 20264 39921 40207 57007 86100 91736
333   10329 20235 30/// 56300 58019 86813=
76258 32980 01404 10360 20226 30081 40123 58003 91740 333
10360 20266 30/// 59003=
76342 11358 83601 10235 20221 39474 40162 52006 60081 75255
887// 91735 333   10235 20230 32/// 561// 58016 88707=
76382 32580 20601 10294 20180 38905 40111 57002 82200 91745
333   10300 20205 30/// 56300 58004 82820=
76390 31562 60805 10210 20158 38243 40106 52002 70544 86500
91746 333   10230 20158 30/// 56800 58005 86620=
76491 32856 30902 10310 20226 39755 40158 57005 82032 91745
333   0/044 10310 20218 31/// 59016 82358 81068=
76519 32560 20000 10262 20147 38368 40131 57010 82100 91744
333   10278 20159 30/// 562// 58001 82825=
76577 32570 22302 10252 20183 38066 40145 58003 82400 91735
333   10255 20138 31/// 56500 58006 82633=
76687 32664 61603 10240 20130 38677 40192 57006 864// 91750
333   10245 20140 31/// 565// 59006 84623 82825=
76737 31580 51302 10240 20179 38786 40157 56005 80322 85200
91740 333   10248 20142 30/// 56200 57875 59011 82830 83727
91104 91515=
76762 32580 53601 10288 20150 38738 40063 55008 83102 91730
333   10290 20167 30/// 56808 59019 83830=
76903 31680 72702 10301 20236 30033 40169 50010 70222 85400
91740 333   0/100 10308 20230 30/// 58012 82830 85650=
76585 32680 21202 10300 20248 30000 40153 58011 82200 91740
333   023// 10310 20248 30/// 59001 82833=
76640 32450 60403 10324 20272 30137 40148 52012 84270 91735
333   0122/ 10334 20242 30/// 58004 84817=
76726 31462 33603 10250 20139 38403 40118 57007 70544 81210
91750 333   10250 20140 31/// 56450 59008 81814=
76741 11560 50706 10302 20246 30110 40142 56008 60031 70544
82303 91740 333   06209 10314 20239 30/// 58015 81820 81927
83070=
48698 31966 70000 10270 20253 30077 40095 70522 81032 333
81366 87080=
91772 31498 70709 10256 20227 40139 70222 878// 333 561//=
91776 31498 81008 10262 20233 40143 70322 8227/ 333 5629/=
91784 11498 70710 10228 20216 40169 69951 72522 8587/ 333 5619/
82817 85640 87362=
91792 31498 70712 10228 20207 40181 53009 70201 8313/ 333 5619/
83816 87357=
61901 16/// /1107 10160 20126 40194 5//// 60012 333 10181=
61902 32581 11013 10251 20197 40144 81100 333 10276 58007 81828=
88889 11483 52210 10061 20013 39993 40078 51029 69901 71582 85801
91750 333 81818 83825 96280 96480=
65201 32460 71809 10260 20243 40121 83530
333 10301 59006 83610 87360 =
89056 31460 72440 11040 21107 49797 52016 70122 87500
333 02450 76600 87615=
89057 11460 62421 11040 21087 49796 52014 69901 70287 86500
333 02433 75500 86615=
89058 32670 82728 11038 21091 39776 49791 52019 885//=
89059 32360 82927 11042 21068 49750 52010 886//
333 76099 88707=
89251 32262 72528 11037 21072 49780 52020 87500=
86500 333 02433 75500 86615=
89532 42/80 10606 11214 21266 39765 49793 53009
81530=
60710 11558 70304 10236 20231 30054 40130 55012 60012 70282 86802
333 10279 83820 84630=
60714 11557 70912 10235 20212 30126 40133 58001 69932 71798 8598/
333 10295 82820 81926 83630 85360=
60720 32960 73502 10241 20212 30107 40142 53010 83082
333 10269 83360 86070=
60728 12558 60504 10242 20222 30051 40140 50009 69922 82982
333 10275 81820 81930 83070=
60734 32560 73204 10225 20186 39628 40118 53004 8528/
333 10304 85823 83360=
60738 11556 61508 10170 20162 38938 48517 52009 60412 72998 83902
333 10265 83823 81930 85070=
60740 32458 70206 10254 20218 30132 40135 53011 83902
333 10272 83816 85070=
60745 31658 40816 10292 20208 39755 40106 50004 71300 84900
333 10337 82833 83940=
60764 32558 30417 10302 20193 30060 40109 53009 83200
333 10354 83830=
60748 31560 63408 10255 20209 39730 40131 58008 71311 86900
333 10298 83826 84633 81940=
60750 32560 50310 10269 20214 30098 40129 51017 82802
333 10311 82820 84070=
60770 32550 20102 10272 20235 39954 40087 53011 82200
333 10322 82826=
60780 32956 02808 10363 20080 39817 40100 51001
333 10422=
60096 32960 43614 10276 20152 40141 56002 84080
333 10340 84358=
60101 32458 72109 10225 20179 40133 56007 8358/
333 10269 84613 87360=
60115 32560 63610 10226 20179 40119 53001 81232
333 10284 81826 83362 85073=
60135 32460 72804 10230 20171 40132 56009 8257/
333 10255 82616 87360=
60150 32556 73412 10216 20161 39499 40127 53004 8328/
333 10260 83820 85360=
60155 32556 73210 10240 20204 40128 57006 8257/
333 82620 10258 85360=
60156 32460 72812 10260 20166 40129 56007 86202
333 10277 86816=
60230 32558 63010 10269 20150 40129 58005 86202
333 10275 86826=
64210 32965 52212 10287 20181 29053 39797 40097 80004
333 10327 59012 85080=
89004 31960 01304 11207 21261 38776 49859 52024 73800
333 11204 21266 91032 555 90972=
81415 36/// /08// 10325 20220 40105
333 58006=
76122 32580 23201 10290 20058 38572 40158 57002 81230 91739
333   10292 20128 30/// 56990 57894 58002 81830=
76220 32980 00000 10236 20128 38177 40235 52007 91740 333
10236 20098 31/// 59008=
76225 32460 10501 10287 20159 38614 40125 52001 81200 91750
333   10287 20194 30/// 56500 59003 81820=
76323 32570 60601 10256 20124 38310 40174 52002 84042 91740
333   10260 20180 30/// 56077 59005 84450 83268=
76654 31458 10903 10310 20276 30098 40102 57003 70544 81100
91750 333   002// 10315 20257 30/// 57811 59006 81820=
76311 32580 12402 10308 20260 39844 40108 56003 81100 91740
333   00500 10308 20239 30/// 59008 81820=
76471 32580 50204 10210 20122 37715 40105 57006 85400 91750
333   10230 20126 30/// 56500 59004 85635=
17601 32962 02505 10255 20218 30055 40084 53002 91750 333 10297=
11816 32765 33201 10151 20115 39999 40158 53004 83501
333 10200 83650=
11826 32765 31001 10135 20117 39966 40161 52006 83500
333 10200 83650=
11903 32665 60000 10136 20116 39785 40156 53002 85830
333 10186 82843 84650=
11934 32665 72701 10110 20080 39357 42792 55001 8557/
333 10164 83636 83656 87357=
11968 32980 22401 10146 20104 39889 40162 53002 81031
333 10219 81360=
11841 31658 42201 10124 20108 39790 40158 53008 71011 83530
333 10199 83647=
11858 32980 12901 10137 20116 30010 40158 53003 81041
333 10222 81358=
11916 11/00 91811 10031 20030 37981 48481 57001 69972 76044
333 10033 89/00=
11927 32662 40901 10159 20125 39900 40153 55001 84500
333 10204 84640=
11930 11/00 92404 11008 21012 37384 47072 55000 69922 76644
333 11001 89/00 93402=
11993 32972 10000 10124 20092 39953 40166 57001 80001
333 10218 81073=
11855 32970 20000 10138 20110 39992 40154 53001 81041
333 10207 81359=
11867 32965 31802 10123 20098 39847 40157 53008 83040
333 10201 83360=
11880 32965 20000 10137 20124 39990 40157 53003 80001
333 10224 82070=
11918 11680 60402 10096 20075 39351 42784 56001 69902 72522 86500
333 10158 82636 85650=
11933 11465 73201 10073 20056 38646 48498 55001 69902 78082 874//
333 10109 87613=
11938 31558 80802 10103 20081 39120 42787 55000 71022 885//
333 10147 88630=
11976 32770 40402 10128 20100 39906 40164 53003 84500
333 10206 84656=
11978 32970 02701 10139 20111 30031 40158 57001
333 10212=
11036 11662 79901 10154 20125 39931 40155 52006 69902 79582 8597/
333 10208 81845 81945 84650=
11010 11680 52102 10117 20107 39799 40170 53002 69912 72582 82831
333 10185 81835 84359 91113 91209=
11120 12675 79901 10120 20093 39468 40160 52005 69902 8453/ 333
10156 81640 83657 86360=
11150 11775 81703 10112 20091 39643 40173 55005 69902 76062 8487/
333 10174 81850 83657 86359=
11240 32782 59902 10153 20107 39751 40156 52005 83841 333 10207
81850 83658=
10004 46/60 /3412 10148 20105 30118 40118 53001
222// 00157
333 10153 20135 55300 91117 91213=
10015 01482 73505 10136 20122 30084 40094 53001 60152 72582 878//
222// 02155
333 10146 20126 32012 55300 60047 85818 87650 91115 91211=
10020 01462 30204 10117 20107 30061 40096 53001 60022 72186 82831
333 10157 20117 31010 55300 69907 81816=
10035 01450 70302 10123 20115 30033 40091 52006 60022 72582 8582/
333 10148 20115 32011 55300 60027 85815=
10055 11475 50803 10112 20110 30078 40088 55001 60042 70186 85800
333 10136 20110 31010 55300 82817 84643=
10147 01465 73601 10116 20107 30068 40086 53007 60022 76168 8687/
333 10144 20115 31011 55300 60027 82815 83630 85650=
10162 06/50 /1101 10125 20114 30000 40081 53001 69962
333 10153 20109 3/011 55300 69957=
10184 01780 70000 10118 20112 30091 40098 53005 60042 79598 8596/
333 10163 20110 32010 55300 60047 85950 83358=
10224 01358 72907 10121 20110 30089 40095 53007 60042 78082 875//
333 10149 20115 31011 55300 69977 83708 87646=
10270 01570 61603 10129 20114 30037 40091 55000 69922 78082 85332
222// 06146
333 10168 20117 31011 55300 69927 82932 84650=
10338 01465 72604 10122 20108 30024 40095 53005 60032 72582 878//
333 10150 20112 32011 55300 69957 82810 84818 86640=
10361 01570 82303 10126 20102 39997 40098 53003 60032 72582 8687/
333 10155 20109 32011 55300 69987 82821 85650 88458=
10384 01581 71703 10131 20113 30040 40099 55001 69952 78098 878//
333 10179 20116 31011 55300 69907 82820 85650 86657=
10393 01560 71802 10116 20107 39985 40110 55003 60032 70398 873//
333 10162 20114 31011 55300 20003 30003 69967 83925 87638=
10400 11475 62903 10127 20098 30097 40146 52009 69922 70181 82801
333 10181 20118 31011 55302 81818 85075=
10438 46/60 /2002 10104 20089 39854 40132 52010 8////
333 10138 20101 3/009 55300 82/57 84/67=
10469 01475 72406 10126 20100 39946 40107 53003 69982 72522 878//
333 10157 20112 31011 55300 69907 82818 87648=
10488 11683 72204 10130 20088 39847 40122 53004 69932 70262 878//
333 10150 20117 31011 55300 82840 86650=
10548 01470 72603 10109 20086 39601 40135 53008 69912 78062 878//
333 10120 20095 31009 55300 20020 69907 84816 87643=
10637 11570 72204 10120 20095 30014 40150 53002 69902 70282 81831
333 10162 20113 31010 55300 81825 86073=
10685 41475 82403 10099 20084 39470 40134 53003 60032 72582 878//
333 10117 20092 31009 553// 81815 84820 87640=
10738 12784 52702 10118 20085 39701 40163 53003 69912 84431
333 10158 20109 31009 55302 81650 83657=
10763 11575 72403 10114 20087 39774 40151 53004 69912 70282 83831
333 10156 20108 31009 55300 20028 81832 83656 85076=
10788 11875 61801 10105 20086 39728 40155 55001 69912 70186 83531
333 10142 20100 31007 55300 83657 84359=
10852 01865 71701 10109 20088 39604 40165 53002 60042 70282 8703/
333 10143 20104 32010 55300 69947 86358=
10946 01424 81101 10094 20092 39349 40171 53001 60052 76162 878//
333 10128 20087 32008 55300 60027 81812 84625 87634 96010=
10091 01580 71805 10134 20107 30054 40104 55000 69902 71582 873//
333 10148 20121 31012 55300 20008 30010 69907 87926=
10113 01465 73512 10135 20100 30092 40111 52002 60072 72582 878//
333 10144 20126 31012 55300 69967 83814 87656 91120 91214=
10129 12462 73305 10140 20118 30079 40092 53008 69902 878//
222// 02147 20001
333 10144 20125 31012 55300 83815 86640=
10131 01465 60104 10133 20111 30075 40089 53006 69932 72582 84830
333 10153 20125 31012 55300 69907 82816 81918 83644=
10170 01562 71302 10131 20116 30072 40086 55000 60022 72598 8437/
333 10149 20117 32011 55300 69907 84923 87458 96487=
10253 06/60 /2203 10122 20116 30066 40087 53001 60012 88///
333 10144 20112 3/011 55300 69907 88/56=
10280 06/59 /1303 10117 20110 30000 40096 53002 60102 8////
333 10160 20107 3/010 55300 60057 82/25 87/40=
10291 01575 71402 10124 20115 30034 40100 55000 60022 70398 878//
333 10160 20109 32010 55300 60017 83825 86650=
10305 16/// /3003 10130 20111 30095 40126 53006 60052
333 10170 20115 3/011 55301 91116=
10315 01566 72804 10124 20102 30063 40126 53007 60012 70282 83801
333 10162 20115 31011 55300 60017 81820 83656 86075=
10348 01570 72603 10116 20112 39993 40098 53005 60092 72582 868/1
333 10143 20110 31010 55300 60017 81820 86640=
10385 01575 71603 10125 20109 30040 40100 55001 69912 78092 878//
333 10178 20115 31011 55300 69907 85825 84850 86658=
10427 01260 82906 10062 20059 39139 48449 53003 60122 72584 872//
333 10073 20059 32006 55300 60037 87803 91117=
10453 11/90 92716 10055 20054 38787 48424 52003 60152 74584
333 10056 20042 32004 55300 91122 91216 96281 96481=
10474 11580 82103 10132 20108 39975 40101 53001 60022 70282 885//
333 10162 20114 31011 55300 20007 88633=
10490 06/59 /2104 10123 20114 39993 40113 55001 60052 8////
333 10166 20115 3/011 55300 20021 69917 83/29 84/39 88/50=
10499 11670 61804 10116 20092 39835 40118 55002 60032 70298 86500
333 10138 20109 31010 55300 86642=
10501 11663 22503 10122 20098 39905 40149 53001 60042 70181 81801
333 10159 20100 31010 55300 81837=
10513 01569 62502 10110 20086 30031 40151 53007 60012 70198 83802
333 10160 20110 31009 55300 69907 81823 85080=
10532 01474 62802 10129 20096 39911 40143 53008 69912 71565 85331
333 10153 20113 31010 55300 69907 82815 82920 83820=
10544 11/00 92905 10071 20071 39073 48460 53004 60032 74586
333 10072 20060 31006 55300 89/00 91115=
10554 01575 62506 10114 20092 39739 40120 53008 69902 72582 85860
333 10140 20103 31010 55300 20037 69907 82820 84650 91113=
10577 11580 72307 10111 20082 39629 40124 53003 69992 70182 878//
333 10139 20103 31009 55300 20011 30008 82829 87656 91114 91211
96481=
10578 01/01 92612 10048 20047 38747 48448 53002 60062 76082
333 10061 20043 32005 55300 20008 30005 69907 91117 91213 96045=
10609 01580 52703 10113 20075 39843 40169 55000 69942 70185 82831
333 10142 20104 31/// 55304 69907 81820 83360=
10655 12581 72604 10129 20089 39823 40144 53006 69902 875//
333 10159 20107 31010 55300 87625=
10688 01567 71803 10100 20091 39623 40141 53002 60012 70381 85830
333 10136 20097 31008 55300 69937 81826 85650 96480=
10708 01460 82904 10110 20089 39784 40165 53003 69902 78062 8592/
333 10149 20100 31010 55300 69907 82813 83922 86458=
10729 12680 73501 10139 20092 30033 40152 53005 69912 85832
333 10170 20114 31010 55300 81835 84656=
10776 11580 52202 10114 20096 39724 40163 53002 60012 70282 85500
333 10149 20108 32009 55300 85630=
10803 16/59 /1103 10124 20093 39812 40168 56003 60162 8////
333 10164 20124 3/011 55300 81/58 83/60=
10836 01484 52904 10092 20087 39298 40156 53002 60022 70181 83832
333 10122 20086 31008 55300 69907 81815 83626 96481=
10929 01458 81901 10116 20108 39643 40169 53006 60222 72186 888//
333 10150 20109 31010 55300 69927 81816 83633 87656 96481 96461=
10961 11/00 92809 11029 21029 37078 47050 55000 69922 74774
333 11023 21042 3//// 49150 55300 91122 91215 96471 96441 96449=
10962 11668 82607 10075 20064 39037 48488 53002 60042 76186 8357/
333 10119 20073 31007 55300 60037 83640 88358=
12822 32970 20000 10138 20114 30017 40158 55000 81042 333 10201=
12843 32780 23101 10170 20107 39988 40153 55000 81282
333 10220 81850=
12882 32970 30502 10156 20106 30028 40159 57004 81042 333 10222=
12942 32980 43102 10158 20101 39914 40154 53002 80001 333 10231=
12982 32675 41501 10162 20129 30052 40151 55000 81482
333 10229 81644=
41170 42460 10307 10321 20273 30075 40088 81500
333 10360 58025 81615=
10156 81357 91107=
43555 22478 22312 10274 20242 40121 82200 333 58000 6991/
82818=
43599 32480 72009 10284 20244 40130 8325/ 333 59001 83818
87362=
60715 32558 70408 10244 20206 30131 40136 51010 8587/
333 10290 82820 84633=
60725 32558 70706 10262 20201 39965 40128 55001 8698/
333 10319 83823 81926 83630=
60735 11558 7//// 10259 20204 30059 40137 50012 69902 78082 8398/
333 10305 83826 81933 85360=
60760 32558 21110 10336 20183 39998 40094 53005 82200
333 10368 82830=
60765 32558 40606 10267 20241 30117 40123 53014 83802
333 10296 83820=
60769 32558 60314 10271 20249 30113 40116 53016 85202
333 10296 85816=
60775 32958 00610 10310 20216 39763 40097 53010
333 10411=
15004 32598 60901 10157 20134 39841 40166 52001 82570
333 10230 20084 31031=
15020 32597 71401 10159 20124 30002 40194 54000 83570
333 10205 20123 31026=
15090 32997 30601 10159 20100 30069 40191 57002 80008
333 10221 20134 31029=
15108 31/91 91804 10055 20055 38142 48550 58006 74542
333 10094 20049 31///=
15120 12597 82401 10161 20131 39681 40161 54000 69922 8337/
333 10213 20094 31029=
15150 32997 50000 10160 20113 39966 40191 57002 83041
333 10217 20128 31034=
15200 01597 81401 10179 20150 30016 40154 52005 69942 79522 889//
333 10240 20122 31032 69947 555 60004=
15260 32597 31702 10152 20129 39642 40162 52001 81460
333 10227 20107 31029=
15280 31298 72704 10030 20030 37543 47098 54000 72842 85370
333 10043 20020 31///=
15292 32597 61802 10182 20155 39891 40175 53003 84970
333 10245 20112 30028=
15310 32597 20901 10174 20141 30098 40181 56005 81440
333 10228 20140 31032=
15346 32697 80000 10172 20155 39902 40181 53001 8657/
333 10216 20166 31028=
15350 32997 23602 10177 20123 30067 40182 57001 82040
333 10217 20163 31032=
15360 32998 00904 10196 20131 30178 40189 58001
222 00215 20301  333 10205 20194 92428=
15410 11597 80301 10167 20138 30083 40175 57001 60012 70282 889//
333 10199 20166 31024=
15420 32997 80202 10186 20093 30058 40164 52002 8807/
333 10231 20150 30037 91002 91202=
15450 12997 70506 10176 20141 39940 40168 54000 60072 87070
333 10208 20166 31027=
15460 32997 00904 10191 20123 30150 40172 52003
333 10254 20145 30050=
15470 32997 70902 10188 20098 30049 40171 58002 87070
333 10207 20162 30023=
15480 32597 20906 10200 20157 30159 40174 56004 81260
222 00208 2//// 333 10220 20174 30033 92437=
11464 11480 72310 10076 20072 39164 42760 52002 60022 70282 84270
333 10130 84810=
11487 11572 52403 10099 20072 39538 40151 52004 60022 70381
83441
333 10148 81623 83643=
11518 11682 42204 10103 20082 39709 40142 53005 69902 70181 83460
333 10157 81840 83656=
11603 11570 72004 10111 20085 39659 40133 50001 60042 70381
81430
333 10142 81620 86357=
11659 11672 11003 10079 20075 39526 40161 55003 60032 70181
81400
333 10159 81633=
11782 32762 42104 10126 20108 39841 40149 53005 84500
333 10192 84650=
11101 11560 83602 10113 20105 39649 40165 55008 60052 72186
885// 333 10137 88630=
11022 11573 52604 10114 20103 39776 40159 52009 60022 70298 82132
333 10187 82833 84359 90430 91118=
11130 11770 70501 10116 20090 39589 40167 57002 69902 72582
8247/ 333 10147 82656 87360=
11146 31/08 92310 11019 21028 36942 47044 57008 74542
333 11008 89/00=
11157 32670 89903 10132 20083 39403 40152 52013 878// 333 10184 83842
87650=
11172 32670 80000 10109 20069 51003 885// 333 10156 88640=
11204 36/// /0802 10158 20081 39372 40130 333 10207=
11231 32780 29901 10146 20098 39599 40151 53007 81531 333 10203
81650=
10146 91111=
33317 32980 01202 10129 20050 40205 57003 333 10190=
33393 32660 21304 10142 20095 40167 57002 82500 333 10186=
33506 32997 00502 10136 20056 40237 57004 333 10209=
33587 32970 00000 10114 20043 40221 53001 333 10212=
33658 32997 71104 10159 20086 40182 58002 87030 333 10198=
33663 32997 50000 10140 20093 40201 54000 80001 333 10226=
33791 32997 00505 10153 20017 40211 58006 333 10224=
33837 32999 03201 10144 20093 40195 57005 333 10206=
33910 32998 00910 10187 20094 40177 57006 333 10197 91120=
33946 32959 10602 10134 20098 40169 58001 81030 333 10216=
34300 32997 30405 10146 20040 40246 54000 80001 333 10202=
34504 32997 00705 10155 20027 40219 54000 333 10233=
34519 32960 60807 10146 20040 40218 54000 86030 333 10211=
34601 32997 00404 10154 20025 40208 58003 333 10228=
26038 32997 11203 10128 20079 40228 54001 81030   333 10178   555
50134=
26045 32998 21603 10119 20073 40243 57003 82030   333 10200   555
50141=
26058 32998 21102 10117 20054 40254 57003 80002   333 10197   555
50123=
26115 32997 61802 10133 20116 40204 56006 85052   333 10170   555
50143=
26141 32597 61404 10127 20087 40240 57005 84530   333 10174   555
50125=
26242 32997 61002 10117 20056 40244 56004 81039   333 10184   555
50131=
26247 32997 81102 10149 20069 40231 56004 8805/   333 10177   555
50140=
57002 70000 88/// 91750
333 10169 20097=
57006 76188 87/// 91750
333 10133 20107=
57004 70000 80/// 91751
333 10183 20093=
17022 32670 41304 10192 20160 40156 58002 83250 333
10228 83834 84360 92438=
17038 32670 31704 10212 20176 40162 52003 83100 333 10255 83835 92428=
17050 32970 53503 10224 20148 40154 53004 85030 333
10268 85360=
17060 32660 60310 10218 20182 40149 52002 83230
333 10260 83835 85360=
17096 32970 02105 10148 21118 38238 48496 52011 333 10234=
17124 32965 02510 10200 20120 39245 40121 53008
333 10284=
17128 32970 00210 10210 20075 39055 40103 54000 333 10286=
17195 32970 01404 10204 20066 38959 48507 52009 333 10282=
17200 32970 02003 10190 20016 39160 40100 53005
333 10296=
17219 32965 03612 10259 20154 40113 52010
333 10314=
17240 32675 41201 10238 20109 38998 40088 52005 84200 333
10320 84835=
17244 32970 00203 10203 20007 38970 48498 53003 333 10307=
17350 32960 01504 10254 20219 40072 52007 333
10339=
17034 32970 00000 10228 20183 40158 54000 333 10254
92428=
17070 32665 51801 10180 20148 39298 40134 52007 85500 333
10264 85635=
17084 32970 00608 10191 20142 39250 40121 53005 333
10283=
17090 32965 01604 10184 20086 38728 48509 53008 333
10264=
17098 32970 00110 10112 20071 38223 48516 53005 333
10204=
17150 32960 00106 10210 20082 40134 52013 333 10294=
17160 32970 03403 10224 20068 39008 48509 52008 333
10286=
17184 32970 03407 10240 20156 40112 53008 333 10324=
17190 32970 03308 10226 20113 38997 48491 53003
333 10286=
17210 32975 01801 10270 20117 39109 40072 53002
333 10342=
17234 32970 02904 10258 20166 40088 52005 333
10336=
17260 32970 00000 10256 20087 39303 40066 53009 333 10350=
17290 32970 03103 10276 20158 40091 53003 333
10340 92428=
17370 32965 03101 10272 20221 40082 53008
333 10310 92427=
17024 11540 71105 10208 20181 40159 53001 69942 76062
85420 333 10258 85630 87458 92436=
17056 32970 00406 10222 20173 40164 53010 333
10263 92438=
17092 32970 02807 10210 20054 38844 48492 53005
333 10286=
17112 32970 00406 10240 20168 40142 53006 333 10280 92418=
17115 32960 00207 10216 20160 40143 54000 333 10252=
17116 32965 00304 10206 20149 40138 53005 333 10288=
17188 32970 02904 10232 20126 39080 40085 53005 333
10308=
17202 32970 00000 10184 20004 39116 40099 54000 333 10314=
17248 32975 03604 10228 20100 38950 48488 54000 333
10312=
17292 32970 02904 10256 20145 39372 40087 53001 333
10340=
17300 32970 02301 10254 20232 40080 53004 333 10330=
17330 32970 03202 10247 20194 40076 53002 333
10318=
17100 32970 00401 10170 20010 39185 40147 53005 333
10250=
17140 32965 00703 10186 20070 38707 48503 52007 333
10258=
17203 32970 00000 10226 20026 38886 48561 53006 333
10315=
17205 32980 00000 10180 21021 38350 48513 52010 333 10256 92418 555
10109=
17237 32970 03601 10260 20147 40089 55000 333
10330=
17250 32975 00503 10204 20055 38796 48500 52010 333
10281=
17255 32970 00000 10290 20155 39438 40067 53008 333
10360=
17270 32970 02902 10272 20030 39468 40067 52013 333
10366=
17375 32975 00000 10257 20233 40074 58002 333
10317 92408=
11406 01465 69902 10118 20099 39565 40138 53003 60022 78082
84270
333 10145 69905 84810 84360=
11457 11284 32404 10051 20042 38875 48478 51003 60012 70286
82241
333 10093 82806=
11520 11670 52201 10112 20086 39783 40143 52006 69922 70281 83440
333 10157 83633 83359=
11636 11584 32103 10096 20088 39486 42783 53001 69952 70381
81461
333 10157 81628=
11679 11562 21302 10093 20087 39672 40154 53007 60022 70181
81460
333 10168 81623=
11723 11780 39901 10115 20098 39863 40156 53005 60072 70198 82431
333 10166 82656=
11766 01450 62106 10099 20096 39278 42779 53001 69902 72998
85260
333 10137 69905 82813 83360=
11774 01560 71405 10130 20102 39877 40143 58007 60042 78011
8326/
333 10176 60045 83823 86357 91010=
11787 31/00 92007 10072 20071 38663 48485 53001 74711
333 10111 89/00=
11423 11108 72504 10078 20078 39279 42773 53001 60062 74284
84530
333 10105 82703 83620 85360=
26313 32997 51405 10152 20117 40202 57004 84034 333 10160 91111=
26348 32984 51104 10126 20069 40227 57010 85070 333 10179=
26406 32463 80602 10133 20116 40179 57006 8262/ 333 10165=
26416 32999 31203 10121 20096 40193 57004 83030 333 10159=
26422 32997 01303 10145 20092 40206 57004 333 10188 91112=
26544 32964 61204 10153 20073 40227 56004 84031   333 10196 91110=
10124 81620 87638=
87648=
10130 81712 84640 87650=
10161 81820 92428=
12205 11465 51202 10132 20125 30097 40105 56002 60032 72582 85300
333 10160 20120=
12465 11658 71401 10123 20120 39913 40141 52005 60012 78082 879//
333 10171 20111=
12560 32565 72001 10129 20113 39812 40150 53002 875//
333 10188 20103=
12120 11335 81203 10134 20125 30119 40126 57009 60062 72162 8662/
333 10143 20122=
12250 11597 71101 10128 20118 30046 40133 50002 60062 72982 879//
333 10164 20122=
12295 42560 21003 10130 20109 39989 40171 56005 82500
333 10162 20125=
12330 11620 71301 10122 20115 30019 40125 55000 60052 71022 8357/
333 10135 20122=
12375 32770 71205 10150 20130 30017 40144 57007 8257/
333 10176 20102=
12424 11982 22103 10123 20096 39984 40134 55001 69922 70181 82061
333 10158 20117=
82100 22284 00260 2//// 3//// 4//// 80225=
81100 22223 02260 20303 306// 41107 80217=
83090 22262 02166 29901 80128=
91800 22273 04250 80235=
72562 22200 20805=
322071 326073 328076 325067 329072 331075=
57020 76062 886// 22234 00058 20100 306// 40704 80059=
56954 31330 81801 10204 20193 40115 57009 71000 884// 333//
00151 10280=
56959 32770 70000 10231 20222 40098 57004 874// 333// 00100
10299=
51526 32780 70000 10155 20023 40178 52002 84902 333// 00555
10252=
51642 32770 53202 10178 20036 40142 52006 84402 333// 00453
10266=
51765 32980 00902 10167 20020 39206 40152 54000 333// 00600
10267=
51467 11780 80000 10075 20046 38332 52011 69981 78080 889//
333// 00352 10172=
54518 32962 03202 10138 20101 40283 57008 333// 10231=
53698 32961 81802 10169 20116 40267 57005 8802/ 333// 10237=
52984 32980 00401 10118 20108 38073 57001 333 05400 10221=
52679 32765 83202 10133 20116 38451 57006 8252/ 333 05301
10159=
52661 32970 82501 10130 20107 38227 52005 8802/ 333 00001
10223=
52983 32980 71103 10114 20096 38113 57012 8703/ 333 05401
10199=
52889 32970 80701 10153 20110 38469 40092 57009 8807/ 333
05401 10243=
52418 11970 80703 10165 20111 38886 40139 52014 69951 70060
80007 333 00700 10240=
52681 32980 70702 10114 20098 38619 40120 57006 82042 333
05400 10203=
52996 11/06 91608 10066 20066 37588 57009 69921 76054 333
05301 10086=
52787 11930 71606 10072 20070 37057 57006 69911 72864 80002
333 05202 10175=
52986 32770 80000 10119 20096 38111 57010 885// 333 05401
10212=
52436 11980 80000 10123 20090 38498 40168 52019 69961 76060
8807/ 333 00602 10187=
52674 11962 83202 10109 20093 38011 54000 69901 70060 8802/
333 05202 10121=
50353 32970 01602 10050 21029 39920 40136 57026 333 10169=
50246 32970 22703 10006 21026 40111 57030 80002 333 10154=
50775 32962 02501 10018 21040 40243 57006 333 10134=
54764 32975 02203 10119 20069 40270 57003 333// 10215=
54308 32980 00000 10066 20041 40271 57004 333// 10212=
54405 32962 01101 10116 20093 40259 57008 333// 10230=
54624 32965 01602 10145 20115 40274 57012 333// 10230=
52495 32975 01103 10111 20092 38685 40146 57005 333// 05452
10200=
53602 32980 00000 10113 20097 38436 57004 333// 10188=
52267 32980 63203 10174 20064 39063 40105 54000 80002 333//
05400 10257=
52576 32980 20702 10136 20098 38479 57001 80002 333// 00002
10182=
52378 32980 11606 10196 20082 40108 52003 80002 333// 05405
10282=
53502 32970 00401 10128 20099 40137 57008 333// 05551 10221=
53149 32980 02010 10125 20055 38807 40154 57015 333// 05651
10244=
53068 32980 02004 10128 21035 39089 40172 57006 333// 05704
10248=
53276 32980 01807 10119 20007 38908 40184 57012 333// 10258=
53231 32970 01812 10112 20076 38491 57009 333// 05553 10209
91120 91516=
53083 32980 00901 10078 21063 40203 57009 333// 05705 10207=
53529 11970 81604 10098 20087 38656 40204 57010 69901 70060
8802/ 333// 05401 10128=
53391 32980 02003 10068 20047 38579 40218 57011 333// 05354
10210=
53336 11570 72009 10117 20068 38755 40178 57008 69901 70060
82902 333// 05400 10216=
53352 32980 02007 10121 20062 40182 57008 333// 10218=
57853 11420 80000 10178 20173 40194 57001 60051 76166 8772/
333 10190=
50632 32970 00000 10006 21063 39312 40187 57022 333// 10151=
50434 32980 33602 11005 21048 39297 40164 57023 80002 333//
10140=
55578 32980 00000 10076 20037 36416 52005 333 00153 10203=
55664 32980 00202 10054 21004 36070 52003 333 00151 10178=
55773 32970 00000 10034 20016 36086 52002 333 00102 10116=
55696 32680 72702 10090 20041 36413 52004 87802 333 00100
10176=
57046 11464 80406 10087 20072 38003 57007 60051 76060 885//
333 05100 10108 91119 91522=
51711 32980 32202 10118 21017 38059 52006 80002 333 00203
10182=
56691 32365 61402 10136 20121 37826 57004 86600 333// 00152
10212=
57707 32465 81403 10173 20147 38530 57005 885// 333// 00100
10258=
57713 11458 80401 10180 20169 40180 52001 60021 76060 887//
333// 00254 10234=
57731 32670 80402 10206 20172 40181 57004 885// 333// 10251=
57816 32662 80404 10155 20145 38814 40165 57003 885// 333//
00153 10217=
57832 11466 80401 10166 20163 40193 57005 60011 76066 887//
333// 10190=
57902 11462 80403 10189 20156 38651 40131 57004 69901 76000
887// 333// 00001 10255=
57916 11662 80000 10221 20179 40143 57007 69901 76060 885//
333// 10291=
57922 11458 83604 10163 20155 40169 57008 69921 76060 887//
333// 10199=
57932 11357 80000 10198 20192 40167 57008 69961 76060 887//
333// 10253=
52323 32980 83409 10094 21046 38268 52002 8807/ 333 00201
10177=
52446 32980 80401 10188 20104 40111 52008 8802/ 333 00004
10236=
53821 11463 81603 10107 20105 40202 57012 60011 76066 8572/
333 05300 10108=
52447 32980 83203 10175 20048 40138 52011 82047 333 00206
10201=
56074 32980 10704 10088 20074 36719 57004 80002 333 05101
10172=
50618 32980 01605 10114 21113 40164 57012 333// 10178=
50639 32970 20000 10041 21048 40192 57021 80002 333// 10176=
58926 32965 00401 10208 20194 40137 57006 333 10324=
51495 32980 73620 10148 21021 40284 57002 81042 333// 00300
10194 91127 91536=
51567 11780 83402 10155 20084 40185 52017 69901 78080 889//
333// 00600 10238=
51542 32670 62703 11001 21016 37651 57002 82502 333// 00101
10019=
51855 32965 00000 10151 20082 40139 52002 333// 00401 10262=
56018 32980 01801 10055 20022 36238 54000 333 05101 10186=
52713 11680 72701 10120 20036 36932 52012 69901 70080 82902
333 05202 10252 91119 91516=
52833 32680 72702 10141 20077 37098 54000 83902 333 05304
10225=
51886 32966 13601 10077 21024 37166 52007 80002 333 00557
10216=
51076 32980 21101 10050 21007 39414 40290 57003 80002 333
00152 10149=
51087 32980 02702 10049 20001 39328 40287 52001 333 00053
10132=
51243 32980 03203 10114 20047 39730 40268 57009 333 05102
10171=
51288 32980 10203 10018 21039 38419 57005 80002 333 00152
10091=
51644 32980 03203 10156 20035 38955 40153 52002 333 00454
10232=
51379 32780 82703 10108 20031 40279 57001 884// 333 05101
10164=
51730 32970 00000 10110 20093 40159 52003 333 00457 10247=
51186 32980 00000 10017 21012 40280 57003 333 00155 10129=
56684 32575 40401 10151 20130 37938 54000 84100 333// 00151
10219=
55228 32980 00000 10057 21095 36085 52006 333 00100 10150=
55248 32980 00201 10009 21127 35975 52005 333 00258 10166=
55437 32980 00000 10069 20003 36415 52003 333 00102 10183=
51053 11680 80402 10092 20020 40279 57006 69901 70080 889//
333 00005 10154=
51068 32980 12002 10076 20042 40279 57007 80002 333 05100
10153=
51346 32980 01601 10078 20059 40277 57011 333 05100 10144=
52818 32970 12004 10117 20017 37278 52034 80002 333 00302
10294=
57866 11730 83603 10188 20186 39980 40184 57003 69961 76060
885// 333 10198=
52797 32980 41803 10126 20104 38349 57014 80002 333 05402
10173=
52895 32980 21605 10136 20111 40120 57004 80002 333 05451
10205=
51334 32980 02001 10080 20067 40274 57006 333 05100 10172=
51232 32980 02203 10119 20065 40291 57003 333 00001 10174=
52737 32980 00704 10156 20031 37084 52002 333 05403 10234=
52602 32870 70405 10113 20019 37291 52019 82502 333 00252
10249 91117 91529=
56004 32680 30901 10040 20005 35887 52002 82502 333 05101
10154=
52908 32980 10201 10017 20005 35833 54000 80002 333 05151
10146=
54449 32965 00000 10080 20062 40283 57008 333// 10185=
89642 43/// /1806 11217 21309 39854 49912 53012=
78862 32580 21012 10307 20228 30109 40132 82802 333 10314 20268 59009
82824
78792 31460 71607 10320 20254 30082 40097 57018 70311 83205
333 023// 10320 20228 30/// 59012 83818 84280=
78793 31460 81106 10278 20245 30077 40108 58006 71522 8472/
333 045// 10282 20232 30/// 58001 84815 88458=
78795 31465 70000 10318 20240 39997 40097 57012 71799 84301
333 060/0 10322 20206 30/// 59014 81915 83820 83080=
91631 31498 80914 10289 20245 4//// 71522 82937 333 56299=
91636 11498 80904 10242 20235 4//// 60031 72128 8122/ 333
5629/=
91643 11498 82003 10244 20234 40110 50005 60091 78068 8437/
333 5649/ 84916 88559=
91925 01480 50910 10269 20207 30089 40148 51016 69921 7018/ 85240
333 56290 69927 84818
555 11221 58000=
91938 31470 71904 10258 20210 30163 40166 52018 71511 85832
333 56299 81815 84650 85080
555 12010 58002=
91943 32470 61117 10275 20224 30153 40156 51018 86800
333 56200 82816 86650
555 11021 59004=
91944 06/// /1506 10251 20218 30168 40174 51017 60011
333 60017
555 1//17 58002=
91948 01475 82212 10214 20176 30077 40181 51018 60031 70286 8787/
333 56699 69927 83816 83630
555 12725 59006=
91954 32580 51214 10197 20115 30223 40227 53016 85800
333 56300 83821 83633
555 11329 58013=
91958 32580 63108 10176 20100 30218 40220 51020 86800
333 56500 81825 86646
555 13418 58027=
60060 32962 13004 10232 20185 40164 56004 80002
333 10238 81070 95300=
60105 32956 62207 10222 20181 40130 57007 86030
333 10257 86360=
60106 32565 72005 10253 20178 40141 53004 8523/
333 10302 85820 84359=
60107 32560 63406 10235 20208 40126 55001 86800
333 10252 83816 85626 95380=
60141 32660 73208 10241 20141 39478 40121 51001 8593/
333 10273 85830 81940 83360 95400 95800=
60185 32465 62216 10218 20182 40138 56004 86200
333 10247 86816=
60195 31660 7//// 10199 20117 38498 48513 53004 71799 879//
333 10236 86833 82940 95540=
60210 32665 62005 10303 20110 38940 48493 55005
333 10322 83833 83358=
60220 32958 52414 10199 20178 40159 54000 80004
333 10214 85073=
60265 32670 43614 10302 20080 38847 48498 56011 81202
333 10320 81840=
60318 32558 70805 10235 20205 40135 57006 86232
333 10273 86820 83070=
60285 32958 13608 10237 20188 40165 55002 80002
333 10262 81070=
60340 32565 70806 10240 20218 40122 56004 82172
333 10267 82816 85360=
82824=
78894 36/// /0712 10302 20239 30080 40138 56018
333 10302 20266 59009=
60020 12580 21602 10248 20212 30129 40172 54000 69902 81520
333 10279 92408=
60030 32570 21709 10261 20205 30106 40160 56004 82501
333 10293 92724=
60040 32570 32810 10270 20200 30138 40163 54002 81149
333 10275 92428=
60338 32465 70803 10236 20206 30059 40122 57003 8153/
333 10260 81612 87358 92427=
78988 32575 20915 10319 20272 30104 40113 57026 82200
333 59011 82823=
78982 32580 20919 10324 20241 30103 40108 57026 82201
333 59013 82822=
78873 32480 30610 10314 20222 30095 40140 57018 83200
333 59009 83819=
91554 32475 51208 10250 20228 40101 53002 85800
333 563// 82818 85640=
91557 32580 30000 10215 20213 40120 56004 83200
333 563// 83820=
91568 01470 71008 10236 20217 40134 5//// 69921 725/1 878//
333 563// 69921 87818=
71865 17/64 /20// 10165 20041  69921 7//4/ 333 10165 20027 70002=
71866 17764 61705 10163 20072 39531 40135 56015 69951 7//4/ 333
10167 20013 70005=
71867 32574 72912 10119 20069 39802 40131 50001 86570 333
10125 20059 70040=
71868 36964 02608 10158 20067 39708 40140 58011 333 10158 20033
70000=
71869 32674 70004 10159 20047 39627 40143 58009 81171 333 10163 21007
70000=
71870 36964 01914 10201 20027 39168 40111 58019 333 10201 20076
70000=
71871 32874 70805 10088 20044 39341 40139 58008 86071 333 10089 20030
70000=
71872 32983 62110 10198 20030 39274 40103 58018 81071 333 10198 20073
70000=
71874 17964 02313 10213 21030 39042 40105 56011 69951 7//4/ 333
10227 20038 70005=
71876 32974 80907 10144 20040 39478 40134 58014 87071 333
10148 21007 70000=
71878 31774 62703 10126 20041 39057 40108 53001 71422 82571
333 10128 20039 70000=
71879 37564 80308 10115 20058 39324 40116 53006 743// 333 10123
20051 70005=
71880 32882 70000 10128 20057 39077 40163 53004 86072 333 10128 20069
79999=
71881 17764 30000 10101 20050 39046 40126 53007 60011 7//4/ 333
10104 20030 70010=
71882 17564 33102 10118 20111 39650 40179 51009 60051 7//4/ 333
10119 20101 70060=
71883 17/// /0000 10094 20090 39369 40179 53012 60071 7//4/ 333
10410 21050 70090=
71887 11883 21006 10160 20104 39738 40150 50005 69921 70181 81071
333 10160 20118 70002 90931=
71889 32574 70000 10156 20104 39760 40170 51010 81571 333 10156 20103
70000=
71891 36864 32021 10163 20091 39880 40152 51009 333 10163 20125
70005=
71892 11359 81007 10130 20115 30188 40193 51015 60051 76066 888//
333 10148 20120 70144 90973=
71397 32674 81906 10231 20142 30203 40237 56015 82572 333
10235 20121 70000=
71398 36/64 /1505 10238 20151 30205 40254 56017 333 10238 20075
70000=
71400 17/64 /2405 10195 20105 30150 40279 56007 69971 7//4/ 333
10203 20000 70007=
71410 36/64 /2012 10231 20141 30219 40247 58012 333 10232 20122
70000=
71411 36/64 /1304 10199 20164 30245 40255 56008 333 10206 20156
70000=
71412 36/// ///13 10177 20156 30247 40260 56011 333 10179 20147
70000=
71430 36/64 /1912 10221 20175 30040 40134 58005 333 10233 20185
70024=
71431 36/// /1704 10199 20174 30040 40132 58006 333 10199 20187
70000=
71432 36/64 /2205 10194 20165 30034 40128 58007 333 10221 20167
70000=
71435 36/// /2403 10181 20079 39543 40126 58012 333 10181 20000
70000=
71436 36/// /1707 10161 20138 39765 40115 58007 333 10189 20135
70010=
71441 36/// /3412 10160 20081 39856 40159 50001 333 10162 20083
70032=
71443 36/64 /2510 10166 20053 39750 40154 58010 333 10166 20045
70000=
71538 11348 82006 10182 20166 39878 40103 58011 60051 72086
885// 333 10187 20121 70118 90946=
71600 36964 01513 10182 20147 30279 40285 58004 333 10193 20153
70000=
71601 11474 81708 10200 20171 30191 40253 57009 69901 70252
86501 333 10208 20117 79999 90961=
71952 36/// /1206 10119 20100 39259 40094 51010 333 10121 20077
70040=
71967 36/// /1110 10056 333 10063 21040 70000=
71930 11269 71102 10063 20051 39211 40137 51004 69961 78082 85570
333 10066 20028 70006 90916=
71931 17/64 /0000 10097 20066 39472 40151 53004 69921 7//4/ 333
10097 21001 70002=
71932 36464 80907 10076 20038 39721 40173 51009 333 10076 20018
70005=
71933 36564 81007 10077 20025 39907 40195 51010 333 10082 20034
70055=
71934 32474 51106 10070 20029 39942 40198 51006 85501 333
10070 20024 50740 70121=
71935 32374 71606 10073 20044 39974 40181 52009 87600 333
10073 20027 70005=
71936 32574 70910 10043 21019 39956 40215 51005 87500 333 10047 20010
70000=
71938 32574 31807 10038 21037 30207 40236 58002 83570 333
10039 21035 79999=
71940 11474 73502 10088 20056 39336 40133 52011 60011 72182 86501
333 10089 20046 70012 90966=
71943 11259 80907 10062 20061 39302 40129 51005 60041 76186 885//
333 10087 20023 70042 90973=
71944 37364 81406 10095 20083 39298 40116 51008 743// 333 10096
20065 70000=
71945 11466 70000 10051 20036 39662 40130 58001 69901 72522 87500
333 10052 20003 79999 90920=
71946 11374 70906 10070 20041 39947 40158 58001 69901 70252
87500 333 10070 20030 79999 90921=
71948 46964 01220 10018 30056 40167 58004 333 10018 20003=
71957 369// 01410 10057 20006 39998 40084 56004 333 10057 20012
70005=
71958 17459 60502 10069 20056 39110 40031 56005 69951 7//4/ 333
10071 20020 70005=
71968 469// 00602 10028 39986 40049 58004 333 10029 21017=
71450 36/// /1309 10173 20056 39427 40133 58016 333 10173 20034
70000=
71475 36/// /1303 10141 20120 30083 40175 51012 333 10143 20111
70012=
71114 17364 82707 10138 20122 30138 40185 51009 60041 7//4/ 333
10138 20118 70045=
71120 32974 71402 10123 20066 39496 40145 55003 84072 333
10123 20008 70000=
71122 36/64 /2307 10110 20037 38556 40128 53010 333 10111 20057
70000=
71123 11774 80704 10117 20069 39264 40119 53005 69901 78011
87502 333 10117 20013 79999 90910=
71125 32474 80605 10131 20057 39567 40146 58004 81804 333
10144 21018 70000=
71129 32874 72501 10180 20048 39304 40116 56015 81071 333
10184 20053 50440 70000=
71130 31674 22503 10157 20050 39689 40139 58008 70240 81171
333 10163 21010 50280 70000=
71131 36/64 /2410 10172 20047 38902 40126 58010 333 10172 20064
70000=
71135 46/64 /1613 10191 20025 39083 40143 58020 333 10191 20083=
71138 32674 32706 10165 20050 39563 40159 58010 81171 333
10166 20038 79999=
71141 32474 63012 10128 20051 39842 40115 56002 86500 333
10131 20066 70024=
71148 36/// /3106 10148 20079 39613 40183 58001 333 10148 20045
70002=
71182 36964 01307 10115 20063 39706 40241 56011 333 10117 20068
70019=
71185 36464 62017 10146 20122 30242 40266 53006 333 10152 20119
70000=
71187 17024 80806 10114 20114 30161 40188 58012 60071 74344 333
10115 20084 70160=
71188 32574 81503 10182 20123 30183 40223 58009 81830 333
10185 20128 70006=
71196 36964 02608 10162 20117 30251 40288 55004 333 10177 20112
70000=
71200 17/// /0603 10121 20121 60031 7//4/ 333 10123 20103 70044=
71629 32774 72009 10206 20125 39899 40127 58005 83530 333
10219 20137 70004=
71603 32569 81511 10214 20169 30177 40229 56015 82538 333
10224 20139 70000=
71607 36/// /0707 10180 20143 30188 40220 58017 333 10180 20129
70000=
71609 32574 71410 10206 20137 30100 40232 57016 86506 333 10208 20113
70000=
71610 17564 81908 10204 20163 39863 40151 56013 60021 7//4/ 333
10212 20144 70040=
71621 32674 72113 10213 20141 30029 40132 57004 81131 333
10222 20183 70000=
71623 11220 81712 10166 20153 39776 40105 57018 69171 79598 883//
333 10169 20114 70170 90962=
71624 11666 81909 10186 20135 39914 40120 58010 69941 72186
885// 333 10203 20146 70018 90921=
71625 17564 82204 10209 20144 39950 40106 58003 69951 7//4/ 333
10210 20153 70010=
71627 36964 02311 10242 20141 30086 40129 56012 333 10246 20167
70065=
71628 32680 72012 10225 20130 39990 40126 56007 82171 333
10233 20143 70008=
71630 11574 82210 10191 20126 39781 40116 57003 69901 72122
8853/ 333 10195 20137 70014 90912=
71631 17/64 /1303 10137 20137 39620 40109 58013 60061 7//4/ 333
10151 20111 70090=
71633 32474 71810 10190 20148 39837 40101 57008 85571 333
10197 20146 70150=
71700 11569 81608 10185 20148 30198 40223 57014 69901 72522 885//
333 10195 20122 79999 90920=
71705 32574 71812 10221 20124 30147 40233 55013 82172 333
10237 20121 70000=
71706 32674 71613 10205 20135 30190 40250 58010 86501 333 10222 20130
70000=
71707 32474 71912 10175 20128 30209 40285 56004 87500 333 10175 20085
70000=
71709 32480 81810 10173 20132 30248 40261 57009 8117/ 333 10176 20139
70000=
71711 11674 80605 10143 20120 30170 40220 58010 69961 70282 82571
333 10146 20108 70006 90941=
71714 36/// /0808 10158 20158 30058 40148 58016 333 10158 20134
70184=
71715 17/64 /1604 10167 20155 39991 40170 58017 69961 7//4/ 333
10167 20120 70036=
71718 11466 81607 10166 20146 30115 40179 58013 60041 76166 885//
333 10166 20113 70108 90983=
71719 36/// /1710 10168 20136 30223 40229 56006 333 10190 20125
70000=
71819 11366 82911 10134 20117 30217 40252 53005 69911 76122 881//
333 10144 20112 70001 90925=
71826 36/// /2804 10033 21006 30105 40134 53003 333 10035 21006
70000=
71846 17/60 /0405 10130 20059 39801 40107 58026 69921 7//4/ 333
10141 21004 70002=
71725 17248 81709 10155 20149 39677 40080 56005 69951 7434/ 333
10156 20137 70060=
71726 17/64 /2104 10165 20132 39596 40118 58012 69921 7//4/ 333
10165 20136 70058=
71727 32680 70912 10168 20134 39953 40146 56011 83171 333
10173 20103 70142=
71728 32574 62012 10221 20142 39915 40129 58010 82140 333 10224 20131
70074=
71730 11256 82110 10149 20145 39674 40086 53008 69981 75185
887// 333 10169 20136 70098 90926=
71731 11262 82412 10143 20139 39661 40100 52013 60021 70285
887// 333 10146 20136 70092 90926=
71733 36464 82510 10161 20130 39856 40087 51004 333 10164 20144
70010=
71735 11274 72705 10166 20152 39774 40065 53002 60041 72165
87530 333 10170 20130 70060 90973=
71738 11474 83505 10106 20087 39754 40100 53004 69901 70255
885// 333 10107 20086 70036 90941=
71739 11159 83007 10144 20137 39721 40073 55001 887// 333 10146 20124
70128=
71749 36964 0//// 10203 20053 39874 40114 58010 333 10205 20071
70000=
71799 11166 81304 10125 20100 30165 40188 53011 60011 70265
8787/ 333 10127 20113 70060 90927=
71800 36/64 /2417 10126 20088 30276 40309 55005 333 10133 20049
70000=
71801 32474 82612 10150 20045 30131 40304 56006 81171 333 10166 20088
70000=
71802 36/// ///// 10151 20110 30245 40305 58003 333 70000=
71803 32580 72507 10179 20104 30098 40283 55003 81171 333
10180 20091 50240 70000=
71807 36/// /2212 10132 20105 30300 40316 56007 333 10139 20113
70000=
71808 17008 82305 10109 20105 30209 40255 53001 60011 7//4/ 333
10121 20096 70010=
71810 17/64 /1205 10126 20124 30161 40224 58003 69941 7//4/ 333
10140 20110 70006=
71811 11132 81010 10102 20091 30147 40215 57003 60061 76166 8877/
333 10126 20084 70128 90983=
71813 36864 82008 10163 20117 30232 40245 50000 333 10174 20108
70000=
71814 36/// /2112 10128 20115 30249 40259 51006 333 10139 20107
70000=
71893 32380 71517 10139 20106 30141 40172 51014 86570 333
10141 20127 50240 79999=
71896 11374 71810 10107 20085 39311 40128 52014 69901 76022 82770
333 10109 20084 70106 90910=
71897 11266 81424 10123 20122 30074 40105 52020 60011 761// 888//
333
10129 20110 70284 90999=
71898 36564 81721 10130 20104 30007 40050 53018 333 10133 20107
70100=
71899 11474 81910 10111 20109 39959 40008 52013 60011 71582 8397/
333
10128 20090 70231 90925=
71902 32974 13308 10125 21017 30232 40240 52003 81030 333
10135 20046 70000=
71906 32974 21404 10107 21024 30183 40233 58019 80001 333 10107 21004
79999=
71907 36964 01612 10094 20011 30137 40169 58030 333 10098 20025
70000=
71909 36564 81808 10036 21016 30126 40169 53005 333 10038 21009
70020=
71910 17964 02616 11003 21074 30077 40141 51012 69951 7//4/ 333
10004 21007 70005=
71911 46464 63613 10004 30139 40195 51017 333 10006 21052=
71912 32474 82615 10088 20037 39877 40055 53003 885// 333
10120 20059 70038=
71913 17250 80338 10044 20038 39969 40005 53017 60051 7434/ 333
10079 20041 70200=
71915 32574 62913 10011 21062 30080 40162 53007 85501 333
10017 21054 79999=
71917 11366 71303 11125 21143 30232 40246 53001 69901 77142
87500 333 11123 21170 46003 79999 90921=
71922 32574 20304 10080 20024 39703 40165 52013 81501 333 10084 20049
79999=
71924 11166 30120 11099 21115 30143 40233 53001 69901 77670
82630 333 11089 21122 46004 79999 90912=
71925 11366 70102 11010 21034 30229 40265 50003 69901 78522
87500 333 11008 21021 41997 79999 90962=
71926 32580 23414 10005 21082 30199 40222 51001 82500 333
10007 21055 79999=
71928 36/64 /3207 10118 20036 38970 40113 53010 333 10118 20039
70000=
78388 32570 20210 10314 20251 40131 82902 333 06000 10327 20241 58000
81820 81922=
71816 32574 60000 10134 20079 30187 40248 50000 81106 333
10135 20099 50380 70054=
71817 36564 80304 10128 20094 30233 40247 53010 333 10144 20103
70000=
71818 11574 10613 10122 20038 30235 40253 52011 69901 70261
81101 333 10135 20090 70040 90963=
71821 17464 81607 10164 20146 39745 40080 56011 60011 7434/ 333
10170 20138 70130=
71822 17562 31809 10156 20134 39647 40109 56009 69951 7434/ 333
10181 20120 70080=
71827 32574 70713 10140 20086 39866 40105 56027 86501 333 10142 20060
70000=
71828 36964 01408 10102 21004 39598 40236 58020 333 10110 21013
70000=
71831 11240 83003 10097 20097 39814 40089 50001 69961 75155
887// 333 10106 20077 70144 90983=
71832 46/64 /3406 10075 20075 39788 40109 58006 333 10075 20057=
71834 32574 43404 10156 20085 39695 40114 56013 82171 333
10159 20030 70000=
71836 17164 83504 10135 20135 30061 40072 56009 60041 7//4/ 333
10136 20113 70040=
71842 32674 52007 10179 20114 39651 40118 56011 82132 333 10182 20071
70000=
71845 32674 61707 10164 20064 39645 40109 56022 85571 333
10166 20040 50300 70000=
71850 11366 83110 10134 20113 39647 40131 52006 60011 70264 886//
333 10141 20108 70011 90921=
71852 36664 33411 10156 20066 39863 40151 50005 333 10167 20097
70005=
71854 11316 83108 10118 20117 39663 40126 53006 69961 76162
887// 333 10140 20093 70006 90966=
71855 36964 02909 10175 20045 39783 40151 58009 333 10175 20062
70000=
71856 36964 03108 10157 20071 39868 40146 50004 333 10159 20106
70000=
71858 36/64 /2514 10146 20058 39861 40136 58002 333 10146 20032
70008=
71861 36964 62105 10145 20009 39453 40171 58007 333 10147 20035
70005=
71862 32974 31907 10195 20033 39478 40169 58011 82071 333
10198 20014 50280 79999=
71863 36964 81408 10151 20058 39467 40158 58011 333 10152 20015
70000=
71115 17/// /0601 10128 20119 39593 40165 53007 60041 7//4/ 333
10128 20100 70044=
71121 37564 80208 10101 20088 39309 40123 53007 743// 333 10107
20024 70005=
71143 16/// /3204 10158 20102 39840 40149 58005 69941 333 10158 20099
70040=
71043 32583 71212 10088 20037 39990 40082 57007 86501 333 10089 20061
50240 70000=
71045 36/// /0804 10044 20036 39199 40044 56009 333 10044 20024
70000=
71066 31366 81303 10052 20026 39753 40172 51008 70342 885//
333 10054 21003 70000=
71068 11674 80305 10071 20041 39458 40145 53005 69901 78081 885//
333 10074 20019 79999 90910=
71069 37664 31104 10071 20049 39449 40150 51009 743// 333 10071
21009 70000=
71076 46/// /0808 10042 21004 39822 40216 51013 333 10043 20012=
71077 36/64 /0405 10070 20023 39646 40170 51009 333 10079 20047
70004=
71078 11374 80110 10016 21005 39712 40152 52030 69981 77165
8651/ 333 10050 20013 70104 90962=
71079 11474 82813 10065 20039 39821 40094 53006 60011 72075 86701
333 10083 20055 70326 90977=
71081 17664 30317 10010 21016 30098 40109 51012 60021 7//4/ 333
10011 21022 70030=
71082 36564 83004 11119 21128 30204 40245 53005 333 11098 21179
70000=
71083 32474 60418 10002 21062 30147 40184 50000 81574 333 10005 21028
79999=
71090 17420 80106 11006 21015 30118 40152 50000 60011 7454/ 333
10001 21023 70020=
71091 460// /1117 10001 39902 40107 56004 333 10011 21006=
71092 46464 61117 11016 39472 40128 56007 333 11012 21036=
71093 460// /0708 11020 39648 40139 56002 333 11013 21024=
71094 46464 82804 11045 39243 40137 53006 333 11033 21048=
71095 36564 80104 11005 21064 30077 40149 58007 333 11002 21042
70000=
71101 17562 81708 10114 20097 30033 40041 51014 69951 7434/ 333
10131 20109 70165=
71104 32974 11407 10124 20067 39052 40142 51010 81071 333 10127 20055
70042=
71108 11259 80000 10138 20120 30123 40193 52015 60061 78062 8687/
333 10141 20119 70122 90973=
71109 32580 71108 10140 20106 30112 40138 52014 86570 333 10143 20114
70148=
71434 36/// /2206 10140 30042 40107 58035 333 10140 21006 70000=
71702 36/// /1415 10222 20145 30214 40240 56017 333 10225 20143
70000=
71717 11674 71713 10214 20127 30183 40223 58016 69901 70282
82570 333 10222 20116 79999 90960=
71732 17/// /1907 10175 20146 60021 7//4/ 333 10176 20145 70056=
71261 17/// /2205 10155 20155 39851 40105 55010 69961 7//4/ 333
10171 20147 70026=
71265 17562 62111 10183 20163 30031 40123 56009 69951 7434/ 333
10201 20163 70015=
10177 20127 70090=
71851 36/// /3105 10145 20081 39833 40162 50002 333 10145 20082
70000=
71873 36/64 /1710 10167 20053 39189 40120 56010 333 10167 20000
70000=
71875 17664 32528 10191 21007 38768 40110 56008 69951 7//4/ 333
10197 20052 70005=
71075 17/// /3609 10008 20004 39585 40192 51021 60011 7//4/ 333
10018 21004 70086=
71096 460// /1709 11027 39427 40155 53001 333 11024 21041=
71197 36564 61612 10157 20125 30246 40295 56004 333 10164 20096
70000=
71201 17/// ///// 10131 60091 7//4/ 333 10144 20122 70202=
84628 34457 82305 10176 20143 30121 40137 71044 886//
333   565// 59004 88711=
84401 31960 00000 10270 20184 30117 40185 70200
333   58013=
84752 31965 02409 10215 21045 37529 70200
333   58006=
84686 31660 53406 10178 20039 36874 70302 852//
333   569// 58004 82840 83850=
84735 31666 63505 10160 20037 36434 70322 862//
333   567// 58019 83840 83656=
84673 31668 82208 10230 20089 37343 70222 8382/
333   5600/ 59001 83850 85458=
84452 31560 22013 10214 20143 30112 40143 70104 82500
333   56000 58015 82625=
84444 31566 51113 10175 20058 37540 7021/ 8341/
333   5600/ 59004 83627 82460=
84531 31461 21907 10190 20147 30115 40127 7014/ 82500
333   56900 58021 82615=
84370 31460 63505 10250 20191 30085 40114 70124 865//
333   569// 58002 86620=
84542 31970 33306 10230 20099 37342 7030/ 83030
333   56090 59012 83360=
84501 31360 81708 10170 20146 30121 40162 70244 886//
333   560// 58012 84710 86715=
84691 31958 03008 10204 20154 30113 40120 71044
333   59008=
84455 31565 60000 10333 20237 39822 40164 70300 86830
333   5600/ 59008 86830 =
84782 31968 02309 10213 20110 39625 40152 70240
333  59010=
84658 31562 20000 10330 20229 39850 40067 70102 82100
333   56900 58019 82820=
84390 31970 02608 10245 20168 30023 40123 70200
333   59007=
84515 31460 51806 10290 20235 39930 40104 70380 852//
333   569// 58004 85820=
84564 31560 60615 10262 20155 38148 70222 82530
333   56110 58002 82830 84362=
84377 31460 70303 10310 20247 39997 40100 70222 83130
333    5690/ 59005 83815 84360=
84425 31560 60307 10330 20232 39933 40142 70340 861//
333   569// 59006 86825=
84474 31560 30000 10330 20227 39792 70305 83200
333   56000 59006 83830=
84534 31660 30000 10250 20203 39380 40086 70212 83200
333   56900 59010 83840=
76061 32981 01802 10328 20259 30070 40137 56006 91730 333
10330 20238 30/// 59005 90802=
76256 32980 01604 10329 20266 30107 40121 52006 91740 333
10348 20266 30/// 59008=
76373 32488 31802 10264 20129 38229 40137 56009 82130 91738
333   10280 20096 30/// 56220 58000 82810 81360=
76402 31960 00000 10344 20163 30070 40125 57003 70544 91740
333   10360 20203 30/// 59004=
76458 32568 32503 10318 20256 30094 40106 57009 82206 91750
333   001/0 10336 20266 30/// 57814 59002 82826 81068=
76539 31568 20503 10230 20129 38136 40102 57013 70544 82500
91754 333   10243 20110 30/// 56300 58002 82630=
76612 31660 60902 10248 20147 38477 40130 57012 70544 82230
91756 333   10257 20165 31/// 56110 58003 82840 84358=
76632 31580 30408 10180 20084 37623 40093 58001 70511 811/1
91755 333   10218 20128 30/// 561/1 58000 81830 91307 90083
=
76644 32460 30904 10322 20247 30128 40141 57010 81102 91755
333   003/9 10325 20225 30/// 59008 81820 82050 91007 91509
=
76685 32570 43601 10230 20098 37876 40128 50128 84200 91758
333   10235 20110 30/// 56900 59008 84827=
76695 32560 30803 10326 20251 30120 40126 57007 81106 91756
333   003/0 10332 20225 31/// 59006 81725 91006 91508=
76698 32660 70902 10323 20247 30125 40137 57008 86270 91755
333   02330 10327 20230 31/// 58000 86820=
76750 32560 71108 10320 20248 30126 40136 57004 83202 91753
333   03206 10328 20235 31/// 59011 83820 84070 91011 91511
=
76775 31565 50204 10255 20155 38502 40116 57006 70322 85801
91750 333   10298 20146 30/// 56909 59012 82622 81827=
76840 32560 50604 10325 20218 30085 40140 57014 82230 91750
333   02190 10340 20225 30/// 58005 82828 83360=
76843 32565 43202 10281 20210 39527 40172 54000 84200 91750
333   013// 10289 20217 30/// 59003 84823=
76845 32560 51104 10208 20142 37937 40139 57003 83708 91745
333   10218 20118 30/// 56209 59011 82720 82270=
76848 32570 80506 10218 20158 38376 40125 52002 8543/ 91740
333   10218 20149 30/// 5619/ 59007 85620 83356=
76113 32970 01802 10352 20214 39645 40099 52015 91735 333
10352 20198 30/// 59033=
76305 32970 00701 10348 20203 30100 40107 52005 92040 333
10350 20259 30/// 59008 90801=
76499 31557 31402 10322 20229 30117 40140 55012 70311 83230
91745 333   0039/ 10325 20230 30/// 59004 82815 81356=
76548 32575 50702 10318 20248 30126 40156 58005 82204 91750
333   04305 10325 20237 31/// 58005 82820 82630 81082=
76593 32370 30502 10292 20252 30130 40146 58006 81202 91753
333   001/9 10300 20240 30/// 59008 81820 820// 92011=
76675 32581 23603 10195 20122 37389 40118 57007 822// 91750
333   10204 20098 30/// 561// 59003 82826=
76855 32580 60801 10332 20259 30040 40064 55001 82228 91740
02999 10335 20230 30/// 59016 82820 82458 92000=
68240 42660 61807 10205 20113 48503 86900 333 10250 555 30063=
67009 32580 11816 10229 20178 30034 40154 52024 81200
333 10316 81820=
67027 32980 02808 10255 20223 30116 40137 52016
333 10322=
67083 32470 11007 10163 20132 38776 48547 52016 82200
333 10259 81816=
67095 32475 30000 10205 20184 30173 40180 51013 83800
333 10258 82817
555 82633=
67157 31475 7//// 10220 20208 30187 40194 52011 715// 878//
333 10/// 83820 86630=
67197 32480 50608 10206 20154 30168 40178 51006 85800
333 10250 82817 84633=
94120 46/// /1902 10244 20225 30073 40113=
94150 46/// /1403 10225 20215 30055 40116=
94203 46/// /2305 10227 20214 30100 40111=
94212 46/// /1308 10228 20141 39638 40111=
94216 46/// /2502 10241 20199 30052 40102=
94238 46/// /0807 10236 20053 39696 40121=
94268 46/// /0604 10234 20158 30122 40134=
94283 46/// /1210 10235 20175 30133 40144=
94287 46/// /1708 10211 20165 30151 40160=
94294 46/// /1705 10199 20161 30169 40179=
94298 35/// /1320 10229 30148 40154 57013=
94299 46/// /1323 10241 20202 30128 40139=
94300 46/// /2608 10190 20115 30119 40129=
94302 46/// /2006 10134 20118 30128 40134=
94312 46/// /2807 10191 20185 30109 40119=
94317 46/// /3404 10167 20031 39511 40103=
94319 46/// /2811 10253 20075 39767 40100=
94326 46/// /2314 10178 20144 39548 40174=
94332 46/// /0703 10210 20041 39753 40142=
94346 46/// /0906 10155 20044 39948 40172=
94363 46/// /1006 10153 20109 39978 40200=
94367 46/// /1309 10208 20167 30147 40185=
94374 46/// /1204 10165 20144 30188 40205=
94393 35/// /1417 10212 30155 40165 57006=
94394 35/// /1415 10213 30166 40174 57008=
94403 46/// /3108 10164 20127 30059 40101=
94429 46/// /2312 10159 20089 39633 40103=
94430 46/// /2603 10186 20035 39504 40094=
94461 46/// /0108 10199 20117 39449 40125=
94462 46/// /1905 10141 20136 39593 40156=
94510 46/// /1304 10130 20044 39837 40192=
94515 46/// /0705 10165 20116 39853 40209=
94552 46/// /1007 10110 20099 39749 40226=
94578 46/// /2106 10140 20125 30217 40228=
94584 46/// /1521 10186 20135 30096 40207=
94601 46/// /2313 10144 20134 30020 40037=
94610 46/// /0207 10144 20115 30046 40070=
94637 46/// /3303 10157 20021 39639 40068=
94638 46/// /0205 10136 20126 30017 40049=
94647 46/// /3510 10137 20128 39974 40095=
94651 46/// /0000 10154 20133 30028 40106=
94653 46/// /3506 10181 20146 30109 40128=
94659 46/// /3009 10225 20089 39956 40153=
94672 46/// /0607 10215 20082 30146 40151=
94693 46/// /0806 10161 20079 30122 40185=
94703 46/// /0000 10129 20072 30079 4////=
94710 46/// /0708 10157 20098 39955 40214=
94729 46/// /0000 10067 20067 39382 40254=
94750 46/// /2904 10135 20127 30116 4////=
94776 46/// /0000 10081 20079 30235 40245=
94791 46/// /1902 10119 20113 30237 40244=
94802 46/// /0000 10118 20108 39962 40044=
94804 46/// /0914 10157 20139 30103 40141=
94821 46/// /0603 10067 20062 30113 40197=
94842 46/// /0809 10098 20076 30120 40221=
94850 46/// /1304 10027 20020 30192 40238=
94865 46/// ///03 10109 20097 30209 40234=
94893 46/// /0407 10095 20078 30120 40238=
94907 46/// /0101 10062 20058 30233 40243=
94910 46/// /0907 10129 20113 39982 40239=
94926 46/// /0000 10069 20063 39575 40263=
94954 46/// /1110 10056 20012 30129 40242=
94956 46/// /0204 10025 20016 30227 40254=
94968 46/// /2204 10030 20026 30036 40253=
94975 46/// /2704 10042 20008 30224 40258=
94983 46/// /0710 10113 20076 30217 40242=
94995 46/// /1305 10161 20100 30237 40245=
94996 46/// /1209 10160 20120 30086 40217=
94998 46/// /2730 10003 21022 30019 40030=
95719 46/// /1308 10121 20107 39893 40232=
96995 46/// /1512 10225 20201 39827 40123=
96996 45/// /1112 10254 20216 30130 40135 57009=
89564 419// /1426 11212 21317 39771 49792 57005=
89571 459// /0304 11199 21229 39746 49775 57005=
89611 419// /0000 11150 21169 39710 49764 52006=
94974 35/// /0909 10069 30225 40249 52001=
95288 35/// /1419 10242 30121 40136 57009=
95872 46/// /0805=
60190 32658 62606 10263 20134 39551 40127 57003 81232
333 10275 81833=
60191 32660 52404 10265 20111 40123 56005 81232
333 10275 81840 83360=
85406 32960 02212 10177 20120 40137 56013 =
85418 32965 02212 10171 20117 40138 57023=
85432 32980 02617 10226 21005 37760 48427 57013=
85442 32575 11908 10160 20101 40144 58017 81500
333 56400 81624=
85469 42465 50809 10215 20173 40226 52001 83201
333 56206 83815=
85470 32980 22616 10238 20111 40110 57018 80002
333 56006 82070=
85488 32462 82905 10134 20104 40153 57008 885//
333 56099 83612 88615=
85574 31957 81804 10212 20107 40133 57009 70522 8807/
333 56069 84366 88467=
85585 32597 83306 10156 20129 40137 58019 888//
333 56799 84820 84630=
85586 32960 72606 10149 20106 40160 58021 81034
333 56066 81365 86275=
85629 32965 79902 10212 20086 40142 57021 86077
333 56077 86365 87275=
85672 32970 82702 10176 20092 40160 58004 84037
333   56055 84360 88270=
85682 32460 83603 10128 20091 40163 55013 8117/
333 56889 81810 83358 85460=
85743 32560 89903 10164 20069 40150 56022  8652/
333 56669 86630 88460=
85782 31558 83305 10122 20102 40145 50003 76122 8457/
333 56889 84630 85357 88460=
85799 11557 83608 10107 20092 40139 58007 60021 76162 8552/
333 56889 85625 88550=
85836 11670 80000 10102 20077 40164 57014 69931 70252 885//
333 56699 88640=
85874 11556 89904 10059 20031 39520 40139 53001 60011 76066 8551/
333 56669 85620 88456=
85934 32580 72710 10053 21035 40106 51006 87200
333 56600 87820=
65352 32460 70000 10310 20247 39923 40100 82202
333 10/// 59028 82816 87076=
65361 11460 70000 10220 20211 39671 40114 60182 71595 8294/
333 10315 59009 82816 87362 82920 94968 94964 95838 95834=
65376 32460 70000 10270 20233 39644 40106 82232
333 10309 59018 82816 87076=
65387 32465 72210 10260 20237 30083 40111 83902
333 10297 59013 83813 81920 86073 94946 95836=
89009 41216 70114 11553 36789 51007 77773 87700 333
87705=
89002 42998 22614 11252 21294 39826 49878 52012 80005
333 99062=
61990 41470 31207 10214 20161 40183 70281 83800
333 10253 59002=
61995 42470 11411 10180 20146 39695 81200
333 10230 59007 91129=
61988 41330 81516 10210 20194 40144 76166 887//
333 10240 59022=
61986 41465 61814 10220 20211 40146 71582 85840
333 10240 59003=
61974 41330 81510 10233 20229 40124 78182 888//
333 10274 59004=
78705 31570 70306 10294 20246 30105 40121 58007 70544 82370
333 06700 10302 20237 30/// 58008 82922 87358=
78706 33562 73405 10299 20262 30126 40143 50004 84235
333 10299 20233 58008 84822 85075=
78708 33565 70804 10325 20211 30086 40116 58015 83236
333 10327 20234 58005 83820 86075=
78714 11562 73401 10267 20235 39701 40131 50000 69951 71552 83270
333 02220 10267 20207 30/// 58010  83828 87457=
78720 31565 70710 10253 20182 39028 40115 58005 70544 87260
333 02100 10253 20182 30/// 58012 87830=
78906 32580 40000 10315 20228 30128 40133 84401
333 10336 20237 59005 84824=
78905 11480 51208 10308 20244 30112 40128 69991 70182 85201
333 10315 20234 59013 85819 90910=
71825 11362 80906 10093 20093 39551 40215 57011 60041 75152 887//
333 10113 20075 70052 90987=
71964 32586 61510 10065 20030 39192 40029 57010 86500 333 10066 20020
70000=
71966 36/// ///// 10074 21032 333 10080 20031 70000=
71815 32574 62604 10181 20109 30250 40282 57006 81572 333
10183 20094 70000=
71894 36/// /1317 10122 20118 30148 40157 51016 333 10123 20110
70000=
71905 32974 61008 10161 20043 30104 40117 56041 80001 333 10161 20017
70000=
71473 17/// /2109 10127 20127 30155 40185 53012 60051 7//4/ 333
10140 20120 70072=
60351 31560 50000 10232 20211 40122 55001 70192 84880
333 10269 83826 83633 95900=
60425 32558 53510 10288 20177 40104 55006 83830
333 10326 83830 95990=
60430 32557 40812 10227 20178 40118 56006 82230
333 10298 82826 83360 95900=
60444 12670 40000 10234 20168 39101 48513 55005 60062 82202
333 10255 82833 83073 95900=
60467 12660 30000 10265 20196 40093 53002 60032 82202
333 10292 82833 95900=
60468 32965 20706 10266 20138 39202 48506 53001 80002
333 10289 82070 95900=
60515 31558 30000 10273 20175 40137 53006 72290 83202
333 10297 83830 95900=
60518 32460 60000 10234 20216 40111 55001 83232 222// 20000
333 10262 82710 83820 91806 95900=
91753 01360 80906 10249 20242 40123 52009 60161 76066 8692/
333 60027 82706 82913 88460=
91577 32770 10406 10182 20155 40139 55003 81500
333 56500 81656=
91579 16/// /0404 10227 20212 40131 55004 69921=
91582 32462 30804 10216 20197 40135 55002 83200
333 56200 83810=
91583 36/// /1702 10202 20187 40137 55003=
91587 16/// /0808 10216 20208 30095 40145 55001 60032
333 10231 20213=
91590 32670 40000 10168 20151 40143 55002 84500
333 56000 84640=
91592 32565 61210 10200 20190 40143 53001 81172
333 56266 81820 85363=
78397 31459 71520 10305 20216 30110 40126 71711 86902 333 06200
10329 20264 59002 84818 85920=
86011 31958 32316 10340 20164 40085 57033 70511 83070 =
86033 21565 80905 10274 20190 40084 57030 72522 8427/ 333 60021 =
86065 31460 60000 10226 20199 40163 58011 70522 885// =
86068 21460 72102 10248 20189 40103 57020 71022 87500 333 60021 =
86086 32570 81404 10242 20190 40119 57010 8457/ 333 84615 88454 =
86097 21558 70718 10182 20163 40131 57035 71062 84836 333 60271 84830
=
86192 21470 70908 10192 20172 40107 58039 70266 8257/ 333 60271 =
86210 21250 80912 10174 20168 40148 57018 75055 886// 333 60171 88704
=
86218 21365 80508 10200 20182 40139 57029 76166 8861/
333 60201 84708 86615 88457 =
86233 21265 80902 10194 20185 40127 57027 76066 8472/
333 60091 84704 88520 =
86255 21350 81408 10220 20202 40150 56004 76022 8557/
333 69911 85607 88457 =
86260 21250 80000 10190 20175 40138 56020 76366 8272/
333 60101 82707 88510 =
86268 21350 80000 10198 20183 40151 57010 76122 8657/ 333 60141 =
86285 31565 80908 10188 20174 40162 55004 70522 885// 333 88625 =
86297 21370 80908 10220 20188 40154 57005 70255 886// 333 69901 =
65306 32960 70000 10305 20268 39753 40099 80008
333 10325 59029 87276=
65319 31460 73404 10280 20222 39599 40091 71322 83902
333 10310 59029 83613 82930 85076 94942 95874=
65330 11560 71204 10255 20225 39661 40101 600032 79596 8397/
333 10322 59015 82823 82930 87461 94979 95873=
65335 11460 7//// 10258 20221 39871 40097 69912 79596 879//
333 10320 59011 87613 81930 94942 95834=
65344 32460 72212 10263 20236 30095 40105 83802
333 10291 59014 83616 85076 94906 95876=
71073 36/// /1003 10068 20012 39775 40195 51010 333 10073 20014
70014=
78866 31585 41108 10339 20269 30137 40141 57021 71511 84201 333 59011
84820=
51581 16/// /2100 11003 29082 35655 60001
555 1/130 2//00 /////=
12100 11460 71701 10129 20120 30109 40116 55003 69962 70282 873//
333 10154 20113=
12105 11950 81302 10129 20119 30076 40117 56006 60012 71062 8807/
333 10144 20119=
12135 11496 81203 10144 20142 30133 40136 56011 60032 76382 8552/
333 10151 20131=
12185 32970 41104 10125 20114 30027 40160 57007 82032
333 10162 20125=
12195 32570 71203 10143 20106 39950 40172 55009 875//
333 10172 20118=
12235 11496 81102 10102 20096 39923 40131 56004 60182 79186 889//
333 10136 20102=
12270 11550 71003 10134 20120 39965 40143 56008 69902 71022 875//
333 10169 20105=
12300 11558 61701 10113 20100 30028 40116 51003 60082 72982 864//
333 10147 20113=
12360 11496 81704 10133 20117 30012 40143 53002 60032 79592 889//
333 10158 20111 88916 91111=
12385 11597 81403 10143 20121 39975 40160 57003 69902 72511 889//
333 10175 20126=
12400 11570 42101 10108 20101 39894 40126 53003 60032 70181 83960
333 10143 20100=
12435 11540 61802 10130 20123 39966 40134 51004 60022 71098 85960
333 10181 20125=
12495 31596 31001 10137 20121 39874 40159 57004 71011 82501
333 10181 20104=
12520 12575 32403 10113 20070 39719 40145 52006 69902 81530
333 10149 20113=
12575 31556 71601 10157 20112 39902 40149 53001 71011 8353/
333 10211 20102=
12595 36/// /1002 10137 20123 39902 40167 54000 60062
333 10187 20105=
16622 32560 30000 10238 20204 30142 40147 56001 83100 333 10276
90730 91112 555 10000 40210 30000 10282 20284 30286 40282
50266 40000 47645 44280 50000 50216=
16641 32570 32804 10242 20161 30126 40131 53003 83400 333 10284 90730
91108 555 10000 40200 40000 47627 44230 50000 50192=
16682 32560 2//// 10230 20179 30114 40131 53004 82200 333
10300 90730 911// 555 10000 40186 30000 10282 20290 30288
40280 50270 60266 40000 47625 44275 50000 50198=
16716 32960 00000 10270 20210 30109 40126 53005 333 10318 555 10000
40240 40000 47622 44285 50000 50230=
16743 32965 00000 10248 20178 39944 40137 54000 333 10292 90730
91103 555 10000 40248 40000 47496 44265 50000 50204=
16749 32960 02508 10262 20184 30067 40080 52002 333 10292
90730 91115 555 10000 40260 40000 47586 44240 50000 50212=
16754 32965 03104 10250 20211 30078 40123 54000 333 10288 90730 91110
555 10000 40250 40000 47598 44270 50000 50224=
16650 32960 03606 10224 20179 30128 40133 55003
333 10254 90730 91112 555 10000 40224 30000 20284 30300 40292 50279
40000 47633 44270 50000 50196=
16732 32962 00214 10240 20197 30113 40124 55000 333 10258 90730 91124
555 10000 40238 40000 47622 44260 50000 50212=
71805 32482 52110 10155 20103 30282 40310 58005 83802
333 10164 20114 81818 84071=
16614 32570 12905 10214 20137 39384 40133 53006 81200 333 10278 90730
91114=
16627 32560 70000 10244 20135 30149 40153 56001 81238 333 10282 81825
84360 87270 90730 91110 555 10000 40224 30000 10238 20244 30240 40240
50243 60232 40000 47648 44265 50000 50180=
16667 32970 03004 10266 20178 30111 40117 53002 333 10300 90730 91110
555 10000 40234 30000 1//// 20262 30278 4//// 5//// 6//// 40000 47623
44280 50000 50210=
16675 32565 11105 10234 20190 30110 40130 53001 81100 333 10000
90730 91115 555 10000 40174 30000 10276 20282 30274 40266 50260
60253 40000 47618 44240 50000 50206=
16710 32560 10000 10210 20049 39400 40141 56002 81100 333 10322 90730
91108 555 10000 40120 30000 10266 20260 30256 40250 50240 60235 40000
47081 44220 50000 50128 70000 77/// 7/D//=
16723 32965 03612 10284 20125 30091 40100 55003 333 10306 90730
91127=
16738 32960 03307 10260 20182 39942 40130 56003 333 20224 30/// 90730
91111 555 10000 30260 20000 89040 99084 40000 47494 44255 50000
50210=
16746 32960 00000 10248 20199 39953 40127 55004 333
10320 90730 91107 555 10000 40248 40000 47505 44275 50000 50216=
51468 16/// /0700 11047 29085 36619 60001
555 1/123 2//00 /////=
82825 83072=
12160 11497 71003 10150 20124 30085 40136 57010 69962 70282 872//
333 10151 20120=
12210 11496 61701 10118 20114 30046 40113 57003 60032 71082 82538
333 10148 20110=
12230 11415 81402 10122 20115 30037 40126 55000 60092 71082 875//
333 10135 20114=
12310 11556 51701 10113 20106 30083 40112 55000 60042 71098 85400
333 10171 20108=
12399 32597 41403 10147 20118 30010 40174 53001 82408
333 10178 20127=
12418 11696 42002 10121 20116 30015 40127 53001 60052 72561 81930
333 10143 20120=
12469 11597 81601 10145 20121 39914 40139 55002 69902 70182 885//
333 10182 20095=
12488 31596 80902 10143 20131 39999 40150 56004 71022 885//
333 10192 20085=
12540 32997 62401 10130 20111 39900 40146 53004 85032
333 10194 20105=
12566 31945 20000 10136 20122 39864 40147 55001 71011 81031
333 10185 20094=
12625 32682 73502 10123 20106 39174 42788 57002 875//
333 10163 20044=
12690 32598 21501 10121 20090 39668 40168 56001 82400
333 10203 20076=
12115 11440 71302 10133 20124 30109 40122 55007 60032 78182 873//
333 10150 20124=
12125 11496 81903 10132 20116 30083 40132 57003 60072 78082 889//
333 10146 20124=
12200 11560 71701 10135 20126 30098 40105 53002 69912 78022 873//
333 10160 20108=
12272 32670 71103 10136 20113 39985 40149 56006 83532
333 10167 20115=
12280 32960 11303 10137 20107 30001 40159 57007 81032
333 10160 20127=
12285 16/// /2101 10137 20119 30048 40161 57002 69922
333 10170 20099=
12345 11560 71701 10127 20118 39995 40136 51012 60032 70298 879//
333 10173 20123=
12415 11598 71802 10118 20104 39982 40132 50003 60082 72582 8596/
333 10155 20117=
12455 11558 71301 10134 20122 39900 40140 53002 69982 72522 8293/
333 10197 20118=
12497 12565 61402 10149 20129 39958 40172 55001 69902 86500
333 10173 20126=
12530 11550 80000 10133 20116 39945 40140 53001 69912 71082 8157/
333 10196 20119=
12550 11560 61901 10141 20108 39790 40139 55000 60012 70182 84506
333 10183 20109=
12580 32760 31102 10137 20112 39918 40158 56002 83500
333 10209 20091=
12585 32697 71303 10156 20118 39894 40153 55002 875//
333 10192 20087=
12600 32670 62202 10144 20089 39676 40145 53002 865//
333 10196 20120=
12650 11/00 92207 10030 20030 37994 48491 54000 69942 78042
333 10032 20022 91117=
12660 32560 70000 10159 20106 39804 40151 55001 875//
333 10213 20047=
47101 32968 00201 10062 20038 30190 40284 58001=
47105 32565 22306 10087 20064 30249 40281 57004 82500=
47108 32977 00704 10123 20008 30164 40270 54000=
47115 32565 40505 10135 20065 39995 40258 55004 84500=
47133 32970 00904 10134 20045 30174 40256 55000=
47138 32668 20511 10175 20080 30255 40258 58002 82500 333 92044=
47159 32975 00509 10151 20077 30158 40240 53000=
47165 32970 00905 10158 20088 30188 40232 52007 333 92022=
47168 32968 00219 10161 20068 30159 40237 53002 333 92022=
47184 32670 50909 10197 20125 30196 40223 52004 85500 333 92055=
57007 70000 80/// 91751
333 10160 20101
555 781// 0/008=
57003 70000 85/// 91751
333 10175 20094
555 786// 81830 0/005=
41859 31930 00000 10275 20270 40074 70500 333 58005 70000=
41883 329// 00000 10274 02250 30052 40072 333 59001 70000=
41891 31950 00000 10260 20260 30037 40077 70500 333 59006
70000=
41907 329// 00000 10270 20250 30059 40077 333 58006 70000=
41923 32940 20000 10268 20250 30062 40072 82031 333 56099
59008 82362=
41936 31456 50000 10282 20270 40071 83830 333 56990 59001
70000 82615 84362=
41943 32950 21802 10280 20260 30072 40081 82030 333 56090
59006 70000 82362=
41950 324// 60000 10268 20260 30071 40075 83430 333 56990
58004 70000 83618 84362=
41978 31439 60000 10290 20240 40074 70542 8353/ 333 56999
59010 7//// 83615 85360=
41992 31950 00000 10270 20260 30063 40067 70500 333 59007
70000=
47090 32668 12503 10104 20063 30263 40284 58002 81500 333 92051=
47095 32966 00000 10065 20025 30097 40287=
47100 32570 21801 10062 20048 39291 40285 57004 82500=
47106 32665 32306 10090 20069 30234 40280 57005 83500=
47112 32968 00000 10122 20033 30185 40268 50001=
47114 32973 01101 10059 20029 30093 40278 58002=
47119 32975 00704 10110 20008 30229 40271 58001=
47121 32965 02001 10053 20042 39990 40281 55002=
47129 32965 00705 10103 20045 30224 40257 52004=
47130 32665 43608 10155 20056 30214 40273 53001 84500 333 92043=
47131 32965 00000 10103 20045 30193 40263 55001=
47135 32968 01105 10092 20048 39971 40268 57004=
47136 32968 00000 10071 20057 30099 40273 57003=
47140 32665 20717 10148 20063 30208 40244 52004 82500 333 92011=
47143 32968 03401 10130 20066 30191 40260 56002=
47146 32970 01104 10151 20056 30180 40246 52005=
47152 32570 63604 10158 20074 30210 40250 55002 86500=
47155 32565 03606 10159 20050 30244 40248 53002 333 92021=
47156 32965 00507 10139 20081 30151 40239 52007=
47162 32970 00208 10161 20077 30203 40241 53000=
47170 32662 61118 10163 20089 30191 40231 51003 86500 333 92033=
47185 32975 00911 10181 20128 30127 40211 52007 333 92033=
47189 32570 40510 10200 20141 30153 40213 58003 84200 333 92044=
47192 32978 03404 10135 20067 30228 40255 53001=
38353 429// 01891 10079 21002 40267 58006 333 10182=
38345 32998 00000 10063 20024 38865 48565 58002 4333 11888=
82640 82842 81072 91120=
15502 31998 80502 10194 20149 40166 56002 70222 8807/ 333 10205 555
88359=
15525 31597 63601 10171 20143 40168 58003 70122 83550 333 10240=
15535 31597 80000 10208 20136 40162 58003 69912 76086 885// 333 10248
=
15549 31498 80905 10195 20097 40169 57006 70322 883// 333 10231=
15552 31598 50504 10200 20160 40165 57002 70311 85004 222// 2//01 333
10254 555 92023 92428=
15614 11698 70000 10178 20136 39479 40155 54000 69902 70122 87800 333
10220 555 95000=
15615 31/91 92702 10032 20032 37171 47119 56000 74544 333 10045 555
95190=
15627 11/97 80000 10056 20038 37662 47119 56001 60092 70242 85330 333
10059 555 95100=
15640 31798 80902 10203 20140 40161 57002 70222 8252/ 333 10232 555
95000=
15655 11598 70510 10214 20149 40163 57002 69912 70222 87500 222//
00237 20602 333 10229 555 92035 92438=
15712 31698 20000 10200 20150 40143 55000 69932 70111 82100 333 10247
555 95000=
15730 31698 73604 10204 20150 40152 54000 70222 84550 333 10250 555
95000=
13160 32997 20000 10168 20072 30046 40151 56001 80001 333 10246=
13262 32998 70000 10174 20134 30016 40150 54000 80006 333 10242=
13272 32970 50902 10173 20157 30029 40150 52003 80001 333 10246=
13285 32698 61102 10172 20143 30074 40173 53001 86500 333 10219 91111
=
13289 11/90 91005 10116 20112 48511 54000 60012 74545 333 10132=
13376 32998 41402 10184 20156 39898 40150 50001 84030 333 10236=
13388 32698 50703 10196 20143 39912 40145 53005 85500 333 10272=
13462 32970 00000 10194 20135 30116 40159 55001 333 10260=
13489 32698 60000 10221 20072 39637 40129 54000 86500 333 10266=
26554 32960 80801 10099 20070 40248 57007 80007   333 10183=
26666 32960 81202 10114 20065 40262 57003 82051   333 10189=
26850 32965 01103 10136 20053 40226 57002   333 10192=
26863 32960 51102 10113 20068 40255 56003 80002 333 10187=
26941 32960 71504 10154 20081 40207 57010 87050   333 10189=
26951 32960 20903 10132 20062 40225 57003 80001   333 10201=
33008 32562 61602 10153 20115 40173 57001 86500 333 10178=
33036 32960 01001 10143 20046 40233 57003   333 10207=
33041 32965 20000 10132 20065 40254 57001 80001   333 10205=
16059 31656 30702 10180 20083 39799 40136 51001 71011 83500
333 10208 83640=
16080 32660 60000 10197 20109 30019 40139 51002 84530
333 10240 84640 83359=
16153 32497 52110 10182 20174 39897 40156 56003 85200 91745 333
10196 55300 85813 555 0214/=
16045 32562 6//// 10186 20159 30099 40162 56002 81270 91745 333
10214 55300 81830 85356=
16105 31519 61303 10173 20136 30148 40154 56002 71011 84830
333 10202 84825 84359=
16191 32960 01303 10182 20163 30141 40158 56004
333 10232=
16158 32865 43003 10200 20159 30151 40159 56007 84030 91745 333
10234 55305 84357=
16242 12970 02803 10188 20160 30147 40150 56004 60012
333 10231 555 0////=
16261 32965 01008 10202 20182 30079 40149 53001 91745 333 10264
55300 95000=
16320 32960 30000 10224 20182 30133 40144 56003 83030 91745 333
10270 83360=
16420 12697 22007 10246 20219 30071 40133 56005 60022 82200 91745
333 10272 55300 82835 555 0////=
16429 32964 43505 10256 20220 30122 40133 53003 80004 91745 333
10288 55300=
16470 32460 70207 10228 20200 39904 40132 53002 84508 91745 333
10256 55300 22/// 84615 95010=
16410 32460 51105 10232 20201 39997 40133 55002 85500 91745 333
10266 85618=
16560 32566 51508 10228 20207 30138 40144 56002 85800 91745 333
10268 55300 82825 83640=
16066 32960 00000 10158 20119 39899 40150
55001=
16084 32665 60000 10190 20130 39981 40142 53001 83530 91745 333
10228 83640 83360=
16120 32575 71305 10201 20163 30154 40157 53002 87800
333 10221 82822 85630 97075 555 0200/=
16090 31950 00000 10190 20141 30064 40144 56006 71000 91745 333
10222 55300=
16170 32560 22904 10213 20119 30100 40144 55004 82100
333 10247 82840=
16206 32970 02306 10206 20164 30146 40155 57006 91745 333 10250=
16289 32960 03005 10200 20154 30063 40146 53002 333 10256=
16460 32960 00507 10240 20218 30117 40137 56004
333 10290 95090=
16362 32560 30607 10235 20200 30118 40135 58001 81201
333 10272 81830=
16008 32571 40000 10110 20068 38519 48480 56001 84200 91745 333
10148 84825=
16020 32760 41907 10158 20099 39850 40134 52007 84800
333 10216 81850 83657=
16040 32665 50000 10138 20095 39254 42782 53006 85200 91745 333
10196 85835=
16110 32997 30503 10182 20128 30150 40154 56003 80001 91745 333
10212 55300 555 0100/=
16134 31/12 62107 10052 20052 37837 48507 56008 71011 86200 91745
333 10082 86800 95090 95190 444 78//5=
16149 31959 11204 10193 20167 30139 40154 56007 71011 81030 91745
333 10210 81359=
16181 32968 10000 10144 20040 39898 40141 56005 80001 91745 333
10238 55302=
16219 32981 03507 10118 20056 38150 48523 56002 91745 333 10148
55300=
16280 32998 03206 10200 20154 39940 40155 55009 91745 333 10224
555 0////=
16230 32965 20802 10197 20167 30145 40158 53000 80001
333 10233=
16252 32465 10000 10170 20150 39250 42807 55000 81100 91745 333
10220 55300 81815=
16270 32960 20901 10196 20144 30100 40151 54002 82030
333 10228 82360=
16300 32565 70302 10200 20139 39216 42813 56000 87800 91745 333
10248 83820 84625=
16325 32997 01904 10236 20202 30130 40144 56002 91745 333 10256
98265 555 0114/=
16360 32597 53404 10224 20184 30015 40145 56006 82530 91745 333
10254 55300 82630 84358 555 0////=
16400 32997 40109 10216 20189 39864 40144 56006 84030 91745 333
10256 55300 22/// 84362 555 0100/=
16453 32997 23103 10258 20212 30048 40123 57007 82040 91745 333
10310 55300 82359 98077 555 0100/=
16480 32497 30809 10250 20222 30070 40129 57007 83100 91745 333
10284 55300 83810 555 0////=
16061 32560 40000 10168 20108 39321 42775 56012 83530 91745 333
10196 55302 83630=
16076 32956 00000 10189 20088 39872 40146 53002
333 10212=
16114 31557 61204 10168 20168 39497 42783 55003 71011 83270 91745
333 10196 83825 84356=
16138 31956 01004 10200 20153 30137 40147 56006 71011 91745 333
10250=
16021 31/06 91810 10050 20048 37996 48506 53001 74722 91745 333
10098 89/02=
16022 31/00 92005 10036 20035 37863 48493 56001 74740 91745 333
10074 41002 55300 89/00 92855=
16033 11562 80909 10128 20078 38775 48491 53003 69922 76062 888//
91745 333 10156 83830 86640=
16088 31950 00704 10186 20107 30033 40147 55004 71010 91745 333
10225=
16094 31550 70000 10192 20150 30085 40147 56004 71011 87100 91745
333 10216 87830=
16098 31830 21202 10164 20120 30107 40157 53002 71011 82030 91745
333 10224 82358=
16108 32960 00000 10157 20130 30133 40153 53000
333 10211=
16140 31957 01009 10199 20140 30094 40143 55006 71000
333 10229=
16146 32997 01211 10190 20184 30147 40154 56002 91745 333 10222
98060 555 0////=
16179 32968 21505 10158 20139 39490 42790 58003 82040 91745 333
10220 82359=
40100 31956 00303 10266 20219 40085 53005 71044 918//
333 10292 92427=
40103 32965 00000 10241 20225 40092 53007 333 10293 555 10289=
17600 32962 00305 10234 20194 30072 40088 53002
333 10290=
17609 32960 03303 10254 20213 30080 40082 53007
333 10304=
33177 32581 71201 10148 20095 40180 56001 87900 333 10195=
33246 32965 00901 10126 20070 40247 54000 333 10211=
33261 32998 00702 10128 20053 40255 57002 333 10219=
33275 32997 50602 10132 20061 40257 57002 85030 333 10200=
33301 32997 21004 10117 20082 40201 56002 82030 333 10198=
33325 32997 09901 10122 20081 40225 54000 333 10200=
33377 32980 00601 10131 20062 40243 58003 333 10199=
33415 32697 71105 10140 20080 40185 54000 82530 333 10187=
33429 32997 40904 10125 20062 40200 57004 84031 333 10197=
33466 32989 01001 10110 20061 40229 57003 333 10202=
33526 32660 61204 10144 20093 40173 57003 83530 333 10194=
33562 32997 50903 10131 20038 40212 56003 85030 333 10203=
33614 32970 00802 10147 20051 40225 57004 333 10209=
33761 32983 00301 10142 20029 40210 57002 333 10213=
33889 32998 00703 10159 20104 40192 53001 333 10240=
33902 32998 00502 10161 20029 40189 54000 333 10225=
33983 32997 30802 10177 20138 40158 57001 83030 333 10216=
33990 32978 03001 10163 20125 40167 57001 333 10231=
34415 32997 01102 10134 20093 40240 57002 333 10215=
34523 32997 01003 10144 20048 40234 57002 333 10218=
34712 32598 70906 10185 20070 40191 57001 87900 333 10200 87915=
26231 32997 70904 10152 20091 40221 57002 87030   333 10193   555
50147=
40356 42960 02807 10270 21010 39127 48469 333 10350 58007
55113 555 04410 50042=
40357 42962 00504 10291 20010 39448 40046 333 10392 58015 55///=
40360 42960 02903 10260 20010 39503 40064 333 10370 59001 55111=
40361 42960 03006 10276 21020 39324 40052 333 10376 58012 55///=
40362 42962 00000 10315 20030 39551 40038 333 10417 58017 55097=
40373 42660 51516 10358 20060 39652 40038 85500 333 10448 58012
55/// 85635=
40375 42960 00000 10284 20050 39220 40051 333 10350 58000 55108=
40394 42662 30207 10326 20030 38986 48497 83400 333 10382 58005
55094 83640 555 04410 50035=
40400 42960 00504 10274 20250 30037 40064 333 10318 58011 55099=
40405 42960 00608 10340 20040 39341 40029 333 10430 58006
55///=
40416 41958 00911 10310 20250 30040 40059 70500 333 10405 58018
55///=
40420 42960 00604 10327 20150 39877 40072 333 10434 58016 55///=
40430 42660 53008 10350 20100 39371 40052 86930 333 10400 59004
55070 84645=
40437 42960 31504 10325 21020 39394 40046 83030 333 10415 58004 83360
=
40438 42960 01208 10350 20010 39396 40056 333 10420 58001 55100=
40439 42960 21902 10307 20280 30058 40070 82040 333 10370 58015
55/// 82360=
12570 32997 21302 10146 20117 39837 40145 56003 80008
333 10178 20084=
41024 42960 10000 10310 20260 30054 40073 81030 333 10370 58003
55092 81360=
41030 42960 53304 10340 20250 39797 40059 82032 333 10410 59002
55/// 82360 83070=
41036 42560 53112 10244 20170 38558 48503 81900 333 10350 58008 55076
81930 84358 555 04410 50064=
41055 42960 00000 10260 20130 38360 48502 333 10340 58007 55102
555 04410 50043=
41084 42960 00704 10290 21030 38835 48499 333 10376 58002 55108
555 04410 50046=
41112 42960 30000 10204 20161 37945 48500 83030 333 10298 58003
55095 83358 555 04410 50055=
41114 42560 12505 10216 20167 37984 48502 81400 333 10310 58009
55096 81625 555 04410 50049=
41128 42560 20906 10290 20000 38780 48498 82400 333 10360 58002
55105 82630 555 04410 50039=
41136 42960 00405 10330 20010 39274 40042 333 10410 58006 55102=
41140 42660 42404 10334 20270 30057 40065 81430 333 10387 58007
81630 83360=
17170 32970 00000 10152 20039 38345 48512 51005
333 10246=
41240 32960 30000 10320 20226 30091 40094 83030 333 10355 58035 8360=
41244 36/// /3604 10317 20087 39756 40111
333 0E034 10384 58029=
41246 32960 31105 10307 20223 30091 40096 82031
333 10343 58030 82360=
41256 32960 01203 10302 20219 30093 40102
333 10334 58033=
41288 32960 02006 10263 20222 30086 40108 333 10314 58010=
41304 36/// /1221 10236 20203 39782 40101
333 0E024 10312 58021=
41312 36/// /9902 10258 20220 30066 40107
333 0E/// 10286 58019=
41314 32960 01716 10234 20192 39605 40121 333
10323 58022=
41316 32562 32104 10266 20220 30080 40106 83500
333 10301 58020 83625=
11414 11765 89901 10096 20084 39428 42766 52001 60012 70382
884//
333 10124 88650
555 392// 50124 60126 70125 80127=
11438 11668 72603 10123 20082 39755 40143 58001 69912 70381 875//
333 10160 87635
555 376//=
11502 11687 72305 10115 20084 39683 40130 52003 60032 70198
81460
333 10142 81637 87357
555 381// 50131 60131 70131 80132 90140=
11538 11883 29901 10095 20079 39559 40158 53003 60032 70181
82040
333 10147 82358
555 12302 390// 50136 60133 70129 80135=
11628 11970 12202 10089 20074 39524 40152 57001 60042 70161 80001
333 10147 81070
555 391//=
11643 01456 79901 10058 20052 39190 42767 50004 60082 72998
872//
333 10092 60055 87813
555 12407 396// 50099 60103 70101=
11683 11682 22104 10079 20071 39293 42779 55001 60022 70281
82400
333 10132 82640
555 12004 395//=
11693 11868 42404 10115 20087 39680 40155 53005 69912 70181
84040
333 10184 84358
555 12608 383// 50142 60141 70137 80133 90141=
11698 11980 22403 10112 20084 39756 40157 50009 60032 70298
81031
333 10182 81360
555 383// 50142 60142 70140 80138 90144=
11710 01465 72403 10106 20089 39545 40150 53004 69982 78082
84271
333 10153 69985 84815 83360
555 389// 50135 60142 70130 80125=
26645 32997 21003 10131 20076 40217 57003 80002   333 10189=
26659 32997 31402 10133 20068 40250 57004 80002   333 10186=
26763 32960 00000 10103 20062 40257 57009   333 10188=
26825 32960 61304 10152 20097 40171 57007 86030   333 10181=
26832 32960 71003 10152 20082 40201 57003 8707/   333 10172=
26887 32961 01001 10098 20070 40266 57013   333 10204=
26961 32962 21103 10126 20061 40242 54000 82030   333 10196=
33027 32965 61302 10134 20068 40229 53005 80006   333 10206=
33345 32977 00000 10140 20058 40237 56002 333 10213=
33631 32997 40000 10134 20111 40164 57001 80001 333 10216=
33135 32997 21002 10134 20073 40240 56002 80001 333 10212=
33924 32973 00905 10162 20107 40194 54000 333 10215=
33711 32960 20303 10136 20029 40222 57004 82030 333 10212=
33019 32960 70802 10149 20120 40201 54000 87030   333 10209=
37549 42697 70603 10158 20076 40246 51003 86370=
60390 32450 60406 10235 20216 40119 58003 82682
333 10269 82713 83358 95900=
60402 32457 30803 10232 20214 40122 54000 82230
333 10255 82816 95910=
60419 11665 20000 10202 20184 40130 55000 60182 70298 81530
333 10250 81646 95900=
60475 31660 41004 10230 20177 39221 48518 58003 70192
82202
333 10306 82846 83073 95900=
60490 32459 43610 10235 20205 40116 56001 82502
333 10270 82616 83073 95990=
60525 32657 52607 10341 20164 40090 55006 83930
333 10373 81933 95900=
60531 32960 63607 10229 20201 40124 55000 83082
333 10286 84360 83073 95900=
60571 32960 52010 10338 21021 39194 48492 56010 84082
333 10347 84360 95900=
60580 32960 00000 10373 20141 40075 57013
333 10401=
60590 32958 12512 10355 20/// 40100 53001 81030
333 10397 81360=
60611 32960 02204 10373 20001 40104 53003
333 10420=
60656 32960 02922 10314 20099 40111 53002
333 10345=
40155 32660 33304 10266 20222 30067 40077 52004 83100 333 10302=
40180 32960 03303 10266 20213 30035 40081 52010 333 10319=
40199 32965 00206 10335 20075 30061 40064 52012 333 10381=
12215 16/// /9902 10115 20109 39958 40134 57002 60062
333 10131 20109=
60445 12560 20000 10216 20157 38985 48513 55001  60052  81932
333 10240 81930 95900=
60511 32560 33312 10247 20154 39036 48501 53005 82280
333 82826 95900=
60535 11565 51205 10216 20147 38820 48499 53001 69952 72996 83901
333 10290 81826 83930 95900=
60549 32556 53506 10276 20060 38843 48491 56003 83280
333  10288 83830 83360 95900=
60550 31670 32404 10272 20003 38653 48501 55002 70200 83100
333 10298 83833 95900=
60555 32960 00000 10320 20201 40099 56004
333 10366=
60559 32960 30000 10340 20186 4//// 56009 80002
333  10368 83073=
60560 31660 32008 10294 20051 38910 48474 56008 70200 81200
333 10322 83840 95900=
60607 32960 02612 10365 20007 40083 54000
333 10402=
60620 32960 32713 10380 2//// 40094 55003 80002
333 10415 83075=
10215 87823 91108=
16648 32960 00805 10238 20167 30043 40129 55002 333 10304 90730
91110 555 10000 40214 30000 10270 20276 30274 40262 50262
60258 40000 47569 44260 50000 50194=
16643 11565 32606 10226 20188 30138 40142 55002 69912 76111
82250 333 10272 90730 91119 555 10000 40216 40000 47640
44260 50000 50202 60000 60001 60015 70000 77R// 7////=
16684 32960 00205 10234 20203 30084 40110 57020
333 10250 90730 91108 555 10000 40230 40000
47600 44260 50000 50214=
40706 32662 31003 10186 20051 38666 40138 52018 81430 91745 333
55106 21645 81635=
40718 11560 60000 10180 20170 30254 40223 54000 60331
72166 82770 91750 333 55009 82720 86459 =
40732 32560 72402 10182 20158 30235 40215 54000 83570 91750
333 55002 83630 87459=
40745 32660 22004 10142 21040 39096 40224 52011 82400 91750
333 55089 22081 82640=
40754 32960 01204 10200 20056 38869 40173 52017 91750 333 55090=
40766 32960 00000 10224 20055 38693 40100 52021 91750 333 55086
21887=
40800 32960 00000 10202 21029 38481 40126 52028 91750 333 55104
22174=
40811 31957 21402 10336 20159 30050 40076 52014 70511 80030 91750
55088 82360=
40841 12660 73604 10170 20104 38294 40133 52022 69931 86330 91750
333 55072 21892 83935 83640 83360=
40848 32660 33005 10242 20050 38526 40079 52020 81230 91750 333
55096 81835 82360=
40856 32960 00000 10172 21025 38672 40150 51012 91750 333 5570
21900=
40875 31940 01802 10304 20241 30085 40097 52021 70510 91750
333 55088 21841=
38613 429// 00202 10127 20050 40232 52003 33310 221=
36911 429// 00902 10071 20025 39303 40267 52003 333 10197=
36974 329// 00000 10060 21041 38018 48538 54000 333 10160=
36982 429// 00000 11096 21140 36590 47176 54000 333 11025=
28679 319// 09901 10040 20033 40265 52006 71011   333 10128=
28766 32997 00000 10085 20061 40258 53011   333 10139=
28867 32598 20000 10081 20050 40273 52009 82500   333 10151=
28952 325// 60000 10111 20102 40289 52003 86500   333 10160=
28966 325// 20000 10092 20071 40271 52005 82500   333 10137=
34691 32998 00000 10155 20046 40265 5/006   333 10246=
35108 32997 00000 10111 20082 40285 52004   333 10214=
35217 32997 00501 10135 20027   333 10223=
35302 329// 00000 10136 20050 40278 54000   333 10236=
35394 11996 72501 10066 20057 40257 52005 60030 71082 86031   333
10115=
35406 32997 00000 10143 20027   333 10234=
35497 11598 80000 10056 20040 40265 51001 60020 72582 889//   333
10104=
35671 32698 22501 10104 20051 40275 52010 82500   333 10213=
35700 32998 03101 10134 20076 40264 52007   333 10245=
35796 32884 70303 10122 20053 40257 52004 87040   333 10149=
36152 125// 82802 10090 20067 40233 52003 69900 885//   333 10150=
36428 126// 70502 10092 20041 40261 58005 69960 85540   333 10136
95090=
36639 329// 20000 10036 20026 40281 58002 82030   333 10167=
36859 32999 03402 10078 20051 40283 58005   333 10196=
36864 32984 00000 10079 21002 40270 53005   333 10195=
38222 32997 00000 10084 20027 40267 54000   333 10210=
38341 32997 01902 10081 21007 40252 58004   333 10211=
38343 32997 00000 10066 21028   333 10197=
16734 32565 43210 10252 20157 30067 40127 51003 81242 333 10290
30/// 90730 91115 555 10000 40248 40000 47589 44260 50000 50194=
47401 41/70 72806 10109 20006 30179 40192 53008 70282 8227/=
47412 41/60 61803 10076 20061 30185 40217 51008 78082 86200=
47420 41/65 13015 10084 20046 30138 40185 53018 702// 81600=
47426 42980 00302 10043 20012 30171 40217 53017=
47582 41965 01204 10071 20039 30213 40239 51013 70281=
47590 42980 20108 10095 20045 30174 40227 51015 80002=
47600 41/70 60316 10156 20052 30217 40234 50002 725// 86200=
47648 41/60 80327 10161 20134 30153 40186 53013 78088 888//=
47662 41/57 80408 10153 20126 30151 40194 51011 76166 885//=
47678 41458 80521 10194 20186 30045 40139 51013 78022 882//=
47740 42/70 50307 10160 20067 30202 40240 53004 85200=
47778 41/50 80106 10166 20143 30073 40161 50012 7808/ 882//=
47807 41/65 60307 10193 20113 30189 40206 51003 70381 86230=
47827 41/65 83610 10219 20160 30109 40145 50004 7258/ 8527/=
47843 42970 00217 10198 20113 30155 40186 51001=
47898 41/60 80314 10220 20139 30120 40158 50004 7808/ 8527/=
47909 42/60 11503 10244 20219 30102 40110 56005 81100=
47918 41/65 60110 10261 20224 30085 40093 56011 72582 86200=
47936 41/80 40308 10254 20225 30033 40093 56010 72581 83230=
47945 41/60 80604 10247 20238 30070 40093 56006 72582 8727/=
47971 42/80 31202 10263 20240 30105 40114 56005 83102=
47991 41/82 20920 10278 20242 30090 40100 55002 72581 82200=
47407 42/60 41001 10026 20023 30078 40223 51009 84600=
47409 41/75 22709 10068 20023 30140 40193 52017 70281 82200=
47418 42980 02705 10081 20003 30152 40200 51018=
47421 41/70 73108 10114 20051 30175 40221 53005 7808/ 872//=
47430 42/70 10303 10045 20017 30174 40228 52007 81200=
47570 42965 22804 10106 20058 39965 40222 53010 82030=
47575 42/70 21903 10065 20024 30230 40234 51008 82200=
47585 42975 02905 10094 21005 30169 40226 51006=
47598 41965 80108 10130 20077 30203 40209 53020 72582 8807/=
47602 41/65 70607 10135 20061 30214 40234 52004 72511 872//=
47605 41/70 70411 10144 20079 30188 40228 51010 78082 872//=
47618 41/65 73207 10112 20077 39492 40207 52005 70282 872//=
47624 41/65 73209 10150 20080 30057 40192 51005 70282 878//=
47636 41/80 63308 10165 20099 30107 40173 51007 70282 81231=
47655 41/57 80510 10177 20150 30107 40162 51013 78088 882//=
47663 41960 72504 10166 20153 30136 40168 53004 7028/ 8707/=
47675 41465 80519 10156 20136 30079 40173 52009 7808/ 882//=
47741 41/70 70411 10171 20088 30201 40227 52002 70282 872//=
47746 41/70 60309 10172 20075 30204 40222 51005 70282 862//=
47750 41/62 70216 10181 20089 30187 40213 53006 70282 872//=
47755 41/70 70609 10159 20121 30198 40222 53002 7026/ 87200=
47772 42/70 60104 10181 20110 30099 40196 53008 86200=
47800 42/70 23407 10184 20084 30205 40227 56003 82230=
47815 42/70 23608 10196 20106 30186 40201 51008 82100=
47817 42/65 10306 10195 20110 30138 40179 53005 81100=
47830 41/60 70408 10216 20130 30144 40161 53003 70282 8117/=
47837 42/80 20417 10239 20176 30109 40130 54000 82200=
47887 41/65 13606 10180 20099 30152 40192 50003 70181 81100=
47891 42/70 70107 10191 20121 30190 40202 51005 872//=
47899 41/80 70420 10194 20136 39945 40162 50011 72582 8427/=
47927 41/65 50314 10268 20224 30041 40087 56013 70281 85200=
12510 11/90 92212 10024 20024 38325 48445 56008 60072 74598
333 10039 20007=
41598 32404 10275 20245 40079 57018 70200 83200
22244 20301 324// 40702 80253=
10401 70006 80108=
62120 21184 99564 10021 46598 /0110 10119 20099 40179 57001 22200
80108=
62103 21184 99499 70029 46/97 /0806 10153 20110 40183 57006 22200
00167 10901 70004 555 05111 07082 10032 11041 12453 13467 14634
15587 17088 18007 19008 35084 36014 70001 72031 73147 74019 75542
76401 80104 05112 07081 10034 11041 12453 13467 14728 15587 17088
18007 19008 35077 36014 70001 72032 73147 74019 75530 76406 80151=
62301 21183 99523 70045 46/// /0203 10148 20146 40181 22200 00160
10600=
81200 22262 04157 20201 325// 40704 80139=
11021 12436 13438 14800 15591 18005 19001 22165 23024 35038 36009
50053 51287 52005 53255 70001 71000 72410 73131 74012 75460 76900
80083=
80002 22254 00170 20502 308// 40802 5//// 80154=
72784 73132 74012 75443 76900 90011 05412 07204 10023 11037 12413
13436 14703 15593 18007 19007 22175 23024 35056 36034 50056 51599
52009 53530 70001 71000 72752 73134 74012 75440 76900 80001=
80001=
80022=
22282 04282 2//// 8////=
84132
22284 00200 00000=
11302 70012 333 91204 555 11026 22027=
48820 11598 72301 10270 20238 30096 40104 52006 69901 70281 878//
333 58008 82895 87697=
48826 31496 80202 10256 20251 39966 40095 58006 71092 83208 333
58011 83894 87299=
48839 32498 70510 10265 20243 30030 40094 58006 81108 333 58009
81894 87299=
48845 11498 80000 10267 20253 30085 40092 56004 69931 71798 889//
333 58002 85894 88995=
48870 32498 20201 10250 20237 30082 40089 58010 81101 333 58007
81894=
48877 32798 50000 10254 20235 30073 40078 57015 82508 333 59012
82697 85299=
48887 11598 72702 10247 20232 30083 40089 57019 60021 70262 878//
333 59003 82895 87697=
48920 32598 72705 10273 20243 30063 40063 58008 878// 333 59010
82895 87696=
72681 22262 00013 2//04 326// 4//06 86051=
84200 22234 00220 20302 314// 40403 80180=
48803 32497 80000 10261 20250 39990 40101 50004 888// 333 58001
83894 88696=
48806 31698 20000 10216 20208 39352 40113 58004 71311 82900 333
58001 82996=
48808 32498 81602 10245 20227 39828 40107 58004 888// 333 58002
82894 88696=
48823 11497 80000 10251 20238 30090 40093 56005 60061 70298 884//
333 58014 86894 88696=
48830 11497 83201 10228 20224 39822 40125 50006 69931 76162 888//
333 58021 85894 88696=
48840 32497 80902 10249 20240 30095 40101 58001 888// 333 58011
83894 88696=
55299 32980 00000 10046 21006 35921 57001 333 00000 10170=
55472 32980 00000 10073 21059 35805 52003 333 00151 10165=
55279 32880 12208 10083 21089 35773 54000 81400 333 00100
10152=
56106 32980 00000 10055 20040 36276 52001 333 00000 10165=
10249=
10325=
10264=
61970 36/// /2314 10242 20203 30138 40150
333 10284 58002=
61972 36/// /1712 10223 20152 30156 40164
333 10263 59016=
61976 32460 41417 10237 20190 40166 84200
333 10272 58000 84815 924/7=
61980 32465 31210 10209 20163 40182 83800
333 10256 59002 82816 924/7=
91945 36/// /1312 10229 20157 30190 40195 51023
555 1//25 58024=
13585 12698 30000 10196 20128 39376 40131 56002 69922 83500 333 10263
94061=
13598 42698 60000 10163 20134 48504 53002 86500 333 10205 94012=
64700 42962 62604 10290 20245 39748 40083 86052 91755
333 10343 58003 86075 86365 83075=
64750 32562 60000 10270 20242 39695 40103 81302 91755
333 10308 58003 82620 86075 81950 94944 95834=
65338 32460 72006 10270 20234 39916 40105 83802
333 10312 59012 81613 83826 85076 94939 95819=
67161 32980 00000 10220 20220 30116 40125 52011
333 10281=
61085 32960 70000 10297 20247 39/// 4//// 83048
333 10360 5//// 83364 86280=
61091 32965 70000 10313 20228 39643 40090 81038 91745
333 10365 59023 81364 87280=
67765 41960 00605 10188 20113 38669 48512 70500 333 10272 58000=
67775 41965 00406 10201 20082 38511 48515 70500 333 10262 59008=
67779 42975 03301 10204 20133 39064 48520 333 10295 59006=
67853 42975 10205 10207 20118 38920 48496 81400 333 10318 58002
81660=
67867 42980 01402 10170 20090 38586 48513 333 10308 59010=
67881 41970 00501 10178 20100 38594 48521 70500 333 10295 59012=
67965 42975 01209 10209 20103 38686 48514 333 10329 59025=
67975 41958 01102 10195 20110 38930 48521 70500 333 10283 59018=
67977 42980 01005 10220 20138 39677 48545 333 10300 59018=
67983 41950 00606 10159 20116 38909 48528 70500 333 10226 59019=
67991 42980 01403 10237 20113 38617 48509 333 10286 59019=
71877 32986 72006 10115 20051 38866 40113 57003 86072 333
10118 20053 70000=
85041 31450 53608 10337 20218 39860 40168 57022 70422 84204
333 56700 58012 84817 85070=
85043 31557 83605 10305 20223 39942 40102 57028 70422 8353/
333 56200 58004 83620 87358=
85104 31840 43004 10334 20221 39952 40109 57018 70420 84030
333 56000 58014 84358=
85114 31550 63406 10342 20232 39949 40103 57019 70422 83204
333 56700 58009 83820 85070=
85123 31556 83210 10325 20220 39950 40114 57018 70420 83207
333 56700 58017 83820 88270=
85140 11556 60000 10272 20228 39884 40128 57024 60011 70422 83550
333 56000 58028 83625 86358=
85141 11456 61810 10262 20225 39933 40164 57025 60041 70462 81130
333 56330 58031 81820 86357=
85152 31458 82503 10238 20202 39915 40136 57015 70422 86507
333 56707 58031 86617 88270=
85154 31550 63008 10330 20224 39927 40104 57025 70421 84202
333 56707 58015 84823 84075=
85201 31570 51509 10128 20028 36292 57016 71511 84332
333 56500 58012 83820 81923 85070 91021=
85242 32584 13002 10162 20007 36530 57022 81200
333 56800 58017 81820=
86330 32997 70107 10271 20168 40144 57012 80008=
86360 32997 61104 10286 20172 40150 57007 80006=
86460 32998 60816 10262 20162 40155 57005 80006=
86560 32997 31211 10196 20133 40175 58016 81041=
86565 31497 60906 10214 20161 40194 57014 70342 85405=
86580 31396 61312 10158 20136 40182 57012 71122 82606=
64601 11560 82404 10224 20207 38995 48505 69962 71796 8397/
333 10278 59003 83926 87464 94949 95839=
64605 31560 50000 10235 20208 39362 40100 71392 82963
333 10306 58009 82826 81933 83365 85080 94967 95877=
64650 31660 50000 10270 20231 39683 40092 71322 81902
333 10325 55081 58001 81940 85080 94944 95834=
64655 11960 0//// 10236 20222 39449 40091 60012 70191
333 10300 58000=
64659 32960 70000 10222 20207 39385 40100 8707/
333 10250 58010 87365=
83377 31697 20508 10266 20055 38864 40112 70544 81405 333
59003=
83378
32970 20000 10284 20088 38963 48516 80001 333 59007=
83362 31559 82306 10352 20177 40090 70511 83234 333
59002=
83768 32570 10224 20137 39518 40171 56005 86230=
83840 32570 71011 10178 20105 39170 40213 57014 84503=
83899 32570 60507 10235 20170 30200 40206 58023 84101=
83971 32970 70808 10263 2//// 30169 40174 56021 80008=
83721 31565 72704 10274 20120 39410 40149 56019 70522
84206=
83722 31959 81105 10253 20154 39450 40147 56012 70522
8802/=
83780 32557 51607 10229 20134 39274 40170 56018 82502=
83818 32570 71212 10242 20179 30182 40185 56020 86501=
83827 21258 81107 10176 20162 39885 40165 56013 76166
8662/ 333 60121=
83248 32470 51608 10273 20234 40163 85200 333 58001=
83349 32570 51612 10249 20185 40172 82230 333 59005=
83497 32570 11510 10260 20178 40183 81100 333 59002=
82287 32595 23611 10302 20224 30042 40068 82200 333 58004=
82392 32499 50900 10356 20168 39878 40079 83230 333 58001=
82398 32570 10816 10303 20219 40105 81100 333 59003=
82400 32470 41510 10280 20221 40123 84100 333 58003=
82493 32599 10516 10340 20196 30081 40095 81100 333 58002=
82579 32670 41708 10358 20165 40080 84100 333 59005=
82583 32599 40908 10349 20143 39754 40087 84200 333 59001=
82599 32570 31619 10280 20173 40126 83200 333 58006=
82678 32596 51405 10370 20181 39948 40102 85200 333 59006=
82686 32598 41409 10356 20125 39843 40085 84200 333 59001=
82689 32598 50907 10352 20155 39829 40090 85200 333 58001=
82780 32698 31409 10346 20134 39861 40109 82220 333 59001=
82789 32599 31406 10254 20157 39005 40117 82260 333 58007=
82791 32599 51408 10332 20117 39822 40104 85200 333 58006=
82795 32597 21408 10278 20137 39519 40135 82100 333 58007=
82879 32598 61407 10342 20161 39825 40087 86100 333 59008=
82886 32699 51411 10309 20187 39738 40118 83340 333 58005=
82893 32798 6//// 10240 20199 39221 40122 86400 333 58002=
82899 32570 61610 10282 20194 40136 86200 333 58002=
82900 32597 61808 10281 20206 30126 40135 85420 333 58006=
82975 32595 61808 10391 20183 39719 40089 83523 333 58008=
82976 32596 50908 10328 20153 39516 40092 85200 333 59009=
82983 32595 50513 10273 20182 39709 40126 85200 333 59001=
82993 32570 60908 10282 20226 40140 85230 333 58008=
82026 32598 50906 10326 20184 39709 40093 85200 333
59001=
82193 21550 50308 10264 20264 40100 71761 85900 333 58010
60071=
89022 41999 80707 11298 21334 39879 49921 54000 70232 80007
333 88265=
33815 32998 01001 10173 20061 40196 54000 333   10214=
45011 42462 61110 10269 20234 40121 57010 8313/
333 58036=
71949 46/// /1205 10044 20016 39206 =
71950 11480 71309 10106 20090 39465 40081 51009 69941 70362 87800
333 10113 20072 70114 90963=
71951 11259 81605 10106 20091 39819 40081 53009 60011 72165 8757/
333 10106 20085 70138 90983=
85196 31520 60000 10315 20256 39544 40104 57021 70422 86200
333 56700 58012 86820=
85207 31558 43408 10335 20191 39636 40105 57040 70410 84200
333 56800 58007 84820=
85223 32684 60208 10250 20069 37490 47134 57028 83301
333 56607 58020 82836 81940 83070=
85245 31550 63508 10310 20192 39630 40098 57030 70421 84230
333 56490 58032 84820 86357=
85247 31556 42815 10375 20166 39778 40097 57034 70421 83201
333 56700 58013 83820 84070=
85268 31530 52716 10356 20176 39787 40083 57039 70422 85200
333 56600 58008 85823=
85283 32584 30310 10185 20084 37190 47125 57029 83200
333 56100 58018 83823=
85289 11540 53610 10335 20217 39906 40062 57029 60011 70486 85200
333 56700 59002 85825=
85293 32584 33605 10136 21014 36343 57018 83200
333 56000 58009 83820=
85315 31658 71804 10290 20133 39226 40103 57028 70422 87800
333 56800 58061 87836=
85345 31558 21806 10342 20196 39607 40117 57043 70400 82100
333 56400 58037 82823=
85364 31570 21513 10238 20107 38120 48253 57036 70421 82200
333 56000 58028 82833=
85365 31556 31806 10292 20145 39408 40122 57025 70400 83500
333 56400 58063 83623=
71809 32574 72210 10186 20110 30246 40273 58007 82570 333 10191 20061
70000=
61627 31562 50000 10288 20246 30077 40100 7179/ 84970
333 10340 58015 84820 81930 83363 94935 95875=
61630 32460 40000 10328 20234 30087 40106 85273
333 10345 58009 81615 83930 94949 95839=
61641 32462 61808 10302 20250 30080 40112 84232
333 10326 58010 84813 83363=
61679 11565 72212 10276 20268 30121 40129 60012 71792 8497/
333 10330 58028 82930 87363 94941 95811=
83334 32598 21802 10308 20102 3//// 4//// 82100 333 5////=
83383 32997 21404 10322 20108 3//// 4//// 80002 333 5////=
83384 32998 00902 10316 20102 39555 40129 333 59003=
83386 32598 13203 10314 20127 39586 40130 81104 333 59008=
83388 32597 30000 10284 20131 39439 40110 83100 333 59001=
83437 31598 21804 10295 20061 39407 40124 70400 81106 333 59005=
83442 32597 31404 10286 20125 39799 40146 81182 333 58001=
83479 32997 30508 10291 20126 39340 40132 80001 333 59024=
83483 32998 01402 10304 20128 39545 40125 333 59006=
83488 32596 21402 10233 20097 39149 40162 82200 333 58001=
83492 32598 33603 10264 20145 39782 40169 83200 333 59005=
83514 32498 60501 10313 20144 39443 40120 85260 333 58003=
83531 32597 30502 10280 20131 39088 40130 82201 333 59007=
83543 32696 60902 10268 20149 30016 40186 86490 333 59004=
83574 32694 60000 10324 20131 39505 40113 59013 86090=
83579 32598 40901 10260 20168 38995 40120 84100 333 59001=
83587 32698 60505 10223 20098 39155 40172 84400 333 59007=
83592 21598 60504 10234 20138 39483 40168 70352 83240
333 59008 69941=
83595 32597 60902 10272 20156 30086 40171 84435 333 59012=
83687 32698 50905 10246 20115 39140 40146 58014 85200=
83692 32399 40000 10210 20134 39139 40186 58014 84300=
82979 32498 30000 10315 20156 39665 40126 83200 333 58019=
82986 32497 61409 10298 20162 39835 40120 83280 333 58010
83076 32597 40905 10340 20237 39616 40111 81150 333 58007=
83096 21695 61406 10259 20214 30143 40150 70066 84101 333 58010
60091=
83097 21597 71407 10252 20211 30126 40149 702/6 84520 333 59013
60031=
83179 32598 50507 10332 20138 39648 40092 85200 333 58006=
83182 32597 81410 10249 20147 39304 40140 885// 333 58004=
83186 21597 71410 10238 20175 39600 40145 71586 87700 333 59005
69911=
83190 21497 81404 10212 20205 39744 40166 70265 8572/ 333 58021
60061=
83195 21598 61408 10246 20201 39914 40152 70362 84210 333 58009
60021=
83229 32596 61405 10246 20207 30103 40163 86500 333 58000=
83236 32598 51406 10336 20114 39599 40082 85200 333 59005=
83242 31496 81803 10250 20164 39648 40145 705// 887// 333 58001=
83244 21497 80910 10260 20184 39862 40147 70352 887// 333 59010
69911=
83286 32598 31408 10317 20116 39458 40104 83100 333 59003=
83288 32598 61401 10313 20130 39614 40123 84220 333 58006=
83339 32497 41405 10250 20101 39158 40134 84200 333 58001=
83344 21498 81410 10193 20161 39192 40171 70252 885// 333 58003
69921=
83398 32596 51806 10260 20189 30173 40179 82540 333 59005=
83408 32598 21404 10315 20124 39605 40106 82200 333 58006=
89050 41498 82628 11043 21089 49792 53016 70282 885//
333   91118=
89512 32999 01810 11187 21301 39662 49816 58002 333 11160=
89592 41971 61433 11203 21260 49767 58028 73632 86030=
89606 42970 52306 11717 21742 36097 47814 52008 80008=
58011 83894 87299=
58001 82996=
30372 42984 83201 10024 21025 40030 57012 8807/=
30433 42699 62602 10076 20011 40128 52013 82930=
30554 429// 02403 10082 20013 40066 52007=
30635 418// 62702 10102 20073 40146 52004 70162 86050=
30673 42999 60000 11007 21025 40079 57028 83041=
30692 42999 30504 10004 21010 40085 57032 82031=
30758 42984 80000 10110 20053 40090 53017 82031=
30802 42799 82801 10026 20023 38715 48510 52004 84531=
30823 41684 73202 10094 20046 40177 52014 70182 8595/=
30935 42999 51502 10107 20030 40160 52026 83042=
30949 42999 82801 10144 21012 40088 57013 8801/=
30965 42984 82106 10148 21027 40086 57019 80002=
31300 42984 70000 10025 21018 40119 58051 87030=
31329 42999 000401 110520 21059 40201 57010=
31369 42998 03502 11029 21042 40143 57009=
31416 42999 01502 11025 21031 40157 57006=
31510 429// 01501 10034 21030 40166 57026=
31735 42997 02605 10020 21029 40195 55000=
38149 42998 09902 10141 20059 40242 57006   333 10230=
38178 429// 03406 10149 20046 40245 52001   333 10225=
38262 329// 03602 10128 20017 40252 53003   333 10235=
38264 35998 00102 10129 20015 40263 52005   333 10239=
38396 42997 33602 10106 20032 40271 52016 80001   333 10226=
38413 429// 01401 10136 20000 40251 54000   333 10225=
38457 32998 00501 10128 21002 40220 54000   333 10236=
38462 42997 00000 10056 21055 38810 48552 52006   333 10205=
38583 42997 02902 10127 20046 40222 54000   333 10244=
38611 42997 03603 10123 20038 40221 83004   333 10244=
38618 329// 01201 10117 20062 40206 57002   333 20236=
38683 42997 03204 10146 20009 40224 52004   333 10241=
38812 42997 00702 10135 20051 40211 58007   333 10245=
38927 32997 02203 10146 21009 40203 50005   333 10250=
10193=
10320=
48327 32660 60000 10252 20232 39730 40085 85546
333 58002=
48353 32560 40000 10245 20230 39799 40087 82535
333 58000=
48356 01958 60000 10248 20239 39894 40090 60023 71096 80006
333 58002 60027 70021=
48375 32560 60000 10250 20241 39858 40083 83536
333 58003=
48378 32560 80000 10270 20254 30031 40083 85876
333 58008 70162=
48407 32560 70000 10267 20248 39943 40085 84146
333 58010=
48431 11558 70000 10252 20239 39872 40086 60053 71096 85606
333 58001 70049=
48456 01560 80803 10242 20236 30081 40095 60033 76096 83877
333 58004 60095 70034=
48480 31558 80000 10270 20256 30077 40081 71022 86576
333 59006 70013=
48500 32960 10000 10263 20226 30079 40085 80001
333 59001=
48551 11557 80000 10244 20232 30089 40097 60013 71022 83557
333 59008 70012=
48565 32560 60000 10260 20246 30086 40090 81146
333 59002 70065=
48569 32560 40000 10261 20239 30061 40101 81101
333 58000=
48583 01556 80000 10237 20228 30102 40103 60123 71096 83876
333 58007 60017 70122=
38403 429// 00000 10194 20032 40250 54000   333 10229=
38579 329// 00000 10108 20043 40217 57002   333 10225=
12500 11560 21501 10091 20083 39727 40139 52003 60042 72581 81560
333 10144 20088=
61024 32665 51410 10376 20027 39515 40060 81182
333 10406 59011 81840 84080 94908=
61036 32965 6//// 10350 20221 39831 40063 80008 91745
333 10376 59038 86280=
61045 32960 7//// 10317 20187 39590 40075 82038 91745
333 10390 59015 82364 86280=
61049 32960 70000 10300 20193 39765 40083 82048 91746
333 10390 58001 82364 86280=
61052 32960 32606 10345 20213 39820 40067 80002
333 10366 59032 83080=
61075 32965 70000 10349 20215 39764 40065 80008
333 10381 59029 87280=
61080 32960 70000 10322 20228 39646 40057 80008
333 10352 59022 87280=
61090 32965 60000 10326 20211 39574 40072 81042
333 10370 59017 82364 85080=
61096 32960 70000 10295 20235 39706 40081 81048
333 10355 59015 81365 85280=
61099 32965 7//// 10316 20240 39/// 4//// 80008
333 10348 5//// 87280=
48303 01560 63003 10216 20205 39653 40101 60363 79592 84936
333 58013 60366 70371=
48328 01560 80000 10241 20233 39814 40092 60023 70262 84576
333 58007 69927 70020=
48330 11462 60000 10239 20236 39907 40094 60123 70396 86700
333 58006 70116=
48354 31460 70804 10264 20238 39882 40085 71722 84976
333 58004 70007=
48377 11560 80000 10245 20232 39926 40091 60013 70262 84536
333 58004 70013=
48379 32560 80000 10260 20251 39939 40072 83876
333 58011 70002=
48400 31560 70000 10263 20249 30042 40082 71322 85943
333 58006 79999=
48432 31559 40000 10275 20265 39918 40085 71300 82943
333 59003=
48455 11560 80000 10249 20239 30084 40089 60113 70292 84846
333 59001 70106=
48462 11559 40000 10268 20247 30035 40090 69903 71361 84903
333 58000 79999=
48475 32562 20000 10266 20226 30070 40082 81205
333 59004=
48477 31560 70000 10278 20258 30063 40077 71322 82946
333 59014 70051=
48517 32560 60000 10244 20226 30091 40096 81246
333 59001=
48310 31958 20000 10242 20232 39634 40084 71020 80005
333 59002=
48325 11220 80000 10241 20231 39854 40098 69913 71096 886//
333 58008 70001=
48329 31560 70000 10255 20240 39748 40084 71322 84906
333 59004=
48352 01410 80408 10243 20236 39900 40101 60183 79510 8597/
333 58007 60185 70212=
48380 32560 40000 10256 20247 39998 40093 81135
333 58016=
48383 31560 40000 10250 20242 39923 40081 70196 82506
333 58003 70071=
48405 32960 30000 10260 20249 39922 40085 80005
333 58005 70072=
48421 31557 80000 10250 20235 39983 40097 71022 83246
333 58001=
48426 31560 80000 10264 20241 30069 40082 71322 82976
333 59001=
48430 31557 80000 10259 20226 30077 40085 71020 84576
333 58000=
48459 32562 70000 10280 20236 30065 40067 83506
333 59031 70010=
48550 01440 80000 10255 20237 30087 40094 60283 76199 8322/
333 58004 60057 70280=
48552 32560 60000 10260 20238 30086 40093 82846
333 58006 70004=
48568 31460 80000 10270 20242 30094 40102 71321 82977
333 58003 79999=
44218 329// 00000 10063 21090 38604 40215 54000=
44232 329// 20000 10083 20027 39089 40183 52007 82040=
44237 32999 50000 10082 20023 38492 40165 52002 83043=
44239 326// 73205 10055 21048 38756 40174 51006 87500=
44241 329// 43600 10128 20061 39218 40144 52027 84400=
44256 32999 42708 10156 20027 39279 40087 57019 84072 333
91012=
44265 32999 22705 10066 20000 38969 40300 51010 80004=
44282 32999 70000 10095 21002 38305 40152 52004 87010=
44298 328// 61803 10112 21012 38699 40132 57014 86070=
44302 329// 03204 10091 21030 39081 40138 57030=
44313 32999 31805 10094 21117 39382 40189 57013 83070=
44314 32998 00000 10099 21090 39141 40186 57014=
44336 329// 70000 10152 21019 38662 40106 57010 87010=
44341 32599 61102 10135 20029 38589 40125 58012 84540=
44347 32999 50000 10159 20032 38694 40110 58007 85010=
48416 31560 60703 10267 20250 39935 40082 71722 84963
333 58003=
48418 31530 80000 10260 20251 30018 40074 71322 82963
333 58001 70005=
48460 31558 60000 10274 20254 30052 40083 71022 82906
333 59010=
48461 32562 60000 10270 20241 30011 40080 84576
333 59007 70002=
48478 32960 7//// 10282 20248 30077 40082 86056
333 59007=
48501 01558 80000 10256 20247 30081 40089 60113 71792 84977
333 59004 69907 70109=
48561 31458 20000 10249 20237 30098 40102 71000 82205
333 58005 70064=
48564 32560 60000 10260 20234 30096 40096 82246
333 59005 79999=
48570 31558 40000 10266 20234 30094 40102 71011 82106
333 58004 =
48580 01420 80000 10252 20241 30088 40095 60033 76162 86847
333 59004 60037 70029=
44214 32998 12702 10019 21054 38332 40068 52001 81040=
44259 32998 42303 10120 21094 39295 40164 57018 84040=
44277 326// 60000 10056 20005 37847 40196 58004 84550=
44292 32/// 60000 10139 21014 38670 40109 57011 80008=
44304 329// 72305 10114 21005 38968 40137 57021 87010=
44373 32999 00902 10150 20088 38528 40127 56004=
38954 329// 00000 10145 20014 48510 52011 333 10017=
23914 32998 62707 10146 20098 40225 57006 86070   333 10178=
23921 11584 82603 10159 20086 40191 56001 69900 70282 87900   333
10180=
23955 42784 82303 10052 20040 40122 58010 885//   333 88650=
23966 41496 82702 10064 20057 40109 58007 78082 889//=
28255 32970 02403 10096 30076 40218 57007   333 10166=
28440 32997 02902 10105 20064 40261 54000   333 10161=
28661 32960 32203 10084 20064 40260 54000 81031   333 10160=
28722 32963 00000 10093 20078 40291 57001   333 10158=
29231 42498 22601 10060 20046 40149 58005 82300=
29313 41598 82603 10074 20065 40166 53001 70282 889//=
29612 42998 62302 10058 20044 40213 52011 86030=
29634 42657 82103 10076 20065 40200 54000 85301 333
85933=
29838 41697 61902 10076 20056 40231 52004 70262 86500=
36061 41697 80000 10065 20058 40247 54000 78082 889//=
23909 32998 62604 10130 20094 40240 57005 80001   333 10196=
28116 32997 02502 10122 20094 40260 57001   333 10195=
28240 32598 53203 10119 20045 40253 57002 85500   333 10168=
28419 32996 00000 10072 20064 40282 57001   333 10177=
28621 32998 00000 10110 20080 40291 54000   333 10153=
29023 41596 82702 10052 20038 40129 52002 71081 82531=
29122 41499 52503 10067 20056 40144 54000 72582 85500   333 85615=
29328 41598 82002 10066 20059 40174 54000 70282 8493/=
29348 41997 42601 10071 20064 40168 54000 70282 84030=
29405 42597 62403 10064 20035 40200 58001 85330=
29418 42998 82303 10073 20045 40189 54002 8805/=
29430 41698 80000 10070 20056 40174 54000 72581 885//   333 88638=
29524 41998 00000 10045 20040 40190 54000=
29605 42598 82902 10069 20043 40219 52005 885//=
29631 41597 22002 10071 20062 40191 54000 70181 82900=
29706 42699 32701 10063 20052 40225 52012 83500=
29736 42598 22301 10071 20053 40215 58001 82500=
29937 42997 02202 10065 20049 40231 58017=
36034 41997 22202 10080 20058 40233 58002 70281 82030=
36096 42998 02201 10030 20003 40257 52005=
28216 32998 02301 10130 20099 40268 53003   333 10174=
28321 32999 02002 10118 20061 40274 57002   333 10180=
28428 32980 01601 10081 20061 40283 57002   333 10165=
28451 32997 00000 10094 20068 40241 57003   333 10166=
28537 32997 00000 10073 20058 40286 58001   333 10136=
28541 32982 00000 10049 20040 40281 52002   333 10152=
28615 32965 00000 10082 20076 40289 52001   333 10167=
28642 32997 22705 10087 20064 40271 58004 80001   333 10147=
28925 32997 70000 10084 20058 40290 52001 80002   333 10177=
29557 42998 02206 10078 20036 40190 58002=
29625 41998 32302 10064 20055 40203 52002 70281 80001=
29642 42960 82404 10062 20046 40202 58003 8807/=
29813 42999 82101 10054 20049 40219 52011 8805/=
29822 42997 00000 10060 20034 40210 52001=
29846 41597 81802 10057 20050 40221 58011 70282 8595/   333 85926=
29915 42499 62602 10068 20059 40210 52006 86900   333 86911=
48425 31960 80000 10268 20245 30074 40084 70292 84276
333 58005=
48450 01560 80000 10260 20254 30053 40086 60073 72196 8657/
333 59001 60027 70070=
38565 329// 00000 10105 20017 40220 51003   333 10223=
37395 32997 50915 10201 20064 40170 52005 85030   333 10250 91120=
37553 329// 00000 10105 2//// 4//// 5////   333 10170=
30469 426// 80000 10040 20003 40031 57013 84542=
30650 42984 72304 10078 20025 40101 52003 82041=
30664 42999 32303 10099 20043 40050 57014 83040=
30781 42599 70000 10002 21009 40091 57024 87900=
30844 42699 82705 10092 20041 40149 52018 8352/=
30925 415// 83502 10082 20053 40177 52018 72582 889//   333 88929
91115=
31371 429// 00000 10013 21022 40118 57032=
31594 42965 00802 10011 21031 40212 57011=
31754 42999 00000 11060 21069 40231 53004=
44210 32999 01802 10034 21078 38360 53012=
44217 32998 02703 10015 21071 37925 40102 53010=
44229 32999 72703 10065 21006 37951 40178 58001 87010=
44242 329// 80210 10116 20051 39277 40141 52026 8807/=
44254 329// 62704 10141 21041 38991 40093 58018 86070=
44257 329// 72309 10151 21030 38938 40111 57020 87070=
44263 32998 02703 10016 21112 38110 40272 52002=
44266 329// 72703 10052 21038 37823 40210 52003 87070=
44291 32998 00000 10118 20035 38699 40149 52017=
44325 329// 50000 10135 20062 38829 40139 54000 84054=
44374 32599 62703 10137 20015 38275 40122 56002 82542=
44385 32999 02710 10139 20088 38897 40152 57007=
28748 32966 00000 10077 20040 40281 52007   333 10158=
26898 32970 21302 10125 20056 40268 57004 82030   333 10186=
26997 32970 01101 10105 20050 40274 57012   333 10198=
27595 32997 02104 10122 20094 40290 58001   333 10190=
27612 319// 60000 10123 20102 40288 57002 71022 86030   333 10202=
27703 32963 30000 10088 20077 40292 56004 80001   333 10193=
27707 32975 00000 10096 20055 40288 57004   333 10183=
27719 32997 70000 10112 20090 40285 56004 87030   333 10205=
27786 32997 00000 10105 20093 40292 53001   333 10205=
27906 32960 00602 10131 20062 40282 57004   333 10195=
27928 32966 00000 10106 20074 40280 57001   333 10196=
27947 32697 40000 10150 20095 40273 57010 84500 333 10206=
27962 32997 60000 10110 20084 40285 53001 86050   333 10210=
27983 32969 03201 10112 20094 40289 53001   333 10211=
28506 32997 70000 10118 20094 40289 54000 87050   333 10186=
28711 32997 30000 10101 20074 40296 52001 82031 333 10170=
28807 32997 00000 10070 20056 40294 52003 333 10215=
34009 32997 40701 10125 20056 40273 57003 84030   333 10191=
34123 32982 20000 10136 20076 40280 57003 82050   333 10203=
34152 32570 70801 10138 20095 40278 54000 8657/   333 10207=
34172 32960 09902 10148 20085 40280 56001   333 10200=
34186 32980 00302 10131 20064 40283 53001   333 10215=
34247 32968 00901 10104 20059 40263 54000   333 10220=
34336 32998 00201 10138 20058 40260 57002   333 10215=
34391 32997 00701 10126 20081 40277 53002   333 10219=
35121 32975 20000 10139 20074 40281 52005 82030   333 10211=
22113 11358 80403 10070 20064 40164 58004 60122 78182 889//   333
10126 86707 91006=
22217 32574 73301 10111 20085 40173 58002 82530   333 10179 91002=
22235 32981 72204 10119 20078 40154 57008 83031   333 10171 91006=
22349 32970 02704 10079 20064 40171 57012   333 10130 91006 91114=
22408 32599 32001 10125 20082 40215 57001 83500   333 10180=
22602 32976 02202 10127 20056 40227 57005   333 10169=
22721 32998 02601 10122 20056 40251 53006   333 10193=
22802 32984 02001 10100 20094 40266 56003   333 10181=
22820 32984 02301 10110 20053 40269 57003   333 10206=
26059 32997 01201 10099 20081 40253 57006   333 10198=
26063 32997 01401 10126 20074 40264 57004 333 10197=
26094 32976 00601 10076 20061 40280 58012   333 10203=
26258 32970 21601 10119 20101 40248 57011 80001   333 10196=
26298 31996 00000 10102 20085 40280 57002 71000   333 10194=
26477 32970 01501 10095 20076 40260 57004   333 10192=
26585 32997 00000 10102 20064 40282 57002   333 10190=
26702 31996 88001 10134 20118 40149 57012 71022 85050 333 10164=
26781 32997 31101 10104 20068 40273 57003 80001   333 10194=
27402 32997 20000 10107 20085 40285 57005 82030   333 10198=
22028 11478 80804 10067 20058 40175 54000 60052 78082 889// 333
10121 91006=
22106 11357 80301 10080 20076 40149 58012 61022 76186 8872/   333
10146 86708 91002=
22127 32480 72801 10099 20089 40153 54000 86930   333 10163 85628
91003=
22324 32684 72403 10129 20092 40181 57006 83501   333 10168 91006
91110=
22621 32982 02403 10110 20056 40245 57008   333 20184=
22831 32998 00000 10087 20070 40266 57007   333 10207=
22892 32998 01201 10127 20062 40251 57004   333 10185=
26275 32997 00000 10084 20073 40272 57003   333 10208=
26389 32997 01401 10100 20064 40277 57003   333 10194=
26695 32997 01201 10085 20070 40289 57007   333 10184=
26882 32984 01301 10107 20071 40280 57004   333 10190=
21908 42599 61701 10016 20002 40096 57004 865//=
25173 11396 83006 11011 21015 40102 54000 69942 77175 887//   333
21020 42012 85709 91108=
25551 11496 81801 10004 20004 40057 52008 60012 76162 8272/   333
20004 55000=
25563 32599 83305 10014 21011 40059 53006 885//   333 20010 55018=
31054 42699 80000 10025 20002 40082 57009 8753/=
31123 42599 60000 11017 21026 40114 56002 86500=
48331 31556 70000 10245 20237 39862 40092 71021 84576
333 59001 70001=
40703 32660 30000 10156 20068 38925 40147 52015 83400 91745 333
55105 83640=
40712 32960 00000 10146 20100 38695 40125 53007 91750 333 55104
21713=
40729 32660 11003 10140 20064 38374 40156 53013 81400 91745 333
55108 21988 81640=
40736 32560 10000 10202 20154 30242 40215 50003 81400 91750
333 55053 81630=
40739 32965 00000 10134 20066 38718 40200 51012 91750 333
55037=
40743 32665 10000 10180 21023 39091 40205 51008 81500 91750
333 55065 81640=
40762 32660 40904 10144 21104 38605 40193 52015 81570 91750
333 55099 81640 84360=
40768 11557 73307 10150 20076 38318 40192 52040 69921 79710 87900
91750 333 55087 22278 84930 86460=
40769 42660 30000 10158 21031 38340 40161 52022 83400 91750 333
55097 83640=
40785 32662 20000 10212 20060 39075 40154 53013 82500 91750 333
55095 82640=
40821 32660 12705 10214 21012 38816 40147 51021 81400 91750 333
55098 22903 81635=
40831 32960 01602 10304 20264 30065 40073 52010 91750 333=
25703 42699 73601 11036 21050 40078 58005 82531=
25913 42699 10403 10005 21009 40090 57007 81500=
25954 42999 20602 11002 21026 40108 58004 82030=
31829 42998 02907 10064 21035 40184 57001=
31873 42998 02703 10013 21029 40242 53003=
31909 42998 03001 10015 21017 40226 53001=
31960 42998 03502 10080 20004 40271 51002=
32053 42597 63003 10033 21002 40117 57006 86500   333 86630=
32061 42464 81502 10028 20015 40146 57001 889//   333 88917=
32098 42984 03002 11001 21016 40139 52002=
32150 42696 60000 10008 20005 40179 52011 86500=
32165 42599 43010 10097 20032 40164 53018 82101   333 91018 91118=
32215 41495 81507 10097 20093 40014 57030 76162 8872/   333 91010
91111=
32389 42999 22801 11002 21005 40090 58008 82030=
32583 41497 80000 10066 20059 40051 57022 78082 889//=
28879 329// 30000 10079 20065 40271 52004 83040   333 10118=
29802 125// 82702 10086 20067 40230 52008 69950 885//   333 10145=
29807 12997 03201 10069 20046 40239 52010 69950   333 10132=
35067 329// 00000 10076 20058 40280 52008   333 10155=
35078 32770 73002 10075 20059 40283 52006 87500   333 10139 87656=
35085 129// 83402 10068 20047 40276 52009 60040 8805/   333 10111=
35188 125// 73201 10079 20088 40273 52011 60010 87500   333 10123=
35229 32997 00601 10111 20055 40274 52008   333 10221=
35376 32598 20000 10050 20033 40271 52006 82500   333 10129=
35416 32997 00502 10148 20040   333 10230=
35532 32998 00000 10108 21017 40272 52005   333 10229=
35925 329// 00000 10130 20019 40267 51002   333 10252=
36003 11596 50000 10078 20074 40237 52011 60020 71082 85900   333
10130=
36208 125// 81803 10074 20036 40250 58008 69930 883//   333 10083=
36397 316// 82002 10104 20043 40237 58011 78082 883//   333 10135=
36535 115// 50000 10042 20027 40279 53001 60010 70166 85020   333
10129=
36821 32998 00000 10086 20009 40266 57003 333 10208=
36870 329// 01301 10098 20023 40258 58008 333 10178=
38001 32997 00705 10178 20139 40250 57006   333 10213=
38196 32998 02904 10134 21036 40244 54000   333 10166=
38198 329// 00201 10132 21012   333 10237=
38232 32998 00000 10128 21005 40265 56008   333 10230=
38328 329// 00703 10110 21019 40229 58005   333 10233=
38334 32998 01202 10116 21030 40241 54000   333 10225=
38439 32998 03602 10160 20043 40220 58001   333 10231=
28978 12998 00000 10016 20011 40291 52005 69930   333 10127=
28984 129// 50000 10065 20037 40277 52007 69940 85030   333 10105=
35173 11998 20000 10064 20055 40278 52010 60010 70181 82040   333
10127=
28049 329// 71903 10128 20080 40207 57023 87050   333 10166=
28319 32998 00000 10111 20095 40275 57002   333 10176=
28334 32998 00000 10082 20058 40269 58002   333 10161=
28434 329// 00000 10065 20056 40286 52003   333 10159=
28552 32998 02701 10080 20065 40263 58003   333 10191=
28825 32997 20000 10084 20062 40296 52002 80001   333 10172=
29111 41598 72601 10066 20030 40156 52003 70282 85901=
29602 42584 82402 10061 20045 40222 52011 885//
333 88625=
29636 42598 62102 10070 20052 40199 58001 86500=
29654 41499 82202 10058 20039 40205 58003 78082 889//   333 85712=
29712 42998 52503 10070 20070 40214 51004 85070=
29724 42997 82102 10058 20046 40218 52005 8805/=
29726 41598 62402 10082 20073 40209 54000 70281 86300
333 85647=
29814 42699 82801 10074 20058 40229 51006 885//
333 88634=
29827 42997 01302 10064 20057 40230 51002=
29923 42999 01901 10050 20050 40226 52002=
29939 41497 52202 10078 20041 40241 53004 70182 85300=
35026 32997 00000 10066 20028 40303 52005   333 10168=
35037 32980 20000 10115 20074 40277 52005 81031   333 10189=
36021 429// 22601 10071 20064 40229 52001 82032=
36022 42998 82002 10063 20052 40234 50000 8807/=
36038 41998 00000 10071 20058 40242 58002 70281=
36058 42699 70902 10077 20034 40255 58004 87900=
29467 42698 72205 10073 20032 40185 58004 87500=
30157 41697 83207 10045 20040 40089 52018 78082 8797/   333 87940=
30439 42598 80401 10065 20049 40154 52015 889//=
30879 42999 81802 10078 21060 40104 57027 80003=
38062 32997 00000 10126 21017   333 10233=
35969 329// 00000 10126 21007 40256 52001   333 10226=
35746 32998 00000 10131 20002 40258 52003   333 10246=
35953 329// 20000 10105 21038 40263 52002 82002   333 10224=
35849 32998 00000 10103 20027 40266 54000   333 10233=
38069 329// 01103 10127 20030   333 10231=
34560 32997 40705 10145 20036 40259 57001 80001 333 10210=
34824 32597 60704 10184 20090 40172 54000 86400 333 10230=
34858 32965 01204 10170 20073 40217 53002   333 10237=
34880 32997 01101 10111 20082 40260 52001 333 10229=
37018 32998 20502 10819 20144 40154 54000 82030 333 10250=
37054 31950 51202 10129 20076 40198 53002 70422 85030   333 10219=
37472 32980 01307 10192 20110 40204 54000   333 10218 91012 91114=
34240 32972 80904 10155 20073 40267 53001 83031 333 10224=
34357 32998 00802 10145 20041 40261 54000 333 10219=
34363 32998 00000 10159 20050 40273 53002 333 10215=
34545 32998 20603 10144 20036 40241 53001 80001   333 10221=
34579 32998 =
34759 32998 21204 10146 20034 40237 53005 82040   333 10226=
34838 31697 60702 10195 20071 40183 57001 70282 86500 333 10229=
34929 32964 00605 10172 20089 40157 57004 333 10234=
34954 32698 20903 10180 20078 40198 57003   333 10234=
37031 32997 50903 10192 20070 40174 57003 82034 333 10242=
37085 31996 00705 10179 20103 40224 53001 70230   333 10234=
37145 32998 30703 10162 20104 40196 53001 83030 333 10230=
37171 32996 30703 10176 20149 40153 54000 80001 333 10253=
23226 11332 81903 10036 20034 40065 58018 60060 76362
885// 333   10099 86708=
23606 32960 82702 10159 20082 40177 58003 8805/ 333 10194=
23701 32984 22402 10141 20100 40205 54000 80001 333 10215=
26167 31959 00000 10079 20073 40270 57003 71011   333 10190=
27857 32997 70000 10146 20104 40284 54000 87030   333 10211=
28909 32999 00401 10101 20074 40291 53002   333 10203=
37061 32980 61003 10168 20090 40209 52002 80001   333 10236=
42101 32996 03202 10252 20219 40069 333 58008=
42111  32996  00501  10228  20179  39317  40071
333  58010 =
42131 32996 03203 10296 20188 40065 333 58008=
42165 32996 00000 10294 20155 40069 333 58009=
42182 31995 00000 10262 20197 40066 70500 333 58004=
42189 31995 00000 10180 20227 40063 70500 333 58004=
42328 32996 01801 10300 20114 40076 333 58015=
42339 31995 00000 10284 20192 40079 70500 333 58008=
42348 21596 00000 10290 20169 40072 70500 333 58003=
42452 32996 12702 10318 20182 40073 81030 333 58003=
21802 41584 61402 10017 20003 49995 57005 70282 82540=
24125 41497 81001 10029 20016 40015 57010 76162 8872/   333 86712=
24143 42599 82303 10018 21007 40066 54000 887//=
24266 42998 00000 11075 21081 40077 54000=
24329 42998 80000 10021 21001 40054 53002 8802/=
24639 42699 80901 10037 20011 40042 57000 8555/   333 85631=
24641 414// 80000 10043 20018 40055 57008 78082 883//   333 88918=
24656 42999 80701 10002 20002 40085 58012 8802/=
24671 42999 80000 11025 21051 40091 55010 8705/=
24688 42999 02301 11170 21176 40170 57004=
24724 42999 02502 10037 20027 40039 57007=
24738 42998 41201 11001 21007 40043 57009 80001=
24923 41598 89901 10051 20044 40048 54000 78082 8695/   333 86930=
24944 42599 80402 10018 21029 40043 57018 8251/=
24951 42999 20000 11014 21044 40063 57014 82040=
24959 80501 10022 20014 40067 57009 885//=
24966 41483 81801 10018 20015 40076 57013 889//   333 88914=
25400 41495 11009 21011 40097 54000 77378 8872/   333 86710=
30054 41498 83002 10026 20023 40079 52006 78082 889//   333 82713=
30393 42599 82105 10039 21057 40055 57032 82931=
30493 41599 80000 10013 21016 40073 57034 70282 889//=
31004 42999 81702 10046 21067 40044 57025 86037=
31137 42999 20000 11126 21126 21140 40172 56010 80001=
48601 11562 73202 10260 20247 30101 40104 69901 70162 82542
333 82625 87078=
48615 11562 81903 10245 20241 30099 40105 60041 8457/
333 84620 88469=
48620 31560 70000 10241 20237 30091 40100 71022 82548
333 82634 83364 87276=
48657 31560 70103 10246 20231 30081 40099 83541
333 82626 86078=
48665 32564 70301 10250 20238 30083 40093 82542
333 82632 86364=
96413 32565 70000 10242 20233 30073 40099 82531
333 82622 85365 85080=
96421 32465 71407 10251 20241 30078 40114 8357/
333 83615 87365=
96441 32468 70904 10256 20242 30095 40100 82531
333 82616 83365 86080=
96449 11465 71404 10250 20243 30072 40092 60011 70262 8357/
333 83614 87365=
96465 11458 80410 10248 20242 30046 40079 60181 76562 86878
333 84810 83640 87279=
96471 11465 81104 10240 20231 30091 40094 60081 83848
333 81814 83635 88275=
96481 32462 50000 10241 20229 30069 40092 81841
333 81817 85080=
96491 32465 73202 10254 20233 30080 40093 84842
333 83816 87078=
47058 42966 01102 10107 20062 30239 40286 52004=
47008 42970 03402 10068 20019 30228 40278 54000=
47016 42970 00000 11012 21042 39407 40254 58008=
47020 42965 00901 10025 21005 39939 40321 52009=
47025 42960 03202 10099 20038 30237 40266 57009=
47035 42970 00202 10089 20025 30266 40274 52001=
47041 42970 00202 10076 20061 30262 40289 57003=
47055 42965 00901 10084 20064 30247 40292 57001=
47069 42965 00501 10138 20058 30161 40258 52003=
45007 32566 71007 10280 20229 30100 40109 58011 8213/
333  58037 82825 86359 =
84270 22274 04293 20101 307// 40703 80235=
53898 32962 83203 10161 20129 40268 57008 8807/ 333// 10185=
53986 11956 82701 10166 20136 40256 57009 69901 72160 8802/
333// 10172=
57051 11956 81105 10136 20123 40262 57009 60111 76066 8802/
333// 10148=
57067 11440 80000 10134 20127 39585 40254 57005 60031 76066
8777/ 333// 10154=
57071 11920 80401 10130 20121 40269 57004 60031 76060 8802/
333// 10147=
57083 11950 83001 10153 20147 30133 40268 57005 60011 76160
8802/ 333// 10166=
57178 11920 80404 10161 20152 30093 40250 57008 60011 76066
8807/ 333// 10193=
57193 11360 83602 10169 20162 40247 57004 60011 76066 8772/
333// 10204=
57290 11960 83402 10167 20162 40244 57003 69971 72160 8802/
333// 10212=
57297 11759 83402 10174 20164 30097 40234 57003 69921 76060
885// 333// 10220=
58208 11960 80000 10195 20184 40228 57005 69911 70060 8807/
333// 10227=
50349 32970 20000 10011 21017 40128 57028 80002 333 10151=
91652 16/// /1110 10231 20222 40141 69945=
91659 11598 80000 10231 2022/ 40135 5//// 69901 78028 8787/
333 5699/ 82828 86650 88361=
91660 36/// /0612 10252 20227 40125=
91670 36/// /0706 10251 20245 40126=
91676 16/// /0412 10237 20210 40140 69925=
91680 11698 80000 10228 20213 40128 53002 69901 70262 8587/
333 5699/ 82830 84650 87462=
91683 31598 83305 10222 20211 40140 53005 70312 8587/
333 5699/ 83822 84650 88461=
91691 16/// /0509 10231 20230 40140 60095=
91697 36/// /0704 10242 20241 40137=
91699 16/// /0312 10236 20235 40153 69945=
61996 36/// /3221 10115 20056 40215
333 10127 59041=
61997 16/// ///// 10015 21058 39851 40031 69922
333 10050 58107=
61998 16/// /2725 10013 21043 39848 49884 53028 69942
333 10084 59117 91145=
64450 32559 52010 10293 20186 39743 40094 85900
333 10329 59011 85623 81930 94941 95831=
82863 31597 50000 10343 20198 39872 40079 70420 85200 333 59002=
83064 31596 31403 10362 20178 39826 40090 70540 83200 333 59009=
83228 31799 43604 10362 20136 39823 40098 70500 83260 333 59004=
83235 32698 40000 10322 20134 39438 40100 84200 333 59002=
83332 32798 30000 10304 20104 39227 40125 82130 333 58001=
83368 31696 50902 10364 20144 39723 40098 70544 83204 333 59007=
83374 32598 32304 10344 20115 39527 40090 83100 333 59011=
83376 31597 53606 10311 20093 39275 40076 70541 81104 333 58003=
83423 31697 23202 10321 20117 39296 40106 70540 82100 333 59010=
83470 32898 40904 10324 20126 3//// 4//// 82034 333 5////=
83522 31998 20904 10289 20118 39268 40113 80544 80002 333 59006=
83526 32998 40504 10299 20099 39184 40114 80008 333 59004=
83264 31797 80504 10336 20189 3//// 4//// 70544 8521/ 333 5////=
83309 31594 83210 10262 20198 39790 40111 72911 8622/ 333 58012=
83358 31597 83608 10317 20177 39690 40085 70942 885// 333 58028=
83361 31598 63606 10332 20197 39911 40111 70544 84572 333 59004=
83405 31697 53203 10364 20236 39947 40077 70544 85500 333 58003=
85892 32980 82605 10082 20047 40121 52008 8802/
333 56069 88530=
68180 32980 00512 10234 20103 39547 48528 53006
333 10274 2//// 555 91016=
68272 42682 60000 10201 20082 39083 48522 56008 86400
333 10259 2//// 555 91018=
68322 32987 00000 10193 20163 39147 48508 56012
333 10245 2//// 555 91016=
68362 42680 81805 10111 20085 38542 48544 53019 8527/
333 10200 2//// 555 91023=
68400 42669 50000 10188 20168 30114 40188 52027 85400
333 10293 2//// 555 91018=
68416 42984 02304 10200 20092 39042 48520 52012
333 10245 2//// 555 91018=
68478 42570 70000 10186 20105 38898 48534 52004 875//
333 10246 2//// 555 91020=
68488 42680 40000 10171 20142 39304 48537 53019 84070
333 10268 2//// 555 91020=
68496 42970 00516 10200 20167 30051 40175 56010
222//
333 10245 2//// 555 91017=
68524 42986 02706 10190 20147 39070 48515 53008
333 10241 2//// 555 91017=
68530 32980 00000 10142 20016 39138 48601 53018
333 10252 2//// 555 91029=
68546 42989 21805 10155 20126 38648 48497 53002 82080
333 10215 2//// 555 91017=
68570 42970 02310 10157 20121 38546 48536 55009
333 10250 2//// 555 91022=
68580 41110 81305 10157 20147 38985 48542 51009 71042 886//
333 10223 2//// 555 91021=
68614 42580 30000 10230 20167 30081 40123 54000 82504
333 10304 555 91012=
68624 32982 01610 10150 20124 38764 48521 53010
333 10215 555 91020=
68712 42968 51812 10170 20149 30059 40139 53003 80008
333 10204 555 91014=
68718 41320 80000 10161 20156 39934 40175 56004 75152 885//
333 10163 2//// 555 91017=
68722 32580 63110 10187 20098 38561 48510 56001 86300
333 10210 555 91019=
68832 32685 80508 10150 20140 39234 48538 52007 885//
333 10160 555 91020=
68916 41/04 91336 10148 20143 39856 40144 53009 74544 8////
222//
333 10164 2//// 555 91014=
68920 41366 81620 10155 20153 30173 40183 53005 75055 887//
222//
333 10166 2//// 555 91018=
68928 41468 81312 10170 20165 30115 40187 56004 70265 886//
333 10178 555 91018=
68938 42460 80912 10168 20163 30187 40195 53008 887//
222//
333 10176 2//// 555 91019=
68174 31970 00706 10136 20067 38797 48525 52021 70500
333 10203 20136 91006 555 91020=
68242 11580 40000 10133 20115 38736 48509 52009 69922 70160 83970
333 10212 20123 91007 555 20002 91019=
68262 32960 51004 10196 20045 38719 48531 52016 85070
333 10229 20196 91006 555 91020=
68263 31570 80606 10167 20031 38501 48524 52015 76022 8652/
333 10209 20166 91009 555 91021=
68350 17/// /0000 10147 20141 38682 48527 52022 69982 7216/
333 10250 20147 69985 91004 555 20008 91021=
68368 11670 70603 10148 20042 38325 48524 52021 60012 70282 85970
333 10188 555 91022=
68372 36/// /1808 10127 20082 38477 48539 52030
333 10208 20127 91010 555 91023=
68424 32982 33106 10195 20105 39202 48510 52016 80004
333 10261 20195 91007 555 91016=
68438 31974 03604 10162 20135 38831 48517 52015 70500
333 10230 20162 91005 555 91019=
68442 12982 60216 10153 20047 38691 48542 51036 69922 86072
333 10235 555 91022=
68461 11360 82004 10092 20092 38365 48557 52015 60032 76126 8452/
333 10197 20091 60015 91005 555 20032 91025=
68512 32982 31604 10176 20125 39019 48510 52008 80002
333 10242 20176 91004 555 91017=
68588 32370 60404 10203 20174 30175 40191 52016 82534
333 10237 555 91019=
68618 32880 50000 10201 20124 39053 48514 52011 85500
333 10258 20201 91004 555 91017=
68714 31960 40000 10207 20155 30103 40139 52010 70500 80006
333 10286 20207 91006 555 91014=
68816 32670 11515 10181 20135 30101 40151 51016 81500
333 10221 555 91015=
68828 32140 81207 10161 20154 39950 40178 52007 886//
333 10192 555 91018=
68842 11130 81108 10162 20157 30126 40200 52012 69902 75865 886//
333 10181 555 91020=
68858 12480 80203 10173 20159 30060 40207 51013 60022 8555/
333 10188 555 91021=
82098 32797 40506 10330 20227 30076 40093 82341 333 58008=
82141 32798 33607 10302 20229 30100 40112 83060 333 58002=
82145 32598 30507 10308 20213 30058 40100 82120 333 58005=
82178 32697 61406 10312 20262 30030 40072 84710 333 58002=
82184 32798 60902 10329 20266 30091 40109 8
82188 32698 40502 10318 20249 84320 333=
82191 21597 63604 10302 20246 30082 40088 72911 8497/ 333
58011 69911=
82263 32598 40508 10329 20258 30099 40127 84200 333 58011=
82280 21496 8//// 10280 20256 30044 40102 76022 85722 333
58013 60011=
82353 32698 63602 10345 20240 39970 40
82361 32597 50506 10336 20269 30064 40101 84210 333 58001=
82376 32597 20904 10344 20218 30040 40092 82100 333 58000=
82445 32697 70506 10326 20266 30067 40119 83378 333 58007=
82460 32597 40902 10360 20203 30059 40088 84200 333 59004=
82562 32598 40905 10339 20207 39976 40084 84200 333 59013=
82564 32497 60903 10351 20186 39940 40078 82490 333 59005=
82571 32597 41410 10353 20193 39899 40092 83201 333 59005=
82765 32598 60902 10360 20181 39877 40111 86200 333 59001=
82861 31797 40506 10360 20249 39881 40048 70444 84060 333
59005=
82022 32570 50908 10342 20226 40108 85100 333 59003=
89061 31263 82516 11114 39787 49797 52039 60023 77172 887// 91738
333 01017 ICE 32683=
89062 31395 80304 11098 21116 39720 49762 51061 77373 887//
333 49021 88709 91234=
89063 31495 82617 11132 21162 39801 49815 52040 77173 886// 91741
222// 03016
333 44162 92912=
40009 32970 00000 10231 20129 40060 52008 333 10376=
40022 32565 21401 10262 20221 40094 53006 82500 222/// 20000 333
10295 82630=
40030 32970 00000 10272 20145 40059 52013 333 10369=
40039 32970 00000 10240 20144 40064 53006 333 10368=
40066 32970 00000 10242 20199 40086 53005 333 10308=
40072 32970 00000 10308 20105 40073 53018 333 10384=
40083 32970 03301 10216 20047 48474 53013 333 10297=
37985 42597 82701 10181 20152 40226 54000 889// 333   10209=
37575 42696 70503 10149 20086 40226 52005 87540 333   10177=
37735 42698 51101 10163 20119 40236 53009 85200 333   10196=
82281 21457 50408 10260 20246 40102 76061 85200 333 58004
60071=
82024 32698 50000 10317 20223 30010 40091 83463 333 59016=
82042 32596 70000 10323 20237 3//// 4//// 87600 333 5////=
82106 32597 62704 10330 20242 39976 40073 84250 333 59002=
82113 32597 51406 10318 20233 3//// 4//// 86380 333 5////=
82212 32598 50502 10324 20315 30046 40109 84180 333 58014=
82240 21596 63602 10294 20236 30096 40130 70382 82308 333 58010
60011=
82317 32597 31402 10306 20263 3//// 4//// 82240 333 5////=
82326 32597 82306 10303 20246 3//// 4//// 86432 333 5////=
82331 21495 80000 10244 20235 30072 40154 76196 8472/ 333 58028
60141=
82336 21698 73604 10258 20229 3//// 4//// 70396 8442/ 333 5////
60251=
82410 32697 63602 10321 20265 3//// 4//// 83264 333 5////=
82425 32397 63203 10328 20237 30071 40126 84769 333 58000=
82610 32497 40000 10345 20265 3//// 4//// 84430 333 5////=
82807 31592 73602 10322 20250 3//// 4//// 72922 82270 333 5////=
61223 32960 43608 10382 20119 39800 40084 81042
333 10396 59018 81365 83075=
61230 32660 20000 10325 20228 39832 40096 82900
333 10342 58006 82940 94946 95876=
61233 32960 60000 10345 20210 3//// 4//// 82042
333 10355 5//// 83365 85075=
61240 32660 20000 10368 20181 39759 40074 82500
333 10390 59030 82640=
61257 31570 60000 10345 20275 30059 40112 71799 85903
333 10359 58009 85830 83075 82940 94959 95879=
61265 31570 33608 10342 20205 3//// 4//// 72990 81540
333 10365 5//// 81630 83365=
61270 31665 70000 10305 20242 39728 40099 71799 81970
333 10325 59006 81940 87465 94942 95832=
61277 32570 20000 10320 20235 39787 40103 82500
333 10340 59017 82630=
61291 32560 40406 10310 20204 39693 40100 83902 930//
333 10328 58002 83630 81940 94967 95877=
61293 32970 23204 10310 20250 39695 40103 80002
333 10320 59007 82075=
61296 32570 43606 10295 20220 39716 40104 81202
333 10330 59004 81830 84075 94902=
61297 32570 33602 10302 20214 3//// 4//// 82540
333 10315 5//// 82630=
93023 36/// /2306 10097 20054 40241 57001=
93196 36/// /2005 10102 20086 40196 57002=
93305 41/98 92620 10125 20078 40212 54000=
93334 16/// /2905 10085 20075 39240 57003 69921=
93404 16498 /2908 10118 20097 40191 54000 60021=
93498 36/// /3134 10123 20069 40127 57010=
93597 36/// /3209 10118 20060 40128 57005=
93615 36/// /0702 10070 20060 40199 57003=
93678 36998 /2608 10153 21136 40121 57007=
93709 36/// /2917 10116 20055 40181 57012=
93831 16697 /2504 10074 20049 40128 52004 69981=
93896 11598 82440 10074 20042 40091 53009 69901 76012 887//
333 88720=
93947 16/// /2526 10047 21007 49912 52072 60011=
93994 36/// /1009 10180 20160 40211 57001=
91843 31498 31498 50910 10219 20149 40220 51016 70222 852// 333
562// 85818=
61612 11460 50000 10300 20230 30109 40117 69902 72996 83902
333 10370 58014 82816 81930 94942 95832=
61666 11462 71804 10279 20240 30108 40118 69922 70096 8327/
333 10335 58016 83817 97463 94912 95832=
61697 11460 70804 10270 20249 30104 40118 60062 76266 85270
333 10274 58021 85815 83463=
61699 31562 72206 10306 20220 39924 40112 71792 84902
333 10317 58013 84820 84920 02930 86073 94973 95873=
83393 32596 71403 10230 20140 39439 40173 85620 333 58005=
83538 32598 50902 10223 20080 38735 40168 85200 333 59005=
83570 32596 61404 10278 20101 39368 40142 85210 333 59002=
83577 32597 50506 10300 20120 39279 40127 84400 333 59007=
83582 32598 30904 10262 20100 39382 40156 57037 83200=
83642 32896 83203 10216 20145 39399 40179 56014 8802/=
83683 32698 61401 10250 20135 39187 40149 58030 84530=
82480 32597 50904 10354 20148 39901 40082 85200 333 58003=
82683 32595 51806 10336 20141 39646 40093 85100 333 58001=
82882 32698 50911 10314 20168 39689 40105 85200 333 58000=
71472 17/// /1526 10113 30014 40031 50003 69981 7//4/ 333 10127
20113 70014=
83550 32997 0//// 10260 20148 30155 40185 70000 80000 333
59008=
83695 32696 70000 10262 20143 30086 40196 5//// 8455/=
83698 32799 00505 10238 20182 30184 40198 50613 8653/=
83718 31594 7//// 10204 20162 39622 40205 52615 70544 87700=
83738 32698 70910 10250 20085 39656 40154 57010 875//=
82784 32598 31410 10334 20145 39641 40103 83200 333 58001=
64400 32457 82004 10230 20204 30111 40131 888//
333 10253 59003 83810 88630=
64402 32960 02804 10237 20185 39521 40099
333 10/// 59010=
64452 31560 50000 10268 20201 39/// 40/// 71322 81930
333 10/// 5//// 81930 85363 94944 95814=
64458 11460 70000 10246 20232 39697 40088 60022 71396 879//
333 10310 59002 85616 82930 94959 95839=
64459 31560 50000 10276 20248 39/// 40/// 71322 84902
333 10318 5//// 83620 81930 84080 94947 95833=
68994 11497 62012 10038 21042 30040 40067 52012 69982 75052 86500
333 10051 20030  91017 555 20008 91006=
71051 46/// ///// 10004 21006 30071 40184 55000 333 10004 21011=
63820 32480 21705 10241 20209 40133 82200
333 10294 59002 82819=
63619 32982 01803 10237 20135 48507
333 10287 59006=
63723 32982 01515 10275 20163 40111
333 10347 58004=
64454 31460 50000 10250 20204 39671 40092 72999 83930
333 10333 58000 83616 81930 85364 94946 95816=
44354 329// 00000 10238 20040 39097 40138 57008=
10205=
42492 21595 40000 10280 20260 40069 70500 82501 333 58004
82620=
42591 32996 00000 10270 20256 40067 333 58003=
42701 31496 60000 10246 20223 39358 40074 70522 83530 333 58000
83618 85360=
42724 31995 30000 10250 20244 40076 70500 80001 333 59004 83070=
42798 31995 20000 10274 20245 40064 70500 82030 333 58005 82360=
42809 21495 70000 10276 20262 40067 70522 84501 333 58008 6001/
84618 87070=
42895 22996 00000 10274 20248 40065 333 58001 6991/=
42971 31596 22005 10280 20269 40072 70511 81501 333 58003 81620=
24988 42999 03501 11089 21113 40096 54000=
31174 42999 10702 11018 21030 40125 57012 80001=
31959 42999 03102 11004 21007 40231 54000=
32027 42599 23207 10047 21004 40136 57004 82900   333 91010 91114=
32076 42598 62802 10006 20003 40121 53001 86500=
32408 42999 60303 11006 21012 40084 57002 80001=
32509 41496 83401 10044 20039 40075 56007 78182 889//=
32594 41497 81708 10104 20100 40009 57032 78082 889//   333 91010
91115=
44212 32999 20000 10040 21059 39142 40251 51007 80004=
44213 32999 00000 10013 21089 38819 40262 52008=
44215 32998 02707 10029 21081 38452 40249 52006=
44275 326// 72709 10075 21056 37754 40162 57005 87800=
44284 325// 60000 10090 20013 37878 40139 57004 86500=
44287 32599 20505 10103 21012 38131 40133 58003 82500=
44305 32999 03201 10097 21099 39043 40180 57016=
44317 32998 02307 10120 21009 38956 40180 58018=
44352 32999 02308 10118 21057 39927 40167 57021=
44358 32998 02303 10112 20006 39092 40198 56007=
62306 32960 03107 10260 20210 40119 53004  333  10304=
62318 32560 43310 10268 20217 40093 55001 84800  333  10304=
62337 31958 00000 10257 20226 40089 53008 71000  333  10324=
62366 32960 03607 10296 20211 40092 53012  333  10347=
62393 32960 03307 10298 20145 40081 53003  333  10358=
62405 32960 02805 10314 20161 40065 52013  333  10384=
62414 32960 03508 10334 20028 40061 53004  333  10380=
62417 32960 03001 10318 20166 40096 54000  333  10378=
62440 32960 00206 10272 20225 40089 53011  333  10344=
62463 32960 03206 10287 20147 40061 53008  333  10339=
41530 316// 12304 10250 20196 40075 70500 81500 333 56900
58004=
41620 329// 00000 10240 20094 48493 333 58043=
41624 329// 00902 10280 20221 40065 333 58017=
41640 31// 00000 10297 20251 40066 70500 333 58012=
41660 329// 00000 10172 20000 48474 333 59023=
41675 319// 00000 10265 20213 40079 70500 333 58018=
41715 329// 00502 10305 20200 40083 333 58026=
41756 329// 00000 10288 20213 40087 333 58012=
41780 32?// 52304 10280 20237 40081 85600 333 56900
58016 8?720=
41571 319// 00000 10244 20183 40075 70500 333 58007=
41718 329// 00000 10280 20237 40072 333 58022=
41744 329// 03103 10275 21048 48496 333 58017=
41749 319// 00000 10305 20241 40074 70500 333 58019=
47003 42980 00000 10054 20011 30281 40285 58032=
47005 42980 00000 11038 21071 38705 53003=
47022 42975 00000 11049 21073 38938 58001=
47028 42965 02004 10054 20042 30193 40202 52008=
47037 42970 00000 10074 20015 30160 40284 52014=
47039 42960 00000 10021 20018 30045 40231 57006=
47046 42969 02701 10088 20068 30261 40285 53007=
47060 42960 00901 10122 20029 30221 40277 52005=
47061 42980 01402 10107 20078 30247 40290 52003=
47065 42965 01103 10101 20034 30212 40277 52003=
47067 42965 00000 10067 20039 30181 40282 57003=
47068 42970 00502 10096 20036 30237 40175 52006=
47075 42980 00000 10053 20018 39863 40294 54000=
16310 32797 23108 10206 20181 39906 40121 56008 82500 91745 333
10240 82650 555 0////=
40001 32970 00000 10265 20055 40055 52006 333 10380=
40007 32970 03301 10272 20138 40047 510000 333 10360=
40045 3297 000000 10277 20098 40074 52012 333 10383=
40061 32970 00000 10265 20044 40057 52007 333 10370=
40080 32965 03402 10230 20014 39389 40066 53006 333 10354=
40095 3297 02602 10246 20192 39468 40073 52010 333 10327=
23074 42497 72504 10011 20000 49988 57012 8353/=
23274 42597 72904 10014 20006 40006 57011 8353/=
23383 41597 80000 10041 20026 49995 57010 78082 889//=
23472 41470 82603 10039 20034 40018 57008 72582 889//=
23678 414// 82402 10059 20052 40052 58010 76162 8872/=
23884 415// 82302 10064 20062 40064 54000 78082 889//=
24507 41560 80000 10056 20049 40023 57010 78082 889//=
24908 41470 82302 10050 20045 40090 58007 75165 886//   333 88713=
29263 42577 10068 20059 40126 58007 8595/=
29282 415// 82203 10063 20037 40131 58006 70282 889//=
29570 42896 32104 10064 20020 40191 54000 83030=
29698 42997 20501 10017 20017 40218 52005 80002=
29862 42984 80000 10045 20022 40239 54000 8807/=
30230 41598 82202 10057 20050 40128 52009 70282 8597/=
30521 429// 80000 10055 20041 40196 52006 80001=
23973 41599 32301 10060 20056 40088 52005 70161 83700=
23975 415// 62402 10052 20050 4//// 50282 86900=
23987 41398 32203 10070 20055 40093 53001 70282 889//=
29253 425// 72502 10064 20060 40130 58001 86900=
29471 415// 42503 10072 20045 40170 54000 70281 84900=
29481 41597 62703 10082 20071 40166 54000 78082 86300=
29553 42972 02302 10052 20008 40178 52002=
29562 42984 52602 10037 20019 40190 58004 80002=
29581 429// 62507 10076 20036 40185 54000 86030=
29594 41599 62801 10023 20009 40192 54000 70282 82962=
29653 42597 72302 10050 20020 40207 52001 87200=
29675 42998 70000 10007 20001 40224 52005=
29676 42998 00201 10060 20029 40202 52001=
29759 41984 72701 10027 20016 40228 53001 76186 87010=
29766 42599 81301 10056 20029 40234 58001 889//=
29864 42984 83002 10052 20014 40233 58001 8802/=
29869 42971 00000 10036 20026 40250 58001=
29956 42984 72003 10014 20009 40263 58003 80006=
30504 41597 70000 10020 20012 40218 52007 70281 82330=
30612 429// 22001 10040 20014 40213 54000 80001=
30622 416// 22701 10050 20036 40191 51001 70181 82930=
43003 21495 80204 10242 20233 40089 79596 8592/ 333 58000 6024/
83610 83825 82930 88458=
43063 21596 70000 10226 20223 39471 40094 72196 84630 333
59006 6011/ 84625 83356=
43110 21496 80000 10250 20235 40091 75096 8697/ 333 59001 6002/ 82710
86618 81928 85456=
43117 22596 70000 10246 20229 40085 84430 333 58000 6995/=
43192 21493 80000 10254 20245 40093 79586 8392/ 333 58004 6013/=
44216 32999 03206 10064 21055 39004 40221 52011=
44329 325// 72307 10090 20046 37802 40158 58009 87500=
44348 329// 03205 10106 20109 38696 40143 57012=
44386 329// 00000 10131 20036 39037 40161 57011=
43128 21596 60000 10228 20222 39486 40091 70596 83531 333 58001
6008/ 83620 85360=
43150 31596 52704 10286 20261 30006 40080 70521 82530 333 59001
82620 83360=
43213 32596 50000 10270 20232 39763 40077 82538 333 59005=
43233 21396 72003 10226 20208 39285 40091 72162 84932 333 56599
57943 58001 6996/=
43279 32596 30000 10270 20250 30068 40085 82501 333 58005
82620=
43295 21395 82705 10206 20203 39090 48497 79596 8692/ 333 5669/
57962 58005 6042/ 82708 83614 81930 85458 92842 92942=
43314 21596 82003 10272 20246 40103 79122 8237/ 333 58006 6990/=
43369 22596 50000 10268 20248 40104 83401 333 58008 6002/ 83620
84075=
43371 21496 80000 10246 20237 30036 40109 76165 8392/ 333 57963
58008 6010/ 82618 81925 88458=
38696 329// 01403 10138 20013 40214 53013   333 10232=
41506 026// 63609 10172 20098 48536 60013 83520 333 59009
60017=
41600 329// 00000 10260 20223 40068 333 58013=
41678 329// 03604 10283 20205 40083 333 58019=
41697 329// 00000 10295 20149 40077 333 58024=
41700 319// 00502 10275 20224 40070 70400 333 58016=
41725 329// 00000 10295 20238 40074 333 58020=
41785 329// 02302 10285 20250 40100 333 58029=
30499 42598 20000 11015 21038 40091 57033 82500=
30683 42999 60000 10004 21013 40085 57032 84042=
30695 42999 40000 10026 21007 40081 57037 83034=
31253 42599 80902 10017 21052 40125 57027 885//=
31295 429// 01602 10015 21030 40110 57028=
31348 429// 00000 11072 21081 40165 57007=
31418 42989 00000 11001 21042 40163 57004=
31442 429// 02302 10037 21044 40134 57013=
31474 42998 00000 11056 21067 40218 58010=
31587 42981 50000 10040 21043 40195 57025 80001=
31632 42998 00000 11065 21073 40217 54000=
31801 42998 00000 11044 21083 40219 52001=
30455 426// 22802 10068 21002 38823 48402 53009 82500=
30549 429// 22910 10039 20039 38620 48415 52004 82040=
30726 426// 22701 10081 20045 40189 52010 82500=
30731 41599 22803 10097 20034 40165 52010 70281 82900   333 91118=
30739 416// 82503 10090 20064 40146 52018 70282 8497/=
30741 415// 82902 10019 20019 38677 48457 52005 72582 883//=
30745 41999 22404 10076 20041 40131 51002 70181 82070=
30764 42998 20000 10010 20005 40088 53003 82030=
30822 42998 72806 10097 20067 40193 52004 80002=
30824 42698 22502 10089 20067 40210 52008 82300=
30829 41984 83603 10098 20041 40182 52015 70282 88004=
30846 42999 32003 10120 20038 40105 52024 80003=
30859 42999 42802 10129 20011 40077 53001 80001=
30862 42984 43202 10127 20025 40055 57009 80001=
30957 42984 02003 10134 21044 40091 57003=
30975 42898 22205 10096 21002 40125 57021 82040=
31825 42984 00402 11032 21042 40211 53009=
31845 42998 00000 11057 21064 40238 53005=
31878 42984 01501 11001 21013 40250 55002=
31915 42998 02702 11008 21066 40274 54000=
31921 42983 02403 10058 20022 40260 56003=
31969 42998 02905 10073 21017 40274 58002=
31981 42999 03002 11017 21029 40270 53003=
31987 42999 00202 10006 21027 40280 52004=
32069 42599 83007 10055 20041 40150 53001 8296/   333 91112=
10152=
24856 42998 22402 11006 21009 40073 57007 82030=
30686 42999 33602 11001 21022 40085 57030 83040=
30777 42998 61602 10085 20011 40065 56014 84052=
30961 42899 81810 10151 21012 40066 57013 8802/=
30971 42984 20000 10105 21027 40107 57021 80002=
30978 42984 32507 10088 21009 40170 57022 80001=
31624 42999 00000 11038 21041 40218 53001=
24982 42999 00000 11070 21083 40103 57002=
32121 42597 32907 10070 20019 40161 54000 85900   333 91112=
32128 41599 60102 10060 20015 40174 53007 70282 86300=
31713 429// 02902 11007 21032 40211 53002=
16520 32975 20307 10221 20145 30116 40143 58006 80001
333 10281=
16539 32998 03504 10224 20203 30040 40151 58007 91745 333 10258
555 0200/=
16550 31596 61502 10212 20183 39975 40150 58003 71022 86800 91745
333 10230 55300 83830 84635 555 0////=
16564 32498 70712 10220 20186 30006 40143 56004 83230 91745 333
10248 83810 85358 555 0312/=
26135 32997 20901 10119 20080 40233 57007 80002   333 10181   555
50131=
98325 11458 82001 10262 20254 40064 56005 60371 79596 8492/
333 56999 84915 88458=
98329 31470 82201 10251 20244 40066 57008 70544 8452/
333 56999 84618 88457=
98444 32468 52201 10258 20242 40071 57018 83202
333 56999 83818 84070=
98543 32470 32502 10270 20239 40066 58026 82201
333 56999 82818=
41764 329// 02310 10280 20267 40081 333 58018=
41594 319// 00000 10290 20216 40067 70400 333 58015=
33088 32997 81401 10144 20056 40210 53001 8803/ 333 10205=
21946 41250 82504 11001 21004 40060 52007 77172 8672/ 333
86704=
21432 nil=
21647 nil=
21824 nil=
21921 nil=
21931 nil=
25123 nil=
42361 31996 00000 10254 20208 40068 70500 333 58002=
22271 11975 80401 10087 20064 40156 58002 69950 70262 8807/   333
10131=
22550 32970 01902 10112 20062 40228 57005   333 10210=
22583 32584 62704 10155 20114 40192 58010 86500   333 10192=
22768 32997 02002 10128 20070 40254 56003   333 10210=
22845 32998 20000 10102 20081 40270 57002 80008   333 10205=
22887 32979 32202 10136 20073 40250 58002 80001   333 10224=
23205 11484 83406 10075 20045 40121 53007 69900 78082 889//   333
10115 88916=
23418 32970 72303 10126 20105 40141 58007 87030 333 10141=
23711 32972 82403 10152 20082 40188 58002 86030 333 10189=
23804 32997 52502 10134 20089 40229 57003 80001 333 10205=
27037 32898 60000 10097 20074 40276 57008 86030 333 10210=
27199 32998 02701 10126 20084 40269 57006   333 10204=
27271 32997 03101 10078 20070 40281 56001   333 10221=
27459 32969 00000 10122 20074 40282 57004   333 10207=
27730 32960 60000 10109 20097 40291 57001 86030   333 10198=
22165 11570 73103 10063 20047 40158 54000 69960 70282 87500   333
10104 87623=
22471 32984 22709 10129 20064 40179 55003 82030   333 10176=
22676 32984 02204 10130 20084 40221 57001   333 10205=
22837 32965 00000 10124 20114 40275 56002 333 10221=
22954 32979 02802 10143 20059 40272 57007 333 10220=
23405 31470 89902 10129 20110 40155 58012 60010 70282  885//
333 10149 88618=
23412 32680 82906 10120 20100 40119 58013 885// 333 10141=
23803 32980 00000 10112 20097 40223 56004 333 10188=
27066 32998 02001 10091 20071 40279 57001 333 10214=
27083 32984 00000 10110 20081 40260 57007   333 10205=
27113 32997 60000 10129 20110 40276 56007 86030 333 10219=
27329 31959 20000 10103 20089 40285 56001 71011 81031   333 10212=
27373 32999 22101 10093 20076 40277 57006 80001   333 10202=
27665 32997 01501 10130 20073 40289 57003   333 10205=
27823 32999 80000 10125 20093 40287 57011 85031   333 10195=
28009 32996 00000 10088 20080 40264 57004   333 10202=
28411 32997 01902 10110 20094 40283 54000   333 10192=
22292 11462 83506 10083 20074 40140 52002 69900 78082 889//   333
10135=
22438 32970 02308 10107 20086 40203 57007   333 10127=
22446 32980 02409 10131 20082 40204 58011   333 10140=
22563 32997 02303 10135 20059 40209 54000   333 10200=
22798 12984 02502 10116 20092 40232 56001 69900   333 10216=
22854 32984 02102 10110 20068 40264 57005   333 10201=
22867 32974 00000 10093 20074 40266 57008   333 10226=
22939 31995 02001 10090 20088 40276 57007 71000 333 10183=
22996 32998 01901 10137 20104 40256 54000 333 10214=
27008 32984 00000 10088 20077 40288 54000 333 10216=
27051 32960 00000 10102 20098 40265 57008 333 10214=
27225 33996 01701 10117 20095 40283 57007   333 10180=
27252 32998 03201 10108 20074 40281 57002   333 10225=
27369 32998 00000 10111 20086 40287 54000   333 10207=
27393 32996 40000 10134 20102 40283 57002 80001   333 10188=
27479 32999 12101 10153 20080 40282 57002 80001   333 10206=
27532 32997 00000 10112 20085 40285 56003   333 10199=
27648 42997 00000 10102 20070 40290 54000   333 10216=
27679 32965 62002 10143 20081 40279 54000 86040   333 10200=
28214 32999 02402 10118 20092 40272 57001   333 10195=
31285 429// 02302 10002 21036 40144 57013=
31561 42998 00000 11047 21050 40177 52004=
32010 42597 53202 10035 20022 40121 56001 82902=
78062 884// 22224 00235 20302 80225=
48802 32497 70000 10176 20151 38431 58002 879// 333 58001 82894
86995=
48810 11497 80000 10256 20250 39199 40100 58000 69901 76062 888//
333 59004 84894 88696=
48831 32498 80901 10276 20232 30061 40098 50002 888// 333 58010
82894 88697=
48838 32598 80202 10245 20217 30101 40107 58006 888// 333 58020
82895 88696=
48846 11597 70502 10242 20233 30083 40086 57008 60191 71798 879//
333 58000 83895 85995 96025=
48866 31598 60000 10207 20207 39242 40123 58007 71322 84901 333
58001 84995 82099=
48875 11598 61403 10222 20213 39567 40101 58006 69951 71398 869//
333 58000 81995 85696=
92044=
47070 42980 00000 10094 20027 30195 40283 52002=
44231 329// 00000 10048 21040 38741 40218 52013=
44288 32699 73207 10104 20006 38172 40130 55000 87500=
61401 33960 10345 20138 39731 40134 80002
333 10362 58013 82073=
61404 32960 03206 10380 20096 39754 40132
333 10390 58022=
61415 32960 03210 10287 20171 30118 40123
333 10375 58017=
61421 33958 50814 10390 20136 39860 40106 85070
333 10418 58019 85463=
61442 32558 32812 10312 20253 30120 40124 83800
333 10347 58031 83830=
61450 33770 41406 10362 20158 39666 40105 84800
333 10380 58010 84850 94929 95879=
61492 12560 40000 10340 20239 30143 40162 69902 84200
333 10345 58001 84840 94929 95839=
61498 33660 51806 10340 20215 39975 40104 83302
333 0//00 10374 83940 84073 94944 95844=
61499 32660 50000 10353 20211 39858 40106 83102
333 10370 58015 83840 83073 94909 95879=
78325 31461 40507 10303 20232 30093 40150 57009 70500 83902 333
06999 10314 20242 30/// 57965 59006 81817 83080 819//=
72201 32566 49905 10300 20233 30151 40159 58007 91753 333 10311
20261 555 92118=
72202 32666 61112 10311 20233 30150 40155 58015 91756 333 10322
20267 555 92118=
72203 32566 40708 10311 20217 30151 40159 58014 91753 333 10317
20239 555 92118=
72205 32666 41607 10311 20222 30120 40155 58018 91753 333 10311
20239 555 92118=
72206 32966 00000 10306 20206 30142 40152 58018 91756 333 10311
20222 555 92118=
72207 32666 63304 10317 20228 30134 40152 58014 91753 333 10322
20228 555 92118=
72208 11564 61809 10256 20239 30136 40153 58006 60021 795// 91756
333 10311 20239 555 92118=
72211 32666 62306 10294 20233 30144 40158 58015 91753 333 10300
20244 555 92118=
72212 15/// /9903 10294 20228 30143 40157 58010 69951 91753 333
10311 20222 555 92118=
72214 32666 40000 10317 20206 30135 40156 58013 91753 333 10317
20200 555 92118=
72217 32966 43206 10306 20211 30034 40160 56015 91753 555 92118=
72218 31959 09905 10283 20217 30108 40160 58008 705// 91753 333
10283 20211 555 92118=
72219 32966 69905 10278 20133 39802 40168 58007 91753 333 10278
20144 555 92118=
72223 32966 09904 10278 20178 30095 40172 58011 91756 333 10278
20194 555 92118=
72226 32966 00106 10300 20133 30098 40170 58014 91753 333 10300
20150 555 92118=
72231 32566 40408 10300 20239 30155 40170 58006 91753 333 10306
20250 555 92118=
72234 12966 02205 10283 20178 30066 40176 58011 60011 91753 333
10289 20178 555 92118=
72235 32966 03305 10283 20161 30058 40176 58009 91754 333 10283
20183 555 92118=
72240 32566 29905 10322 20239 30153 40174 55007 91753 333 10322
20222 555 92118=
72243 32666 63103 10317 20233 30126 40163 56011 91753 333 10317
20217 555 92118=
72248 11658 82505 10222 20217 30092 40188 50016 60481 763// 91756
333 10239 20194 96010 555 92118=
72250 32666 61507 10328 20217 30151 40157 58004 91756 333 10344
20256 555 92118=
72251 32666 60907 10322 20233 30143 40159 58012 91751 333 10328
20233 555 92118=
72253 32666 49903 10300 20194 39878 40152 58010 91753 333 10300
20228 555 92118=
72254 15966 00000 10261 20211 39943 40157 53004 69981 91753 333
10267 20211 555 92118=
72255 35666 20000 10311 20228 30124 40161 56017 91751 333 10311
20239 555 92118=
72256 12966 20306 10261 20194 39990 40169 50003 69951 91751 333
10272 20211 555 92118=
72259 12766 81405 10239 20200 39971 40170 58011 60021 91756 333
10239 20211 555 92118=
72261 35966 01711 10306 20206 39791 40145 58015 91753 333 10311
20244 555 92118=
72263 32966 01507 10294 20172 39504 40165 58007 91753 333 10294
20183 555 92118=
72265 32966 01407 10267 20167 39189 40155 58001 91753 333 10267
20189 555 92118=
72266 12966 29903 10250 20161 39557 40178 58006 69931 91752 333
10256 20167 555 92118=
72267 32666 21610 10278 20150 39074 40163 58002 91753 333 10278
20139 555 92118=
72270 32866 40000 10272 20111 38841 40130 50002 91751 333 10272
20183 555 92118=
72274 32966 20000 10333 20072 39242 40123 58002 91755 333 10333
20200 555 92118=
72278 32966 29903 10356 20083 39733 40112 58001 91756 333 10361
20261 555 92118=
72280 32966 /9904 10356 20106 30039 40108 50003 91756 555 92118=
72290 31956 02811 10206 20178 30144 40155 58001 705// 91751 333
10211 20178 555 92118=
72295 31324 62607 10183 20156 30120 40159 53004 705// 91750 333
10200 20167 555 92118=
72304 15966 09904 10261 20233 30162 40164 58010 69951 91751 333
10272 20239 555 92118=
72308 32566 40903 10267 20211 30151 40157 58009 91751 333 10267
20206 555 92118=
72310 32462 83403 10250 20206 30086 40165 58004 91756 333 10250
20194 555 92118=
72311 32961 09903 10278 20161 39880 40165 58007 91753 333 10278
20156 555 92118=
72312 32664 69905 10267 20167 39829 40162 56009 91755 333 10267
20189 555 92118=
72314 32664 69904 10267 20183 39893 40163 58005 91751 333 10283
20206 555 92118=
72317 32666 60205 10261 20150 39851 40168 58007 91754 333 10267
20183 555 92118=
72324 32966 00000 10261 20144 39932 40177 58008 91753 333 10261
20139 555 92118=
72326 32666 22504 10244 20144 39820 40171 58007 91753 333 10250
20139 555 92118=
72327 32966 62808 10272 20150 39964 40173 58009 91753 333 10272
20139 555 92118=
72334 32966 69905 10272 20178 30071 40174 58006 91753 333 10278
20167 555 92118=
72340 32961 82105 10267 20194 30079 40171 56015 91753 333 10267
555 92118=
72344 32566 69903 10244 20183 30017 40181 51010 91753 333 10244
20167 555 92118=
72351 32966 40000 10289 20144 39806 40168 58006 8/070 91752 333
10294 20200 555 92118=
72353 12966 40207 10261 20206 39712 40168 58005 69901 91752 333
10267 20178 555 92118=
72356 12566 69906 10256 20194 39940 40178 50003 69931 91753 333
10256 20189 555 92118=
72363 32966 09906 10272 20161 38956 40167 58004 91753 333 10272
20139 555 92118=
72365 32866 42805 10250 20050 38425 40155 58005 91756 333 10250
20161 555 92118=
72374 35966 00203 10267 20022 38558 40163 58004 91756 333 10267
20089 555 92118=
72386 32966 20405 10317 20067 39381 40130 50003 91756 333 10317
20217 555 92118=
72394 32266 80000 10139 20122 30081 40171 50005 91751 333 10139
20128 555 92118=
72401 31559 80000 10244 20211 30105 40169 58010 705// 91754 333
10244 20200 555 92118=
72403 32666 42404 10250 20144 30051 40168 56010 91751 333 10256
20167 555 92118=
72407 32966 01607 10261 20194 30135 40159 58008 91754 333 10278
20200 555 92118=
72408 32566 42505 10250 20172 30140 40161 56012 91754 333 10256
20200 555 92118=
72411 32666 49903 10244 20150 39755 40171 58013 91754 333 10250
20144 555 92118=
72412 35966 02407 10211 20111 39301 40176 58009 91751 333 10217
20089 555 92118=
72414 32666 41808 10244 20133 39814 40162 58016 91754 333 10244
20133 555 92118=
72421 32566 82206 10222 20167 39828 40141 56009 91751 333 10222
555 92118=
72422 32866 62214 10239 20150 39805 40159 58014 91754 333 10244
20139 555 92118=
72428 12666 62021 10239 20156 39836 40128 56020 69931 91751 333
10244 20150 91025 555 92118=
72432 32566 42709 10233 20178 30017 40155 58008 91754 333 10244
20167 555 92118=
72434 32666 43110 10250 20128 39957 40156 58007 91753 333 10250
20189 555 92118=
72438 32666 22615 10233 20156 39843 40132 58006 91755 333 10239
20167 555 92118=
72440 12966 09905 10228 20178 39734 40184 50004 69951 91754 333
10228 20172 555 92118=
72445 32966 02909 10239 20150 39853 40171 58003 91754 333 10239
20172 91018 555 92118=
72446 32966 23307 10239 20133 39818 40183 50001 91753 333 10239
20128 555 92118=
72450 32966 21107 10256 20150 39716 40186 50000 91756 333 10256
20178 555 92118=
72456 12966 09903 10239 20106 39874 40189 58002 69931 91756 333
10244 20128 555 92118=
72458 35966 00000 10239 20094 39668 40193 58007 91755 333 10244
20117 555 92118=
72464 32966 09904 10250 20056 38589 40162 58016 91754 333 10250
20067 555 92118=
72465 32966 01915 10244 20117 38919 40175 58013 91756 333 10244
20128 555 92118=
72476 32966 01306 10244 20006 38584 40165 58007 91756 333 10244
20111 555 92118=
72486 35966 09903 10250 21056 38136 40154 58004 91753 333 10250
555 92118=
72488 32966 20000 10217 21006 38696 40167 58003 91756 333 10222
20100 555 92118=
72492 32966 03408 10217 20111 30142 40152 51005 91756 333 10222
20117 555 92118=
72494 32361 40104 10156 20122 30166 40171 50002 91756 333 10156
20122 555 92118=
72503 12566 61809 10250 20194 30144 40156 56013 69901 91751 333
10250 20189 555 92118=
72508 12466 81808 10211 20194 30093 40163 58005 60031 91751 333
10217 20189 555 92118=
72509 12266 61508 10183 20183 30172 40180 55004 60051 91754 333
10206 20172 555 92118=
72515 32966 02010 10211 20094 39590 40162 56012 91756 333 10211
20144 555 92118=
72518 32866 29903 10244 20167 30045 40151 56016 91751 333 10244
20178 555 92118=
72519 32966 49905 10250 20106 39997 40142 56011 91754 333 10256
20178 555 92118=
72520 32666 61909 10217 20128 39714 40159 58009 8/870 91751 333
10217 20122 555 92118=
72524 11662 81910 10183 20156 39850 40130 58012 60011 761// 91751
333 10194 20156 555 92118=
72528 32966 82212 10228 20133 39872 40129 56010 8/07/ 91754 333
10233 20156 555 92118=
72530 32566 83110 10178 20139 39881 40124 53011 91756 333 10189
20167 555 92118=
72532 32666 42910 10211 20133 39904 40147 51006 91754 333 10217
20150 555 92118=
72533 12666 62516 10239 20144 39819 40113 58005 69901 91754 333
10239 20156 91021 555 92118=
72537 31459 82110 10189 20172 39865 40103 710// 91754 333 10189
20144 555 92118=
72546 32666 23413 10211 20111 39826 40172 50000 91754 333 10211
20122 91019 555 92118=
72547 32566 63410 10178 20122 39769 40156 51012 91755 333 10183
20122 555 92118=
72552 32966 09903 10233 20078 39531 40189 58013 91753 333 10233
20089 555 92118=
72556 35966 03004 10222 20100 39637 40188 58010 91754 333 10222
20089 555 92118=
72564 32966 02711 10256 21056 38162 40149 58003 91756 333 10256
20067 555 92118=
72565 32766 20000 10267 21006 38368 40145 58009 91753 333 10272
20106 555 92118=
72572 32966 61507 10261 20033 38734 40147 50000 91756 333 10261
20128 555 92118=
72576 35966 09905 10206 20011 38332 40159 58007 91756 333 10211
20083 555 92118=
72578 32966 02205 10217 20017 38665 40168 58001 91756 333 10217
20033 555 92118=
72583 35966 09906 10267 20006 38711 40166 58002 91756 333 10267
20050 555 92118=
72594 37056 82604 10094 20094 30167 40197 53007 710// 91753 333
10100 20089 555 92118=
72597 32966 00000 10178 20039 39713 40186 58003 91756 555 92118=
72606 11364 81507 10178 20172 30163 40182 58008 60231 761// 91751
333 10183 20167 555 92118=
72617 12566 21910 10244 20156 30017 40140 58012 69901 91754 333
10244 20183 555 92118=
72635 11556 63108 10161 20156 39814 40106 50003 60031 761// 91756
333 10178 20128 96010 555 92118=
72636 11459 62805 10178 20156 39882 40110 50008 60021 710// 91755
333 10183 20144 555 92118=
72637 11359 80000 10172 20156 39827 40104 55012 60091 710// 91753
333 10172 20128 555 92118=
72638 15566 82808 10161 20117 39694 40107 51001 69931 91755 333
10167 20117 555 92118=
72640 12466 60306 10167 20144 39871 40122 51012 60021 8/800 91752
333 10178 20144 555 92118=
72641 12566 63208 10161 20128 39829 40138 51015 69901 91753 333
10178 20144 555 92118=
72645 32566 42906 10194 20128 39867 40122 51002 91756 333 10194
20117 555 92118=
72651 32966 03110 10206 20106 39665 40179 58005 91756 333 10206
20089 555 92118=
72654 32966 03407 10211 20106 39717 40182 58005 91755 333 10211
20078 555 92118=
72658 32566 49906 10194 20128 39852 40155 50003 91753 333 10194
20128 555 92118=
72659 32966 03306 10194 20083 39711 40179 58007 91756 333 10194
20078 555 92118=
72677 32966 22112 10206 20033 38913 40133 58008 91756 333 10206
20067 555 92118=
72683 35966 01806 10194 21039 38767 40191 50002 91753 333 10194
20006 555 92118=
72688 32966 02616 10244 20033 39631 40163 51007 91756 333 10244
20089 91019 555 92118=
72694 32966 09903 10172 20089 30122 40197 50002 91756 333 10172
20072 555 92118=
72698 32866 60605 10167 20100 30191 40199 50005 91755 333 10167
20117 555 92118=
72712 17461 81607 10161 20156 39965 40196 58015 60021 761// 91754
333 10161 20128 555 92118=
72745 32566 63112 10189 20122 39623 40138 55000 91755 333 10189
20078 555 92118=
72747 35366 82807 10150 20122 39705 40136 50001 91755 333 10150
20111 555 92118=
72753 12566 23109 10172 20106 39836 40170 50002 69931 91753 333
10178 20078 555 92118=
72764 32966 09904 10194 20089 39574 40171 58017 91752 333 10200
20061 555 92118=
72767 32966 01411 10206 20044 39474 40155 58021 91752 333 10211
20033 555 92118=
72768 32966 01407 10189 20039 39315 40131 58013 91756 333 10189
20089 555 92118=
72772 32966 00000 10167 20011 38817 40166 58011 91753 333 10167
20061 555 92118=
72773 32966 00000 10139 21011 39061 40176 58005 91756 333 10139
20033 555 92118=
72776 32966 02311 10172 20017 38874 40135 58002 91756 333 10172
20067 555 92118=
72777 35966 02316 10211 20017 39213 40119 58011 91755 333 10211
20044 555 92118=
72779 35966 01809 10172 20050 39109 40152 58011 91755 333 10178
21006 555 92118=
72781 32964 00000 10200 20067 39774 40165 51007 91756 333 10200
20094 555 92118=
72793 12566 81604 10139 20094 30032 40195 51011 60011 91756 333
10139 20117 555 92118=
72797 15462 80000 10128 20128 30098 40173 53006 60051 91753 333
10128 20111 555 92118=
72306 32561 43506 10261 20194 30010 40166 58005 91751 333 10272
20200 555 92118=
72402 12566 61204 10250 20206 30165 40164 58009 69901 91754 333
10250 20183 555 92118=
72405 32666 20000 10256 20156 30141 40166 56013 91751 333 10261
20189 555 92118=
72406 32666 41308 10239 20156 30106 40161 56011 91754 333 10244
20167 555 92118=
72425 32966 02309 10250 20128 39859 40158 56014 91751 333 10256
20111 91014 555 92118=
72429 12566 82315 10211 20156 39780 40135 56005 69901 91754 333
10228 20161 555 92118=
72504 12366 62107 10222 20206 30156 40163 58009 60021 91754 333
10222 20206 555 92118=
72507 11259 61505 10189 20183 30159 40181 58009 60161 761// 91751
333 10211 20172 96010 555 92118=
72513 32966 02407 10239 20106 39819 40153 56013 91754 333 10239
20167 555 92118=
72521 12662 82013 10222 20144 39693 40134 58014 69901 8/877 91751
333 10222 20133 555 92118=
72529 32766 62206 10244 20094 39934 40133 58014 8/271 91754 333
10256 20156 555 92118=
72535 12566 82916 10200 20156 39841 40117 53008 60021 91754 333
10211 20167 555 92118=
72536 12566 62410 10211 20167 39857 40105 57005 69901 91752 333
10217 20167 555 92118=
72544 32566 23210 10200 20128 39936 40150 53006 91755 333 10200
20139 555 92118=
72592 32966 00000 10278 20106 39963 40140 58005 91756 333 10283
20156 555 92118=
72605 15466 81807 10211 20183 30043 40170 56014 60041 91751 333
10217 20161 555 92118=
72783 32966 00404 10178 20028 39659 40174 50005 91756 333 10178
20089 555 92118=
72785 32966 81808 10172 20017 39333 40170 51015 91756 333 10172
20089 555 92118=
72791 15566 80804 10150 20117 30184 40192 52007 69901 91755 333
10150 20100 555 92118=
87078 11458 80000 10222 20218 39988 40135 56007 60011 76222 889//=
87097 21456 80504 10167 20167 39858 40171
57012 60101 76065 8462/
333 56009 84712 88550=
87155 31560 80503 10236 20183 30082 40142 57025 70422 8357/ 333
56769 83630 88360=
87162 11315 81408 10197 20189 30055 40125 57019 60121 75965 8572/
333 56309 85707 88550=
87166 31659 80505 10232 20182 30073 40145 57019 70422 8357/ 333
56879 83640 88360=
87178 11750 80707 10208 20186 30013 40158 57013 69921 76162 8802/
333 56019 88556 96004=
87270 31965 30908 10277 20179 30066 40127 57021 70400 80006 333
56008 83270=
87289 32970 80506 10254 20175 30065 40146 57012 80006
333 56000 88280=
87374 32665 10906 10284 20121 30054 40144 57019 81100
333 56100 81835=
87393 31960 73604 10272 20178 30080 40142 57020 70522 80006 333
56000 87270=
87395 31960 51406 10282 20196 30100 40144 57019 70522 80006 333 56005
85270=
87480 32965 00210 10286 20128 30124 40153 57023=
87497 32965 10908 10276 20149 30136 40160 57017 80006 333 56007
81270=
87534 31956 50217 10268 20123 39983 40143 57020 70542 80006 333
56006 85270=
87576 32960 40710 10246 20130 30152 40176 58020 80006
333 56007 84270=
87582 32960 11112 10208 20126 30173 40180 57019 81070 333
56060 81360=
87593 32960 00912 10220 20138 30160 40187 57016=
87623 31957 40206 10214 20131 39916 40142 57025 70422
80006 333 56005 84270=
87645 32970 60511 10198 20132 39977 40185 57024 80008
333 56004 86270=
87692 32960 40909 10142 20096 30184 40209 57024 80006 333 56005
84270=
87750 32965 60512 10214 20110 30060 40159 57029 69901 85018 333
56077 85460 85270=
87765 32980 62716 10136 21059 39169 48459 57013 83076
333 56066 83360 86270=
78990 32580 30914 10320 20248 30114 40121 57023 83200
333 59009 83821=
87016 31956 00000 10307 20134 39699 40099 57033 70510=
87022 31658 62508 10306 20147 39595 40094 57040 70400 83100 333 56599
81835=
87046 31659 10504 10285 20108 39102 48499 57036 70500 81100
333 56100 81840=
87047 31558 51408 10257 20090 38784 48504 57032 70511 85100 333 56200
85825=
87121 31956 10908 10300 20182 39601 40100 56029 70401
80006 333 56006 81270=
87129 31963 03603 10302 20140 39891 40118 57029 70500 333 56999=
87217 31965 00000 10300 20100 39606 40083 57033 70600 10109 20000=
87222 31956 00527 10324 20041 39561 40062 57032 70700=
87257 31956 02708 10288 20148 30030 40131 57021 70500=
87311 31960 51606 10246 20028 39430 40108 57037 70410 80005
333 56000 85270=
87320 41956 00522 10307 20103 39578 40090 57035 70500=
87328 31765 12303 10291 20074 39469 40108 57029 70400 81500 333 56800
81650 95090=
87349 32970 83608 10276 20094 39750 40137 57021 80006 333 56000
88280=
87371 32962 20000 10280 20160 30122 40143 57023 80002
333 56000 82070=
87416 32965 70505 10239 20031 39367 40098 57033 80006
333 56009=
87418 32965 73204 10238 20045 39313 40100 57032 81076
333 56066 81360 86280=
87436 31956 33414 10271 20037 39311 40106 57019 70400
80002=
87448 31558 23411 10304 20071 39558 40110 57031 70510 81110 333
56349 81830=
87453 31965 00224 10288 20037 39639 40114 57026 70500=
87467 32970 00508 10282 20118 30007 40139 57027 333 56000=
87506 32670 70000 10199 20022 38562 48487 57024 82446
333 56766 57342 82640 84270 95031=
87509 32970 81214 10225 20046 39270 40108 57024 84066 333 84360
84270=
83623 31996 83606 10304 20087 39531 40097 58022 70544 8807/=
83630 32597 70904 10256 20124 39041 40143 57035 82340=
83676 32597 30506 10294 20151 39536 40160 57028 83100=
83704 21394 81402 10174 20171 39731 40148 58007 76162 887//
333 60081=
83714 32596 70502 10176 20135 3//// 4//// 5//// 85940=
83716 32997 80907 10243 20133 39647 40139 57018 8807/=
83726 31595 80503 10248 20124 39206 40172 56024 70544 8812/=
83773 32698 81405 10258 20152 39172 40044 58012 83897=
83821 32498 51403 10193 20182 30193 40198 56020 85200=
82198 32797 70913 10290 20227 30049 40101 83720 333 58005=
82246 32497 51402 10314 20264 39905 40101 83610 333 59001=
82704 31594 63602 10328 20273 39863 40054 71711 84306 333 59012=
82723 32597 60902 10310 20239 30042 40124 84203 333 58010=
87791 32980 80212 10161 20042 30150 40158 57023 8801/
333 56079 88460=
87803 32680 72711 10122 21002 39189 40114 56005 84576 333 56600
84635 83270=
87828 32980 51117 10200 20012 30064 40115 57013 81042 333 56000
57300 81362 84070=
87852 11570 82304 10067 20038 39618 40133 50001 69951 75052 8452/
333 56009 84630 86550=
87860 32580 81409 10142 21017 30069 40124 58005 81176 333 56566
81825 83360=
87896 32580 61416 10081 20029 30037 40135 53004 81176 333 56344
81825 83360=
87909 32580 50910 10086 21019 30072 40148 51005 81106 333 56000
81830 84270=
87925 32580 52516 10094 21052 30092 40115 53001 85100 333 56600
85830=
87938 31575 72320 10048 20007 39962 40033 52008 71522 86670
333 56550 83730 83635=
68024 42960 32207 10212 21011 48507 52017 80002
333 10292 555 30110=
68026 42960 02004 10232 20035 48496 53017 333 10335 555 30110=
68032 42960 12704 10255 20029 48496 52017 81080 333 10345 555 30112=
68054 42960 01009 10240 20107 48512 52020 333 10307 555
30087=
68148 42960 00510 10220 20095 48494 52017
333 10270 555 30107 =
68328 42960 20000 10170 20132 48513 53014 80002 333
10218 555 30099=
96035 31450 72304 10242 20228 30072 40104 58011 70522 85976
333 56000 57902 81918 84618 80957=
96163 32559 70000 10240 20230 30095 40102 57009 82171
333 56000 82620=
96237 11456 71403 10266 20242 30053 40094 56016 69901 70296 83272
333 56000 57802 83818=
96581 31458 70000 10232 20229 30104 40110 56004 71322 84931
333 56600 57962 57862 81912 83813 80980 80860=
97028 32561 70000 10241 20223 30087 40093 55005 84521
333 56000 84620 86460=
97072 32558 51302 10248 20218 30022 40124 56003 82521
333 56000 82620=
97180 32558 20000 10242 20188 30070 40088 56010 81501
333 56000 81620=
97230 32460 61205 10254 20234 30097 40104 56011 84831
333 56200 57822 83819 80857=
97340 32960 10000 10236 20206 30100 40111 57014 80001
333 56000 81080=
97372 32960 10000 10231 20215 39985 40114 57005 80001
333 56000 81080=
96033 01408 82010 10246 20234 30093 40100 58009 60081 76166 8692/
333 56999 57991 60087 81918 85616 80980=
96075 01430 80000 10248 20245 30100 40110 52005 60071 76096 8692/
333 56009 57902 60077 82917 84618 80964=
96087 31559 40000 10248 20236 30066 40098 56011 70511 81531
333 56000 81620=
96171 31540 60000 10236 20228 30068 40093 58001 70522 82521
333 56000 82620=
96935 32960 32705 10250 20219 30093 40100 58007 81031
333 56000 81360=
96987 32550 10000 10252 20232 30054 40103 58011 81401
333 56300 81620=
94151 35/// /0000 10242 30101 40121 57003=
94290 35/// /1219 10238 30145 40152 57007=
94767 46/// /0101 10145 20132 30235 40241=
94129 35/// /1402 10256 30091 40114 52001=
94289 35/// /1219 10241 30133 40142 57009=
94307 35/// /2612 10214 30091 40131 57006=
94371 35/// /1017 10227 30173 40179 57002=
83925 31996 80430 10209 20192 40191 57018 71022 8801/ 222// 21007=
83970 32199 80506 10200 20185 40190 886// 222// 02187 20401=
82595 32498 20925 10200 20232 40128 81101 222// 02270 20705 333
58006=
80009 31560 32902 10322 2025930080 40085 70500 82201
333 560/0 57823 59018 82820=
80028 31465 50000 10324 20281 30065 40082 70511 85200
333 564// 57893 59020 85815=
80036 32568 20803 10350 20211 82800
333 560// 82820=
80063 31467 70000 10322 20244 70522 86410
333 5600/ 86620=
80084 31570 43504 10317 20251 70511 82855
333 56069 82620 83270=
80091 31568 30000 10324 20220 70510 83101
333 160/9 83820=
80094 31465 63204 10257 20177 38793 70511 84171
333 56799 59022 84817=
80097 32570 61609 10333 20192 39725 40066 83141
333 56000 59020 83820 83070=
68040 42960 01813 10268 20053 48489 53019
333 10337 555 30103=
64387 11570 50000 10170 20154 38522 48516 69962 81232
333 0//53 10240 58021 81830 83360 Q1020.1=
80210 01465 82701 10247 20180 38641 69911 79522 8597/
333 5699/ 57991 59019 69917 81916 84816 84358=
80211 31565 70000 10266 20183 70522 85232
333 56767 57811 85825 83070=
80214 31560 50000 10286 20186 70542 82202
333 560/0 57842 83620=
80222 31568 71304 10182 20100 37511 70522 86270
333 5690/ 57895 59007 86823=
80234 32562 40802 10296 20203 39600 40090 83231
333 56139 59009 83823=
80259 31459 83503 10296 20172 39030 71522 83830
333 5629/ 59022 82817 83359=
80315 32565 51804 10316 20195 39570 40052 81850
333 5654/ 59012 81833 85359=
80342 32570 40205 10239 20150 38203 84200
333 560// 59003 84830=
80370 31460 81104 10120 20082 71622 888//
333 563// 88816=
80398 32570 62402 10304 20227 3008 40103 85131
333 56280 58002 85820 83070=
71900 36/// /0709 10092 30233 40246 50007 333 10119 20053 70000=
64851 32970 00000 10270 20239 39622 40094
333 10315 59011=
64860 32470 50000 10268 20243 39826 40094 81502
333 10307 59011 81616 85080=
64910 12465 60000 10250 20235 30101 40111 60082 86300
333 10277 59003 86616 81920 94949 95839=
60581 32960 00000 10353 20131 40086 55003
333 10400=
42886 32996 00000 10260 20231 40074 333 58002=
43333 32596 40000 10252 20240 40093 81101 333 59009 81820 83070=
42559 32996 00000 10274 20200 40067 333 58005=
42667 3596/ 40000 10256 20209 39504 40082 82530 333 58005 82620
83360=
42754 32996 10000 10246 20165 39458 40085 81030 333 58004 81360=
42867 32996 02902 10246 20225 40081 333 58002=
42874 32596 40000 10282 20259 40066 82531 333 58002 82620 83360=
91165 12566 40613 10261 20206 30125 40175 53012 69981 91753 333
10261 20233 555 92118=
91182 32566 20609 10261 20200 30159 40165 51010 91753 333 10261
555 92118=
91190 12766 20715 10250 20194 30145 40173 53014 69901 91754 333
10256 20228 91020 555 92118=
91212 32566 60000 10250 20240 39985 91805 555 92118=
91285 32566 82507 10230 20200 30162 91805 555 92118=
91348 32474 39903 10240 20226 30034 40086 55003 81106 333 563/9
555 92118=
91366 32569 60807 10281 20241 30088 40092 53003 81171 333 56349
70097 555 92118=
91376 32474 50605 10282 20238 30088 40091 53007 83801 333 562/9
555 92118=
91408 32474 62304 10266 20248 30047 40085 57008 82202 333 565/9
70107 555 92118=
91413 31469 82606 10270 20245 30056 40075 57007 70282 83172 333
56699 70010 555 92118=
91765 11348 80720 10257 20244 30127 40130 51019 60121 79598 883//
333 56299 70127 555 92118=
91245 31566 60611 10270 20240 30123 717// 91750 555 92118=
20046 11396 83611 11022 21034 40031 52005 60001 77039 885//
333 11020 88511=
20069 41263 82604 11030 21037 49964 52006 77187 8672/ 333
86704=
20087 41477 70000 11028 21041 49979 52012 70282 8683/ 333
84622 93443=
20292 42480 62702 11040 21059 49989 52009 83530 333 82612=
20674 41464 71806 10000 21018 49951 57012 70282 8735/=
20744 11498 83312 10038 20018 40048 57004 60020 70282 8827/
333 10052 87814 91118=
20891 42498 79902 10035 20033 49967 57009 8555/ 333 85610=
23022 12997 22806 10027 20014 40040 58014 69950 82050 333
10049 91109=
23032 12568 32310 10053 20015 40021 57006 60020 82930 333
10050 91114=
23256 11396 82004 10012 20012 49999 57033 69970 78082 883//   333
10044 84707=
23330 32597 53602 10072 20027 40069 52013 84520   333 10115=
23552 11396 81903 10032 20030 40026 57039 69950 76162 8872/   333
10068=
23631 12998 82504 10112 20090 40104 57001 69900 8807/   333 10167
91113=
23734 32570 73002 10132 20097 40119 57002 87500   333 10233=
23849 41796 82404 10090 20066 40102 57030 72122 8452/   333 84650=
23933 12597 52803 10122 20070 40128 57018 69900 85500   333 10144=
28064 32998 31804 10118 20070 40196 52004 83030   333 10159=
28275 32999 82301 10091 20070 40203 57003 8805/   333 10150=
28493 32999 72403 10096 20061 40197 54000 87070   333 10123=
28698 32584 62401 10073 20038 40237 51002 86500   333 10119=
23426 12978 62702 10099 20071 40081 57002 69900 82070   333 10165
91115=
23527 32984 32304 10103 20084 40116 58004 82041   333 10158 91112=
23625 32598 72601 10140 20106 40110 57008 87500   333 10172=
28367 32999 02401 10090 20059 40236 52001   333 10152=
28382 32998 72402 10077 20062 40201 58002 87040   333 10142=
28491 12978 52302 10085 20051 40204 54000 69930 85030   333 10128=
28593 32999 72604 10091 20048 40215 52002 87050   333 10129=
28598 32979 52102 10072 20045 40223 52002 80005   333 10121=
28786 32999 02701 10048 20031 40161 52007   333 10125=
28797 12997 00000 10042 20032 40248 52010 69900   333 10118=
28799 12998 03101 10070 20055 40238 52006 69900   333 10122=
43201 21396 82705 10230 20206 39373 40092 72096 84604 333 56099
58001 6016/ 82708 83618 87075=
43321 21496 72004 10246 20213 39651 40097 75052 84970 333
57982 58004 6995/ 83615 81925 86460=
23929 32599 82704 10139 20085 40175 57004 889//   333 10174 86920=
28383 12984 62204 10083 20059 40202 54000 69900 86040   333 10129=
28586 32998 32504 10079 20045 40227 54000 83040   333 10128=
28588 32984 03202 10069 20028 40239 52001   333 10120=
28688 32970 22702 10046 20026 40252 52003 80001   333 10126=
28696 12999 02702 10053 20041 40238 52010 69940   333 10125=
28791 12982 02602 10058 20032 40247 52009 69900   333 10130=
29367 41384 80000 10068 20045 40169 52002 70282 886//   333 87707=
30253 416// 82503 10052 20043 40076 52001 70282 82907=
23662 12599 72301 10021 20002 40051 57020 60010 87500   333 10076
87620=
23788 41598 80000 10060 20058 40044 58008 70282 889//=
23867 11999 22302 10023 20016 40117 45808 60020 70281 80001   333
10090=
23986 41248 82104 10040 20038 40092 58002 71082 883//   333 86706
95095=
36103 42699 20000 10011 21009 40286 54000 83900   333 95090=
60360 11560 61506 10220 20189 40130 53002 60061 70292 81230
333 0//32 10269 81826 84360 95990=
60566 32960 02006 10350 20013 40090 56008
333 10378=
60630 32760 52706 10392 20047 40091 56002 82232
333 10431 82362=
60670 32965 1//10 10330 21007 39070 48541 53001 81030
333 10375 81360 95900=
60680 32765 21012 10312 20016 38667 48536 55002 82200
333 10348 82856 95900=
60355 11660 70000 10230 20199 40124 53002 60132 70398 872//
333 10257 87840 95990=
60602 32665 33008 10357 20070 40082 56004 83200
333 10376 83843 95900=
60640 32960 00000 10385 20062 40087 51001
333 10415=
70316 81190 22223 00193 20202 80150=
58968 32570 70903 10252 20197 30126 40133 57015 874//=
59158 32560 20203 10252 20200 39995 40093 57013 82100=
59358 31630 33402 10256 20228 30075 40086 57009 71010 83500=
59559 32570 20204 10264 20212 30063 40091 55008 82100=
59562 32565 13401 10266 20207 30085 40096 57013 81100=
59997 32460 62702 10266 20255 30064 40078 58014 82220=
44285 32799 30000 10070 20046 38312 40122 54000 83040=
44294 329// 00903 10108 20020 38541 40115 57017=
98223 11458 81401 10245 20241 40071 58006 60021 76166 8252/
333 56999 82619 88458=
98328 11462 10000 10168 20163 38490 40056 5//// 69901 70455
81100 333 56999 81814=
98429 31557 81901 10267 20238 40072 57016 70544 8383/ 333
56999 83822 85359=
98440 32475 82702 10259 20247 40068 57017 8327/ 333 56699
83816 88358=
98550 31460 62201 10250 20242 40060 57023 70544 82272 222//
20101 333 56999 82818 85357=
98618 11465 53401 10254 20243 40085 58011 60021 78098 8497/
333 56999 82918 83820 88258=
98637 32470 30000 10265 20245 40095 58012 81201 333 56999
81812 83075=
98836 32565 70000 10243 20225 40095 58014 82270 333 56999
82820 86362=
43185 31596 30000 10272 20258 30073 40076 70500 82530 333
58000 82620=
43237 21496 80000 10238 20220 39700 40093 76062 8482/ 333
5679/ 59010 6002/ 83618 88460=
43245 32596 50000 10296 20245 30058 40080 81530 333 59002=
44203 326// 20000 11001 21038 38437 40264 51010 85200=
44225 32998 20502 10022 20003 38305 40247 51002 82040=
44230 329// 53603 10062 20003 38795 40217 52006 82048=
98232 11565 81803 10260 20233 40043 58012 60181 76069 8557/
333 56999 85620 88358=
98653 11468 62002 10255 20242 40080 58013 60011 71584 82970
333 56999 82918 84358=
59001 70001=
67843 42980 10906 10253 20090 38917 48484 81030 333 10237 58003
81359=
67969 42980 01201 10212 20128 39163 48505 333 10275 59012=
68906 12598 61806 10061 20004 30309 40375 52006 69922 86500
222// 00094 20000 315// 41202
333 10085 20059 91011 555 20002 91037=
67861 42975 00000 10203 20042 38620 48503 333 10307 59004=
63740 32570 41007 10215 20076 48500 84500
333 10283 59005 84625=
87344 31960 00515 10286 20079 39590 40125 57025 70500=
63641 32981 41638 10217 20111 80002
333 10258 84079=
63695 32580 21403 10204 20115 82500
333 10268 82620=
63714 11480 70000 10165 20132 48496 60022 70198 8442/
333 10266 58003 84619 87460=
63772 32580 31710 10249 20216 83200
333 10296 83824=
63793 32980 01708 10236 20166 40126
333 10322 59003=
83650 31398 40708 10230 20193 40196 57014 7021/ 83160
02228 20301=
71403 36/64 /1514 10186 20173 30241 40253 56009 333 10191 20152
70000=
62309 32960 03009 10268 20199 40097 53002  333  10306=
62325 32560 43205 10262 20226 40101 53006 84400  333  10307=
62332 32560 40108 10255 20234 40095 53007 84500  333  10306=
62387 32960 00000 10290 20149 40078 53004  333  10350=
62459 32960 01702 10284 20193 40058 53004  333  10315=
83649 32570 31310 10250 20194 40197 57019 82204=
71140 32574 62708 10162 20069 39678 40172 58009 81501 333 10166 20026
70012=
71145 11474 62813 10115 20060 39818 40105 53001 69901 70281
86500 333 10137 20087 50300 70042 90936=
67205 32580 30000 10244 20211 40138 82300 333 10303 59003=
67215 32570 11206 10246 20208 40/// 81100 333 10286 59003=
67273 32970 21708 10235 20213 40131 82030 333 10281 59006=
91570 36/// /1206 10224 20198 30125 40128 56007=
91574 36/// /1710 10215 20167 30146 40152 55004=
91598 36/// /1214 30113=
67237 32970 01509 10232 20185 40158 333 10307 59007=
67261 32970 01305 10265 20170 40103 333 10322 59020=
67283 32980 01305 10265 20170 40103 333 10322 59020=
67297 32970 01309 10224 20175 40152 333 10272 59023=
71060 36/// ///// 10137 20020 38579 40113 51008 333 10139 20012=
37228 42596 31702 10096 20096 40192 50811 83160 10157=
44219 32998 23602 10151 21123 38636 40223 54000 82040=
44221 32999 00000 11010 21051 38626 40288 52006=
44224 32998 00000 11030 21052 38079 40268 54000=
44286 329// 82907 10135 21035 38605 40115 51004 8807/=
44338 32699 72704 10170 20051 38477 40115 57006 83840=
98336 32475 40000 10250 20245 40050 58015 81270
333 56999 81815 84357=
98431 31457 53502 10270 20243 40078 58011 70222 83208
333 56999 83818 85275=
98536 31465 52102 10269 20242 40071 58017 70292 82270
333 56599 82818 83357=
98646 11460 83202 10244 20230 40076 57022 60321 70298 8322/
333 56999 83820 84458 88275=
98747 11465 80000 10240 20226 40089 57006 60061 76096 8441/
333 56999 84617 88458=
98753 31465 50000 10257 20241 40082 58012 70544 82201
333 56999 82816 84079=
24962 42598 82702 11033 21050 40175 53003 83531=
43329 21496 80000 10262 20239 30079 40092 71322 8635/ 333
57962 58008 6017/=
62420 32960 00107 10303 20124 40098 53011  333  10359=
62432 32960 02801 10320 20146 40087 53012  333  10376=
62435 32960 03304 10316 20128 40072 51016  333  10390=
62455 32960 03505 10308 20154 40077 53006  333  10346=
40582 12960 01408 10314 20234 40082 51018 69902 333 10423 =
41150 41960 01215 10319 20269 40085 70500 333 10362 58027=
41184 41957 43303 10323 20217 40090 70600 84030 333 10281 58032
84360=
41194 41958 10205 10325 20216 30087 40092 70600 80001 333 10396
58033 81075=
41196 42960 00403 10296 20202 30058 40096 333 10404 58034=
41217 42962 00510 10327 20218 30061 40090 333 10405 58029=
31168 42999 80000 10037 20005 40094 57015 8807/=
31088 42999 03303 11035 21040 40081 56001=
43344 31596 63202 10266 20240 39995 40094 70522 83538 333
58006 83620 85360 86270=
58004=
42410 31596 60000 10266 20252 40075 70522 83530 333 59001
83620 85360=
57962 58008 6017/=
43353 32496 40000 10264 20229 40101 83301 333 56609 57940
58001 81614 81925 84075=
83612 21570 60908 10220 20190 39481 40100 58021 72162
83231 333 69921=
63624 32982 31803 10326 20160 40083 81042 333 10373 59001 81359
83078=
61701 12460 61810 10283 20243 40117 69902 84332
333 10315 58022 83612 81918 84362 94703=
61731 32460 70000 10304 20243 40099 86370
333 10322 58022 85612 81920 84462 94875=
71841 36/// /2804 10175 20031 39719 40109 58021 333 10175 21007
70000=
87548 31959 50510 10254 20132 30070 40166 57016 70510 80006 333 56007
85272=
71433 36/// /3009 10113 39876 40102 53001 333 10117 20107 70000=
62795 32970 70703 10240 20220 39588 40087 87070 333 10292 56090
58013 87365=
62801 32970 70904 10270 20210 39651 40081 87070 333 10315 56090
58003 87365=
62803 32970 70000 10240 20210 39105 40073 82047 333 10305 56039
59020 82365 87275=
62805 12970 71803 10240 20210 39542 40069 60072 87070 333 10285
56090 58009 87365=
62809 11661 70915 10295 20215 39583 40083 69902 79596 84907 333
10350 56109 57912 58013 81950 83640 87275=
62810 31770 71803 10260 20220 39545 40104 71392 81907 333 10330
56409 57942 58005 81956 87275=
62840 11770 72704 10233 20210 39662 40103 69902 71322 81970 333
10335 56690 57962 58011 81950 87365=
48647 31560 71302 10248 20236 30068 40093 70522 82548
333 82625 86362=
42415 31596 30000 10268 20257 40065 70510 82530 333 59007 82620=
58006 83620 85360 86270=
62600 32970 03607 10344 20091 39858 40061 333 10385 58003=
62640 12970 72710 10405 20105 39688 40024 69902 87070 333 10450
56090 59012 87365=
62641 HIL=
62650 32970 03606 10355 20000 39796 40054 333 10430 58002=
62660 31958 03518 10395 20025 39729 40011 70710 333 10450 59055=
62680 31965 71302 10375 20105 39652 40028 70622 80007 333 10435
56009 58000 87275=
62721 12970 71810 10280 20170 39611 40040 60102 87070 333 10415
56090 59015 87365=
62730 32970 01803 10297 20190 39496 40047 333 10385 58008=
62733 32970 72301 10310 20160 39573 40067 82047 333 10396 56099
58005 82365 87275=
62750 32970 71804 10300 20210 3//// 4//// 80007 333 10370 56009
5//// 87275=
62751 32970 72003 10280 20220 39621 40073 83047 333 10358 56099
59004 83365 87275=
62752 32970 72203 10275 20210 39405 40067 80007 333 10350 56009
58005 87275=
62760 32970 70000 10325 20075 39249 40028 80007 333 10388 56009
59011 87275=
62762 32970 71802 10265 20220 39596 40064 83047 333 10320 56029
59002 83365 87275=
62770 32970 72402 10280 20190 39207 40080 84047 333 10345 56099
59017 84365 87275=
62771 32970 71805 10283 20207 39425 40056 80007 333 10356 56009
59015 87275=
62772 32970 72604 10285 20205 39653 40078 84047 333 10340 56099
58001 84365 87275=
62781 11670 70000 10290 20230 39464 40082 69902 76166 87070 333
10345 56090 59012 87365=
62790 32970 70000 10265 20203 39371 40082 80007 333 10339 56009
59007 87275=
58013 87365=
58003 87365=
71923 17/// /0321 11008 21053 39776 40220 51010 60431 7//4/ 333
10000 21034=
78318 31560 50407 10306 20252 30147 40151 58012 71791 84902 333
06909 10308 20241 30/// 57941 59007 82820 839//=
78333 31/10 32102 10315 20220 30138 40144 57014 70511 81963 333
06999 10319 20222 30/// 57956 59004 818// 819//=
78338 31558 41002 10305 20245 30137 40150 58009 70500 84202 333
01209 10305 20227 30/// 59008 84824 555 10901=
78349 31562 50301 10307 20230 30034 40143 58014 70511 85900 333
06200 10309 20217 30/// 57912 59005 84822 81923 555 10903=
78360 31568 30108 10318 20239 30122 40134 5870500 82903 333 06209
10323 20244 30/// 57946 59006 81820 819// 92083 555 10902=
78369 31568 60503 10315 20239 30128 40140 58011 70511 83903 333
06109 10321 20249 30/// 5791/ 59006 82820 85070 819// 92023 555
10502=
71490 36/// ///// 11009 21041 39961 40275 53005 333 10002 21045
70000=
83766 32597 80000 10220 20136 39531 40189 56009 885//=
83767 21595 81404 10163 20151 39555 40191 58008 72162 887//
333 60031=
83783 21496 80905 10158 20152 39490 40171 58012 76065 8472/
333 60051=
83811 32597 81402 10198 20128 39270 40160 5//// 885//=
83813 32697 80904 10186 20128 39071 40174 52019 887//=
83836 32997 80905 10197 20118 39184 40161 56018 8801/=
83844 32597 81807 10232 20179 30192 40199 56015 8572/=
83872 31495 80906 10234 20187 30123 40204 58016 70522 8752/=
83881 32597 80503 10224 20126 39884 40184 58008 887//=
83883 31596 80902 10198 20146 39399 40173 57012 70542 885//=
83887 32997 80514 10186 20094 39131 40185 57023 8802/=
83907 32997 83605 10233 20150 39894 40175 58010 8807/=
83912 31996 80504 10230 20135 39659 40202 54000 70522 8807/=
83914 31996 70502 10204 20116 39407 40184 57006 70522 87010=
83919 32997 80501 10196 20111 39023 40208 57013 8801/=
83927 32597 63206 10260 20203 30060 40143 57009 86200=
83936 31196 80505 10276 20159 30056 40177 56003 70542 8801/=
83948 31596 80510 10210 20178 30152 40190 57012 71022 81107=
83953 31496 70906 10255 20191 39803 40182 54000 70521 87600=
83964 31995 53602 10246 20135 39696 40184 57004 70510 85020=
83980 31996 80510 10273 20177 39886 40164 57007 70522 8801/=
83995 32597 20902 10211 20181 30184 40187 58010 81210=
83997 31497 80506 10182 20162 30172 40216 58013 70242 886//=
40102 36/// /0501 10211 20052 39092 48501 52012 918//
333 10331=
62002 32960 02610 10360 20051 49422 48541 52004 333 10385=
62007 32960 03410 10280 20258 40086 52002 333 10360=
62008 32970 43304 10345 20196 39338 48527 55005 84030 333 10375
84358
62010 32958 30707 10338 20186 40079 57012 83080 333 104 6 83358=
62012 32960 01205 10315 20237 4//// 5//// 333 10415=
62016 32960 31711 10304 20216 40095 56003 83070 333 10401 83360=
62019 32960 4XXXX 10299 20242 40117 57003 80004 333 10361 84070=
62053 32960 20110 10310 20169 40131 51002 82030 333 10370 82358=
62055 32960 00310 10315 2,140 40125 51007 333 10402=
62056 32960 13605 10245 20145 39XXX 48XXX 5XXXX 80001 333 10320
81070
62059 32960 00610 10280 20213 40138 56004 333 10305=
62062 32960 03605 10265 80241 40118 57006 333 10300=
62131 32966 03610 10360 20211 39812 40109 51002 333 10418=
62161 32960 03605 10370 20103 40124 54000 333 10402=
62176 32960 00207 10340 20148 40100 56001 333 10380=
62200 32960 00000 10346 20127 39605 40118 57001 333 10410=
62212 32970 01308 10365 20016 39364 48554 57009 333100390=
62271 32960 03515 10350 20057 40142 53008 333 10390=
71421 46/// /////=
98222 31475 70201 10248 20/// 40077 58012 70544 82270
333 56999 82818 87358=
98324 11470 70702 10246 20232 40069 56009 69961 71362 82978
333 56999 82915 86270=
98427 32475 30000 10235 20218 40065 57014 82260
333 56999 82818=
98432 31568 30000 10254 20243 40075 58014 70544 81271
333 56999 81820=
98434 32465 40000 10265 20245 40067 56009 82201
333 56999 82818=
98446 32470 62902 10255 20246 40065 58017 83201
333 56999 83818 86070=
98447 32475 32703 10250 20239 39801 40063 5//// 82201
333 56999 82818=
98538 32466 52201 10263 20256 40084 58010 82206
333 56999 82811 84072=
98546 32575 30000 10250 20236 40076 57013 82201
333 56999 82820=
98548 32465 10000 10258 20245 40058 58010 81100
333 56999 81816=
98553 31465 60000 10250 20239 40075 58011 71322 84908
333 56999 82915 85272=
98558 32466 50000 10266 20245 40085 58010 82270
333 56999 82818 84358=
98642 31470 32402 10246 20230 40083 58012 71322 83901
333 56999 83915=
98644 31465 60000 10255 20235 40090 58012 71322 82970
333 56999 82915 86358=
98751 11465 70000 10211 20204 39422 40092 57018 60531 70186
83970
333 56999 83915 87356=
98752 31465 30000 10256 20243 40089 58021 71392 81971
333 56999 81916=
58012 55/// 85635=
59004 55070 84645=
58009 55096 81625=
58002 55105 82630=
58007 81630 83360=
58020 83625=
89014 46/// ///// 11168 39293 4//// 57001
333 11168 21209=
89758 46/// /22// 11481 36867 4//// 5////=
89568 46/// /15// 11488 37156 4//// 5////=
89774 46/// /05// 11509 36896 4//// 5////=
89816 46/// ///// 11236 38124 4//// 5////=
82586 32598 40504 10354 20124 39842 40076 84200 333 59003=
82693 32599 21413 10339 20122 39843 40096 82200 333 58009=
43014 32996 00000 10232 20211 39451 40094 333 58004=
10317 20217=
10261 20189=
10007 21055 79999=
97014 32558 40000 10226 20220 39999 40092 58008 82411
333 56000 82623=
91610 31599 20907 10281 20244 40086 54007 70100 82100=
40250 32970 00000 10274 20155 39339 40090 52004 333 10358=
40265 32960 03209 10400 20235 39330 40092 52008 333 10330=
40296 32965 00000 10311 20205 40100 52009 333 10390=
40310 32960 02614 10239 20093 38915 48483 52015 333 10320=
40255 32960 02406 10230 20215 39403 40089 52004 333 10302=
40260 32960 03410 10294 20169 39323 40060 53006 333 10360=
40270 32960 02102 10254 20196 39219 40074 52007 333 10330=
40272 32960 00000 10235 20167 39275 40074 52008 333 10328=
40340 32960 20000 10318 20130 40056 52014 333 10375=
45006 21181 99473 70899 46/// /2404 10153 39906 40126 50000 91750
22200 00199 10602 70008 333 91205=
78016 32464 41108 10291 20235 30151 40192 56014 82101 333
10298 20247 79999=
91754 333 10311 20256=
63766 32981 00912 10221 20120 48517
333 10311 59002=
65528 11460 3//// 10280 20237 39630 40100 60012 70162 83900
333 10320 59008 83913 95332=
65536 32460 4//// 10298 20224 39679 40104 83902
333 10322 59013 83813 81920 95314=
65548 32460 6//// 10279 20215 39732 40113 81903
333 10297 59006 81815 86080 81923 95337=
65555 31560 41804 10269 20227 39677 40113 72991 83902
333 10290 59005 83820 81933 95337=
65557 32460 40000 10284 20229 39873 40112 84202
333 10306 59003 84815=
65562 32460 4//// 10278 20229 3//// 4//// 82202
333 10313 5//// 82813 84080=
65578 36/// /2302 10251 20242 30123 40132
333 10281 59006=
65592 32460 5//// 10264 20226 30099 40122 85200
333 10286 59005 85813=
65599 32460 3//// 10246 20227 30041 40116 81902
333 10280 59014 81813 83076 81920 95331=