ZCZC 000
SMCI10 BENJ 021800
AAXX 02181
58221 11557 80707 10226 20222 30007 40041 57027 60291 79596
889// 333 10249=
58321 11560 61403 10247 20231 40025 57032 69931 70060 86500
333 10262=
58457 31913 32003 10251 20244 30000 40049 57027 71000 83040
333 10294=
57265 11256 80000 10214 20209 39943 40048 57005 60011 76060
8772/ 333 10243=
57399 32962 22002 10294 20221 40025 57016 82040 333 10326=
57447 32762 70000 10242 20230 39513 40023 57004 875// 333
10296=
57461 32970 03402 10263 20236 39862 40013 57001 333 10341=
57494 32970 00000 10287 20228 39989 40016 57015 333 10348=
57655 32965 00000 10246 20228 40046 57004 333 10345=
57662 32962 01803 10293 20225 39991 40030 57006 333 10346=
57766 32968 00000 10260 20228 40059 57006 333 10333=
52740 16/// /2702 10044 29057 36877 60000
555 1/132 2//00 /////=
57957 32967 71401 10257 20237 39896 40084 57001 87040 333
10322=
59082 32961 01803 10278 20227 30022 40095 57001 333 10336=
59117 32980 02201 10270 20235 30002 40103 57005 333 10360=
59211 11662 70000 10251 20244 39878 40078 52002 69921 70080
8744/ 333 10322=
59265 32965 01101 10270 20226 39963 40096 54000 333 10331=
59287 32562 31602 10274 20250 30060 40109 57005 83400 333XX
10336 =
59316 32570 22501 10274 20251 30099 40108 57013 82400 333
10327=
59431 11580 71401 10266 20248 39946 40089 57005 69951 72580
878// 333 10320=
59644 32570 11407 10276 20251 30074 40089 57004 81100 333//
10317=
59758 32968 01802 10267 20254 30068 40089 57011 333// 10326=
59023 32560 60902 10255 20245 39836 40074 57001 86800 333
10324=
59293 32965 22002 10270 20235 30056 40102 57008 80002 333
10353=
59417 32573 40000 10252 20245 39940 40087 57004 81142 333
10321=
59501 32570 11402 10279 20246 30101 40117 57011 81100 333
10326=
59663 32464 20902 10278 20253 30070 40097 57007 82100 333
10317=
59838 32980 11403 10280 20220 30068 40082 57006 80002 333//
10329=
59948 32570 20903 10282 20248 30078 40086 57011 82100 333//
10321=
59981 32580 11402 10279 20254 30084 40090 57014 81100 333//
10318=
59985 32575 21103 10279 20256 30076 40081 57011 82100 333//
10329=
58027 11230 80706 10178 20171 30014 40063 57024 60141 76060
8772/ 333 10232=
58040 11560 80405 10165 20160 30084 40088 57018 69961 76060
885// 333 10200=
58144 11358 80404 10191 20186 30042 40064 57023 60051 76260
8672/ 333 10256=
58633 32975 12702 10250 20230 39965 40059 57016 80002 333
10342=
58659 31630 81101 10254 20247 30051 40084 57019 71000 885//
333 10305=
58847 32670 21402 10276 20233 39991 40087 57013 82500 333
10360=
59134 32480 12003 10257 20235 39955 40112 57010 81100
333 10335=
59046 32975 60000 10276 20237 40089 52004 86030 333 10340=
59058 32470 70000 10250 20241 40094 57002 878// 333 10329=
59072 32670 42002 10288 20229 40089 57003 82440 333 10360=
59087 32560 42001 10252 20236 40103 57003 84100 333 10321=
59096 32970 00000 10250 20225 40099 57005 333 10346=
59209 11562 30000 10232 20196 40085 54000 69921 70080 83100
333 10280=
59254 32770 63201 10256 20245 40092 52003 86500 333 10332=
59278 32573 21603 10267 20243 40100 57008 82400 333 10346=
59493 32575 21101 10283 20243 40097 57015 82100 333 10337=
59632 32966 10903 10273 20253 40087 57004 81040 333 10335=
59647 32580 10905 10276 20253 40081 57008 81100 333// 10311=
59658 32468 71403 10282 20254 40096 57007 87100 333 10314=
59673 32580 21603 10279 20254 40101 57009 82200 333 10318=
59845 32970 01604 10258 20235 40079 57010 333// 10338=
59855 11570 51403 10278 20258 40085 57008 69901 70080 85100
333// 10315=
58345 31920 80702 10240 20237 40053 57024 71000 8807/ 333
10248=
58543 32970 00000 10248 20236 40066 57021 333 10326=
58556 32962 30000 10262 20238 40059 57021 83040 333 10317=
58569 31458 62208 10242 20239 40067 57018 71090 82102 333
10275=
58646 32962 60901 10252 20236 40075 57016 86040 333 10355=
58660 11960 00000 10235 20219 40075 57021 69911 70098 333
10320=
58834 32967 00000 10256 20239 40091 57010 333 10354=
58926 32965 00000 10256 20234 40100 57008 333 10357=
58944 32465 12204 10262 20239 40100 57009 81500 333 10323=
58150 11/01 90405 10182 20182 30060 40068 57022 69901 76064
333 10219=
58251 11556 80202 10207 20202 30053 40059 57024 69951 76064
885// 333 10241=
50468 32975 20000 10091 20059 39915 40111 57003 80002 333
10271=
50745 32965 12001 10172 20081 39941 40112 57002 80002 333
10299=
50953 32970 00000 10159 20092 39948 40118 57003 333 10277=
54337 32960 00202 10193 20140 30044 40125 57012 333 10296=
54342 11965 00401 10167 20130 30074 40134 52007 60011 70098
333 10297=
54471 32960 00000 10195 20170 30115 40120 57007 333 10284=
54497 32962 00404 10182 20144 30100 40114 57010 333 10299=
54662 32970 73602 10180 20144 30002 40119 57012 80002 333
10241=
53513 11968 82203 10153 20131 38964 40119 52001 60171 76066
8802/ 333// 00453 10238=
54218 32980 02501 10175 20106 39476 40116 54000 333 10301=
54511 32960 80701 10200 20152 30084 40122 57012 8801/ 333
10295=
51468 16/// /3600 11023 29035 36579 69951
555 1/124 2//00 /////=
58472 31550 20000 10235 20228 39971 40064 57015 71300 81940
333 10259=
58477 11220 70000 10228 20222 30019 40061 57020 69901 71080
876// 333 10274=
58666 31920 72009 10235 20235 39984 40081 57019 72840 8704/
333 10250=
58725 32965 01601 10224 20218 39843 40091 57009 333 10346=
58760 11558 81804 10242 20238 40081 57021 69911 71080 8217/
333 10271=
57259 11570 80902 10221 20200 40042 57002 69911 76060 8177/
333 10248=
57279 11466 80202 10221 20210 40036 57001 60081 72186 8372/
333 10268=
57476 32962 02204 10281 20237 40014 57010 333 10335=
57554 32863 70000 10241 20225 40037 57006 875// 333 10312=
57584 32970 01806 10294 20216 40039 57012 333 10342=
57598 32962 00000 10251 20231 40052 57016 333 10344=
57687 32970 01802 10279 20228 39971 40046 57007 333// 10342=
57745 32970 03401 10249 20223 39745 40051 54000 333 10330=
57793 32968 02002 10248 20228 40067 57005 333// 10353=
57799 32975 01801 10292 20214 39985 40064 57009 333 10345=
57845 32968 02006 10262 20215 40067 52003 333 10298=
57853 32980 00000 10247 20224 40060 57004 333// 10329=
57866 32975 02203 10273 20217 39872 40067 57004 333// 10336=
57972 32963 02204 10284 20212 39867 40077 57005 333 10342=
58102 11650 80406 10199 20191 39996 40045 57022 60371 76166
8802/ 333 10264=
58203 11540 80903 10226 20223 39977 40020 57027 60521 79596
889// 333 10240=
58314 32970 00000 10242 20233 39938 40021 57025 333 10278=
58338 32962 71102 10239 20235 40042 57022 8704/ 333 10268=
58424 32963 32203 10279 20237 30013 40035 57019 83040 333
10328=
58437 31/07 92210 10163 20158 38147 57020 74344 333 10176
91123 91520=
58527 32960 33201 10258 20239 39983 40054 57015 80002 333//
10335=
58606 32964 02701 10266 20239 30001 40053 57013 333// 10332=
58715 32980 01803 10268 20227 40068 57012 333// 10344=
59102 32663 21802 10263 20222 40098 57010 82500 333 10336=
58921 32970 02202 10253 20213 39859 40090 57009 333 10352=
58238 11430 80000 10233 20226 30035 40044 57023 69901 78000
8697/ 333 10239=
10328=
58562 11562 42202 10261 20235 40054 57018 69901 70080 84400
333 10306=
53463 32965 80000 10190 20112 38939 40098 57003 8802/ 333//
00151 10281=
54823 32960 81402 10223 20182 39895 40088 57014 8802/ 333
10295=
45007 32580 11204 10289 20233 30091 40100 58011 81100
333  58003 81820 =
50632 32970 00000 10056 20001 39289 40136 57004 333// 10266=
59456 32978 02201 10260 20238 40097 57001 333 10334=
54094 32960 01803 10144 20090 39832 40113 57004 333 10257=
50548 32980 00000 10084 20056 40114 54000 333// 10296=
50834 32980 02903 10112 20045 40130 57001 333// 10289=
53480 32980 70000 10151 20099 40119 52001 80002 333// 10231=
53673 11960 80000 10170 20142 40125 57006 69941 76060 8802/
333// 10237=
53898 11461 80202 10208 20176 40103 57009 69911 76066 8572/
333// 10255=
54602 32960 80203 10207 20150 40120 57011 80007 333// 10289=
54751 31/02 90706 10120 20120 40118 57012 74540 333// 10164=
54916 11960 80402 10203 20197 40083 57021 60041 76060 8807/
333// 10309=
58208 11362 80903 10241 20235 40012 57024 60151 76098 887//
333// 10252=
56294 11965 82003 10233 20215 39454 40018 57002 69981 76060
8807/ 333 00001 10291=
56492 31740 80000 10260 20210 39627 40008 57006 71000 885//
333 00002 10296=
56571 32780 12003 10261 20143 38337 52008 81100 333 00251
10340=
56651 32980 03601 10178 20120 37619 52006 333 00101 10262=
56778 32565 60000 10190 20159 38091 57002 86400 333// 00151
10261=
56951 32670 31601 10190 20176 38471 54000 83400 333// 00152
10253=
57328 11765 80204 10251 20213 39611 49996 52004 69901 79180
889// 333 1026/=
57411 11440 80401 10229 20225 39662 40011 52001 60231 79598
889// 333 10266=
57516 31840 80000 10265 20235 39708 49997 52002 71000 885//
333 00103 10332=
57816 32680 62006 10220 20184 38744 40046 57004 86500 333
00100 10285=
57378 32762 83404 10233 20214 40035 54000 885// 333 10325=
58506 32980 02011 10221 20177 40052 57017 333// 10268 91117
91520=
58813 32980 01802 10255 20224 40070 57010 333// 10348=
58362 11658 80703 10228 20225 30054 40064 57015 69921 71060
885// 333 10252=
50527 32970 02002 10129 20047 39419 40114 57006 333// 10273=
50727 32980 01402 10045 21008 38995 40153 57002 333// 10245=
54102 32980 01601 10162 20090 39028 40119 57001 333// 10273=
54843 32962 81103 10170 20156 30075 40101 57017 8802/ 333//
10239=
54909 11359 80403 10210 20205 30014 40074 57013 60061 76166
8772/ 333// 10250=
58730 32961 10701 10238 20226 40084 57010 81040 333 10326=
58731 32980 00000 10233 20227 40085 57012 333 10327=
58754 32662 80000 10258 20242 40088 57017 885// 333 10305=
58911 32970 00000 10220 20214 40101 57006 333 10328=
50136 32970 00000 10075 20044 39587 40086 57001 333 10290=
50353 32770 20000 10106 20073 39889 40098 57007 82530 333
10268=
50557 32970 00000 10125 20011 39821 40103 57005 333 10285=
50756 32970 00701 10143 20051 39834 40112 57003 333 10278=
50788 32970 03203 10129 20102 30021 40102 52003 333 10234=
50949 32965 02503 10186 20136 39970 40129 57002 333 10285=
50963 32970 00000 10109 20091 39982 40111 52002 333 10280=
50978 32975 03402 10145 20095 39825 40102 57005 333 10237=
54161 32970 02502 10158 20108 39851 40127 57005 333 10273=
54236 32980 00201 10151 20128 30034 40132 57007 333 10310=
54292 32970 00000 10116 20094 39919 40128 57005 333 10280=
54374 32962 03402 10124 20097 39755 40142 52005 333 10270=
56193 11970 02502 10204 20190 40015 57009 60051 70080 333
00001 10321=
56196 32974 70000 10250 20205 40010 52003 8703/ 333 00002
10303=
56287 11470 82503 10225 20199 40034 57001 69931 78098 889//
333 00101 10295=
56385 11/00 93404 10107 20107 37020 57002 69941 74564 333
00201 10188=
56666 32980 01401 10272 20158 49994 52010 333 00352 10353=
56671 32780 10000 10204 20161 38180 52003 81400 333 00251
10280=
56684 32580 12504 10196 20125 37867 57002 81100 333// 00101
10260=
56751 32680 12903 10181 20161 37999 57002 81100 333 00252
10276=
56786 32570 82002 10190 20170 38093 57005 884// 333 00100
10202=
56886 32980 00000 10186 20168 38249 57003 333 00100 10277=
56977 32680 50000 10207 20198 40059 57001 85400 333// 00000
10289=
57206 32780 80000 10240 20173 40013 57003 884// 333 10281=
57348 32770 80202 10254 20216 40005 57004 885// 333 10298=
57426 32762 80000 10260 20236 49987 52001 885// 333 00001
10329=
57602 32762 82001 10261 20212 40006 57003 885// 333 10308=
57713 32670 71803 10264 20194 40018 52003 875// 333 00102
10332=
57046 11/00 90908 10110 20108 37913 57005 69931 76064 333
00055 10162=
53923 11970 80704 10144 20144 40085 57005 60011 76066 8802/
333 10199=
57006 32765 70000 10183 20161 40058 57007 875// 333 00352
10220=
52889 32980 70201 10208 20116 38431 40019 57007 8703/ 333
00300 10293=
52418 32980 00401 10176 20064 38799 40018 52007 333 00251
10319=
56046 32780 22002 10051 20020 36305 52002 82500 333 00301
10134=
56029 11680 50000 10080 20047 36539 52001 60011 70080 82902
333 00451 10162=
56080 32980 60000 10096 20078 37162 52001 86030 333 00400
10205=
52533 32980 00000 10112 20107 38500 40110 57007 333 00457
10197=
53915 11530 80000 10160 20154 38611 40079 57003 60051 76066
8372/ 333 00354 10197=
56096 11780 33202 10212 20180 38859 40023 57014 69991 70060
83500 333 00102 10288=
52652 32980 00000 10106 20099 38492 40117 57004 333 00456
10181=
53646 11967 80000 10147 20121 38944 40112 57005 60031 76066
8802/ 333 00457 10238=
53845 11561 80000 10142 20133 39037 40114 57005 60031 76066
8572/ 333 00359 10237=
57127 31958 80000 10194 20189 39475 40054 57008 71000 8807/
333 10204=
57036 11961 80403 10166 20159 39622 40080 52001 60031 76166
8802/ 333 10253=
57245 11659 80000 10208 20205 39715 40049 57004 69931 79596
889// 333 05100 10212=
53614 11558 80204 10137 20130 38876 40107 57011 60151 76066
8372/ 333 00558 10218=
53723 11965 80703 10130 20125 38622 40093 57009 60051 76066
8802/ 333 00459 10223=
52836 32980 21102 10106 21045 36925 52003 80002 333 00202
10193=
52866 32975 10000 10126 20087 37694 52012 80002 333 00301
10255=
52754 32980 03404 10050 21030 36817 52005 333 00301 10165=
52713 32980 21602 10106 21079 36942 52007 80002 333 00306
10195=
57016 11940 80906 10179 20174 40078 57002 60031 76066 8802/
333 10222=
53705 32965 80203 10153 20141 40086 57009 8802/ 333 00557
10223=
56065 32680 10000 10039 20031 36659 52001 81500 333 00453
10153=
91520=
56586 32975 01602 10210 20130 38004 54000 333 00101 10302=
56748 32980 00000 10201 20167 38320 52003 333// 00101 10298=
56768 32680 20000 10195 20168 38207 54000 82400 333 00152
10249=
56838 32970 00000 10232 20205 40046 52005 333// 00151 10308=
56946 11575 50000 10206 20197 40052 57003 69901 71580 85900
333// 00153 10302=
56954 11556 30000 10207 20201 40060 57011 60061 71098 83400
333// 00000 10295=
56959 11762 20000 10232 20222 40042 57002 60051 70098 82900
333// 00000 10332=
56966 11775 51103 10270 20211 40041 52002 69961 70098 85400
333// 00151 10336=
56969 11560 70000 10227 20221 40060 52002 69901 71798 879//
333// 00001 10323=
56986 11260 81407 10188 20171 40081 57004 60021 78080 884//
333// 00151 10225=
57237 11750 82001 10196 20193 40040 57005 60291 79598 889//
333 10212=
57306 11757 83601 10222 20213 40010 57002 60061 79598 889//
333 10259=
57504 31958 83601 10267 20214 40005 57002 71000 8807/ 333
00103 10316=
59007 32570 41402 10213 20189 40064 57005 84100 333// 10274=
53352 32980 32204 10166 20118 40085 52002 80002 333// 10257=
53975 11930 82702 10172 20152 40096 57011 60011 76060 8802/
333// 10220=
54826 11465 80906 10114 20084 38433 57019 60021 72160 885//
333// 10177=
54836 31950 80901 10198 20174 40087 57026 71000 8802/ 333//
10271=
54863 32462 80903 10157 20147 40114 57010 885// 333// 10222=
57071 11550 80904 10183 20172 40084 57004 60031 76160 8572/
333// 10229=
50246 32970 22902 10046 20034 40101 57001 80002 333 10290=
50442 32970 00000 10081 20048 40117 52010 333 10297=
50658 32980 00000 10137 20056 40105 57003 333 10285=
50844 32962 02203 10208 20107 40118 57001 333 10304=
50854 32970 02201 10145 20070 40118 57004 333 10297=
50888 32980 00000 10106 20084 40102 57003 333 10238=
50968 32970 01802 10134 20112 40115 57002 333 10252=
50983 11970 33201 10137 20105 40096 57011 69901 70080 83030
333 10235=
54096 11970 02901 10097 20085 40109 57012 69951 70080 333
10233=
54259 32662 60901 10115 20105 40145 57006 86500 333 10285=
54273 32970 00000 10135 20117 40132 57004 333 10267=
54324 32970 00402 10204 20139 40125 57003 333 10318=
54346 11965 00904 10150 20125 40131 57001 69901 70060 333
10297=
54493 32974 00000 10138 20098 40124 57003 333 10276=
56763 32680 12001 10239 20190 40019 52001 81400 333 00253
10326=
47401 41/50 81901 10093 20088 30103 40116 56005 70252 886//=
47412 41360 81302 10115 20104 30089 40120 58014 75152 886//=
47420 42/60 72501 10071 20062 30078 40125 55004 876//=
47426 41/02 92601 10091 20086 30075 40119 58012 74722=
47582 42960 41403 10117 20101 30111 40137 58018 81031=
47590 42/65 10303 10157 20121 30079 40130 56009 81600=
47600 41960 02003 10122 20114 30116 40133 56012 702//=
47648 42/70 81803 10199 20179 30090 40122 56014 8687/=
47662 42/60 71301 10218 20182 30080 40122 56008 82102=
47678 42/70 72302 10212 20184 30037 40130 56013 86202=
47740 41/58 73402 10153 20138 30086 40123 56012 71022 81131=
47778 41/58 82405 10220 20201 30030 40116 56013 721// 8272/=
47807 41/50 81502 10204 20180 30097 40114 56013 76166 8272/=
47827 41/60 81302 10216 20197 30068 40104 58024 76166 8557/=
47843 41350 80803 10198 20185 30053 40084 58032 78188 882//=
47898 41960 80501 10218 20208 30083 40121 58007 761// 8802/=
47909 42/70 71903 10258 20221 30107 40115 56016 872//=
47918 42/81 21604 10277 20251 30104 40112 56016 82200=
47936 42/80 71704 10258 20238 30060 40121 56016 872//=
47945 42/65 21502 10248 20243 30108 40131 56010 82100=
47971 42/80 73301 10234 20220 30143 40152 56006 81102=
47991 42/75 21103 10268 20222 30138 40148 55003 82201=
52996 32965 03202 10109 20099 37557 57008 333 00302 10159=
52436 32980 10702 10123 20094 38434 40071 54000 80002 333
00459 10244=
52787 11962 10000 10058 20044 37045 57006 69901 70080 80002
333 00251 10138=
56021 32980 63201 10051 20026 36138 52004 80002 333 00302
10112=
52323 32980 12703 10131 20051 38214 54000 80002 333 00355
10257=
52681 32980 70000 10151 20122 38598 40080 57012 8703/ 333
00457 10224=
52955 32980 01801 10052 20019 36991 52004 333 00252 10201=
56004 32980 20000 10021 21006 35898 52006 80002 333 00402
10114=
54423 32970 00000 10180 20157 39689 40127 57001 333// 10316=
57083 11456 80402 10198 20188 39951 40081 57014 60091 72166
8672/ 333// 10232=
53564 11970 80000 10163 20132 39158 40114 57002 69971 76060
8802/ 333// 00456 10264=
53588 31970 80906 10076 20054 37811 57009 70040 8802/ 333
10130=
53772 11660 80402 10172 20133 39248 40123 57010 69941 78088
889// 333// 10227=
54401 32962 70000 10200 20125 39317 40123 57005 80002 333//
10281=
53787 11770 80202 10160 20092 40103 57007 69901 70060 885//
333// 10235=
54308 32970 00000 10165 20127 40131 57001 333// 10284=
54527 32960 20000 10196 20161 40125 57009 80002 333 10269=
54725 32963 80704 10174 20145 40106 57008 80007 333 10287=
54808 11958 83203 10208 20205 40086 57011 60021 76060 8807/
333// 10284=
53798 11960 80202 10215 20152 30018 40107 57009 69921 76060
8802/ 333// 10261=
53959 11558 80000 10168 20158 39657 40090 57008 60031 76166
8772/ 333// 10260=
54618 32961 80703 10185 20149 30092 40109 57008 8807/ 333//
10284=
53593 32961 80000 10189 20100 40115 57005 8807/ 333// 10257=
53764 11970 80704 10162 20113 40105 57005 69931 76160 8802/
333// 10234=
53863 11950 80703 10162 20140 40113 57008 69931 72160 8802/
333// 10217=
54405 32962 61801 10203 20135 40122 57006 80002 333// 10280=
54436 32980 00000 10163 20142 40133 57003 333// 10303=
50603 32980 01602 10193 20006 39469 40090 57006 333// 10306=
54026 32980 00000 10177 20120 39824 40128 57003 333// 10315=
54027 32980 03201 10152 20089 39579 40130 54000 333// 10307=
47575 42/60 72201 10133 20114 30130 40134 58008 87800=
47585 42/65 32602 10118 20109 30076 40132 58006 83630=
47598 41/58 21501 10156 20141 30121 40127 56012 71000 82600=
47602 42980 01001 10128 20114 30113 40133 57014=
47618 42/60 73601 10135 20114 39431 40135 56011 81102=
47624 42/65 73302 10179 20128 39993 40125 56011 81102=
47636 42/60 81601 10208 20164 30056 40121 56008 81207=
47655 42960 83401 10203 20175 30064 40118 56011 8802/=
47750 42/65 83201 10173 20158 30098 40124 56010 81507=
47755 41950 70501 10187 20174 30091 40115 58012 710// 8707/=
47772 41958 81101 10226 20169 30022 40117 56012 71022 8802/=
47800 41/30 81801 10192 20173 30088 40110 56019 71082 8422/=
47815 41/50 81601 10206 20191 30107 40122 55004 76162 8802/=
47817 41/20 80101 10209 20199 30057 40098 58024 78166 882//=
47830 41/50 81501 10205 20195 30092 40109 58015 78022 8722/=
47837 41/65 81702 10229 20210 30092 40113 56017 78082 882//=
47891 41/56 82601 10208 20160 30107 40119 55005 71022 8127/=
47899 41/65 82707 10197 20187 39906 40122 55009 76122 8172/=
47927 42/80 31703 10260 20246 30067 40114 56020 83200=
43497 71015 10205 20180 40142 54600 874//
22214 04295 20605 310// 40603 80190=
56079 11980 10000 10081 20063 36718 57001 60021 70080 80002
333 00400 10170=
56144 32980 01401 10083 20065 36902 52006 333 00656 10221=
56152 32680 50000 10065 20047 36356 57001 85900 333 00301
10182=
56167 11780 71605 10136 20103 37101 52010 69901 70098 874//
333 00402 10243=
56173 11880 70000 10086 20076 36685 57001 60041 70098 879//
333 00401 10161=
56182 11780 80000 10116 20104 37208 57005 60071 70086 885//
333 00400 10222=
56257 11680 80000 10112 20018 36311 52010 69901 78000 889//
333 00202 10205=
56357 32980 02701 10096 20022 36480 52005 333 00100 10216=
56374 11480 80000 10143 20120 37417 52013 69901 70080 884//
333// 00201 10228=
10280=
10249=
57707 32970 01802 10227 20171 38431 54000 333 00100 10305=
57731 32980 01803 10279 20208 40028 54000 333 10341=
57832 32774 22702 10259 20196 40045 54000 82500 333 10310=
57916 32670 60000 10258 20220 40063 52002 86800 333 10305=
57922 11461 81606 10220 20196 40071 57004 69901 76000 885//
333 10263=
57932 32666 20000 10243 20227 40062 57002 82500 333 10323=
44210 32699 82706 10144 20034 38440 51015 8281/ 333 91112=
44216 32599 83205 10207 20056 38848 49986 54000 85500=
44217 41698 50000 10013 20073 37863 40159 58011 81870=
44229 32999 20000 10049 20049 37923 40148 58006 82040=
44257 329// 00000 10123 20000 38939 40174 54002=
44263 32598 72705 10103 20038 38030 40116 52022 87900=
44266 329// 73204 10150 20073 37755 40040 54002 87070=
44291 32998 01607 10190 21044 38707 40164 58004=
44325 329// 60902 10254 20104 38771 40020 52010 85080=
44374 32999 61807 10141 20059 38241 40073 54000 83043=
44385 329// 82307 10215 20086 38846 40052 58005 8807/=
56146 11880 22901 10091 20062 36770 57002 60061 70098 82402
333 00454 10205 91125 91527=
56172 11980 00000 10116 20109 37357 52003 60031 70080 333
00452 10256=
56247 32880 71401 10197 20088 37403 52020 82402 333// 00200
10304=
56444 32780 10000 10089 20070 36830 52006 81100 333 00251
10187=
56462 32680 63402 10140 20086 37136 52014 86400 333 00102
10278=
56691 32480 21806 10178 20142 37753 57002 82600 333 00100
10250=
56739 32578 82001 10197 20177 38321 52004 889// 333 00102
10274=
10261=
10253=
56964 11570 30000 10209 20196 38667 40059 57001 69921 70080
83100 333// 00001 10259=
56985 32580 21802 10215 20182 38673 40060 57003 82400 333
00100 10284=
57633 32765 70000 10236 20217 39300 40029 57002 875// 333
00001 10315=
57902 32575 61404 10209 20176 38590 40049 57007 86400 333
00151 10286=
53068 32980 71404 10206 20041 39040 40093 57003 80002 333//
05103 10294=
53231 11970 80904 10132 20109 38468 57007 60121 76160 8802/
333// 00254 10239 91119 91516=
53276 32975 81805 10177 20107 38855 40106 52005 80007 333//
10269=
54135 32980 01602 10151 20110 39926 40134 57005 333// 10318=
54539 32970 00000 10172 20142 30105 40119 57016 333// 10256=
54753 32962 60702 10164 20145 30102 40108 57018 80002 333//
10278=
54857 31430 82701 10168 20161 30018 40107 57009 71000 8662/
333// 10208=
57067 11450 80000 10168 20166 39434 40083 57002 60081 76166
8772/ 333// 10232=
57178 11630 83606 10203 20194 39899 40050 57003 60451 78196
889// 333// 10230=
57297 11465 83402 10228 20225 39889 40021 57008 60021 79598
889// 333// 10241=
56033 32680 10000 10039 21028 36084 52003 81500 333 00401
10125=
50564 32970 00000 10063 20040 40115 52001 333 10268=
54049 32970 02501 10154 20136 40133 57007 333 10280=
54115 32980 02703 10162 20062 40128 52001 333// 10290=
54157 32962 00000 10133 20120 40135 57009 333 10267=
54186 32970 02201 10106 20065 40131 57007 333 10250=
54377 32970 02001 10141 20105 40132 57006 333 10290=
54386 32970 00403 10082 20061 40153 52001 333 10226=
84531 22223=
83479 22273 0//// 20201 303// 40303 80086=
58265 11662 81402 10221 20220 30049 40060 57024 60501 79598
889// 333 10238=
58931 31/00 92007 10180 20180 38373 57010 74740 333 10248=
50774 32960 00000 10062 20055 39832 40121 52004 333 10262=
44286 329// 20000 10168 20004 38605 40075 52002 82080=
44317 32998 02003 10161 20029 38923 40116 58002=
53083 32980 00201 10150 20032 40121 54000 333// 00002 10274=
54226 32980 00000 10165 20118 40124 57010 333// 10307=
54311 32980 00202 10151 20100 40133 52006 333// 10280=
54534 32960 20402 10199 20168 40126 57012 80002 333// 10298=
54715 32970 80404 10194 20168 40101 57013 8807/ 333 10294=
54929 11558 80903 10188 20183 40085 57026 60031 76060 8572/
333// 10227=
54945 11540 80705 10156 20154 40105 57017 69911 71054 885//
333// 10174=
57193 11256 80204 10210 20205 40047 57015 60301 76266 8772/
333// 10265=
57290 11660 80403 10212 20203 40037 57005 60391 79596 889//
333// 10244=
52602 32980 03402 10085 21062 37291 52007 333 00203 10216=
51886 32980 00401 10123 21053 37147 52008 333 00404 10211=
52818 32980 22502 10156 21044 37261 52013 80002 333 00307
10225=
52737 32980 00701 10120 20023 37096 52005 333 00206 10189=
56018 11665 82901 10051 20046 36244 52013 60021 78080 889//
333 00400 10139=
52908 32980 13601 11002 21031 35838 52006 80002 333 00402
10086=
53698 32961 83601 10217 20152 40115 57011 8807/ 333// 10269=
53487 32962 81101 10181 20097 40107 57005 8802/ 333// 10255=
56066 36/// ///// 10037 20009 36644 4//// 57001
555 10040 2//// 3//// 40111 51001 60/// 7//// 80000
9//// ///// 1/020 2//00 30000=
52634 36/// /0000 10047 20003 36776 4//// 52003
555 10040 2//// 30122 41111 51011 60/// 7//// 80000
9//// ///// 1/111 2//00 30000=
50434 32980 01602 10018 20002 39293 40137 57001 333// 10258=
50915 32980 01802 10167 20056 39182 40112 57001 333// 10302=
53149 32980 62204 10183 20112 38753 40070 52006 80002 333//
05101 10277=
53192 32980 00203 10152 20021 38897 40133 57001 333// 10268=
53336 11570 71803 10149 20139 38695 40088 54000 60011 72580
82902 333// 00254 10262=
53391 32980 11402 10142 20072 38525 40124 57005 80002 333//
00102 10231=
53529 11570 81103 10122 20111 38601 40113 57012 69991 76066
8372/ 333// 00358 10195=
53543 11980 81803 10120 20096 38540 40120 52002 69911 76060
8802/ 333 10225=
54012 32980 01101 10116 20081 39026 40135 57002 333// 10262=
54208 32980 00000 10120 20078 38768 40137 57001 333// 10241=
54776 31/00 90401 10129 20129 30060 40117 57014 74540 333//
10167=
57528 16/// /1900 10132 29756 37563 61430
555 1/144 2//07 30221 12100
11101 10101 00010 10110 1011/
/////
2//// 3//// 6//// ///// ///// 8//// 9//// ///// ///// //004
11101 11111 1011/
11111 110//=
58003 81820=
45011 42475 61406 10276 20246 40109 58009 852/1 333 58003=
57993 32976 02702 10281 20227 39941 40081 57008 333// 10351=
58968 32865 71601 10278 20239 30091 40098 58015 8703/=
59358 31657 50402 10270 20255 30091 40102 57018 71011 85500=
59559 32570 21002 10265 20235 30078 40106 58020 82500=
59792 32560 20904 10282 20261 30096 40101 57014 82200=
59997 32562 32501 10256 20242 30057 40071 57016 82201=
59158 32562 72302 10277 20242 30005 40102 58016 874//=
59562 32570 13101 10264 20215 30098 40109 57023 81100=
47105 41/08 92502 10159 20155 30096 40127 57009 75254=
47108 31925 60000 10190 20151 30006 40107 57016 71022 80002=
47115 32558 60000 10162 20145 39865 40126 57012 71011 84502
333 92031=
47135 31657 81601 10171 20162 39826 40110 57009 71022 8252/=
47138 31658 80202 10176 20164 30118 40121 57009 71022 8352/
333 92022=
47159 31930 80903 10184 20173 30034 40114 57015 71022 8802/
333 92022=
47165 32562 80703 10191 20174 30054 40097 57016 8352/ 333
92021=
47184 42665 80701 10201 20174 30060 40087 58022 8452/ 333
92022=
47008 42965 00000 10160 20113 30074 40123 56000=
47016 42970 00502 10090 20067 39309 40144 52004=
47020 42965 00000 10148 20111 39786 40148 52002=
47035 42970 00504 10179 20148 30110 40118 57004=
47041 42570 80000 10154 20143 30100 40127 57015 885//=
47055 41556 40000 10150 20135 30095 40139 57006 71000 855//=
47058 42966 00000 10173 20152 30076 40121 58009=
47069 42960 00000 10177 20157 30014 40109 58014=
23914 11999 22701 10222 20129 40119 56007 69930 70192 80002
333 10264=
23921 11599 72902 10186 20125 40121 58006 69900 71392 85901
333 10280=
23955 41484 63601 10082 20041 40100 52003 78082 84930=
24641 41499 80000 10119 20089 40037 57002 70282 8435/ 333
84916=
28440 32997 03101 10203 20092 40140 57008 333 10263=
28748 32964 01802 10167 20053 40175 57001 333 10214=
29231 41498 70000 10108 20068 40076 58007 70262 86530 333
86615=
29838 41997 51801 10127 20120 40044 52002 70282 85030=
30372 42984 23401 10075 20040 40077 54000 81041=
30673 419// 20000 10061 20032 40105 51000 70400 80001=
30823 42670 82701 10193 20084 40040 52010 83932=
30935 42999 20000 10132 20081 40084 54000 80001=
30965 42984 71606 10203 20032 40088 58005 81042=
31004 41598 82202 10130 20088 40043 57008 78082 87907 333
87923=
31088 42498 80904 10032 20024 40126 58004 886// 333 88710=
31137 42999 00000 11014 21030 40160 52006=
31300 42684 30000 10097 20056 40103 54000 83500=
31329 42999 20401 10027 20027 40138 51002 80002=
31369 42698 40202 10054 20042 40100 52001 82502=
31371 42984 60202 10098 20065 40097 58005 83031=
31416 42599 43602 10085 20070 40104 54000 84900=
31510 429// 00000 10115 20078 40113 54000=
31707 42998 03201 10107 20099 40107 54000=
31735 41904 33302 10070 20068 40093 53001 74440 80001=
31873 41998 22803 10120 20100 40089 56003 70281 82030=
31909 41598 60000 10055 20055 40094 57011 72842 84530=
31960 42997 10304 10096 20061 40120 58006 81002=
32053 42597 81403 10031 20021 40124 58001 8657/ 333 86628=
32061 41598 81301 10076 20065 40122 55002 70282 82942=
32098 42398 83201 10049 20042 40134 57007 886// 333 88708=
32150 42496 63201 10052 20040 40125 57006 86300 333 86918=
32165 42599 82902 10059 20052 40127 54000 885//=
52267 32980 60703 10198 20090 39042 40066 52004 80002 333//
00453 10300=
53502 11970 80703 10159 20128 40084 57015 69921 70060 8802/
333// 00356 10216=
55228 32980 00000 10076 21110 36044 52004 333 00151 10175=
55279 32880 13605 10032 20019 35764 52006 81400 333 00401
10110=
55299 32980 00202 10031 20016 35906 52002 333 00400 10107=
55472 32980 01404 10068 20003 35787 52001 333 00401 10154=
55578 32980 01402 10123 20028 36376 52010 333 00201 10226=
55591 32980 00901 10130 20049 36517 52010 333 00202 10243=
55664 32980 01804 10101 20022 36038 52014 333 00203 10196=
55696 32680 11103 10098 20034 36384 52015 81400 333 00200
10215=
55773 11470 60000 10044 20023 36059 52011 69901 72500 86400
333// 00200 10121=
56137 11780 20000 10108 20088 36838 57002 69961 70060 82400
333// 00553 10249=
56312 32680 71802 10121 20081 37106 52010 874// 333 00300
10192=
10215=
47003 42980 00000 10122 20105 30115 40119 58009=
47005 42980 23401 10022 20019 38616 52003 80002=
47050 42965 00000 10170 20160 30096 40128 52003=
47052 42965 00000 10148 20133 39805 40130 57007=
47060 42960 00000 10168 20137 30080 40136 52003=
47061 42670 80000 10153 20140 30092 40103 57004 885//=
47065 42965 03201 10171 20158 30061 40123 58012=
47067 42965 00000 10181 20164 39995 40107 57005=
47068 42960 00000 10142 20127 30082 40116 57016=
47070 41960 00000 10168 20156 30038 40121 58004 71000=
98223 31565 10000 10268 20262 40086 58010 70544 81100 333
56999 81820=
98325 31458 31401 10262 20243 40081 58009 70544 82201 333
56999 82817=
98328 31460 21103 10180 20171 38508 40060 58015 71344 81201
333 56999 81912 81813=
98429 31558 50000 10265 20230 40086 57016 70544 83830 333
56999 83823 84360=
98440 31465 40000 10260 20256 40086 56008 71300 81902 333
56999 81815 84079=
98543 32470 30000 10272 20247 40090 58010 82201 333 56999
82818=
98618 31468 52201 10271 20257 40077 58008 71744 84908 333
56999 82918 83820 85274=
98755 11468 80000 10260 20247 40079 58017 60021 78080 8352/
333 56999 83616 88458=
98836 32565 70000 10254 20241 40074 58012 82270 333 56999
82820 87362=
51076 32680 70702 10129 20122 39277 40112 52004 81462 333
00657 10243=
51133 11680 70902 10127 20075 39522 40144 52007 69901 70080
82402 333// 00754 10194=
51288 11680 72002 10102 20077 38324 57006 60021 72580 85468
333 00452 10242=
51463 11980 01601 10154 20085 39064 40106 54000 60011 70080
333 00654 10222=
51495 32980 53622 10206 20095 40112 52012 80002 333// 00353
10355 91129 91536=
51542 32680 10000 10029 20011 37573 57001 81400 333 00400
10082=
51656 32980 00903 10180 20056 39016 40031 52004 333 00255
10303=
51716 32975 52002 10230 20080 38816 40016 52005 83062 333//
00301 10306=
51053 32680 70901 10131 20107 40122 52002 85962 333 00655
10184=
51156 11930 72702 10096 20037 38691 40139 52009 69931 76080
86012 333 00555 10176=
51777 31958 80000 10247 20118 39057 40006 57010 70600 80007
333 00402 10379=
51828 31957 81402 10229 20114 38554 40005 57007 70600 8802/
333// 00500 10275=
51839 31/35 90902 10235 20049 40002 52006 70600 333// 00502
10323=
51855 31/10 90401 10230 20069 49996 57001 70600 333 00501
10340=
51931 31/40 91103 10245 20068 40007 57001 70600 333// 00406
10298=
52203 32980 71803 10256 20059 39202 49998 52018 80002 333
00208 10355=
10184=
44207 329// 00000 10050 20041 38299 40150 51003=
44212 325// 80000 10168 20055 38970 40008 51000 885//=
44214 32698 62702 10120 20065 38232 40073 51001 82543=
44231 329// 02301 10169 20053 38653 40049 54000=
44232 329// 00000 10149 20080 39028 40088 54000=
44239 326// 62702 10157 20062 38741 40061 54001 83549=
44259 32598 22706 10214 20029 39252 40081 54000 82400=
44277 325// 52705 10156 20156 37789 40042 52001 83500=
44282 32999 00000 10108 20038 38282 40120 58007=
44292 32999 00000 10208 20011 38672 40072 54001=
44298 329// 10000 10175 21017 38702 40095 58005 80004=
44304 329// 02303 10131 21012 38956 40118 50001=
44314 32998 00000 10132 20002 39109 40143 57008=
44341 32599 61405 10181 20002 38582 40087 54000 83540=
44347 32999 20904 10206 20058 38668 40061 58001 80002=
44373 32599 51601 10178 20088 38490 40061 58001 83580=
28661 32960 01802 10139 20078 40163 57008 333 10201=
28679 326// 63001 10124 20038 40157 57002 86500 333 10181=
28879 329// 22802 10088 20048 40167 52003 80002 333 10177=
28952 329// 00000 10120 20070 40185 57009 333 10206=
29023 41498 80101 10105 20050 40085 58003 70282 889//=
29122 42699 53001 10095 20043 40086 57006 82530=
29807 32597 33202 10128 20056 40125 52013 83900 333 10172=
30230 41698 83003 10168 20114 40039 58008 71322 83941=
30309 41996 40000 10149 20102 40067 58004 70181 82031=
30385 42984 50000 10090 20050 40052 52002 80002=
30650 42984 80000 10136 20045 40084 57002 83041=
30710 42960 82803 10152 20128 40075 51002 80001=
31829 41298 83102 10070 20064 40105 58013 70282 886//=
35078 32970 22904 10097 20009 40173 52006 80001 333 10175=
35108 32997 52101 10216 20151 40187 52005 80001 333 10285=
35188 329// 53001 10084 20053 40166 52007 85030 333 10153=
35229 32997 00000 10192 20098 40186 52008 333 10280=
35416 32997 13202 10184 20144 80001 333 10289=
35671 12998 03002 10071 20038 40208 52024 69900 333 10157=
35746 32998 00703 10172 20009 40200 52014 333 10245=
35796 32984 00104 10116 20053 40138 52022 333 10187=
36003 12970 52902 10106 20073 40101 52004 60020 83031 333
10140=
36177 115// 82904 10110 20094 40074 52020 60120 78098 883//
333 10216=
36428 116// 50904 10116 20062 40098 58013 60080 71382 85900
333 10186 95090=
36859 32999 63002 10153 20089 40129 52004 82045 333 10235=
36870 32962 71401 10148 20068 40119 54000 87070 333 10177=
38198 329// 03303 10155 21036 333 10262=
38341 32597 73402 10144 20025 40150 52022 87900 333 10262=
44354 329// 60000 10204 20065 39065 40071 57004 83043=
98444 31465 40201 10260 20254 40083 57013 71398 84300 333
56999 82918 84820=
22550 32997 00000 10148 20046 40152 57009 333 10175=
22583 12584 72501 10126 20084 40132 58007 69900 84270 333
10204=
22768 12697 72202 10150 20092 40158 58008 69900 81479 333
10162=
22845 32598 32801 10158 20053 40167 57002 83201 333 10185=
26063 32597 81802 10175 20032 40154 57024 8247/ 333 10192=
26298 32998 20000 10155 20095 40189 57007 80001 333 10198=
26477 32970 70000 10160 20084 40193 57006 80002 333 10203=
26702 12997 71601 10223 20121 40159 57016 69902 81031 333
10244=
26850 32965 72102 10181 20032 40222 57003 87030 333 10208=
26997 32968 03501 10150 20092 40213 53004 333 10188=
27595 32997 62104 10199 20124 40159 53001 80001 333 10284=
27612 32997 20000 10145 20078 40208 54000 80001 333 10182=
27947 12697 60000 10184 20150 40168 52005 69900 86300 333
10217=
27962 32997 62103 10220 20112 40155 53007 83031 333 10304=
33008 32970 50000 10192 20070 40229 57014 80001 333 10221=
34009 11557 70404 10122 20105 40190 52007 60052 71062 86430
333 10127=
34172 32960 49901 10250 20090 40158 55001 82031 333 10292=
34247 12470 83501 10203 20169 40157 53009 60012 883// 333
10245 86914=
34391 32997 21402 10232 20107 40166 53006 80001 333 10326=
37054 32698 50000 10194 20135 40121 53013 83460 333 10298=
44272 329// 01804 10178 20004 38171 40095 58002 83060=
44305 32999 00000 10190 20050 39025 40110 54000=
44352 32999 00000 10108 20025 38910 40118 54000=
44219 32998 71404 10223 20002 38520 49990 53004 87050=
44221 32999 20000 10114 20064 38507 40071 58003 82040=
44224 32698 61804 10174 21020 37940 40001 58008 86500=
44348 329// 30505 10190 20074 38678 40095 58002 83060=
44386 329// 81405 10208 20021 38983 40061 58002 85030=
44203 329// 00000 10072 20051 38371 40124 54000=
44213 32699 70000 10202 20081 38662 49979 58006 87800=
44215 41596 83209 10135 20071 38336 40042 52013 76162 885//
333 91212=
44225 32998 00000 10106 20044 38231 40091 51007=
44230 329// 10205 10144 20061 38739 40105 54000 81080=
44237 32999 21805 10117 20076 38452 40192 58001 82040=
44256 32999 10000 10116 20074 39278 40098 54000 80002=
44302 329// 12704 10166 21009 39062 40093 54001 80002=
44336 32999 00000 10176 21036 38656 40090 54000=
23074 42998 10903 10020 20009 40172 52003 80001=
23711 11998 79901 10178 20147 40119 58002 60040 70298 87030
333 10300=
23804 11497 81901 10150 20139 40122 53002 61970 72998 889//
333 10280 88915=
24143 42999 60000 10098 20077 40093 53009 86070=
24343 42999 83604 10125 20019 40065 53006 84036=
24738 41999 60000 10101 20101 40041 52005 71298 81031=
24951 41999 60501 10136 20084 40002 57018 70262 86070=
24959 41598 83301 10122 20073 40037 57015 70422 83535=
29313 42998 10000 10036 20015 40093 58008 80001=
29612 42998 03303 10084 20016 40085 52003=
29698 41993 21202 10100 20100 40088 58002 74610 80002=
30758 42984 51604 10189 20058 40071 58005 83031=
30949 41999 20000 10143 20059 40091 54000 70291 82050=
32027 42598 71806 10076 20062 40114 52001 86930 333 86927=
35406 32997 10000 10234 20089 40208 54000 80001 333 10297=
38062 32997 03003 10162 21007 333 10239=
38232 32998 00000 10236 20050 40170 51014 333 10334=
38388 32998 03602 10254 20021 40175 52018 333 10330=
38413 329// 00803 10200 21078 40179 53035 333 10301=
38457 32998 00903 10191 20004 40128 52017 333 10275=
38507 32996 03202 1048/ 20144 40137 53013 333 10319=
38545 32998 02802 10297 20140 40143 53002 333 10297=
38656 32998 00203 10273 20011 40146 53017 333 10346=
38687 32996 03403 10187 20070 40135 52015 333 10289=
38880 329// 02002 10259 20017 40139 53012 333 10346=
38895 32997 00102 10229 20059 40153 52015 333 10305=
38927 31995 72708 10260 21005 40085 52022 73132 87030 333
10350=
38974 329// 00703 10242 20036 40138 53024 333 10307=
98135 31575 30904 10280 20259 40100 58021 70544 83200 333
56299 83820=
98232 31570 22202 10275 20239 40093 58010 70244 82200 333
56999 82820=
98329 31470 23602 10265 20252 40087 5/014 70544 81201 333
56999 81818=
98653 31468 81801 10260 20247 40085 58010 71542 8397/ 333
56999 83817 88358=
20046 32271 82408 10002 21015 40026 50004 886// 333 10014
91112=
20069 41336 82611 11004 21010 40063 51010 71022 886// 333
88707 91115=
20087 41361 82808 11004 21010 40042 52081 77172 8572/ 333
85708=
20292 42480 72614 10006 20001 40037 53020 87500 333 87611
91119=
20667 32998 71202 10005 21018 40162 58003 87030 333   10026 91103=
20674 41/02 90602 11003 21006 40165 51001 74554=
20744 32998 71703 10037 20027 40133 57011 85031 333   10071 91106=
20891 42997 50000 11019 21025 40179 57004 83042=
23022 11196 80607 10000 21003 40128 57020 71084 886// 333   10009
86703 91109=
23032 31710 63403 11005 21008 40137 57020 71042 86030 333   10035
91107 93401=
29328 41498 80102 10111 20076 40079 54000 78082 889//   333 86913=
29348 41997 80401 10101 20080 40061 58015 70282 8807/=
29405 42997 00601 10104 20046 40102 58005=
29937 41698 71903 10120 20094 40043 54000 70298 82430=
22113 11584 31103 10133 20043 40103 57018 69902 70281 82160
333 10143 91006=
22271 32482 61804 10084 20073 40134 57004 81336 333 10144=
22820 12599 22403 10150 20013 40162 57009 69902 81530 333
10182=
22887 32570 73303 10131 20100 40148 57001 8253/ 333 10228=
26781 32997 32702 10156 20081 40218 54000 80001 333 10210=
27037 32968 20000 10150 20080 40179 57005 80002 333 10172=
33345 32998 03503 10184 20055 40225 53004 333 10210=
33393 32997 20000 10173 20076 40239 57006 80004 333 10202=
33658 32997 23404 10190 20071 40237 58007 82030 333 10210=
33791 32997 80205 10169 20110 40179 52006 8805/ 333 10190=
33837 32598 63403 10196 20085 40190 53006 83201 333 10326=
33946 11559 80105 10162 20144 40156 53003 60042 70182 8533/
333 10201 85921=
34300 12497 83206 10154 20128 40186 52015 69902 885// 333
10181 88613=
34560 32962 60000 10235 20105 40147 54000 86030 333 10300=
34691 32998 21602 10246 20013 40167 5/011 80002 333 10330=
34866 32998 51403 10270 20098 40142 53011 85030 333 10330=
34880 32997 10901 10213 20154 40160 52004 80001 333 10306=
37472 32980 61005 10205 20173 40108 53003 82024 333 10243=
48325 31520 70000 10248 20229 39800 40042 71022 84806
333 59013=
48405 32960 60000 10256 20239 39886 40047 82036
333 58001 70011=
48425 01556 80000 10263 20244 30029 40039 60013 76196 8652/
333 59005 69936 70014=
48430 01556 80000 10256 20247 30033 40041 60123 79599 85977
333 59004 60087 70131=
48450 32560 80000 10277 20221 30011 40044 84876
333 59008=
48550 31558 80000 10255 20231 30058 40063 71022 82576
333 58004 70255=
48551 01550 80000 10235 20228 30061 40069 60103 72162 83557
333 58002 69935 70109=
48565 11460 62505 10275 20239 30054 40065 60113 70162 82256
333 59011 70112=
48568 01459 82002 10252 20236 30068 40076 60023 76062 83877
333 58006 60026 70016=
48569 01458 80000 10246 20236 30037 40077 60023 76022 85876
333 58004 69965 70067=
48327 32662 70000 10248 20242 39689 40042 85506 333 58001=
48331 32560 40000 10255 20241 39819 40047 83545 333 58002
70051=
48353 32560 80000 10252 20246 39761 40047 86676 333 59014
70432=
48356 01560 40000 10250 20239 39862 40057 60103 71392 82936
333 59001 60027 70096=
48375 32560 60000 10257 20235 39808 40033 85506 333 59009=
48378 32460 80000 10270 20249 39986 40038 8687/ 333 59004
70793=
48407 01560 71602 10250 20245 39911 40053 60133 70162 84146
333 58004 60086 70234=
48431 11460 70000 10248 20242 39834 40048 60293 70162 86676
333 58006 70354=
48432 31556 70000 10243 20236 39885 40054 71022 83576 333
59006 70238=
48455 31562 82902 10282 20234 30050 40055 71322 85976 333
59001=
48456 01460 82507 10253 20243 30037 40054 69903 76062 82977
333 58007 69907 70004=
48480 01456 80000 10265 20249 30043 40047 60133 71066 86576
333 59007 60057 70151=
48500 32562 82202 10263 20226 30046 40052 8657/ 333 59003
70015=
24329 42699 21701 10025 21008 40083 52002 82500=
24507 425// 60000 10074 20041 40144 52013 86900=
24688 42699 72502 10021 20008 40109 54000 83531=
24908 41680 20000 10120 20098 40068 52006 70298 82400=
24944 41699 22403 10136 20113 40040 52006 70272 82530=
29594 42999 21201 10138 20107 40067 58006 82040=
29634 41132 83504 10086 20082 40044 57013 75185 886// 333
88702=
29676 42698 62301 10135 20117 40028 57004 86500=
30433 42699 82802 10159 20080 40037 58008 85942=
30469 41997 20000 10046 20046 40086 53013 70411 80002=
30554 426// 80201 10072 20045 40096 58001 82541=
30603 42997 32501 10140 20125 40078 54000 80002=
30612 425// 83002 10149 20115 40075 54000 83932=
30635 425// 51002 10176 20085 40047 52017 82930=
30692 42998 00501 10062 20043 40080 54000=
30802 42999 00000 10054 20054 38654 48447 58001=
30879 42999 00000 10088 20067 40122 52002=
30925 428// 21901 10246 20059 40025 54000 82030=
35700 32998 00000 10222 20043 40166 53005 333 10310=
35925 329// 01603 10220 20074 40188 53015 333 10312=
36034 41598 82204 10098 20094 40046 52006 70298 889// 333
84930=
36061 41697 80701 10124 20119 40062 53002 70282 82501=
38001 32997 00000 10225 20184 40151 53002 333 10285=
38353 425// 60000 10161 20092 40095 58002 85940 333 10192=
38392 32997 00105 10237 20053 40179 53023 333 10306=
38696 329// 21801 10178 20038 40130 53023 80003 333 10268=
38750 32997 02503 10233 20196 40134 53013 333 10274=
82280 22261 02278 20101 309// 40301 80244=
10124 86658=
10044 20024 69928=
10385 32884 22403 10275 20091 30099 40157 57006 81401 333
10291 20174 55310 81657=
10637 32784 71701 10267 20145 30043 40172 56008 81272 333
10281 20157 55304 81850 85363=
16560 32980 01604 10240 20175 30194 40200 56005 91745 333
10270 55310=
17609 31956 02104 10239 20204 30050 40052 52010 71000 333
10284=
12330 32970 11905 10245 20122 30073 40175 57010 80001 333
10260 20159=
12375 32980 51803 10215 20074 30084 40209 56007 80002 333
10234 20148=
12843 32980 52101 10211 20050 30070 40234 55006 80008 333
10240=
13272 32970 29901 10220 20112 30118 40233 56003 80001 333
10238=
23256 32999 02701 10046 20013 40163 57001 333 10089=
23274 42998 00302 10084 20017 40152 52004=
23330 32998 60602 10128 20080 40133 52002 83031 333 10219=
23383 42699 50000 10048 21005 40156 52011 82531=
23472 42599 70103 10123 20030 40130 52004 86531=
23552 32997 13602 10094 20030 40148 52002 81030 333 10128=
23631 32998 73302 10128 20100 40112 57004 80001 333 10256=
23678 42598 60402 10102 20060 40106 52002 86540=
23849 42696 69902 10090 20017 40098 57008 83930=
23884 425// 80000 10092 20084 40098 54000 8652/=
23933 31597 70602 10144 20089 40117 57004 76062 87500 333
10201=
23966 42999 20000 10067 20036 40097 54000 82040=
25400 42999 11103 10100 20013 40125 52002 81030=
28275 32599 82402 10145 20064 40121 57020 8335/ 333 10189=
28382 32997 82902 10122 20058 40117 57014 8807/ 333 10189=
28493 32999 62801 10098 20034 40107 57006 86070 333 10179=
28573 32980 72702 10142 20041 40142 57007 87030 333 10185=
28698 32984 10000 10099 20015 40118 57004 80001 333 10176=
28722 32969 00000 10202 20130 40173 54000 333 10280=
28786 32999 53301 10126 20025 40135 52001 84052 333 10183=
29253 426// 60501 10090 20077 40076 57010 85501=
29263 42573 62601 10108 20085 40069 58013 82930=
29282 41984 00000 10142 20120 40069 54000 70281=
29430 41498 80102 10092 20086 40051 58014 70282 883// 333
88913=
35067 329// 0//// 10116 20023 40175 52002 333 10193=
35121 32978 21802 10213 20125 40184 53007 80001 333 10286=
38763 32997 00906 10282 20059 40130 53021 333 10355=
38911 32997 02804 10222 20004 40108 53020 333 10307=
38987 329// 00502 10216 20032 40136 52018 333 10320=
10338 32980 42802 10236 20108 30093 40162 58001 80001 333
10258 20171 55310 84075=
16242 32966 02701 10229 20194 30198 40201 56005 333 10263=
16320 32960 03205 10230 20121 30180 40192 56002 91745 333
10254 55310=
16420 32998 01902 10240 20161 30129 40192 58001 91745 333
10280 55305=
16716 32570 10207 10226 20084 30168 40186 53006 81100 333
10268 90730 91126=
16734 32560 72903 10210 20181 30118 40180 53005 83270 333
10234 83820 87360 90730 91112=
16754 32465 63309 10206 20137 30111 40158 51003 86800 333
82818 86625 90730 91125=
17060 12660 40106 10178 20138 40187 53003 60062 84200 333
10204 84835=
17128 11570 70205 10134 20073 39047 40110 53007 60012 78082
85950 333 10186 81930 84840 86359=
17170 32970 00000 10172 20106 38322 48482 55000 333 10212
10069=
17200 32670 32002 10230 20123 39105 40026 56004 81101 333
10310 81840 83070=
11518 32989 21502 10235 20115 39770 40186 57008 81041 333
10255 81366=
15420 32570 43500 10175 20119 30108 40215 54000 83260 333
10236 31037=
24982 42599 80000 10045 20040 40117 57003 885//=
25325 42599 70602 10075 21036 40160 57002 82502=
28255 32972 21802 10142 20068 40128 57016 82030 333 10217=
28642 31696 22002 10164 20067 40164 57006 70400 82100 333
10223=
29557 41597 81801 10144 20133 40044 58012 78098 883// 333
85920=
29822 41597 80502 10102 20088 40043 54000 78082 889// 333
88924=
29846 41597 81802 10136 20130 40046 54000 78022 8595/ 333
85926=
30777 42998 10000 10091 20053 40109 54000=
31174 42999 00000 11021 21024 40126 58002=
31263 42999 20000 10044 20034 39575 40134 52002 82600=
36096 42998 20101 10211 20062 49980 57006 80001=
36103 42999 20000 10071 20059 40096 57009 80002=
36307 42899 53601 10184 20044 38811 48410 57007 82032 333
95090=
36974 327// 20701 10112 20038 37937 48469 56001 82300 333
10178=
57776 32980 02018 10211 20177 40065 57011 333 10248 91310
91518=
91165 12966 00103 10250 20194 30111 40163 53012 69901 91753
333 10250 20200=
91245 32566 40904 10270 20240 30137 91750=
91285 11566 82303 10228 20194 30152 40166 51016 69901 761//
91753 333 10239 20211=
91348 11474 81403 10251 20237 30044 40096 55002 60041 72582
8636/ 333 5629/ 70064=
91366 32574 20806 10271 20243 30085 40094 53003 82171 333
56226 70015=
91376 11474 70605 10278 20241 30097 40100 53002 69901 70282
83878 333 56119 70003=
91408 11469 80602 10261 20254 30044 40082 57010 60041 78082
8622/ 333 56299 70046=
91413 32469 74953 10273 20252 30059 40078 57008 83271 333
56999 70084=
44275 32698 20000 10095 20015 37740 40140 56002 82500=
44284 329// 00000 10070 20025 37868 40145 54000=
44287 32899 20000 10131 20041 38121 40098 54000 82040=
44329 329// 00000 10138 20059 37756 40062 51002=
98526 32570 80000 10285 20258 40068 57010 82207 333 56999
82825 88275=
98748 31470 12201 10258 20/// 40077 58007 70544 81201 333
56999 81818=
48820 32597 30901 10269 20259 30070 40078 50005 83100 333
58015 83895=
48826 32597 60701 10268 20261 39941 40069 58010 862// 333
58016 86895=
48838 32598 40903 10283 20262 30078 40084 58001 84200 333
58017 84895=
48839 32498 20000 10278 20270 30009 40073 58009 82100 333
58012 82894=
48845 11495 80904 10262 20256 30058 40065 58007 60251 78182
889// 333 58022 83894 88995=
48848 11598 61106 10274 20257 30056 40064 58004 60021 70262
868// 333 58006 63895 86697=
48855 32798 71601 10271 20254 30061 40069 58007 83508 333
58020 83697 87299=
48870 11498 82301 10282 20256 30069 40076 58004 69901 70281
868// 333 58021 82894 84697=
48877 32598 70000 10270 20250 30075 40080 58011 878// 333
58005 82895 87697=
48887 11598 72704 10252 20228 30079 40085 58005 69901 71386
879// 333 58011 82895 81995 86697=
48900 41496 82103 10237 20235 30073 40083 57013 76062 8312/
333 58014 83894 87499=
48914 11498 80000 10254 20244 30082 40084 57003 69901 70262
888// 333 58004 82894 88696=
48917 11598 52307 10272 20246 30071 40076 58008 69941 70282
85200 222// 00281 333 58010 85895=
48918 11497 80000 10236 20227 30076 40087 58009 60121 76062
8272/ 222// 00280 2//// 333 58011 82894 88499 91117 91534=
59995 30475 43402 10282 20244 30069 40077 57007 82102 333//
10309=
48601 32562 70000 10247 20230 30086 40090 82532 333 82625 83364
87078=
48615 11566 82702 10258 20248 30078 40084 69941 70395 8457/ 333 84622
88469=
48620 31562 80000 10234 20228 30076 40085 71022 82547 333 82634 83364
88276=
48647 31564 70000 10261 20239 30056 40081 70522 81542 333 81625
87078=
48665 32564 70501 10259 20246 30073 40083 82548 333 82632 84363
86278=
96033 31450 52402 10260 20245 30065 40072 58001 70521 82916
333 56000 57902 81920 82617 80980=
96413 11258 83002 10242 20237 30056 40082 60131 76366 8652/ 333 81703
85620 88465=
96421 32465 73502 10250 20230 30049 40085 81532 333 81618 85365=
96441 32468 70902 10254 20238 30077 40082 84531 333 84616 86080=
96449 32465 70000 10252 20241 30057 40077 83531 333 83616 83616
86365=
96471 11470 70000 10255 20236 30073 40076 69901 71362 83948 333
81814 81917 83363 87277=
96491 11460 71902 10253 20235 30059 40072 69901 70362 83838 333 82816
87277=
28240 32999 00000 10173 20117 40135 57001   333 10260=
28419 32996 22101 10215 20123 40158 57004 80001   333 10290=
31285 429// 00000 11025 21034 40141 58001=
31561 41698 70702 10126 20109 40094 53001 70282 83930=
96633 32560 51102 10270 20244 30066 40074 57015 84571
333 56000 84622=
96935 32460 51004 10282 20229 30075 40082 57009 82531
333 56200 82610=
36982 429// 72807 10011 21104 36500 47042 58010 87030 333
10060=