ZCZC 000
SMCI10 BENJ 031200
AAXX 03121
57265 11363 81802 10208 20199 39993 40099 52017 69941 70060
8772/=
57279 11463 80205 10197 20174 40100 52015 60031 70060 8772/=
57378 11462 80205 10210 20185 40084 52008 60021 70060 8777/=
57461 11465 81402 10227 20220 39914 40068 52003 60031 76098
8672/=
57476 11562 83606 10212 20198 40078 52014 60081 79596 889//=
57655 32980 70402 10310 20239 40037 52008 87040=
57662 11970 83604 10241 20200 30025 40065 52018 69901 70080
8807/=
57766 32980 11602 10296 20247 40050 52003 81040=
57776 32980 02213 10224 20175 40070 57004=
52740 16/// /1304 10156 29034 36870 60000
555 1/132 2//00 /////=
59082 32678 12003 10305 20236 39989 40062 52001 81400=
59117 32978 21801 10329 20229 39968 40069 52005 82040=
59211 32580 50000 10308 20240 39852 40050 52003 84440=
59265 32673 10000 10322 20219 39934 40065 57005 81140=
59287 32663 22002 10308 20247 30032 40081 52004 82400 =
59316 32978 02204 10290 20240 30072 40081 52001=
59431 32580 21802 10292 20239 39927 40070 52003 81402=
59644 32580 20000 10289 20254 30062 40077 52002 81142=
59758 32980 01603 10292 20242 30059 40080 52005=
59023 11980 00000 10308 20231 39813 40050 52004 69901 70080=
59293 32970 12501 10307 20237 30023 40070 54000 80002=
59417 11580 71802 10298 20229 39915 40062 54000 69941 70098
82242=
59501 32980 02204 10289 20237 30084 40100 52007=
59663 32975 02004 10293 20251 30054 40081 54000=
59838 31580 73605 10302 20253 30066 40080 52005 71300 86962=
59948 32575 11102 10292 20254 30071 40079 52002 81102=
59981 11580 60904 10281 20260 30072 40078 57002 60011 70098
82242=
59985 31580 30000 10273 20254 30072 40077 52001 70090 81102=
57957 32975 12502 10304 20229 39875 40062 57002 81040=
58144 11362 80403 10195 20187 30037 40059 57001 60021 76066
8672/=
58633 32680 72703 10310 20237 39935 40028 54000 81442=
58659 32970 01403 10285 20248 39998 40031 57004=
58251 11565 80705 10198 20190 30043 40049 52003 69911 76060
885//=
59046 32580 11802 10318 20235 40063 57002 81100=
59058 32980 00000 10291 20244 40069 52001=
59072 32980 02202 10326 20220 40063 54000=
59087 32964 02001 10292 20241 40076 57001=
59096 32675 11602 10301 20235 40074 52007 81100=
59254 32570 40000 10302 20248 40065 57001 81102=
59278 32673 21601 10318 20234 40071 52003 82100=
59456 32980 01802 10305 20238 40078 52004=
59493 32975 01801 10302 20248 40082 54000=
59632 32980 11802 10295 20245 40075 52001 80002=
59647 32580 50902 10287 20247 40076 54000 81902=
59658 32972 01402 10289 20254 40083 54000=
59673 32580 11603 10282 20247 40087 52002 81100=
59845 11565 31603 10299 20230 40075 52007 69901 71380 82902=
59855 32575 21402 10287 20256 40080 54000 82100=
58027 11965 80702 10213 20185 30030 40079 52009 69911 76060
8807/=
58345 11558 80403 10222 20216 40031 52004 60101 79598 8697/=
58543 32980 60901 10302 20243 40034 54000 86040=
58556 32975 22501 10308 20221 40028 52001 80002=
58569 32970 22205 10262 20233 40023 57005 82030=
58646 32970 13402 10309 20236 40030 57001 81040=
58660 32570 11101 10311 20246 40024 52002 81100=
58834 32977 00000 10299 20233 40052 57002=
58926 32980 00000 10315 20208 40065 52007=
58944 32968 62005 10274 20244 40066 52003 80002=
53513 11770 71102 10156 20136 38952 40115 54000 69901 70060
86502 333// 00053=
54218 32980 61402 10272 20064 39441 40077 57005 80002=
54511 32965 42301 10259 20131 30058 40096 52002 82042=
50468 32975 22503 10256 20048 39832 40024 57008 80002=
50745 32965 11402 10290 20097 39878 40046 57006 80002=
50774 32960 20000 10194 20124 39779 40065 57006 80002=
50953 32975 02702 10273 20079 39907 40074 52003=
54337 32965 50000 10264 20108 30012 40093 52002 80002=
54471 32962 73602 10260 20148 30079 40084 57004 82032=
54497 32970 70401 10254 20090 30068 40082 52004 80002=
54662 32970 70402 10232 20147 39976 40091 52001 80002=
57259 11980 80000 10205 20186 40099 52018 69901 70060 8807/=
57494 11462 80402 10229 20208 30035 40063 52013 60071 72198
8677/=
57554 11775 70000 10283 20251 40041 52006 69901 70060 874//=
57584 11975 80204 10240 20216 40067 52017 69911 70080 8807/=
57598 32580 72901 10311 20228 40038 52004 8493/=
57687 32580 72203 10318 20232 39961 40036 52003 879//=
57793 32980 12202 10306 20227 40046 52001 81040=
57799 32970 72202 10322 20238 39983 40062 52020 87040=
57845 11665 12003 10268 20225 40054 57006 69901 70060 81100=
57853 32980 12705 10295 20216 40056 52004 81040=
57866 32980 02203 10303 20228 39861 40056 52001=
57972 32970 01102 10319 20217 39847 40056 57002=
58102 11965 80401 10224 20191 30030 40079 52015 69951 70060
8807/=
58203 11557 80402 10199 20196 30031 40075 52011 60121 76066
885//=
58221 11460 80203 10199 20188 30034 40068 52011 60121 70098
8372/=
58338 11456 80902 10228 20227 40039 52024 60481 79598 889//=
58424 11660 83604 10240 20228 30016 40038 52031 60221 79598
889//=
58527 31680 72202 10313 20242 39956 40027 57002 71300 8194/ =
58606 32970 22203 10310 20251 39980 40032 57004 80002=
58715 32580 21802 10320 20226 40041 54000 81102=
58813 32980 22001 10310 20213 40042 57004 80002=
59102 32563 10000 10287 20222 40073 57002 81100=
58040 32660 80405 10183 20172 30076 40080 57006 885//=
58150 11240 80405 10187 20184 30055 40063 57004 69981 76066
8772/=
54342 32960 70203 10256 20115 30028 40087 57003 80002=
58265 11568 80404 10204 20199 30024 40035 54000 60151 72186
8352/ 333 91117 91532=
58472 11463 80703 10221 20217 39935 40029 52012 69901 78080
885//=
58477 31957 70000 10265 20247 39978 40020 57001 71000 80008=
58666 32975 52213 10238 20228 39942 40039 57004 80002 333
91119 91522=
58725 32980 50000 10286 20236 39803 40051 57006 80002=
58760 32969 22207 10254 20229 40036 57006 80002=
58921 32680 50000 10311 20236 39824 40056 54000 81402=
58236 11562 80704 10205 20196 40049 52012 60191 76098 885//=
57046 31/00 91801 10100 20098 37936 52004 74744 333 00353=
57006 32580 71103 10200 20136 40072 52030 84940 333 00351=
58319 11562 80403 10224 20212 40043 52029 60151 79198 889//=
50632 32980 02701 10213 20069 39232 40062 52004=
53463 11580 70000 10172 20096 38944 40126 52003 69991 70080
86902 333// 00156=
52889 32980 01402 10255 20082 38436 40033 52012 333 00201=
52418 32970 60406 10313 21005 38749 49964 57010 80002 333
05203=
57127 32968 20404 10272 20207 39476 40047 52012 82030=
57245 32780 80903 10247 20200 39742 40075 52013 8357/ 333
00404=
56080 32580 11104 10186 20069 37152 52010 81160 333 00202=
52533 32980 01103 10232 20097 38472 40054 57004 333 05206=
53915 32780 71404 10172 20139 38621 40090 52008 81442 333
00300=
56096 32780 11101 10317 20132 38839 49988 52011 81400 333
05108=
52652 32980 00000 10244 20099 38466 40053 57011 333 05208=
58562 32962 02502 10315 20232 40014 57002=
58457 31557 70702 10292 20250 39971 40019 52005 71000 874//=
58238 11358 83603 10215 20203 30038 40047 52026 60211 79196
889//=
58436 11662 83404 10237 20231 40031 52019 60041 79500 889//=
58314 11558 82902 10212 20200 39979 40062 52018 60241 76098
885//=
58437 11/00 92706 10175 20175 38132 57001 69901 79544 333
91123 91525=
58321 11458 83403 10212 20204 40058 52029 60331 76098 887//=
58326 11558 80902 10217 20209 40047 52020 60231 79598 889//=
57355 11/02 91401 10222 20219 40066 52010 60101 76298=
57583 11762 80204 10227 20215 40066 52019 60051 76260 885//=
58015 11965 60402 10228 20187 40073 52004 69911 72160 86040=
58122 11570 80202 10203 20190 40082 52021 60021 76060 885//=
58215 11558 80705 10200 20191 40067 52025 60291 76066 8772/=
58531 32780 72003 10297 20240 40021 57001 875//=
53588 11980 80904 10082 20048 37809 52001 69901 70060 8802/=
53772 32960 80000 10185 20115 39246 40129 57003 8802/=
58311 11562 83402 10208 20205 40067 52020 60261 76098 885//=
50548 32980 51601 10241 20100 40042 57006 80002=
50834 11580 72008 10289 20025 40050 52003 69901 78090 86902
333// 91118 91520=
53480 32980 72704 10183 20071 40113 52006 80002=
53673 11960 80000 10174 20124 40135 52004 69901 76066 8802/=
53787 11770 70000 10166 20119 40125 54000 69901 70060 875//=
53898 11962 83402 10214 20152 40116 52005 69901 76060 8807/=
54602 32762 72701 10246 20171 40105 57001 87500=
54725 32965 70903 10222 20158 40092 54000 8703/=
54751 32960 70202 10185 20146 40095 57001 8703/=
54916 11660 70901 10228 20186 40081 57005 69901 70060 87500=
58208 11362 83604 10203 20195 40074 52011 60111 76198 8772/=
57399 11562 73604 10219 20202 40065 52023 60301 70096 83740=
57447 11780 82202 10215 20209 39547 40063 52004 60111 79596
889//=
57745 32980 12202 10299 20224 39734 40039 52006 81040=
58506 31/00 93404 10207 20207 40056 52005 74700=
58847 32980 31405 10298 20238 39955 40051 52005 80002=
59134 32980 12001 10272 20235 39924 40081 52004 80002=
56294 32965 60000 10301 20216 39468 40029 52010 86040 333
00303=
56492 32564 70000 10319 20216 39638 40017 52009 8644/ 333
00305=
56571 32780 70000 10296 20157 38327 52003 874// 333 00300=
56651 11680 70000 10209 20166 37604 52007 60021 70098 87900
333// 00151=
56778 11575 70000 10214 20178 38084 57002 60061 70098 83202
333// 00100=
56951 11780 70000 10229 20188 38456 57004 60031 70098 82442
333// 00002=
57328 11580 30701 10240 20224 39656 40046 52007 69931 70060
81140=
57411 11968 73601 10256 20236 39689 40039 52009 69901 70060
8704/=
57516 32961 73402 10291 20229 39733 40025 52015 8704/ 333
00601=
57816 32975 22004 10250 20183 38733 40042 52007 80002 333
00101=
50527 32970 50701 10263 20095 39358 40040 52002 80002=
50727 11580 61803 10219 20040 38940 40073 52003 69901 70080
81102=
53564 11770 82001 10148 20129 39158 40134 52001 60031 76066
8552/ 333// 00257=
53959 11561 80902 10182 20172 39686 40122 54000 69961 72166
8372/=
54843 32970 73202 10219 20177 30061 40087 52004 80002=
54909 11964 73403 10216 20184 30030 40090 52015 60011 70060
8703/=
58362 11660 80704 10226 20222 30020 40030 52001 60091 70098 885//=
58730 32978 70201 10309 20230 40046 57001 80002=
58731 32980 51804 10300 20222 40045 57004 82032=
58754 32965 70000 10293 20245 40043 57001 80002=
58911 32980 13203 10270 20227 40066 57003 80002=
58931 32380 72507 10209 20161 38358 57005 81401=
50136 32970 72003 10243 20095 39501 49988 57009 81032=
50353 32970 51603 10252 20128 39799 40004 57008 81032=
50557 32970 21404 10230 20042 39768 40046 57008 80002=
50756 32970 02503 10259 20085 39788 40062 57003=
50788 32670 41602 10184 20084 30004 40085 52003 83502=
50963 32580 20202 10226 20140 39942 40070 52013 81102=
50978 32980 30701 10209 20078 39813 40088 52005 80001=
54236 32980 21103 10244 20093 39994 40091 57003 80002=
56193 11980 20000 10240 20197 40047 52019 69921 70098 82040
333 00202=
56196 32980 70000 10317 20208 40017 52011 87040 333 00303=
56287 32980 70000 10293 20215 40028 52006 85042 333 00203=
56385 32480 70402 10125 20076 37045 52008 81142 333 00502=
56666 32680 11103 10317 20154 49969 52003 81100 333 00101=
56671 32780 21603 10261 20151 38163 52004 81402 333 00101=
56684 32580 22703 10210 20131 37871 52008 82102 333// 00252=
56751 31680 11607 10231 20143 37973 57001 71590 81202 333//
00000=
56786 32580 42203 10231 20156 38083 52004 82242 333 00101=
56886 32680 61603 10236 20173 38237 52002 83442 333// 00103=
56977 11580 10000 10242 20215 40052 52004 69941 70080 81402
333// 00101=
57206 32580 71403 10302 20207 40017 52016 81442=
57348 11768 70000 10203 20199 40073 52013 60161 79598 879//=
57426 32766 80403 10220 20211 40053 52008 884// 333 00757=
57602 32970 40000 10315 20217 40022 52010 84040=
57713 32675 71402 10300 20204 40013 52014 874// 333 00200=
54094 31558 31101 10224 20109 39798 40077 52001 70400 82102=
53646 11970 81101 10154 20117 38935 40122 52002 69901 70060
8802/ 333 00052=
52323 32680 11105 10255 21034 38199 57004 81102 333 00002=
57036 11962 80701 10184 20169 39656 40118 52005 69911 70060
8807/=
53845 32767 80702 10176 20143 39036 40112 57005 885// 333
00201=
52866 32580 30000 10234 20046 37665 52005 81102 333 00202=
52836 32980 00000 10203 21050 36906 57012 333 00003=
52754 32980 03603 10167 21034 36816 52001 333 00204 91117
91529=
52955 32980 03601 10206 21049 36981 52002 333 00203=
56046 32580 13404 10153 21006 36304 52001 81100 333 00203=
52681 32980 03602 10219 20080 38605 40088 52008 333 00104=
52787 11770 13611 10095 20033 37055 52003 69971 70098 81400
333 00202 93906=
52436 32980 10903 10251 20033 38401 40019 57002 80002 333
05103=
57016 32962 80904 10186 20160 40105 52006 8807/=
56065 32680 10203 10168 21016 36654 52002 81200 333 00205=
53923 32680 81604 10159 20144 40104 52005 885//=
57385 11580 83606 10210 20188 40070 52010 60041 72198 8757/=
54823 11958 70902 10228 20161 39895 40090 57001 69901 71060
80001=
57083 11960 80000 10211 20177 39978 40108 52007 69901 72160
8802/=
53352 32680 22003 10178 20048 40111 52008 81502=
53764 32565 82201 10162 20122 40132 52005 8272/=
53863 11961 80201 10168 20134 40130 54000 69901 70060 8807/=
53975 11956 72701 10172 20147 40121 52002 69911 71060 8703/=
54808 11966 83203 10202 20193 40095 52002 69941 70060 8807/=
54826 11/00 90706 10134 20134 38438 57005 69901 74564=
54836 32968 70901 10216 20150 40090 57002 87030=
54863 32970 72201 10189 20141 40093 57002 80002=
57071 11565 82902 10191 20168 40115 52007 69901 76060 8572/=
59209 11460 72502 10230 20211 40079 52001 69981 78080
879//=
59995 11480 63203 10271 20235 30061 40069 52001 60111 70062 82122=
50246 32980 70000 10238 20069 40004 57002 80002=
50442 32970 62001 10258 20054 40033 57002 80002=
50658 32980 02502 10270 20049 40049 57004=
50844 32962 01804 10295 20044 40052 57001=
50854 32970 02002 10270 20066 40060 57002=
50888 32980 61102 10202 20087 40087 52003 80002=
50968 32970 01602 10212 20165 40083 52001=
50983 32970 33201 10167 20114 40094 52006 80002=
54096 32970 10000 10165 20111 40097 52006 80002=
54259 32975 13601 10215 20105 40111 52004 80002=
54324 32965 70000 10268 20121 40090 52004 80002=
54346 32970 71402 10232 20123 40097 52007 80002=
54493 32974 70000 10213 20116 40090 52003 83032=
57993 32980 00000 10313 20213 39918 40058 57001=
47401 11260 81004 10076 20072 30090 40103 51010 60032 78088
887// 333 10129=
47412 11340 80101 10120 20115 30053 40084 58001 60082 78098
882// 333 10185=
47420 11/50 81104 10087 20081 30054 40101 51002 69902 72052
886// 333 10122=
47426 32/60 82001 10113 20102 30045 40089 50002 882// 333
10160=
47582 32/70 53303 10142 20112 30059 40084 55000 82532 333
10197=
47590 32/60 73402 10190 20138 30011 40061 57004 81132 333
10232=
47600 32/65 70405 10165 20134 30076 40092 51007 875// 333
10202=
47648 11/50 83406 10179 20166 30031 40063 53005 69902 71322
8637/ 333 10241=
47662 11/56 80502 10222 20167 30013 40054 50001 69902 72122
875// 333 10261=
47678 11458 83102 10182 20176 39970 40064 58017 60202 76366
8672/ 333 10230=
47740 31/50 70202 10168 20135 30063 40100 53011 71022 85202
333 10199=
47778 11/60 80302 10184 20167 39970 40057 50001 60072 72166
8172/ 333 10235=
47807 11/60 80302 10204 20168 30062 40079 51011 60012 70286
8222/ 333 10246=
47827 11584 80305 10219 20179 30035 40071 51006 60792 70282
8677/ 333 10253=
47843 11459 80301 10196 20179 30032 40062 57002 60042 76188
8372/ 333 10217=
47898 11/58 83202 10183 20177 30041 40079 51013 60592 78086
8427/ 333 10191=
47909 32/80 22002 10268 20222 30071 40079 50000 82201 333
10319=
47918 32/81 22003 10283 20255 30084 40092 53003 82200 333
10320=
47936 32/70 52005 10267 20249 30029 40089 58003 83202 333
10303=
47945 32/70 21903 10255 20248 30086 40109 51008 82100 333
10295=
47971 32/70 11903 10259 20238 30116 40125 52007 81100 333
10292=
47991 11/75 21203 10271 20229 30132 40142 53005 69902 70281
82201 333 10303=
56586 32670 60204 10230 20169 38014 52007 84442 333 00353=
56748 11580 70000 10240 20173 38302 52012 69901 78090 86903
333 00100=
56763 11680 51803 10294 20179 40006 54000 69901 70080 81402
333 00100=
56768 11680 71802 10230 20175 38192 52001 69921 70098 85902
333 00002=
56838 11665 80202 10231 20210 40049 52 028// 60051 79598
889// 333// 00152=
56946 11575 70901 10224 20202 40046 57003 60021 70098 874//
333// 05101=
56954 11580 70000 10250 20219 40036 57002 69931 70098 82902
333// 00001=
56959 11780 70000 10260 20242 40032 52008 60031 72598 879//
333 00153=
56966 11780 61106 10306 20203 40015 52003 69931 70080 82902
333// 00000=
56969 11580 60000 10257 20234 40045 52001 60011 70098 86900
333// 00002=
56986 11380 71403 10204 20181 40079 57001 69901 70080 86402
333// 00100=
57237 32880 63406 10245 20179 40057 52016 86500=
57306 32980 60000 10271 20226 40036 52013 86040=
57504 32980 70703 10317 20190 40018 52017 8704/ 333 00403=
59007 32980 11604 10235 20174 40062 54000 81030=
47575 32/60 32203 10139 20114 30077 40081 58007 83600 333
10191=
47585 31/30 72202 10141 20127 30017 40072 58006 71022 872//
333 10206=
47598 11/30 81901 10172 20150 30050 40056 58006 69952 72598
882// 333 10229=
47602 32/70 71401 10152 20132 30072 40092 51010 875// 333
10204=
47618 11/56 82801 10166 20146 39375 40066 51003 69902 78082
812// 333 10225=
47624 11/60 73304 10189 20131 39928 40059 56002 60062 78098
872// 333 10262=
47636 11/65 81602 10208 20158 30002 40066 57004 69902 72162
885// 333 10241=
47655 11/65 82103 10197 20165 30004 40058 58016 69902 72162
8802/ 333 10223=
47750 11260 80204 10184 20162 30057 40083 51006 69902 70282
882// 333 10235=
47755 32962 80403 10193 20174 30067 40090 51014 8807/ 333
10236=
47772 32960 72402 10216 20168 39974 40069 53001 8707/ 333
10241=
47800 32460 73502 10185 20158 30070 40092 51003 872// 333
10207=
47815 11/60 82101 10186 20174 30069 40084 51005 60322 76166
8572/ 333 10197=
47817 11475 80202 10203 20181 30024 40065 58002 60062 72166
8117/ 333 10224=
47830 11/58 70000 10192 20180 30068 40085 51008 60652 72182
878// 333 10201=
47837 11/70 70705 10202 20181 30054 40075 51011 60022 70298
8327/ 333 10259=
47891 11/59 83301 10204 20166 30065 40077 53009 69902 71062
8317/ 333 10236=
47899 11/60 80204 10186 20145 39855 40070 51008 60242 76166
8172/ 333 10187=
47927 32/80 22104 10275 20247 30046 40092 51004 82100 333
10308=
50603 32680 62901 10274 20081 39420 40038 52011 82132=
54026 32980 41603 10289 20083 39759 40059 52002 82032=
54027 32980 12502 10280 20059 39519 40063 57006 80002=
57265 11363 81802 10208 20199 39993 40099 52017 69941 70060
8772/=
57279 11463 80205 10197 20174 40100 52015 60031 70060 8772/=
57378 11462 80205 10210 20185 40084 52008 60021 70060 8777/=
57461 11465 81402 10227 20220 39914 40068 52003 60031 76098
8672/=
57476 11562 83606 10212 20198 40078 52014 60081 79596 889//=
57655 32980 70402 10310 20239 40037 52008 87040=
57662 11970 83604 10241 20200 30025 40065 52018 69901 70080
8807/=
57766 32980 11602 10296 20247 40050 52003 81040=
57776 32980 02213 10224 20175 40070 57004=
52740 16/// /1304 10156 29034 36870 60000
555 1/132 2//00 /////=
59082 32678 12003 10305 20236 39989 40062 52001 81400=
59117 32978 21801 10329 20229 39968 40069 52005 82040=
59211 32580 50000 10308 20240 39852 40050 52003 84440=
59265 32673 10000 10322 20219 39934 40065 57005 81140=
59287 32663 22002 10308 20247 30032 40081 52004 82400 =
59316 32978 02204 10290 20240 30072 40081 52001=
59431 32580 21802 10292 20239 39927 40070 52003 81402=
59644 32580 20000 10289 20254 30062 40077 52002 81142=
59758 32980 01603 10292 20242 30059 40080 52005=
59023 11980 00000 10308 20231 39813 40050 52004 69901 70080=
59293 32970 12501 10307 20237 30023 40070 54000 80002=
59417 11580 71802 10298 20229 39915 40062 54000 69941 70098
82242=
59501 32980 02204 10289 20237 30084 40100 52007=
59663 32975 02004 10293 20251 30054 40081 54000=
59838 31580 73605 10302 20253 30066 40080 52005 71300 86962=
59948 32575 11102 10292 20254 30071 40079 52002 81102=
59981 11580 60904 10281 20260 30072 40078 57002 60011 70098
82242=
59985 31580 30000 10273 20254 30072 40077 52001 70090 81102=
57957 32975 12502 10304 20229 39875 40062 57002 81040=
58144 11362 80403 10195 20187 30037 40059 57001 60021 76066
8672/=
58633 32680 72703 10310 20237 39935 40028 54000 81442=
58659 32970 01403 10285 20248 39998 40031 57004=
58251 11565 80705 10198 20190 30043 40049 52003 69911 76060
885//=
59046 32580 11802 10318 20235 40063 57002 81100=
59058 32980 00000 10291 20244 40069 52001=
59072 32980 02202 10326 20220 40063 54000=
59087 32964 02001 10292 20241 40076 57001=
59096 32675 11602 10301 20235 40074 52007 81100=
59254 32570 40000 10302 20248 40065 57001 81102=
59278 32673 21601 10318 20234 40071 52003 82100=
59456 32980 01802 10305 20238 40078 52004=
59493 32975 01801 10302 20248 40082 54000=
59632 32980 11802 10295 20245 40075 52001 80002=
59647 32580 50902 10287 20247 40076 54000 81902=
59658 32972 01402 10289 20254 40083 54000=
59673 32580 11603 10282 20247 40087 52002 81100=
59845 11565 31603 10299 20230 40075 52007 69901 71380 82902=
59855 32575 21402 10287 20256 40080 54000 82100=
58027 11965 80702 10213 20185 30030 40079 52009 69911 76060
8807/=
58345 11558 80403 10222 20216 40031 52004 60101 79598 8697/=
58543 32980 60901 10302 20243 40034 54000 86040=
58556 32975 22501 10308 20221 40028 52001 80002=
58569 32970 22205 10262 20233 40023 57005 82030=
58646 32970 13402 10309 20236 40030 57001 81040=
58660 32570 11101 10311 20246 40024 52002 81100=
58834 32977 00000 10299 20233 40052 57002=
58926 32980 00000 10315 20208 40065 52007=
58944 32968 62005 10274 20244 40066 52003 80002=
53513 11770 71102 10156 20136 38952 40115 54000 69901 70060
86502 333// 00053=
54218 32980 61402 10272 20064 39441 40077 57005 80002=
54511 32965 42301 10259 20131 30058 40096 52002 82042=
50468 32975 22503 10256 20048 39832 40024 57008 80002=
50745 32965 11402 10290 20097 39878 40046 57006 80002=
50774 32960 20000 10194 20124 39779 40065 57006 80002=
50953 32975 02702 10273 20079 39907 40074 52003=
54337 32965 50000 10264 20108 30012 40093 52002 80002=
54471 32962 73602 10260 20148 30079 40084 57004 82032=
54497 32970 70401 10254 20090 30068 40082 52004 80002=
54662 32970 70402 10232 20147 39976 40091 52001 80002=
57259 11980 80000 10205 20186 40099 52018 69901 70060 8807/=
57494 11462 80402 10229 20208 30035 40063 52013 60071 72198
8677/=
57554 11775 70000 10283 20251 40041 52006 69901 70060 874//=
57584 11975 80204 10240 20216 40067 52017 69911 70080 8807/=
57598 32580 72901 10311 20228 40038 52004 8493/=
57687 32580 72203 10318 20232 39961 40036 52003 879//=
57793 32980 12202 10306 20227 40046 52001 81040=
57799 32970 72202 10322 20238 39983 40062 52020 87040=
57845 11665 12003 10268 20225 40054 57006 69901 70060 81100=
57853 32980 12705 10295 20216 40056 52004 81040=
57866 32980 02203 10303 20228 39861 40056 52001=
57972 32970 01102 10319 20217 39847 40056 57002=
58102 11965 80401 10224 20191 30030 40079 52015 69951 70060
8807/=
58203 11557 80402 10199 20196 30031 40075 52011 60121 76066
885//=
58221 11460 80203 10199 20188 30034 40068 52011 60121 70098
8372/=
58338 11456 80902 10228 20227 40039 52024 60481 79598 889//=
58424 11660 83604 10240 20228 30016 40038 52031 60221 79598
889//=
58527 31680 72202 10313 20242 39956 40027 57002 71300 8194/ =
58606 32970 22203 10310 20251 39980 40032 57004 80002=
58715 32580 21802 10320 20226 40041 54000 81102=
58813 32980 22001 10310 20213 40042 57004 80002=
59102 32563 10000 10287 20222 40073 57002 81100=
58040 32660 80405 10183 20172 30076 40080 57006 885//=
58150 11240 80405 10187 20184 30055 40063 57004 69981 76066
8772/=
54342 32960 70203 10256 20115 30028 40087 57003 80002=
58265 11568 80404 10204 20199 30024 40035 54000 60151 72186
8352/ 333 91117 91532=
58472 11463 80703 10221 20217 39935 40029 52012 69901 78080
885//=
58477 31957 70000 10265 20247 39978 40020 57001 71000 80008=
58666 32975 52213 10238 20228 39942 40039 57004 80002 333
91119 91522=
58725 32980 50000 10286 20236 39803 40051 57006 80002=
58760 32969 22207 10254 20229 40036 57006 80002=
58921 32680 50000 10311 20236 39824 40056 54000 81402=
58236 11562 80704 10205 20196 40049 52012 60191 76098 885//=
57046 31/00 91801 10100 20098 37936 52004 74744 333 00353=
57006 32580 71103 10200 20136 40072 52030 84940 333 00351=
58319 11562 80403 10224 20212 40043 52029 60151 79198 889//=
50632 32980 02701 10213 20069 39232 40062 52004=
53463 11580 70000 10172 20096 38944 40126 52003 69991 70080
86902 333// 00156=
52889 32980 01402 10255 20082 38436 40033 52012 333 00201=
52418 32970 60406 10313 21005 38749 49964 57010 80002 333
05203=
57127 32968 20404 10272 20207 39476 40047 52012 82030=
57245 32780 80903 10247 20200 39742 40075 52013 8357/ 333
00404=
56080 32580 11104 10186 20069 37152 52010 81160 333 00202=
52533 32980 01103 10232 20097 38472 40054 57004 333 05206=
53915 32780 71404 10172 20139 38621 40090 52008 81442 333
00300=
56096 32780 11101 10317 20132 38839 49988 52011 81400 333
05108=
52652 32980 00000 10244 20099 38466 40053 57011 333 05208=
58562 32962 02502 10315 20232 40014 57002=
58457 31557 70702 10292 20250 39971 40019 52005 71000 874//=
889//=
58562 32962 02502 10315 20232 40014 57002=
58457 31557 70702 10292 20250 39971 40019 52005 71000 874//=
58436 11662 83404 10237 20231 40031 52019 60041 79500 889//=
58314 11558 82902 10212 20200 39979 40062 52018 60241 76098
885//=
58437 11/00 92706 10175 20175 38132 57001 69901 79544 333
91123 91525=
58321 11458 83403 10212 20204 40058 52029 60331 76098 887//=
58326 11558 80902 10217 20209 40047 52020 60231 79598 889//=
57259 11980 80000 10205 20186 40099 52018 69901 70060 8807/=
57355 11/02 91401 10222 20219 40066 52010 60101 76298=
57494 11462 80402 10229 20208 30035 40063 52013 60071 72198
8677/=
57554 11775 70000 10283 20251 40041 52006 69901 70060 874//=
57583 11762 80204 10227 20215 40066 52019 60051 76260 885//=
57584 11975 80204 10240 20216 40067 52017 69911 70080 8807/=
57598 32580 72901 10311 20228 40038 52004 8493/=
57687 32580 72203 10318 20232 39961 40036 52003 879//=
57793 32980 12202 10306 20227 40046 52001 81040=
57799 32970 72202 10322 20238 39983 40062 52020 87040=
57845 11665 12003 10268 20225 40054 57006 69901 70060 81100=
57853 32980 12705 10295 20216 40056 52004 81040=
57866 32980 02203 10303 20228 39861 40056 52001=
57972 32970 01102 10319 20217 39847 40056 57002=
58015 11965 60402 10228 20187 40073 52004 69911 72160 86040=
58102 11965 80401 10224 20191 30030 40079 52015 69951 70060
8807/=
58122 11570 80202 10203 20190 40082 52021 60021 76060 885//=
58203 11557 80402 10199 20196 30031 40075 52011 60121 76066
885//=
58215 11558 80705 10200 20191 40067 52025 60291 76066 8772/=
58221 11460 80203 10199 20188 30034 40068 52011 60121 70098
8372/=
58338 11456 80902 10228 20227 40039 52024 60481 79598 889//=
58424 11660 83604 10240 20228 30016 40038 52031 60221 79598
889//=
58527 31680 72202 10313 20242 39956 40027 57002 71300 8194/ =
58531 32780 72003 10297 20240 40021 57001 875//=
58606 32970 22203 10310 20251 39980 40032 57004 80002=
58715 32580 21802 10320 20226 40041 54000 81102=
58813 32980 22001 10310 20213 40042 57004 80002=
59102 32563 10000 10287 20222 40073 57002 81100=
53588 11980 80904 10082 20048 37809 52001 69901 70060 8802/=
53772 32960 80000 10185 20115 39246 40129 57003 8802/=
58122 11570 80202 10203 20190 40082 52021 60021 76060 885//=
58215 11558 80705 10200 20191 40067 52025 60291 76066 8772/=
58338 11456 80902 10228 20227 40039 52024 60481 79598 889//=
58531 32780 72003 10297 20240 40021 57001 875//=
58015 11965 60402 10228 20187 40073 52004 69911 72160 86040=
58102 11965 80401 10224 20191 30030 40079 52015 69951 70060
8807/=
58203 11557 80402 10199 20196 30031 40075 52011 60121 76066
885//=
58221 11460 80203 10199 20188 30034 40068 52011 60121 70098
8372/=
58424 11660 83604 10240 20228 30016 40038 52031 60221 79598
889//=
58311 11562 83402 10208 20205 40067 52020 60261 76098 885//=
50548 32980 51601 10241 20100 40042 57006 80002=
50834 11580 72008 10289 20025 40050 52003 69901 78090 86902
333// 91118 91520=
53480 32980 72704 10183 20071 40113 52006 80002=
53673 11960 80000 10174 20124 40135 52004 69901 76066 8802/=
53787 11770 70000 10166 20119 40125 54000 69901 70060 875//=
53898 11962 83402 10214 20152 40116 52005 69901 76060 8807/=
54602 32762 72701 10246 20171 40105 57001 87500=
54725 32965 70903 10222 20158 40092 54000 8703/=
54751 32960 70202 10185 20146 40095 57001 8703/=
54916 11660 70901 10228 20186 40081 57005 69901 70060 87500=
58208 11362 83604 10203 20195 40074 52011 60111 76198 8772/=
57399 11562 73604 10219 20202 40065 52023 60301 70096 83740=
57447 11780 82202 10215 20209 39547 40063 52004 60111 79596
889//=
57745 32980 12202 10299 20224 39734 40039 52006 81040=
58506 31/00 93404 10207 20207 40056 52005 74700=
58238 11358 83603 10215 20203 30038 40047 52026 60211 79196
889//=
58457 31557 70702 10292 20250 39971 40019 52005 71000 874//=
58847 32980 31405 10298 20238 39955 40051 52005 80002=
59134 32980 12001 10272 20235 39924 40081 52004 80002=
58321 11458 83403 10212 20204 40058 52029 60331 76098 887//=
56294 32965 60000 10301 20216 39468 40029 52010 86040 333
00303=
56492 32564 70000 10319 20216 39638 40017 52009 8644/ 333
00305=
56571 32780 70000 10296 20157 38327 52003 874// 333 00300=
56651 11680 70000 10209 20166 37604 52007 60021 70098 87900
333// 00151=
56778 11575 70000 10214 20178 38084 57002 60061 70098 83202
333// 00100=
56951 11780 70000 10229 20188 38456 57004 60031 70098 82442
333// 00002=
57328 11580 30701 10240 20224 39656 40046 52007 69931 70060
81140=
57411 11968 73601 10256 20236 39689 40039 52009 69901 70060
8704/=
57516 32961 73402 10291 20229 39733 40025 52015 8704/ 333
00601=
57816 32975 22004 10250 20183 38733 40042 52007 80002 333
00101=
50527 32970 50701 10263 20095 39358 40040 52002 80002=
50727 11580 61803 10219 20040 38940 40073 52003 69901 70080
81102=
53564 11770 82001 10148 20129 39158 40134 52001 60031 76066
8552/ 333// 00257=
53959 11561 80902 10182 20172 39686 40122 54000 69961 72166
8372/=
54843 32970 73202 10219 20177 30061 40087 52004 80002=
54909 11964 73403 10216 20184 30030 40090 52015 60011 70060
8703/=
58362 11660 80704 10226 20222 30020 40030 52001 60091 70098 885//=
58730 32978 70201 10309 20230 40046 57001 80002=
58731 32980 51804 10300 20222 40045 57004 82032=
58754 32965 70000 10293 20245 40043 57001 80002=
58911 32980 13203 10270 20227 40066 57003 80002=
58931 32380 72507 10209 20161 38358 57005 81401=
50136 32970 72003 10243 20095 39501 49988 57009 81032=
50353 32970 51603 10252 20128 39799 40004 57008 81032=
50557 32970 21404 10230 20042 39768 40046 57008 80002=
50756 32970 02503 10259 20085 39788 40062 57003=
50788 32670 41602 10184 20084 30004 40085 52003 83502=
50963 32580 20202 10226 20140 39942 40070 52013 81102=
50978 32980 30701 10209 20078 39813 40088 52005 80001=
54236 32980 21103 10244 20093 39994 40091 57003 80002=
56193 11980 20000 10240 20197 40047 52019 69921 70098 82040
333 00202=
56196 32980 70000 10317 20208 40017 52011 87040 333 00303=
56287 32980 70000 10293 20215 40028 52006 85042 333 00203=
56385 32480 70402 10125 20076 37045 52008 81142 333 00502=
56666 32680 11103 10317 20154 49969 52003 81100 333 00101=
56671 32780 21603 10261 20151 38163 52004 81402 333 00101=
56684 32580 22703 10210 20131 37871 52008 82102 333// 00252=
56751 31680 11607 10231 20143 37973 57001 71590 81202 333//
00000=
56786 32580 42203 10231 20156 38083 52004 82242 333 00101=
56886 32680 61603 10236 20173 38237 52002 83442 333// 00103=
56977 11580 10000 10242 20215 40052 52004 69941 70080 81402
333// 00101=
57206 32580 71403 10302 20207 40017 52016 81442=
57348 11768 70000 10203 20199 40073 52013 60161 79598 879//=
57426 32766 80403 10220 20211 40053 52008 884// 333 00757=
57602 32970 40000 10315 20217 40022 52010 84040=
57713 32675 71402 10300 20204 40013 52014 874// 333 00200=
58362 11660 80704 10226 20222 30020 40030 52001 60091 70098 885//=
54094 31558 31101 10224 20109 39798 40077 52001 70400 82102=
53646 11970 81101 10154 20117 38935 40122 52002 69901 70060
8802/ 333 00052=
52323 32680 11105 10255 21034 38199 57004 81102 333 00002=
57036 11962 80701 10184 20169 39656 40118 52005 69911 70060
8807/=
53845 32767 80702 10176 20143 39036 40112 57005 885// 333
00201=
52866 32580 30000 10234 20046 37665 52005 81102 333 00202=
52836 32980 00000 10203 21050 36906 57012 333 00003=
52754 32980 03603 10167 21034 36816 52001 333 00204 91117
91529=
52955 32980 03601 10206 21049 36981 52002 333 00203=
56046 32580 13404 10153 21006 36304 52001 81100 333 00203=
52681 32980 03602 10219 20080 38605 40088 52008 333 00104=
52787 11770 13611 10095 20033 37055 52003 69971 70098 81400
333 00202 93906=
52436 32980 10903 10251 20033 38401 40019 57002 80002 333
05103=
57016 32962 80904 10186 20160 40105 52006 8807/=
56065 32680 10203 10168 21016 36654 52002 81200 333 00205=
53923 32680 81604 10159 20144 40104 52005 885//=
57385 11580 83606 10210 20188 40070 52010 60041 72198 8757/=
57399 11562 73604 10219 20202 40065 52023 60301 70096 83740=
57447 11780 82202 10215 20209 39547 40063 52004 60111 79596
889//=
57745 32980 12202 10299 20224 39734 40039 52006 81040=
58506 31/00 93404 10207 20207 40056 52005 74700=
54823 11958 70902 10228 20161 39895 40090 57001 69901 71060
80001=
57083 11960 80000 10211 20177 39978 40108 52007 69901 72160
8802/=
53352 32680 22003 10178 20048 40111 52008 81502=
53764 32565 82201 10162 20122 40132 52005 8272/=
53863 11961 80201 10168 20134 40130 54000 69901 70060 8807/=
53975 11956 72701 10172 20147 40121 52002 69911 71060 8703/=
54808 11966 83203 10202 20193 40095 52002 69941 70060 8807/=
54826 11/00 90706 10134 20134 38438 57005 69901 74564=
54836 32968 70901 10216 20150 40090 57002 87030=
54863 32970 72201 10189 20141 40093 57002 80002=
57071 11565 82902 10191 20168 40115 52007 69901 76060 8572/=
59209 11460 72502 10230 20211 40079 52001 69981 78080
879//=
59995 11480 63203 10271 20235 30061 40069 52001 60111 70062 82122=
50246 32980 70000 10238 20069 40004 57002 80002=
50442 32970 62001 10258 20054 40033 57002 80002=
50658 32980 02502 10270 20049 40049 57004=
50844 32962 01804 10295 20044 40052 57001=
50854 32970 02002 10270 20066 40060 57002=
50888 32980 61102 10202 20087 40087 52003 80002=
50968 32970 01602 10212 20165 40083 52001=
50983 32970 33201 10167 20114 40094 52006 80002=
54096 32970 10000 10165 20111 40097 52006 80002=
54259 32975 13601 10215 20105 40111 52004 80002=
54324 32965 70000 10268 20121 40090 52004 80002=
54346 32970 71402 10232 20123 40097 52007 80002=
54493 32974 70000 10213 20116 40090 52003 83032=
57993 32980 00000 10313 20213 39918 40058 57001=
58314 11558 82902 10212 20200 39979 40062 52018 60241 76098
885//=
58321 11458 83403 10212 20204 40058 52029 60331 76098 887//=
58437 11/00 92706 10175 20175 38132 57001 69901 79544 333
91123 91525=
47401 11260 81004 10076 20072 30090 40103 51010 60032 78088
887// 333 10129=
47412 11340 80101 10120 20115 30053 40084 58001 60082 78098
882// 333 10185=
47420 11/50 81104 10087 20081 30054 40101 51002 69902 72052
886// 333 10122=
47426 32/60 82001 10113 20102 30045 40089 50002 882// 333
10160=
47582 32/70 53303 10142 20112 30059 40084 55000 82532 333
10197=
47590 32/60 73402 10190 20138 30011 40061 57004 81132 333
10232=
47600 32/65 70405 10165 20134 30076 40092 51007 875// 333
10202=
47648 11/50 83406 10179 20166 30031 40063 53005 69902 71322
8637/ 333 10241=
47662 11/56 80502 10222 20167 30013 40054 50001 69902 72122
875// 333 10261=
47678 11458 83102 10182 20176 39970 40064 58017 60202 76366
8672/ 333 10230=
47740 31/50 70202 10168 20135 30063 40100 53011 71022 85202
333 10199=
47778 11/60 80302 10184 20167 39970 40057 50001 60072 72166
8172/ 333 10235=
47807 11/60 80302 10204 20168 30062 40079 51011 60012 70286
8222/ 333 10246=
47827 11584 80305 10219 20179 30035 40071 51006 60792 70282
8677/ 333 10253=
47843 11459 80301 10196 20179 30032 40062 57002 60042 76188
8372/ 333 10217=
47898 11/58 83202 10183 20177 30041 40079 51013 60592 78086
8427/ 333 10191=
47909 32/80 22002 10268 20222 30071 40079 50000 82201 333
10319=
47918 32/81 22003 10283 20255 30084 40092 53003 82200 333
10320=
47936 32/70 52005 10267 20249 30029 40089 58003 83202 333
10303=
47945 32/70 21903 10255 20248 30086 40109 51008 82100 333
10295=
47971 32/70 11903 10259 20238 30116 40125 52007 81100 333
10292=
47991 11/75 21203 10271 20229 30132 40142 53005 69902 70281
82201 333 10303=
56586 32670 60204 10230 20169 38014 52007 84442 333 00353=
56748 11580 70000 10240 20173 38302 52012 69901 78090 86903
333 00100=
56763 11680 51803 10294 20179 40006 54000 69901 70080 81402
333 00100=
56768 11680 71802 10230 20175 38192 52001 69921 70098 85902
333 00002=
56838 11665 80202 10231 20210 40049 52 028// 60051 79598
889// 333// 00152=
56946 11575 70901 10224 20202 40046 57003 60021 70098 874//
333// 05101=
56954 11580 70000 10250 20219 40036 57002 69931 70098 82902
333// 00001=
56959 11780 70000 10260 20242 40032 52008 60031 72598 879//
333 00153=
56966 11780 61106 10306 20203 40015 52003 69931 70080 82902
333// 00000=
56969 11580 60000 10257 20234 40045 52001 60011 70098 86900
333// 00002=
56986 11380 71403 10204 20181 40079 57001 69901 70080 86402
333// 00100=
57237 32880 63406 10245 20179 40057 52016 86500=
57306 32980 60000 10271 20226 40036 52013 86040=
57504 32980 70703 10317 20190 40018 52017 8704/ 333 00403=
59007 32980 11604 10235 20174 40062 54000 81030=
47575 32/60 32203 10139 20114 30077 40081 58007 83600 333
10191=
47585 31/30 72202 10141 20127 30017 40072 58006 71022 872//
333 10206=
47598 11/30 81901 10172 20150 30050 40056 58006 69952 72598
882// 333 10229=
47602 32/70 71401 10152 20132 30072 40092 51010 875// 333
10204=
47618 11/56 82801 10166 20146 39375 40066 51003 69902 78082
812// 333 10225=
47624 11/60 73304 10189 20131 39928 40059 56002 60062 78098
872// 333 10262=
47636 11/65 81602 10208 20158 30002 40066 57004 69902 72162
885// 333 10241=
47655 11/65 82103 10197 20165 30004 40058 58016 69902 72162
8802/ 333 10223=
47750 11260 80204 10184 20162 30057 40083 51006 69902 70282
882// 333 10235=
47755 32962 80403 10193 20174 30067 40090 51014 8807/ 333
10236=
47772 32960 72402 10216 20168 39974 40069 53001 8707/ 333
10241=
47800 32460 73502 10185 20158 30070 40092 51003 872// 333
10207=
47815 11/60 82101 10186 20174 30069 40084 51005 60322 76166
8572/ 333 10197=
47817 11475 80202 10203 20181 30024 40065 58002 60062 72166
8117/ 333 10224=
47830 11/58 70000 10192 20180 30068 40085 51008 60652 72182
878// 333 10201=
47837 11/70 70705 10202 20181 30054 40075 51011 60022 70298
8327/ 333 10259=
47891 11/59 83301 10204 20166 30065 40077 53009 69902 71062
8317/ 333 10236=
47899 11/60 80204 10186 20145 39855 40070 51008 60242 76166
8172/ 333 10187=
47927 32/80 22104 10275 20247 30046 40092 51004 82100 333
10308=
50603 32680 62901 10274 20081 39420 40038 52011 82132=
54026 32980 41603 10289 20083 39759 40059 52002 82032=
54027 32980 12502 10280 20059 39519 40063 57006 80002=
53614 11870 73604 10175 20152 38861 40094 52006 69911 70060
85432 333 05102=
53723 11770 40404 10186 20142 38610 40081 52004 69901 72500
82402 333 05104=
56033 32580 12502 10136 21075 36081 52004 81900 333 00203=
56029 32680 10000 10209 20020 36507 57008 81100 333 00007=
52996 11580 23604 10152 20055 37568 52013 60061 70098 81402
333 00203 91123 91536=
53705 32965 00406 10210 20153 40061 52012 333 05105=
56021 32580 20702 10151 21063 36121 57010 81102 333 00006=
57251 11462 81401 10207 20201 40095 52012 60011 76060 8277/=
58407 11460 83203 10235 20220 40064 52031 60081 79560 889//=
54102 32980 02502 10257 20049 38999 40082 52001=
54527 32965 70000 10240 20178 40099 57005 80002=
54401 32670 61102 10255 20070 39294 40102 52004 82102=
54308 32980 72003 10252 20083 40095 57004 80002=
54405 32975 70702 10265 20097 40101 52003 83032=
54423 32975 40000 10248 20141 39656 40095 52002 81032=
54618 32962 70701 10242 20149 30078 40095 57004 8703/=
54436 32980 72203 10253 20152 40101 52007 80002=
53798 11760 80201 10226 20155 30018 40108 52003 69921 76060
885//=
53068 11780 62002 10249 20089 39019 40073 52004 69901 70098
83902 333// 05151=
53231 32780 61605 10149 20107 38460 57001 86500 333// 00154=
53276 32680 61404 10215 20035 38833 40087 52001 81502=
54135 32980 01605 10264 20084 39880 40086 57003=
54753 32965 20203 10201 20143 30085 40091 52006 80002=
54857 32960 70903 10192 20150 39999 40088 57004 8703/=
57067 11964 80901 10171 20153 39464 40118 52007 69901 70060
8807/=
57178 11958 80403 10194 20171 39947 40100 52010 69991 76060
8807/=
57297 11350 83605 10189 20183 39950 40084 52012 60041 78080
889//=
44210 32999 63206 10166 21078 38483 53010 83064 333 10221=
44216 32999 23201 10272 20030 38897 40019 53005 80004 333
10291=
44217 12698 42305 10126 20058 37904 40157 52008 69952 82544
333 10146=
44219 32998 20000 10260 21033 38554 40010 58002 80001 333
10259=
44221 12999 30000 10223 20123 38533 40031 56001 69922 80008
333 10234=
44224 32998 20000 10190 20004 38034 40024 54000 80004 333
10228=
44254 32998 42704 10270 20011 38957 49999 56005 80004 333
10325=
44257 32998 22307 10278 20009 38898 40013 57004 81041 333
10317=
44263 32998 42702 10182 20002 38033 40052 56006 80008 333
10192=
44266 32999 70904 10178 20085 37777 40039 54000 85088 333
10215=
44325 32999 53204 10289 20141 38756 40990 57003 83084 333
10301=
44338 32899 50000 10267 20090 38433 49997 57005 83048 333
10283=
44374 11599 71409 10213 20030 38230 40014 55006 60005 70298
85202 333 10252=
44385 32999 62507 10223 20090 38857 40064 53002 83041 333
10260=
50949 32968 02203 10275 20110 39920 40078 57005=
54161 32970 01803 10258 20029 39815 40088 52001=
54292 32565 10000 10213 20073 39878 40085 52010 81100=
54374 32962 03603 10194 20073 39719 40106 52010=
54273 32970 12702 10218 20125 40098 52006 80002=
50564 32970 62003 10217 20075 40041 57003 80002=
54049 32970 02002 10263 20074 40093 57005=
54115 32680 22501 10246 20086 40083 52002 81402=
54157 32965 02501 10240 20120 40095 54000=
54186 32670 22702 10204 20074 40096 52006 82500=
54377 32970 41802 10227 20101 40094 52012 80001=
54386 32970 00403 10182 20035 40103 52016=
56018 32680 11102 10168 21002 36213 57010 81100 333 00105=
52737 32980 00000 10212 21034 37078 57010 333 00004=
52908 32580 71404 10112 21071 35800 57014 85902 333 05107=
56004 32680 71607 10124 21028 35856 57006 879// 333 05208=
52602 32980 70402 10239 21104 37239 57015 80002 333 05203=
51886 32776 80709 10231 21111 37080 57001 82907 333 05406=
52713 32980 63201 10215 21120 36902 57018 80002 333 05104=
52818 32680 10905 10243 21073 37192 57023 81102 333 05303=
57458 11558 83403 10212 20209 40068 52008 60031 79586 889//
333 00454=
56079 32780 22203 10138 20073 36719 52001 82240 333 00200=
56144 32980 20000 10154 20091 36879 57005 82602 333 00103=
56152 32780 62702 10139 20028 36358 57001 82440 333 00204=
56167 11580 83204 10135 20102 37122 52047 60041 78098 889//
333 00756 91120 91532=
56173 11880 20000 10141 20065 36686 57002 69901 70080 82902
333 00201=
56182 11680 22005 10168 20087 37210 52009 60021 70098 82400
333 00203=
56257 11680 50000 10110 20048 36325 52005 60011 70098 82102
333 00556=
56357 11680 61104 10126 20054 36483 52016 60011 72598 86900
333 00355 91118 91518=
56374 11580 70702 10145 20124 37435 52003 60051 70098 87400
333// 00756=
57707 11670 80000 10215 20190 38448 52012 60011 79198 885//
333 00455=
57731 32980 11401 10314 20221 40020 52012 81040=
57832 32580 11802 10289 20210 40034 52007 81402=
57916 32680 10000 10295 20226 40043 57002 81400=
57922 32580 11605 10252 20197 40055 54000 81140=
57932 32680 12503 10297 20227 40048 52006 81130=
53614 11870 73604 10175 20152 38861 40094 52006 69911 70060
85432 333 05102=
53723 11770 40404 10186 20142 38610 40081 52004 69901 72500
82402 333 05104=
56033 32580 12502 10136 21075 36081 52004 81900 333 00203=
56029 32680 10000 10209 20020 36507 57008 81100 333 00007=
52996 11580 23604 10152 20055 37568 52013 60061 70098 81402
333 00203 91123 91536=
53705 32965 00406 10210 20153 40061 52012 333 05105=
56021 32580 20702 10151 21063 36121 57010 81102 333 00006=
57251 11462 81401 10207 20201 40095 52012 60011 76060 8277/=
57993 32980 00000 10313 20213 39918 40058 57001=
58314 11558 82902 10212 20200 39979 40062 52018 60241 76098
885//=
58321 11458 83403 10212 20204 40058 52029 60331 76098 887//=
58407 11460 83203 10235 20220 40064 52031 60081 79560 889//=
58437 11/00 92706 10175 20175 38132 57001 69901 79544 333
91123 91525=
54102 32980 02502 10257 20049 38999 40082 52001=
54527 32965 70000 10240 20178 40099 57005 80002=
54401 32670 61102 10255 20070 39294 40102 52004 82102=
54308 32980 72003 10252 20083 40095 57004 80002=
54405 32975 70702 10265 20097 40101 52003 83032=
54423 32975 40000 10248 20141 39656 40095 52002 81032=
54618 32962 70701 10242 20149 30078 40095 57004 8703/=
54436 32980 72203 10253 20152 40101 52007 80002=
53798 11760 80201 10226 20155 30018 40108 52003 69921 76060
885//=
JFDG    03124 99334 11359
41/97 80511 10206 20179 40059 56003 76166 8372/
22252 00243 1//02 20301 399// 4//01 70011=
JBOA    03124 99305 11352
41/97 82325 10236 20224 40053 56010 72582 882//
22281 00233 10603 20604 70013=
JNSR    03124 99469 11553
41/// 82605 10036 2//// 40067 54000 76062 8////
22241 06032 10905=
JBOA    03124 99305 11352
41/97 82325 10236 20224 40053 56010 72582 882//
22281 00233 10603 20604 70013=
53068 11780 62002 10249 20089 39019 40073 52004 69901 70098
83902 333// 05151=
53231 32780 61605 10149 20107 38460 57001 86500 333// 00154=
53276 32680 61404 10215 20035 38833 40087 52001 81502=
54135 32980 01605 10264 20084 39880 40086 57003=
54753 32965 20203 10201 20143 30085 40091 52006 80002=
54857 32960 70903 10192 20150 39999 40088 57004 8703/=
57067 11964 80901 10171 20153 39464 40118 52007 69901 70060
8807/=
57178 11958 80403 10194 20171 39947 40100 52010 69991 76060
8807/=
57297 11350 83605 10189 20183 39950 40084 52012 60041 78080
889//=
44210 32999 63206 10166 21078 38483 53010 83064 333 10221=
44216 32999 23201 10272 20030 38897 40019 53005 80004 333
10291=
44217 12698 42305 10126 20058 37904 40157 52008 69952 82544
333 10146=
44219 32998 20000 10260 21033 38554 40010 58002 80001 333
10259=
44221 12999 30000 10223 20123 38533 40031 56001 69922 80008
333 10234=
44224 32998 20000 10190 20004 38034 40024 54000 80004 333
10228=
44254 32998 42704 10270 20011 38957 49999 56005 80004 333
10325=
44257 32998 22307 10278 20009 38898 40013 57004 81041 333
10317=
44263 32998 42702 10182 20002 38033 40052 56006 80008 333
10192=
44266 32999 70904 10178 20085 37777 40039 54000 85088 333
10215=
44325 32999 53204 10289 20141 38756 40990 57003 83084 333
10301=
44338 32899 50000 10267 20090 38433 49997 57005 83048 333
10283=
44374 11599 71409 10213 20030 38230 40014 55006 60005 70298
85202 333 10252=
44385 32999 62507 10223 20090 38857 40064 53002 83041 333
10260=
50949 32968 02203 10275 20110 39920 40078 57005=
54161 32970 01803 10258 20029 39815 40088 52001=
54292 32565 10000 10213 20073 39878 40085 52010 81100=
54374 32962 03603 10194 20073 39719 40106 52010=
54273 32970 12702 10218 20125 40098 52006 80002=
50564 32970 62003 10217 20075 40041 57003 80002=
54049 32970 02002 10263 20074 40093 57005=
54115 32680 22501 10246 20086 40083 52002 81402=
54157 32965 02501 10240 20120 40095 54000=
54186 32670 22702 10204 20074 40096 52006 82500=
54377 32970 41802 10227 20101 40094 52012 80001=
54386 32970 00403 10182 20035 40103 52016=
56018 32680 11102 10168 21002 36213 57010 81100 333 00105=
52737 32980 00000 10212 21034 37078 57010 333 00004=
52908 32580 71404 10112 21071 35800 57014 85902 333 05107=
56004 32680 71607 10124 21028 35856 57006 879// 333 05208=
52602 32980 70402 10239 21104 37239 57015 80002 333 05203=
51886 32776 80709 10231 21111 37080 57001 82907 333 05406=
52713 32980 63201 10215 21120 36902 57018 80002 333 05104=
52818 32680 10905 10243 21073 37192 57023 81102 333 05303=
57458 11558 83403 10212 20209 40068 52008 60031 79586 889//
333 00454=
VMBD 03123 99136 11278 41/98 30812 10290 20255 40089 52002 70111
8//// 22243 00288 80265=
VSBU3 03123 99266 31066 41397 81106 10186 20184 40175 54015 79199
8694/ 22233 02270 20202 3//// 4//// 80183=
VJBF 03123 99360 31362 41398 42619 10152 20145 40203 52004 72582
88500 22273 00145 20402 325// 40602 5//// 80148=
UAHV 03124 99287 51683 43/97 73030 10211 2018/ 40160 54000 87///
22254 0020/ 20404 80187=
ZCBX4 03123 99312 31652 41597 32630 10158 20126 40064 52040 70101
8311/ 22273 00/// 20202 399// 4//08 5//// 80136=
GDTT 03123 99355 31751 41/98 33028 10154 20138 49945 58026 71880
83/// 22242 00178 2//// 3//// 4//// 5//// 80145=
VRVA8 03123 99079 31219 13/98 30916 10275 40050 22223=
ELXS8 03121 99380 31486 41598 71708 10130 20094 40184 54000 70222
874// 22213 00151 2//// 3//// 80110=
C6IZ7 03121 99143 11254 41697 40106 10300 20246 40090 51001 70111
84387 22284 00300 2//// 3//// 80260=
VJBF 03123 99360 31362 41398 82619 10152 20145 40203 52004 72582
88500 22273 00145 20402 325// 40602 5//// 80148=
YJQV2 03123 99297 31760 41498 22913 10197 20169 40053 56010 70200
82440 22243 02203 20402 325// 40805 80180=
D5HD 03124 99081 50846 42498 81113 10225 20185 40140 54000 886//
22274 00230 20403 319// 40704 80200=
DDGY 03120 99226 51588 41598 31405 10210 20129 40155 56005 70211
83100 22214 06245 2//03 316// 4//10 80160=
CBGR 03114 99193 31474 46/// /1114 10194 40206=
MYRF 03114 99183 31474 46/// /1422 10212 40170=
DVRF 03114 99188 31477 46/// /1117 10205 40162=
ELXD6 03123 99358 51290 /1/94 /0130 00/// 10185 20178 40170 56020
6//// 76366 8//// 22223 00170 2//// 3//// 4//// 5//// 6//// 80180=
SHIP 03124 99108 31375 41/97 71423 10250 40110 72202 222// 0////
31814 40304 50304=
SHIP 03124 99335 31570 41398 52219 10200 20153 40134 54001 72572
85462 22213 00180 20504 320// 40604=
YJYY2 03123 99152 31502 41497 81120 10245 20194 40123 51003 70222
88/// 22232 00280 20701 311// 40803 80210=
3FSA6 03123 99001 31413 41/98 /1313 10290 20276 40080 51005 70000
8//// 22235 00295=
ELMA4 03120 99173 31547 41797 51320 10230 20186 40160 51030 70201
84335 91120 22243 00250 1XXXX 2XXXX 3XXXX 4XXXX 5XXXX 6XXXX 80200=
VLST 03114 99399 31456 46/// /2726 10126 20097 30095 40125 5////
22274 85110=
C6FD9 03123 99066 31039 41498 /0914 10290 2025/ 40105 70311 22233
00275 20605 316// 41206 80260=
VRSC 03123 99085 31285 41598 31419 10254 20194 40102 52020 70200
835// 22234 00300 20302 80125=
C6CN4 03124 99216 31503 46/// /1917 10177 20123 30164 40188 52003
22233 85145=
VLST 03124 99397 31454 46/// /2829 10130 20083 30101 40131 5////
22274 85105=
VNVF 03123 99139 31206 41498 40913 10250 20151 40126 52020 70200
841// 22214 00276 80190=
SHIP 03124 99178 31215 41/97 11205 10270 40147 70000 222//=
3FJR6 03124 99259 11639 42/96 31310 10260 40170 7////=
SHIP 03124 99119 31306 41/97 21407 10240 40123 70200 222//=
3FRR5 03123 99285 31713 41598 62624 10190 20147 40079 55001 70212
86461 22234 04200 20403 327// 40303 80165=
56079 32780 22203 10138 20073 36719 52001 82240 333 00200=
56144 32980 20000 10154 20091 36879 57005 82602 333 00103=
56152 32780 62702 10139 20028 36358 57001 82440 333 00204=
56167 11580 83204 10135 20102 37122 52047 60041 78098 889//
333 00756 91120 91532=
56173 11880 20000 10141 20065 36686 57002 69901 70080 82902
333 00201=
56182 11680 22005 10168 20087 37210 52009 60021 70098 82400
333 00203=
56257 11680 50000 10110 20048 36325 52005 60011 70098 82102
333 00556=
56357 11680 61104 10126 20054 36483 52016 60011 72598 86900
333 00355 91118 91518=
56374 11580 70702 10145 20124 37435 52003 60051 70098 87400
333// 00756=
57707 11670 80000 10215 20190 38448 52012 60011 79198 885//
333 00455=
57731 32980 11401 10314 20221 40020 52012 81040=
57832 32580 11802 10289 20210 40034 52007 81402=
57916 32680 10000 10295 20226 40043 57002 81400=
57922 32580 11605 10252 20197 40055 54000 81140=
57932 32680 12503 10297 20227 40048 52006 81130=
53083 32980 42003 10237 20115 40079 57001 80002 333// 05201=
53487 11665 70704 10192 20039 40109 52005 69901 78080 87902=
54226 32980 30000 10242 20093 40090 57003 80002=
54311 32980 40000 10239 20062 40091 57001 80002=
54534 32965 62202 10246 20154 40096 57003 80002=
54587 32970 71102 10196 20145 40048 52001 80002=
54715 32970 50202 10239 20181 40096 54000 85030=
54929 11965 80903 10211 20187 40083 57001 69931 76060 8807/=
54945 32560 70902 10171 20163 40090 57009 875//=
57193 11362 83403 10202 20193 40093 52013 69931 76060 8772/=
57290 11558 83403 10190 20180 40085 52012 60061 72186 8772/=
56146 11580 60901 10117 20085 36778 52024 60031 72598 83902
333 00555 91118 91534=
56172 32780 62701 10203 20078 37346 52019 82440 333 00303=
56247 11780 83601 10167 20129 37439 52044 60041 79180 889//
333 00959=
56444 32780 12901 10146 20073 36808 52005 81100 333 00001=
56462 11480 71801 10143 20119 37158 52037 60031 70098 86440
333 00758=
56691 11580 61403 10212 20146 37755 52007 69901 70098 84943
333 00200=
56739 11476 70000 10219 20183 38305 52007 69901 79598 879//
333 00000=
5?XY4()7SJL?)W?L??D1Q?,?
56066 36/// ///// 10165 21130 36639 4//// 52002
555 10050 2//// 3//// 40111 51001 60/// 7//// 80000
9//// ///// 1/020 2//00 30000=
53083 32980 42003 10237 20115 40079 57001 80002 333// 05201=
53487 11665 70704 10192 20039 40109 52005 69901 78080 87902=
54226 32980 30000 10242 20093 40090 57003 80002=
54311 32980 40000 10239 20062 40091 57001 80002=
54534 32965 62202 10246 20154 40096 57003 80002=
54587 32970 71102 10196 20145 40048 52001 80002=
54715 32970 50202 10239 20181 40096 54000 85030=
54929 11965 80903 10211 20187 40083 57001 69931 76060 8807/=
54945 32560 70902 10171 20163 40090 57009 875//=
57193 11362 83403 10202 20193 40093 52013 69931 76060 8772/=
57290 11558 83403 10190 20180 40085 52012 60061 72186 8772/=
56146 11580 60901 10117 20085 36778 52024 60031 72598 83902
333 00555 91118 91534=
56172 32780 62701 10203 20078 37346 52019 82440 333 00303=
56247 11780 83601 10167 20129 37439 52044 60041 79180 889//
333 00959=
56444 32780 12901 10146 20073 36808 52005 81100 333 00001=
56462 11480 71801 10143 20119 37158 52037 60031 70098 86440
333 00758=
56691 11580 61403 10212 20146 37755 52007 69901 70098 84943
333 00200=
56739 11476 70000 10219 20183 38305 52007 69901 79598 879//
333 00000=
56066 36/// ///// 10165 21130 36639 4//// 52002
555 10050 2//// 3//// 40111 51001 60/// 7//// 80000
9//// ///// 1/020 2//00 30000=
44286 32998 61607 10278 20038 38574 49982 56005 86070 333
10302=
44348 12697 20507 10198 20129 38640 40076 52013 69902 76261
82540 333 10264=
44386 12599 62304 10204 20107 38983 40065 53001 60072 82364
333 10279=
54539 32970 72701 10226 20168 30086 40100 52001 82032=
53698 32962 83601 10242 20153 40108 52005 8807/=
53593 32780 72002 10223 20048 40110 52002 81432=
50434 32980 41602 10196 20077 39226 40052 57006 80002=
50915 11580 60901 10278 20030 39143 40058 57004 69901 70080
84902 333// 91121 91522=
53149 11580 71607 10212 20031 38755 40090 52008 69901 72580
82902 333// 00154=
53192 32980 21803 10239 20015 38869 40095 57005 80002=
53336 32580 71803 10154 20104 38694 40114 52002 86902 333//
00254=
53391 32680 31803 10192 20015 38507 40108 54000 81402 333//
05102=
53529 11568 81103 10135 20125 38589 40112 57001 69901 70060
8372/ 333// 05151=
53543 11980 71405 10112 20099 38528 40139 57003 60071 72166
86032=
54012 32980 22002 10242 20069 38989 40080 52001 80002=
54208 32980 70000 10201 20078 38741 40105 52001 80002=
54776 32965 73206 10170 20146 30031 40088 57001 8703/=
52634 36/// /0000 10159 21072 36761 4//// 57002
555 10040 2//// 30126 41111 51011 60/// 7//// 80000
9//// ///// 1/113 2//00 30000=
57528 16/// /1900 10195 29756 37563 61430
555 1/144 2//11 30227 12100
11101 10101 00010 10110 1011/
/////
2//// 3//// 6//// ///// ///// 8//// 9//// ///// ///// //004
11101 11111 1011/
11111 110//=
45011 32475 21603 10283 20249 40094 54000 82100 333 10328
59012=
47105 11950 32003 10172 20156 30070 40101 55000 69912 71011
80002 333 10209 30017 55000 20930 70001=
47108 11558 32302 10247 20172 39973 40071 52014 69902 71028
82502 333 10316 30025 55065 21653=
47115 31958 20000 10149 20133 39844 40103 71011 82030 333
10214 30016 55041 92031=
47135 31959 80903 10207 20159 39809 40089 52014 71022 8802/
333 10271 30021 55014 21273=
47138 32662 63603 10175 20158 30107 40110 52009 82502 333
10203 30018 21050 92032=
47159 31950 80704 10180 20154 30015 40095 52009 71022 8801/
333 10230 30016 55009 21493 92022=
47165 31550 80202 10200 20184 30041 40083 52010 71022 8352/
333 10242 3/021 55001 21053 92022=
47184 11558 80905 10186 20171 30042 40069 58010 60052 72162
8452/ 333 10207 31019 55000 20483 70056 92033=
47008 32975 10000 10225 20093 30023 40073 54000 81500 333
10246=
47014 32950 00000 10201 20107 39697 40072 58003 333 10285=
47016 32970 10000 10189 20082 39287 40121 52018 80001 333
10275=
47020 32965 80000 10237 20095 39743 40092 53009 80001 333
10314=
47025 32560 20000 10137 20124 30068 40095 53004 82500 333
10231=
47035 32970 70201 10257 20128 30071 40079 52004 81074 333
10320=
47041 31560 80000 10170 20155 30078 40104 53013 71042 8853/
333 10245=
47055 32965 60000 10169 20147 30066 40109 53011 80004 333
10208=
47058 32566 73202 10249 20164 30036 40080 53009 82530 333
10320=
47069 32965 83203 10244 20174 39979 40071 57011 82032 333
10304=
23914 41499 82905 10163 20136 39858 40100 53002 70298 889//=
23921 41599 83202 10193 20169 39963 40073 53005 71798 889//=
23955 11798 83503 10162 20048 30024 40082 58008 69902 70262
83989 333 10174=
24641 12599 30303 10171 20061 39964 40094 52013 60012 82530
333 10190=
28440 42598 73107 10273 20089 39777 40092 57001 83806=
28748 41560 63206 10292 20111 39896 40112 57012 70298 83202=
29231 11497 82901 10101 20097 39964 40056 52007 60052 78082
883// 333 10150 86916=
29838 11597 52202 10145 20056 39914 40132 52019 60022 70282
82232 333 10175=
30372 11799 70304 10152 20103 39253 40055 53048 69902 70282
86980 333 10259=
30673 31698 82718 10240 20093 39294 49979 53013 70422 86303
333 10322 91022=
30823 32999 83202 10301 20113 39425 49983 57004 80002 333
10348=
30935 32699 43203 10285 20093 39169 49994 54000 82501 333
10334=
30965 32699 73205 10265 20068 39279 40014 56000 82332 333
10340=
31004 11598 80000 10147 20110 39251 40018 53008 60022 78098
86937 333 10223 86926=
31088 32498 81403 10047 20033 30123 40130 52005 886// 333
10054 88710=
31137 31598 63201 10153 20067 39055 40001 53007 79900 85200
333 10208=
31300 32999 70902 10235 20107 39725 49984 57010 82032 333
10300=
31329 32599 83401 10138 20068 39425 40048 56004 84937 333
10210=
31369 32698 80804 10125 20067 39999 40080 53003 83902 333
10162 91112=
31388 32599 70000 10171 20099 39798 40040 56007 83942 333
10265=
31416 32599 80000 10179 20121 39969 40054 54000 82931 333
10243=
31510 329// 00000 10238 20109 39874 40023 56003 333 10307=
31707 32998 80000 10199 20128 39991 40076 53001 80001 333
10265=
31735 32997 72102 10165 20119 39995 40078 53001 82031 333
11220=
31873 32998 50801 10159 20100 39965 40083 53003 82043 333
10221=
31909 11698 80000 10086 20077 30033 40108 53008 60020 70282
8257/ 333 10123=
31960 32598 10105 10199 20081 39872 40089 52011 81400 333
10238=
32053 32997 21102 10028 20023 30061 40103 54000 80001 333
10100=
32061 31/01 91101 10046 20046 30067 40105 52003 74542 333
10101=
32098 32984 11904 10066 20045 30112 40122 52009 81030 333
10097=
32150 32596 83101 10078 20043 30087 40116 52011 885// 333
10134 88620=
32165 32498 80601 10061 20056 30049 40109 52003 886// 333
10089=
47003 32980 01801 10161 20132 30088 40092 52018 333 10305=
47005 32980 03601 10111 20041 38593 53001 333 10206=
47028 32968 60000 10223 20139 30002 40090 53013 80002 333
10313=
47031 32570 20000 10140 20116 82500 333 10241=
47037 32970 70000 10235 20129 39964 40079 53005 81032 333
10323=
47039 32560 80000 10252 20179 39915 40091 52009 85501 333
10316=
47046 31540 80000 10155 20143 30084 40107 53009 71022 885//
333 10182=
47050 32965 20000 10258 20186 30035 40066 52005 80002 333
10319=
47052 32565 50000 10212 20136 39774 40090 52020 85500 333
10289=
47060 32960 82304 10207 20162 30025 40079 53007 8803/ 333
10299=
47065 32565 23205 10235 20162 30024 40085 53009 82500 333
10313=
47067 32565 70000 10267 20088 39962 40072 52013 87500 333
10322=
47068 32970 82702 10190 20156 30049 40082 52010 80002 333
10305=
47070 32570 60000 10251 20195 39995 40076 53005 83202 333
10306=
98223 31565 71401 10293 20268 40090 53020 71394 82970 333
10346 56999 58007 82920 87360=
98325 11456 80000 10276 20266 40085 53006 60141 78098 8337/
333 10346 56999 58007 83915 88358=
98328 11450 81602 10192 20182 38522 40093 53019 60391 71398
8497/ 333 10254 56999 58009 84912 88358=
98429 31558 40000 10292 20232 40088 52010 70522 83870 333
10322 56999 59007 83823 83359=
98444 32468 30401 10286 20265 40082 53013 83200 333 10314
56999 59007 83818=
98543 11460 50000 10290 20264 40081 53010 69901 70182 82201
333 10356 56999 59005 82818 84075=
98550 31460 81401 10286 20260 40079 51019 71544 84967 222//
20101 333 10326 56999 59005 82915 88358=
98618 11468 50000 10290 20252 40076 53009 60011 71084 82901
333 10318 56999 58001 81918 82820 84075=
98630 32570 60000 10300 20264 40084 53014 82208 222// 20000
333 10326 56999 58013 82820 86275=
98637 31465 70000 10275 20228 40067 52005 70242 81278 333
10340 56999 59007 81812 83358 85272=
98755 11575 20000 10284 20266 40085 52023 60031 71380 81901
333 10328 56999 59003 81920=
44207 11999 72304 10138 20099 38300 40091 51033 69952 72162
86073 333 10256 91212=
44212 32699 62703 10256 20015 39019 40031 52009 82270 333
10274=
44214 31698 72509 10153 21005 38249 40076 53011 73433 83540
333 10184 91124=
44218 32698 30000 10248 20058 38534 40000 54000 83100 333
10265=
44231 11598 70905 10183 20118 38673 40066 51016 60022 71581
86908 333 10275=
44232 31699 62705 10265 20077 39006 40026 55014 70391 86900
333 10339=
44239 32699 22005 10270 20053 38702 49969 54001 82140 333
10314=
44259 32598 70000 10302 20025 39217 40023 57006 85360 333
10343=
44272 12998 50000 10192 20076 38295 40031 51001 69912 82088
333 10240=
44277 11999 20503 10175 20099 37817 40050 53002 69922 70261
82050 333 10188=
44285 32899 60000 10237 20093 38282 49992 52001 83081 333
10278=
44288 32699 60000 10222 20062 38145 40000 54000 83208 333
10250=
44292 32999 50000 10283 20000 38640 40003 56003 80006 333
10295=
44298 31898 72008 10254 20029 38664 40014 54002 70620 8707/
333 10294=
44304 32999 32304 10271 20073 38915 40016 57018 81042 333
10316=
44314 32698 60000 10295 21064 39073 40027 53002 83280 333
10328=
44347 11597 71809 10208 20064 38657 40050 50019 69902 71598
86380 333 10282=
44354 32699 61403 10254 20089 39042 40030 53005 86010 333
10297=
44358 32598 60000 10230 20148 39015 40068 58001 84304 333
10283=
44373 32599 60911 10223 20104 38492 40032 53006 83880 333
10254 91013=
28661 41599 63405 10175 20153 30021 40108 53009 72998 82301=
28679 42599 63206 10199 20046 39922 40087 52015 83939=
28879 41998 32608 10199 20144 39816 40080 57006 72581 83030=
28952 41598 72305 10240 20123 39948 40126 58009 71798 87900=
29023 11496 83302 10123 20107 39965 40055 57004 60012 78082
889// 333 10139=
29122 11697 83102 10114 20097 39998 40069 51003 69972 78082
883// 333 10135 84936=
29807 42597 52304 10152 20103 39951 40061 57036 85300=
30230 32699 80804 10246 20109 39768 40060 53001 83401 333
10263=
30309 42698 80901 10224 20099 39493 40041 51002 83907 333
10254=
30650 31599 80000 10253 20076 39002 49991 53003 70192 83301
333 10304=
30710 42960 82103 10229 20099 39443 40007 53007 83051 333
10298=
30844 31999 32701 12053 20078 39130 49993 57001 70411 80001
333 10310=
31532 32699 80000 10149 20056 39747 40065 57002 82401 333
10241=
31829 11/93 90301 10062 20060 30079 40110 52006 69940 74544
333 10091=
35078 41699 62812 10230 20076 39752 40098 57028 70282 82489
333 91017 91117=
35108 42997 62002 10307 20127 40178 57009 83201=
35188 42798 82709 10172 20067 39721 40127 57010 8544/ 333
91117=
35229 42698 22502 10296 20098 39929 40177 57008 81101=
35394 42597 62507 10173 20002 39519 40154 57003 83930=
35416 42697 42304 10302 20095 83101=
35671 42998 21205 10245 21047 39806 40202 57008 80001=
35746 42998 02207 10276 20023 30128 40201 57011=
35796 42697 42308 10173 20065 39793 40203 53005 84200=
36003 41497 82505 10154 20050 39970 40114 57006 78082 889//=
36177 42597 72402 10184 20029 39920 40150 54000 87300=
36428 42599 72202 10163 20078 39689 40156 53004 87900 333
95000=
36859 42599 82605 10165 20053 39460 40198 52015 83965=
36870 42697 52501 10189 20036 39240 40191 52004 83901=
38198 42999 00501 10257 20021=
38341 42699 20802 10206 20051 39463 40199 52004 82200=
42348 31594 42904 10416 20168 49940 70644 84300 333 10424
59001 82630 81935=
42361 31996 00000 10400 20229 49951 70600 333 10415 58009=
42369 31596 20202 10356 20252 49967 70522 82500 333 10373
58004 82630=
42452 31596 13202 10422 20177 49941 70600 81400 333 10429
59003=
42559 32596 63202 10370 20173 40/// 84432 333 10427 580//
82620 83825 85360=
42647 32596 32503 10410 20209 49973 83801 333 10413 59003
81620 83825=
42667 21596 72005 10252 20214 39403 49975 79596 86930 333
10400 59003 6013/ 83625 83830 82935=
42724 32596 50000 10338 20257 49983 82501 333 10351 59005
82620 85070=
42737 31597 33210 10376 20237 49984 71721 82330 333 10405
56690 57941 58001 82620 82930=
42779 32597 70000 10376 20174 39290 49940 83432 333 10386
59011 82825 84360 86075=
42809 31495 71802 10330 20260 49981 70522 8592/ 333 10355
58003 82615 83825 81930 85458=
42867 32597 62906 10354 20202 49949 82931 333 10408 59019
83525 81930 83360 85075=
43003 32596 52702 10318 20256 40001 83831 333 10330 59013
82620=
43014 32596 60000 10344 20202 39353 49966 84430 333 10355
59002 83620 83825 85360=
43063 21597 72903 10306 20233 39390 49991 71795 86901 333
10340 59006 6990/ 81922 83628=
43117 21597 73401 10290 20260 49987 70296 84331 333 10341
57990 58006 6998/=
43128 32597 63202 10330 20251 39391 49971 86300 333 10346
59005 83620 83825 81930=
43189 21596 72701 10262 20245 39974 49983 71796 83963 333
10377 57962 59007 6008/=
43233 32498 42503 10286 20191 39206 49988 82431 333 10314
56699 59010=
43245 32597 60000 10368 20244 39948 49970 84502 333 10385
59021=
43279 21597 61801 10338 20238 39971 49988 70252 83431 333
10349 59011 6990/ 83620 84360=
43284 21992 82308 10236 20226 39930 40046 76465 8572/ 333
10276 59004 6024/ 85704 88458=
43295 21497 72702 10232 20220 39023 48439 72996 85933 333
10299 56699 57911 57931 57962 59006 6012/ 82615 83820 81925
85075=
43321 31496 72008 10272 20202 39580 40018 70522 84970 333
10334 57931 57961 59023 83615 81925 86458=
43371 21597 62702 10300 20230 39980 40052 70265 83371 333
10326 57912 59013 6994/ 82620 81925 84460=
51076 32680 72705 10198 21003 39301 40142 52011 82902 333
00503=
51133 11668 82705 10154 20096 39566 40194 52012 69981 78080
889// 333// 00651=
51243 11880 73611 10193 20051 39613 40135 52001 69901 70080
874/2 333 00553=
51288 32680 73404 10198 21018 38322 52002 81402 333 00205=
51431 11780 70000 10125 20084 39452 40228 52020 60011 78080
874// 333 01058 91119 91532=
51463 32780 73406 10198 20083 39070 40119 52005 874// 333
00004=
51495 32680 73214 10326 20011 40073 57006 81102 333// 00101
91120 91534=
51542 11562 80906 10040 20027 37582 52030 60031 76080 8572/
333// 00254=
51644 32670 83207 10199 20076 38866 40056 52020 889// 333
00154=
51656 32780 70405 10291 20029 38984 40004 57003 82402 333//
05204=
51709 32780 22203 10251 20035 38656 40035 57010 82402 333//
00251=
51716 11970 70000 10244 20081 38836 40046 52002 69921 70080
82062 333// 00456=
51053 32680 73401 10189 20074 40157 52008 86962 333 00502=
51777 31956 80906 10335 20041 38984 49933 52007 70600 80007
333// 05400=
51828 31/40 92904 10194 20076 38591 40066 52029 70600 333//
00457=
51839 31/20 90000 10276 20102 49971 52011 70600 333// 05151=
51855 31/20 93401 10291 20049 49953 52003 70600 333// 05301=
51931 31/07 92908 10241 20072 40011 52028 73200 333// 00152=
52267 31940 21108 10264 20077 39013 40042 57001 70700 80002
333// 00003=
55279 32680 51807 10115 21019 35739 57003 84902 333 05101=
55299 32780 61405 10122 20007 35886 57007 86400 333 05107=
55472 11580 80000 10106 20001 35779 52014 69901 79198 889//
333// 00253=
55578 32780 11404 10225 20020 36349 57014 81100 333 00002=
55591 32780 12702 10246 20006 36496 57015 81100 333 00001=
55664 32880 11804 10176 20024 36013 57007 81100 333 00151=
55696 11680 20706 10175 20032 36356 57001 69901 70080 82440
333// 00100=
55773 32570 61107 10079 20031 36046 57001 86400 333 00100=
56106 32980 21406 10171 21006 36227 57007 82400 333 00004=
56137 11780 60000 10178 20078 36823 52002 69901 70080 81440
333// 00101=
56312 32680 21103 10215 20075 37067 57002 82100 333 00005=
22550 42597 71904 10177 20036 30077 40087 57022 84531=
22583 41684 60000 10178 20051 30039 40114 57009 70282 85231=
22768 41597 82105 10195 20000 30057 40110 57018 71522 8695/
333 84627=
22845 41498 71906 10155 20082 39938 40087 57022 72582 879//
333 87919=
26063 41597 23004 10161 20092 30070 40077 52013 70281 82100
333 91112=
26298 41497 72306 10174 20113 39899 40117 58023 70262 86770
333 91112=
26477 41670 72205 10166 20136 30024 40146 57004 70182 87300
333 87937=
26702 42597 62804 10173 20106 30173 40198 52011 86500=
26850 42970 12004 10238 20077 39914 40171 57013 80001 333
91110=
26997 42978 00000 10212 20093 39999 40206 58014=
27595 42797 63303 10218 20147 30031 40165 56002 83930=
27612 42997 82401 10225 20086 30001 40182 57013 80007=
27947 42697 53504 10193 20143 30041 40191 58003 85100=
27962 42697 70000 10230 20157 40160 58001 82350=
33008 42970 02303 10269 20097 30023 40190 57013=
34009 42968 10304 10197 20050 39901 40190 58009 80001=
34172 42770 81906 10274 20123 39976 40153 57007 83205=
34247 42977 80505 10267 20148 30055 40160 58001 80006=
34391 32997 62504 10328 20045 30135 40163 57009 85042=
37054 42698 60502 10263 20152 39731 40085 57004 84960=
44241 32999 20000 10318 20094 39126 49986 57005 80001 333
10344=
44282 32699 73605 10240 21009 38247 49996 53001 85984 333
10271=
44294 32998 61802 10259 21067 38525 40008 54000 85044 333
10280=
44305 32999 22305 10280 20100 38991 40043 56001 82040 333
10321=
44352 32999 31803 10261 20070 38876 40050 56004 80004 333
10300=
44203 11699 70000 10180 20070 38371 40052 52015 69912 70281
85543 333 10254=
44213 12699 22707 10244 20053 38715 40030 53001 69902 82100
333 10270=
44215 32998 23203 10195 20034 38367 40040 53011 82500 333
10219=
44225 11698 70703 10138 20095 38261 40107 58004 60042 72282
82541 333 10251=
44230 11598 72709 10236 20080 38735 40057 53031 69902 70282
86910 333 10307 91212=
44237 31599 63209 10172 20106 38446 40061 52017 70292 86500
333 10294=
44256 32699 70000 10252 20122 39235 40013 56009 86570 333
10329=
44265 32999 72703 10240 20080 38782 40046 53001 80002 333
10273=
44302 32999 20000 10257 20041 39023 40025 56007 80002 333
10329=
44313 32699 32503 10270 20019 39267 40021 56006 82480 333
10339=
23074 32997 00805 10121 20050 30121 40144 53011 333 10140=
23711 41498 72903 10122 20094 39952 40118 52025 70282 87900
333 85915=
23804 42699 32602 10188 20068 39989 40129 58006 82501=
24125 32999 60402 10131 21041 39923 40185 53014 80001 333
10145=
24343 32999 23606 10150 20002 30007 40117 52013 82030 333
10182 91010 91111=
24738 32799 70203 10161 20095 39932 40099 52021 85530 333
10206=
24951 11999 80000 10158 20138 39898 40038 52012 69952 70282
8807/ 333 10220=
24959 11599 80000 10166 20093 39927 40046 52004 69902 70262
84531 333 10170=
24966 31699 71201 10144 20080 39840 52018 72522 86930 333
10217=
29313 32598 60103 10160 20036 39952 40066 52005 82279 333
10168=
29612 11497 81802 10111 20085 39931 40074 57001 69952 78082
883// 333 10170=
29698 11598 33402 10180 20138 39611 40082 52006 60012 70282
81902 333 10237=
30758 11599 81201 10276 20078 39253 49977 57005 69962 70298
83931 333 10354 91119=
30949 32699 52101 10289 20002 39019 49983 57008 82803 333
10339=
32027 31/05 91803 10064 20062 30087 40095 53001 74541 333
10112=
35406 42997 30000 10327 20050 40203 57015 80001=
38062 42999 03602 10254 20011=
38232 42998 11108 10313 21054 30087 40177 57012 80001=
38388 42998 00501 10316 21057 30113 40184 57012=
38413 42998 00504 10269 20004 39934 40204 58007=
38457 42699 12903 10257 21025 39617 40165 54000 81100=
38507 42998 01805 10342 21007 30042 40135 57011=
38545 42998 03603 10279 20085 30009 40171 57017=
38656 42998 00702 10334 20036 30060 40160 57011=
38687 42997 03604 10282 21017 39943 40162 58009=
38880 42999 00904 10326 21019 39800 40149 56010=
38895 42997 00103 10313 20114 39900 40166 58003=
38927 32997 01803 10326 20038 39765 40108 57014=
38974 42998 03404 10332 21012 39820 40126 57014=
44229 31598 72705 10126 20050 37945 40105 52037 71522 86770
333 10227=
44242 32998 20000 10325 20093 39167 49965 57007 80002 333
10357=
44243 32999 20000 10304 20062 39267 49999 56003 80008 333
10355=
44317 32998 22703 10252 20071 38884 40036 56002 82040 333
10340=
98135 31575 31102 10293 20260 40089 53007 70544 83200 333
10327 56399 59021 83820=
98232 31570 31802 10280 20257 40083 53020 70144 83200 333
10352 56999 58009 82820=
98329 31470 33601 10259 20245 40090 5/025 71344 82901 333
10338 56999 58004 82918=
98653 31470 51601 10286 20256 40085 52017 70544 81908 333
10330 56999 59005 81918 84275=
20046 41474 63302 11021 21049 30041 40068 52016 70272 83530
1/103=
20069 11361 82204 10006 21002 30061 40074 55000 69952 77172
8672/ 333 10010 86709=
20087 32275 72307 11001 21004 30080 40090 52006 8663/ 333
10006 86705=
20292 32380 82511 11005 21008 30112 40131 51001 886// 333
10005 88608 91115=
20674 11777 71907 10041 20004 30048 40105 58014 69912 70262
87030 333 10041 87350=
20891 32997 39902 10112 21027 30144 40184 54000 83030 333
10113=
29328 11998 80402 10134 20061 39945 40076 53018 69902 70282 86032
333 10145=
29348 11597 82703 10117 20110 39917 40053 53029 60152 78098 889//
333 10156 85923=
29405 32598 62502 10133 20064 39931 40069 53007 82381
333 10159=
29937 12698 52204 10166 20025 39930 40136 52008 69902 82431   333
10178=
22113 41484 60805 10168 20021 39978 40037 57006 78081 86900
333 91009 91112=
22271 42582 22701 10113 20067 30099 40109 57002 82100=
22820 41499 72103 10129 20110 39918 40050 57007 70282 87500
333 87611=
22887 42570 62603 10199 20032 30069 40135 57009 83531=
26781 42997 72104 10221 20085 39903 40177 57018 80001=
27037 41460 82103 10169 20073 39981 40135 57016 78082 889//
333 87710=
33345 42798 20602 10229 20062 30022 40216 57011 81101=
33393 42997 22802 10232 20117 39838 40206 57009 80001=
33658 42997 02903 10231 20055 39932 40216 57010=
33791 42697 20106 10210 20129 30035 40180 57014 82100=
33837 42598 63303 10248 20123 30130 40179 58014 82269=
33946 42597 80407 10217 20158 39920 40128 56015 85301=
34300 42597 60107 10200 20135 30010 40191 58007 86500=
34560 42962 50905 10298 20121 39991 40144 57009 85030=
34691 42698 61804 10344 20074 30169 40158 5/005 85202=
34866 41998 61409 10344 20078 40124 57006 70733 80001=
34880 42997 71204 10290 20104 40160 58005 80001=
37472 42998 01208 10214 20168 30108 40086 57019 333 91015
91115=
48071 21460 80000 10283 20283 49993 75365 8597/ 333 10325 5659/
59013=
48077 21459 82301 10270 20256 40007 70296 85970 333 10320 56490
59012=
48325 01520 80000 10264 20250 39775 40015 60042 71062 888//
333 10307 58005 60026 70043=
48357 32564 80000 10301 20257 39877 40042 81366
333 10333 58010 70042=
48403 11562 80901 10287 20244 39829 40034 60142 70362 84846
333 10320 58013 70144=
48405 12561 50000 10285 20242 39884 40044 60052 83305
333 10312 58020 70050=
48425 11560 81501 10290 20256 30012 40022 69902 70362 83506
333 10330 58006 70026=
48426 32560 80000 10272 20248 30013 40026 85576
333 10324 58009=
48450 01558 80000 10257 20244 39990 40023 60062 76162 8652/
333 10329 58006 60066 70062=
48459 01562 80000 10273 20247 30031 40033 60062 70262 85537
333 10305 58011 69915 70055=
48550 11556 82703 10272 20229 30042 40049 60032 71062 81576
333 10300 59005 70029=
48551 31556 80000 10255 20240 30043 40051 71022 83577
333 10275 59008 70085=
48565 11560 60000 10280 20246 30041 40052 60112 70162 81246
333 10294 59013 70110=
48568 01460 80000 10267 20236 30046 40054 69902 72162 8482/
333 10317 59002 69907 70016=
48569 01460 80000 10263 20240 30017 40057 60182 70362 84876
333 10312 58000 69937 70204=
48583 01558 60000 10249 20230 30065 40071 69942 71086 82246
333 10305 58007 69946 79994=
43192 21495 83202 10280 20257 40018 72996 8691/ 333 10319
57972 59008 6996/=
48327 01560 80000 10248 20242 39673 40025 60112 76296 85923
333 10307 58003 60116 70109=
48331 01558 60000 10275 20245 39808 40035 69902 76092 83576
333 10325 58007 69905 70010=
48353 11457 70000 10265 20243 39751 40035 60172 71092 83966
333 10295 58008 70232=
48356 12565 51502 10301 20228 39844 40036 60042 82446 333
10321 58008 70055=
48375 01460 80000 10261 20250 39782 40007 60102 76066 85876
333 10290 58000 60047 70201=
48378 01460 80000 10263 20252 39969 40021 60212 76096 85976
333 10321 58008 60197 70211=
48381 32562 71502 10274 20239 39820 40039 81946 333 10310
58012=
48407 31560 51402 10282 20243 39903 40043 71321 82943 333
10322 58005 70080=
48431 01557 81803 10272 20243 39822 40032 69902 76022 84376
333 10317 59003 69905 70055=
48432 01558 70000 10262 20245 39879 40046 60042 72162 83946
333 10311 58009 60045 70049=
48455 11560 71803 10290 20247 30023 40028 60202 70299 86877
333 10305 58003 70207=
48456 12460 71705 10272 20261 30016 40033 60112 81976 333
10317 58009 70109=
48480 01440 80000 10248 20233 30041 40045 60862 76062 8687/
333 10311 58010 60075 71099=
48500 01559 82502 10261 20235 30033 40039 60092 75062 8477/
333 10300 58008 69915 70090=
48008 32558 51801 10356 20240 49999 70222 83931 333 10370
56559 59026=
48025 22458 60000 10300 20253 40034 84330 333 10326 56349
59034=
48035 21560 80000 10231 20214 40000 75095 8597/ 333 10296
56339 59009=
48042 21557 71302 10300 20253 49985 75022 85970 333 10370
56440 59013=
48053 21450 73601 10300 20239 49993 79595 83976 333 10364
56899 59009=
48060 31556 70000 10255 20229 40011 70295 83936 333 10280
56569 59006=
48062 32560 72704 10310 20270 49983 84336 333 10325 56999
59018=
48078 21530 61801 10278 20261 40011 72065 82932 333 10306
56499 59002=
48109 21496 71802 10263 20246 40012 70266 85970 333 10303
56590 59023=
48110 21496 80000 10250 20245 40052 70255 8662/ 333 10270
5659/ 59006=
48112 21496 82705 10235 20235 40051 75165 8677/ 333 10255
5659/ 59008=
11782 32975 02504 10250 20136 39907 40204 57010=
12882 32981 03101 10250 20071 30093 40220 58012=
15480 32560 10910 10223 20131 30179 40194 57011 81100=
16641 32470 22906 10268 20133 30187 40193 58002 82200 333 90730
91118 555 40000 47673 44220 50000 50188=
17038 11560 70605 10190 20177 40114 58010 69901 70282 84250
333 84830 87359 92427=
58968 31956 82102 10301 20253 30063 40070 54000 71022 8802/=
58974 32565 11718 10256 20249 39955 40072 58010 81500=
59358 31658 52006 10284 20251 30076 40087 53003 71021 85400=
59559 32575 21302 10280 20243 30065 40093 53007 82100=
59792 32560 20507 10287 20264 30084 40088 53003 82200=
59997 32562 30102 10269 20244 30057 40071 53010 81208=
59158 32560 72505 10287 20244 39986 40083 51004 82260=
59562 32665 82201 10287 20241 30077 40088 53005 885//=
59567 32370 12214 10254 20237 39731 40100 52008 81100=
24266 11699 70203 10124 20068 39941 40106 52017 69902 71682
86530 333 10199 85936 91110=
24329 32699 33501 10132 20056 39894 40147 52017 83100 333
10148=
24507 32698 81003 10216 20041 39910 40124 53002 84231 333
10227=
24688 11699 40302 10079 20038 39226 40086 52006 69930 70281
83401 333 10135=
24908 32680 80502 10253 20092 39773 40066 53002 81531 333
10267=
24944 11599 83402 10173 20112 39784 40050 52007 60242 70298
84932 333 10232=
29594 11699 63601 10178 20137 39721 40074 51001 60032 70182
82341 333 10251=
29634 11657 22305 10156 20025 39881 40089 52005 60102 70281
82200 333 10166=
29676 11596 81503 10188 20131 39677 40064 52005 60032 79598
889// 333 10226=
30054 11598 51302 10193 20129 39860 40079 52012 60022 70298
82901 333 10246=
30393 11599 80605 10136 20099 39061 40023 52023 69942 70282
85931 333 10254 85925=
30433 32999 83302 10200 20113 39507 40048 54000 80001 333
10216=
30469 11598 80000 10216 20076 39308 49987 53023 60022 70498
83942 333 10334=
30521 32698 82901 10250 20151 39551 40025 56005 86901 333
10277 86934=
30554 11698 82801 10205 20113 39022 40006 52011 69982 70298
85902 333 10311=
30603 11598 82902 10201 20125 39536 40054 52017 69952 70282
8292/ 333 10250=
30612 32999 82603 10227 20136 39569 40047 53022 85077 333
10263=
30635 32999 23401 10197 20126 39516 40036 53003 80001 333
10234=
30692 32999 83208 10242 20092 39538 49980 53015 8809/ 333
10311 91010=
30802 32799 72002 10225 20050 38643 48456 53026 84530 333
10288 91116=
30879 32599 51803 10262 20110 39323 49997 57019 81901 333
10315=
30925 32999 62702 10319 20095 39125 49967 56006 80004 333
10351=
35700 42998 31805 10304 20043 30208 40183 57007 80002=
35925 42998 01805 10312 20043 30106 40205 57011=
36034 32699 71903 10157 20067 39881 40139 53006 87900 333
10185 85941=
36061 11599 81802 10118 20098 39781 40169 52019 60022 78082
889// 333 10195=
36982 41598 72705 10015 21050 36510 47055 52010 70282 86903=
38001 42998 51614 10284 20134 30185 40157 57014 80002=
38353 42598 42502 10196 20088 39326 40179 54000 84100=
38392 42998 00706 10280 20009 30108 40204 58017=
38613 42698 72203 10246 20041 39283 40123 58001 85902=
38696 32999 00905 10234 21033 39346 40150 58001=
38750 42997 02706 10278 20179 30146 40120 57019=
96011 32561 70000 10286 20228 30011 40034 55000 83533
333 10308 56000 59034 83620=
96073 31557 70000 10299 20248 30054 40061 51025 70522 83522
333 10326 56000 58004 83620=
96109 32460 70000 10300 20249 30011 40050 52009 83232
333 10258 56000 58001 82617 85063=
96145 32460 71701 10278 20240 30054 40059 55000 84530
333 10304 56800 57/// 59002 84617 87360=
96163 32562 70000 10294 20248 30047 40054 52002 81131
333 10326 56000 57802 59005 81820 85362 80856=
96237 11558 70000 10273 20247 30025 40066 56000 69901 70302 83272
333 10300 56000 57801 58002 83820=
96739 11556 70000 10260 20230 30023 40072 52012 69901 70562 84532
333 10270 56000 84620=
10385 32770 51601 10237 20123 30145 40203 58007 81206 333
55310 81850 85280=
10637 32782 31601 10289 20152 30043 40171 58012 82933 333
55309 81950=
16560 32970 01506 10264 20128 30182 40188 58007 91145 333
55310=
17609 32462 41809 10260 20190 30060 40062 58001 84800 333
83712=
12330 32670 43103 10244 20142 30098 40201 54000 83101=
12375 32780 32806 10265 20155 30063 40186 57006 82230=
12843 32983 12403 10261 20046 30057 40218 58011 80001=
13272 32980 09901 10266 20112 30099 40212 57012=
41530 32696 71807 10365 20137 49963 70622 83331 333 10380
56999 58010=
41640 31995 00502 10396 20172 39725 49955 70600 333 10408
58019=
41660 31995 02714 10317 21044 48423 70700 333 10330 58028=
41675 31996 00000 10395 20215 49816 49946 70600 333 10405
58006=
42410 32597 40000 10320 20258 49984 82430 333 10347 59008
82620 83360=
42492 32596 20903 10346 20250 49971 82400 333 10350 59004
82620=
42634 32596 22709 10376 20219 49996 81501 333 10396 58007
81625=
42675 32597 23402 10404 20144 49935 82100 333 10412 59015
82830=
42754 31596 62708 10358 20220 39353 49951 71722 83930 333
10391 59003 83825 81930 85360=
42840 32596 62303 10318 20277 40008 81530 333 10350 59006
81620 84358=
42886 21496 70901 10292 20237 49978 76096 85930 333 10364
57971 59001 6990/ 84618 81930 85360=
42895 32596 71402 10318 20241 49989 83501 333 10345 58011
83620 87075=
42971 32596 61103 10334 20246 49988 84331 333 10365 57932
58005 83620 81930 84075=
43198 21497 72703 10246 20222 39203 40012 72196 84831 333
10306 56699 59001 6005/ 83615 84358 85075=
43201 32397 72306 10242 20219 39299 40007 84532 333 10323
56699 59002 82620 83075=
43213 32597 84951 10354 20206 39667 49969 84377 333 10369
57913 57944 57854 59011=
43329 21597 81602 10314 20223 39987 40002 72052 8337/ 222//
20501 333 10355 57971 58001 6990/=
43353 32496 53203 10294 20239 40056 84930 333 10308 56790
57922 59015 82616 81925 85359=
43369 21597 62703 10300 20252 40048 72022 85430 333 10324
59010 6990/ 84620 83360=
43424 32478 62302 10290 20262 30038 40047 8//// 333 00823
18328 59011 86818=
43467 31480 7//// 10292 20249 30050 40055 70282 8697/ 333
00025 10316 59003 86818 81919 87460=
43497 32574 72704 10292 20221 30020 40037 8106/ 333 10298
59806 79999 82820 86280=
21802 32999 30103 10029 21013 30172 40195 52006 83030 333
10043=
23256 42999 13301 10148 20009 30096 40128 57010 80001=
23274 32998 00804 10182 20051 30090 40126 57012 333 10186=
23330 42698 62103 10196 20041 30049 40076 57017 81131=
23383 32999 20704 10153 20038 39817 40145 57007 80001 333
10157=
23472 32699 30405 10205 20056 30061 40106 57008 81101 333
10211=
23552 42997 53202 10187 20027 30085 40117 57010 80001=
23631 42999 71806 10211 20030 30041 40079 57019 86031=
23678 32598 80302 10215 20094 39999 40052 57016 8391/ 333
10227=
23849 42796 60205 10166 20021 40115 57001 82102=
23884 11567 80501 10152 20145 39967 40036 57008 60042 78082
889// 333 10190=
23891 32598 80806 10232 20107 39757 40056 57003 85936 333
10240=
23933 42997 10301 10163 20053 30070 40126 58008 81030=
23966 11396 83302 10117 20111 39933 40052 58008 60052 78082
889// 333 10139=
25400 32999 60302 10145 20041 30041 40092 53011 86030 333
10201=
28275 42999 03503 10188 20019 30054 40111 52004=
28382 42698 40404 10169 20006 30036 40101 52010 84200=
28493 28493 41599 73506 10140 20043 39997 40084 53018 70298
86901=
28573 42989 10106 10181 21012 30002 40099 52020 80001=
28698 41498 63406 10135 20055 39917 40062 54000 70262 86100=
28722 42698 72704 10293 20113 40028 57013 83201=
28786 41598 80703 10169 20046 39926 40073 53008 70282 85302=
29253 11599 61402 10166 20090 39874 40034 52011 60062 70282
84901 333 10166=
29263 11598 70801 10152 20119 39968 40062 52012 60082 79598
85902 333 10191=
29282 11598 80000 10171 20158 39911 40065 52016 60102 70298
889// 333 10284=
29430 11498 73201 10110 20100 39912 40078 52032 60032 72582
87900 333 10120=
35067 41998 4//// 10249 20097 39864 40115 57017 70181 82036=
35121 42698 62704 10290 20115 30042 40175 57007 83102=
38763 42998 00906 10346 20053 30031 40127 57017=
38911 42998 03204 10321 21139 39853 40124 58011=
38954 42899 23104 10200 20104 37957 48510 52013 82100=
38987 42996 00105 10303 21036 39425 40109 57015=
40356 32960 02806 10344 21050 39102 48456 333 58004 555 04410
50006=
40361 31957 02712 10376 20000 39294 40008 70700 333 58000=
40375 32960 03602 10366 20040 39198 40015 333 58008=
40400 32960 03109 10298 20260 30026 40053 333 58010=
40405 32960 02904 10428 21080 39295 49975 333 58010=
40416 32960 00206 10430 20140 39976 49995 333 59011=
40439 42960 02612 10410 20190 30007 40020 333 59005=
40703 32960 01605 10320 20012 38859 40040 57022 91145 333=
40785 32665 13604 10366 20044 38995 40028 57026 81400 91150 333
81640=
41036 32960 00000 10373 21060 38521 48472 81040 333 58006 82358 555
04410 50001=
41136 32960 00604 10422 21010 39225 49981 333 59006=
41170 32965 00204 10354 20218 39995 40008 333 58013=
41196 31658 13406 10367 20239 39955 49992 70600 81200 333 58008 81830
=
41216 42960 13606 10362 20247 39988 49992 81030 333 58012 81365=
41256 31659 40506 10355 20238 39983 49992 70500 82301
333 58016 82830 81935 =
41268 32560 13503 10400 20267 39983 49998 333 58011=
23205 42584 60403 10110 20051 30117 40131 51002 86200   333 86825=
23418 41340 83403 10074 20070 30034 40105 52007 78182
889// 333 84706=
27271 42698 72702 10201 20056 30015 40161 57008 82262=
27707 42982 62702 10219 20090 39920 40196 57010 80001=
28711 42998 82406 10278 20100 39800 40143 57013 85301 333 85940=
10338 32562 50502 10210 20137 30131 40201 58009 81102 333
55310 81828 85075=
16242 32962 02203 10270 20144 30194 40197 55000=
16320 32960 00302 10254 20149 30186 40198 51001 91145 333
55310=
16420 32997 01907 10246 20108 30132 40195 58001 91145 333
55310=
16597 32562 31105 10260 20191 30107 40202 55004 81100 333
83825=
16716 32570 30108 10266 20066 30166 40184 58005 83200 333
90730 91132=
16734 32570 13208 10248 20132 30118 40180 58005 81100 333
90730 91120=
16754 32565 43408 10222 20116 30117 40163 50001 84840 333
81818 83625 90730 91123=
17060 32560 50108 10216 20134 40174 51003 84230 333 84830
84360=
17128 11670 10130 20086 39033 40091 58003 69911 70182 84250
333 84835 85359=
17170 32670 71203 10190 20118 38328 48493 53009 84280 333
84835 87359 10097=
17200 32670 43603 10278 20166 39096 40023 57014 84200 333
84840=
11518 32782 10503 10267 20116 39775 40186 58009 81240 333
81850=
15420 32560 33602 10251 20050 30095 40199 57015 83200 333
91004 91203=
15614 31697 63202 10201 20081 39530 40207 57011 70310 86300=
24982 12599 71902 10054 20034 39639 40118 52023 69980 87900
333 10136=
25325 32999 00000 10071 21025 39961 40117 53006 333 10180=
28255 42599 81102 10216 20132 39970 40088 58006 8333/=
28642 42697 52809 10279 20141 40102 57011 82131=
29557 11598 72207 10127 20085 39847 40098 52044 60012 72582
87300 333 10188 86928 91118=
29822 11597 73604 10148 20080 39953 40106 52003 69962 70282
87500 333 10179 87623=
29846 11597 72705 10146 20086 39764 40125 52015 60042 70282
83930 333 10152=
30777 31698 72004 10260 20056 39417 49995 50005 70331 86970
333 10340 91118=
31174 11699 80000 10035 20009 30075 40087 53003 69900 70282
8752/ 333 10090=
31263 32599 81602 10174 20120 39509 40038 56004 85542 333
10267=
31624 32999 00000 10128 20094 40071 57001 333 10253=
36087 12599 53101 10224 20043 40141 52004 69902 83902 333
10289 95000=
36096 11699 72308 10190 20036 40062 53049 69902 70282 83501
333 10282 91117 95000=
36103 11699 33204 10110 20074 40129 53026 60092 72598 83900
333 10184 95000=
36231 11599 80000 10137 20055 40133 52007 69902 70282 8512/
333 10167 85830=
36259 32599 81703 10116 20011 38216 48480 52015 86902 333
10129=
36974 42798 65207 10131 21033 37969 48497 52001 86900=
56985 11580 31603 10232 20178 38663 40059 52002 69911 70080
81202 333 00100=
57902 32580 21403 10242 20187 38581 40046 52007 81102 333
00102=
42071 32996 20000 10390 20145 49958 82030 333 10408 58021
82360=
42101 31995 00901 10385 20237 49959 70600 333 10398 58016=
42131 32996 40502 10400 20179 49941 84030 333 10399 58007=
42165 31996 02305 10430 20108 49943 70240 333 10436 58014=
42182 31695 31102 10380 20255 49955 70500 83330 333 10390
58014 82635 81940=
42309 32596 51801 10332 20266 49984 82230 333 10359 59019=
42328 32996 52305 10420 20223 49957 80002 333 10423 58013
85075=
42339 31995 32302 10412 20166 49959 70500 80001 333 10419
58009 83075=
42379 32596 50901 10338 20248 49968 85800 333 10349 56299
59002 84625=
42701 21496 71802 10244 20224 39284 49994 71796 85930 333
10334 58004 6044/ 84618 81930 87360=
42798 31596 52701 10324 20238 49976 70599 84401 333 10362
58005 82620 83825 85075=
43041 31596 71401 10302 20203 39385 49977 71799 85931 333
10367 58003 85625 81930 86360 87075=
43086 32997 40501 10374 20238 39787 49955 80002 333 10390
59005=
43110 32597 72703 10288 20248 40023 85831 333 10302 59001
83620 83822=
43314 21496 83402 10272 20237 40047 70262 8572/ 222// 20802
333 10288 59014 6992/=
43333 21495 82503 10264 20253 40008 76066 8447/ 333 10283
56599 59010 6005/ 83618 84820 86458=
43450 32476 7/512 10288 20248 30031 40329 85737 333 59006
83772 85805 84358 85080=
43473 21097 73203 10750 20148 38081 48445 75085 877// 333
02013 10169 59003 69957 70034 87700=
44416 32470 42602 10334 20244 39245 49966 84800 333 10335
58008=
44438 32558 11202 2//// 39863 49984 81100 333 10349 59004=
44454 21465 40000 10258 20190 38586 48427 70199 82830 333
10313 58016 60058=
44477 32466 22601 10258 20225 38737 48453 81202 333 10292
58006=
91165 32566 42903 10220 20180 30115 91201=
91245 32566 20805 10270 20250 30154 91150=
91285 32966 02203 10200 20150 30156 40168 91153 333 20200=
91334 11469 80905 10269 20258 30102 40105 51012 60041 78086
8632/ 333 10313 5629/ 58007 70140=
91348 11474 81204 10270 20242 30051 40103 52007 69981 70282
85231 333 10278 56399 59007 70531=
91356 11466 81005 10279 20248 30092 40099 51007 60021 71682
86208 333 10311 562/9 58005 70048 86812=
91366 11574 40710 10274 20243 30100 40109 50005 60011 72581
84870 333 10301 5622/ 58007 70010=
91376 32474 60806 10277 20244 30103 40107 58003 83808 333
10311 562/9 59005 70003 90312=
91408 11474 80000 10256 20245 30059 40097 51014 60091 70282
83378 333 10328 56328 58001 70160=
91413 11432 80906 10253 20244 30081 40100 52025 60081 78182
8737/ 333 10317 5629/ 58008 70180=
98440 11465 80903 10291 20264 40084 53015 69931 71598 8327/
333 10320 56299 59004 83818 88358=
98836 31565 50000 10270 20253 40083 52021 70542 81201 333
10332 56999 58008 81820 84081=
98526 32570 80000 10286 20267 40070 53007 82207 333 10317
56999 58001 82820 88275=
98748 21470 40000 10270 20/// 40072 53015 70544 82201 333
10338 56999 59003 82818 83075=
48820 11598 21403 10293 20246 30063 40071 53006 60182 70281
82140 333 01027 10327 58011 70180 82895=
48826 32597 11404 10274 20254 39940 40068 53004 81200 333
00029 10318 58015 70006 81895=
48838 32998 10000 10287 20263 30068 40074 56003 80001 333
00030 10316 58004 70000 81099=
48839 32598 11103 10281 20251 30010 40074 53001 81900 222//
2//01 333 00/// 10370 58014 70000 81995=
48845 32598 70903 10275 20252 30054 40061 52006 82908 333
01028 10305 58018 70350 81995 81697 86299=
48848 12598 51103 10279 20255 30060 40068 52004 69912 85800
333 00028 10301 58018 70024 82895=
48855 32598 71101 10284 20256 30061 40069 52007 84908 333
00031 10315 58015 70000 83895 81995 86299=
48870 32998 00000 10290 20262 30062 40069 53011 333 00029
10324 58012 70063=
48877 32598 60701 10283 20249 30067 40072 51010 868// 333
00029 10316 58011 70000 82895 86697=
48887 12798 72702 10272 20237 30066 40072 53010 69902 84538
333 00029 10317 58007 70011 84697 85299=
48900 11496 60501 10263 20251 30058 40068 52003 60252 71098
869// 333 10310 59003 83894 81994 85696=
48914 11798 80000 10264 20227 30073 40075 52009 69912 70262
885// 333 01027 10285 58004 70003 88697=
48917 11496 82706 10249 20239 30065 40070 53004 60442 78188
8692/ 222// 00281 2//03 333 02/// 10285 58002 70447 84894
85995 88499=
48918 12498 70000 10265 20222 30066 40077 53007 69902 878//
222// 00284 20000 333 00025 10290 58002 70173 81894 87696=
45007 32570 11504 10296 20245 30074 40083 53002 81200
333  10340 59015 70000 81825 =
42909 32996 62706 10314 20276 40015 86030 222// 21401 333
10339 58002 86360=
43185 32596 71802 10334 20274 39970 49973 84931 333 10378
57943 59003 82620 81925 83360=
43237 32597 62903 10340 20188 39601 4//// 83808 333 56609
59011 82620 83825 86275=
41598 32697 20902 10390 20168 39707 49955 82400 333 10406
58020=
41624 32997 00000 10370 20191 39765 49952 333 10377 59011=
41710 32997 33105 10383 21005 39277 49986 83030 333 10389
56090 58026 83360=
41712 31996 02302 10410 20130 39086 48454 70500 333 10415
58027=
41715 31996 02302 10475 20184 39881 49939 70500 333 10475
58014=
41718 32996 02303 10425 20209 39838 49932 333 10428 58008=
41739 32995 03603 10360 20148 38970 48465 70500 333 10385
58040=
41749 32696 52703 10450 20/// 39921 81631 333 10462 56999
58018 81630 82360 82070=
41756 32997 02303 10320 20265 39933 49996 333 10335 58007=
41768 32996 02305 10390 20252 39958 49964 333 10420 58008=
41780 32697 22705 10335 20259 49999 82500 333 10350 56900
58004 82630=
56116 32680 63202 10139 20019 36368 57002 86800 333// 00004=
40180 32560 12710 10265 20184 30041 40087 51001 81100=
40362 32962 01706 10430 20090 39505 49982 333 59027=
40373 32960 01804 10433 21030 39606 49990 333 59015=
40430 32960 03307 10420 21040 39324 49997 333 58003=
40438 32960 02403 10440 21020 39350 40001 333 59004=
40582 32960 00000 10461 20022 40012 58015 333 00052=
41024 32960 03308 10380 20210 30004 40023 333 59013=
41114 32560 40605 10320 20070 37952 48459 82130 333 58003
82825 82359=
41128 32560 21103 10390 21060 38746 48458 81102 333 58009
81830=
41140 32960 02207 10380 20250 30007 40015 333 58007=
41194 31758 13207 10352 20257 39982 49994 70600 81300 333
58004 81956=
41288 31959 02305 10348 20251 39979 40001 70600 333 59003=
41316 32561 72006 10310 20263 39977 40002 86501 333 58005
86625 87075=
40754 32660 21202 10316 20116 38800 40058 57014 82200 91155
333 82840=
40766 32660 11002 10362 21022 38633 40025 57008 81100 91150
333 81840=
40800 32660 20705 10332 20058 38424 40012 57017 82100 91150
333 82840=
40821 32660 23102 10356 20028 38745 40024 57020 82400 91150
333 82635=
40841 32660 13504 10332 20022 38224 40001 56016 81100 91150
333 81845=
40848 32660 10603 10360 20044 38469 49989 57015 81100 91150
333 81840=
40856 32960 00405 10310 20047 38600 40026 57020 91150=
40875 31950 02005 10368 20247 39980 49992 57025 70500 91150=
96607 32458 30000 10282 20256 30069 40083 51005 83511
333 10317 56600 59001 83615=
58008 81830=
58016 82830 81935=
40007 32565 52909 10288 20097 40018 51003 83250 333 83830
84360=
40045 32970 00303 10371 20109 40019 56008=
40706 32660 20206 10324 21006 38613 40038 57018 82100 91145
333 82835=
40712 32560 11204 10296 20049 38649 40039 57020 81300 91145
333 81930=
40718 32960 00904 10252 20200 30153 40122 57014 91150 333
90218=
40732 32562 10905 10258 20195 30141 40121 57006 81100 91150
333 81830=
40736 32960 00205 10274 20200 30144 40117 57014 91150=
40739 32965 00805 10288 21024 38663 40087 57016 91150=
70200 32966 80202 10044 20033 30218 40225 50009 91153 333 10122
20039 70025 555 90312=
70273 32966 41602 10056 20033 30198 40248 51008 91153 333 10144
20056 555 90312=
70326 32666 61503 10039 20006 30202 40223 51001 91152 333 10122
20028 555 90312=
72223 11956 00000 10228 20217 30115 40191 53003 69931 710// 91156
333 10333 20217 70003 555 90312=
72235 32961 00000 10211 20194 30071 40189 53008 91154 333 10339
20194 555 90312=
72240 32564 20000 10233 20217 30180 40199 53008 91153 333 10322
20222 555 90312=
72251 31556 20000 10228 20228 30163 40180 53008 710// 91151 333
10322 20228 555 90312=
72253 32566 81805 10244 20217 39901 40178 53009 91153 333 10344
20244 555 90312=
72261 35466 81204 10244 20222 39804 40159 53006 91153 333 10289
20228 70010 555 90312=
72389 32966 03203 10167 20078 30046 40162 53005 91156 333 10350
20167 555 90312=
72414 32466 64952 10160 20130 39863 91210 333 10294 555 90312=
72428 32966 40205 10133 20022 39935 40230 51017 91151 333 10317
20122 70008 555 90312=
72438 32966 20305 10128 20083 39952 40245 52010 91155 333 10272
20106 555 90312=
96973 01458 80000 10243 20240 30080 40083 52015 60151 70262 85976
10303 56200 57923 58011 81919 80977 84820 80856=
96645 31458 70000 10254 20245 30047 40078 52017 71422 86972
333 10298 56000 57902 58013 81913 85613 80982=
96655 31458 72004 10269 20244 30058 40086 52024 71321 84373
333 10296 56700 57972 58009 81912 84612 80970=
96685 01457 80000 10250 20241 30055 40081 52018 60081 72196 85571
333 10320 56000 58011 60077 85612=
96525 01430 70000 10270 20256 30061 40067 52027 60011 76022 83971
333 10320 56000 57941 59004 60027 82913 83813 86460 80980=
96529 11457 60000 10266 20248 30059 40082 51007 69911 70262 83121
333 10310 56000 59007 83818=
96595 31457 60000 10276 20253 30025 40072 52017 71321 84946
333 10308 56000 57900 58006 81920 83614=
96695 32558 70000 10260 20251 30069 40074 52008 83420
333 10285 56000 59006 83620 84470=
96987 01430 82303 10260 20230 30030 40089 52018 60031 76062 8692/
333 10302 56409 57942 58008 69907 82920 85617 80980=
78384 11560 80404 10271 20266 40161 69902 72582 8122/
333 08130 10310 20263 59005 81820 88465 90919=
71043 11466 82905 10056 20043 30139 40231 53030 60031 78082
8657/ 333 10202 20056 55114 01108 22286 70030 90926=
71078 11474 10303 10057 20024 39811 40251 52015 69901 70281
81170 333 10127 20013 55124 79999 90950=
71600 46002 92310 10118 20114 30024 40030 58013 333 10149
20099=
71624 32574 13507 10108 20070 30033 40244 52023 81100 333
10238 20086 55061 79999=
71749 36964 02602 10113 20082 39998 40241 53002 333 10166
20029 70005=
71863 36964 01004 10091 20052 39532 40223 56006 333 10176
20072 70005=
71877 11780 73403 10068 20059 38976 40239 53015 60061 70186
81571 333 10167 20067 55075 70190 90952=
71913 36264 80202 11053 21096 30226 40263 51009 333 11008
21055 70000=
71917 11474 82602 11060 21081 30086 40100 52010 69901 77122
8557/ 333 11044 21070 42005 55154 01234 22577 79999 90921=
71940 32982 10000 10053 20011 39421 40218 52004 81071 333
10215 20020 70000=
71957 36564 83204 11014 21061 30198 40287 53014 333 10120
21015 70050=
72206 32966 02504 10233 20200 30163 40174 53002 91156 333
10339 20211=
72208 32966 02304 10239 20200 30153 40167 53004 91156 333
10361 20222=
72211 32966 00000 10256 20222 30175 40187 53008 91153 333
10339 20239=
72231 32562 20000 10243 20209 30182 40194 53006 91153 333
10339 20242=
72248 32962 82402 10233 20211 30092 40186 51007 91156 333
10328 20228=
72250 32966 01504 10261 20244 30165 40170 53002 91156 333
10344 20261=
72259 12566 81403 10228 20194 39984 40183 55000 60021 91153
333 10333 20228 70020=
72265 12366 83405 10200 20189 39186 40156 55001 69951 91153
333 10256 20200 70132=
72270 12966 40205 10178 20167 38862 40157 55002 60091 91151
333 10333 20172 70226=
72274 32966 01402 10222 21011 39258 40138 51004 91155 333
10378 20222=
72290 31459 63402 10172 20144 30161 40172 56005 705// 91151
333 20172=
72304 37959 02603 10244 20194 30145 40149 53006 704// 91151
333 10283 20206=
72326 31956 02302 10217 20194 39833 40181 53007 710// 91153
333 10306 20200=
72353 11232 80603 10200 20194 39741 40204 53003 69931 710//
91153 333 70394=
72363 11262 81003 10167 20167 38968 40196 53001 60031 753//
91153 333 70246=
72365 32966 41303 10144 20122 38439 40187 58002 91156 333
10300 20144 70041=
72386 32966 02303 10228 21033 39385 40130 52005 91156 333
10383 20222=
72405 32666 63207 10194 20106 30158 40180 52032 91151 333
10333 20189 70201=
72440 32966 00704 10156 20122 39773 40228 53001 91154 333
10239 20150 70066=
72451 32466 81504 10167 20139 39312 40214 55004 91156 333
10211 20133 70000=
72532 32966 01003 10133 20094 30017 40261 53013 91154 333
10244 20111=
72597 32966 00000 10111 20050 39720 40189 53002 91156=
70026 32566 81802 11028 21072 30293 40300 51007 91153 333
11006 21028=
70231 32966 80000 10050 20033 30099 40229 51009 91153 333
10172 20050 70008=
70261 32866 40402 10078 20067 30057 40229 51008 91153 333
10178 20072 70005=
70308 11459 81007 10044 20039 30090 40100 50002 69901 710//
91153 333 10078 20044 70003=
70316 12566 81109 10056 20039 30091 40131 58011 69901 91153
333 10067 20056 70107=
70350 32966 60000 10056 20022 30206 40246 58002 91153 333
10117 20050=
70361 31904 40000 10017 20017 30218 40235 50000 741// 91153
333 10133 20017=
71051 46/// ///// 11078 21079 30062 40172 53028 333 11017
21079=
71081 36964 03205 11100 21119 30141 40152 53003 333 11041
21107 70000=
71090 36964 00501 11053 21093 30106 40140 53010 333 11008
21085 70000=
71145 32774 72603 10052 20017 39967 40262 53005 82571 333
10097 20029 70008=
71603 11162 23006 10132 20125 39999 40051 53023 69901 70184
82500 333 10213 20114 55063 79999 90960=
71709 11148 80705 10070 20060 39990 40003 58024 60012 721//
886// 333 10186 20067 55086 70010 909//=
71825 11656 83602 10013 21018 39435 40097 53002 69901 77171
885// 333 10094 21029 55022 79999 90910=
72394 37012 93102 10100 20100 30098 40188 55004 710// 91151
333 10189 20100=
78663 32670 73602 10214 20202 39444 40126 5//// 83571 333
05333 10300 20210 31/// 58000 83643 85362=
78897 32565 50805 10279 20231 40175 52009 84802 333 022/6
10312 20246 59001 70038 82826 83650=
76225 01520 80000 10176 20164 38639 40142 52008 60071 75255
887// 91145 333 10326 20176 32/// 567// 58027 60057 70070
88716=
76342 31440 60000 10222 20200 39469 40151 57003 70221 86600
91135 333 10317 20222 31022 56100 58004 70070 86710=
76548 32265 41601 10266 20252 30143 40173 51002 82904 91148
333 06306 10268 20240 30/// 58004 70000 82904 82082=
76556 31560 70000 10210 20196 39107 40100 57013 71329 873//
91130 333 062// 10310 20195 30019 59002 70005 84922 83620=
76581 31365 50000 10196 20177 39078 40140 5//// 705// 83504
91152 333 10345 20194 30018 56309 58001 70000 83607=
76644 32860 10901 10240 20226 30154 40164 56003 80001 91150
333 0/009 10368 20236 30023 58006 70000 81060=
78325 31557 30000 10248 20237 30119 40176 58004 71011 81260
333 10319 20245 30/// 55063 59012 70022 81820=
78397 31572 61207 10284 20238 30141 40157 70511 84832 333
01200 10322 20263 59008 81824 84635=
78526 32966 01204 10272 20228 30153 40176 53012 91154 333
10300 20239 70005=
78970 11462 60704 10272 20248 30130 40155 60121 71586 83882
333 02299 10313 20240 58007 70348 82815 83358 90926=
78988 32470 30907 10296 20250 30139 40148 52013 83400 333
10333 20273 59011 83816=
81405 01258 70000 10246 20243 40148 60204 72186 8427/ 333
20230 58008 60027 81703 83813 86360=
80022 01959 30000 10254 20237 30097 40099 69904 70500 80001
333 20250 30/// 50480 55049 59022 7000/ 83070=
72278 32966 00000 10261 20033 39750 40126 53005 91156 333 10394
20261 555 90312=
72327 31459 83605 10217 20178 39987 40197 53010 705// 91153 333
10311 20217 555 90312=
72344 31248 80803 10220 20210 30040 710// 91215 333 10322 555
90312=
72445 32966 00504 10133 20117 39919 40243 53004 91154 333 10250
20106 555 90312=
72465 32266 81807 10140 20130 38925 91203 333 10239 91021 555
90312=
72503 32766 43209 10172 20094 30148 40158 53029 91151 333 10333
20167 70003 91021 555 90312=
72518 32666 63406 10150 20083 30059 40164 53033 91151 333 10289
20133 70203 91018 555 90312=
72528 32566 63605 10106 20061 39969 40231 51023 8/800 91154 555
90312=
72572 32966 00000 10167 20017 38734 40145 53019 91156 333 10317
20156 555 90312=
72576 35966 03204 10111 21028 38323 40137 53005 91156 333 10289
20106 555 90312=
72578 32966 02106 10156 21039 38668 40155 51016 91156 333 10300
20061 555 90312=
72583 35966 01503 10050 21039 38729 40188 51004 91156 333 10317
20050 555 90312=
72606 32666 63208 10172 20072 30085 40105 53045 91151 333 10233
20156 91025 555 90312=
70133 32966 40000 10011 21006 30227 40233 51007 91153 333
10044 20006=
70398 32966 00000 10089 20072 30175 40217 53006 91153 333
10217 20078=
71918 460// /2207 11133 39759 40182 58010 333 11066 21137=
72203 32566 40000 10250 20228 30182 40189 53009 91153 333
10311 20222=
48001 32560 41401 10350 20225 49966 83950 333 10351 56660 59042=
48010 32556 50000 10330 20244 49999 83930 333 10355 56560 59013=
48037 22556 60000 10295 20266 40003 83870 333 10326 56880 58006=
48045 21558 70000 10208 20195 74144 83610 333 10216 56990=
48601 31562 70302 10279 20242 30051 40055 70522 81538 333 10313
81625 84364 87276=
48615 31468 80000 10275 20242 30065 40071 71322 8397/ 333 10317
81916 83618 88469=
48620 31563 70000 10288 20244 30047 40056 70522 82548 333 10331
82633 87276=
48647 31565 70501 10299 20234 30031 40056 70522 81542 333 10344
81630 86362=
48657 31465 70000 10278 20242 30053 40071 71322 82941 333 10321
81917 86079=
48665 31466 71302 10291 20257 30050 40060 70521 83942 333 10335
81916 83364 86078=
96033 31457 81802 10287 20251 30037 40044 52014 71322 84976
333 10310 56000 57902 59008 81920 83616 80980=
96075 32461 63404 10284 20234 30047 40057 57005 83271
333 10312 56000 57802 59006 83818 80858=
96171 32458 60000 10292 20252 30024 40049 53003 83521
333 10318 56000 59016 83616=
96179 31460 70000 10265 20245 30046 40082 52007 70292 84238
333 10308 56000 57802 58012 84417=
96221 32460 40000 10277 20248 30071 40086 53010 81932
333 10300 56099 57902 58009 81925 80980 84080=
96253 31458 80000 10260 20233 30029 40050 52011 71422 8497/
333 10312 56009 57900 59019 81915 86460=
96295 11460 70000 10262 20244 30090 40014 69901 70162 85521
333 10298 56000 85618=
96413 32565 72201 10257 20229 30046 40072 82541 333 10282 82622
86080=
96421 32365 73103 10250 20244 30051 40087 8457/ 333 10296 83706
83620 87365=
96441 32489 73104 10270 20241 30078 40083 8457/ 333 10294 84616
87365=
96449 11460 70301 10264 20253 30057 40077 60021 76061 8457/ 333
10297 84616 87365=
96471 11470 80000 10268 20249 30067 40070 60051 71396 85948 333
10323 82812 81916 83635 87275=
96491 11465 70000 10261 20248 30061 40074 60061 70198 83848 333
10321 82816 84364 87276=
96581 32458 70000 10272 20261 00073 40080 51006 85130
333 10295 56800 57882 58009 85813 80840=
96633 32560 31805 10290 20241 30064 40072 52023 81301
333 56000 57903 58002 81920 80980=
96791 11458 80000 10256 20235 30026 40086 52001 60011 71562 85571
333 10286 56009 58009 85612 88458 806//=
96797 11450 80000 10242 20233 30072 40083 52007 76096 8592/
333 10260 56409 57940 58014 81915 80981 85813 88460=
96805 11558 50000 10252 20240 30057 40078 51009 60401 70296 82111
333 10300 56000 57801 58008 82820 80860=
96935 01456 81804 10249 20238 30081 40087 52012 60321 76162 85972
333 10310 56000 57901 58010 62916 84615 80975=
91503 01475 50000 10244 20241 40109 52013 60151 72585 81838
333 10308 55/// 56299 58011 60157 81816 85360=
91507 31470 21801 10244 20224 40105 52006 70500 82270
333 10315 56990 58008 82813=
91520 31480 70000 10246 20242 40100 52008 70522 81236
333 10318 55/// 56000 58006 81816 87280=
91527 31480 10000 10235 20229 4//// 5//// 70500 81100
333 10323 56000 5//// 81814=
91541 32480 10000 10250 20243 40106 52002 81100
333 10310 55/// 56800 5//// 81814=
91554 32580 52802 10260 20236 40110 53003 85200 333
10310 566// 58020 85825=
91565 01470 81503 10210 20204 40149 5//// 60011 725/8 8427/ 333
10265 5639/ 58032 60011 84818 88460=
91570 36/// /1612 10223 20172 30139 40142 50003
333 10255=
91574 36/// /1614 10220 20139 30162 40168 50005
333 10239=
91577 36/// /1506 10208 20140 40150 53006
333 10243 55062 21484 58015=
91582 36/// /0000 10167 20157 40142 51007
333 10228 55003 20694 58030=
91592 32565 72205 10209 20141 40147 53006 82802
333 10236 55039 21206 56606 58023 81830 87073=
91610 31499 11005 10271 20235 40103 5//// 70200 81100 333 10311
562//=
91631 11498 70804 10264 20261 40106 60221 71496 8326/ 333 10310
5629/=
91636 11498 80604 10285 20256 4//// 69911 71408 8137/ 333 10302
5629/=
91643 31599 11006 10286 20252 40101 50002 70200 81100 333 10312 562//

8
1
8
2
0
=
91648 31599 21103 10280 20247 40113 58006 70200 82201 333 10315
562/9=
91650 31598 21203 10272 2024/ 40114 51003 70200 82800
333 10315 569// 81825=
91659 31698 20000 10232 2022/ 40125 58005 70210 82100
333 10306 569// 82830=
91680 31699 30000 10242 20212 40129 51001 70200 83800
333 10314 569// 82830=
91683 31598 10000 10220 20214 40132 58006 70100 81800
333 569// 81824=
91691 36/// /0503 10240 20235 40140=
91699 36/// /0111 10249 20226 40144=
91754 36/// /0604 10263 2//// 40123 58002
333 10296 55079 2//// 59001=
91811 11499 10806 10275 2025/ 40105 69921 72518 81100 333 10290
562//=
91843 31598 31702 10177 20155 40170 56002 70200 83200 333 10245 564//

8
3
8
2
1
=
44286 32998 61607 10278 20038 38574 49982 56005 86070 333
10302=
44348 12697 20507 10198 20129 38640 40076 52013 69902 76261
82540 333 10264=
44386 12599 62304 10204 20107 38983 40065 53001 60072 82364
333 10279=
54539 32970 72701 10226 20168 30086 40100 52001 82032=
53698 32962 83601 10242 20153 40108 52005 8807/=
53593 32780 72002 10223 20048 40110 52002 81432=
50434 32980 41602 10196 20077 39226 40052 57006 80002=
50915 11580 60901 10278 20030 39143 40058 57004 69901 70080
84902 333// 91121 91522=
53149 11580 71607 10212 20031 38755 40090 52008 69901 72580
82902 333// 00154=
53192 32980 21803 10239 20015 38869 40095 57005 80002=
53336 32580 71803 10154 20104 38694 40114 52002 86902 333//
00254=
53391 32680 31803 10192 20015 38507 40108 54000 81402 333//
05102=
53529 11568 81103 10135 20125 38589 40112 57001 69901 70060
8372/ 333// 05151=
53543 11980 71405 10112 20099 38528 40139 57003 60071 72166
86032=
54012 32980 22002 10242 20069 38989 40080 52001 80002=
54208 32980 70000 10201 20078 38741 40105 52001 80002=
54776 32965 73206 10170 20146 30031 40088 57001 8703/=
52634 36/// /0000 10159 21072 36761 4//// 57002
555 10040 2//// 30126 41111 51011 60/// 7//// 80000
9//// ///// 1/113 2//00 30000=
57528 16/// /1900 10195 29756 37563 61430
555 1/144 2//11 30227 12100
11101 10101 00010 10110 1011/
/////
2//// 3//// 6//// ///// ///// 8//// 9//// ///// ///// //004
11101 11111 1011/
11111 110//=
45011 32475 21603 10283 20249 40094 54000 82100 333 10328
59012=
21595   0312/ 99364 11338
46/// ///// 40094
22290 06184 10601 70007=
22001   03124 99281 11263
46/// /2119 10264 20251 40058 57007 8////
22200 06268 10602 70009 80255=
21004   03124 99289 11349
46/// ///14 10243 20237 40082 52002 8////
22200 06233 10802 70010 80239=
SHIP 03124 99051 31194 32458 53409 10290 20244 40068 52017 83931
222// 00/// 2//// 333 10315 56000 57900 59009 81919 82819 84360
809//=
47105 11950 32003 10172 20156 30070 40101 55000 69912 71011
80002 333 10209 30017 55000 20930 70001=
47108 11558 32302 10247 20172 39973 40071 52014 69902 71028
82502 333 10316 30025 55065 21653=
47115 31958 20000 10149 20133 39844 40103 71011 82030 333
10214 30016 55041 92031=
47135 31959 80903 10207 20159 39809 40089 52014 71022 8802/
333 10271 30021 55014 21273=
47138 32662 63603 10175 20158 30107 40110 52009 82502 333
10203 30018 21050 92032=
47159 31950 80704 10180 20154 30015 40095 52009 71022 8801/
333 10230 30016 55009 21493 92022=
47165 31550 80202 10200 20184 30041 40083 52010 71022 8352/
333 10242 3/021 55001 21053 92022=
47184 11558 80905 10186 20171 30042 40069 58010 60052 72162
8452/ 333 10207 31019 55000 20483 70056 92033=
47008 32975 10000 10225 20093 30023 40073 54000 81500 333
10246=
47014 32950 00000 10201 20107 39697 40072 58003 333 10285=
47016 32970 10000 10189 20082 39287 40121 52018 80001 333
10275=
47020 32965 80000 10237 20095 39743 40092 53009 80001 333
10314=
47025 32560 20000 10137 20124 30068 40095 53004 82500 333
10231=
47035 32970 70201 10257 20128 30071 40079 52004 81074 333
10320=
47041 31560 80000 10170 20155 30078 40104 53013 71042 8853/
333 10245=
47055 32965 60000 10169 20147 30066 40109 53011 80004 333
10208=
47058 32566 73202 10249 20164 30036 40080 53009 82530 333
10320=
47069 32965 83203 10244 20174 39979 40071 57011 82032 333
10304=
23914 41499 82905 10163 20136 39858 40100 53002 70298 889//=
23921 41599 83202 10193 20169 39963 40073 53005 71798 889//=
23955 11798 83503 10162 20048 30024 40082 58008 69902 70262
83989 333 10174=
24641 12599 30303 10171 20061 39964 40094 52013 60012 82530
333 10190=
28440 42598 73107 10273 20089 39777 40092 57001 83806=
28748 41560 63206 10292 20111 39896 40112 57012 70298 83202=
29231 11497 82901 10101 20097 39964 40056 52007 60052 78082
883// 333 10150 86916=
29838 11597 52202 10145 20056 39914 40132 52019 60022 70282
82232 333 10175=
30372 11799 70304 10152 20103 39253 40055 53048 69902 70282
86980 333 10259=
30673 31698 82718 10240 20093 39294 49979 53013 70422 86303
333 10322 91022=
30823 32999 83202 10301 20113 39425 49983 57004 80002 333
10348=
30935 32699 43203 10285 20093 39169 49994 54000 82501 333
10334=
30965 32699 73205 10265 20068 39279 40014 56000 82332 333
10340=
31004 11598 80000 10147 20110 39251 40018 53008 60022 78098
86937 333 10223 86926=
31088 32498 81403 10047 20033 30123 40130 52005 886// 333
10054 88710=
31137 31598 63201 10153 20067 39055 40001 53007 79900 85200
333 10208=
31300 32999 70902 10235 20107 39725 49984 57010 82032 333
10300=
31329 32599 83401 10138 20068 39425 40048 56004 84937 333
10210=
31369 32698 80804 10125 20067 39999 40080 53003 83902 333
10162 91112=
31388 32599 70000 10171 20099 39798 40040 56007 83942 333
10265=
31416 32599 80000 10179 20121 39969 40054 54000 82931 333
10243=
31510 329// 00000 10238 20109 39874 40023 56003 333 10307=
31707 32998 80000 10199 20128 39991 40076 53001 80001 333
10265=
31735 32997 72102 10165 20119 39995 40078 53001 82031 333
11220=
31873 32998 50801 10159 20100 39965 40083 53003 82043 333
10221=
31909 11698 80000 10086 20077 30033 40108 53008 60020 70282
8257/ 333 10123=
31960 32598 10105 10199 20081 39872 40089 52011 81400 333
10238=
32053 32997 21102 10028 20023 30061 40103 54000 80001 333
10100=
32061 31/01 91101 10046 20046 30067 40105 52003 74542 333
10101=
32098 32984 11904 10066 20045 30112 40122 52009 81030 333
10097=
32150 32596 83101 10078 20043 30087 40116 52011 885// 333
10134 88620=
32165 32498 80601 10061 20056 30049 40109 52003 886// 333
10089=
47003 32980 01801 10161 20132 30088 40092 52018 333 10305=
47005 32980 03601 10111 20041 38593 53001 333 10206=
47028 32968 60000 10223 20139 30002 40090 53013 80002 333
10313=
47031 32570 20000 10140 20116 82500 333 10241=
47037 32970 70000 10235 20129 39964 40079 53005 81032 333
10323=
47039 32560 80000 10252 20179 39915 40091 52009 85501 333
10316=
47046 31540 80000 10155 20143 30084 40107 53009 71022 885//
333 10182=
47050 32965 20000 10258 20186 30035 40066 52005 80002 333
10319=
47052 32565 50000 10212 20136 39774 40090 52020 85500 333
10289=
47060 32960 82304 10207 20162 30025 40079 53007 8803/ 333
10299=
47065 32565 23205 10235 20162 30024 40085 53009 82500 333
10313=
47067 32565 70000 10267 20088 39962 40072 52013 87500 333
10322=
47068 32970 82702 10190 20156 30049 40082 52010 80002 333
10305=
47070 32570 60000 10251 20195 39995 40076 53005 83202 333
10306=
98223 31565 71401 10293 20268 40090 53020 71394 82970 333
10346 56999 58007 82920 87360=
98325 11456 80000 10276 20266 40085 53006 60141 78098 8337/
333 10346 56999 58007 83915 88358=
98328 11450 81602 10192 20182 38522 40093 53019 60391 71398
8497/ 333 10254 56999 58009 84912 88358=
98429 31558 40000 10292 20232 40088 52010 70522 83870 333
10322 56999 59007 83823 83359=
98444 32468 30401 10286 20265 40082 53013 83200 333 10314
56999 59007 83818=
98543 11460 50000 10290 20264 40081 53010 69901 70182 82201
333 10356 56999 59005 82818 84075=
98550 31460 81401 10286 20260 40079 51019 71544 84967 222//
20101 333 10326 56999 59005 82915 88358=
98618 11468 50000 10290 20252 40076 53009 60011 71084 82901
333 10318 56999 58001 81918 82820 84075=
98630 32570 60000 10300 20264 40084 53014 82208 222// 20000
333 10326 56999 58013 82820 86275=
98637 31465 70000 10275 20228 40067 52005 70242 81278 333
10340 56999 59007 81812 83358 85272=
98755 11575 20000 10284 20266 40085 52023 60031 71380 81901
333 10328 56999 59003 81920=
02548 36/// ///// 1//// 2//// 38661 40143 54000
555 1//// 2//// 3//// 40001 50000 60/// 7//// 80000
9//// ///// 1/019 2//00 30000=
44207 11999 72304 10138 20099 38300 40091 51033 69952 72162
86073 333 10256 91212=
44212 32699 62703 10256 20015 39019 40031 52009 82270 333
10274=
44214 31698 72509 10153 21005 38249 40076 53011 73433 83540
333 10184 91124=
44218 32698 30000 10248 20058 38534 40000 54000 83100 333
10265=
44231 11598 70905 10183 20118 38673 40066 51016 60022 71581
86908 333 10275=
44232 31699 62705 10265 20077 39006 40026 55014 70391 86900
333 10339=
44239 32699 22005 10270 20053 38702 49969 54001 82140 333
10314=
44259 32598 70000 10302 20025 39217 40023 57006 85360 333
10343=
44272 12998 50000 10192 20076 38295 40031 51001 69912 82088
333 10240=
44277 11999 20503 10175 20099 37817 40050 53002 69922 70261
82050 333 10188=
44285 32899 60000 10237 20093 38282 49992 52001 83081 333
10278=
44288 32699 60000 10222 20062 38145 40000 54000 83208 333
10250=
44292 32999 50000 10283 20000 38640 40003 56003 80006 333
10295=
44298 31898 72008 10254 20029 38664 40014 54002 70620 8707/
333 10294=
44304 32999 32304 10271 20073 38915 40016 57018 81042 333
10316=
44314 32698 60000 10295 21064 39073 40027 53002 83280 333
10328=
44347 11597 71809 10208 20064 38657 40050 50019 69902 71598
86380 333 10282=
44354 32699 61403 10254 20089 39042 40030 53005 86010 333
10297=
44358 32598 60000 10230 20148 39015 40068 58001 84304 333
10283=
44373 32599 60911 10223 20104 38492 40032 53006 83880 333
10254 91013=
28661 41599 63405 10175 20153 30021 40108 53009 72998 82301=
28679 42599 63206 10199 20046 39922 40087 52015 83939=
28879 41998 32608 10199 20144 39816 40080 57006 72581 83030=
28952 41598 72305 10240 20123 39948 40126 58009 71798 87900=
29023 11496 83302 10123 20107 39965 40055 57004 60012 78082
889// 333 10139=
29122 11697 83102 10114 20097 39998 40069 51003 69972 78082
883// 333 10135 84936=
29807 42597 52304 10152 20103 39951 40061 57036 85300=
30230 32699 80804 10246 20109 39768 40060 53001 83401 333
10263=
30309 42698 80901 10224 20099 39493 40041 51002 83907 333
10254=
30650 31599 80000 10253 20076 39002 49991 53003 70192 83301
333 10304=
30710 42960 82103 10229 20099 39443 40007 53007 83051 333
10298=
30844 31999 32701 12053 20078 39130 49993 57001 70411 80001
333 10310=
31532 32699 80000 10149 20056 39747 40065 57002 82401 333
10241=
31829 11/93 90301 10062 20060 30079 40110 52006 69940 74544
333 10091=
35078 41699 62812 10230 20076 39752 40098 57028 70282 82489
333 91017 91117=
35108 42997 62002 10307 20127 40178 57009 83201=
35188 42798 82709 10172 20067 39721 40127 57010 8544/ 333
91117=
35229 42698 22502 10296 20098 39929 40177 57008 81101=
35394 42597 62507 10173 20002 39519 40154 57003 83930=
35416 42697 42304 10302 20095 83101=
35671 42998 21205 10245 21047 39806 40202 57008 80001=
35746 42998 02207 10276 20023 30128 40201 57011=
35796 42697 42308 10173 20065 39793 40203 53005 84200=
36003 41497 82505 10154 20050 39970 40114 57006 78082 889//=
36177 42597 72402 10184 20029 39920 40150 54000 87300=
36428 42599 72202 10163 20078 39689 40156 53004 87900 333
95000=
36859 42599 82605 10165 20053 39460 40198 52015 83965=
36870 42697 52501 10189 20036 39240 40191 52004 83901=
38198 42999 00501 10257 20021=
38341 42699 20802 10206 20051 39463 40199 52004 82200=
42348 31594 42904 10416 20168 49940 70644 84300 333 10424
59001 82630 81935=
42361 31996 00000 10400 20229 49951 70600 333 10415 58009=
42369 31596 20202 10356 20252 49967 70522 82500 333 10373
58004 82630=
42452 31596 13202 10422 20177 49941 70600 81400 333 10429
59003=
42559 32596 63202 10370 20173 40/// 84432 333 10427 580//
82620 83825 85360=
42647 32596 32503 10410 20209 49973 83801 333 10413 59003
81620 83825=
42667 21596 72005 10252 20214 39403 49975 79596 86930 333
10400 59003 6013/ 83625 83830 82935=
42724 32596 50000 10338 20257 49983 82501 333 10351 59005
82620 85070=
42737 31597 33210 10376 20237 49984 71721 82330 333 10405
56690 57941 58001 82620 82930=
42779 32597 70000 10376 20174 39290 49940 83432 333 10386
59011 82825 84360 86075=
42809 31495 71802 10330 20260 49981 70522 8592/ 333 10355
58003 82615 83825 81930 85458=
42867 32597 62906 10354 20202 49949 82931 333 10408 59019
83525 81930 83360 85075=
43003 32596 52702 10318 20256 40001 83831 333 10330 59013
82620=
43014 32596 60000 10344 20202 39353 49966 84430 333 10355
59002 83620 83825 85360=
43063 21597 72903 10306 20233 39390 49991 71795 86901 333
10340 59006 6990/ 81922 83628=
43117 21597 73401 10290 20260 49987 70296 84331 333 10341
57990 58006 6998/=
43128 32597 63202 10330 20251 39391 49971 86300 333 10346
59005 83620 83825 81930=
43189 21596 72701 10262 20245 39974 49983 71796 83963 333
10377 57962 59007 6008/=
43233 32498 42503 10286 20191 39206 49988 82431 333 10314
56699 59010=
43245 32597 60000 10368 20244 39948 49970 84502 333 10385
59021=
43279 21597 61801 10338 20238 39971 49988 70252 83431 333
10349 59011 6990/ 83620 84360=
43284 21992 82308 10236 20226 39930 40046 76465 8572/ 333
10276 59004 6024/ 85704 88458=
43295 21497 72702 10232 20220 39023 48439 72996 85933 333
10299 56699 57911 57931 57962 59006 6012/ 82615 83820 81925
85075=
43321 31496 72008 10272 20202 39580 40018 70522 84970 333
10334 57931 57961 59023 83615 81925 86458=
43371 21597 62702 10300 20230 39980 40052 70265 83371 333
10326 57912 59013 6994/ 82620 81925 84460=
51076 32680 72705 10198 21003 39301 40142 52011 82902 333
00503=
51133 11668 82705 10154 20096 39566 40194 52012 69981 78080
889// 333// 00651=
51243 11880 73611 10193 20051 39613 40135 52001 69901 70080
874/2 333 00553=
51288 32680 73404 10198 21018 38322 52002 81402 333 00205=
51431 11780 70000 10125 20084 39452 40228 52020 60011 78080
874// 333 01058 91119 91532=
51463 32780 73406 10198 20083 39070 40119 52005 874// 333
00004=
51495 32680 73214 10326 20011 40073 57006 81102 333// 00101
91120 91534=
51542 11562 80906 10040 20027 37582 52030 60031 76080 8572/
333// 00254=
51644 32670 83207 10199 20076 38866 40056 52020 889// 333
00154=
51656 32780 70405 10291 20029 38984 40004 57003 82402 333//
05204=
51709 32780 22203 10251 20035 38656 40035 57010 82402 333//
00251=
51716 11970 70000 10244 20081 38836 40046 52002 69921 70080
82062 333// 00456=
51053 32680 73401 10189 20074 40157 52008 86962 333 00502=
51777 31956 80906 10335 20041 38984 49933 52007 70600 80007
333// 05400=
51828 31/40 92904 10194 20076 38591 40066 52029 70600 333//
00457=
51839 31/20 90000 10276 20102 49971 52011 70600 333// 05151=
51855 31/20 93401 10291 20049 49953 52003 70600 333// 05301=
51931 31/07 92908 10241 20072 40011 52028 73200 333// 00152=
52267 31940 21108 10264 20077 39013 40042 57001 70700 80002
333// 00003=
55279 32680 51807 10115 21019 35739 57003 84902 333 05101=
55299 32780 61405 10122 20007 35886 57007 86400 333 05107=
55472 11580 80000 10106 20001 35779 52014 69901 79198 889//
333// 00253=
55578 32780 11404 10225 20020 36349 57014 81100 333 00002=
55591 32780 12702 10246 20006 36496 57015 81100 333 00001=
55664 32880 11804 10176 20024 36013 57007 81100 333 00151=
55696 11680 20706 10175 20032 36356 57001 69901 70080 82440
333// 00100=
55773 32570 61107 10079 20031 36046 57001 86400 333 00100=
56106 32980 21406 10171 21006 36227 57007 82400 333 00004=
56137 11780 60000 10178 20078 36823 52002 69901 70080 81440
333// 00101=
56312 32680 21103 10215 20075 37067 57002 82100 333 00005=
22550 42597 71904 10177 20036 30077 40087 57022 84531=
22583 41684 60000 10178 20051 30039 40114 57009 70282 85231=
22768 41597 82105 10195 20000 30057 40110 57018 71522 8695/
333 84627=
22845 41498 71906 10155 20082 39938 40087 57022 72582 879//
333 87919=
26063 41597 23004 10161 20092 30070 40077 52013 70281 82100
333 91112=
26298 41497 72306 10174 20113 39899 40117 58023 70262 86770
333 91112=
26477 41670 72205 10166 20136 30024 40146 57004 70182 87300
333 87937=
26702 42597 62804 10173 20106 30173 40198 52011 86500=
26850 42970 12004 10238 20077 39914 40171 57013 80001 333
91110=
26997 42978 00000 10212 20093 39999 40206 58014=
27595 42797 63303 10218 20147 30031 40165 56002 83930=
27612 42997 82401 10225 20086 30001 40182 57013 80007=
27947 42697 53504 10193 20143 30041 40191 58003 85100=
27962 42697 70000 10230 20157 40160 58001 82350=
33008 42970 02303 10269 20097 30023 40190 57013=
34009 42968 10304 10197 20050 39901 40190 58009 80001=
34172 42770 81906 10274 20123 39976 40153 57007 83205=
34247 42977 80505 10267 20148 30055 40160 58001 80006=
34391 32997 62504 10328 20045 30135 40163 57009 85042=
37054 42698 60502 10263 20152 39731 40085 57004 84960=
44241 32999 20000 10318 20094 39126 49986 57005 80001 333
10344=
44282 32699 73605 10240 21009 38247 49996 53001 85984 333
10271=
44294 32998 61802 10259 21067 38525 40008 54000 85044 333
10280=
44305 32999 22305 10280 20100 38991 40043 56001 82040 333
10321=
44352 32999 31803 10261 20070 38876 40050 56004 80004 333
10300=
44203 11699 70000 10180 20070 38371 40052 52015 69912 70281
85543 333 10254=
44213 12699 22707 10244 20053 38715 40030 53001 69902 82100
333 10270=
44215 32998 23203 10195 20034 38367 40040 53011 82500 333
10219=
44225 11698 70703 10138 20095 38261 40107 58004 60042 72282
82541 333 10251=
44230 11598 72709 10236 20080 38735 40057 53031 69902 70282
86910 333 10307 91212=
44237 31599 63209 10172 20106 38446 40061 52017 70292 86500
333 10294=
44256 32699 70000 10252 20122 39235 40013 56009 86570 333
10329=
44265 32999 72703 10240 20080 38782 40046 53001 80002 333
10273=
44302 32999 20000 10257 20041 39023 40025 56007 80002 333
10329=
44313 32699 32503 10270 20019 39267 40021 56006 82480 333
10339=
23074 32997 00805 10121 20050 30121 40144 53011 333 10140=
23711 41498 72903 10122 20094 39952 40118 52025 70282 87900
333 85915=
23804 42699 32602 10188 20068 39989 40129 58006 82501=
24125 32999 60402 10131 21041 39923 40185 53014 80001 333
10145=
24343 32999 23606 10150 20002 30007 40117 52013 82030 333
10182 91010 91111=
24738 32799 70203 10161 20095 39932 40099 52021 85530 333
10206=
24951 11999 80000 10158 20138 39898 40038 52012 69952 70282
8807/ 333 10220=
24959 11599 80000 10166 20093 39927 40046 52004 69902 70262
84531 333 10170=
24966 31699 71201 10144 20080 39840 52018 72522 86930 333
10217=
29313 32598 60103 10160 20036 39952 40066 52005 82279 333
10168=
29612 11497 81802 10111 20085 39931 40074 57001 69952 78082
883// 333 10170=
29698 11598 33402 10180 20138 39611 40082 52006 60012 70282
81902 333 10237=
30758 11599 81201 10276 20078 39253 49977 57005 69962 70298
83931 333 10354 91119=
30949 32699 52101 10289 20002 39019 49983 57008 82803 333
10339=
32027 31/05 91803 10064 20062 30087 40095 53001 74541 333
10112=
35406 42997 30000 10327 20050 40203 57015 80001=
38062 42999 03602 10254 20011=
38232 42998 11108 10313 21054 30087 40177 57012 80001=
38388 42998 00501 10316 21057 30113 40184 57012=
38413 42998 00504 10269 20004 39934 40204 58007=
38457 42699 12903 10257 21025 39617 40165 54000 81100=
38507 42998 01805 10342 21007 30042 40135 57011=
38545 42998 03603 10279 20085 30009 40171 57017=
38656 42998 00702 10334 20036 30060 40160 57011=
38687 42997 03604 10282 21017 39943 40162 58009=
38880 42999 00904 10326 21019 39800 40149 56010=
38895 42997 00103 10313 20114 39900 40166 58003=
38927 32997 01803 10326 20038 39765 40108 57014=
38974 42998 03404 10332 21012 39820 40126 57014=
44229 31598 72705 10126 20050 37945 40105 52037 71522 86770
333 10227=
44242 32998 20000 10325 20093 39167 49965 57007 80002 333
10357=
44243 32999 20000 10304 20062 39267 49999 56003 80008 333
10355=
44317 32998 22703 10252 20071 38884 40036 56002 82040 333
10340=
VRVN6   03124 99079 11087 41598 63506 10280 20224 40095 52010 70311
8643/ 22255 00290 2//// 3//// 4//// 80240=
98135 31575 31102 10293 20260 40089 53007 70544 83200 333
10327 56399 59021 83820=
98232 31570 31802 10280 20257 40083 53020 70144 83200 333
10352 56999 58009 82820=
98329 31470 33601 10259 20245 40090 5/025 71344 82901 333
10338 56999 58004 82918=
98653 31470 51601 10286 20256 40085 52017 70544 81908 333
10330 56999 59005 81918 84275=
20046 41474 63302 11021 21049 30041 40068 52016 70272 83530
1/103=
20069 11361 82204 10006 21002 30061 40074 55000 69952 77172
8672/ 333 10010 86709=
20087 32275 72307 11001 21004 30080 40090 52006 8663/ 333
10006 86705=
20292 32380 82511 11005 21008 30112 40131 51001 886// 333
10005 88608 91115=
20674 11777 71907 10041 20004 30048 40105 58014 69912 70262
87030 333 10041 87350=
20891 32997 39902 10112 21027 30144 40184 54000 83030 333
10113=
29328 11998 80402 10134 20061 39945 40076 53018 69902 70282 86032
333 10145=
29348 11597 82703 10117 20110 39917 40053 53029 60152 78098 889//
333 10156 85923=
29405 32598 62502 10133 20064 39931 40069 53007 82381
333 10159=
29937 12698 52204 10166 20025 39930 40136 52008 69902 82431   333
10178=
22113 41484 60805 10168 20021 39978 40037 57006 78081 86900
333 91009 91112=
22271 42582 22701 10113 20067 30099 40109 57002 82100=
22820 41499 72103 10129 20110 39918 40050 57007 70282 87500
333 87611=
22887 42570 62603 10199 20032 30069 40135 57009 83531=
26781 42997 72104 10221 20085 39903 40177 57018 80001=
27037 41460 82103 10169 20073 39981 40135 57016 78082 889//
333 87710=
33345 42798 20602 10229 20062 30022 40216 57011 81101=
33393 42997 22802 10232 20117 39838 40206 57009 80001=
33658 42997 02903 10231 20055 39932 40216 57010=
33791 42697 20106 10210 20129 30035 40180 57014 82100=
33837 42598 63303 10248 20123 30130 40179 58014 82269=
33946 42597 80407 10217 20158 39920 40128 56015 85301=
34300 42597 60107 10200 20135 30010 40191 58007 86500=
34560 42962 50905 10298 20121 39991 40144 57009 85030=
34691 42698 61804 10344 20074 30169 40158 5/005 85202=
34866 41998 61409 10344 20078 40124 57006 70733 80001=
34880 42997 71204 10290 20104 40160 58005 80001=
37472 42998 01208 10214 20168 30108 40086 57019 333 91015
91115=
48071 21460 80000 10283 20283 49993 75365 8597/ 333 10325 5659/
59013=
48077 21459 82301 10270 20256 40007 70296 85970 333 10320 56490
59012=
48325 01520 80000 10264 20250 39775 40015 60042 71062 888//
333 10307 58005 60026 70043=
48357 32564 80000 10301 20257 39877 40042 81366
333 10333 58010 70042=
48403 11562 80901 10287 20244 39829 40034 60142 70362 84846
333 10320 58013 70144=
48405 12561 50000 10285 20242 39884 40044 60052 83305
333 10312 58020 70050=
48425 11560 81501 10290 20256 30012 40022 69902 70362 83506
333 10330 58006 70026=
48426 32560 80000 10272 20248 30013 40026 85576
333 10324 58009=
48450 01558 80000 10257 20244 39990 40023 60062 76162 8652/
333 10329 58006 60066 70062=
48459 01562 80000 10273 20247 30031 40033 60062 70262 85537
333 10305 58011 69915 70055=
48550 11556 82703 10272 20229 30042 40049 60032 71062 81576
333 10300 59005 70029=
48551 31556 80000 10255 20240 30043 40051 71022 83577
333 10275 59008 70085=
48565 11560 60000 10280 20246 30041 40052 60112 70162 81246
333 10294 59013 70110=
48568 01460 80000 10267 20236 30046 40054 69902 72162 8482/
333 10317 59002 69907 70016=
48569 01460 80000 10263 20240 30017 40057 60182 70362 84876
333 10312 58000 69937 70204=
48583 01558 60000 10249 20230 30065 40071 69942 71086 82246
333 10305 58007 69946 79994=
43192 21495 83202 10280 20257 40018 72996 8691/ 333 10319
57972 59008 6996/=
48327 01560 80000 10248 20242 39673 40025 60112 76296 85923
333 10307 58003 60116 70109=
48331 01558 60000 10275 20245 39808 40035 69902 76092 83576
333 10325 58007 69905 70010=
48353 11457 70000 10265 20243 39751 40035 60172 71092 83966
333 10295 58008 70232=
48356 12565 51502 10301 20228 39844 40036 60042 82446 333
10321 58008 70055=
48375 01460 80000 10261 20250 39782 40007 60102 76066 85876
333 10290 58000 60047 70201=
48378 01460 80000 10263 20252 39969 40021 60212 76096 85976
333 10321 58008 60197 70211=
48381 32562 71502 10274 20239 39820 40039 81946 333 10310
58012=
48407 31560 51402 10282 20243 39903 40043 71321 82943 333
10322 58005 70080=
48431 01557 81803 10272 20243 39822 40032 69902 76022 84376
333 10317 59003 69905 70055=
48432 01558 70000 10262 20245 39879 40046 60042 72162 83946
333 10311 58009 60045 70049=
48455 11560 71803 10290 20247 30023 40028 60202 70299 86877
333 10305 58003 70207=
48456 12460 71705 10272 20261 30016 40033 60112 81976 333
10317 58009 70109=
48480 01440 80000 10248 20233 30041 40045 60862 76062 8687/
333 10311 58010 60075 71099=
48500 01559 82502 10261 20235 30033 40039 60092 75062 8477/
333 10300 58008 69915 70090=
48008 32558 51801 10356 20240 49999 70222 83931 333 10370
56559 59026=
48025 22458 60000 10300 20253 40034 84330 333 10326 56349
59034=
48035 21560 80000 10231 20214 40000 75095 8597/ 333 10296
56339 59009=
48042 21557 71302 10300 20253 49985 75022 85970 333 10370
56440 59013=
48053 21450 73601 10300 20239 49993 79595 83976 333 10364
56899 59009=
48060 31556 70000 10255 20229 40011 70295 83936 333 10280
56569 59006=
48062 32560 72704 10310 20270 49983 84336 333 10325 56999
59018=
48078 21530 61801 10278 20261 40011 72065 82932 333 10306
56499 59002=
48109 21496 71802 10263 20246 40012 70266 85970 333 10303
56590 59023=
48110 21496 80000 10250 20245 40052 70255 8662/ 333 10270
5659/ 59006=
48112 21496 82705 10235 20235 40051 75165 8677/ 333 10255
5659/ 59008=
03026 32684 20506 10114 20042 40248 58001 82500 333 82648=
03171 32475 70907 10108 20061 40244 52002 81831 333 81818 86359=
06660 35778 33101 10262 20110 39531 40162 57011 81281 333   81850=
08284 32575 20907 10262 20169 30107 40179 57006 82100=
08515 32580 13604 10182 20083 30163 40284 51013 81100
222// 00/// 81825=
08538 32870 23406 10216 20152 30135 40164 53001 8////=
11782 32975 02504 10250 20136 39907 40204 57010=
12882 32981 03101 10250 20071 30093 40220 58012=
15480 32560 10910 10223 20131 30179 40194 57011 81100=
16641 32470 22906 10268 20133 30187 40193 58002 82200 333 90730
91118 555 40000 47673 44220 50000 50188=
17038 11560 70605 10190 20177 40114 58010 69901 70282 84250
333 84830 87359 92427=
58968 31956 82102 10301 20253 30063 40070 54000 71022 8802/=
58974 32565 11718 10256 20249 39955 40072 58010 81500=
59358 31658 52006 10284 20251 30076 40087 53003 71021 85400=
59559 32575 21302 10280 20243 30065 40093 53007 82100=
59792 32560 20507 10287 20264 30084 40088 53003 82200=
59997 32562 30102 10269 20244 30057 40071 53010 81208=
59158 32560 72505 10287 20244 39986 40083 51004 82260=
59562 32665 82201 10287 20241 30077 40088 53005 885//=
59567 32370 12214 10254 20237 39731 40100 52008 81100=
24266 11699 70203 10124 20068 39941 40106 52017 69902 71682
86530 333 10199 85936 91110=
24329 32699 33501 10132 20056 39894 40147 52017 83100 333
10148=
24507 32698 81003 10216 20041 39910 40124 53002 84231 333
10227=
24688 11699 40302 10079 20038 39226 40086 52006 69930 70281
83401 333 10135=
24908 32680 80502 10253 20092 39773 40066 53002 81531 333
10267=
24944 11599 83402 10173 20112 39784 40050 52007 60242 70298
84932 333 10232=
29594 11699 63601 10178 20137 39721 40074 51001 60032 70182
82341 333 10251=
29634 11657 22305 10156 20025 39881 40089 52005 60102 70281
82200 333 10166=
29676 11596 81503 10188 20131 39677 40064 52005 60032 79598
889// 333 10226=
30054 11598 51302 10193 20129 39860 40079 52012 60022 70298
82901 333 10246=
30393 11599 80605 10136 20099 39061 40023 52023 69942 70282
85931 333 10254 85925=
30433 32999 83302 10200 20113 39507 40048 54000 80001 333
10216=
30469 11598 80000 10216 20076 39308 49987 53023 60022 70498
83942 333 10334=
30521 32698 82901 10250 20151 39551 40025 56005 86901 333
10277 86934=
30554 11698 82801 10205 20113 39022 40006 52011 69982 70298
85902 333 10311=
30603 11598 82902 10201 20125 39536 40054 52017 69952 70282
8292/ 333 10250=
30612 32999 82603 10227 20136 39569 40047 53022 85077 333
10263=
30635 32999 23401 10197 20126 39516 40036 53003 80001 333
10234=
30692 32999 83208 10242 20092 39538 49980 53015 8809/ 333
10311 91010=
30802 32799 72002 10225 20050 38643 48456 53026 84530 333
10288 91116=
30879 32599 51803 10262 20110 39323 49997 57019 81901 333
10315=
30925 32999 62702 10319 20095 39125 49967 56006 80004 333
10351=
35700 42998 31805 10304 20043 30208 40183 57007 80002=
35925 42998 01805 10312 20043 30106 40205 57011=
36034 32699 71903 10157 20067 39881 40139 53006 87900 333
10185 85941=
36061 11599 81802 10118 20098 39781 40169 52019 60022 78082
889// 333 10195=
36982 41598 72705 10015 21050 36510 47055 52010 70282 86903=
38001 42998 51614 10284 20134 30185 40157 57014 80002=
38353 42598 42502 10196 20088 39326 40179 54000 84100=
38392 42998 00706 10280 20009 30108 40204 58017=
38613 42698 72203 10246 20041 39283 40123 58001 85902=
38696 32999 00905 10234 21033 39346 40150 58001=
38750 42997 02706 10278 20179 30146 40120 57019=
SHIP 03124 99125 31306 41/97 10403 10210 40130 70100 222// 20101
304// 40101 5////=
SHIP 03124 99340 31512 41/97 00114 10150 40167 700// 222//=
C6OT9 03123 99500 71385 41/97 /1207 10088 20065 40185 57010 70022
8//// 22273 0//// 2//// 3//// 4//// 80077=
SHIP 03123 99124 31243 41/96 31220 10250 40122 70100 222// 20302
311// 40304=
ELXD6 03123 99358 51290 /1/94 /0130 00/// 10185 20178 40170 56020
6//// 76366 8//// 22223 00170 2//// 3//// 4//// 5//// 6//// 80180=
ELHZ5 03123 99383 31490 41498 62720 10140 20091 40149 54005 70111
86508 22253 00190 20202 323// 40403 5//// 6//// 80115=
VJDK 03123 99094 31236 41598 12906 10270 20210 40096 52017 70211
8//// 22253 00287 2//// 3//// 4//// 5//// 80230=
VJBF 03123 99360 31362 41398 82619 10152 20145 40203 52004 72582
88500 22273 00145 20402 325// 40602 5//// 80148=
96011 32561 70000 10286 20228 30011 40034 55000 83533
333 10308 56000 59034 83620=
96073 31557 70000 10299 20248 30054 40061 51025 70522 83522
333 10326 56000 58004 83620=
96109 32460 70000 10300 20249 30011 40050 52009 83232
333 10258 56000 58001 82617 85063=
96145 32460 71701 10278 20240 30054 40059 55000 84530
333 10304 56800 57/// 59002 84617 87360=
96163 32562 70000 10294 20248 30047 40054 52002 81131
333 10326 56000 57802 59005 81820 85362 80856=
96237 11558 70000 10273 20247 30025 40066 56000 69901 70302 83272
333 10300 56000 57801 58002 83820=
96739 11556 70000 10260 20230 30023 40072 52012 69901 70562 84532
333 10270 56000 84620=
02186 41230 80201 10096 20095 39916 49941 57010 76166 887//
333 88704=
02226 41689 43105 10052 20015 39637 40091 53018 72582 84501
333 84640=
02464 46/// /2603 10166 20015 30103 40120 52002=
02836 11570 80902 10106 20060 49988 58014 69901 78082 8637/=
02935 47584 72304 10087 20037 40003 52022 70020 87/// 91127=
03005 11582 70804 10066 20017 40252 52016 69901 78081 878//
333 85820 85628=
03772 32682 72101 10205 20126 40168 57010 83831 333 82832
86075=
03917 32480 80505 10119 20078 40195 58003 885// 333 88618
94060=
03953 11468 70502 10149 20118 30122 40158 57006 69901 70265
876/1 333 81710 86625 92427=
04018 41560 81806 10082 20033 40203 52001 71582 886// 333
81820 88725=
04077 42984 61405 10061 20016 40193 57010 80001=
04250 350// 83603 10031 20027 39946 40049 52008 333 83/01
85/05 88/50=
04320 32389 71305 11050 21063 30076 40091 56009 87600 333
44022=
04360 32886 80000 10039 20014 30102 40167 54000 8807/ 333
42999=
06610 35572 33402 10263 20180 39616 40163 57011 81282 333
81831=
07149 32563 72402 10258 20180 30056 40159 58009 8228/ 333
82828 87360=
07510 32458 72903 10194 20161 30111 40183 50001 876// 333
87712=
07650 32965 12306 10278 20105 30153 40190 57007 81082 333
81359=
07761 32670 12305 10253 20167 30182 40192 58005 81100 333
81840 95000=
08509 32561 72203 10204 20126 30213 40279 50000 84802 333
83825 83070=
10385 32770 51601 10237 20123 30145 40203 58007 81206 333
55310 81850 85280=
10637 32782 31601 10289 20152 30043 40171 58012 82933 333
55309 81950=
16560 32970 01506 10264 20128 30182 40188 58007 91145 333
55310=
17609 32462 41809 10260 20190 30060 40062 58001 84800 333
83712=
12330 32670 43103 10244 20142 30098 40201 54000 83101=
12375 32780 32806 10265 20155 30063 40186 57006 82230=
12843 32983 12403 10261 20046 30057 40218 58011 80001=
13272 32980 09901 10266 20112 30099 40212 57012=
41530 32696 71807 10365 20137 49963 70622 83331 333 10380
56999 58010=
41640 31995 00502 10396 20172 39725 49955 70600 333 10408
58019=
41660 31995 02714 10317 21044 48423 70700 333 10330 58028=
41675 31996 00000 10395 20215 49816 49946 70600 333 10405
58006=
42410 32597 40000 10320 20258 49984 82430 333 10347 59008
82620 83360=
42492 32596 20903 10346 20250 49971 82400 333 10350 59004
82620=
42634 32596 22709 10376 20219 49996 81501 333 10396 58007
81625=
42675 32597 23402 10404 20144 49935 82100 333 10412 59015
82830=
42754 31596 62708 10358 20220 39353 49951 71722 83930 333
10391 59003 83825 81930 85360=
42840 32596 62303 10318 20277 40008 81530 333 10350 59006
81620 84358=
42886 21496 70901 10292 20237 49978 76096 85930 333 10364
57971 59001 6990/ 84618 81930 85360=
42895 32596 71402 10318 20241 49989 83501 333 10345 58011
83620 87075=
42971 32596 61103 10334 20246 49988 84331 333 10365 57932
58005 83620 81930 84075=
43198 21497 72703 10246 20222 39203 40012 72196 84831 333
10306 56699 59001 6005/ 83615 84358 85075=
43201 32397 72306 10242 20219 39299 40007 84532 333 10323
56699 59002 82620 83075=
43213 32597 84951 10354 20206 39667 49969 84377 333 10369
57913 57944 57854 59011=
43329 21597 81602 10314 20223 39987 40002 72052 8337/ 222//
20501 333 10355 57971 58001 6990/=
43353 32496 53203 10294 20239 40056 84930 333 10308 56790
57922 59015 82616 81925 85359=
43369 21597 62703 10300 20252 40048 72022 85430 333 10324
59010 6990/ 84620 83360=
43424 32478 62302 10290 20262 30038 40047 8//// 333 00823
18328 59011 86818=
43467 31480 7//// 10292 20249 30050 40055 70282 8697/ 333
00025 10316 59003 86818 81919 87460=
43497 32574 72704 10292 20221 30020 40037 8106/ 333 10298
59806 79999 82820 86280=
55279 32680 51807 10115 21019 35739 57003 84902 333 05101=
55299 32780 61405 10122 20007 35886 57007 86400 333 05107=
55472 11580 80000 10106 20001 35779 52014 69901 79198 889//
333// 00253=
55578 32780 11404 10225 20020 36349 57014 81100 333 00002=
55591 32780 12702 10246 20006 36496 57015 81100 333 00001=
55664 32880 11804 10176 20024 36013 57007 81100 333 00151=
55696 11680 20706 10175 20032 36356 57001 69901 70080 82440
333// 00100=
55773 32570 61107 10079 20031 36046 57001 86400 333 00100=
56106 32980 21406 10171 21006 36227 57007 82400 333 00004=
56137 11780 60000 10178 20078 36823 52002 69901 70080 81440
333// 00101=
56312 32680 21103 10215 20075 37067 57002 82100 333 00005=
21802 32999 30103 10029 21013 30172 40195 52006 83030 333
10043=
23256 42999 13301 10148 20009 30096 40128 57010 80001=
23274 32998 00804 10182 20051 30090 40126 57012 333 10186=
23330 42698 62103 10196 20041 30049 40076 57017 81131=
23383 32999 20704 10153 20038 39817 40145 57007 80001 333
10157=
23472 32699 30405 10205 20056 30061 40106 57008 81101 333
10211=
23552 42997 53202 10187 20027 30085 40117 57010 80001=
23631 42999 71806 10211 20030 30041 40079 57019 86031=
23678 32598 80302 10215 20094 39999 40052 57016 8391/ 333
10227=
23849 42796 60205 10166 20021 40115 57001 82102=
23884 11567 80501 10152 20145 39967 40036 57008 60042 78082
889// 333 10190=
23891 32598 80806 10232 20107 39757 40056 57003 85936 333
10240=
23933 42997 10301 10163 20053 30070 40126 58008 81030=
23966 11396 83302 10117 20111 39933 40052 58008 60052 78082
889// 333 10139=
25400 32999 60302 10145 20041 30041 40092 53011 86030 333
10201=
28275 42999 03503 10188 20019 30054 40111 52004=
28382 42698 40404 10169 20006 30036 40101 52010 84200=
28493 28493 41599 73506 10140 20043 39997 40084 53018 70298
86901=
28573 42989 10106 10181 21012 30002 40099 52020 80001=
28698 41498 63406 10135 20055 39917 40062 54000 70262 86100=
28722 42698 72704 10293 20113 40028 57013 83201=
28786 41598 80703 10169 20046 39926 40073 53008 70282 85302=
29253 11599 61402 10166 20090 39874 40034 52011 60062 70282
84901 333 10166=
29263 11598 70801 10152 20119 39968 40062 52012 60082 79598
85902 333 10191=
29282 11598 80000 10171 20158 39911 40065 52016 60102 70298
889// 333 10284=
29430 11498 73201 10110 20100 39912 40078 52032 60032 72582
87900 333 10120=
35067 41998 4//// 10249 20097 39864 40115 57017 70181 82036=
35121 42698 62704 10290 20115 30042 40175 57007 83102=
38763 42998 00906 10346 20053 30031 40127 57017=
38911 42998 03204 10321 21139 39853 40124 58011=
38954 42899 23104 10200 20104 37957 48510 52013 82100=
38987 42996 00105 10303 21036 39425 40109 57015=
40356 32960 02806 10344 21050 39102 48456 333 58004 555 04410
50006=
40361 31957 02712 10376 20000 39294 40008 70700 333 58000=
40375 32960 03602 10366 20040 39198 40015 333 58008=
40400 32960 03109 10298 20260 30026 40053 333 58010=
40405 32960 02904 10428 21080 39295 49975 333 58010=
40416 32960 00206 10430 20140 39976 49995 333 59011=
40439 42960 02612 10410 20190 30007 40020 333 59005=
40703 32960 01605 10320 20012 38859 40040 57022 91145 333=
40785 32665 13604 10366 20044 38995 40028 57026 81400 91150 333
81640=
41036 32960 00000 10373 21060 38521 48472 81040 333 58006 82358 555
04410 50001=
41136 32960 00604 10422 21010 39225 49981 333 59006=
41170 32965 00204 10354 20218 39995 40008 333 58013=
41196 31658 13406 10367 20239 39955 49992 70600 81200 333 58008 81830
=
41216 42960 13606 10362 20247 39988 49992 81030 333 58012 81365=
41256 31659 40506 10355 20238 39983 49992 70500 82301
333 58016 82830 81935 =
41268 32560 13503 10400 20267 39983 49998 333 58011=
22845 41498 71906 10155 20082 39938 40087 57022 72582 879//   333
87919=
23205 42584 60403 10110 20051 30117 40131 51002 86200   333 86825=
23418 41340 83403 10074 20070 30034 40105 52007 78182
889// 333 84706=
23711 41498 72903 10122 20094 39952 40118 52025 70282 87900
333 85915=
23804 42699 32602 10188 20068 39989 40129 58006 82501=
27271 42698 72702 10201 20056 30015 40161 57008 82262=
27707 42982 62702 10219 20090 39920 40196 57010 80001=
27962 42697 70000 10230 20157 40160 58001 82350=
28711 42998 82406 10278 20100 39800 40143 57013 85301 333 85940=
34391 32997 62504 10328 20045 30135 40163 57009 85042=
35121 42698 62704 10290 20115 30042 40175 57007 83102=
06011 32682 62504 10075 21003 30181 40250 52005 86500 333
86636=
06180 32680 30405 10162 20036 30215 40221 52008 81102 333
81840 83075=
07110 01258 82303 10143 20143 30065 40178 55000 69961 75054
886// 333 69967 85704 88710=
08001 32365 83504 10156 20135 30125 40206 52008 888// 333
92437=
08221 32665 70000 10271 20112 39495 40137 57008 81241=
08306 32482 12203 10308 20144 30175 40181 56005 81500=
08495 32462 50808 10240 20178 40160 57001 81601 333 81715
85075=
08589 32470 12405 10260 20202 40142 81500 333 59001 81613=
08594 32462 40406 10256 20191 40152 84230 333 59001 84612=
10338 32562 50502 10210 20137 30131 40201 58009 81102 333
55310 81828 85075=
16242 32962 02203 10270 20144 30194 40197 55000=
16320 32960 00302 10254 20149 30186 40198 51001 91145 333
55310=
16420 32997 01907 10246 20108 30132 40195 58001 91145 333
55310=
16597 32562 31105 10260 20191 30107 40202 55004 81100 333
83825=
16716 32570 30108 10266 20066 30166 40184 58005 83200 333
90730 91132=
16734 32570 13208 10248 20132 30118 40180 58005 81100 333
90730 91120=
16754 32565 43408 10222 20116 30117 40163 50001 84840 333
81818 83625 90730 91123=
17060 32560 50108 10216 20134 40174 51003 84230 333 84830
84360=
17128 11670 10130 20086 39033 40091 58003 69911 70182 84250
333 84835 85359=
17170 32670 71203 10190 20118 38328 48493 53009 84280 333
84835 87359 10097=
17200 32670 43603 10278 20166 39096 40023 57014 84200 333
84840=
11518 32782 10503 10267 20116 39775 40186 58009 81240 333
81850=
15420 32560 33602 10251 20050 30095 40199 57015 83200 333
91004 91203=
15614 31697 63202 10201 20081 39530 40207 57011 70310 86300=
VRVB5   03124 99353 11312 41397 80316 10175 20163 40104 53002 71042
88/// 22255 00190 2//// 3//// 4//// 5//// 6//// 80168=
24982 12599 71902 10054 20034 39639 40118 52023 69980 87900
333 10136=
25325 32999 00000 10071 21025 39961 40117 53006 333 10180=
28255 42599 81102 10216 20132 39970 40088 58006 8333/=
28642 42697 52809 10279 20141 40102 57011 82131=
29557 11598 72207 10127 20085 39847 40098 52044 60012 72582
87300 333 10188 86928 91118=
29822 11597 73604 10148 20080 39953 40106 52003 69962 70282
87500 333 10179 87623=
29846 11597 72705 10146 20086 39764 40125 52015 60042 70282
83930 333 10152=
30777 31698 72004 10260 20056 39417 49995 50005 70331 86970
333 10340 91118=
31174 11699 80000 10035 20009 30075 40087 53003 69900 70282
8752/ 333 10090=
31263 32599 81602 10174 20120 39509 40038 56004 85542 333
10267=
31624 32999 00000 10128 20094 40071 57001 333 10253=
36087 12599 53101 10224 20043 40141 52004 69902 83902 333
10289 95000=
36096 11699 72308 10190 20036 40062 53049 69902 70282 83501
333 10282 91117 95000=
36103 11699 33204 10110 20074 40129 53026 60092 72598 83900
333 10184 95000=
36231 11599 80000 10137 20055 40133 52007 69902 70282 8512/
333 10167 85830=
36259 32599 81703 10116 20011 38216 48480 52015 86902 333
10129=
36974 42798 65207 10131 21033 37969 48497 52001 86900=
56985 11580 31603 10232 20178 38663 40059 52002 69911 70080
81202 333 00100=
57902 32580 21403 10242 20187 38581 40046 52007 81102 333
00102=
42071 32996 20000 10390 20145 49958 82030 333 10408 58021
82360=
42101 31995 00901 10385 20237 49959 70600 333 10398 58016=
42131 32996 40502 10400 20179 49941 84030 333 10399 58007=
42165 31996 02305 10430 20108 49943 70240 333 10436 58014=
42182 31695 31102 10380 20255 49955 70500 83330 333 10390
58014 82635 81940=
42309 32596 51801 10332 20266 49984 82230 333 10359 59019=
42328 32996 52305 10420 20223 49957 80002 333 10423 58013
85075=
42339 31995 32302 10412 20166 49959 70500 80001 333 10419
58009 83075=
42379 32596 50901 10338 20248 49968 85800 333 10349 56299
59002 84625=
42701 21496 71802 10244 20224 39284 49994 71796 85930 333
10334 58004 6044/ 84618 81930 87360=
42798 31596 52701 10324 20238 49976 70599 84401 333 10362
58005 82620 83825 85075=
43041 31596 71401 10302 20203 39385 49977 71799 85931 333
10367 58003 85625 81930 86360 87075=
43086 32997 40501 10374 20238 39787 49955 80002 333 10390
59005=
43110 32597 72703 10288 20248 40023 85831 333 10302 59001
83620 83822=
43314 21496 83402 10272 20237 40047 70262 8572/ 222// 20802
333 10288 59014 6992/=
43333 21495 82503 10264 20253 40008 76066 8447/ 333 10283
56599 59010 6005/ 83618 84820 86458=
43450 32476 7/512 10288 20248 30031 40329 85737 333 59006
83772 85805 84358 85080=
43473 21097 73203 10750 20148 38081 48445 75085 877// 333
02013 10169 59003 69957 70034 87700=
44416 32470 42602 10334 20244 39245 49966 84800 333 10335
58008=
44438 32558 11202 2//// 39863 49984 81100 333 10349 59004=
44454 21465 40000 10258 20190 38586 48427 70199 82830 333
10313 58016 60058=
44477 32466 22601 10258 20225 38737 48453 81202 333 10292
58006=
91165 32566 42903 10220 20180 30115 91201=
91245 32566 20805 10270 20250 30154 91150=
91285 32966 02203 10200 20150 30156 40168 91153 333 20200=
91334 11469 80905 10269 20258 30102 40105 51012 60041 78086
8632/ 333 10313 5629/ 58007 70140=
91348 11474 81204 10270 20242 30051 40103 52007 69981 70282
85231 333 10278 56399 59007 70531=
91356 11466 81005 10279 20248 30092 40099 51007 60021 71682
86208 333 10311 562/9 58005 70048 86812=
91366 11574 40710 10274 20243 30100 40109 50005 60011 72581
84870 333 10301 5622/ 58007 70010=
91376 32474 60806 10277 20244 30103 40107 58003 83808 333
10311 562/9 59005 70003 90312=
91408 11474 80000 10256 20245 30059 40097 51014 60091 70282
83378 333 10328 56328 58001 70160=
91413 11432 80906 10253 20244 30081 40100 52025 60081 78182
8737/ 333 10317 5629/ 58008 70180=
98440 11465 80903 10291 20264 40084 53015 69931 71598 8327/
333 10320 56299 59004 83818 88358=
98836 31565 50000 10270 20253 40083 52021 70542 81201 333
10332 56999 58008 81820 84081=
98526 32570 80000 10286 20267 40070 53007 82207 333 10317
56999 58001 82820 88275=
98748 21470 40000 10270 20/// 40072 53015 70544 82201 333
10338 56999 59003 82818 83075=
48820 11598 21403 10293 20246 30063 40071 53006 60182 70281
82140 333 01027 10327 58011 70180 82895=
48826 32597 11404 10274 20254 39940 40068 53004 81200 333
00029 10318 58015 70006 81895=
48838 32998 10000 10287 20263 30068 40074 56003 80001 333
00030 10316 58004 70000 81099=
48839 32598 11103 10281 20251 30010 40074 53001 81900 222//
2//01 333 00/// 10370 58014 70000 81995=
48845 32598 70903 10275 20252 30054 40061 52006 82908 333
01028 10305 58018 70350 81995 81697 86299=
48848 12598 51103 10279 20255 30060 40068 52004 69912 85800
333 00028 10301 58018 70024 82895=
48855 32598 71101 10284 20256 30061 40069 52007 84908 333
00031 10315 58015 70000 83895 81995 86299=
48870 32998 00000 10290 20262 30062 40069 53011 333 00029
10324 58012 70063=
48877 32598 60701 10283 20249 30067 40072 51010 868// 333
00029 10316 58011 70000 82895 86697=
48887 12798 72702 10272 20237 30066 40072 53010 69902 84538
333 00029 10317 58007 70011 84697 85299=
48900 11496 60501 10263 20251 30058 40068 52003 60252 71098
869// 333 10310 59003 83894 81994 85696=
48914 11798 80000 10264 20227 30073 40075 52009 69912 70262
885// 333 01027 10285 58004 70003 88697=
48917 11496 82706 10249 20239 30065 40070 53004 60442 78188
8692/ 222// 00281 2//03 333 02/// 10285 58002 70447 84894
85995 88499=
48918 12498 70000 10265 20222 30066 40077 53007 69902 878//
222// 00284 20000 333 00025 10290 58002 70173 81894 87696=
45007 32570 11504 10296 20245 30074 40083 53002 81200
333  10340 59015 70000 81825 =
45007 32570 11504 10296 20245 30074 40083 53002 81200 333
10340 59015 70000 81825=
42909 32996 62706 10314 20276 40015 86030 222// 21401 333
10339 58002 86360=
43185 32596 71802 10334 20274 39970 49973 84931 333 10378
57943 59003 82620 81925 83360=
43237 32597 62903 10340 20188 39601 4//// 83808 333 56609
59011 82620 83825 86275=
41598 32697 20902 10390 20168 39707 49955 82400 333 10406
58020=
41624 32997 00000 10370 20191 39765 49952 333 10377 59011=
41710 32997 33105 10383 21005 39277 49986 83030 333 10389
56090 58026 83360=
41712 31996 02302 10410 20130 39086 48454 70500 333 10415
58027=
41715 31996 02302 10475 20184 39881 49939 70500 333 10475
58014=
41718 32996 02303 10425 20209 39838 49932 333 10428 58008=
41739 32995 03603 10360 20148 38970 48465 70500 333 10385
58040=
41749 32696 52703 10450 20/// 39921 81631 333 10462 56999
58018 81630 82360 82070=
41756 32997 02303 10320 20265 39933 49996 333 10335 58007=
41768 32996 02305 10390 20252 39958 49964 333 10420 58008=
41780 32697 22705 10335 20259 49999 82500 333 10350 56900
58004 82630=
56116 32680 63202 10139 20019 36368 57002 86800 333// 00004=
57731 32980 11401 10314 20221 40020 52012 81040=
57902 32580 21403 10242 20187 38581 40046 52007 81102 333
00102=
59358 31658 52006 10284 20251 30076 40087 53003 71021 85400=
59559 32575 21302 10280 20243 30065 40093 53007 82100=
59562 32665 82201 10287 20241 30077 40088 53005 885//=
59792 32560 20507 10287 20264 30084 40088 53003 82200=
40180 32560 12710 10265 20184 30041 40087 51001 81100=
40362 32962 01706 10430 20090 39505 49982 333 59027=
40373 32960 01804 10433 21030 39606 49990 333 59015=
40430 32960 03307 10420 21040 39324 49997 333 58003=
40438 32960 02403 10440 21020 39350 40001 333 59004=
40582 32960 00000 10461 20022 40012 58015 333 00052=
41024 32960 03308 10380 20210 30004 40023 333 59013=
41114 32560 40605 10320 20070 37952 48459 82130 333 58003
82825 82359=
41128 32560 21103 10390 21060 38746 48458 81102 333 58009
81830=
41140 32960 02207 10380 20250 30007 40015 333 58007=
41194 31758 13207 10352 20257 39982 49994 70600 81300 333
58004 81956=
41288 31959 02305 10348 20251 39979 40001 70600 333 59003=
41316 32561 72006 10310 20263 39977 40002 86501 333 58005
86625 87075=
40754 32660 21202 10316 20116 38800 40058 57014 82200 91155
333 82840=
40766 32660 11002 10362 21022 38633 40025 57008 81100 91150
333 81840=
40800 32660 20705 10332 20058 38424 40012 57017 82100 91150
333 82840=
40821 32660 23102 10356 20028 38745 40024 57020 82400 91150
333 82635=
40841 32660 13504 10332 20022 38224 40001 56016 81100 91150
333 81845=
40848 32660 10603 10360 20044 38469 49989 57015 81100 91150
333 81840=
40856 32960 00405 10310 20047 38600 40026 57020 91150=
40875 31950 02005 10368 20247 39980 49992 57025 70500 91150=
96607 32458 30000 10282 20256 30069 40083 51005 83511
333 10317 56600 59001 83615=
41136 32960 00604 10422 21010 39225 49981 333 59006=
41196 31658 13406 10367 20239 39955 49992 70600 81200 333
58008 81830=
41256 31659 40506 10355 20238 39983 49992 70500 82301 333
58016 82830 81935=
40007 32565 52909 10288 20097 40018 51003 83250 333 83830
84360=
40045 32970 00303 10371 20109 40019 56008=
40706 32660 20206 10324 21006 38613 40038 57018 82100 91145
333 82835=
40712 32560 11204 10296 20049 38649 40039 57020 81300 91145
333 81930=
40718 32960 00904 10252 20200 30153 40122 57014 91150 333
90218=
40732 32562 10905 10258 20195 30141 40121 57006 81100 91150
333 81830=
40736 32960 00205 10274 20200 30144 40117 57014 91150=
40739 32965 00805 10288 21024 38663 40087 57016 91150=
40394 32962 02707 10385 21070 38955 48460 333 58014 555 04410
50004=
40729 32660 10904 10290 20023 38330 40064 57015 81100 91145
333 81835=
40831 32960 02802 10472 20067 30092 40000 57014 91150 333=
41084 32960 02401 10400 21060 38797 48462 333 59002 555 04410
59990=
42398 32696 11603 10346 20228 49983 81401 333 10353 56909
59004 81840=
94120 46/// /1004 10163 20082 30098 40134=
94151 35/// /2315 10226 30126 40146 52016=
94203 46/// /1005 10173 20037 30146 40157=
94207 35/// /1215 1//// 30144 40155 52021=
94212 46/// /1104 10134 20010 39686 40171=
94238 46/// /1208 10130 20003 39758 40195=
94268 46/// /2002 10136 20089 30136 40151=
94287 46/// /1813 10186 20113 30166 40175=
94290 35/// /1415 10223 30165 40172 52011=
94294 46/// /0000 10123 20090 30191 40202=
94298 35/// /1315 10224 30172 40178 52012=
94299 46/// /1220 10233 20153 30149 40160=
94300 46/// /1906 10166 20126 30175 40185=
94302 46/// /2107 10128 20095 30173 40179=
94312 46/// /1208 10185 20030 30163 40173=
94326 46/// /1606 10053 20029 39596 40238=
94332 46/// /1705 10114 21008 39793 40191=
94346 46/// /1505 10082 20011 39978 40207=
94363 46/// /0000 10081 20020 39984 40209=
94367 46/// /2208 10108 20070 30166 40204=
94394 35/// /1409 10209 30181 40189 52013=
94403 46/// /1008 10172 20007 30184 40226=
94430 46/// /1106 10130 21043 39624 40230=
94461 46/// /1206 10082 21002 39539 40236=
94510 46/// /0000 10063 20002 39862 40223=
94515 46/// /0000 10032 20015 39860 40222=
94578 46/// /2803 10086 20072 30195 40206=
94601 46/// /1019 10164 20096 30269 40286=
94610 46/// /1014 10158 20078 30238 40263=
94638 46/// /0706 10133 20082 30272 40305=
94653 46/// /1806 10125 20109 30246 40265=
94659 46/// /2506 10111 20035 30050 40252=
94672 46/// /2805 10119 20101 30221 40226=
94693 46/// /3407 10112 20054 30154 40218=
94776 46/// /0000 10038 20028 30180 40190=
94791 46/// /2801 10079 20064 30185 40192=
94802 46/// /1103 10121 20114 30215 40299=
94804 46/// /2526 10148 20076 30178 40217=
94821 46/// /3011 10087 20073 30089 40173=
94842 46/// /3315 10094 20071 30050 40150=
94865 46/// /3609 10113 20080 30152 40177=
94907 46/// /3307 10081 20040 30158 40168=
94910 46/// /0000 10055 20042 39969 40228=
94926 46/// /0106 10016 21003 39521 40211=
94975 46/// /3503 10078 20039 30076 40109=
94983 46/// /3105 10101 20087 30095 40120=
94995 46/// /2213 10177 20113 30136 40144=
94996 41582 32608 10166 20104 39974 40104 52012 70300 83200
333 10197=
23219 41497 83503 10043 20038 39991 40094 52019 76166 886//   333
88712=
70200 32966 80202 10044 20033 30218 40225 50009 91153 333 10122
20039 70025 555 90312=
70273 32966 41602 10056 20033 30198 40248 51008 91153 333 10144
20056 555 90312=
70326 32666 61503 10039 20006 30202 40223 51001 91152 333 10122
20028 555 90312=
72223 11956 00000 10228 20217 30115 40191 53003 69931 710// 91156
333 10333 20217 70003 555 90312=
72235 32961 00000 10211 20194 30071 40189 53008 91154 333 10339
20194 555 90312=
72240 32564 20000 10233 20217 30180 40199 53008 91153 333 10322
20222 555 90312=
72251 31556 20000 10228 20228 30163 40180 53008 710// 91151 333
10322 20228 555 90312=
72253 32566 81805 10244 20217 39901 40178 53009 91153 333 10344
20244 555 90312=
72261 35466 81204 10244 20222 39804 40159 53006 91153 333 10289
20228 70010 555 90312=
72389 32966 03203 10167 20078 30046 40162 53005 91156 333 10350
20167 555 90312=
72414 32466 64952 10160 20130 39863 91210 333 10294 555 90312=
72428 32966 40205 10133 20022 39935 40230 51017 91151 333 10317
20122 70008 555 90312=
72438 32966 20305 10128 20083 39952 40245 52010 91155 333 10272
20106 555 90312=
SHIP 03124 99345 31511 41/97 22204 10140 2//// 40248 5//// 70200
8//// 22/// 00167 2//// 318// 40503 5////=
ELXU4 03120 99408 11542 41198 83521 10130 20100 40103 54007 70222
88600 22214 00120 20403 334// 40804 5//// 80112=
SHIP 03124 99064 31576 41/98 01006 10290 20260 40083 70000 222//
00302 20201 306// 40701 5////=
71043 11466 82905 10056 20043 30139 40231 53030 60031 78082
8657/ 333 10202 20056 55114 01108 22286 70030 90926=
71078 11474 10303 10057 20024 39811 40251 52015 69901 70281
81170 333 10127 20013 55124 79999 90950=
71600 46002 92310 10118 20114 30024 40030 58013 333 10149
20099=
71624 32574 13507 10108 20070 30033 40244 52023 81100 333
10238 20086 55061 79999=
71749 36964 02602 10113 20082 39998 40241 53002 333 10166
20029 70005=
71863 36964 01004 10091 20052 39532 40223 56006 333 10176
20072 70005=
71877 11780 73403 10068 20059 38976 40239 53015 60061 70186
81571 333 10167 20067 55075 70190 90952=
71913 36264 80202 11053 21096 30226 40263 51009 333 11008
21055 70000=
71917 11474 82602 11060 21081 30086 40100 52010 69901 77122
8557/ 333 11044 21070 42005 55154 01234 22577 79999 90921=
71940 32982 10000 10053 20011 39421 40218 52004 81071 333
10215 20020 70000=
71957 36564 83204 11014 21061 30198 40287 53014 333 10120
21015 70050=
72206 32966 02504 10233 20200 30163 40174 53002 91156 333
10339 20211=
72208 32966 02304 10239 20200 30153 40167 53004 91156 333
10361 20222=
72211 32966 00000 10256 20222 30175 40187 53008 91153 333
10339 20239=
72231 32562 20000 10243 20209 30182 40194 53006 91153 333
10339 20242=
72248 32962 82402 10233 20211 30092 40186 51007 91156 333
10328 20228=
72250 32966 01504 10261 20244 30165 40170 53002 91156 333
10344 20261=
72259 12566 81403 10228 20194 39984 40183 55000 60021 91153
333 10333 20228 70020=
72265 12366 83405 10200 20189 39186 40156 55001 69951 91153
333 10256 20200 70132=
72270 12966 40205 10178 20167 38862 40157 55002 60091 91151
333 10333 20172 70226=
72274 32966 01402 10222 21011 39258 40138 51004 91155 333
10378 20222=
72290 31459 63402 10172 20144 30161 40172 56005 705// 91151
333 20172=
72304 37959 02603 10244 20194 30145 40149 53006 704// 91151
333 10283 20206=
72326 31956 02302 10217 20194 39833 40181 53007 710// 91153
333 10306 20200=
72353 11232 80603 10200 20194 39741 40204 53003 69931 710//
91153 333 70394=
72363 11262 81003 10167 20167 38968 40196 53001 60031 753//
91153 333 70246=
72365 32966 41303 10144 20122 38439 40187 58002 91156 333
10300 20144 70041=
72386 32966 02303 10228 21033 39385 40130 52005 91156 333
10383 20222=
72405 32666 63207 10194 20106 30158 40180 52032 91151 333
10333 20189 70201=
72440 32966 00704 10156 20122 39773 40228 53001 91154 333
10239 20150 70066=
72451 32466 81504 10167 20139 39312 40214 55004 91156 333
10211 20133 70000=
72532 32966 01003 10133 20094 30017 40261 53013 91154 333
10244 20111=
72597 32966 00000 10111 20050 39720 40189 53002 91156=
70026 32566 81802 11028 21072 30293 40300 51007 91153 333
11006 21028=
70231 32966 80000 10050 20033 30099 40229 51009 91153 333
10172 20050 70008=
70261 32866 40402 10078 20067 30057 40229 51008 91153 333
10178 20072 70005=
70308 11459 81007 10044 20039 30090 40100 50002 69901 710//
91153 333 10078 20044 70003=
70316 12566 81109 10056 20039 30091 40131 58011 69901 91153
333 10067 20056 70107=
70350 32966 60000 10056 20022 30206 40246 58002 91153 333
10117 20050=
70361 31904 40000 10017 20017 30218 40235 50000 741// 91153
333 10133 20017=
71051 46/// ///// 11078 21079 30062 40172 53028 333 11017
21079=
71081 36964 03205 11100 21119 30141 40152 53003 333 11041
21107 70000=
71090 36964 00501 11053 21093 30106 40140 53010 333 11008
21085 70000=
71145 32774 72603 10052 20017 39967 40262 53005 82571 333
10097 20029 70008=
71603 11162 23006 10132 20125 39999 40051 53023 69901 70184
82500 333 10213 20114 55063 79999 90960=
71709 11148 80705 10070 20060 39990 40003 58024 60012 721//
886// 333 10186 20067 55086 70010 909//=
71825 11656 83602 10013 21018 39435 40097 53002 69901 77171
885// 333 10094 21029 55022 79999 90910=
72394 37012 93102 10100 20100 30098 40188 55004 710// 91151
333 10189 20100=
78663 32670 73602 10214 20202 39444 40126 5//// 83571 333
05333 10300 20210 31/// 58000 83643 85362=
78897 32565 50805 10279 20231 40175 52009 84802 333 022/6
10312 20246 59001 70038 82826 83650=
76225 01520 80000 10176 20164 38639 40142 52008 60071 75255
887// 91145 333 10326 20176 32/// 567// 58027 60057 70070
88716=
76342 31440 60000 10222 20200 39469 40151 57003 70221 86600
91135 333 10317 20222 31022 56100 58004 70070 86710=
76548 32265 41601 10266 20252 30143 40173 51002 82904 91148
333 06306 10268 20240 30/// 58004 70000 82904 82082=
76556 31560 70000 10210 20196 39107 40100 57013 71329 873//
91130 333 062// 10310 20195 30019 59002 70005 84922 83620=
76581 31365 50000 10196 20177 39078 40140 5//// 705// 83504
91152 333 10345 20194 30018 56309 58001 70000 83607=
76644 32860 10901 10240 20226 30154 40164 56003 80001 91150
333 0/009 10368 20236 30023 58006 70000 81060=
78325 31557 30000 10248 20237 30119 40176 58004 71011 81260
333 10319 20245 30/// 55063 59012 70022 81820=
78384 11560 80402 10271 20266 40161 69902 72582 8122/ 333
08130 10310 20263 59005 81820 88465 90919=
78397 31572 61207 10284 20238 30141 40157 70511 84832 333
01200 10322 20263 59008 81824 84635=
78526 32966 01204 10272 20228 30153 40176 53012 91154 333
10300 20239 70005=
78970 11462 60704 10272 20248 30130 40155 60121 71586 83882
333 02299 10313 20240 58007 70348 82815 83358 90926=
78988 32470 30907 10296 20250 30139 40148 52013 83400 333
10333 20273 59011 83816=
81405 01258 70000 10246 20243 40148 60204 72186 8427/ 333
20230 58008 60027 81703 83813 86360=
80022 01959 30000 10254 20237 30097 40099 69904 70500 80001
333 20250 30/// 50480 55049 59022 7000/ 83070=
70174 32766 63402 10056 20017 39978 40223 51009 91153 333 10160
20056 555 90312=
72278 32966 00000 10261 20033 39750 40126 53005 91156 333 10394
20261 555 90312=
72327 31459 83605 10217 20178 39987 40197 53010 705// 91153 333
10311 20217 555 90312=
72344 31248 80803 10220 20210 30040 710// 91215 333 10322 555
90312=
72445 32966 00504 10133 20117 39919 40243 53004 91154 333 10250
20106 555 90312=
72465 32266 81807 10140 20130 38925 91203 333 10239 91021 555
90312=
72503 32766 43209 10172 20094 30148 40158 53029 91151 333 10333
20167 70003 91021 555 90312=
72518 32666 63406 10150 20083 30059 40164 53033 91151 333 10289
20133 70203 91018 555 90312=
72528 32566 63605 10106 20061 39969 40231 51023 8/800 91154 555
90312=
72572 32966 00000 10167 20017 38734 40145 53019 91156 333 10317
20156 555 90312=
72576 35966 03204 10111 21028 38323 40137 53005 91156 333 10289
20106 555 90312=
72578 32966 02106 10156 21039 38668 40155 51016 91156 333 10300
20061 555 90312=
72583 35966 01503 10050 21039 38729 40188 51004 91156 333 10317
20050 555 90312=
72606 32666 63208 10172 20072 30085 40105 53045 91151 333 10233
20156 91025 555 90312=
70133 32966 40000 10011 21006 30227 40233 51007 91153 333
10044 20006=
70219 12766 80000 10067 20044 30171 40226 51004 69901 91153
333 10117 20067=
70381 32966 00000 10067 20056 30215 40222 51002 91153 333
10194 20061=
70398 32966 00000 10089 20072 30175 40217 53006 91153 333
10217 20078=
71918 460// /2207 11133 39759 40182 58010 333 11066 21137=
72203 32566 40000 10250 20228 30182 40189 53009 91153 333
10311 20222=
48001 32560 41401 10350 20225 49966 83950 333 10351 56660 59042=
48010 32556 50000 10330 20244 49999 83930 333 10355 56560 59013=
48025 22458 60000 10300 20253 40034 84330 333 10326 56349 59034=
48035 21560 80000 10231 20214 40000 75095 8597/ 333 10296 56339
59009=
48037 22556 60000 10295 20266 40003 83870 333 10326 56880 58006=
48045 21558 70000 10208 20195 74144 83610 333 10216 56990=
48601 31562 70302 10279 20242 30051 40055 70522 81538 333 10313
81625 84364 87276=
48615 31468 80000 10275 20242 30065 40071 71322 8397/ 333 10317
81916 83618 88469=
48620 31563 70000 10288 20244 30047 40056 70522 82548 333 10331
82633 87276=
48647 31565 70501 10299 20234 30031 40056 70522 81542 333 10344
81630 86362=
48657 31465 70000 10278 20242 30053 40071 71322 82941 333 10321
81917 86079=
48665 31466 71302 10291 20257 30050 40060 70521 83942 333 10335
81916 83364 86078=
96033 31457 81802 10287 20251 30037 40044 52014 71322 84976
333 10310 56000 57902 59008 81920 83616 80980=
96075 32461 63404 10284 20234 30047 40057 57005 83271
333 10312 56000 57802 59006 83818 80858=
96171 32458 60000 10292 20252 30024 40049 53003 83521
333 10318 56000 59016 83616=
96179 31460 70000 10265 20245 30046 40082 52007 70292 84238
333 10308 56000 57802 58012 84417=
96221 32460 40000 10277 20248 30071 40086 53010 81932
333 10300 56099 57902 58009 81925 80980 84080=
96253 31458 80000 10260 20233 30029 40050 52011 71422 8497/
333 10312 56009 57900 59019 81915 86460=
96295 11460 70000 10262 20244 30090 40014 69901 70162 85521
333 10298 56000 85618=
96413 32565 72201 10257 20229 30046 40072 82541 333 10282 82622
86080=
96421 32365 73103 10250 20244 30051 40087 8457/ 333 10296 83706
83620 87365=
96441 32489 73104 10270 20241 30078 40083 8457/ 333 10294 84616
87365=
96449 11460 70301 10264 20253 30057 40077 60021 76061 8457/ 333
10297 84616 87365=
96471 11470 80000 10268 20249 30067 40070 60051 71396 85948 333
10323 82812 81916 83635 87275=
96491 11465 70000 10261 20248 30061 40074 60061 70198 83848 333
10321 82816 84364 87276=
96581 32458 70000 10272 20261 00073 40080 51006 85130
333 10295 56800 57882 58009 85813 80840=
96633 32560 31805 10290 20241 30064 40072 52023 81301
333 56000 57903 58002 81920 80980=
96645 31458 70000 10254 20245 30047 40078 52017 71422 86972
333 10298 56000 57902 58013 81913 85613 80982=
96655 31458 72002 10269 20244 30058 40086 52024 71321 84373
333 10296 56700 57972 58009 81912 84612 80970=
96685 01457 80000 10250 20241 30055 40081 52018 60081 72196 85571
333 10320 56000 58011 60077 85612=
96791 11458 80000 10256 20235 30026 40086 52001 60011 71562 85571
333 10286 56009 58009 85612 88458 806//=
96797 11450 80000 10242 20233 30072 40083 52007 76096 8592/
333 10260 56409 57940 58014 81915 80981 85813 88460=
96805 11558 50000 10252 20240 30057 40078 51009 60401 70296 82111
333 10300 56000 57801 58008 82820 80860=
96935 01456 81804 10249 20238 30081 40087 52012 60321 76162 85972
333 10310 56000 57901 58010 62916 84615 80975=
96973 01458 80000 10243 20240 30080 40083 52015 60151 70262 85976
10303 56200 57923 58011 81919 80977 84820 80856=
91503 01475 50000 10244 20241 40109 52013 60151 72585 81838
333 10308 55/// 56299 58011 60157 81816 85360=
91507 31470 21801 10244 20224 40105 52006 70500 82270
333 10315 56990 58008 82813=
91520 31480 70000 10246 20242 40100 52008 70522 81236
333 10318 55/// 56000 58006 81816 87280=
91527 31480 10000 10235 20229 4//// 5//// 70500 81100
333 10323 56000 5//// 81814=
91541 32480 10000 10250 20243 40106 52002 81100
333 10310 55/// 56800 5//// 81814=
91554 32580 52802 10260 20236 40110 53003 85200 333
10310 566// 58020 85825=
91565 01470 81503 10210 20204 40149 5//// 60011 725/8 8427/ 333
10265 5639/ 58032 60011 84818 88460=
91570 36/// /1612 10223 20172 30139 40142 50003
333 10255=
91574 36/// /1614 10220 20139 30162 40168 50005
333 10239=
91577 36/// /1506 10208 20140 40150 53006
333 10243 55062 21484 58015=
91582 36/// /0000 10167 20157 40142 51007
333 10228 55003 20694 58030=
91592 32565 72205 10209 20141 40147 53006 82802
333 10236 55039 21206 56606 58023 81830 87073=
91610 31499 11005 10271 20235 40103 5//// 70200 81100 333 10311
562//=
91631 11498 70804 10264 20261 40106 60221 71496 8326/ 333 10310
5629/=
91636 11498 80604 10285 20256 4//// 69911 71408 8137/ 333 10302
5629/=
91643 31599 11006 10286 20252 40101 50002 70200 81100 333 10312 562//
8
1
8
2
0
=
91648 31599 21103 10280 20247 40113 58006 70200 82201 333 10315
562/9=
91650 31598 21203 10272 2024/ 40114 51003 70200 82800
333 10315 569// 81825=
91659 31698 20000 10232 2022/ 40125 58005 70210 82100
333 10306 569// 82830=
91680 31699 30000 10242 20212 40129 51001 70200 83800
333 10314 569// 82830=
91683 31598 10000 10220 20214 40132 58006 70100 81800
333 569// 81824=
91691 36/// /0503 10240 20235 40140=
91699 36/// /0111 10249 20226 40144=
91754 36/// /0604 10263 2//// 40123 58002
333 10296 55079 2//// 59001=
91811 11499 10806 10275 2025/ 40105 69921 72518 81100 333 10290
562//=
91843 31598 31702 10177 20155 40170 56002 70200 83200 333 10245 564//
8
3
8
2
1
=
40394 32962 02707 10385 21070 38955 48460 333 58014 555 04410
50004=
40729 32660 10904 10290 20023 38330 40064 57015 81100 91145
333 81835=
40831 32960 02802 10472 20067 30092 40000 57014 91150 333=
41084 32960 02401 10400 21060 38797 48462 333 59002 555 04410
59990=
42398 32696 11603 10346 20228 49983 81401 333 10353 56909
59004 81840=
94120 46/// /1004 10163 20082 30098 40134=
94151 35/// /2315 10226 30126 40146 52016=
94203 46/// /1005 10173 20037 30146 40157=
94207 35/// /1215 1//// 30144 40155 52021=
94212 46/// /1104 10134 20010 39686 40171=
94238 46/// /1208 10130 20003 39758 40195=
94268 46/// /2002 10136 20089 30136 40151=
94287 46/// /1813 10186 20113 30166 40175=
94290 35/// /1415 10223 30165 40172 52011=
94294 46/// /0000 10123 20090 30191 40202=
94298 35/// /1315 10224 30172 40178 52012=
94299 46/// /1220 10233 20153 30149 40160=
94300 46/// /1906 10166 20126 30175 40185=
94302 46/// /2107 10128 20095 30173 40179=
94312 46/// /1208 10185 20030 30163 40173=
94326 46/// /1606 10053 20029 39596 40238=
94332 46/// /1705 10114 21008 39793 40191=
94346 46/// /1505 10082 20011 39978 40207=
94363 46/// /0000 10081 20020 39984 40209=
94367 46/// /2208 10108 20070 30166 40204=
94394 35/// /1409 10209 30181 40189 52013=
94403 46/// /1008 10172 20007 30184 40226=
94430 46/// /1106 10130 21043 39624 40230=
94461 46/// /1206 10082 21002 39539 40236=
94510 46/// /0000 10063 20002 39862 40223=
94515 46/// /0000 10032 20015 39860 40222=
94578 46/// /2803 10086 20072 30195 40206=
94601 46/// /1019 10164 20096 30269 40286=
94610 46/// /1014 10158 20078 30238 40263=
94638 46/// /0706 10133 20082 30272 40305=
94653 46/// /1806 10125 20109 30246 40265=
94659 46/// /2506 10111 20035 30050 40252=
94672 46/// /2805 10119 20101 30221 40226=
94693 46/// /3407 10112 20054 30154 40218=
94776 46/// /0000 10038 20028 30180 40190=
94791 46/// /2801 10079 20064 30185 40192=
94802 46/// /1103 10121 20114 30215 40299=
94804 46/// /2526 10148 20076 30178 40217=
94821 46/// /3011 10087 20073 30089 40173=
94842 46/// /3315 10094 20071 30050 40150=
94865 46/// /3609 10113 20080 30152 40177=
94907 46/// /3307 10081 20040 30158 40168=
94910 46/// /0000 10055 20042 39969 40228=
94926 46/// /0106 10016 21003 39521 40211=
94975 46/// /3503 10078 20039 30076 40109=
94983 46/// /3105 10101 20087 30095 40120=
94995 46/// /2213 10177 20113 30136 40144=
94996 41582 32608 10166 20104 39974 40104 52012 70300 83200
333 10197=
23219 41497 83503 10043 20038 39991 40094 52019 76166 886//   333
88712=
28240 41599 32503 10261 20123 39786 40079 57004 79598 83300=
28419 42698 62507 10275 20122 30008 40125 57009 82131=
31285 32495 80502 10055 20046 40090 52008 886//   333 10195=
31561 32698 62102 10166 20095 40006 53007 82501   333 10243=
28240 41599 32503 10261 20123 39786 40079 57004 79598 83300=
28419 42698 62507 10275 20122 30008 40125 57009 82131=
31285 32495 80502 10055 20046 40090 52008 886//   333 10195=
31561 32698 62102 10166 20095 40006 53007 82501   333 10243=
60020 32475 13205 10234 20126 30134 40178 58003 81500
333 92448=
60101 32960 60809 10295 20176 40131 50001 80002
333 86073=
60115 31562 13606 10291 20174 40124 57005 70141 81200=
60127 32970 40000 10322 20172 39558 40113 58011 80002
333 84073=
60135 32458 32807 10240 20186 40129 51004 83600
333 83710=
60155 32450 53203 10238 20185 40134 51002 85700
333 85620=
60620 32965 00403 10391 20032 40098 56012=
60715 32560 21107 10301 20142 30171 40176 57013 82200
333 50631 82820=
60765 32560 21105 10261 20183 30182 40188 58003 82500
333 50511 82630=
61024 32665 31405 10405 20091 39511 40047 81102
333 0//00 59010 81840 83080 94901=
61829 32380 61802 10315 20260 40095 86200
333 59016 86813=
61832 42475 62405 10300 20243 40120 76032 86570
333 59004 86616 83361=
62002 32960 41003 10270 20125 39467 48558 57005 80004 33 84070=
62010 32560 61008 10285 20158 40169 58015 83502 333 83625 84070=
62019 32958 00606 10250 20153 40164 58008=
62053 31958 00315 10255 20091 40173 56002 70700=
62103 32960 20000 10328 20134 40121 57011 80005 333 82270=
62131 32970 00000 10280 20117 39838 40144 57012=
62161 32970 03603 10307 21024 40154 58008=
62271 32970 00403 10345 20070 40128 58012=
62306 31558 33508 10260 20146 40128 52004
70700 83500=
62318 32560 53105 10252 20160 40110 54000
85800=
62366 32960 03205 10304 20134 40093 56008=
62405 32960 03303 10380 20087 40054 57015=
62414 32960 00203 10388 20072 40051 58015=
62420 32960 03404 10306 20115 40101 58011=
63674 32665 31403 10306 20142 39032 48499 82902
333 58010 81830 81932 83080
555 10202=
64600 32575 62202 10274 20210 39470 40115 84130
333 0//00 58029 84826 83365 94929 95839=
64601 32580 50802 10270 20183 38991 48505 85200
333 0//00 59008 85826 94939 95879=
64656 11580 6//// 10270 20211 39548 40095 69901 70282 83970
333 0//12 58020 83826 81940 86365 94946 95836=
64659 11480 83202 10220 20212 39386 40101 60191 71796 8497/
333 0//63 58028 83616 81940 88365 94945 95815=
65306 11560 72202 10300 20209 39757 40080 69901 70296 81532
333 59013 81620 83363 85076=
60030 32570 20114 10236 20168 30113 40167 57005 82500
333 92457=
60107 32560 60403 10237 20186 40154 50000 86800
333 82816 85626 95310=
60185 32470 52804 10214 20169 40151 53011 85500
333 85616=
60230 32658 51604 10290 20152 40131 57011 81282
333 81833 83360=
60265 32665 31204 10326 20058 38909 48558 58009 82202
333 82840=
60338 32565 70604 10236 20192 30091 40154 54000 875//
333 92427=
60602 32957 00000 10368 20061 40109 58008
333 95970=
60725 32970 03102 10319 20128 39993 40153 58019
333 51081 =
60735 32565 11802 10297 20101 30107 40185 57011 81200
333 50751 81826=
60760 32960 01309 10300 20156 30047 40152 58009
333 50551=
60769 32560 10707 10261 20175 30175 40180 58007 81202
333 50701 81820=
60775 32965 30705 10280 20078 39825 40166 58005 80002
333 50921 83070=
61052 31958 32211 10370 20215 39818 40060 70700 80002
333 0//00 59020 83080=
61075 32970 72202 10372 20206 39764 40060 80008
333 59015 87280=
61090 32965 60403 10390 20134 39562 40048 80008 91146
333 59013 86280=
61701 32960 00204 10296 20215 40120 80000
333 58001=
61811 32480 12702 10335 20217 3//// 4//// 81200
333 5//// 81816=
61816 32480 72202 10302 20233 30019 40097 83270
333 59003 83815 87363=
61820 32475 71801 10275 20224 39261 40106 87200
333 59005 87813=
62007 32960 30608 10250 20820 40169 56010 80005 333 83070=
62016 32562 10808 10240 20195 40181 56006 81500 333 81625=
62055 32960 00506 10295 20026 40156 56086
62056 32560 70225 10165 20120 39460 48531 51005 87500 333 87620=
62120 32960 30805 10257 20113 39596 48549 55011 83030 333 83360=
71082 36464 81301 11066 21094 30057 40097 51007 333 11051
21074 70000=
63602 32570 71603 10303 20154 38598 48/// 82906
333 58000 82820 81925 86280
555 10204=
63702 32670 71406 10276 20122 82106
333 82840 87280
555 10151=
63705 32785 31605 10272 20198 38855 48511 82900
333 58014 82825 81930=
65319 11460 7//// 10290 20241 39584 40091 60021 70396 84832
333 59016 81613 84820 94919 95829=
65330 32465 72203 10300 20229 39660 40093 83802
333 59013 81611 83823 85076 94919 95839=
65335 32460 7//// 10300 20228 39882 40105 878//
333 59004 86613 84826 94919 95839=
65344 11458 72204 10257 20229 30095 40105 60081 72196 8297/
333 59011 81613 81926 87362 94965 95835=
65352 32460 72803 10320 20246 39930 40104 81132
333 59016 81816 87076=
65361 32470 72203 10300 20237 39675 40112 83202
333 58001 83816 87076=
65376 32460 71801 10294 20228 39649 40106 85202
333 59011 85816 87076=
65387 11460 71201 10270 20225 30096 40124 69902 70162 84932
333 58000 84813 81920 86073 94964 95834=
20667 41296 80406 10004 21005 30071 40079 56007 76362 8872/
333   91108=
20744 41396 83304 10015 20012 30107 40125 53014 71042 886//
333   88707 91105=
23022 41196 83503 10009 20006 30042 40102 52013 78084 889//
333   87702 91108=
23032 41961 82805 10019 20008 30029 40060 53006 70262 8805/
333   91107=
21908 32599 72702 10107 21050 30117 40194 52004 87500 333
10107=
24143 32999 33607 10129 20097 30097 40140 52012 80001 333
10166=
48352 01562 80000 10260 20249 39848 40046 60182 71392 84973
333 10311 58022 60186 70212=
43344 32597 52903 10336 20208 39908 40005 83532 333 10360
59018 83620 83360 85075=
36307 12598 32306 10262 20009 38852 48458 57002 70932 82203
333 10276 91114 95000=
30385 32599 81202 10202 20098 39491 49969 53015 85902 333
10306=
42189 31595 60502 10354 20244 49971 70500 333 10370 58017=
41744 32997 03105 10345 21056 48408 333 10395 58022=
61442 32958 02804 10274 20198 30108 40112
333 0//00 59010=
61497 31956 03604 10420 20136 3//// 4//// 706//
333 0//00 5////=
61415 32960 00212 10275 20154 30126 40131
333 0//00 59017=
61498 31940 03204 10406 20106 39954 40080 705//
333 0//00 59016=
40100 32558 32305 10258 20192 40082 50001 83200 912// 333
83826 92446=
42314 32596 43201 10334 20262 49985 82331 333 10353 57930
59019 82620 81925 84075=
63671 32682 71808 10334 20165 872//
333 87832=
83623 31996 60000 10208 20140 39588 40171 53024 71044 80004 333
20157=
83726 31993 60906 10188 20128 39234 40212 51027 70544 80001 333
20121=