ZCZC 000
SMCI10 BENJ 210600
AAXX 21061
81100 22274 02295 20202 318// 40603 5//// 80260=
71610 82352 22265 00290 20302 314// 40804 5//// 6//// 80260 ICE
/////=
60549 097047 095044 088042 090038 087037 098033=
50963 32980 02710 10139 21057 30140 40277 57032 333 21034=
54455 32975 20904 10185 20008 40300 57028 80002 333 20118=
59981 32580 70000 10317 20257 30071 40077 57022 84102 333//
20260=
54337 32980 00902 10186 21062 30222 40308 57031 333 20080=
59317 32570 70705 10303 20234 40104 57015 81142 333 20243=
59072 11675 83402 10262 20221 40120 57013 69921 78080 884//
333 20223=
50968 32980 02704 10141 21087 40294 57029 333 21031=
57584 11956 83606 10220 20177 40178 57012 69991 71060 8807/
333// 20199=
57866 11418 80403 10192 20189 39957 40160 57016 69951 76066
887// 333// 20181=
54662 32975 00202 10207 21029 30160 40279 57018 333 20158=
58921 32680 63604 10301 20209 39893 40127 57022 83140 333
20243=
58918 32680 73402 10314 20208 40113 57023 83240 333 20216=
50775 32970 02705 10124 21088 40248 57025 333 20010=
53975 11561 82901 10120 20114 40280 57008 60081 76066 8272/
333// 20109=
53787 11980 81103 10135 20064 40293 57006 69901 76060 8807/
333// 20077=
57245 11760 80402 10190 20155 39879 40221 57010 69901 76060
885// 333 00251 20181=
50745 32967 22203 10157 21081 30095 40277 57033 80002 333
21027=
50564 32970 40000 10136 21070 40243 57022 80002 333 21045=
50788 32970 03207 10132 21073 30146 40231 57024 333 20005=
50774 32970 02207 10128 21068 39955 40259 57029 333 21030=
50950 32970 12906 10145 21116 40294 57028 80001 333 21027=
50844 32962 02203 10159 21087 40290 57032 333 21001=
50349 32970 62004 10143 21094 40232 57026 80002 333 21072=
50877 32980 02906 10144 21081 40257 57029 333 21009=
50888 32680 13209 10129 21080 40243 57017 81100 333 20013=
50853 32970 12905 10147 21067 40281 57028 80002 333 21033=
57562 11463 80205 10209 20154 40200 57010 69901 70060 885//
333// 20179=
59417 32572 70903 10316 20217 39944 40091 57019 878// 333//
20238=
58549 32766 70902 10250 20172 40185 57015 8654/ 333 20213=
54339 32962 00405 10168 21044 40276 57027 333 20069=
59673 32568 70903 10297 20251 40088 57013 879// 333 20256=
59287 11467 81101 10255 20239 30062 40112 57014 60081 78088
889// 333 20240=
59087 11560 80702 10260 20235 40114 57012 69941 78080 884//
333 20238=
54471 32965 00404 10176 21026 30281 40298 57023 333 20080=
51828 32960 12701 10198 20062 38652 40140 57005 80002 333//
00754 20141=
50527 32970 62004 10138 21077 39531 40270 57031 80002 333//
21033=
54094 32970 03206 10138 21047 39984 40283 57021 333 21007=
57602 32662 12702 10289 20206 40126 57025 81100 333 20206=
88963 11460 83615 11015 21026 39730 49759 53008 69901 70232 886//
333 56899 88715 90125 92427 92821 95090
555 19759=
88968 32465 83216 11038 21050 39896 49911 57035 885//
333 56099 88618 92870 94065
555 19910 D/INV=
89034 32970 00000 11167 21257 39584 49912 52015=
89053 31956 02725 11011 21027 39754 49768 52004 71000
333 91130 92426 92801=
89055 31965 03424 11030 21040 39478 49718 58004 70130
333 90125 90325 92836
555 19706 53237=
89066 32960 80506 11035 21077 39598 49606 52008 8807/
333 56009 88370 92870 95000=
89054 32560 33316 11021 21030 49761 52008 81530
333 77770 81620 83357=
89056 32460 43217 11015 21024 49769 54001 84500
333 77700 84615=
89057 32960 03111 11010 21021 49764 54000=
89058 32962 03416 11018 21037 49767 54000=
89059 32460 83509 11016 21017 49754 54004 886//
333 71099 88717=
91334 31474 82509 10310 20243 30064 40067 57010 71622 83361 333
56669 70000 555 92106=
43105 60549 322025 310035 296025 282029 301032 285027=
52652 32770 43405 10176 20117 38506 40115 57004 81102 333//
00152 20101=
57522 32570 72003 10300 20171 40142 57014 86840 333 20224=
58944 32465 70209 10266 20216 40136 57014 87500 333 20254=
58933 32575 60904 10239 20179 40151 57014 86100 333 20189=
58737 32680 70204 10298 20209 40137 57017 87800 333 20224=
57972 11430 80000 10204 20195 39932 40151 57014 69911 76066
885// 333// 20185=
53782 32962 70901 10176 20082 40289 57010 83032 333// 20092=
55598 32780 20902 10201 20057 36648 57020 82200 333 00202
20087=
57034 11557 80000 10134 20130 40236 57015 60041 76160 8672/
333 20125=
57232 32970 81105 10191 20133 40221 57013 8807/ 333 20171=
53942 11/08 90000 10110 20104 40252 57013 60161 76164 333
20091=
58402 32970 80402 10258 20177 40193 57014 8807/ 333 20220=
59948 32578 72504 10319 20262 30072 40080 57015 83242 333//
20263=
56046 31580 10203 10124 20068 36336 57015 70040 81100 333
00201 20004=
56034 32580 51403 10138 20037 35991 57014 85900 333 00103
21045=
59462 11566 80202 10251 20228 40092 57011 60041 72588 884//
333 20234=
59294 11563 80203 10249 20233 30078 40122 57012 60051 78098
882// 333 20236=
59298 11461 80901 10248 20239 40110 57017 60261 78098 889//
333 20235=
59316 32475 30706 10309 20228 30097 40106 57016 81242 333
20246=
59493 11462 80405 10259 20233 40105 57013 60051 78080 889//
333 20248=
59501 11575 72501 10274 20254 30101 40117 57019 60141 70098
879// 333 20235=
59096 11680 70000 10293 20214 40114 57020 69991 70080 85442
333 20233=
56287 11558 80201 10217 20196 40158 57014 69911 71060 8217/
333 00102 20186=
57411 31557 30402 10280 20219 39784 40137 57021 71000 81102
333 20194=
53845 11567 80703 10126 20108 39143 40245 57009 60121 76166
8672/ 333 00152 20108=
59845 11565 72703 10262 20233 40083 57014 69961 79590 86902
333// 20240=
59849 32580 71401 10325 20226 40073 57027 87100 333// 20228=
59855 32575 72003 10321 20250 40076 57019 86102 333// 20247=
59838 32568 73603 10298 20222 30064 40078 57025 82462 333//
20258=
57016 11940 81102 10127 20116 40237 57015 60051 76066 8802/
333 20113=
54135 32980 02002 10162 21062 30087 40309 57033 333// 21005=
59037 32568 83403 10271 20210 39907 40104 57010 888// 333//
20261=
59626 32561 73401 10321 20226 40082 57016 872// 333// 20250=
59631 32560 70206 10306 20215 40087 57012 8644/ 333// 20257=
59058 11450 82903 10223 20209 40106 57012 60041 76066 885//
333// 20220=
59228 32565 82702 10296 20217 40099 57019 888// 333// 20235=
57947 11568 80406 10248 20189 40135 57012 69901 72160 888//
333// 20234=
59647 32560 70404 10308 20230 40079 57016 8114/ 333// 20263=
59644 32562 73607 10319 20225 30065 40080 57015 81292 333//
20266=
59453 11559 82701 10243 20228 40093 57009 60021 76060 888//
333// 20240=
59021 11558 83602 10257 20198 40122 57010 69901 76060 888//
333// 20196=
59254 11550 83201 10236 20227 40091 57011 60161 78080 889//
333// 20235=
59242 11558 83403 10229 20217 40109 57012 69991 76060 888//
333// 20225=
59446 11566 70405 10251 20212 40098 57004 69901 76000 878//
333// 20251=
59209 32568 33601 10286 20186 40104 57020 83200 333// 20194=
50442 32970 62903 10155 21072 40243 57030 80002 333 21078=
57494 11465 80202 10235 20172 30169 40197 57010 69901 70060
8177/ 333 20215=
54476 32963 03607 10183 21014 40298 57020 333 20080=
57713 32572 70403 10229 20170 40151 57014 878// 333// 00354
20197=
51431 32980 21602 10137 20055 39490 40279 57008 80002 333//
05105 20012=
50557 32970 12504 10150 21084 39959 40260 57028 80001 333
21057=
50136 32970 62004 10145 21009 39665 40196 57044 82032 333
21101=
50246 32980 62205 10152 21064 40217 57034 80002 333 21079=
50656 32978 23404 10130 21044 40273 57026 80002 333 21044=
50873 32970 03206 10137 21082 40246 57023 333 20003=
50862 32980 02904 10130 21104 40276 57032 333 21049=
50468 32975 42902 10138 21095 30034 40240 57025 80002 333
20003=
54096 32970 02705 10108 21104 40278 57020 333 21007=
50658 32980 22703 10135 21089 40267 57030 80002 333 21034=
57916 32670 80902 10290 20191 40122 57018 888// 333// 20205=
57655 11440 80702 10198 20177 40183 57008 60011 76060 8272/
333// 20188=
57671 11960 83605 10197 20171 40180 57013 69901 72160 8802/
333// 20182=
57776 11/00 90205 10158 20158 40169 57007 69931 74564 333//
20127=
57780 11561 73405 10240 20197 40165 57015 69901 70060 8213/
333// 20189=
57872 32765 80401 10240 20197 40155 57014 885// 333// 20193=
59954 11568 61803 10304 20264 40075 57021 69921 78000 86200
333// 20248=
53463 32980 02003 10228 21015 39027 40225 57026 333// 00100
20073=
57461 11462 81602 10207 20175 30059 40217 57012 69901 76060
8377/ 333 20190=
54326 32980 00702 10176 21002 40299 57023 333 20060=
54365 32975 00903 10173 21018 40301 57025 333 20029=
54335 32980 03405 10168 21052 40308 57030 333 20044=
57806 32575 30903 10232 20147 40129 57017 83800 333// 20164=
58606 32562 73604 10248 20199 30117 40170 57011 878// 333//
20222=
58813 32570 70203 10290 20220 40138 57015 8216/ 333// 20229=
54736 32978 20905 10222 20101 40282 57011 80002 333// 20143=
57774 11762 83602 10209 20179 40167 57006 69911 70060 885//
333// 20183=
57874 11758 82502 10202 20193 40154 57016 60011 71060 885//
333// 20182=
56386 11858 80000 10217 20192 40153 57010 69911 71060 885//
333 00201 20192=
53915 11565 80902 10093 20085 38707 40232 57011 60011 76066
8572/ 333// 05151 20080=
54774 32980 03606 10202 20081 40268 57009 333// 20195=
58457 32570 70204 10265 20137 30143 40193 57018 82242 333
20217=
58543 32680 70404 10247 20159 40195 57014 8114/ 333 20213=
58556 32670 70206 10266 20182 40185 57015 87102 333 20194=
58562 11570 63603 10261 20154 40189 57012 69901 70080 85101
333 20229=
58633 32565 70707 10256 20162 30084 40180 57015 87840 333
20207=
58646 32665 80401 10247 20186 40179 57013 885// 333 20216=
58647 32672 80703 10245 20181 40177 57013 885// 333 20223=
58666 32470 33612 10251 20196 30069 40167 57013 81140 333
20229 91119 91536=
58667 32580 60410 10266 20175 40158 57019 86800 333 20218=
58752 32575 70702 10271 20171 30121 40165 57018 878// 333
20231=
58141 11572 70406 10261 20142 30215 40232 57013 69901 70060
82142 333 20172=
58251 32575 40407 10260 20121 30215 40221 57012 81140 333
20175=
58358 32580 50406 10272 20134 40197 57021 85200 333 20208=
58259 32580 10409 10266 20117 40208 57015 81100 333 20207=
51467 32680 62202 10165 21017 38282 57018 84402 333// 00452
20066=
51855 32962 02902 10220 20058 40125 54000 333// 00600 20112=
57127 11563 80702 10177 20152 39611 40202 57010 69951 76060
8172/ 333 20165=
56188 11556 80000 10183 20178 40161 57014 60071 76066 885//
333 00251 20177=
57237 32975 80205 10212 20144 40186 57010 8807/ 333 20159=
57608 32570 13404 10294 20205 40119 57026 81100 333 20212=
50756 32970 12905 10135 21108 39982 40278 57025 80002 333
21025=
50983 32670 12905 10129 21049 40248 57021 81100 333 21008=
50953 32970 02704 10151 21063 30109 40290 57028 333 21012=
50353 32970 32501 10148 21110 30009 40229 57018 80002 333
21017=
50978 32980 02908 10130 21069 39971 40264 57023 333 20000=
50758 32970 12504 10136 21119 40299 57033 80002 333 21050=
54602 32575 60204 10229 20126 40283 57026 85102 333// 20140=
51133 32680 31803 10154 20026 39633 40272 57008 83200 333//
00207 20047=
54623 32575 10908 10196 20079 40301 57009 81102 333 20170=
59278 11459 80707 10246 20239 40101 57009 60041 78080 889//
333 20233=
59271 11460 82201 10246 20237 40106 57007 60541 78088 889//
333 20230=
59658 32568 73605 10303 20236 40083 57010 878// 333 20265=
57483 11968 83603 10214 20174 30161 40203 57012 69911 72160
8807/ 333 20196=
57006 11565 80701 10106 20093 40214 57017 60021 76066 8772/
333// 05151 20088=
56096 11578 70000 10160 20135 38952 40164 57017 69901 70060
875// 333// 05200 20136=
52418 32965 70403 10223 20109 38843 40089 57004 85042 333//
00451 20125=
52546 32865 72903 10163 20107 40118 57008 875// 333// 00152
20076=
53821 11470 81402 10104 20098 40219 57012 60091 76166 8572/
333// 05152 20099=
56074 32580 22203 10159 20071 36723 57014 82200 333// 00103
20033=
52895 32680 21402 10194 20116 40127 57019 81140 333// 05201
20134=
57816 11658 80903 10183 20171 38807 40149 57012 69951 76060
885// 333// 00356 20178=
59758 31578 70202 10318 20227 30059 40079 57013 71700 879//
333// 20260=
57649 11460 80000 10204 20182 40185 57011 60041 76066 8272/
333// 20192=
57051 11557 80901 10141 20128 40273 57009 60011 76060 8272/
333// 20127=
57067 31950 80702 10151 20126 39587 40255 57006 71000 8807/
333// 20134=
57071 11530 80905 10144 20137 40271 57009 69951 76060 8772/
333// 20132=
57290 11960 80404 10209 20156 40240 57009 69961 70060 8802/
333// 20159=
54351 32980 03602 10165 21053 40308 57028 333// 20011=
57766 11762 83603 10205 20171 40170 57013 60011 70060 885//
333// 20186=
55591 32680 22703 10188 20046 36573 57017 82200 333 00200
20084=
55585 32780 10000 10193 20072 36436 57012 81100 333 00200
20065=
55493 32780 52902 10142 20073 36092 57011 85200 333 00200
20020=
56964 11480 72502 10234 20189 38700 40102 57014 60061 72580
86962 333// 00200 20186=
57476 11960 83603 10194 20166 40208 57011 69901 76060 8807/
333 20183=
57832 11472 80404 10176 20166 40178 57012 60071 76066 887//
333// 20171=
57504 31950 71601 10273 20208 40129 57022 71000 87040 333
00204 20205=
54534 32980 20903 10208 20008 40300 57016 80002 333// 20144=
51705 32780 10401 10149 21040 37863 57007 81100 333// 00400
20079=
51811 32965 02702 10218 20080 38793 40144 57008 333// 00500
20127=
51818 32968 10904 10206 20071 40143 57011 80002 333// 00653
20118=
51628 11780 72702 10210 20043 40147 57001 69901 78080 87902
333// 00402 20133=
51573 31945 01401 10258 20074 30115 40156 57007 70600 333//
00755 20195=
54259 32980 00902 10154 21060 40312 57024 333 20005=
54236 32980 11104 10165 21043 30208 40312 57025 80002 333
20034=
54324 32975 10702 10185 21032 40301 57032 80002 333 20077=
54333 32970 00502 10167 21063 40307 57029 333 20038=
54497 32980 00207 10200 21050 30253 40268 57020 333 20106=
57355 32970 80405 10215 20156 40192 57017 8807/ 333 20179=
54157 32970 00202 10159 21060 40310 57030 333// 20018=
59134 32578 40206 10293 20204 39958 40116 57019 83140 333
20216=
59126 32678 71103 10316 20212 40120 57023 86442 333 20222=
54218 32980 00902 10193 20011 39614 40287 57032 333// 20028=
56691 11467 71801 10176 20133 37819 57010 69901 70060 8764/
333// 00252 20138=
57378 11958 83406 10186 20166 40219 57012 69901 76060 8807/
333 20169=
56080 11580 10201 10169 20083 37185 57017 69901 70060 81200
333 00004 20081=
54511 32580 21604 10220 20047 30255 40294 57020 82100 333
20131=
53399 32980 01807 10184 20011 40259 57015 333// 20054=
59046 11565 83203 10236 20209 40113 57019 60021 70060 888//
333// 20225=
57447 11980 70202 10266 20161 39648 40165 57020 69901 70060
8703/ 333 20212=
57853 11456 83402 10184 20174 40172 57018 60021 76066 8772/
333// 20179=
57682 32980 80401 10256 20191 40161 57011 8807/ 333// 20206=
58407 11665 80703 10256 20159 40187 57016 69931 70060 8357/
333 20226=
56565 11580 72701 10174 20133 37531 57013 69901 78080 879//
333 00201 20130=
56479 11468 71402 10188 20164 37970 57009 60051 78086 874//
333 00251 20147=
56485 11575 80000 10210 20171 40143 57011 69901 70060 8547/
333 00200 20174=
56459 32780 71603 10217 20140 37671 57017 8694/ 333 00103
20142=
56671 11780 71601 10233 20155 38232 57016 69901 70080 8644/
333 00201 20169=
57313 32580 70402 10277 20187 40141 57022 8114/ 333// 00201
20199=
56193 11557 80000 10162 20159 40181 57013 60041 76066 8242/
333 00151 20150=
56475 32580 70000 10241 20167 38341 57024 874// 333 00102
20170=
58472 32480 40211 10252 20169 30088 40182 57014 84100 333
20228 91117 91502=
58477 32580 70404 10260 20159 30137 40180 57015 82142 333
20222=
58665 32575 73405 10260 20180 40169 57015 8114/ 333 20219=
58660 32980 73203 10248 20176 40181 57008 8707/ 333 20215=
58820 32672 70902 10282 20206 40134 57017 875// 333 20224=
58731 32680 43204 10273 20183 40160 57014 82140 333 20208=
58847 32580 60907 10281 20187 30041 40139 57023 86400 333
20248=
58725 32680 70903 10292 20203 39890 40140 57016 878// 333
20229=
59133 32565 20410 10278 20209 40121 57011 82100 333 20254
91119 91504=
58846 32675 11404 10282 20202 40149 57019 81140 333 20236=
58730 32680 70704 10285 20191 40148 57013 86240 333 20230=
58754 32574 60404 10278 20194 40158 57016 86500 333 20225=
58926 32780 72501 10323 20218 40113 57024 86140 333 20220=
59321 32580 20412 10289 20231 40113 57018 81142 333 20237
91119 91504=
54012 32980 01802 10187 21057 39116 40275 57025 333// 21055=
54208 32980 02203 10219 20003 38845 40243 57025 333// 20013=
53195 32980 01603 10212 21015 40241 57016 333// 20058=
53192 32980 01402 10199 21052 38978 40264 57025 333// 20015=
50915 32980 02003 10171 21129 39286 40277 57033 333// 21045=
57259 11562 80704 10163 20141 40233 57014 69931 72160 8277/
333 20151=
56043 31580 22003 10144 20072 36515 57022 70040 82100 333
00200 20002=
52765 32580 10701 10176 20083 37208 57025 81100 333 00001
20023=
52754 32580 21802 10156 20047 36847 57013 82100 333 00100
20030=
56033 31580 12002 10116 20021 36101 57009 70040 81200 333
00200 21008=
52943 32580 71403 10122 20090 36852 57016 878// 333 00253
20036=
58027 32967 70905 10245 20099 30192 40242 57015 8704/ 333
20171=
53588 32480 50907 10079 20027 37906 57006 82102 333 20040=
58321 11960 80903 10236 20167 40215 57019 69901 70060 8807/
333// 20185=
58424 32965 80408 10247 20150 30168 40191 57020 8807/ 333//
20218=
58221 32662 70704 10262 20131 30190 40224 57019 8214/ 333//
20178=
58326 11970 70404 10257 20162 40209 57020 69991 70060 8707/
333// 20198=
58236 32670 70906 10263 20134 40213 57019 82140 333// 20180=
58203 11965 80704 10239 20143 30182 40227 57016 69901 76060
8807/ 333// 20188=
58531 11775 83605 10246 20173 40188 57011 69901 70060 8357/
333// 20202=
58122 32980 60703 10254 20100 40233 57015 86040 333// 20179=
58102 32965 80204 10229 20138 30188 40238 57017 8807/ 333//
20177=
58015 11975 70203 10228 20149 40247 57016 69901 70060 8707/
333// 20169=
58314 11970 80202 10221 20145 30132 40218 57020 69901 70060
8807/ 333// 20191=
58436 32670 73604 10254 20129 40198 57022 8117/ 333// 20204=
58338 32663 70404 10254 20163 40203 57020 8614/ 333// 20202=
57458 32662 83203 10195 20153 40201 57013 885// 333 00454
20175=
54454 32980 00403 10178 20033 40315 57027 333 20111=
57825 11468 80000 10182 20168 40170 57010 60011 76060 887//
333// 20181=
58527 11680 70405 10257 20167 30096 40169 57014 60011 70060
8654/ 333// 20205=
57993 11670 70402 10297 20235 39961 40119 57020 69921 72100
8784/ 333// 20241=
58608 32960 80403 10251 20197 40165 57009 8807/ 333// 20222=
57894 11308 80000 10193 20191 40166 57010 69901 76064 887//
333// 20187=
57896 11662 83201 10239 20215 40144 57014 69901 70060 885//
333// 20220=
53754 11661 81603 10115 20106 40261 57006 60051 76160 8272/
333 20109=
53740 11662 81404 10110 20095 40250 57008 60041 76060 8252/
333 20088=
57046 11/40 81403 10095 20080 38011 57010 69901 74064 885//
333 00100 20079=
57144 32975 80000 10163 20146 40228 57011 8807/ 333 20150=
53929 11562 81803 10099 20097 40234 57016 60121 76166 8772/
333 20085=
53738 11468 81102 10111 20102 40232 57013 60141 76066 8672/
333 20101=
57106 11463 80902 10154 20135 40197 57014 69981 76066 8372/
333 05102 20128=
57134 11465 80000 10151 20141 40213 57009 60021 76060 8657/
333 00252 20144=
56666 11465 80000 10230 20204 40117 57018 60061 76086 885//
333 00202 20193=
56294 11958 83603 10197 20180 39580 40166 57015 69901 71060
8807/ 333 00201 20189=
57405 32580 41401 10282 20209 40138 57024 81140 333 20199=
56385 31/03 90000 10139 20123 37078 57010 74444 333 00105
20092=
56571 11680 52201 10240 20166 38421 57016 69901 70060 83440
333 00102 20184=
57306 11964 70000 10260 20206 40151 57020 69931 70060 8703/
333 20192=
57328 32670 71104 10307 20186 39748 40137 57019 8214/ 333
20203=
57206 11760 80000 10183 20163 40163 57014 60011 72160 885//
333 20174=
53513 32770 61804 10218 20012 39025 40191 57023 86500 333//
05201 20101=
54102 32980 03201 10200 21022 39112 40246 57025 333// 20011=
59211 32562 71601 10311 20229 39900 40100 57022 8224/ 333//
20237=
59632 32569 73604 10296 20218 40091 57011 8214/ 333// 20264=
59065 11457 82701 10225 20213 40113 57005 60061 78086 884//
333// 20221=
59023 11580 80000 10259 20193 39879 40119 57009 69901 72160
888// 333// 20257=
59265 11320 80000 10233 20230 39963 40097 57003 60081 76060
887// 333// 20218=
53882 11940 80203 10113 20102 40286 57007 60061 76166 8802/
333// 20091=
53487 32975 01606 10214 20027 40248 57019 333// 20056=
53863 11950 82202 10124 20115 40285 57008 60021 76160 8802/
333// 20113=
53663 32980 21604 10195 21040 40231 57016 80002 333// 20038=
53853 11561 80000 10114 20099 40268 57003 60061 76166 8372/
333// 20098=
53959 11560 80405 10147 20136 39808 40255 57011 60021 76066
8772/ 333// 20128=
53478 32980 01105 10188 21041 40256 57015 333// 20019=
53764 11970 80704 10130 20047 40272 57003 69931 76060 8802/
333// 20094=
53664 32970 71604 10177 21072 40238 57009 8213/ 333// 20075=
53673 32980 71804 10197 20049 40266 57013 80002 333// 20091=
54401 32962 01603 10230 20092 39426 40258 57022 333// 20110=
54776 32980 03613 10190 20105 30197 40252 57011 333// 20187
91119 91536=
58362 32580 20405 10262 20151 30186 40196 57015 82100 333//
20225=
54606 31565 50705 10247 20110 40279 57016 70040 82102 333//
20105=
57906 32570 72001 10289 20190 40116 57024 878// 333// 20198=
58238 32566 70705 10258 20138 30198 40207 57019 8424/ 333
20198=
58343 32565 50706 10262 20135 40210 57015 84242 333 20199=
58138 32570 60407 10255 20149 40224 57013 82140 333 20178=
58265 32580 20207 10264 20131 30197 40208 57013 81102 333
20228=
58241 32580 20407 10272 20133 40221 57014 82100 333 20180=
58040 32665 80705 10236 20165 30243 40247 57004 8157/ 333
20173=
57662 11458 83603 10202 20159 30158 40199 57010 69901 76060
887// 333// 20180=
56146 32780 40901 10190 20079 36786 57019 84900 333 00102
20105=
56247 32780 40000 10191 20104 37461 57029 82142 333 00453
20117=
56462 11580 71604 10183 20100 37177 57020 69901 78000 87402
333 00251 20117=
56167 11580 73204 10130 20102 37144 57010 69971 78080 874//
333 00357 20119=
56144 32780 22201 10216 20080 36901 57034 82100 333 00003
20078=
56257 11580 71603 10104 20070 36350 57012 60031 78086 879//
333 00252 20067=
58760 32580 20407 10268 20180 40160 57014 82202 333 20228=
58464 32575 60403 10261 20170 40194 57016 82142 333 20192=
58569 32575 40706 10247 20190 40172 57014 84130 333 20212=
57265 11320 82902 10175 20162 30128 40236 57012 60041 76060
8772/ 333 20163=
57803 32578 60401 10237 20164 40136 52028 85230 333// 20182=
57279 11961 83604 10207 20159 40228 57012 69901 76066 8807/
333 20172=
57996 32680 70402 10308 20212 40111 57023 85240 333 20243=
59293 11565 83201 10286 20234 30064 40111 57018 60011 70080
8617/ 333 20236=
59303 11570 72204 10308 20226 40109 57017 69901 78000 879//
333 20233=
59754 32470 70902 10319 20247 40075 57016 85242 333 20236=
59456 11575 73401 10254 20226 40089 57012 60011 72588 874//
333 20239=
53502 32965 01106 10215 20088 40154 57019 333// 05301 20120=
52495 32962 00908 10191 20076 38699 40158 57017 333// 05201
20105 91119 91509=
52576 32780 30906 10160 20090 38489 57001 82502 333// 05203
20092 91121 91514=
52267 32980 71104 10233 20084 39083 40127 57024 80002 333//
05201 20131=
53602 32680 13402 10173 20098 38455 57012 81102 333// 20092=
50742 32968 12504 10154 21082 40275 57027 80001 333 21008=
54346 32970 00402 10175 21055 40294 57027 333 20063=
54237 32980 00903 10172 21058 40309 57032 333 20035=
54342 32970 00704 10170 21032 30243 40304 57029 333 20065=
54579 32980 03605 10199 20128 40273 57020 333 20156=
54584 32970 03605 10211 21060 40269 57020 333 20126=
54493 32974 00904 10192 21032 40281 57021 333 20072=
54563 32980 03604 10213 21032 40269 57026 333 20127=
57957 11566 70204 10236 20191 39936 40128 57020 69941 72160
8314/ 333// 20213=
54115 32980 00903 10152 21055 40302 57025 333// 21015=
54134 32970 01804 10170 21061 40312 57031 333// 20006=
54226 32980 00000 10168 21029 40307 57031 333// 20005=
54027 32980 02002 10173 21067 39717 40300 57032 333// 21005=
54026 32980 01803 10172 21037 39973 40296 57031 333// 20019=
50727 32980 52504 10134 21116 39081 40306 57024 80001 333//
21104=
50834 32980 20702 10149 21104 40289 57033 80001 333// 21060=
54213 32980 00701 10179 21022 40298 57027 333// 20007=
50632 32980 72203 10141 21071 39383 40274 57029 80002 333//
21074=
50548 32980 22501 10164 21074 40260 57032 80002 333// 21070=
50425 32980 72506 10144 21063 40257 57033 81032 333// 21054=
50434 32980 52905 10127 21034 39380 40270 57035 80002 333//
21109=
50514 32980 11810 10160 21057 40233 57033 80001 333// 21030
91119 91520=
50603 32980 02210 10185 21069 39569 40229 57042 333// 20002=
53543 32978 01409 10178 21076 38601 40207 57019 333// 20100=
53898 11462 80203 10182 20157 40287 57006 69931 76066 8272/
333// 20156=
57091 11556 80404 10162 20155 40266 57013 69951 76066 8772/
333// 20152=
57156 11760 82002 10180 20148 40249 57002 69901 76060 885//
333// 20170=
57181 11962 80405 10178 20132 40259 57012 69911 72160 8807/
333// 20167=
57297 11465 80903 10209 20158 30089 40225 57007 60011 76060
8377/ 333// 20174=
58208 11972 81403 10215 20169 40227 57014 69901 76060 8807/
333// 20190=
54725 32965 20707 10247 20071 40273 57016 80002 333// 20103=
54843 32975 60204 10251 20099 30232 40259 57014 80002 333//
20109=
54916 32960 70403 10250 20114 40264 57016 8703/ 333// 20164=
54823 31957 80906 10241 20107 30063 40264 57014 70400 80007
333 20129=
54751 32980 10407 10198 20044 40274 57013 80001 333// 20189=
54909 11962 80204 10183 20165 30200 40262 57010 69931 76060
8807/ 333// 20156=
54852 32980 43607 10239 20050 40257 57013 80002 333// 20136=
54836 32968 70405 10224 20103 40266 57015 80002 333 20124=
54826 32975 70905 10117 20069 38570 52005 83042 333// 20074=
54824 32962 70404 10242 20101 40265 57017 80002 333// 20121=
54753 32980 00407 10208 20065 30262 40268 57014 333// 20139=
54715 31970 60704 10244 20119 40266 57016 70040 80002 333//
20102=
59985 32580 53202 10319 20254 30070 40075 57020 81102 333//
20252=
53923 11580 81603 10088 20084 40234 57015 60121 76066 8772/
333// 20079=
56152 32780 60902 10159 20040 36381 57015 86200 333 00202
20066=
56357 11680 81802 10103 20061 36518 57009 69911 78000 889//
333 00355 20082=
56038 31680 71802 10140 20038 36165 57016 71700 87902 333
00101 21019=
56374 32580 71404 10181 20129 37459 57023 86440 333 00100
20117=
56251 11680 73601 10175 20099 37000 57025 60061 70080 874//
333 00253 20101=
56196 11670 82901 10222 20185 40161 57014 69911 70060 8141/
333 00203 20182=
57965 11761 80202 10212 20193 40142 57012 69991 70060 885//
333// 20199=
57554 32664 80403 10220 20161 40191 57010 885// 333// 20200=
57922 11459 83603 10183 20174 40154 57015 60011 76060 887//
333// 20183=
58345 32965 70705 10264 20168 40208 57020 87040 333 20200=
58150 11575 60206 10255 20157 30225 40233 57004 69901 70060
81142 333 20185=
56444 11680 72701 10170 20088 36851 57015 69911 72580 87900
333// 00251 20108=
56533 32780 61603 10279 20197 38388 57028 86200 333// 00202
20186=
56543 11680 70702 10162 20095 36895 57015 69901 70080 879//
333// 00353 20104=
56548 11680 72202 10210 20142 37715 57015 69901 70080 874//
333// 00353 20152=
56586 11662 71801 10215 20145 38076 57018 69901 70060 878//
333// 00253 20158=
56651 11468 70903 10157 20149 37663 57008 60041 78080 879//
333// 00201 20135=
56664 11580 71402 10239 20188 40122 57022 60091 70080 87900
333// 00104 20187=
56684 32580 52504 10210 20141 37923 57016 83130 333// 00201
20154=
56739 11472 80000 10186 20172 38353 57011 60061 78080 889//
333// 00255 20174=
56741 11480 72202 10225 20176 38200 57020 60011 70060 8394/
333// 00251 20170=
56748 11580 72202 10201 20177 38359 57011 69931 78080 86942
333// 00354 20169=
56751 11680 61104 10222 20155 38038 57017 60041 70080 84940
333// 00201 20155=
56768 11680 71401 10224 20171 38242 57018 69921 70080 8794/
333// 00200 20171=
56778 32562 71402 10223 20149 38125 57017 87440 333// 00104
20165=
56786 32560 70902 10217 20140 38139 57013 872// 333// 00353
20154=
56838 11667 70701 10250 20210 40101 57015 69911 78080 86402
333// 00253 20217=
56856 11680 71603 10266 20191 40100 57023 69911 70098 86960
333// 00200 20187=
56875 11680 72001 10238 20165 38374 57018 69901 70080 872//
333// 00251 20184=
56886 11670 81802 10218 20144 38312 57018 69951 70080 884//
333// 00351 20165=
56951 11680 71105 10237 20165 38498 57020 69971 78080 879//
333// 00252 20175=
56954 11580 72903 10235 20193 40103 57018 69901 78080 85962
333// 00254 20212=
56959 11775 71802 10250 20218 40091 57020 69921 78080 87900
333// 00254 20218=
56966 11680 23401 10313 20208 40075 57030 69901 70080 82940
333// 00353 20231=
56969 11580 70000 10240 20227 40096 57017 60051 79580 87900
333// 00355 20220=
56977 11580 71101 10258 20203 40102 57020 60081 70080 86960
333// 00200 20196=
56985 32562 61801 10244 20162 38696 40096 57021 85902 333//
00253 20195=
56986 32575 21104 10224 20179 40112 57019 82100 333// 00200
20174=
56994 32570 71101 10271 20168 40096 57024 879// 333// 00200
20186=
59007 32575 60404 10256 20162 40113 57018 86400 333// 20187=
56946 11570 70901 10238 20193 40097 57020 60151 72580 8746/
333// 00354 20192=
53519 11762 81407 10133 20117 40212 57021 69901 76060 8652/
333 20092=
53614 11765 80902 10137 20114 38944 40199 57022 69911 70086
8357/ 333 05251 20120=
53615 11770 81804 10144 20108 40202 57019 69901 70060 8152/
333 20101=
53705 32780 71606 10154 20098 40176 57019 8553/ 333 05251
20111=
53723 11563 81104 10117 20106 38702 40214 57012 69971 76066
8372/ 333 05151 20097=
53806 32770 80903 10090 20083 38169 57013 885// 333 20069=
53810 32980 81606 10130 20089 40185 57016 8807/ 333 20101=
53817 11568 81405 10079 20067 38274 57015 69931 72166 8372/
333 20070=
53903 11680 81804 10100 20089 38105 57012 69941 70060 885//
333 20074=
53798 32960 70701 10214 20126 30187 40280 57015 8703/ 333//
20139=
54857 32980 20704 10255 20074 30157 40246 57015 80002 333//
20165=
59218 32575 63402 10278 20181 40100 57016 81140 333// 20203=
57516 31750 71402 10301 20201 39834 40129 57020 71000 875//
333 00453 20230=
57348 32775 71105 10244 20142 40172 57012 875// 333 20212=
57432 32880 83203 10294 20168 40142 57017 885// 333 20247=
57426 32775 80703 10278 20167 40144 57013 885// 333 00454
20200=
57633 11460 80000 10197 20165 39424 40180 57014 69901 76060
887// 333 00355 20183=
58931 31280 70908 10170 20159 38382 57006 70040 8713/ 333
20156 91123 91509=
58911 32680 70702 10280 20210 40126 57017 874// 333 20216=
53480 32980 01405 10195 21002 40253 57014 333// 20035=
55696 31680 61403 10150 20041 36403 57016 71400 84340 333
00100 20074=
55690 11480 71607 10090 20034 36060 57006 69901 78000 86942
333 00251 20021=
56307 32780 51105 10194 20074 36892 57020 84940 333 00151
20112=
55681 32780 60403 10134 20030 35975 57012 86202 333 00202
20028=
53446 32973 01105 10223 20022 40215 57022 333// 20084=
54808 32961 73602 10214 20150 40271 57008 8704/ 333 20150=
58834 32675 52901 10301 20207 40134 57023 85800 333 20236=
57932 11280 80000 10212 20201 40151 57013 60061 72166 885//
333// 20206=
57902 32568 50402 10250 20155 38644 40124 57015 85100 333//
00205 20172=
57583 11865 70203 10244 20179 40189 57013 69901 70060 875//
333 20224=
59082 11673 72503 10281 20236 30039 40113 57020 69911 72580
8444/ 333 20250=
59663 11461 83602 10262 20251 30059 40086 57012 60201 78100
889// 333 20257=
59117 32580 50703 10329 20220 30001 40102 57022 84102 333
20239=
59431 32570 73602 10296 20214 39949 40093 57016 8214/ 333//
20226=
58715 32580 73204 10288 20211 40144 57019 8214/ 333// 20217=
57793 32762 80403 10249 20195 40165 57012 885// 333// 20214=
58626 11575 40705 10295 20184 40152 57016 69901 70060 81140
333// 20227=
59102 32580 70402 10311 20212 40109 57021 86201 333// 20213=
58506 11/00 90410 10137 20137 40194 57015 69971 74564 333//
20115 91120 91504=
57799 32778 83405 10273 20217 30060 40141 57015 885// 333//
20220=
58634 32562 70407 10263 20167 40175 57012 8214/ 333// 20209=
58519 11975 70205 10270 20181 40170 57012 69901 70060 8704/
333// 20227=
50854 32970 02904 10141 21077 40295 57025 333 21017=
52378 32980 01804 10253 20080 40132 57028 333// 05202 20107=
57037 11550 80403 10132 20121 40239 57015 60041 76166 8672/
333 00002 20105=
57251 11440 81802 10164 20156 40246 57009 60011 76066 8177/
333 20161=
58467 32566 70406 10264 20195 40188 57012 84102 333 20215=
51765 32980 01104 10250 20037 39179 40122 57007 333// 00752
20129=
51777 32970 60704 10231 20063 39129 40112 57007 82032 333//
00853 20161=
51656 32780 10903 10252 20042 39095 40118 57004 81100 333//
00500 20205=
52118 32680 73405 10135 20012 38307 57007 81102 333// 00353
20070=
51437 32680 60000 10075 20021 38217 57002 81102 333// 00207
21004=
51495 32680 73422 10164 20004 40248 57013 85842 333// 00561
20133 91132 91536=
57545 32764 82201 10237 20165 40167 57017 8757/ 333 20205=
57731 11475 82902 10212 20189 40162 57011 69931 76000 885//
333// 20207=
57077 11456 80902 10132 20121 40266 57009 69971 76160 8672/
333// 20121=
57089 11658 80205 10182 20142 40256 57008 69901 76000 885//
333// 20160=
58005 11960 80402 10192 20160 40250 57010 69901 70060 8802/
333// 20160=
54945 32980 70906 10234 20154 40255 57010 80002 333// 20164=
53698 32665 71802 10233 20118 40281 57019 85102 333// 20132=
54423 32980 11603 10214 20045 39833 40289 57026 80002 333//
20083=
59664 11670 80902 10283 20248 40091 57011 69901 70080 884//
333 20244=
56763 32680 71601 10248 20201 40092 57022 874// 333// 00104
20200=
57598 32562 80403 10225 20181 40185 57006 888// 333// 20216=
52984 32580 20000 10203 20123 38074 57022 82100 333// 05205
20107=
52679 11662 80901 10147 20109 38472 57012 69901 70050 8652/
333// 05102 20106=
52424 32970 71107 10201 20070 40095 57015 81042 333// 00352
20139=
52986 32680 20703 10203 20121 38113 57024 82100 333// 05205
20106=
52681 32680 71405 10181 20100 38634 40137 57020 82142 333//
05202 20100=
56093 32580 21103 10178 20127 37713 57025 81102 333// 05205
20091=
52661 32780 12705 10191 20114 38219 57004 81100 333// 00000
20102=
51701 32580 10703 10007 21075 36691 52002 81402 333// 00202
21055=
51716 11968 62502 10219 20094 38908 40135 57005 69901 70080
82062 333// 00551 20139=
51839 31940 02707 10211 20056 40132 52003 70730 333// 00653
20126=
51709 32780 12502 10213 20039 38734 40144 57008 81100 333//
00400 20135=
51931 32965 03203 10201 20072 40143 57009 333// 00753 20134=
57669 11440 81101 10188 20177 40197 57009 69981 76066 887//
333 20175=
56079 11780 32902 10148 20073 36749 57013 69901 70060 83100
333 00101 20076=
56173 32680 22202 10163 20082 36702 57018 82100 333 00103
20071=
56182 11680 71803 10164 20096 37247 57018 60051 70060 878//
333 00251 20110=
56178 11780 72703 10210 20132 37689 57020 69901 78000 82102
333 00251 20154=
56172 11680 71401 10167 20122 37391 57025 60131 72166 87800
333 00300 20111=
57707 32665 31104 10251 20137 38513 57019 83100 333// 00202
20164=
57385 11480 80705 10218 20134 40209 57008 69901 70060 8757/
333 20179=
52787 31580 10206 10159 20028 37065 57006 70040 81100 333
00007 20036=
52996 11/02 91406 10080 20080 37600 57011 69921 74264 333
05102 20048=
52446 32980 30903 10196 20110 40125 57017 80002 333 00051
20110=
52323 32980 20207 10166 20040 38252 57013 80002 333 00101
20062=
52889 32580 11102 20229 20125 38469 40095 59025 81100 333
05305 20133=
54254 32970 00202 10166 21031 40312 57029 333 20019=
54486 32972 00203 10207 21070 40277 57029 333 20073=
58215 11662 80404 10247 20170 40229 57016 69901 70060 8357/
333// 20187=
57399 32962 83404 10235 20154 40206 57007 8807/ 333 20215=
52533 32980 80403 10137 20094 38520 40153 57013 8807/ 333//
00003 20068=
53352 32980 01607 10212 21075 40214 57020 333// 20055=
53868 11957 83401 10132 20121 40270 57013 60071 76166 8802/
333 20119=
54311 32980 01404 10187 20056 40278 57026 333// 20042=
54518 32762 21104 10228 20113 40298 57013 82500 333// 20139=
57083 11457 80201 10156 20141 30142 40277 57008 69961 76060
8672/ 333// 20153=
57193 32768 83604 10201 20145 40245 57015 8257/ 333// 20163=
53149 32980 01806 10240 21086 38839 40189 57026 333// 05101
20093=
53068 32980 01403 10230 21044 39125 40219 57031 333// 00252
20046=
53276 32980 01603 10243 21057 38937 40222 57019 333// 20062=
53362 32980 01805 10210 21017 40215 57020 333// 20060=
53336 32980 01808 10211 21008 38768 40193 57023 333// 05200
20075=
53529 11568 81406 10111 20089 38675 40229 57014 69981 70060
8672/ 333// 05155 20074=
53391 32980 02004 10200 20018 38602 40232 57016 333// 00200
20065=
53083 32980 01804 10191 21094 40262 57022 333// 00200 20011=
53231 31958 01616 10198 20013 38517 57013 70730 333// 05351
20127 91126 91516=
51076 32680 52703 10120 21024 39411 40283 57010 82162 333
00901 20007=
51087 32680 72904 10109 20030 39325 40279 57008 81102 333
01056 20043=
51463 32768 73603 10092 20061 39187 40282 57004 875// 333
00756 20065=
51053 32680 20000 10133 21001 40291 57009 81162 333 00701
20016=
51379 32670 72903 10127 20060 40273 57009 871// 333 01057
20084=
51068 32680 72202 10139 20043 40288 57010 81962 333 00951
20031=
51477 32670 73207 10117 20031 40245 57007 82502 333 00756
20069=
57606 32575 70404 10222 20164 40150 57013 875// 333// 20183=
53564 32980 21804 10250 21023 39232 40210 57024 82032 333//
00102 20063=
53963 11850 83603 10127 20122 40274 57006 60121 76166 8802/
333// 20112=
53772 32670 71105 10191 20071 39373 40274 57013 8314/ 333//
20083=
54527 32670 20904 10213 20098 40300 57013 82100 333 20146=
52707 32670 62705 10216 20001 37250 57018 81102 333 05251
20052=
52876 32570 20703 10201 20130 38177 57024 82100 333 05203
20115=
54363 32970 00201 10155 21068 40297 57024 333// 20018=
54287 32975 03204 11027 21085 37457 52003 333// 21124=
54171 32980 00000 10146 21049 40305 57029 333// 21039=
54292 32980 02706 10151 21090 30057 40276 57032 333// 20008=
54195 32975 02903 10144 21072 40283 57024 333// 21016=
54041 32970 02704 10172 21022 40301 57032 333// 21011=
54142 32970 02501 10168 21094 40301 57030 333// 21015=
54285 32970 03203 10128 21111 40323 57019 333// 21046=
50949 32965 02704 10146 21055 30125 40295 57029 333// 20007=
50948 32970 02205 10156 21047 40308 57030 333// 20028=
54263 32980 03201 10142 21065 40332 57028 333// 21026=
54266 32970 00000 10145 21058 40310 57026 333// 21012=
54374 32972 02201 10163 21071 39890 40294 57025 333// 20006=
54276 32970 02201 10138 21059 40304 57022 333// 21041=
54181 32975 00202 10139 21048 40305 57029 333// 21031=
54377 32980 00704 10183 21090 40289 57028 333// 20062=
54273 32980 00000 10142 21030 40303 57034 333// 21022=
54063 32970 02703 10147 21082 40274 57026 333// 21016=
54186 32970 02905 10124 21071 40295 57026 333// 21019=
54284 32975 03202 10118 21095 40300 57022 333// 21034=
54161 32970 00202 10150 21059 30015 40308 57028 333// 21007=
54049 32970 02702 10150 21024 40315 57029 333// 21009=
54386 32980 02905 10134 21044 40275 57025 333// 21011=
50936 32970 02503 10168 21086 40291 57035 333// 21016=
54405 32965 01105 10221 20058 40262 57026 333// 20116=
54618 32961 40704 10238 20094 30259 40277 57013 80002 333//
20106=
56125 32680 30000 10187 20075 36572 57023 82940 333 00101
20052=
52713 31680 61806 10240 21085 36918 57019 71400 82902 333
05206 20045=
52866 32575 10000 10212 20099 37707 57027 81100 333 05204
20092=
56492 32760 83601 10236 20198 39752 40144 57018 885// 333
00202 20208=
57036 11556 80901 10146 20139 39760 40233 57016 69961 76060
8372/ 333 20126=
54929 32970 70904 10249 20109 40251 57014 8703/ 333// 20174=
54863 32980 20409 10229 20068 40251 57014 80002 333// 20170=
91643 11499 71503 10280 20256 40075 53020 69901 78082 8327/ 333
5639/ 83819 87360=
91631 11498 70410 10300 20245 4//// 69901 78082 83358 333
56199=
91636 11498 80000 10280 20252 4//// 69921 71529 8197/ 333
5639/=
91648 11498 80000 10252 20238 40100 53005 60151 71582 84237 333
56299=
96315 35475 72808 10306 20229 40083 83968
333 83818 81919 85080=
78958 31468 20000 10257 20234 30113 40123 70511 81201 333 0/209 10320
20257 58001 81818=
78897 32565 21202 10237 20230 40135 58013 81202
333 023/8 10327 20237 59002 70002 81820=
81405 32558 30000 10228 20225 40117 82230
333 58003 82820=
76256 32960 00000 10302 20225 30078 40091 52009 90535 333
10385 20256 30/// 55011 58003=
76382 32560 30601 10254 20179 38889 40066 52017 83400 90545
333   10340 20220 30/// 55100 22106 56100 58010 83630=
76405 32940 01802 10288 20243 30102 40123 52022 90547 333
10375 20247 30/// 55107 22170 58002=
76412 32960 00000 10275 20241 30091 40135 52017 90545 333
10355 20230 30/// 55076 59002=
76423 32960 02301 10188 20064 38182 40088 52013 80000 90540
333   10310 20120 30/// 55112 21787 58010=
76491 12356 10000 10229 20215 39765 40167 52008 69937 81200
90542 333   01400 10298 20217 32/// 55011 58020 81815=
76548 32360 51203 10288 20264 30125 40155 52016 83270 90545
333   10328 20272 30/// 55086 56220 58024 83807 82357=
76577 32460 70000 10184 20158 38061 40105 53011 87600 90545
333   10280 20136 32/// 55006 56100 58000 87628=
76654 31456 13602 10273 20265 30114 40118 52014 70544 81500
90540 333   0/2// 10324 20253 30/// 55103 21698 58017 81620
=
76675 01560 53201 10124 20110 37394 40086 51001 60031 70182
8395/ 90550 333   10240 20084 32/// 55094 22319 5699/ 59002
60031 81926 82626=
76683 32965 00000 10146 20114 37848 40122 51007 90540 333
10273 20084 30/// 59001=
76685 32950 00000 10150 20104 37887 40103 52010 90554 333
10254 20094 30/// 55112 22214 59004=
76845 01430 73201 10130 20123 37949 40145 51004 69955 72052
87700 90542 333   10204 20080 31/// 55051 56200 59004 69955
87710=
76848 01150 60507 10156 20148 38384 40134 51005 60011 72052
84720 90540 333   10215 20148 30/// 55039 56190 59008 60011
84703=
76903 21670 80000 10234 20220 30036 40171 52025 72522 83420
90535 333   0/130 10318 20237 31/// 55041 58000 60086 83630
85460=
60101 32458 31202 10183 20160 40142 52003 82502
333 20174 82616=
60115 12457 33004 10179 20162 40143 52007 60044 83800
333 20176 82813=
60135 32956 02404 10153 20141 40141 53002
333 20143=
60155 32950 22602 10182 20162 40142 52001 80002
333 20175 82070=
60156 32358 22004 10160 20120 40150 53003 82600
333 20145 82710=
60060 32456 00803 10192 20159 40156 5////
333 20189=
60107 32560 21802 10205 20189 40136 56003 82500
333 20203 82626 95300=
60127 32660 20000 10287 20172 39566 40147 56007 82500
333 20181 82640=
60190 32958 22406 10178 20143 39546 40138 53006 80002
333 20177 82071=
60191 32962 12203 10181 20135 40146 53003 80002
333 20180 81073=
60210 32960 00212 10230 20160 38955 48498 58002
333 20228=
60265 32965 13406 10190 20089 38873 48509 55001 80002
333 20190 81073=
48698 31462 72005 10289 20240 30073 40091 70522 83978 333 81916
85468=
76593 32950 01402 10260 20238 30140 40156 53005 90535 333
10320 20240 30/// 55064 21522 58005 92021 91005 91514=
61901 36/// /1010 10156 20095 40181 5//// 333 20150 3/013=
61902 11582 10907 10216 20145 69904 70181 81100 333 21215 59001
81822=
88889 32981 73125 10071 20011 39894 49978 57004 8701/ 90550 333
87466 90710 91141 91034=
65201 32456 71808 10235 20228 40133 84532
333 20230 59014 84610 86460 =
61641 32460 40000 10250 20243 30085 40118 84500
333 02400 20250 50414 55032 58013 84613=
89532 41/70 71203 11177 21203 39756 49783 53002
70272 8157/ 333 55013 20870=
89664 32361 80107 11184 21256 39775 49819 55004 8361/
333 56449 83705 88457=
78388 32570 20101 10278 20241 40134 81802 333 0000010326 20240
59004 81822=
37985 42597 82701 10159 20136 40235 51003 889//=
37575 42599 81102 10141 20084 40225 54000 885// 333   20120=
81408 36/// /0000 10215 20210 40116
333 58001=
81415 06/// /05// 10219 20214 40123 60021
333 58006 69927=
37735 42697 81104 10145 20078 40242 52006 885//=
76122 32962 00000 10170 20150 38565 40118 52005 90543 333
10316 20138 30/// 59005=
76225 32420 80502 10248 20133 38605 40084 5//// 88500 90550
333   10335 22190 31/// 56500 58021 88720=
76458 32958 00000 10280 20295 30101 40112 52013 90600 333
10332 20240 30/// 55085 58002=
76687 11558 72001 10188 20173 38691 40192 52013 69921 74062
872// 90538 333   10250 20120 31/// 55089 565// 58018 82823
85622=
76737 01480 61601 10192 20174 38801 40161 52015 60251 70396
844// 92345 333   10272 20132 30/// 55065 562// 58022 60251
88610=
76640 32920 00000 10272 20269 30138 40150 50012 90540 333
10340 20248 30/// 55071 58033=
76741 31540 70704 10280 20253 30110 40142 51009 71344 84220
90538 333   00190 10322 20260 30/// 55108 58010 83820 81925
83358=
63980 12482 31114 10285 20211 40126 69964 83802
333 20239 50440 55073 59007 83817 94311 91124=
78583 31470 73206 10254 20244 40127 71322 83878 333 00395 58001 70040
81817 87257 =
78988 32470 210110269 20234 30116 40125 57010 82100
333 58001 82817=
60096 32958 30210 10212 20193 40146 5//// 83080
333 20200 83358=
60105 32950 20000 10158 20156 40142 56003 80001
333 20156 82070=
60106 32458 81602 10180 20172 40158 55007 886//
333 20165 88710=
63705 12570 73206 10201 20200 38868 48521 60044 83970
333 20176 59005 83821 81923 86363
555 10184=
48008 32558 80000 10310 20254 40098 83931 333 56449 58014=
48010 32558 50000 10305 20257 40086 83702 333 56109 58013=
48018 32560 40000 10300 20236 40074 83860 333 56440 59004=
48019 32560 70000 10300 20239 40089 84830 333 56440 58001=
48020 32562 40402 10320 20248 84200 333 56400=
48025 32558 60000 10322 20248 40074 84820 333 56270 59008=
48035 31560 80000 10268 20226 40033 70265 85970 333 56550 59000=
48037 32458 60000 10342 20254 40071 83872 333 56899 58007=
48042 32558 51801 10340 20240 40076 84850 333 56440 58014=
48045 32140 70000 10237 20209 87700 333 56100=
48048 31560 61803 10314 20237 40088 71799 85950 333 56450 58015=
48053 32456 62201 10320 30240 40071 83956 333 56499 58006=
48057 /2457 72701 10232 20214 70265 85970 333 56690=
48060 21540 80000 10240 20209 40077 72195 8597/ 333 5656/ 58044=
48062 /2560 51802 10310 20200 40063 83330 333 56190 59005=
48071 32556 50502 10303 20256 40086 82306 333 56109 59003=
48077 32560 60000 10320 20281 40091 84930 333 56490 58008=
48078 32550 51801 10316 20244 40087 83531 333 56499 58000=
48094 32462 60000 10310 20260 40086 70322 84970 333 56590 58005=
48097 21457 72301 10275 20262 40107 70255 85931 333 56599 58019=
48108 32596 82301 10270 20256 40112 84867 333 56599 58015=
48109 32497 61401 10297 20248 40110 83936 333 56599 58006=
48112 32598 80000 10310 20237 40104 82846 333 56599 58010=
56199=
41170 41457 11108 10335 20263 30072 40085 70500 81500 333 58010
555 00256=
11816 31540 30301 10114 20101 30001 40162 52008 71011 81240
333 20088 31007 81820 83363=
11826 32580 41304 10141 20099 39964 40159 53003 81231
333 20137 31010 81830 83360=
11903 32765 70402 10122 20096 39801 40174 57003 81231
333 20112 31010 50082 81850 86360 87070=
11934 32670 71201 10074 20062 39373 42805 55001 84570
333 20044 31002 50162 84636 87357=
11968 32984 50301 10101 20092 39911 40189 55000 80005
333 20075 31003 50322 85070=
11841 31757 60902 10083 20074 39797 40171 56005 71011 81506
333 20061 31004 50172 81650 86270=
11858 32680 11203 10136 20108 30011 40159 56001 81441
333 20119 31009 50182 81643=
11916 31/00 91812 10020 20018 37986 48488 56005 74544
333 20019 3//// 41998 89/00=
11927 32562 60402 10119 20111 39923 40180 56001 82571
333 20107 30009 50132 82630 84071=
11930 31/00 92504 11017 21021 37390 47077 57003 74511
333 21029 3//// 44013 89/00=
11993 32975 40000 10082 20063 39980 40196 57001 80001
333 20055 31004 50182 84071=
11855 32980 51201 10136 20108 39999 40161 52002 81082
333 20115 31010 81359 85070=
11867 32680 70602 10149 20091 39850 40157 56005 84541
333 20116 31010 50192 84645 86072=
11880 32670 41002 10141 20103 30000 40167 56004 82104
333 20109 31007 50232 82840 84070=
11918 31535 60601 10051 20045 39368 42798 56003 74011 84806
333 20028 31001 50222 81822 84650 86271=
11933 32470 73401 10060 20051 38655 48506 56003 875//
333 20031 31001 87613=
11938 32570 61002 10088 20072 39134 42800 57001 84842
333 20062 31004 50132 82826 84643 85071=
11976 31/01 90000 10060 20056 39935 40201 53001 74511
333 20054 31003 50192 89/01=
11978 12970 30101 10089 20084 30060 40189 54000 69912 81034
333 20051 31004 50132 81360=
12772 32965 79901 10119 20095 39908 40189 53002 81048
333 20097 55068=
12822 32960 41302 10121 20100 30016 40157 55000 82049
333 20101 55097=
12843 32675 50903 10118 20085 30007 40175 54000 81182
333 20114 55093 81833=
12882 32975 30602 10105 20084 30047 40180 56005 81042
333 20074 55105=
12925 32960 10000 10066 20044 39994 40167 53001 80002
333 20041 55091=
12942 32665 10201 10126 20094 39927 40170 55000 81500
333 20098 55082 81633=
12982 32965 71502 10112 20100 30073 40174 55001 87082
333 20076 55112=
11036 32357 59901 10106 20097 39930 40158 52013 83842 333 20089
81709 83620=
11010 32568 72902 10102 20095 39797 40171 52010 83572 333 20079
81628 83645 85359=
11120 32781 79901 10086 20081 39481 40182 52004 8357/ 333 20077
82656 86359=
11150 32775 71504 10106 20074 39639 40170 56008 84870 333 20065
81856 83657 85358=
11240 32775 19901 10090 20083 39750 40165 52012 81141 333 20068
81856=
20069 38570 52005 83042 333//
20074=
10004 46/60 /0113 10152 20108 30104 40104 53008
222// 00156
333 10153 20129 55002 55300 91121 91216=
10015 01475 70112 10134 20115 30062 40072 55002 60012 72586 878//
222// 02154
333 10136 20126 31012 55000 55300 69957 70031 82710 85815 91116
91213=
10020 11462 83612 10118 20113 30048 40083 53001 60092 76162 878//
222// 0////
333 10129 20115 31011 55003 55300 60057 70102 84210 87618 91115
91211=
10035 01335 70202 10116 20114 30010 40068 53002 60222 76062 876//
333 10119 20113 32011 55000 55300 69967 70281 87708=
10055 01558 81504 10122 20120 30069 40079 53006 60012 70262 875//
333 10128 20119 31011 55006 55300 69907 70049 87630=
10147 11245 82104 10116 20104 30054 40072 53003 60022 71062 887//
333 10126 20113 32011 55000 55300 70135 88705=
10162 11630 71602 10110 20102 39998 40080 53003 69902 7102/ 875//
333 10121 20107 31010 55000 55300 70134 87647=
10184 12259 81702 10110 20109 30093 40100 53005 60022 8267/
333 10123 20109 31009 55011 55300 70066 82704 83359 88460=
10224 01238 72503 10115 20107 30068 40074 53001 69932 72082 876//
333 10124 20110 31010 55000 55300 69907 70069 87704=
10270 32959 61604 10117 20110 30041 40095 54000 83032
222// 06143
333 10137 20112 31010 55005 55301 70089 83360 85071=
10338 01358 82103 10112 20101 30008 40079 55000 69962 75862 875//
333 10127 20111 31010 55000 55300 69967 70024 85708 87615=
10361 11758 71302 10109 20093 39993 40095 55001 69902 70262 83578
333 10128 20108 31009 55010 55300 70017 83650 84460 87276=
10384 01360 71704 10118 20112 30048 40107 53001 60032 70262 83531
333 10142 20117 31011 55005 55300 69907 70038 81707 86362=
10393 01557 81702 10114 20114 39994 40119 53001 60022 72162 8652/
333 10136 20113 31011 55005 55300 20030 30027 60027 70027 86627
88458=
10400 01245 82704 10118 20108 30062 40111 53007 60022 72186 876//
333 10135 20113 32011 55002 55300 69927 70036 85705 87708=
10438 01250 81904 10101 20100 39828 40106 53004 69972 7616/ 877//
333 10117 20101 31010 55000 55300 70092 87705=
10469 11875 71904 10112 20103 39946 40108 53001 69962 70162 82572
333 10142 20110 32010 55017 55300 70010 82657 84363 85073=
10488 01678 71403 10117 20102 39850 40126 53002 60042 70262 875//
333 10135 20112 31011 55008 55300 69917 70057 82637 87557=
10548 0//// /2104 10095 20094 39585 40120 55000 60022
333 10110 20095 3/009 55000 55300 20019 69937 70039=
10637 01568 62005 10113 20103 39996 40132 51002 69982 72186 85831
333 10134 20111 31010 55001 55300 69907 70034 81822 84656=
10685 11360 82004 10092 20079 39463 40129 55000 60042 76062 877//
333 10107 20092 31009 55002 553// 70047 87708=
10738 01680 72204 10111 20101 39692 40155 55000 60032 76162 8453/
333 10121 20100 31008 55006 55300 69907 70048 81645 84656 86358=
10763 01468 82103 10109 20094 39766 40143 53001 60062 70262 885//
333 10121 20104 32010 55000 55300 20015 69907 70171 83613 85625=
10788 01565 41601 10100 20091 39727 40154 53002 60032 70162 83831
333 10145 20098 32006 55008 55300 69917 70035 81820 83644=
10852 01675 82303 10107 20092 39598 40159 55000 60082 70262 875//
333 10145 20099 32008 55017 55300 69907 70079 82645 87650=
10946 11580 71802 10088 20082 39342 40165 56003 60052 70286 8653/
333 10124 20087 31008 55033 55300 70045 81625 86639 96481 96463
96461 96460=
10091 12359 71906 10121 20110 30052 40103 53006 60022 876//
333 10136 20120 31011 55018 55300 20054 30054 4//// 70054 87706=
10113 01460 70113 10135 20104 30068 40087 53006 60112 72586 878//
222// 06135
333 10139 20124 32012 55000 55300 60037 70115 83814 85635 91117
91213 96465=
10129 01459 72902 10125 20120 30056 40069 53001 60032 72162 878//
222// 02147 20000
333 10126 20121 31011 55000 55300 60017 70041 84812 87642=
10131 01259 80104 10126 20114 30055 40069 53003 69912 70265 876//
222// 02139
333 10129 20121 31012 55000 55300 69907 70024 87706=
10170 11250 81603 10117 20106 30072 40086 53005 69912 71062 878//
333 10124 20116 31011 55001 55300 70071 83805 84637 98050=
10253 32465 81502 10112 20105 30065 40086 53002 885//
333 10129 20111 31010 55001 55300 70094 86613 88627=
10280 11356 81704 10107 20105 30002 40098 52003 69902 7102/ 8467/
333 10121 20106 31010 55003 55300 70155 84706 88459=
10291 01950 71704 10110 20106 30043 40109 53004 60042 72162 8707/
333 10129 20107 32010 55000 55300 69917 70079 87462=
10305 01335 82902 10117 20113 30057 40088 53003 60012 72162 877//
333 10122 20115 31011 55000 55300 60017 70012 87709 96010=
10315 01240 82604 10115 20107 30024 40087 53003 60022 72186 886//
333 10121 20113 32010 55000 55300 60017 70024 82705 87707=
10348 01560 72202 10110 20107 39980 40085 55000 60012 72166 875/1
333 10127 20110 31010 55004 55300 69987 70057 82628 87650=
10385 01758 71603 10116 20110 30048 40109 53002 69972 72162 82572
333 10137 20111 31009 55007 55300 69927 70025 82656 85358 86075=
10427 01/00 92407 10063 20063 39106 48420 53001 60122 76386
333 10075 20061 32006 55000 55300 60087 70191 91116 96047 96147
96481=
10453 11/90 92315 10047 20046 38774 48411 55000 60022 76344
333 10058 20047 32005 55000 55300 70381 91123 90243 91218 90316
91219 96045 96261 96445=
10474 01768 71502 10114 20114 39979 40106 53001 69912 70262 8253/
333 10141 20110 31010 55008 55300 20059 69907 70001 82650 87363=
10490 06/59 /1704 10115 20113 39999 40119 53002 69972 8////
333 10129 20113 3/010 55013 55300 20050 69927 70015 87/57=
10499 01458 81805 10109 20102 39845 40129 53001 60072 76362 8172/
333 10137 20109 32011 55002 55300 60047 70067 81716 87556=
10501 01356 82504 10100 20090 39878 40124 53009 60012 76186 888//
333 10130 20099 31010 55005 55300 60017 70030 87807=
10513 01262 82705 10111 20098 39999 40119 53005 69962 72562 886//
333 10133 20109 31010 55001 55300 69957 70100 81805 87709 96280
96258 96461=
10532 01464 72104 10114 20095 39882 40114 58001 60012 76122 8683/
333 10122 20110 31010 55000 55300 69907 70094 81810 83625 86646=
10544 11/00 92608 10065 20065 39055 48442 53001 60042 74586
333 10078 20062 32006 55000 55300 70077 89/00 91114 96281 96463
96461=
10554 12580 72206 10106 20086 39726 40107 55000 60022 85808
333 10129 20094 31008 55010 55300 20048 70017 82826 84656 86273=
10577 01680 82106 10103 20084 39628 40124 53002 60022 72162 8555/
333 10121 20101 32009 55007 55300 20039 30035 69907 70025 85644
85360=
10578 01/00 92207 10050 20049 38748 48449 53003 60122 75164
333 10062 20047 32005 55000 55300 20022 30016 69927 70147 91116
91211 96047 96253 96463 96459=
10609 01062 72404 10104 20096 39827 40153 53005 69912 72162 878//
333 10123 20104 31009 55000 55300 69917 70009 81801 83630 86650=
10655 01460 82304 10107 20097 39809 40132 52002 69972 72162 878//
333 10121 20107 31010 55010 55300 69917 70046 81810 83640 87658=
10688 11464 81903 10098 20092 39618 40136 51003 60032 70262 878//
333 10116 20098 31010 55000 55300 70078 82817 87632=
10708 01240 82703 10100 20099 39771 40153 53005 60032 72052 876//
333 10112 20099 31009 55000 55300 69937 70087 87705=
10729 01459 71902 10115 20105 30020 40140 53001 60032 72162 878//
333 10130 20113 31011 55000 55300 69917 70037 81815 87630=
10776 11470 71802 10108 20104 39722 40161 51001 60062 70162 878//
333 10147 20101 32008 55004 55300 70058 82812 86656=
10803 01466 82403 10135 20102 39809 40163 55001 60022 7036/ 878//
333 10142 20124 31011 55000 55300 69907 70022 82817 85635 87643=
10836 12368 82405 10088 20084 39287 40145 56003 60062 8783/
333 10099 20078 31007 55001 55300 70063 83809 86625=
10929 11580 72301 10109 20104 39639 40166 55005 60092 770162 8587/
333 10140 20108 31010 55013 55300 70088 81821 85640=
10961 11/01 92814 11039 21039 37073 47044 58004 69972 77874
333 11012 21040 3//// 49150 55012 55300 70007 91124 91217 96049=
10962 11889 72408 10073 20053 39029 48480 53002 60022 70262 8703/
333 10109 20072 31006 55012 55300 69907 70022 87358 91117 91214=
17601 31457 50605 10254 20218 30059 40088 53006 70511 85600 90550
333 20202 30016 85711=
15004 12597 31302 10083 20075 39870 40205 57005 69922 82240
333 10124 20060 31005 555 60002=
15020 31596 30000 10124 20120 30024 40219 53003 71041 83500
333 10146 20106 31010 555 60176=
15090 32997 00401 10134 20114 30091 40215 52003
333 10155 20104 31009 555 60070=
15108 32297 71808 10050 20050 38140 48550 57008 87500
333 10067 20047 31/// 95150 444 36176 555 60056=
15120 31996 20801 10093 20083 39705 40198 57001 71000 81031
333 10136 20074 31007=
15150 32997 50000 10129 20129 39996 40223 53010 85030
333 10175 20103 31009 555 60098=
15200 32998 50902 10121 20096 30031 40173 57002 85030
333 10148 20083 31009=
15260 01/92 91501 10106 20101 39665 40194 52003 69922 7454/
333 10149 20082 31008 69927 555 60002=
15280 32598 50000 10021 20016 37540 47087 57017 85070
333 10038 20019 31/// 555 60063=
15292 32997 50000 10112 20112 39915 40207 56003 85070
333 10162 20092 31009 95090=
15310 32997 20203 10141 20128 30122 40206 58002 81041
333 10147 20102 31010=
15346 32697 80000 10169 20160 39916 40195 55003 8457/
333 10194 20165 31016 95090=
15350 32997 50404 10162 20116 30089 40204 52003 80009
333 10181 20142 31011 555 60002=
15360 32597 50508 10194 20162 30180 40191 56001 85500
222 00212 20402  333 10206 20170 92427=
15410 32597 80602 10175 20140 30094 40185 52003 8597/
333 10197 20131 30012=
15450 32597 80508 10166 20166 39952 40182 55002 8497/
333 10202 20144 30014 91012=
15460 32997 60401 10145 20121 30171 40194 52002 84079
333 10203 20124 30010=
15470 32997 80506 10162 20153 30069 40193 53005 8807/
333 10208 20160 30014=
15480 32997 33606 10174 20174 30183 40198 53007 83030
222 00193 2//// 333 10207 20172 30017 92437=
11423 01/07 92504 10076 20076 39276 42771 53003 60112 74366
333 20076 32007 50022 69905 70145 89/01=
11464 11/00 92206 10077 20076 39167 42763 53001 60052 74564
333 20075 32006 70079 89/00=
11487 11380 72803 10096 20091 39537 40151 53001 60032 70266
87842
333 20091 31007 50112 70029 81809 85616 9512/=
11518 11482 82003 10109 20101 39711 40143 53001 60052 72166 8757/
333 20102 32007 70054 81616 86625 87458=
11603 01456 81403 10102 20100 39667 40142 55001 60162 76362
8752/
333 20102 32010 50502 60055 70171 87613=
11659 31459 71202 10103 20094 39527 40156 58002 71011 86530
333 20082 31006 50132 70000 86615=
11782 31759 69901 10086 20082 39849 40162 55003 71041 82530
333 20070 31004 70000 82650 86360=
16597 32250 50806 10231 20231 30048 40132 55012 85601 333 20225 30021
70000 85703 =
11101 11775 81404 10111 20095 39649 40167 55003 60082 70262 885//
333 20105 88656=
11022 32450 83103 10106 20098 39772 40156 53004 886// 333 20100 3/009
88712=
11028 31656 62504 10098 20089 39822 40162 52009 72841 83530 333 20078
3/005 83636 85361=
11130 32770 72302 10087 20079 39594 40178 55005 875// 333 20070
87656=
11146 32384 23180 11043 21068 36937 47040 57007 81524
333 21046 49275 81609 95110 444 26272=
11157 32570 79901 10066 20059 39417 40183 53012 878// 333 20042 31000
82832 87656=
11172 31665 80000 10042 20031 53009 70241 885// 333 20038 88640=
11204 36/// /0000 10059 20058 39396 40185 333 20048 3/001=
11231 31675 79901 10077 20066 39615 40183 52013 74011 87531 333
20063 81645 87658=
20087=
54587 32980 00409 10184 21004
40137 57014 333// 91119 91507=
20107 3/010 55075 55300 20000 88/16 555 7/098=
26038 32997 71304 10109 20089 40236 54000 82035   333 20100   555
30007=
26045 32998 81703 10126 20088 40255 54000 81031   333 20107   555
30008=
26058 32998 61202 10090 20057 40271 57001 80001   333 20062   555
30003=
26115 32598 71604 10136 20115 40213 57002 87300   333 20130   555
31011=
26141 32598 71505 10097 20060 40258 54000 82532   333 20072   555
31006=
26231 12598 71203 10114 20077 40237 57002 69902 82509   333 20114
555 31011=
26242 32998 81102 10105 20069 40259 52003 80009   333 20079   555
30007=
26247 32598 81501 10107 20071 40250 54000 82537   333 20101   555
30009=
33135 32997 60000 10103 20064 40269 54000 80005 333 20079=
33393 11497 81204 10132 20117 40192 57004 69902 72052 886//
333 20124 88710=
33587 32997 20000 10128 20050 40236 58001 82030 333
20090=
33631 32997 60000 10096 20080 40194 53003 80001 333 20057=
33658 10997 21403 10127 20110 40210 58004 69902 82030 333 20100=
33711 32998 70705 10130 20043 40247 53001 84031 333 20116=
33837 32998 00607 10168 20112 40214 53002 333 20161=
33910 32698 20910 10160 20078 40201 54000 82201 333 20132
91118=
33924 32998 10908 10167 20107 40202 58001 80001 333 20112=
33946 32997 40606 10166 20078 40178 56002 80001 333 20095=
34300 32997 60403 10131 20046 40279 53003 80001 333 20082=
34504 32997 60807 10144 20048 40251 52001 84031 333 20090 555 30004 52004=
34519 32960 60703 10142 20021 40247 53002 82031 333 20082=
34601 32997 70606 10150 20034 40241 50001 83031 333 20103=
71805 43/// /2108 10120 20096 30284 40312 58003=
57003 70000 80/// 90550
333 10139 20080=
17022 32670 31205 10207 20178 40166 56001 83200 333
20175 30016 50144 55022 20951 83834 92428=
17038 32670 62007 10228 20144 40160 52005 83250 333 20200 30018 50351
55059 21339 83835 85360 92428=
17050 32970 63402 10183 20172 40176 53004 86030 333
20174 32016 50241 55078 21447 70080 86360=
17060 32960 00808 10222 20186 40160 54000 333 20211 30019=
17096 32970 00812 10140 20037 38248 48506 51004 333 20001 30102
50581 55087 22013=
17124 32965 02605 10184 20153 39263 40138 53003 333 20150 30014=
17128 32670 40000 10142 20068 39083 40134 53008 82130 333 20110
30007 50701 55099 82840 83360=
17170 32970 00000 10203 20037 38344 48503 51003
333 20080 30007=
17195 32970 00000 10146 20006 38972 48513 58001
333 20084 30005=
17200 32970 00000 10198 20059 39176 40104 52011 333 20132 30009=
17240 32975 00000 10152 20078 39016 40114 53003 333
20112 30008 50601 55103 21983=
17244 32970 03607 10216 20043 38988 48521 51002
333 20164 30014 50721 55108 22189=
17280 32970 03505 10248 21001 39327 40071 52009
333 20166 30012 51001 55102 22098=
17350 31340 63504 10218 20204 40078 53002 71011 82606 333
20180 30/// 82708 86270=
57008 70000 88/// 90550
333 10137 20106=
17026 32570 53004 10211 20187 40155 53002 84230 333
20196 30017 50404 55093 21670 84833 83360 92428 555
00244=
17034 32670 20000 10206 20149 40163 53008 82100 333
20192 30018 50264 82835 92428=
17070 31556 71102 10162 20141 39311 40145 53001 71011 87600 333
20149 30013 50354 55083 87720=
17084 32970 30000 10154 20091 39275 40147 53003 83030 333
20099 30007 50751 55101 21940 83360=
17090 32965 00702 10116 20076 38741 48521 52003
333 20070 30005 50501 55116 22077=
17098 32570 70000 10070 20047 38240 48537 51005 85570 333
20008 30000 85630 87359=
17150 32460 40210 10223 20127 40140 54000 84600
333 20190 30017 50764 55100 21750 84715=
17160 32970 33608 10176 20061 39027 48527 54000 83040 333
20142 30008 51201 55106 22116 83360=
17184 32970 03406 10226 20174 40124 54000 333 20204
30018 50581 55090 21890=
17210 32975 00902 10255 20115 39110 40074 52011
333 10255 20191 30016 50860 55106 21673=
17234 32970 00901 10216 20160 40105 51002 333
20200 30017 50701 55093 22063=
17260 32970 03606 10270 20146 39299 40049 52008
333 20182 30015=
17290 32970 00000 10254 20165 40090 56001 333
20254 30023 50784 55086 21547 92408=
17370 32965 03501 10262 20204 40084 51002 333 20244
30021 50304 55090 21658 92417=
17024 32670 62105 10194 20156 40162 50000 86400 333
20170 30016 50181 55081 86635 92428=
17056 32670 60408 10222 20189 40174 53002 81101 333
20191 30018 50441 55081 21462 81835 86070 92428 555
00235=
17067 32670 41303 10214 20195 40161 52008 84200
333 20200 30017 84840 92408=
17092 32970 00000 10152 20098 38866 48524 51005
333 20068 30005 50484 55085 21983=
17112 32670 20407 10218 20191 40155 55000 82100
333 20208 30019 50471 55100 21624 82835 92418=
17115 32460 40416 10222 20166 40156 53002 84200
333 20211 30019 82715 83835=
17116 32965 41202 10204 20173 40153 57009 84030 333
20170 31015 50414 55078 21662 84362=
17188 32970 00000 10184 20119 39091 40094 56001
333 20152 30012 50501=
17202 32970 02103 10206 20024 39133 40118 52013
333 20112 30009=
17248 32975 02704 10150 20080 38965 48498 56003 333 20088 30006
50711 55111 22161=
17292 32970 03203 10205 20133 39378 40092 53003 333
20198 30018 50701 55097 21821=
17300 32970 00105 10280 20120 40076 53005
333 20226 30017 51124 55107 22047=
17330 32970 03601 10217 20150 40087 55000 333
20192 30017 50411 55104 21882=
17042 32970 00903 10230 20151 40160 53002 333
20172 30016 50254 55097 92428=
17074 32670 72201 10130 20091 39252 40155 51002 84270
333 20100 30008 50691 55102 21476 84834 87460=
17085 32970 31402 10175 20134 40157 51003 83030 333
20127 30011 50704 55090 21852 83360=
17100 32970 03103 10162 20059 39210 40174 51008 333
20100 30008 51124 55096 21759=
17203 32970 00000 10186 20057 38890 48566 51010 333
20144 30011 51184 55113 22262=
17205 32980 00000 10160 20085 38350 48514 54000 333 20104 30009
50241 55057 20754 92418=
17237 32970 00000 10222 20154 40111 54000 333
20196 30019 50641 55096 21395=
17250 32975 00504 10190 20006 38804 48510 56002 333
20126 30012 50751 55111 22304=
17255 32970 00000 10230 20135 39444 40075 52006 333
20180 30017 50484 55094 21945=
17270 32970 03406 10280 20020 39468 40066 52011 333
20221 30015 50601 55099 22008=
17275 32980 00110 10256 20046 38950 48504 52004 333
20206 30019=
17375 32975 01701 10230 20151 40073 53003 333
20200 30018 50951 55101 21680 92408=
38345 32999 02102 10151 20027 38861 48506 58007 333 21017=
36911 42999 02101 10160 21005 39310 40241 57002 333 20019=
36974 32998 10115 21014 38018 48552 58015 333 20004=
38353 42998 03502 10153 20034 40255 58003 333 20031=
38613 42999 01801 10182 20023 40209 58016 333 20074=
11406 01360 89902 10109 20098 39561 40135 52001 60072 70262
885//
333 20109 32009 50152 69905 70088 88608=
11457 01175 72504 10063 20057 38872 48477 53002 60022 78086
872//
333 20061 31005 69905 70022 82702 87605=
11520 01575 82202 10111 20105 39786 40146 57002 60052 72162 8757/
333 20106 31009 50112 69905 70052 87620 88457=
11636 31957 59901 10099 20093 39483 42781 51002 71011 85030
333 20080 31006 5///2 70000 85360=
11679 31756 71001 10107 20098 39675 40154 50001 71011 85272
333 20101 31008 50102 70000 85850=
11723 32565 70601 10112 20095 39863 40157 53004 86572
333 20091 31007 70000 83625 86656=
11766 32970 71804 10096 20080 39285 42785 55001 82042
333 20091 31007 50192 70000 82360 87072=
11774 32975 61401 10120 20090 39889 40157 53003 83042
333 20114 32008 70000 83360 85073=
11787 32182 71612 10064 20063 38661 48483 55008 8127/
333 20063 31006 70000 81802 87356 9513/
444 17096=
26313 32397 71705 10120 20102 40216 52002 87700 333 20118 87709
91111=
26348 32999 71203 10093 20060 40259 54000 87070 333 20084=
26406 31458 51204 10120 20110 40190 57002 71011 85600 333 20106
85712=
26416 32466 81404 10105 20089 40213 52002 885// 333 20105 88615=
26422 32997 61504 10118 20089 40227 57001 86070 333 20107=
26544 32960 61104 10105 20074 40253 55000 84039   333 20086=
12120 11497 81604 10126 20110 30132 40139 53006 69982 76111 8557/
333 10149 20113 31011 55054 70008=
12250 32697 71202 10122 20098 30068 40155 53004 875//
333 10156 20116 31011 55036=
12330 11630 81402 10122 20115 30037 40143 53004 60022 76122 8357/
333 10153 20121 32011 55024 70016=
12375 32965 71304 10102 20094 30050 40180 53002 86032
333 10131 20093 31008 55074=
12424 11665 71502 10123 20114 39998 40148 52004 69912 78086 8437/
333 10151 20114 31010 55032 70002=
51581 16/// /3401 10056 29050 35670 60001
555 1/135 2//06 /////=
12205 11458 81904 10122 20119 30109 40117 53005 69912 76011 8357/
333 10141 20120 31009 70018=
12465 31956 81002 10111 20099 39936 40166 53004 71022 86057
333 10141 20100 31009 55084 21429=
12560 32598 71001 10105 20086 39829 40170 56003 875//
333 10124 20069 31006 55099=
12100 11462 71501 10118 20111 30115 40122 52003 60012 70282 873//
333 10132 20096 31003 55012 20605 70018=
12135 32497 71505 10133 20112 30149 40152 52005 872//
333 10154 20129 30011 55068=
12185 32560 61306 10126 20119 30048 40181 56007 84530
333 10126 20100 31009 55078=
12195 31356 81604 10118 20105 39979 40204 56005 71011 886//
333 10133 20106 31009 55070=
12235 11496 81603 10114 20105 39940 40147 53006 60032 78181 889//
333 10140 20108 32010 55023 70032=
12270 31540 71203 10105 20092 39995 40175 53003 71011 8355/
333 10134 20097 31008 55025=
12300 11535 81801 10118 20114 30039 40127 52005 60012 78062 889//
333 10132 20106 31007 55001 70025=
12360 31796 81303 10111 20102 30036 40168 53003 71011 8557/
333 10145 20106 31009 50183 55068=
12385 31496 71204 10126 20114 30002 40189 55002 71011 8663/
333 10126 20104 31006 55040 79999=
12400 11316 81502 10117 20115 39905 40136 53002 69982 76162 877//
333 10129 20110 31010 55005 70024=
12435 11558 81502 10125 20107 39985 40154 53003 69902 76022 8357/
333 10157 20120 31010 79999=
12495 31295 71203 10107 20105 39902 40191 55001 72811 876//
333 10126 20088 31006 55073=
12510 11/90 91306 10036 20036 38342 48461 53008 60022 76164
333 10052 20035 32/// 70023 =
12520 12570 71703 10122 20106 39726 40151 53001 69902 8537/
333 10140 20121 31010 50183 55073 79999=
12570 31950 70000 10084 20078 39864 40180 55001 72841 83038
333 10127 20060 30004 55083=
12575 32960 71101 10102 20089 39924 40177 56002 80004
333 10147 20070 31004 55095=
84560 22224 00230 20403 32800 40403 50000 80210=
22271 00110 20302=
62402 21061 99564 10049 41597 40108 10132 20100 40155 54000 70211
8413/ 22200 00125 20505 3//// 4//// 5//// 80114=
70200 80000 22224 2//02 336// 4//03 80230=
84200 22261 00275 20202 314// 40402 5//// 6//// 80249 ICE /////=
54308 32980 01603 10205 20070 40276 57022 333// 20046=
57178 11630 80404 10174 20157 30094 40250 57006 69931 76060
8157/ 333// 20173=
58311 11970 80903 10239 20150 40216 57018 69901 70060 8807/
333// 20191=
57143 11660 80000 10144 20132 40247 57008 69901 76000 8272/
333 20130=
54449 32970 01104 10181 20043 40309 57023 333// 20151=
53646 11980 81604 10128 20062 39040 40254 57006 69901 76060
8807/ 333 00255 20082=
51804 11580 73206 10081 20009 37045 57005 69921 70080 82402
333 00300 20031=
51711 11680 12203 10141 21005 38040 57009 69901 70080 81100
333 00106 20079=
51542 11665 80902 10008 20001 37634 52001 69981 77070 8252/
333// 00551 21021=
51642 32770 70000 10254 20046 40111 57003 83402 333// 00400
20174=
52101 32780 73602 10107 20013 38418 57012 81102 333// 00756
20060=
51526 32980 20703 10218 20010 40139 57014 80002 333// 00554
20112=
51567 32980 00000 10217 20089 40139 57009 333// 00552 20090=
54871 32980 03607 10211 20083 40254 57009 333// 20184=
59478 11565 70404 10271 20235 40095 57013 60011 78080 879//
333 20240=
57574 11458 83605 10196 20177 40191 57011 69911 76060 8677/
333 20188=
52313 32780 70710 10194 20029 38416 57014 82102 333// 00354
20112=
50838 32980 62501 10165 21096 40284 57038 80001 333// 21005=
54705 31662 70402 10241 20118 40275 57022 70040 82132 333//
20105=
52447 32780 80000 10168 20101 40145 57013 82507 333 00153
20077=
54436 32980 11401 10201 20020 40300 57023 80002 333// 20090=
52737 32980 10703 10205 20002 37094 57019 80002 333 05104
20100=
52633 32680 13601 10168 20016 36788 57023 81102 333 05104
20009=
52645 32680 11802 10160 20024 36839 57018 81100 333 00003
21012=
52657 32680 10401 10184 20052 37282 57027 81100 333 00001
20027=
56065 32680 10000 10138 20058 36684 57018 81200 333 00101
20021=
52602 32975 11803 10241 21048 37256 57015 80002 333 05204
20068=
52856 32580 10000 10177 20090 37244 57020 81100 333 00101
20065=
51886 32980 70000 10183 21007 37124 57010 80002 333 00051
20072=
54936 32965 70404 10244 20131 40256 57009 82042 333// 20138=
51644 11980 73204 10221 20052 38940 40129 52002 69901 70080
81062 333 00453 20159=
51367 32680 70401 10138 20063 40268 57003 81832 333 00955
20055=
51633 11675 70000 10189 20075 40166 52001 69911 72580 85962
333 00452 20086=
51365 70401 7000/ 84656 86360=
51156 32780 32203 10092 21020 38803 40296 57013 83402 333
00604 21004=
51288 32680 62903 10074 21100 38412 57006 81532 333 00760
20001=
51186 32980 73403 10121 21057 40255 57009 80002 333 00860
20036=
51241 32680 60000 10116 21029 40287 57006 86400 333 00307
20020=
52203 32780 72201 10202 20089 39306 40136 57002 82932 333
00657 20156=
51356 32970 73602 10149 20064 40285 57008 82062 333 00700
20091=
51243 32880 41403 10149 20054 39737 40278 57007 81402 333
00703 20078=
51334 32980 60000 10139 20053 40290 57008 82032 333 00403
20041=
51720 11580 60000 10209 20058 40139 57001 69901 70080 86902
333 00553 20151=
56793 32580 73602 10236 20143 38501 57023 87800 333// 00201
20182=
57687 11450 83205 10218 20185 30092 40171 57013 69921 71060
885// 333// 20190=
53986 11950 80402 10163 20151 40271 57009 60031 76066 8802/
333// 20151=
55299 11780 62705 10127 21006 35926 57008 69911 79500 86900
333// 00251 20011 93902=
56312 11680 61802 10191 20112 37116 57023 69901 72500 86400
333// 00151 20117=
55472 32880 11103 10146 21035 35803 57011 81100 333 00100
20002=
55279 32780 22202 10132 21071 35777 57003 82102 333 00101
20027=
56106 32780 50000 10159 20058 36269 57020 85900 333 00101
20030=
55294 32780 22206 10121 20000 35795 57009 82400 333 00101
20019=
56202 32680 52702 10120 20018 35934 57018 85200 333 00005
20010=
56227 32680 42906 10210 20115 37345 57024 84200 333 00102
20103=
56434 11680 52204 10262 20100 37681 57030 69911 70060 85800
333// 00101 20152=
56317 32680 60000 10205 20117 37176 57012 86400 333 00201
20107=
56137 32680 10000 10211 20069 36845 57030 81100 333 00200
20063=
56116 32680 60000 10164 20044 36398 57022 86200 333 00100
20058=
56223 32780 30403 10193 20069 36573 57024 83100 333 00200
20054=
56331 32680 40000 10183 20043 36458 57022 84200 333 00201
20063=
58319 32562 70705 10252 20143 40208 57017 875// 333// 20205=
58437 31/02 90706 10109 20109 38225 57009 74340 333// 20092=
53593 32775 11606 10209 20022 40258 57019 81102 333// 20094=
54624 32565 20906 10218 20095 40295 57010 81102 333// 20131=
52797 32980 71103 10159 20105 38370 57015 8704/ 333 05152
20102=
50618 32980 12005 10156 21138 40264 57032 80002 333// 21009=
50639 32980 22203 10174 21087 40272 57034 80002 333// 21020=
57745 11862 80703 10193 20177 39858 40176 57014 60081 72166
8802/ 333 20182=
57845 11462 83403 10198 20176 40153 57014 69981 76060 885//
333 20187=
56067 32580 31401 10170 20067 36596 57011 83200 333 00102
20066=
56151 32580 20000 10173 20077 36681 57020 82200 333 00201
20049=
52955 32580 20902 10171 20080 37017 57016 82100 333 00200
20035=
56004 32680 61603 10145 21001 35888 57016 86902 333 05107
20000=
52908 32580 72005 10126 20006 35834 57013 86902 333 05105
21011=
52836 32980 01103 10232 21027 36915 57020 333 00005 20072=
56029 32680 50000 10180 20070 36545 57026 85900 333 00102
20032=
55578 32780 11402 10175 21005 36428 57013 81100 333 00200
20046=
55773 32670 71106 10093 20039 36082 57006 872// 333 00252
21019=
55664 32980 00000 10141 21002 36073 57016 333 00200 21009=
55680 32880 13403 10164 20014 36285 57018 81100 333 00251
20034=
55569 32780 10000 10173 21067 36288 57013 81100 333 00200
20054=
55572 32780 20000 10169 20047 36301 57015 82100 333 00200
20044=
55655 32780 11610 10130 20057 36536 57007 81100 333 00200
20027=
52818 32980 30403 10264 20027 37217 57012 81042 333 05305
20056=
52974 32680 23401 10199 20098 37546 57024 82100 333 05106
20100=
52825 32580 11104 10260 20022 37239 57027 81100 333 05305
20072=
52868 32680 10000 10206 20111 37775 57030 81100 333 00003
20097=
55228 32980 02902 10102 21127 36098 57004 333 00352 21023=
55248 32980 02207 10135 21262 35979 57007 333 00201 21033=
55437 32780 13202 10152 21051 36413 57009 81100 333 00200
20016=
51730 32970 73604 10233 20043 40124 57004 80002 333 00551
20120=
51330 32575 20901 10086 20019 40280 57011 82800 333 00402
20035=
51346 32780 70202 10124 20062 40292 57002 86402 333 00502
20070=
51059 32580 73202 10100 21028 40295 57003 86962 333 00503
20020=
51232 32680 21405 10158 20044 40296 57007 81102 333 00405
20083=
52674 32762 81102 10113 20095 38022 57009 885// 333// 05103
20085=
52436 32980 60905 10157 20089 38453 40119 57030 81032 333//
00152 20090=
52983 32580 51103 10191 20122 38121 57017 85202 333 05205
20095=
89642 42784 60000 11168 21264 39808 49864 52008 82532
333 55092 20918 82650 85073=
91925 36/// /1902 10254 20213 30078 40137 51013
333 55090
555 1//12 59001=
91938 32570 61602 10255 20207 30163 40166 52011 84832
333 55095 56499 82821 83650
555 11723 58008=
91943 36/// /1312 10268 20224 30152 40155 52014
333 55097
555 1//17 58005=
91944 36/// /0606 10256 20221 30165 40171 51015
333 55108
555 1//14 58001=
91948 36/// /3206 10226 20211 30063 40166 53002
333 55026
555 1//17 59031=
91954 36/// /1610 10191 20124 30215 40219 51013
333 55102
555 1//23 58018=
91958 36/// /2914 10174 20101 30186 40188 51017
333 55094
555 1//49 59025=
78894 36/// /1104 10271 20236 30082 40141 58013
333 10312 20253 59003=
78397 32570 23404 10281 20228 30118 40134 81801 333 01000 10330 20266
59004 81822=
60020 32560 12802 10227 20201 30125 40169 55001 81500
333 20225 55001 924/6=
60030 32665 22105 10221 20178 30103 40158 51001 82500
333 20216 55072 924/7=
60040 31575 12903 10211 20174 30137 40162 52004 702// 81500
333 20209 55072 924/8=
60338 31256 60000 10210 20201 30072 40136 56003 71022 85630
333 20210 55029 82705 83709 85620 92426=
60230 32960 02606 10163 20132 40158 52005
333 20160=
60318 32550 32802 10196 20180 40151 57002 83200
333 20190 83820=
60195 12960 0//// 10125 20106 38509 48524 54000 60024
333 20120=
65338 32960 70000 10227 20214 39940 40130 84042
333 20225 59015 84361 85076=
91554 32580 21307 10265 20229 40097 53004 82200
333 563// 82825=
91555 32570 51113 10266 20233 40095 53001 85200
333 563// 85822=
91557 32480 61110 10251 20209 40121 53005 86200
333 563// 81717 86822=
91568 32580 21008 10252 20207 40136 53004 82100
333 563// 82825=
60150 32556 41406 10158 20140 39483 40135 56007 84800
333 20148 82816 84620=
60141 32558 21802 10156 20124 39482 40145 56005 82500
333 20152 82630 95400 95800=
71865 36/64 /21// 10042 20038 39497 40173 51007 333 10150 20042
70026=
71866 36964 02405 10042 20032 39557 40164 53002 333 10179 20042
70005 555 33030 40221=
71867 11574 83011 10097 20069 39792 40119 53007 69981 70265
885// 333 10174 20095 70044 90951 555 32820 40230=
71868 36964 02303 10077 20072 39712 40146 53009 333 10139 20070
70105 555 32819 40220=
71869 32974 00000 10050 20034 39638 40157 51006 333 10153 20049 79999
555 33123 40111=
71870 36864 81606 10102 20019 39218 40171 55000 333 10175 20065
70015 555 32928 40081=
71871 32974 02206 10047 20012 39369 40166 55000 333 10163 20041 70012
=
71872 11783 71306 10133 20067 39323 40160 58006 69921 70262 86500
333 10209 20036 70002 90931=
71874 36964 02005 10091 20029 39085 40159 55002 333 10196 21008
70000 555 33417 40010=
71876 32974 00000 10024 20003 39506 40164 51003 333 10178
20023 70012 555 33027 40211=
71877 32974 62407 10100 20047 38909 40161 56001 86070 333
10162 20028 70000=
71878 32974 60502 10104 20013 39100 40155 55003 86070 333 10172 20035
70000=
71879 36964 02502 10066 20026 39358 40152 53001 333 10161 20030
70005=
71880 11882 72806 10095 20051 39091 40181 55002 69901 70282 87070
333 10146 20059 79999 90940=
71881 36864 80000 10067 20037 39065 40145 58004 333 10144 21020
70000=
71882 36964 00000 10110 20102 39652 40181 58001 333 10130 20076
70000=
71883 36/// /0000 10082 20082 39363 40175 58005 333 10107 20032
70032=
71887 32783 70708 10136 20079 39730 40143 57005 82570 333 10161 20099
79999=
71889 32974 80000 10130 20076 39747 40156 58001 8807/ 333 10174 20101
79999=
71891 36964 02018 10158 20072 39855 40127 56005 333 10184 20117
70005=
71892 32683 81107 10145 20109 30149 40154 51002 8257/ 333 10171 20118
70002=
71603 32574 71204 10143 20138 30200 40252 58013 83501 333
10200 20060 70000=
71607 36/// /3602 10129 20101 30221 40253 56013 333 10189 20034
70000=
10193 20099 70020 555 31318 40200=
71621 32974 21807 10188 20155 30016 40119 56004 82070 333
10231 20172 70076 555 31422 40070=
71623 32774 82308 10153 20096 39796 40125 53002 8357/ 333 10200 20152
70000 555 32117 40110=
71624 32974 72306 10169 20106 39906 40112 56002 87070 333
10220 20168 70048 555 32225 40141=
71625 36259 81206 10160 20148 39950 40106 58004 333 10217 20159
70050 555 31418 40090=
71627 17564 81612 10180 20168 30095 40138 56001 60031 7//4/ 333
10205 20170 70075 555 31627 40191=
71628 11562 51606 10158 20156 39994 40131 58001 69921 70162
81570 333 10190 20150 70118 90930=
71631 17/64 /2310 10129 20129 39615 40103 58001 60011 7//4/ 333
10161 20127 70032=
71633 11424 82211 10149 20144 39817 40081 51003 60131 76162
885// 333 10176 20146 70158 90973 555 32225 40041=
71700 32574 80000 10129 20099 30226 40251 58012 8257/ 333 10208 20039
70000=
71705 32974 81508 10133 20096 30175 40261 58009 86072 333
10223 20039 70000 555 31817 40180=
71706 32974 81808 10136 20100 30216 40276 58007 83042 333 10198 21002
70000=
71707 32974 60000 10088 20066 30218 40294 57007 80001 333 10194 20020
70000=
71714 17/// /0808 10135 20135 30089 40179 56010 60101 7//4/ 333
10162 20110 70152=
71715 17/64 /1602 10128 20094 30020 40200 56007 69921 7//4/ 333
10158 20080 70010=
71718 11662 80000 10128 20112 30140 40205 58003 60011 76162 8802/
333 10160 20069 70018 90926 555 31621 40001=
71719 36/// /1807 10131 20100 30233 40239 58008 333 10184 20033
70000 555 31918 40190=
71931 36/64 /2103 10039 20028 39478 40156 53001 333 10151 20039
70000=
71932 36664 30000 10047 20034 39695 40145 51004 333 10135 20040
70030=
71933 36464 80906 10050 20037 39870 40158 53007 333 10070 20048
70060=
71934 11569 80000 10043 20039 39906 40162 52005 60041 76166
885// 333 10063 20042 70211 90983=
71935 11674 51401 10041 20031 39954 40161 52003 69921 70361
85700 333 10074 20039 70023 90923=
71936 32974 00912 10043 20003 39924 40181 53007 333 10086 20017 70000
=
71938 32974 01106 11027 21054 30216 40245 52002 333 10025
21027 79999 555 19999 29999=
71940 32982 10202 10057 21001 39344 40139 56006 80001 333 10166 20008
70000=
71943 32774 50905 10087 20006 39305 40135 57009 81501 333 10142 21005
70000=
71944 36664 30000 10069 20048 39305 40123 56011 333 10141 20025
70000=
71945 32774 20000 10007 21005 39675 40146 58003 82500 333 10108 21005
70000=
71946 32574 40000 10030 20030 39951 40163 53006 83501 333
10087 20030 70018=
71948 46964 01222 10013 30073 40185 53003 333 10021 21004 555 31126
40221=
71950 11248 80000 10087 20087 39464 40080 57018 60091 76166 885//
333 10154 20038 70092 90962=
71951 11158 80000 10089 20079 39807 40069 56019 60081 76166 887//
333 10113 20082 70098 90973=
71957 369// 00000 10046 20006 30016 40103 58001 333 10101 21039
70005=
71958 36964 00503 10031 20027 39154 40080 56016 333 10114 20007
70005=
71964 32886 21808 10059 20019 39238 40079 56004 82030 333 10119 20030
70000=
71966 36/// ///// 10073 21030 333 10127 20037 70000=
71968 469// 01703 10003 30009 40072 58010 333 10068 21055 555 31120
40010=
71397 32674 70000 10138 20099 30234 40268 58010 82570 333
10229 20030 70000=
71398 36/64 /0000 10091 20082 30238 40287 58006 333 10212 20003
70000=
71400 36/64 /0000 10072 20037 30158 40287 50000 333 10200 21035
70016 555 33017 4017/=
71410 36/64 /1607 10128 20106 30247 40275 58010 333 10205 20042
70000=
71411 36/64 /1106 10159 20124 30261 40271 58014 333 10194 20075
70000=
71412 36/// ///12 10148 20113 30270 40283 50000 333 10172 20125
70000=
71430 36/64 /1819 10198 20187 30029 40123 56004 333 10212 20185
70006 555 31541 40101=
71431 36/// /2112 10193 20167 30029 40121 53001 333 10213 20189
70008=
71432 36/64 /2106 10182 20131 30029 40123 53004 333 10225 20182
70028 555 32031 40080=
71435 36/// /0000 10026 20021 39566 40151 55002 333 10184 20026
70000=
71436 17/// /2006 10139 20133 39750 40099 58003 60011 7//4/ 333
10198 20137 70068=
71441 36/// /2905 10117 20117 39828 40130 53005 333 10152 20106
70106 555 31529 40140=
71443 36/64 /2505 10102 20063 39748 40152 53009 333 10180 20102
70088=
71538 32974 02405 10137 20089 39907 40132 50002 333 10215
20135 70000 555 32722 40181=
71600 36964 01513 10155 20130 30283 40289 56008 333 10170 20062
70000=
71601 32474 61202 10131 20105 30216 40278 56007 83501 333
10192 20077 70000=
30627 40211=
71893 11766 81605 10142 20098 30107 40138 55000 69901 76122
8657/ 333 10166 20110 70026 90921 555 31418 40050=
71896 11656 80000 10091 20077 39299 40114 57011 69941 78022 885//
333 10159 20026 70004 90921=
71898 17564 81410 10125 20072 39972 40015 56018 60041 7//4/ 333
10125 20101 70080 555 31322 40040=
71905 32074 01109 10032 20004 30197 40210 58013 333 10094 20017 79999
555 30218 40220=
71906 32974 02705 10023 21030 30173 40223 52015 333 10101 20011 70018
555 32735 40171=
71909 36964 03206 10003 21015 30091 40134 51030 333 10044 20002
70055 555 31024 40071=
71910 36664 32510 11004 21029 30082 40146 51001 333 10054 21007
70005 555 32821 40010=
71911 46564 83221 11041 30100 40156 56002 333 11027 21053 555 33226
40061=
71912 11569 81412 10102 20092 39887 40066 57032 60031 76322
885// 333 10125 20033 70052 90910 555 31220 40190=
71913 17462 80723 10062 20057 30055 40091 56046 60011 7434/ 333
10069 20037 70015 555 30729 40061=
71915 11574 83013 11010 21036 30059 40141 55002 69901 77162
885// 333 10029 21013 79999 90921 555 19999 29999 33424 40141=
71917 33574 10902 11156 21187 30221 40235 52004 81670 333
11108 21170 79999 555 19999 29999=
71922 32674 12908 10074 20062 39675 40135 53001 81500 333 10098 20069
70060 555 33220 40170=
71924 31974 20221 11101 21119 30126 40215 55000 73611 80001
333 11015 21108 70002 555 10002 20002 30431 40002=
71925 11369 80109 11009 21024 30202 40238 52012 69901 71672
886// 333 10009 21044 41997 79999 90920 555 19999 29999 33227 40161=
71926 32574 12906 11035 21069 30176 40199 51004 81500 333
10047 21045 70002 555 19999 29999 32720 40171=
71928 36/64 /0000 10067 20043 39010 40159 55001 333 10136 20020
70000=
71725 17459 81905 10145 20141 39697 40101 56002 60021 7434/ 333
10170 20130 70200 555 31519 40150=
71726 17/64 /1001 10140 20134 39608 40132 58007 60041 7//4/ 333
10143 20111 70128=
71727 11459 80914 10123 20120 39974 40168 56007 60031 76382
885// 333 10130 20091 70130 90927 555 30917 40001=
71728 11459 81302 10145 20140 39932 40148 57008 60021 76186 885//
333 10151 20102 70106 90937=
71730 11112 80908 10140 20140 39644 40055 57014 60051 75165
887// 333 10164 20139 70130 90946 555 31820 40200=
71731 11348 81408 10139 20139 39641 40078 58008 69961 76182
887// 333 10173 20139 70176 90962=
71733 17264 63004 10153 20153 39822 40052 51006 69951 7//4/ 333
10184 20153 70005 555 31517 40110=
71749 36764 82704 10089 20049 39892 40132 58002 333 10209 20071
70000 555 30517 40180=
71799 11680 81505 10131 20100 30131 40154 53003 69901 78022
8657/ 333 10175 20080 79999 90910=
71800 36/64 /2612 10071 20062 30276 40309 58002 333 10150 20041
70000 555 32424 40190=
71801 32974 12613 10089 20077 30132 40305 54000 80001 333 10159 20042
70000=
71802 36/// ///// 10087 20075 30246 40306 58003 333 70000 555 32622
4018/=
71803 32980 62411 10096 20072 30101 40287 56002 82041 333
10175 20046 70000 555 32517 40040=
71807 36/// /2511 10118 20098 30299 40315 58004 333 10131 20066
70000=
71808 36962 02608 10096 20082 30200 40246 58002 333 10134 20030
70000 555 32329 40191=
71809 32974 62205 10103 20067 30254 40281 58001 83071 333 10182 21007
70000=
71810 17/00 /1307 10116 20111 30162 40225 58010 69921 7//4/ 333
10164 20038 70002=
71813 36664 81303 10109 20095 30232 40245 58008 333 10167 21016
70005 555 32119 40200=
71814 36/// /2305 10107 20101 30248 40258 58005 333 10135 21012
70000=
71815 32574 60405 10102 20069 30254 40286 58005 83540 333
10160 20046 70000=
71826 36/// /1202 10017 21040 30080 40109 51009 333 10052 20013
70000 555 30824 40110=
71846 36/60 /1005 10059 20033 39861 40169 56006 333 10148 20053
70000 555 30419 40070=
71114 36964 80000 10126 20111 30108 40155 51004 333 10169 20103
70005=
71120 32774 12004 10059 20030 39503 40153 56002 81500 333
10161 20059 70010=
71122 36/64 /2304 10070 20035 38586 40171 58003 333 10105 21016
70002 555 10004=
71123 32974 50000 10033 20018 39303 40161 55001 85030 333
10168 20007 70000=
71125 33974 02204 10039 20026 39575 40155 52004 333 10157
20026 79999=
71129 32974 51406 10063 20016 39437 40166 50000 85070 333
10174 20057 70008 555 33021 40101=
71131 36/64 /0806 10108 20050 38937 40170 56001 333 10158 20033
70000=
71135 46/64 /0000 10085 20006 39122 40190 53002 333 10170 20080=
71138 32674 62806 10089 20074 39565 40162 52009 84570 333
10147 20085 70008 555 33024 40211=
71140 32974 02806 10077 20072 39663 40156 53011 333 10198 20074 70018
555 31320 40080=
71141 11374 82707 10100 20085 39829 40100 52011 60021 70298
887// 333 10205 20099 70024 90935 555 31918 40000=
71145 11669 81707 10137 20108 39816 40102 56012 69921 78022
882// 333 10187 20090 70002 90910 555 31818 40050=
71148 17/// /2906 10102 20098 39592 40161 51012 69921 7//4/ 333
10184 20097 70002 555 31725 40090=
71182 171// 80000 10077 20077 39684 40218 53001 60011 7434/ 333
10122 20040 70019=
71185 36464 62114 10127 20107 30236 40260 58005 333 10147 20068
70000 555 32027 40141=
71187 174// 61105 10101 20100 30180 40207 56008 60021 7434/ 333
10105 20016 70035=
71188 11774 82704 10155 20084 30190 40230 56010 69921 70282
885// 333 10201 21014 70006 90936=
71196 36964 02420 10117 20094 30253 40290 58001 333 10171 20086
70000 555 33128 40071=
71200 36/// /2208 10109 20102 333 10175 20099 70000=
71816 11666 80000 10109 20094 30155 40215 52006 60021 76182
885// 333 10190 20040 70022 90962 555 32530 40191=
71817 36864 62707 10122 20060 30206 40220 51003 333 10184 20032
70000 555 32328 40181=
71818 11574 82407 10108 20057 30190 40208 53007 69981 76162
8357/ 333 10183 20064 70008 90946 555 32222 40171=
71821 17148 81306 10151 20147 39769 40105 56002 60061 7//4/ 333
10155 20113 70290=
71822 17162 61305 10139 20131 39668 40133 58008 69951 7//4/ 333
10139 20096 70155=
71825 11132 80000 10079 20079 39551 40215 51002 60021 75165 887//
333 10101 20016 70048 90983=
71827 32974 00608 10065 20036 39940 40181 57013 333 10122 20026 70000
=
71828 36964 03405 10004 21017 39600 40239 53012 333 10119 21001
70000 555 32720 40160=
71831 11356 80108 10079 20079 39826 40101 56011 60021 76152
887// 333 10124 20079 70150 90957 555 30325 40221=
71832 46/64 /3507 10073 20073 39813 40133 58009 333 10137 20073=
71834 32974 20406 10071 20029 39727 40148 58007 81071 333
10164 20068 70000 555 30518 40200=
71836 36664 60409 10117 20087 30111 40122 56015 333 10146 20069
70005 555 30224 40200=
71842 32974 21205 10096 20064 39680 40148 51002 80001 333 10200 20057
70000=
71850 32974 61504 10127 20094 39645 40127 55000 83031 333 10202 20101
70000=
71852 36662 82608 10139 20118 39835 40121 53003 333 10180 20118
70005 555 31818 40170=
71855 36964 02606 10080 20067 39773 40141 51009 333 10205 20080
70000 555 32726 40211=
71856 36240 32403 10126 20126 39840 40116 53002 333 10191 20114
70000 555 31818 40190=
71858 36/64 /3003 10103 20073 39850 40124 53008 333 10179 20103
70008=
71861 36964 02507 10064 21001 39452 40170 53006 333 10168 20063
70010 555 33027 40201=
71862 32574 22406 10043 20038 39490 40185 52007 81501 333
10155 20039 79999 555 33027 40221=
71863 37964 02505 10034 20007 39485 40179 51005 741// 333 10170
20027 70000 555 33128 40161=
71043 32683 21212 10079 20021 30023 40115 50000 81570 333 10119 21016
70000=
71045 36/// /0303 10040 20012 39248 40097 56007 333 10093 20000
70000=
71066 32074 10000 10012 21010 39739 40157 53002 81600 333 10081 20010
70010=
71068 32974 00304 10053 20029 39460 40146 58001 333 10152 20014 70000
=
71069 36964 00000 10028 20024 39453 40151 50003 333 10142 20009
70000=
71076 46/// /0501 10029 20029 39777 40169 53002 333 10062 20000=
71077 36/64 /2701 10082 20065 39619 40141 58001=
71079 11474 82615 10084 20069 39794 40065 55011 60201 72186 887//
333 10163 20048 70303 90973 555 32624 40050=
71081 36464 60307 11011 21052 30104 40115 58003 333 10006 21020
70010=
71082 36020 80000 11150 21158 30199 40240 53004 333 11103 21206
70000=
71083 11974 00111 11003 21041 30149 40186 53006 69901 70176
333 10045 21004 79999 90945 555 19999 29999 32717 40221=
71090 36464 82908 11013 21034 30117 40151 51002 333 10022 21018
70000=
71091 460// /1112 10002 39925 40130 50001 333 10027 21002=
71092 46664 80906 11030 39489 40147 54000 333 11017 21035=
71093 460// /0613 11018 39645 40136 53003 333 11011 21028 555 30722
40060=
71094 46904 00110 11039 39218 40109 51004 333 11034 21052 555 30219
40050=
71095 36964 01304 11025 21060 30081 40152 53005 333 10022 21030
70005 555 30417 40170=
71101 17564 81606 10124 20119 39976 49984 53005 60021 7434/ 333
10125 20096 70170 555 31245 40023=
71104 32774 81215 10095 20047 39027 40117 58011 87501 333 10139 20062
70004 555 31221 40050=
71108 32774 80000 10140 20122 30088 40158 52004 8357/ 333 10174 20104
70004=
71109 11666 81505 10118 20104 30072 40098 56005 60151 76122 885//
333 10155 20092 70148 90962=
71434 36/// /1804 10032 30131 40196 56010 333 10129 20000 70000=
31421 40040=
10152 20001 70016 555 31618 4020/=
71702 36/// /1808 10147 20118 30241 40267 58008 333 10201 20087
70000 555 31920 4002/=
70086 555 32018 40200=
71732 36/// /1904 10149 20143 333 10189 20148 70088 555 31518 40200=
71075 17/// /3606 10009 20009 39513 40114 55001 60021 7//4/ 333
10039 20009 70238 555 30918 40080=
40191=
71096 460// /0904 11035 39418 40145 51006 333 11022 21041=
71851 36/// /2805 10130 20116 39806 40134 53010 333 10183 20099
70034 555 31025 40110=
71873 36/64 /1003 10056 20019 39233 40171 58004 333 10157 20016
70000=
71875 36864 32005 10101 20021 38809 40163 55000 333 10173 20000
70005 555 32726 40220=
71952 17/// ///// 10080 20080 39249 40084 56016 60031 7//4/ 333
10142 20000 70030=
71967 36/// /1109 10063 333 10112 21009 70000=
71629 36764 31905 10155 20127 39890 40118 53001 333 10225 20138
70040 555 31528 40070=
71194 36/64 /0000 10123 20106 30283 40298 58006 333 10168 20058
70000=
71197 36964 01602 10131 20101 30247 40296 58004 333 10151 20050
70000=
71261 17/// /2418 10170 20134 39854 40107 53006 69961 7//4/ 333
10176 20148 70028 555 32430 40201=
71265 36964 82313 10180 20137 30022 40113 53002 333 10202 20172
70055 555 32027 40171=
10001 30122 40200=
71103 37564 31304 10119 20081 39458 40106 56011 743// 333 10166
20068 70000=
71107 17/// /2018 10119 20119 39902 40012 51006 69981 7//4/ 333
10124 20108 70176=
71115 36/// /0601 10113 20096 39587 40158 56002 333 10132 20090
70004=
71121 36964 02006 10054 20024 39340 40155 55000 333 10156 20023
70005=
71143 16/// /3109 10134 20104 39826 40135 52008 69981 333 10167 20132
70134=
71201 36/// ///// 10143 333 10178 20118 70002=
30618 40120=
71450 36/// /2403 10051 20033 39461 40173 53002 333 10179 20051
70008 555 33224 40220=
71475 17/// /1003 10120 20103 30064 40156 69981 7//4/ 333 10196
20104 70010=
85201 11470 79902 10034 20019 36297 57008 60031 70298 83572
333 56000 58010 83613 84357 87070=
85223 32684 70000 10152 20077 37510 47137 51004 82536
333 56000 58012 82630 83358 85070=
89002 43/// /2313 11215 21244 39821 49874 52010=
94120 46/// /3410 10318 20194 30049 40089=
94122 46/// /2509 10309 20222 30091 40100=
94150 46/// /0912 10295 20200 30044 40105=
94203 46/// /2710 10279 20207 30094 40105=
94212 46/// /3005 10351 20108 39615 40087=
94216 46/// /0108 10364 20149 30033 40083=
94238 46/// /0510 10338 20049 39680 40104=
94268 46/// /1310 10348 20110 30078 40090=
94283 46/// /1216 10258 20191 30119 40130=
94287 46/// /1218 10260 20163 30133 40142=
94294 46/// /0616 10261 20162 30151 40161=
94296 35/// /1321 10246 30121 40131 57005=
94298 35/// /1219 10239 30141 40147 57006=
94299 46/// /1522 10254 20210 30119 40130=
94300 46/// /2412 10229 20148 30126 40136=
94302 46/// /2617 10280 20142 30123 40129=
94312 46/// /3115 10287 20186 30104 40114=
94319 46/// /3016 10354 21008 39755 40087=
94326 46/// /0603 10306 20042 39506 40129=
94332 46/// /0907 10328 20058 39725 40112=
94346 46/// /0809 10321 20032 39918 40141=
94363 46/// /1008 10294 20101 39938 40158=
94367 46/// /1310 10236 20160 30133 40171=
94374 46/// /0810 10259 20103 30163 40180=
94393 35/// /1317 10221 30146 40156 57002=
94403 46/// /2409 10203 20117 30083 40125=
94429 46/// /2813 10313 20050 39616 40085=
94430 46/// /3012 10314 20000 39498 40088=
94461 46/// /0413 10263 20121 39443 40119=
94462 46/// /3607 10180 20162 39609 40172=
94510 46/// /1110 10299 21011 39805 40159=
94515 46/// /1708 10269 20069 39823 40178=
94552 46/// /0913 10222 20063 39725 40201=
94578 46/// /1010 10218 20123 30201 40212=
94584 46/// /1523 10209 20141 30087 40198=
94601 46/// /3221 10178 20110 30067 40084=
94610 46/// /2410 10208 20123 30078 40102=
94637 46/// /3209 10290 20018 39653 40082=
94638 46/// /1512 10200 20139 30061 40093=
94647 46/// /2306 10173 20164 30012 40133=
94651 46/// /3314 10236 20110 30060 40138=
94653 46/// /1607 10243 20152 30118 40137=
94659 46/// /1102 10310 20043 39951 40148=
94672 46/// /2407 10210 20127 30179 40184=
94693 46/// /3604 10281 20088 30118 40181=
94703 46/// /0909 10299 20038 30060 4////=
94710 46/// /0000 10245 20081 39953 40212=
94729 46/// /0000 10147 20105 39370 40240=
94750 46/// /0708 10193 20148 30091 4////=
94767 46/// /0709 10210 20152 30216 40222=
94776 46/// /1111 10213 20135 30221 40231=
94791 46/// /0907 10202 20132 30224 40231=
94802 46/// /3412 10235 20092 39987 40069=
94804 46/// /0815 10171 20133 30137 40176=
94821 46/// /0705 10189 20083 30133 40217=
94842 46/// /1010 10122 20065 30141 40242=
94850 46/// /2112 10126 20048 30197 40244=
94865 46/// /1810 10147 20089 30212 40237=
94893 46/// /2311 10117 20065 30121 40239=
94907 46/// /1308 10136 20095 30230 40240=
94910 46/// /0802 10228 20131 39963 40219=
94926 46/// /3512 10203 20101 39546 40231=
94954 46/// /2320 10120 20040 30133 40246=
94956 46/// /2707 10118 20033 30222 40249=
94968 46/// /3313 10156 20006 39997 40213=
94975 46/// /1506 10143 20026 30190 40224=
94983 46/// /3016 10151 20056 30179 40204=
94995 46/// /1014 10177 20106 30228 40236=
94996 46/// /1013 10171 20114 30090 40222=
94998 46/// /2732 10032 20023 39760 49770=
95719 46/// /1607 10227 20130 39882 40221=
96995 46/// /1214 10257 20191 39827 40123=
96996 41580 10912 10280 20223 30125 40130 58015 70200 81102=
89564 419// /1321 11186 21271 39770 49791 57007=
89571 41570 70704 11190 21239 39762 49791 53001 77022 875//=
89611 41920 81714 11161 21183 39688 49742 57021 77177 8802/=
94974 35/// /2407 10135 30223 40247 57002=
95288 35/// /1321 10247 30115 40130 57012=
95872 46/// /2211=
89009 41448 80207 11549 36753 53008 71022 886//
333 88710=
91490 31599 29901 10282 2024/ 40106 70200 82100 333 562//=
91601 31599 21011 10298 2026/ 70200 82200 333 562//=
91610 31599 20909 10299 20244 40069 56002 70200 82100 333 562//=
91701 31599 30716 10284 2023/ 40088 70200 83100 333 562//=
85406 32060 00505 10118 20077 40160 58006=
85418 32562 81407 10153 20113 40163 58011 885//
333 56099 88628=
85442 32470 83603 10137 20100 40168 57016 885//
333 56099 88618 =
85488 32462 83502 10119 20100 40166 50000 885//
333 56099 88618=
85574 32960 52402 10108 20073 40180 52003 70321 85070
333 56060 85363=
85682 32965 62802 10098 20071 40175 57002
333 56070 86359=
85743 32560 89902 10078 20058 40172 53003 885//
333 56699 88625=
85799 32960 82503 10065 20055 40170 54001 8803/
333 56079 88357=
85874 32680 63011 10036 20001 39504 40127 50001 84450
333 56660 84633 84360=
85934 11480 72723 10022 21015 40022 52055 60031 70282 85500
333 56600 85618 =
13585 11698 80000 10152 20135 39407 40178 52009 69942 70252 8652/ 333
20148 30013 90351=
13598 12698 80000 10122 20115 48510 57007 69922 885// 333 20073 31005
=
67665 32970 01011 10189 20115 48527 70500 333 10315=
91753 22475 81010 10274 20228 40112 53015 8387/
333 82816 88460
555 10301 20251 69964=
91577 32581 61712 10232 20181 40133 55000 86800
333 56200 85830 83656
555 10253 20175=
91579 36/// /1208 10241 20192 40134 55000
555 10270 20199 60004=
91582 32570 31110 10239 20190 40136 53002 83200
333 56300 83820
555 10261 20152=
91583 36/// /1002 10239 20188 40138 55000
555 10268 20191=
91587 16/// /1010 10231 20201 30096 40146 53002 69922
333 10259 20117 55/// 70002=
91590 22680 41806 10248 20183 40131 55003 84200
333 56000 84833
555 10279 20129 69924=
91592 32680 31217 10232 20196 40136 55001 83801
333 56306 81833 83650
555 10254 20172=
86330 32997 71210 10179 20139 40149 58005 80006=
86360 32997 21306 10144 20122 40160 56001 80005=
86460 32998 20000 10138 20131 40166 58003 80005=
86560 32997 20904 10151 20144 40178 58002 80005=
86580 31996 30606 10154 20124 40179 57006 71041 80005=
71473 36/// /2009 10136 20119 30123 40153 53003 333 10176 20118
70000=
86218 21458 80706 10196 20184 40146 50021 79599 889//
333 60151 88615 81940=
86233 21360 80000 10186 20176 40129 52022 76122 8372/
333 60041 83710 88520=
65352 32960 70000 10210 20210 39957 40136 81032
333 20210 59007 81363 87076=
65361 32965 70000 10218 20218 39689 40130 83032
333 20214 59010 83362 87076=
65387 32458 73002 10233 20229 30107 40135 878//
333 20233 59003 82810 87630=
64450 32458 62402 10220 20189 39766 40120 84830
333 01900 20215 50384 55018 59005 81810 84623 86365=
60351 12565 40000 10190 20179 40149 53006 60034 84800
333 01759 20182 83820 83633 95900=
60425 32656 50508 10209 20183 40137 50005 85832
333 00900 20199 83833 95990=
60430 11957 60000 10194 20167 40148 53004 69914 700// 81032
333 01619 20188 81360 86073 95900=
60444 32965 20404 10175 20146 39115 48526 51003 80002
333 01200 20165 82073 95900=
60468 32960 00804 10163 20150 39220 48523 51001
333 01500 20162 95900=
60515 31958 30000 10206 20189 40150 53003 700// 80002
333 01800 20197 83070 95900=
60518 31458 40000 10211 20195 40123 54000 700// 82602 222// 20000
333 0//00 20211 82710 83073 91806 95900=
65306 12560 72804 10233 20223 39789 40117 60144 8253/
333 20228 20228 590208262087363=
65319 32960 70000 10205 20197 39611 40128 83032
333 20200 59015 83361 85076=
65330 11960 52802 10215 20209 39680 40119 60014 74444 80002
333 02157 20210 50174 59021 85076=
65335 11401 7//// 10213 20208 39895 40121 60214 74622 857//
333 20204 59021 87613=
65344 12458 73204 10240 20231 30119 40129 69914 84572
333 20235 59008 84612 85360 85076=
71894 36/// /1316 10113 20110 30127 40136 58001 333 10157 20104
70000 555 31327 4004/=
71907 36964 02302 10040 20030 30191 40223 56003 333 10096 20031
70005 555 33020 40080=
68038 31960 40911 10210 20082 48530 53006 70500 84080
333 20160  555 10349 30083 60067=
16622 32660 50000 10210 20130 30160 40166 51004 82130 333 20188
30/// 50980 55103 82835 85358 90730 91102 555 10000 30264
20000 89031 99084 30000 10234 20234 30246 40260 50266 40000
47655 44250 50000 50164=
16641 32470 50000 10200 20157 30144 40149 53003 82260
333 20186 30/// 55073 82818 85358 90730 91105 555 10000
30248 20000 89040 99096 40000 47640 44230 50000 50174=
16682 32960 0//// 10186 20159 30127 40146 53004 333 20156
30/// 50700 55104 90730 911// 555 10000 30238 20000 89031
99096 30000 10206 20214 30242 40258 50260 60268 40000
47633 44260 50000 50170=
16716 32960 00000 10240 20122 30120 40138 51003 333 20200 30/// 55091
555 10000 30274 20000 89044 99086 40000 47628 44255 50000 50172=
16743 32965 00000 10268 20142 39951 40144 57004 333 20234 30/// 55101
90730 91106 555 10000 30268 20000 89033 99070 40000 47501 44250
50000 50192=
16749 32960 02410 10260 20196 30069 40082 53004 333 20248 30/// 90730
91114 555 10000 30270 20000 89061 99070 40000 47587 44240 50000
50218=
16754 32965 13005 10250 20191 30079 40124 52003 81200 333 20204 30///
50390 55099 90730 91107 555 10000 30250 20000 89047 99089 40000 47598
44255 50000 50212=
16650 32460 30312 10226 20192 30145 40149 54001 82602
333 20198 30/// 55097 90730 91120 555 10000 30238 20000 89046 99094
30000 20230 30250 40272 50280 40000 47644 44260 50000 50204=
16732 31965 10210 10244 20204 30117 40128 54000 702// 81100  222//
00236 333 20232 30/// 55104 90730 91112 555 10000 30250 20000 89065
99085 40000 47625 44260 50000 50218=
16614 32560 70000 10166 20101 39410 40174 54000 85550 333 20156 30///
55104 85625 86358=
16627 32560 20508 10224 20158 30155 40159 54000 82200 333 20204 30///
55095 90730 91112 555 10000 30244 20000 89036 99082 30000 10226 20232
30236 40242 50242 60232 40000 47650 44240 50000 50184=
16667 32965 23103 10234 20170 30127 40133 55001 80001 333 20214 30///
55103 90730 91109 555 10000 30282 20000 89048 99087 30000 1//// 20222
30234 4//// 5//// 6//// 40000 47633 44270 50000 50194=
16675 31970 22705 10174 20139 30134 40155 52008 702// 82030
333 20152 30/// 55100 90730 91112 555 10000 30238 20000 89032
99073 30000 10210 20230 30250 40260 50260 60253 40000
47636 44240 50000 50154=
16710 32964 00000 10120 20022 39411 40177 54000 333 20108 30/// 50900
55104 90730 91106 555 10000 30230 20000 89022 99052 30000 10204 20196
30210 40226 50238 60232 40000 47089 44220 50000 50076=
16723 32965 03616 10248 20160 30096 40104 53002 333 20222
30/// 55107 90730 91128=
16746 31958 00000 10236 20193 39960 40137 53009 71000 333 20206
30/// 55098 90730 91105 555 10000 30244 20000 89037 99100
40000 47510 44270 50000 50208 70000 77Y// 7/Y//=
17219 32965 03412 10236 20159 40122 53002 333 20209 30///=
43555 32478 62712 10294 20245 40123 82238 333 59002 82818
85278=
43577 32478 62512 10296 20245 40129 81256 333 59005 81818
85278=
43599 32480 72007 10302 20261 40124 82256 333 59011 83818
85362=
51468 16/// /2603 10018 29054 36603 60011
555 1/133 2//01 /////=
12160 32597 71303 10120 20098 30108 40160 53004 8357/
333 10142 20114 31010 55056=
12210 11497 82102 10118 20109 30054 40121 52003 60022 7//// 885//
333 10138 20104 31010 55001 70019=
12230 11435 81601 10121 20114 30052 40141 52007 60012 76111 8457/
333 10142 20112 31009 55009 70014=
12310 11545 71601 10121 20114 30093 40122 52003 69982 7108/ 8357/
333 10138 20112 32011=
12399 31596 81002 10127 20116 30036 40202 55000 71022 885//
333 10139 20115 31011 55041=
12418 11640 81902 10120 20109 30028 40140 52002 69952 72162 8157/
333 10150 20111 32010 55013 70005=
12469 31650 81503 10095 20082 39941 40171 52003 71022 81537
333 10133 20079 31007 50163 55081=
12488 31920 61103 10088 20088 30029 40183 55000 72811 80008
333 10112 20043 31001 55074=
12540 31940 72201 10105 20094 39911 40160 55001 71011 8707/
333 10145 20095 31007 55067=
12566 31956 70501 10094 20081 39887 40175 55001 71011 82051
333 10146 20077 31006 55089=
12625 32682 72801 10047 20039 39185 42800 57004 83506
333 10088 20027 30101 50272 55083 21592=
12690 32998 80601 10076 20062 39692 40201 55002 80007
333 10120 20061 31004 55097=
12115 11496 71603 10124 20113 30119 40132 53008 69982 78011 8437/
333 10143 20124 32011 70015=
12125 12997 80901 10124 20109 30093 40143 52005 69942 8807/
333 10148 20109 31009 55059 70004=
12200 11940 61602 10110 20108 30103 40110 53005 60022 71011 86070
333 10131 20106 31008 70044=
12272 31356 81404 10115 20104 30010 40175 53002 71011 886//
333 10129 20095 31008=
12280 32460 81505 10127 20111 30027 40186 55003 885//
333 10135 20106 31008 55048=
12345 31958 71503 10123 20107 30015 40157 53003 71011 8703/
333 10149 20123 31010 55086=
12415 32698 72002 10134 20107 39992 40141 53001 8457/
333 10157 20132 32012 55017 20788 70003=
12455 31658 71504 10123 20098 39916 40157 53003 71022 875//
333 10134 20120 31010 55089=
12497 32460 81404 10133 20119 39985 40201 53002 885//
333 10133 20123 31010 50173 55059=
12500 12670 71301 10111 20092 39736 40146 52002 69902 8557/
333 10142 20101 31008 79999=
12530 31996 71001 10119 20103 39959 40155 53001 71022 8707/
333 10153 20107 31007 55084=
12550 31658 81802 10112 20077 39810 40163 56001 710// 86507
333 10138 20087 31007 55092=
12580 32960 70802 10091 20081 39945 40189 55001 80004
333 10123 20064 31003 55093=
12585 31406 80902 10088 20086 39920 40186 55002 74211 886//
333 10146 20077 31007 50193 55097=
12600 32680 70201 10123 20078 39687 40160 55003 8353/
333 10159 20108 31005=
12650 31/00 82407 10024 20024 38004 48502 57004 74111 882//
333 10024 20011 3//// 41998 55033=
12660 31960 40000 10064 20062 39827 40187 56002 72800 80006
333 10136 20046 31003 55089=
57002 70010 80/// 90551
333 10136 20095
555 784// 0/405=
57004 70020 80/// 90548
333 10131 20042
555 786// 0/604=
57001 70000 80/// 90551
333 10067 20010
555 794// 0/203=
17600 32970 01206 10260 20198 30072 40088 52010
333 20178 50441 55110 92427=
17609 31235 60502 10253 20222 30087 40089 53008 71011 86600
333 20202 50771 55107 82705 86710=
41859 32456 51802 10316 20260 40089 85400 333 56400 58015 70000
83618 83825=
41883 32456 51802 10320 20260 30070 40090 85400 333 56200 58020
70000 83618 84825=
41891 32456 52302 10315 20250 30047 40087 84840 333 56990 58009
70000 83618 82365=
41907 32458 51807 10220 20260 30070 40088 333 56400 58020 70002
82618 83825=
41923 32340 70000 10315 20240 30081 40091 85370 333 56490 58026
70000 82710 83616 85457 81930=
41943 32458 40000 10320 20240 30089 40098 82530 333 56990 58016
70000 82616 84362=
41978 31333 52706 10300 20230 40085 70542 8462/ 333 56999 58010
7//// 82708 84615=
41992 32456 32405 10310 20260 30074 40078 82430 333 56990 58005
70000 82616 82362=
16059 31956 42804 10102 20067 39825 40172 56005 71010 82051
333 20093 82363=
16080 31959 40000 10124 20117 30045 40169 51001 71010 82051
333 20111 82359=
16153 32998 42805 10157 20102 39914 40175 56006 80008 90545 333
20157 30/// 55080 21931 555 0114/=
16045 31756 4//// 10108 20104 30111 40175 53001 710// 81270 90545
333 20104 55087 21839 55300 81850 83358=
16105 31925 33603 10129 20111 30160 40166 51001 71000 83010
333 20117 83460=
16191 32980 02204 10119 20111 30157 40175 53002
333 20110=
16158 32460 80903 10150 20135 30167 40174 53001 83171 90545 333
20136 30/// 55105 22045 55300 83815=
16242 32960 00501 10116 20098 30173 40176 53001
333 20103 555 0////=
16310 32898 33209 10202 20148 39922 40137 56005 83030 90545 333
20198 30/// 55050 21151 55300 83358 555 0100/=
16560 32166 33204 10162 20144 30152 40158 55000 81630 90545 333
20158 30015 55006 20673 55300 81703 83358=
31004 88792=
26554 32970 81002 10088 20062 40272 53001 80007   333 20060   555
31006 52005 90011=
26666 32960 61503 10121 20051 40284 57002 80003   333 20092   555
30007 52006 90012=
26850 32960 61402 10111 20050 40255 53003 82031   333 20079   555
31008 90014=
26941 32960 71504 10113 20068 40234 57002 87070   333 20112   555
31010 52010 90011=
26951 12562 71003 10098 20051 40251 53001 69902 87500   333 20091
555 31007 52007 90016=
33008 31556 71402 10130 20115 40206 54000 71022 87500 333
20125 555 31010 52009 90011=
33019 11960 70901 10119 20089 40227 57003 60012 8705/   333 20117
555 32010 52010 90012=
33036 32965 21002 10105 20058 40254 57003 80001   333 20091   555
30009 52008 90011=
33041 32960 61001 10111 20067 40278 57001 80001   333 20086   555
30008 52006 90013=
26863 32960 71102 10096 20064 40282 54000 83032 333 20069
555 31006 52005=
15502 31998 80000 10174 20158 40181 54000 70222 8802/ 333 20138 50252
55093 555 30012 88459=
15525 31597 83601 10171 20143 40181 56001 70222 8257/ 333 20163 50272
555 30016=
15535 31497 80905 10171 20147 40182 57001 70211 8561/ 333 20165 55056
555 30/// 88460=
15549 31597 80503 10158 20151 40194 53003 70222 886// 333 20158 555
30014=
15552 31998 30504 10190 20156 40180 53002 70300 82039 222// 00222
2//00 311// 4//01 333 20174 50322 55022 555 30016 92023 92428=
15614 31696 70000 10174 20145 39488 40167 54000 71022 87800 333 20149
50282 55100 555 30008 95080=
15615 31/98 82006 10016 21010 37181 47129 53002 70322 8322/ 333 20014
55078 444 86207 555 30/// 95183=
15627 11/91 91804 10058 20058 37672 47132 56003 69972 74584 333 20057
55036 555 31/// 95190=
15640 31997 80000 10194 20161 40176 58003 70311 8802/ 333 20186 55072
555 30012 95000=
15655 11598 80510 10203 20168 40182 53005 69912 70282 882// 222//
00236 30705 40601 50501 333 20199 555 30/// 92025 92428=
15730 11698 70000 10184 20167 40177 53003 69922 70322 85350 333 20166
50602 55079 555 30015 83633 95000=
40100 31550 30000 10278 20204 40088 52007 70544 83200 906//
333 20246 30/// 50364 55068 21671 83826 92427=
40103 32860 20602 10257 20223 40093 53007 82030
333 20210 30/// 50304 21985 82358 555   10284=
16084 32965 42605 10110 20109 30006 40172 56002 80001 90545 333
20110 30/// 55047 21119=
16120 32975 30408 10164 20129 30165 40168 51004 80001
333 20160 97082 555 0200/=
16090 31940 50000 10108 20107 30080 40162 56006 71011 83031 90545
333 20108 30/// 55070 21556 55300 83360=
16170 31557 41803 10146 20131 30127 40172 53001 71011 84200
333 20140 30/// 84630=
16206 32570 30207 10120 20087 30162 40171 56003 81104 90545 333
20116 30/// 81820=
16289 32962 03602 10162 20138 30079 40164 56005 333 20145 30///=
16405 32460 50909 10237 20206 30111 40150 58004 85200
333 20221 82818 83850=
16460 32960 32801 10189 20179 30138 40158 51002 83080
333 20182 95000=
16362 31457 71002 10192 20171 30149 40167 53008 71011 87800
333 20181 82915 86650=
16008 32567 50000 10054 20032 38537 48496 57002 85200 90545 333
20052 30/// 85820=
16020 31658 50000 10105 20095 39885 40175 58003 71022 83461
333 20099 83635=
16040 33760 43103 10092 20092 39263 42790 53001 81101 90545 333
20086 30/// 81850=
16110 32598 40804 10140 20117 30162 40166 55000 82108 90545 333
20138 30/// 55089 2//// 55300 82830 555 0100/=
16149 32975 41903 10109 20109 30159 40174 53001 82031 90545 333
20107 30/// 82360=
16181 31958 10000 10074 20066 39928 40179 56004 710// 80001 90545
333 20070 30/// 55066 21266 55300=
16219 32970 03011 10074 21038 38149 48528 56003 90545 333 20070
30/// 55025 20767 55300 95120=
16280 33998 03503 10196 20167 39950 40166 56010 90545 333 20186
30/// 55010 20506 55304 555 0217/=
16453 32998 00603 10226 20161 30072 40148 54001 90545 333 20226
30/// 55095 2//// 55300 98088 555 0100/=
16480 32597 30413 10230 20197 30090 40149 56000 81501 90545 333
20230 30/// 55085 21451 55300 81620 555 0311/=
16522 32998 00302 10190 20153 39927 40165 56004 90542 333 20178
30/// 55033 21099 55300 555 0100/=
16539 32898 20906 10172 20153 30050 40162 56006 82030 90545 333
20172 30/// 82357 555 0100/=
16550 32597 53107 10180 20149 39980 40157 56001 85800 90545 333
20176 30/// 55000 20538 55300 81830 84635 555 0200/=
16564 33498 70316 10202 20168 30013 40151 55005 81130 90545 333
20202 31/// 81810 86358 555 0312/=
16061 31950 20000 10120 20120 39339 42789 56002 71000 80002 90545
333 20116 30/// 55015 2////=
16076 32860 30101 10115 20090 39891 40172 50004 83030
333 20111 83357=
16114 31858 10000 10114 20114 39525 42803 56004 71011 81030 90545
333 20110 30/// 81357=
16119 31/05 90210 10075 20073 39601 40181 56002 747// 90545 333
20074 30/// 89/03=
16124 31308 60000 10090 20085 38985 48497 56005 7424/ 86700 90545
333 20078 30/// 86707=
16021 31/01 90000 10012 20012 37999 48516 58001 7454/ 90545 333
20012 31/// 89/00=
16022 31/00 90105 10010 20010 37862 48499 56001 74544 90545 333
20009 41003 55011 2//// 55300 89/00 92855=
16033 32565 30000 10068 20052 38793 48502 56003 83100 90545 333
20068 30/// 55/// 2//// 83825=
16088 31827 50000 10101 20101 30054 40172 55003 71142 82034 90545
333 20097 30/// 82358=
16094 31940 20000 10108 20104 30101 40165 56007 710// 80001 90545
333 20106 30///=
16098 31840 10703 10112 20104 30117 40168 53002 71011 81030 90545
333 20108 81358=
16108 32560 50101 10096 20089 30147 40168 51001 85800
333 20085 85830=
16140 31958 32106 10126 20103 30118 40168 58004 71000 80001
333 20112=
16146 31996 42406 10124 20111 30164 40171 53001 7100/ 81081 90545
333 20124 31/// 81359 98056 555 0000/=
16179 33980 32005 10117 20090 39502 42797 54000 81048 90545 333
20117 30/// 81360=
26135 32997 71103 10108 20077 40252 53010 84042   333 20103   555
30006=
26645 32964 51003 10110 20058 40243 54000 80001   333 20090   555
31007 52007 90010=
26659 32997 71201 10090 20058 40277 57003 80001   333 20075   555
30007 52006 90011=
26763 32960 61702 10106 20053 40286 53003 80005   333 20072   555
30005 52004 90012=
26825 32460 61402 10121 20105 40205 57005 86600   333 20098 86716
555 31010 52009=
26832 32660 70903 10116 20070 40225 57006 87500   333 20106 87640
555 32010 52009 90012=
26961 32960 71202 10103 20059 40264 54000 80001   333 20079   555
30005 52004 90012=
33027 32965 71403 10120 20065 40246 53001 87070   333 20105   555
31010 52010 90012=
33088 32997 61302 10109 20086 40230 54000 86030 333 20099=
33261 32968 70902 10109 20058 40282 57002 80001 333 20080=
33275 32997 60902 10114 20058 40285 52003 80001 333 20065=
33301 12597 41004 10109 20082 40222 56003 69902 84500
333 10089=
33377 32997 50601 10123 20059 40270 52002 82031 333 20104=
33415 32997 31102 10102 20081 40212 57001 83030 333 20080=
33429 32997 71303 10115 20064 40225 54000 87031 333 20082 555
52002=
33466 32998 11002 10125 20076 40249 53002 80001 333 20088 555
52005=
33526 32460 80000 10121 20104 40202 57002 885// 333 20120
88615=
33562 32997 41104 10118 20061 20235 58005 84030 333 20070=
33614 32997 70803 10122 20061 40258 53004 87050 333 20095=
33889 32998 63603 10152 20089 40202 53006 86030 333 20119=
33902 32998 00902 10149 20067 40213 57007 333 20111=
33983 32697 20807 10164 20086 40176 57001 82100 333 20146=
33990 32980 60803 10195 20095 40172 57003 82051 333 20147=
34415 32980 70000 10104 20059 40278 54000 80006 333 20041 555
30000 52000=
16420 11495 83504 10236 20222 30088 40151 58003 60022 79561 8692/
90545 333 20224 32/// 55075 21846 55300 83915 83820 85458
90005 90910 94943 96460 555 0200/=
16429 12962 20000 10204 20187 30138 40149 55006 69902 82030 90545
333 20204 32/// 55021 2//// 55300 82359=
16470 31140 80713 10216 20184 39914 40143 56004 71011 886// 90545
333 20216 31/// 55036 2//// 55300 22/// 88702 95090=
16410 13460 60000 10214 20188 30018 40155 58002 60042 83250 90545
333 20210 32/// 83815 85358=
16400 33997 41308 10210 20198 39884 40165 56004 84030 90545 333
20208 30/// 55020 2//// 55300 22/// 84361 555 0100/=
40356 42960 00508 10260 21020 39127 48469 333 20170
59024 555 04410 50042=
40357 42962 00000 10278 20030 39448 40046 333 20218 59018=
40360 41959 03112 10216 20160 39518 40079 71000 333 20188 59015=
40361 42960 02710 10272 21010 39325 40048 333 20200 59012=
40373 42960 01516 10358 20010 39652 40042 333 20300 59013=
40375 42960 00000 10250 20090 39240 40070 333 20200 59005=
40377 42960 02406 10340 20020 39592 40029 333 20260 59029=
40400 42960 00000 10292 20280 30036 40063 333 20230 59001=
40416 41957 01706 10350 20240 30040 40059 70500 333 20220 59008=
40420 42960 41604 10364 20140 39886 40082 84030 333 20236 58012
84360=
40430 42660 42106 10320 20150 39373 40054 83530 333 20280 59012
83645=
40437 42960 21711 10342 21020 39406 40065 82030 333 20250 59011
82360=
40438 42960 31713 10350 20010 39409 40063 83030 333 20280 59003
83358=
40439 42660 31608 10320 20280 30058 40070 81630 333 20290 58002
81720=
41024 42960 10306 10320 20260 30051 40070 81030 333 20290 59005
81360=
41030 42960 30000 10330 20220 39798 40061 83030 333 20276 58004
83360=
41036 42960 22004 10278 20110 38560 48513 82040 333 20206 58001 82360
555 04410 50063=
41128 42960 00000 10310 20010 38794 48511 333 20190 59006 555 04410
50059=
41240 31958 00710 10340 20249 30092 40095 70600 333 20315 58021=
41244 36/// /0512 10315 20139 39764 40118
333 0E029 20273 58017=
41246 31558 10706 10321 20260 30093 40098 70500 81530
333 20273 58023 81625=
41254 32565 11006 10253 21078 38063 48318 81100 333 20168 58014 81820=
41256 32960 00607 10323 20264 30086 40095
333 20271 58019=
41258 36/// /3602 10315 20288 30087 40093
333 0E/// 20285 58000=
41268 32960 02422 10320 20209 30086 40101 333 20255 58012=
41288 31359 22704 10280 20221 30100 40122 70600 82600 333 20241 58018 82708=
41304 36/// /1421 10291 20177 39778 40097
333 0E022 20204 58004=
41312 36/// /1202 10278 20225 30062 40102
333 0E/// 20241 58003=
41314 32962 01403 10292 20143 39599 40114 333
20204 59001=
41316 32562 22108 10281 20207 30075 40101 82500
333 20237 58005 82625=
12295 11458 81304 10125 20111 30021 40204 56002 69902 71052 885//
333 10137 20097 31006 79999=
26887 32963 50902 10078 20058 40293 56001 80002   333 20049   555
30005 52004 90011=
11414 11465 80000 10090 20085 39427 42765 52003 60022 70262
888//
333 20089 32008 70050 83813 85633
555 397// 50117 60120 70123 80127=
11438 11470 81602 10109 20087 39758 40148 58002 69972 70262 8557/
333 20107 31009 50142 70013 82718 85625 87460
555 386//=
11502 11378 81603 10103 20098 39690 40139 53001 60042 703//
885//
333 20101 32009 50112 70072 88608
555 397// 50121 60123 70128 80132 90140=
11538 01670 72203 10099 20094 39556 40154 55001 60012 72162
86530 90611
333 20095 32008 69905 70014 86633
555 12004 397// 50121 60125 70129 80135=
11628 11762 82701 10104 20100 39528 40153 50000 69922 72122 875//
333 20092 31008 50172 70004 87650
555 397//=
11643 01240 82103 10084 20072 39199 42775 55001 60012 761//
887//
333 20084 32008 50062 69905 70013 88706
555 12207 392// 50101 60102 70101=
11683 31140 82103 10087 20087 39296 42782 51006 710// 886//
333 20078 31006 50052 70000 88703
555 12004 300//=
11693 31658 80203 10097 20088 39675 40152 55001 71011 885//
333 20087 31004 50062 70000 88640
555 10503 394// 50114 60115 70125 80133 90142=
11698 31458 89902 10093 20077 39752 40156 53004 710// 886//
333 20087 31007 50202 70000 88710
555 390// 50119 60123 70123 80137 90144=
11710 32960 71303 10105 20088 39548 40160 55001 86041
333 20095 32005 50132 70000 86359
555 389// 50115 60124 70123 80125=
60360 12460 32005 10210 20201 40137 53008 60054 83602
333 01400 20205 82713 95910=
60390 11504 40000 10200 20200 40154 53006 60014 74440 84700
333 01819 20196 84720 95900=
60402 12458 42406 10205 20197 40148 55000 60014 82232
333 01859 20184 82816 83073 95910=
60419 12960 20000 10170 20160 40140 53006 69904 80001
333 01519 20165 82073 95900=
60475 32956 10000 10175 20164 39230 48529 53007 80002
333 01400 20175 81073 95990=
60490 32456 60000 10204 20196 40138 53001 85682
333 01800 20203 82710 83623 95990=
60525 32960  13610 10252 20188 40120 56001 80002
333 02300 20250 81073 95900=
60531 12430 70000 10201 20195 40141 51006 60034 8423/
333 01500 20175 82710 83826 95970=
60566 32960 00000 10231 20166 40118 53010
333 01900 20225=
60571 31950 00000 10185 20090 39214 48510 54000 70600
333 0//00 20184 95990=
60590 32960 00000 10234 20051 40109 53004
333 01700 20205=
60656 32960 22716 10195 20116 40119 51009 82030
333 01800 20195 82360 =
60670 32965 0//04 10242 21016 39089 48560 53009
333 02000 20232 95900=
33506 32998 70602 10110 20048 40265 54000 80001 333 20085=
33317 12980 31203 10127 20056 40226 54000 69902 83030
333 20095=
33791 32997 30806 10144 20045 40241 58002 82031 333 20106=
33345 32998 30901 10116 20065 40260 53002 82089 333 20095=
33663 32998 20201 10136 20080 40226 53003 82030 333 20080=
40102 36/// /3401 10226 20083 39094 48507 51006 906//
333 20117 55099 21940=
60355 12660 71806 10227 20217 40151 53010 60164 8623/
333 0//39 20220 86833 95900=
60445 32960 30000 10175 20161 38993 48522 56003  80002
333 01400 20160 83073 95900=
60511 11558 83606 10180 20169 39055 48518 55004 69974 72996 8537/
333 01612 20175 81920 85826 95970=
60535 31460 73410 10173 20165 38843 48522 53004 700// 876//
333 01400 20152 87710 95910=
60550 31960 10000 10171 20124 38678 48526 53001 700// 81081
333 01600 20166 81360 95900=
60555 32960 10304 10230 20215 40109 53006 80002
333 02200 20218 81073=
60559 32960 30805 10235 20180 40105 53008 80002
333 0//00 20234 82073=
60560 31960 00606 10196 20143 38932 48496 53002 700//
333 01700 20194 95900=
60607 32960 02206 10230 20040 40099 53010
333 0//00 20230=
28679 12499 73204 10100 20064 40240 52016 69900 86930   333 20058=
28766 32598 63602 10116 20051 40232 52001 82240   333 20069=
28966 12598 63202 10102 20064 40244 52020 69940 83331   333 20075=
35108 32997 10501 10149 20093 40291 52005 80001   333 20050=
35217 32998 03601 10172 20051   333 20048=
35302 32998 00501 10136 20076 40264 52012   333 20054=
35406 32997 00000 10170 20062   333 20047=
36152 11598 72605 10113 20078 40221 53011 60030 70266 86250   333
20070=
36428 32699 73601 10126 20006 40261 58003 87900   333 20035 95090=
36639 32599 61804 10149 20004 40260 58007 85532   333 20032=
16734 32570 13207 10248 20145 30077 40138 53007 81100 333 20220
30/// 55056 90730 91110 555 10000 30256 20000 89048 99079 40000
47596 44260 50000 50186=
47401 41/80 62909 10095 20014 30133 40146 53003 72582 86200=
47412 41/60 73213 10090 20036 30135 40166 52005 78082 872//=
47420 41/70 73422 10127 20086 30058 40104 53005 78042 872//=
47426 42/80 42921 10143 20066 30084 40128 53001 83202=
47582 41/65 73516 10153 20063 30154 40179 53008 78082 822//=
47590 41/75 80601 10175 20146 30100 40151 55004 76162 8277/=
47600 41475 80221 10166 20122 30178 40195 53014 78086 882//=
47648 41/65 80516 10187 20152 30110 40142 56003 72186 8752/=
47662 41/35 80808 10187 20152 30101 40143 53001 76062 888//=
47678 41/50 80404 10247 20220 30023 40115 56013 71082 8127/=
47740 41256 80313 10173 20151 30159 40196 53012 78082 8727/=
47778 41/60 80806 10248 20205 30031 40116 56010 78082 8527/=
47807 41/75 70114 10242 20165 30150 40167 52004 72511 82272=
47827 41/59 11808 10295 20209 30078 40113 56014 70500 81231=
47843 42/80 60114 10258 20166 30123 40153 55003 82132=
47898 41958 72604 10261 20211 30084 40121 56014 71062 80002=
47909 41/70 63608 10298 20220 30103 40111 56013 70282 86202=
47918 41/75 60415 10309 20230 30080 40088 56022 70282 84362=
47936 41/65 70510 10289 20224 30040 40100 56018 78082 8636/=
47945 41/60 81211 10252 20238 30075 40098 58019 76186 8627/=
47971 41/75 71004 10270 20252 30110 40119 57006 72522 86202=
47991 41/80 70717 10286 20243 30096 40106 56009 70282 81232=
47407 41/65 73106 10093 20045 30011 40152 53007 78082 872//=
47409 41/60 83309 10089 20058 30082 40134 53010 78081 882//=
47418 42/80 70319 10127 20076 30062 40109 53008 86202=
47421 41/82 63509 10091 20017 30135 40181 53005 72582 86300=
47430 41/82 63318 10122 20006 30115 40167 53008 78011 86230=
47570 41/65 80302 10159 20119 39912 40162 55002 78082 8527/=
47575 42/82 63218 10152 20017 30173 40177 53008 86200=
47585 41/80 82102 10175 20136 30092 40147 53005 70262 8387/=
47598 41/80 80205 10194 20140 30139 40145 55003 70262 8387/=
47602 41/65 80213 10154 20118 30167 40187 53010 78082 882//=
47605 41/60 80910 10174 20137 30137 40176 57001 72562 882//=
47618 41/57 83103 10152 20131 39455 40156 55000 76162 8252/=
47624 41/50 81603 10202 20170 30007 40138 55003 78062 8427/=
47636 41/65 73312 10223 20123 30072 40136 56005 70282 8687/=
47655 42/60 71906 10265 20173 30061 40114 56010 81232=
47663 41/70 70803 10261 20172 30087 40118 56010 72511 84232=
47675 41/65 70408 10238 20191 30033 40124 55007 70282 86201=
47741 41/60 70407 10196 20157 30157 40183 53001 78082 873//=
47746 41/70 73205 10200 20161 30162 40180 53001 70286 872//=
47750 41/68 71102 10181 20168 30147 40173 55003 78082 8627/=
47755 41/75 70307 10231 20162 30151 40174 50000 70282 86332=
47772 41/81 80105 10216 20143 30061 40157 51001 72582 8227/=
47800 41470 73408 10222 20171 30163 40185 53001 78082 872//=
47815 41/75 80210 10244 20183 30135 40150 55001 78022 8627/=
47817 42/80 33614 10274 20167 30097 40137 55008 81132=
47830 42/60 70708 10278 20213 30102 40118 57011 83800=
47837 42/60 60204 10289 20209 30097 40118 57012 82230=
47887 42/65 80207 10229 20155 30112 40151 53001 8627/=
47891 41/65 83607 10219 20157 30153 40165 55000 78082 8627/=
47899 41/70 80623 10219 20191 39914 40128 58011 72522 8427/=
47927 41/75 60518 10287 20224 30044 40090 56020 70282 83201=
16648 32660 50000 10214 20135 30066 40153 53003 81150 333 20158
30/// 50710 55089 81840 85359 90730 91103 555 10000 30250
20000 89019 99087 30000 10222 20228 30242 40256 50260 60256
40000 47584 44240 50000 50168=
16643 32970 30000 10216 20174 30152 40157 51002 83030 333
20190 30/// 90730 91105 555 10000 30240 20000 89051 99094
40000 47650 44255 50000 50190=
16684 32560 30208 10230 20210 30101 40126 54000
83101 333 20195 30/// 55119 83820 90730 91111
555 10000 30240 20000 89083 99098 40000 47611
44250 50000 50216=
40362 42962 02506 10300 20050 39540 40025 333 20195 59050=
40394 42962 22404 10318 20040 38985 48496 82040 333 20244 59014
82360 555 04410 50034=
41055 42960 00000 10280 20010 38361 48503 333 20210 59003 555
04410 50038=
41112 42960 00906 10225 21011 37958 48514 333 20124 58004 555
04410 50071=
41136 42660 30507 10340 20040 39284 40050 83500 333 20290 59007
83640=
41140 42960 00000 10338 20260 30067 40075 333 20298 59009=
20046=
30372 42799 70000 10105 21086 40100 57044 84532=
30433 42999 80304 10112 21041 40071 57034 84032=
30554 42998 80000 10130 21014 40092 57053 83041=
30635 42999 81303 10151 20070 40072 57034 80001=
30673 42999 82004 10129 21002 40157 58039 80005=
30692 42999 72302 10120 21067 40177 57028 80001=
30758 42999 81603 10172 20038 40144 57034 80001=
30802 42699 82504 10123 21027 38662 48460 53027 85341=
30823 42999 80000 10143 20029 40098 57031 85032=
30879 42999 32204 10143 20011 40199 57037 82082=
30935 41999 80000 10163 20023 40120 57035 70341 86071=
30949 42999 00000 10225 20015 40126 57037=
30965 42999 22106 10199 21033 40162 57039 80002=
31168 42699 22105 10077 21038 40128 57013 82100=
31300 42999 73001 10129 21054 40194 57024 80001=
31329 42699 12303 10065 21057 40182 57015 81200=
31369 42698 82902 10054 21027 40148 57001 8396/=
31416 42699 31501 10089 21044 40166 57019 83200=
31484 42699 23205 10121 21067 40149 57018 82100=
31510 429// 52401 10149 21057 40221 57022 82031=
31735 42597 72708 10117 21044 40185 57015 81101 333 91011 91111=
82100
22284 04178 2//00 308// 4//// 5//00 8////=
41598 31909 10282 20238 40154 56010 70200 82202
22265 00253 20604 399// 80250=
41998 01508 10230 20170 40170 52010 70000 80000 90540
22253 00250 1//// 20403 318// 40302 BRDS=
11302 70011 333 91205 555 11049 22051=
80112=
62120 21064 99564 10021 46997 /0207 10119 20105 40180 52005 22200
80111=
10401=
62103 21064 99499 70029 46/97 /0407 10154 20114 40189 52002 22200
00168 10901 70005 555 05111 07043 10033 11045 12454 13468 14658
15590 17072 18003 19003 35081 36017 70001 72019 73147 74019 75456
76401 80098 05112 07037 10035 11045 12453 13468 14751 15590 17072
18003 19002 35081 36017 70001 72020 73147 74019 75453 76406 80136=
62301 21063 99523 70045 46/// /1303 10131 20131 40190 22200 00158
10401=
11051 12451 13445 14978 15593 18001 22055 23110 35095 36024 50051
51368 52005 53088 70004 71966 72233 73127 74500 75229 76952 77000=
15601 18008 19005 22055 23025 35053 36043 50056 51599 52009 53530
70001 71999 72772 73128 74012 75440 76900 80137 05412 07336 10020
11050 12412 13437 14743 15601 18006 19005 22055 23024 35053 50056
51599 52009 53530 70001 71999 72740 73128 74012 75438 76900 80089=
11017 12443 13453 14526 15598 18007 19003 22055 23036 35063 36038
50053 51074 52011 53116 70001 71999 72085 73129 74019 75452 80090=
72403 73119 74012 75446 76900 80120 05272 07047 10033 11054 12425
13443 14770 15603 18026 19005 22055 23021 35056 36047 50054 51574
52012 53401 70001 73127 74012 75444 76900 80078=
48820 32598 61401 10327 20237 30077 40045 58018 862// 333 58020
86895=
48826 31596 80000 10336 20281 39948 40073 58020 71022 85208 333
58013 85895 88299=
48839 32998 00207 10299 20257 30019 40082 57015 222// 2//02 333
58012=
48845 32598 73604 10316 20261 30075 40082 57017 83208 333 58016
83895 87299=
48848 32570 70504 10316 20256 30081 40089 57006 82908 333 58024
81995 81697 87299=
48855 32570 73608 10319 20247 30064 40072 57020 83208 333 58014
83895 87299=
48870 31498 80000 10321 20258 30067 40074 58014 71791 889// 333
58015 81894 82995 88696=
48877 32598 79901 10330 20251 30065 40070 55023 82908 333 58013
81895 81995 87299=
48887 32570 61804 10316 20269 30063 40069 57025 82908 333 59002
81895 81995 86299=
48920 11597 72508 10286 20252 30069 40069 57020 69901 78022 84908
222// 00302 20302 333 58006 82895 81995 87299=
48803 32660 60000 10308 20239 39980 40090 57027 865// 333 58013
86696=
48806 11570 61402 10283 20223 39344 40090 57019 69951 70384 8323/
333 58015 83895=
48808 31570 30502 10327 20238 39809 40079 57024 70240 83200 333
58005 83895=
48823 32498 63403 10321 20258 30075 40078 57021 83108 333 58019
82895 85299=
48830 32570 60701 10303 20212 39790 40085 57020 862// 333 58016
86895=
48840 32798 63204 10297 20247 30084 40090 57015 865// 333 58022
86697=
48852 32570 63603 10325 20243 30064 40074 57016 83908 333 58016
82895 81995 86299=
48802 32460 70000 10195 20184 38425 57015 879// 333 58021 85894
86995=
48810 31470 32302 10328 20227 39887 40084 58020 70241 82200 333
58013 82894=
48831 32470 23202 10330 20248 30039 40075 58020 82100 333 58015
81894=
48838 32598 60000 10322 20238 30078 40084 58015 868// 333 58017
82895 85696=
48846 31598 80000 10296 20249 30076 40079 57012 71792 889// 333
58019 82995 87697=
48863 32598 70903 10326 20244 30062 40073 58018 84308 333 58014
83895 81995 87299=
48866 11598 72503 10259 20219 39229 40091 57020 69901 71798 879//
333 58008 85895 87995=
48875 32570 73204 10290 20232 39554 40074 57020 872// 333 58007
87895=
83242 22273 00280 20503 31110 40403 5//// 80270=
54764 32980 10407 10201 20055 40272 57016 80002 333// 20158=
56018 32680 11401 10155 20053 36246 57015 81100 333 00101
20019=
56021 32580 21403 10143 20020 36151 57011 82900 333 00103
20002=
52833 32980 01405 10206 20050 37107 57022 333 05104 20074=
51368 52005 53088 70004 71966 72233 73127 74500 75229 76952 77000=
61968 36/// /0808 10259 20205 30151 40156
333 20235 55000 59007=
61970 36/// /1708 10263 20199 30145 40156
333 20235 55000 59008=
61980 32570 10716 10248 20170 40178 81200
333 01700 20173 50364 55072 59002 81821 92438=
67005 32580 62902 10264 20202 40156 86800
333 01900 20210 55077 59012 81825 86650=
71739 11132 80405 10132 20132 39722 40075 58004 60121 76165 887//
333 10140 20129 70236 90927 555 30318 40001=
71811 11574 80806 10098 20085 30153 40221 57010 60011 76165 885//
333 10134 20011 70034 90927=
84628 34340 31804 10142 20133 30113 40129 71044 836//
333   564// 59001 83708=
84377 31460 80804 10240 20233 30003 40108 70222 8357/
333   5600/ 58003 83613 85460=
84515 31960 00000 10234 20220 39924 40103 70200
333   58001=
84401 31960 00000 10180 20148 30142 40212 70000
333   58003=
84686 31960 00000 10100 20064 36887 70200
333   58001=
84691 31958 01603 10134 20112 30114 40121 71040
333   59001=
84752 31960 00000 10106 21084 37544 70200
333   58025=
84452 31960 01905 10155 20134 3D0104 40138 70200
333   59011=
67341 31565 62104 10200 20167 40212 52013 70421 86500
333 20169 50//0 55/// 555 10000=
91772 11498 71205 10245 20232 40130 78088 8472/
333 5639/=
91776 31498 70915 10264 20227 40146 70222 8573/
333 5629/=
91784 11599 70921 10244 20208 40155 69901 70282 878//
333 562// 83818 87640=
91792 31498 60818 10229 20187 40179 53007 70322 848//
333 562// 84818 86640=
61085 12965 70000 10236 20220 39/// 4//// 60184 87070
333 02029 20210 50324 87364=
61091 32960 72002 10228 20210 39669 40118 82038
333 02100 20220 50621 50314 55085 59012 82364 86280=
68026 32960 11806 10174 21039 48509 52013 81080 333 20102 555 10322 30109 60062=
68148 32560 00518 10180 20103 48515 52020 82500 333 20163 555 10260 30010 60060=
68226 31560 22504 10115 21041 48514 52007 70500 81980 333 20071 555
10210 30091 60062=
68234 12960 10915 10152 20098 48510 53005 60024 81080 333 20099 555 10206
20020 30041 60054=
68240 12460 51015 10167 20101 48520 53003 69954 84570 333 20134 555 10203
20005 30015=
68328 11960 20000 10105 20101 48518 52010 69934 70400 82080 333 20067 555
10162 20003 30046 60056=
68032 31960 01604 10168 20033 48496 52012 70500 333 20125 555 10309 30106 60063=
68040 32960 00714 10205 20082 48498 52010 333 20175 555 10317 30049 6////=
68054 32960 51109 10178 20099 48525 52011 85080 333 20157 555 10313 30086 60063=
68029 32960 00205 10220 20095 48514 52023 70400 333 20159 555 10355 30103 60067=
89022 47/98 30806 11323 21359 39868 49910 53023 70010
333 55097=
82579 32970 03402 10246 20213 40108 333 59001=
82599 32570 11803 10213 20193 40129 81200 333 59004=
82993 21562 51203 10234 20228 40141 71561 85200 333
59009 69941=
83208 32970 03305 10215 20201 39432 40109 333 58014=
83362 32570 63103 10270 20194 40102 81104 333 58006=
83768 31562 71204 10176 20133 39516 40170 56009 70522
83531=
83971 32970 00000 10164 2//// 30167 40172 55001=
83612 32970 00610 10234 20149 39494 40093 58014=
83721 32970 01313 10145 20120 39417 40158 56022=
83722 31558 81218 10174 20133 39453 40143 56016 70522
8252/=
83649 21270 82704 10190 20189 40209 56025 72165 8262/ 333
60051=
83248 21470 71210 10250 20230 40162 70262 85830 333 59006 69961=
83349 21458 72608 20195 40175 71562 85830 333 59003 60051=
82193 32470 60606 10249 20249 40098 83201 333 59001=
82281 32470 20505 10266 20243 40117 82500 333 58012=
82824 31130 70000 10230 20230 40109 72842 87500 333
58019=
78866 32584 20804 10266 20224 30143 40147 57014 82200 333 59003
82822=
61976 62575 31516 10262 20193 40159 83100
333 02300 20231 55096 59012 83820 92448=
61972 32580 51412 10248 20157 40179 85200
333 02100 20211 55072 59011 85830 92438=
68994 12497 52013 10034 21043 39988 40015 52021 60024 85500 222//
00055 20000 300// 40000 333  20004 91034 555 10060 20021=
45007 11466 71007 10279 20241 30089 40098 58014 60021
72582 8423/  333  58059 81815 83825 86358 =
64387 32565 72004 10185 20148 38526 48520 85232
333 01400 10284 20162 50364 55073 58004 82826 83633 1020.5
58013 85895 88299=
58012=
83895 87299=
91652 36/// /1409 10257 20228 40130=
91659 11598 81404 10226 2022/ 40137 5//// 60471 78088 8787/
333 5699/ 87828 86645 88360=
91660 16/// /1412 10228 20216 40120 69925=
91670 36/// /0807 10234 20233 40118=
91676 36/// /0908 10254 20217 40137=
91680 11698 80506 10250 20213 40123 53006 69921 70262 8487/
333 5699/ 81830 83650 88462=
91683 11598 80000 10244 20232 40141 53007 60021 70266 8687/
333 5699/ 83820 85645 87462=
91691 16/// /0504 10247 20246 40144 69925=
91693 31599 71005 10249 2022/ 40144 53007 71522 878//
333 562// 85825 83645=
91697 36/// /0907 10250 20236 40142=
91699 16/// /0412 10225 20223 40152 69965=
28978 11598 73204 10095 20056 40236 52014 69980 70242 87900   333
20062=
28984 32499 83402 10083 20056 40232 52015 889//   333 20052=
35173 31496 83204 10084 20078 40235 52006 70242 887//   333 20048=
38149 42998 01003 10193 20090 40272 52010   333 20045=
38178 42998 00305 10192 20082 40254 58004   333 20096=
38262 32998 30000 10202 20093 40265 53008 80002   333 20046=
38264 35998 20804 10194 20029 40271 52009 80001   333 20056=
38396 42997 20804 10188 20029 40275 52008 80001   333 20049=
38403 42997 00504 10176 20019 40269 53008   333 20088=
38413 42998 00905 10189 20055 40259 52004   333 20095=
38457 32998 00000 10188 21030 40228 52003   333 20054=
38462 42999 00000 10165 21127 38812 48562 58018   333 20018=
38565 32998 00502 10195 21019 40207 56001   333 20038=
38579 32998 00202 10186 20013 40228 50000   333 20045=
38583 42997 03201 10183 20070 40237 52001   333 20024=
38611 42997 01002 10186 20050 40229 57005   333 20084=
38618 32998 00201 10193 20017 40207 57003   333 20077=
38683 42997 00504 10194 20009 40230 52005   333 20060=
38696 32999 01403 10179 20006 40201 54000   333 20080=
38812 42997 02803 10194 20064 40218 52008   333 20064=
38927 32997 02803 10186 21014 40223 51007   333 20064=
17140 32665 20905 10154 20100 38715 48511 51002 82100 333
20119 30010 50661 55110 22064 82840=
40250 32970 00000 10218 20189 39350 40101 52004 333 20186 30///=
40265 32560 33206 10200 20194 39340 40106 52005 83100 333 20168
30013 83830=
40296 32965 00000 10300 20240 40123 54001 333 20260 30023=
40255 32560 32504 10210 20190 39410 40098 52004 83200 333 20190
30016 83830=
40260 32960 01804 10252 20160 39335 40073 52008 333 20180 30015=
40270 32960 00000 10210 20162 39225 40084 52003 333 20185 30012=
40272 32960 00000 10202 20168 39281 40083 54001 70500 333 20186
30010=
40340 32960 00000 10273 20246 40072 52004 333 20224 30021=
40706 32960 01007 10162 20043 38677 40163 51007 90545 333 30011
51061 70000=
40732 32560 80000 10204 20146 30240 40220 52010 8432X 90545 333
31015 50211 70122 81925 83630 88459=
40745 32960 01402 10154 21020 39097 40233 50005 90550 333 30102
50191 70000=
40754 32660 31502 10188 20014 38869 40174 52012 81430 90550 333
30014 51001 79999 81640 83360=
40766 32660 20000 10228 20088 38690 40089 52014 82030 90550 333
40766 32660 20000 10228 20088 38690 40089 52014 82030 90550 333
30009 50901 70000 82845=
40800 32960 00000 10196 20024 38478 40121 52013 90550 333 30008 50461
70000=
40811 31940 21605 10316 20260 30046 40072 51013 70500 80030 90550
333 30025 51021 70000 82360=
40841 32660 40000 10220 20110 38282 40120 51009 81430 90550 333
30008 50621 70018 81640 83360=
40848 31956 00000 10242 20065 38529 40084 51011 70500 90550 333
30011 50981 70000=
40856 32660 50000 10210 21030 38674 40155 52018 81450 90550 333
30009 51321 70000 81640 85360=
40875 31935 00303 10340 20240 30084 4009'?97T UPTQP OPTTP
EEE EPPWY TPWPQ UPPPPVWOIQV
RPIIE EQOTY PPOPT QPERP WPWRP EPPYE RPPIP TWPQO UPTPP OPTTP
40155 31559 31803 10250 20208 30074 40084 54000 71000 83100 333 20222=
40180 32560 11103 10260 20204 30047 40093 52012 81500 333 20210=
40199 32965 00203 10281 20148 30079 40082 52004 222// 00247 333 20234 50961
55105=
44214 32698 23206 10077 21082 38316 40212 58006 82500=
44259 32998 23207 10231 21036 39356 40185 57034 80002=
44277 31697 72510 10140 20086 37848 40123 54000 70722 82544
333 91212=
44288 32899 71805 10168 20030 38200 40115 57020 82088=
44292 32999 61807 10207 21067 38722 40130 56029 80006 333
91110=
44304 32999 12010 10207 20004 39033 40164 57033 80002 333
91012 91114=
44354 32999 01407 10216 20015 39158 40175 57023=
44373 32999 22008 10220 20086 38549 40110 57021 80004 333
91212=
48300 01565 30000 10305 20251 39769 40068 69901 76010 84505
333 58000 69905 70002=
48327 32665 41506 10313 20234 39722 40068 84805
333 58008=
48331 32565 52902 10325 20242 39851 40074 84903
333 58010 79999=
48353 31565 43602 10311 20234 39796 40078 70142 83230
333 58019=
48356 32562 31101 10320 20246 39883 40075 82141
333 58006 70015=
48378 01457 80000 10304 20249 30021 40073 69921 76022 84876
333 58004 69925 70002=
48381 01560 60708 10268 20267 39860 40082 60111 72162 84806
333 58028 60116 70120=
48407 11560 73304 10310 20254 39935 40074 69911 71762 84943
333 58012 70015=
48431 32560 73301 10310 20238 39862 40071 85876
333 58002 70016=
48456 32560 72402 10327 20265 30065 40079 84846
333 58001 70004=
48480 11562 72104 10327 20259 30067 40071 60011 70362 84976
333 58000 70013=
48500 32560 50000 10325 20258 30076 40081 84202
333 58008=
48551 32564 60000 10325 20228 30081 40089 83206
333 58000 70042=
48565 32560 62705 10310 20246 30085 40089 81146
333 59002 79999=
48569 32562 42616 10334 20225 30046 40086 82201
333 59005=
48583 32562 30605 10305 20242 30084 40088 82105
333 58000 70014=
23914 32968 72702 10099 20089 40262 53003 87080   333 20072=
23921 32599 72702 10143 20084 40220 58003 86530   333 20031=
23955 41498 72404 10087 20064 40121 54000 70282 87900   333 83914=
23966 41396 82602 10086 20076 40099 58001 78082 889//=
28255 32999 82502 10114 20077 40241 52007 86031   333 20059=
28440 32998 73102 10106 20053 40266 52010 87080   333 20063=
28661 12599 83601 10114 20074 40259 52013 69980 85531   333 20045=
28722 12997 70000 10118 20098 40290 52008 69930 87030   333 20042=
29231 41498 82703 10083 20065 40135 52006 70282 883//   333 88911=
29313 41598 82704 10091 20027 40162 52007 70282 889//=
29612 41498 62204 10108 20046 40183 52003 70341 86300=
29634 42557 62005 10094 20050 40194 50001 86100 333 86820=
29838 41597 82004 10103 20034 40229 52010 76062 8653/   333 86625=
36061 41599 73402 10106 20053 40231 58015 78082 86901=
28116 32898 72202 10099 20082 40283 54000 83039   333 20035=
28240 32599 83204 10081 20055 40265 52014 885//   333 20017=
28419 31596 60000 10110 20092 40289 52010 71041 83330   333 20043=
28621 32579 70000 10091 20082 40295 52012 86530   333 20072 86625=
29023 41496 83103 10076 20065 40116 52004 78085 889//=
29122 41497 72705 10077 20064 40139 52010 78082 85330   333 85912=
29328 42598 82503 10104 20053 40165 52005 885//   333 88629=
29348 41497 82303 10082 20059 40156 58002 70282 8797/   333 84716=
29405 41697 83002 10094 20059 40186 52007 70282 86330
333 86936=
29418 41396 82701 10076 20067 40183 52014 78081 889//
333 88707=
29524 42498 82401 10115 20040 40186 52013 85101=
29605 41398 83502 10085 20070 40194 52011 70242 886//=
29631 41597 22104 10112 20062 40185 54000 70241 82900=
29706 41599 83003 10126 20055 40183 52004 70282 85301=
29736 42598 32202 10109 20045 40206 52004 83200=
29937 41598 72104 10120 20029 40223 52002 70282 82462=
36034 42698 82106 10104 20027 40221 54000 8252/=
28216 32699 63601 10101 20074 40287 52003 86500   333 20069=
28321 32984 63401 10137 20046 40287 52007 86030   333 20070=
28428 32574 20000 10125 20086 40286 52008 82500   333 20061=
28451 32998 82703 10120 20086 40248 52006 80001   333 20061=
28537 12482 83201 10096 20069 40284 52010 69940 885//   333 20048=
28541 32584 62701 10110 20070 40266 52010 82102   333 20025=
28642 12597 73503 10128 20094 40266 52012 69900 83531   333 20070=
28925 31547 80000 10139 20094 40285 52004 71022 81246   333 20058=
29557 41598 82305 10087 20039 40184 52007 70282 883//=
29625 41599 62503 10108 20058 40192 52001 70241 84230=
29642 41560 72308 10088 20043 40198 52007 70282 83330=
29813 42599 71905 10097 20074 40190 52007 85530=
29846 41597 62405 10101 20045 40217 52006 70282 83930=
16261 31758 22504 10142 20139 30093 40165 54000 71011 82500 90545
333 20142 30/// 55050 21287 55300 82650 95000=
16230 32970 02004 10111 20095 30162 40175 50001
333 20096=
16252 32965 00000 10130 20127 39261 42817 54000 90545 333 20126
31/// 55043 21178 55300=
16270 12660 72902 10170 20142 30114 40166 51001 69922 82430
333 20152 82640 87357=
16325 32998 03006 10170 20161 30150 40164 54000 90545 333 20170
30/// 98070 555 0100/=
16360 32597 50209 10202 20163 30026 40157 51002 83530 90545 333
20194 30/// 55089 2//// 55300 83620 84358 555 0////=
48303 32565 60000 10290 20240 39648 40085 84906
333 58014=
48328 32562 40000 10325 20236 39801 40071 82205
333 58008 70056=
48330 31462 60000 10318 20258 39891 40072 71522 83236
333 58009 70071=
48351 31565 61202 10330 20253 30001 40073 71510 85943
333 58005=
48354 32560 50000 10315 20246 39870 40069 84903
333 58020=
48377 32562 40000 10338 20226 39908 40069 82105
333 59005 70003=
48379 32562 50000 10320 20244 39929 40059 82335
333 58005 70002=
48400 31562 62903 10317 20257 30033 40073 72922 85933
333 58007=
48432 32562 72602 10306 20245 39912 40078 86246
333 58015 70008=
48455 32563 62603 10321 20253 30070 40075 84846
333 58003 70187=
48462 31559 82702 10332 20277 30020 40075 70522 85876
333 58004=
48475 32562 61503 10314 20230 30068 40079 83246
333 58009=
48477 31460 70608 10283 20241 30068 40082 71722 84946
333 58009 70071=
48517 32564 52710 10310 20225 30082 40088 82206
333 58001=
48532 32560 62503 10316 20229 30089 40098 83546
333 59002=
48567 32460 42608 10328 20227 30072 40089 84801
333 58000 70001=
61024 12960 30000 10250 20153 39536 40086 69974 80002
333 02316 20248 51231 55093 58023 83080=
61036 32965 7//// 10254 20234 39879 40114 81048
333 02500 20250 50591 50324 55101 59016 81364 87280=
61043 31965 50000 10250 20236 39657 40089 70391 80002
333 01900 20248 50531 50344 55074 59010 85080=
61045 32970 7//// 10247 20213 39808 40094 86072
333 02300 20214 50961 50484 55099 59006 86464 84080=
61049 32965 70000 10226 20194 39782 40104 83058
333 01300 20216 50891 50494 55090 59008 83364 85080=
61052 32965 42408 10252 20232 39855 40104 81032
333 02500 20246 50481 55091 59024 81364 83080=
61075 32965 62002 10255 20226 39804 40107 80008 90546
333 02300 20250 50591 50384 55074 59016 86280=
61080 32965 70000 10238 20202 39675 40088 86072
333 02100 20233 50851 55093 59009 86464=
61090 32965 73208 10246 20207 39596 40095 82048 90545
333 20245 50761 50431 55097 59017 82364 86280=
61096 12965 72002 10232 20220 39726 40106 60084 80008
333 01829 20225 50711 50324 55089 59004 87280=
61099 32965 7//// 10240 20231 39/// 4//// 83048
333 02400 20238 50631 50244 55086 83364 86280=
40703 32960 00000 10154 20053 38940 40167 51008 90545 333
30005 50461 70000=
40712 32660 20000 10164 20068 38707 40147 52007 82100 90545
333 30060 50301 70000 82840=
40729 32560 11005 10148 20051 38378 40164 52003 81101 90555 333
30004 50461 70000=
40736 32560 82101 10200 20137 30249 40222 52012 8432X 90550 333
30017 50271 70002 81930 83635 88459=
40739 32665 60000 10146 20018 38715 40197 53008 86500 90550 333
30010 50531 70000 86635=
40743 32665 30702 10164 21072 39103 40224 51011 82530 90550 333
30009 50721 70000 82640=
40762 32965 00000 10146 21087 38600 40197 52011 90550 333 30001
50701 70000=
40768 32660 10000 10126 20090 38290 40166 52011 81100 90550 333
31007 50631 70063 81840=
40769 32960 00000 10164 20006 38331 40147 51011 90550 333 30010
50761 70000=
40785 32960 30000 10210 20037 39080 40161 52008 83030 90550 333 30014
50681 70000 83360=
40809 32970 00000 10208 20005 38547 40144 51007 90550 333 30007
50521 70000=
40821 32660 13002 10204 21009 38817 40151 51007 81400 90550 333
30015 51021 79999 81640=
40831 32660 42103 10340 20106 30069 40077 52018 81430 90550 333
30020 51361 70000 81640 84360=
15420 32997 60903 10154 20127 30102 40202 51003 80006
333 10194 20147 30014 555 60005=
44212 32699 33602 10152 21019 39127 40196 58007 83200=
44213 32999 52205 10123 21027 38807 40192 52003 83049=
44215 32998 23212 10094 21098 38437 40195 57006 82040 333
91214=
44232 31999 73203 10237 20051 39061 40089 57027 87010=
44239 32999 72705 10222 20009 38764 40061 56024 85064 333
91108=
44241 32999 61807 10234 20071 39218 40112 57025 86010=
44256 32999 02508 10250 20085 39347 40130 57032=
44275 31897 72709 10115 20006 37763 40104 57009 70621 87070=
44284 32899 62002 10150 20034 37899 40112 57009 86030=
44285 32799 51807 10195 20036 38342 40083 57008 85080=
44287 32599 70000 10162 20030 38171 40138 57005 87500=
44298 32999 21808 10176 21044 38766 40177 58005 80004=
44302 32999 02707 10219 21064 39139 40169 57034=
44305 32999 03204 10189 20015 39115 40207 57027=
44313 32999 22703 10149 21151 39449 40248 57033 80002=
44314 32998 02305 10201 21122 39207 40227 57030=
44317 32998 00000 10208 20030 39006 40188 58007=
44336 32999 51804 10220 21002 38709 40128 58014 80008=
44341 32999 51808 10203 20050 38640 40147 57024 80008 333
91011=
44347 32999 11807 10230 20027 38731 40121 57026 80008=
44352 32999 01403 10193 21007 38990 40209 57027=
44358 32998 00000 10223 20081 39131 40194 57031=
16320 32560 70000 10224 20182 30141 40153 55000 82550 90545 333
20190 30016 55090 21627 55304 82625 86357 555 0100/=
16300 13565 70000 10150 20123 39227 42824 54000 60012 87500 90545
333 20138 32/// 87630=
30385 42999 53401 10100 21074 40123 57036 80002=
30469 42599 71901 10124 21002 40133 57035 83306=
30650 42999 81802 10186 20029 40079 57041 80001=
30664 42999 61606 10133 20038 40115 57043 80002=
30781 42999 61801 10167 21050 40177 57047 80004=
30844 42999 52012 10250 21050 40080 57032 80001=
30925 42899 72008 10237 20017 40072 57022 82041   333 91017 91118=
31371 42999 20000 10142 21050 40208 57030 80001=
31388 42999 63202 10105 21064 40212 58026 82042=
31478 42584 23103 10050 20083 40161 57016 82200=
31594 42999 13104 10115 21054 40233 57016 80001=
31754 42598 72703 10074 21007 40198 57002 86900=
16066 32860 33602 10099 20099 39922 40173
56003 83060 333 83358 /////=
48310 32562 40000 10317 20253 39629 40064 83105
333 59001=
48325 32565 50000 10323 20237 39835 40072 83903
333 58007 70208=
48329 32560 50000 10325 20231 39737 40063 84805
333 58004=
48357 32562 60000 10328 20252 39906 40071 83556
333 58008 70032=
48380 32560 60000 10306 20249 39987 40080 83535
333 58011=
48383 32564 60303 10339 20240 39908 40062 84206
333 58004=
48403 32565 32602 10310 20238 39868 40073 82945
333 58011 70718=
48405 01558 60000 10290 20255 39908 40069 60051 76066 83305
333 58008 60025 70218=
48421 32562 60000 10310 20246 39970 40082 82246
333 58006 70004=
48425 32562 61202 10330 20245 30045 40055 84943
333 59009=
48426 31562 70000 10315 20243 3//// 40069 71792 82943
333 59002=
48430 32562 72704 10326 20246 30067 40075 83346
333 58001 70024=
48450 32563 43202 10339 20217 30037 40069 82305
333 58004 70272=
48459 32562 82702 10317 20241 30076 40079 82107
333 58005 70021=
48465 32561 61203 10315 20244 30073 40077 83846
333 58005=
48550 32565 32705 10325 20224 30077 40083 81203
333 59007=
48552 32561 70000 10326 20230 30076 40082 83246
333 58009 70399=
48568 01460 63602 10317 20235 30079 40087 69901 76022 84206
333 59001 69905 79999=
33246 32997 70801 10111 20074 40271 53002 82081 333
20070 555 52005=
34523 32998 61004 10128 20050 40274 52008 80004 333
20054 555 30003 52001=
33177 11459 81501 10128 20114 40211 53004 69902 71052 886// 333
20122=
34712 32998 50909 10155 20055 40220 57002 85031 333 20123=
40405 42960 41008 10344 20050 39342 40027 84030 333 20290
59020 84360=
41084 42960 02006 10300 21010 38849 48510 333 20200 59002 555
04410 50061=
43413 32498 72309 10302 20248 3//// 4//// 83106 333 5//// 83818
84280=
43418 32498 7//04 10326 20231 30008 40095 83107 333 59005 83818
87278=
43421 21498 21807 10306 20225 30000 40102 72510 81201 333 59008
69905 79999 81818=
43424 21478 62008 10300 20258 30098 40101 85931 333 59010 69907
79999 84818 82920 83360=
43436 32498 70503 10302 20245 30090 40093 82107 333 59005 82817
87280=
43450 21358 71810 10256 20233 30100 40108 71798 8597/ 333 59002
60097 70157 82708 85816 83918 87460=
43467 21460 8//// 10250 20238 30107 40112 79588 8597/ 333 59002
60047 70117 81709 84816 82919 88458=
43473 21097 72703 10182 20147 38137 48500 78022 877// 333 59005
69907 79999 82700 87807=
43497 32476 42318 10298 20244 30089 40106 82201 333 59004 82820
84080=
26898 31959 31001 10093 20061 40303 58002 71000 80009   333 20050=
26997 31959 20701 10084 20062 40307 53001 71000 82030   333 20042=
27595 32997 20000 10141 20113 40300 52007 80001   333 20076=
27612 31996 01201 10127 20107 40317 52005 71000   333 20069=
27703 32997 00000 10097 20067 40323 51001   333 20020=
27707 32970 00000 10100 20068 40319 53003   333 20043=
27719 31996 02001 10080 20058 40318 57004 71000   333 20025=
27786 32998 30000 10145 20078 40299 52003 83030   333 20066=
27906 41932 30401 10104 20056 40313 54000 71000 83030   333 20044=
27928 31996 00000 10088 20058 40310 57002 71011   333 20048=
27947 32997 00000 10090 20068 40310 58001 333 20035=
27962 32997 70000 10108 20081 40301 56004 87050   333 20056=
27983 32998 20301 10152 20092 40294 54000 80001   333 20079=
28506 32997 10000 10130 20081 40296 52001 81050   333 20045=
28711 11996 20000 10124 20090 40297 52008 60020 71040 80001 333 20034=
28807 32997 20000 10138 20097 40301 52006 80001   333 20032=
34009 32967 20602 10097 20058 40303 53001 82030   333 20075=
34123 32980 60000 10122 20068 40305 54000 86050   333 20076=
34152 32998 30403 10114 20065 40301 53002 80001   333 20063=
34172 32970 33402 10147 20081 40295 53006 82031   333 20106=
34186 32998 20103 10153 20090 40291 52002 80001   333 20066=
34247 31557 70000 10118 20088 40294 54000 71011 87500   333 20048
87624=
34336 32997 20501 10126 20077 40302 53012 82040   333 20055=
34391 32997 00201 10154 20071 40188 52004   333 20049=
35121 32998 00601 10150 20088 40285 52008   333 20067=
22113 11571 80000 10124 20106 40162 57001 69902 78082 8695/   333
20121 91001=
22217 32598 71801 10122 20112 40193 56002 87500   333 20087 87625
91003=
22235 32970 62603 10127 20112 40180 54000 84031   333 20101 91004=
22408 32999 32102 10110 20074 40238 57002 82031   333 20103=
22602 32998 02101 10106 20068 40257 57004   333 20093=
22721 31958 00000 10091 20081 40282 54000 71000   333 20041=
22802 31/03 90000 10084 20082 40286 58001 74540   333 20041=
22820 32964 00000 10134 20086 40290 58004   333 20101=
26059 32997 21303 10095 20046 40276 53007 80001   333 20076=
26063 32997 01401 10112 20061 40287 57003 333 20089=
26094 32970 00000 10094 20073 40307 54000   333 20021=
26258 32968 61702 10103 20076 40270 54000 80006   333 20075=
26298 32997 01801 10098 20064 40311 53002   333 20037=
26477 32970 71701 10102 20061 40288 54000 80001   333 20035=
26585 32997 00000 10062 20036 40315 57001   333 20025=
26702 31596 81303 10120 20109 40169 57004 71022 885// 333 20106=
26781 32997 30902 10085 20056 40303 53001 80001   333 20048=
27402 32997 00000 10087 20065 40314 54000   333 20038=
22028 32581 73006 10121 20089 40156 54000 85530 333
20121 91008 91112=
22106 32498 82302 10142 20118 40163 56003 889//   333 20142 86715
91005=
22127 32598 62504 10152 20111 40170 54000 83531   333 20142 91008=
22831 31905 60000 10073 20068 40298 52002 74441 80001   333 20020=
22892 32998 11001 10115 20068 40272 57002 80001   333 20080=
26275 32998 01201 10079 20050 40302 53003   333 20013=
26389 31959 00000 10059 20040 40312 57005 71000   333 20021=
26695 32997 00000 10065 20044 40322 53002   333 20006=
26882 32970 21203 10082 20051 40308 54000 80001   333 20048=
21824 42670 82206 10019 20005 40019 54000 8255/=
21908 42599 81901 10064 20025 40035 57007 865//=
21946 41233 82105 11001 21004 40031 53001 77372 8772/ 333
87703=
25123 42998 80204 10030 21046 40083 57002 81032=
25173 31/93 93004 11020 21020 40102 53003 74542   333 11004 91106=
25551 11597 80903 10047 20033 40029 52005 60022 78086 85303   333
10066=
25563 32599 70703 10046 21002 40033 53007 87900   333 10069=
31054 42999 70901 10037 21025 40237 58013 8802/=
31123 42599 71601 10064 21001 40151 57024 8751/=
21931 41680 82302 10018 21004 40040 53001 70272 86710=
44210 32999 10000 10104 21094 38550 54000 81100=
44216 32999 43205 10163 21041 38995 40176 58004 82084=
44217 32998 22305 10032 21086 37908 40261 58001 80003=
44242 32998 61810 10256 20029 39251 40078 57037 83082 333
91214=
44254 32998 12307 10232 21074 39050 40126 57031 80004 333
91112=
44257 32998 13210 10228 21014 38995 40146 57035 80001=
44263 32998 82704 10094 21082 38104 40212 58005 85078=
44266 32999 72302 10086 20045 37822 40172 53004 83084=
44291 32898 61809 10218 20004 38754 40216 57030 82040 333
91114=
44325 31996 61406 10217 20138 38849 40125 58010 70722 86058=
44329 32898 62504 10140 20068 37822 40138 58008 83043=
44338 32899 51806 10207 20065 38503 40114 57018 83088=
44348 32997 01805 10206 20071 38759 40176 58010=
44374 32999 51403 10186 20038 38297 40112 58011 83082=
44385 31998 01807 10238 20065 38936 40146 57029 70700=
44386 32999 01607 10254 21078 39078 40158 57026=
38392 32998 60806 10195 20050 40271 52005 80002 333   20079=
38507 32998 20904 10213 20019 40236 53005 82030 333   20114=
38545 32998 00303 10199 20074 40241 52006 333   20056=
38687 32997 00000 10177 20041 40234 52007 333   20037=
38750 32997 42903 10229 20094 40220 53015 84030 333   20189=
38763 32898 20906 10158 21009 40232 52007 82030 333   20085=
38880 32797 61305 10204 21025 40240 52008 82531 333   20073=
38974 329// 02902 10199 21038 40236 52007 333   20081=
38895 32997 03001 10202 20002 40245 52006 333   20040=
38987 32996 00502 10158 21057 40227 52002 333   20025=
38911 32998 02603 10190 21014 40228 52007 333   20064=
38647 32998 00904 10168 21086 40232 52008 80001 333   20114=
38774 32898 60000 10183 20027 40248 52007 86070 333   20098=
38799 32997 02502 10198 20040 40235 52012 333   20015=
38806 32997 02302 10191 20006 40232 52007 333   20020=
38886 32994 01101 10204 20095 40245 53003 333   20066=
38915 32998 01801 10190 21038 40225 52007 333   20065=
38388 32998 20902 10198 20027 40258 53009 80002 333   20005=
38656 32998 01401 10203 20034 40243 52006 333   20087=
25703 42699 71602 10024 21067 40086 57003 86330=
25913 42699 52405 10056 21002 40090 57003 82430=
25954 42999 13106 10053 21051 40066 52014 81030=
31088 42599 32102 10081 20002 40092 57005 81141=
31829 42599 33105 10100 21044 40160 52001 83400=
31873 42599 32905 10119 21041 40133 57016 83100=
31909 42999 03112 10103 21047 40205 58001   333 91015 91121=
31960 42999 03608 10126 21071 40259 58016   333 91015 91117=
32053 41498 83206 10074 20023 40103 53001 70282 87932   333 85631
91010 91113=
32061 41497 83508 10057 20025 40131 52010 78182 889//   333 91015
91118=
32098 41598 63505 10097 20019 40104 55006 70281 85943   333 91110=
32150 41599 22703 10105 21038 40122 58013 70281 82300=
32165 41565 83109 10103 20078 40108 53004 78082 889//   333 91014
91114=
32215 42675 30202 10102 20081 40105 57020 82930=
32389 42699 62401 10114 20029 40073 53003 82430=
32583 42598 73309 10092 20029 40101 53006 87300=
32618 42598 32306 10091 20062 40093 53008 83200=
28867 32498 53601 10119 20051 40252 52033 81231   333 20036=
28879 32598 82903 10095 20070 40236 52015 889//   333 20072=
28952 12598 70000 10127 20095 40256 52002 69930 875//   333 20080=
29802 11597 63302 10098 20073 40191 52010 69970 70242 84831   333
20054=
29807 31597 62702 10102 20088 40206 52015 72582 83330   333 20071=
34691 32998 00701 10190 20070 40273 5/008   333 20063=
35067 31598 62902 10112 20074 40252 52016 70341 84102   333 20083=
35078 11598 83205 10102 20064 40244 52016 69910 70241 885//   333
20066 85823=
35085 11497 82702 10078 20070 40231 52012 69970 78082 889//   333
20056=
35188 31498 83102 10095 20076 40230 52008 70284 889//   333 20063=
35229 32998 23001 10126 20045 40268 53003 80001   333 20021=
35416 32997 03202 10159 20038   333 20086=
35426 32999 00000 10165 20029 40254 58003   333 20037=
35532 32998 00000 10178 20009 40254 52007   333 20055=
35700 32998 00104 10200 20006 40267 52008   333 20068=
35925 32998 00000 10192 20013 40268 52005   333 20046=
36003 11498 62402 10106 20080 40206 52007 69930 70182 86900   333
20055=
36208 12599 72103 10076 21005 40253 52001 60030 85330   333 20025=
36397 32699 72008 10124 21009 40246 54000 85340=
36535 32599 80902 10093 20006 40270 57004 889//   333 21056=
36821 32698 20000 10185 20048 40258 58001 82200 333 20049=
36859 32699 21202 10155 20032 40256 58005 81240   333 20032=
36864 32999 01401 10150 21012 40256 58001   333 20006=
36870 32997 00000 10153 20013 40247 58003 333 20043=
38001 32998 00702 10197 20138 40263 53001   333 20132=
38196 32998 03403 10128 21022 40248 53007   333 20090=
38198 32999 02802 10191 21012   333 20058=
38222 32998 00000 10164 20043 40260 54000=
38232 32998 00000 10175 21017 40271 52012   333 20089=
38328 32999 03102 10198 21038 40215 51001   333 20055=
38334 32999 00902 10187 21025 40225 52001   333 20060=
38341 32999 01002 10148 21012 40248 58014   333 20032=
38343 32998 00904 10158 21050   333 20003=
38439 32998 01801 10159 20070 40242 52002   333 20058=
48315 32563 50000 10325 20239 39816 40077 84903
333 58012 79999=
48413 32562 60000 10315 20242 39997 40075 82556
333 58003 70169=
48416 32565 50000 10319 20247 39929 40073 84205
333 58004 70693=
48418 32563 80000 10325 20250 30009 40064 83256
333 59001 70001=
48460 01558 80000 10295 20252 30055 40086 60021 71096 85906
333 58006 60027 70042=
48461 32562 62303 10305 20248 30015 40083 84546
333 58003 70162=
48478 32560 7//// 10342 20263 30074 40079 83376
333 58001=
48501 32564 40000 10320 20257 30071 40079 82901
333 58000 70001=
48561 01456 70000 10300 20263 30095 40099 60011 76022 84946
333 59007 60015 70012=
48564 32560 52903 10328 20238 30087 40091 84201
333 59003=
48570 32560 62210 10315 20228 30091 40098 82545
333 59001  =
48580 32562 63605 10328 20243 30072 40079 82206
333 59002=
22349 31556 72405 10107 20103 40188 56004 71022 82530 333 20089
91007=
15712 31598 83604 10191 20111 40162 53005 70222 8262/ 333 20186 50562
55111=
28049 32598 81502 10079 20068 40241 53003 86550   333 20044=
28319 32499 63001 10120 20086 40285 52004 86500   333 20083=
28334 32999 73201 10104 20070 40275 52009 87070   333 20070=
28434 32599 60000 10125 20078 40281 52010 83630   333 20074=
28552 31559 72702 10108 20095 40256 52010 71042 87500   333 20074=
28825 11293 70000 10118 20098 40293 52013 69900 74442 87600   333
20080 87706=
29111 41499 82704 10077 20045 40150 52004 70282 889//=
29209 42598 82702 10085 20059 40177 51006 889//=
29551 41497 83003 10094 20066 40176 52003 70282 883//=
29602 41599 82503 10079 20068 40200 52019 70241 885//
333 88622=
29654 41297 82504 10047 20042 40240 52008 72782 889//   333 86711=
29712 42598 51302 10114 20053 40193 51005 85900=
29724 42699 62204 10118 20051 40195 52001 86200=
29726 42598 62002 10104 20070 40202 52003 83330=
29814 42499 72602 10116 20068 40193 52005 87900
333 86913=
29827 41697 81103 10081 20068 40217 52005 78082 889//=
29923 41598 81603 10071 20059 40221 52006 78082 889//=
29939 41497 82603 10087 20064 40244 52003 78082 889//=
35026 32597 52701 10115 20072 40287 52009 82231   333 20023=
35037 32999 40000 10129 20071 40273 52008 80001   333 20049=
36021 42599 72502 10098 20076 40199 53003 87500   333 87628=
36022 41597 82104 10088 20015 40216 51003 78082 889//   333 86928=
36038 42598 81906 10115 20006 40231 52001 81132=
36058 42699 71802 10132 20000 40237 58012 87900=
29467 42598 72406 10086 20013 40179 52003 87900=
30157 41698 81601 10072 20006 40080 57044 70281 85903=
28748 32560 83601 10125 20092 40263 52010 86506   333 20076=
36096 42699 63006 10133 21044 40202 58002 82930   333 95000=
22324 32699 72303 10124 20119 40204 54000 81531 333 20124 91005=
35376 31598 83407 10110 20011 40234 52010 76162 882//   333 20080=
38062 32999 00000 10203 20032   333 20059=
35969 32999 01101 10187 20040 40264 53005   333 20021=
35746 32998 02702 10198 20056 40257 52007   333 20072=
35953 32999 03204 10192 20013 40270 52007   333 20051=
35849 32998 03201 10192 20019 40268 52003   333 20033=
38069 32998 01104 10197 20034   333 20033=
41936 31450 70000 10330 20260 40085 70522 84830 333 56990 58020
70000 83615 84362=
35394 11496 83102 10086 20073 40227 52008 60070 78086 8795/   333
20057 85711=
35497 11598 80000 10081 20065 40239 52003 60030 72582 889//   333
20058=
35671 32598 52706 10179 20006 40253 52005 85900   333 20037=
35796 32598 62405 10135 20023 40265 52002 82530   333 20028=
42027 32696 20000 10216 20102 38454 48539 82500 333 58023=
42101 32996 03203 10320 20255 40093 333 58030=
42111  32696  21403  10298  20195  39341  40078  82100
333  58025  82840  =
42131 32996 03601 10365 20211 40084 333 58026=
42165 32996 02302 10348 20198 40091 333 58031=
42182 31996 03208 10354 20175 40086 70500 333 58027=
42189 31996 02302 10336 20232 40084 70500 333 58024=
42328 32996 02306 10338 20157 40093 333 58034=
42339 32996 00000 10344 20181 40094 333 58024=
42369 32996 09903 10344 20217 40078 333 58025=
34560 32997 20904 10162 20063 40283 52005 80001 333 20101=
34824 32997 50906 10164 20084 40184 57011 80001 333 20128=
34858 32965 01204 10153 20059 40249 53006   333 20055=
34880 32997 00902 10179 20048 40273 53009 333 20045=
37054 32598 61106 10144 20098 40222 52002 86600   333 20072 86621=
37472 32998 01207 10200 20093 40222 53004   333 20164 91013 91113=
34240 32966 50901 10142 20063 40295 57002 82031 333 20070=
34357 32998 00501 10128 20061 40289 58002 333 20079=
34363 32972 50301 10150 20082 40287 53005 84031 333 20100=
34545 32998 20503 10140 20053 40273 54000 80001   333 20067=
34579 32998 30603 10165 20062 40278 52006 80001 333 20091=
34759 32998 61205 10154 20048 40260 58001 80001   333 20034=
34838 32997 20905 10162 20078 40205 57003 80001 333 20115=
34929 32664 60807 10158 20094 40177 54000 86500 333 20139 86640=
34954 32698 11203 10177 20045 40227 53002 81100   333 20121=
37031 32997 11008 10165 20078 40194 58007 81030 333 20124=
37085 32598 50707 10208 20071 40239 57004 84201   333 20101=
37145 32998 00902 10151 20090 40221 58002 333 20089=
37171 32998 71003 10193 20149 40158 52004 87030 333 20157=
37228 32497 81601 10110 20085 40204 58003 885// 333 20089=
23226 11242 81905 10040 20038 40067 57052 60020 76162
885// 333 20019 86703=
23606 32462 52403 10108 20097 40198 57014 82130 333 20084=
23701 31960 22702 10129 20092 40233 57007 70240 80001 333 20048=
26167 32963 21301 10085 20056 40292 54000 80001   333 20026=
27857 32997 70000 10084 20080 40312 53001 87030   333 20039=
28909 31997 20000 10120 20084 40293 52006 70340 80001   333 20032=
37061 32998 01004 10163 20082 40231 58001   333 20105=
48601 31459 72308 10310 20229 30098 40101 72992 83932
333 81917 87077=
48615 31470 73409 10304 20243 30086 40092 70522 84254
333 84818 83365 86073=
48620 31475 72810 10314 20240 30083 40092 70522 83942
333 81917 83820 87078=
48647 31460 71907 10337 20230 30054 40078 70522 82142
333 82818 87078=
48657 31465 70909 10321 20240 30069 40086 83232
333 83818 86078=
48665 31572 61605 10328 20230 30077 40086 70522 83242
333 83821 85080=
96413 32480 71204 10323 20221 30059 40084 85941
333 81915 84820 85080=
96421 32480 71704 10311 20237 30060 40095 85231
333 85818 85365=
96441 32480 73006 10305 20236 30082 40087 83141
333 83816 87080=
96449 32480 72707 10306 20227 30067 40087 83231
333 83814 83365 85080=
96465 32480 72706 10304 20232 30051 40084 81842
333 81815 87080=
96471 31464 72807 10300 20251 30083 40086 71522
333 82814 81917 83640 87276=
96481 31462 63404 10296 20233 30051 40073 70192 83941
333 81916 84364 85080=
33761 32998 00502 10127 20041 40231 57004 333 20075 555 30004 52003=
21802 42499 72703 10055 20028 40008 57009 87930=
24125 41599 82102 10059 20033 40045 57011 70252 8695/   333 85632=
24266 32999 71001 11062 21066 39918 40093 58007 87030   333 21128
43002 55093=
24329 41599 63601 10061 20032 40064 57006 70282 86900=
24343 42499 81402 10039 20004 40066 53001 885//   333 86618=
24382 42999 81604 10040 21092 40074 56001 80001=
24639 41699 82303 10092 21011 40082 57006 70282 8355/=
24641 42599 72902 10080 20023 40073 57003 87300   333 87622=
24652 41340 81005 10005 20005 40083 57002 78582 883//   333 86708
88918=
24656 41996 80601 10005 20005 40092 57004 77177 8802/=
24671 41699 61703 10028 21057 40102 57008 70272 82570=
24688 41699 30202 11004 21096 40112 57012 70271 82101=
24724 42599 62203 10087 20019 40067 57016 83130=
24738 42999 42603 10123 20000 40076 57019 82031=
24768 41297 82103 10021 20018 40103 57013 76176 8802/   333 88506=
24923 42799 81801 10117 21014 40085 57028 81405=
24944 42999 62403 10093 21044 40103 57029 82032=
24951 42699 72702 10093 21036 40099 57021 83530=
24959 41599 82702 10068 20004 40084 57012 70262 8357/=
24962 41599 82003 10046 20034 40108 57019 70286 83331=
24966 41498 82303 10022 20014 40126 57014 78082 889//   333 88913=
25400 41596 81602 10011 20003 40088 57006 78582 889//   333 88920=
30054 42598 83503 10081 20006 40080 57037 86907=
30393 42999 62406 10086 21094 40134 57029 83031   333 91110=
30493 42999 62252 10085 21057 40147 57024 80006=
31137 42699 72701 10047 21034 40167 52012 87500=
44231 32699 72705 10127 20021 38716 40150 53034 87500 333
91214=
82400 22255 02246 20303 32799 40806 5//// 80210=
84760 22214 02230 20402 310// 40504=
40080 53015 76362 887// 22233 04034 20504 80033=
85247 22200 20000 399// 80114=
45011 41456 80904 10262 20250 40105 58010 70292 889// 333
58050=
61996 32581 73308 10123 20043 40249 878//
333 00709 20086 50254 55028 58018 81820 87640 92438=
61998 11458 73035 10084 20070 39740 49774 56021 60154 72162 878//
333 10089 20047 32004 55000 59367 70146 84610 84813 91170=
60185 32960 42006 10198 20185 40143 5//// 84030
333 20172 84360=
83840 31120 31004 10088 20080 39170 40220 58010 71041
83600=
68174 31570 60417 10144 20086 38809 48538 52012 70522 84580
333 20114 91030 555 10227 91021=
68242 12680 40913 10142 20104 38743 48517 52001 60084 81482
333 20115 91014 555 10192 20080 91019=
68262 31560 60304 10149 20075 38739 48546 52015 71722 82980
333 20135 91006 555 10201 91023=
68263 11570 60610 10116 20075 38519 48542 52016 69904 75022 84480
333 20102 91013 555 10179 20000 91023=
68350 36/// /2408 10156 20136 38685 48528 52017
333 20118 91010 555 10192 91021=
68368 11458 70705 10103 20078 38335 48538 50019 69904 76060 81970
333 20090 555 10163 20000 91023=
68372 36/// /0610 10085 20084 38481 48543 57005
333 20061 91018 555 10232 91023=
68424 32982 30604 10120 20109 39218 48513 52003 83080
333 20103 91007 555 10239 91018=
68438 11474 83308 10136 20136 38854 48536 52012 60044 70566 83570
333 20133 91011 555 10186 20040 91022=
68442 11570 73304 10143 20103 38695 48545 51007 60014 72165 8357/
333 20121 555 10178 20010 91023=
68512 32982 00804 10162 20112 39026 48513 52005
333 20141 91011 555 10230 91018=
68588 32462 70000 10210 20181 30185 40201 51006 875//
333 20193 555 10249 91020=
68618 32980 31104 10151 20113 39075 48527 52012 80004
333 20123 91005 555 10257 91019=
68668 31258 80000 10164 20151 39336 48537 52011 74022 886//
333 20156 91004 555 10219 91020=
68714 31964 41804 10143 20134 30123 40160 52006 70500 80006
333 20131 91005 555 10207 91016=
68752 16/// /1006 10153 2//// 3//// 48/// 52003 69924
333 20146 91009 555 10173 20002=
68816 32675 51418 10167 20124 30112 40162 52013 81502
333 20138 555 10189 91016=
68828 11112 81204 10153 20148 39974 40203 52004 60024 75155 885//
333 20147 555 10179 20018 91020=
68842 31559 72105 10167 20158 30136 40210 52014 70520 87500
333 20154 555 10218 91021=
68858 11008 81302 10179 20172 30067 40215 53007 60024 75056 886//
333 20171 555 10202 20020 91021=
68180 32482 60908 10192 20141 39591 48560 52020 86500
333 20175 555 10285 91020=
68272 32680 40000 10174 20114 39118 48550 53004 84400
333 20102 555 10274 91021=
68322 32987 00000 10060 21053 39162 48497 53020
333 20028 555 10208 91017=
68400 32674 10103 10212 20173 30136 40210 52009 81800
333 20162 555 10288 91021=
68408 32280 80000 10140 20106 30148 40159 52010 886//
333 20112 555 10180 91015=
68416 32984 00704 10130 20102 39051 48514 52010
333 20105 555 10235 91019=
68488 31450 20000 10166 20128 39322 48553 53008 70411 81102
333 20115 555 10244 91021=
68496 32370 10510 10185 20160 30073 40197 51007 81200
222// 2//// 313// 41002
333 20175 555 10255 91020=
68524 32986 60908 10152 20119 39090 48524 53005 86070
333 20141 555 10245 91019=
68530 12775 80000 10150 20140 39077 48545 53010 69974 885//
333 20114 555 10240 20007 91022=
68570 32560 81308 10140 20123 38564 48551 54005 886//
333 20118 555 10234 91024=
68580 31110 70000 10131 20126 38999 48548 53004 71041 86601
333 20124 555 10233 91023=
68614 31/01 90000 10136 20136 30110 40153 54000 74544
333 20134 555 10246 91015=
68624 31370 11604 10132 20111 38775 48530 53001 74000 81600
333 20100 555 10225 91021=
68674 32770 70000 10205 20181 30137 40192 54000 8703/
222// 2//// 313// 41202
333 20185 555 10220 91019=
68718 11340 80504 10144 20137 39953 40196 58007 60064 75152 885//
333 20139 555 10180 20060 91019=
68722 31003 80000 10106 20102 38583 48530 51003 74542 886//
333 20079 555 10206 91021=
68832 32585 80906 10137 20119 39251 48552 52009 885//
333 20130 555 10230 91022=
68916 32370 51336 10138 20127 39879 40169 53015 82605
222// 20301 323// 41003
333 20132 555 10155 91016=
68920 32370 71616 10160 20146 30190 40200 53008 875//
222// 2//// 323// 41205
333 20150 555 10190 91019=
68928 32568 81607 10165 20148 30140 40213 53007 885//
222// 2//// 323// 41003
333 20164 555 10190 91021=
68938 11210 80000 10166 20163 30202 40210 53013 69904 75052 887//
222// 2//// 323// 41204
333 20163 555 10192 20000 91021=
64500 11460 82010 10238 20214 30117 40132 60994 70252 885//
333 02320 20230 50280 55040 59007 83610 88630=
64501 32360 61804 10244 20211 30134 40144 86500
333 02400 20240 50344 55068 58003 83608 86626=
64510 12460 7//// 10205 20205 3//// 40/// 60054 875//
333 0//19 20205 50114 55/// 5//// 87610=
64550 32460 8//// 10222 20205 39044 40147 885//
333 0//00 20220 50024 55/// 58007 84610 88620=
64551 12458 8//// 10216 20206 30108 40137 69944 885// 911//
333 0//19 20214 50044 55/// 59004 84611 88626=
64552 32470 7//// 10202 20199 39469 40116 875// 913//
333 0//00 20197 50104 55/// 5//// 84613 87620=
64556 32360 8//// 10210 20202 39549 40119 885// 908//
333 0//00 20195 50124 55/// 58010 84608 88611=
64565 32360 6//// 10200 20189 39487 40124 81530 910//
333 0//00 20198 50194 55/// 58014 81608 86360=
64400 32458 80000 10222 20208 30121 40141 888//
333 02100 20221 50174 55002 59001 83815 88633 94902 95812 =
64401 32460 60000 10204 20187 39/// 40/// 83530
333 0//00 20197 50204 55/// 5//// 83613 86362 =
64402 32360 62802 10205 2189 39553 40123 83530
333 0//00 20/// 50264 55/// 58002 83607 86363 =
64452 32960 61004 10225 20213 39/// 40/// 86070
333 0//00 20/// 50244 55/// 5//// 86363 =
64456 32360 42606 10220 20212 39/// 40/// 84802
333 01400 20205 50164 55/// 5//// 82610 83820 94938 95838 =
64458 32460 50000 10215 20208 39715 40110 83330
333 02000 20202 50194 55038 59006 83616 83820 81926 94963 95813 =
64459 32960 70000 10228 20210 39/// 40/// 86070
333 01800 20196 50134 55/// 5//// 86363 =
64454 32960 30000 10216 20204 39696 401148 80002
333 0//00 20203 50354 55/// 58003 83080 =
33815 32997 10602 10134 20053 40218 52001 80030 333   20112=
89050 42361 63120 11016 21025 49777 52009 86600=
89592 41999 31417 11205 21280 49797 53003 70231 82031=
89606 42998 52306 11691 21717 36070 47852 53004 80001=
62309 32560 22810 10266 20227 40098 53002
82200 333 20220=
62325 32960 03006 10269 20224 40099 53003
333 20246=
62332 31556 32806 10258 20234 40090 51003
71000 83200 333 20238=
62387 32960 03202 10227 20174 40102 53006
333 20186=
62459 32960 03210 10280 20169 40076 53011
333 20220=
91843 31599 31209 10204 20137 40220 53011 70210 83100 333 563// 83825=
64504 11460 7//// 10232 20222 30123 40138 69964 70152 875// 911//
333 0//14 20230 50194 55/// 59013 85611 87623=
64560 32460 7//// 10211 20194 39598 40101 875// 910//
333 0//00 20206 50194 55/// 58006 83610 87616=
93023 36/// /1603 10153 20100 40242 57003=
93196 36/// /2512 10135 20105 40203 52013=
93334 36/// /2804 10089 20069 39257 52003=
93404 36498 /2913 10135 20120 40201 52002=
93498 36/// /1910 10123 20079 40179 52020=
93597 36/// /2204 10114 20058 40187 52008=
93615 16/// /2513 10120 20067 40187 52009 69921=
93678 36698 /0806 10094 20053 40176 57017=
93709 36/// /2614 10116 20040 40182 52008=
93831 36998 /2808 10143 21107 40138 57002=
93896 31598 30120 10105 20060 40134 58006 70520 83140
333 81826 83358=
93947 16/// /3025 10048 20031 49843 57072 60031=
93994 36/// /1005 10179 20139 40230 52001=
71472 17/// /1522 10123 39966 49983 51006 69941 7//4/ 333 10146
20101 70006=
30320 40020=
71051 46/// ///// 11001 21010 30087 40201 58001 333 10002 21037 555
31426 40061=
63740 32470 61907 10170 20128 48526 8653/
333 10136 59001 86618=
63612 32980 4//08 10294 20174 40107 81041
333 20260 59013 81359 83079=
63624 32582 11705 10275 20172 40144 81100
333 20240 59006 81828=
63641 32380 61722 10165 20140 865//
333 20156 82709 84617=
63661 12580 60903 10180 20153 48534 60014 81101
333 20104 59011 81820 86078=
63671 32580 31607 10255 20202 33100
333 20220 83822=
63695 32480 32004 10173 20140 83500
333 20130 83618=
63723 32582 51614 10269 20190 40140 85200
333 20212 59008 85826=
63766 32475 31803 10225 20158 48535 83201
333 20170 59009 83819=
63772 32580 51714 10271 20211 85200
333 20239 85823=
47058 42566 10504 10220 20084 30208 40253 58002 81500=
47008 42970 01403 10170 20021 30213 40265 57016=
47014 42950 00000 10161 21012 39879 40255 58023=
47016 42970 00000 10140 21067 39432 40291 57017=
47020 42965 03202 10170 21007 39922 40286 57018=
47025 42970 00701 10187 20013 30185 40276 57023=
47035 42970 03604 10201 20009 30276 40284 57018=
47041 42970 01604 10171 20088 30251 40277 52001=
47055 41670 20905 10161 20062 30239 40283 58001 70162 82100=
47069 42570 20203 10234 20164 30124 40218 58004 82200=
24988 42999 43201 10083 21074 40078 57010 80001=
31174 42599 22703 10080 21057 40162 57008 81101=
31263 42999 82302 10075 21060 39645 40203 57018 82039=
31866 42699 53504 10122 21050 40160 58005 85200=
31959 42599 13104 10130 21025 40208 57006 82100=
31989 42999 00202 10141 21030 40232 57012=
32027 42599 83609 10075 20004 40132 52002 889//   333 88925 91013
91118=
32076 41549 83001 10066 20050 40098 52003 78081 889//=
32408 42999 31803 10099 21009 40081 53005 80001=
32509 42699 83602 10076 20041 40070 57006 8653/=
32594 41498 72208 10094 20080 40110 57009 70282 86360   333 921010
91111=
38599 32998 02602 10189 20000 40224 58003 333 20064=
38933 32997 02302 10197 20034 40263 58007 333 20084=
38954 32899 40000 10154 20046 48520 52003 84900 333 20085=
48375 32565 50403 10315 20223 39838 40058 84902
333 59008=
48376 32565 60605 10333 20244 39934 40073 83535
333 58010=
48352 32568 30403 10323 20240 39884 40078 82205
333 58020 70030=
41114 42960 01308 10248 20028 37990 48509 333 20162 58000 555
04410 50057=
42571 32997 20000 10330 20219 4009/ 82030 333 58017=
42667 32596 23406 10330 20192 39519 40085 82100 333 58014
82825=
42675 31696 12702 10320 20196 40088 70240 81100 333 58013
81835=
42754 32596 20908 10326 20183 39468 40080 82100 333 58013
82825=
42779 32597 23202 10330 20199 39407 40076 81130 333 58013
81825=
42867 32997 00000 10322 20247 40086 333 58013=
42874 32996 02702 10326 20237 40075 333 58009=
42934 32697 23202 10330 20212 40084 82100 333 58006 82825=
43041 32597 10501 10302 20222 39487 40085 81500 333 58004
81625=
47003 42980 03204 10160 21005 30262 40266 57020=
47005 42980 03603 10098 21107 38703 53003=
47022 42975 00205 10118 21107 38928 57008=
47037 42970 01805 10133 21022 39071 57012=
47039 42960 03403 10220 20103 30071 40232 57027=
47046 42969 00903 10273 20096 30255 40278 52001=
47050 42965 00504 10222 20032 30205 40237 57014=
47052 42565 11402 10171 20046 39933 40261 57010 81100=
47060 42960 20507 10224 20040 30162 40217 57033 82080=
47061 42670 51105 10157 20084 30252 40295 57002 85500=
47065 42565 41401 10235 20100 30172 40233 58006 84800=
47067 42565 53604 10207 20067 30124 40238 57008 88500=
47068 42970 00506 10238 20062 30200 40233 57012=
47070 42580 10508 10208 20058 30149 40232 52003 81200=
47075 42580 20707 10167 20053 39843 40256 57005 82500=
44203 32699 53607 10089 21022 38414 40159 51015 85200=
44207 32999 62307 10122 20013 38315 40126 52018 85200=
44218 32998 50000 10141 20024 38594 40130 58008 80008=
44225 41598 72704 10058 20043 38297 40214 51007 70262 87500=
44230 31699 72007 10220 21007 38757 40090 57014 70542 82277=
44237 32999 22305 10210 20074 38476 40072 57012 83043=
44265 32999 52707 10144 20013 38923 40254 58018 82044=
44272 32698 72706 10138 20030 38229 40104 51001 87500=
44282 32999 72504 10196 21054 38294 40070 57018 80007=
23074 41397 82802 10037 20030 40018 57008 78084 889// 333
88908=
23274 41498 72103 10069 20049 40028 57009 70262 86760   333 85711=
23383 41499 71604 10082 20030 40024 57011 70282 86901=
23472 41498 82102 10064 20038 40051 57008 70282 889//=
23678 41498 82902 10079 20074 40060 53001 72584 8691/=
23884 42699 83001 10095 20046 40092 57018 8707/=
23891 42598 71501 10092 20023 40088 57008 87900   333 87924=
24507 41498 80000 10080 20056 40056 57012 70282 889//=
24817 42599 71703 10092 20029 40070 57019 82545=
29282 41598 63002 10090 20067 40136 52002 70282 86900=
29570 41599 82604 10106 20025 40171 58002 78082 889//=
29698 41598 82904 10087 20036 40179 52029 70282 86902=
29862 42599 82206 10116 20021 40251 58004 85901   333 91113=
30230 42599 80103 10114 21007 40053 57029 85936=
23973 41597 81604 10064 20062 40081 57007 78086 8692/=
29562 41598 82503 10068 20042 40177 52003 70282 889//   333 88923=
29581 41598 52606 10110 20064 40174 52015 70182 85900=
29594 41497 82803 10079 20064 40174 52019 78082 889//   333 86714=
29653 41599 72701 10077 20030 40187 52001 70282 87300=
29675 42598 62702 10077 20032 40194 58010 86900=
29676 41698 72204 10121 20041 40190 52002 70262 87200   333 91113=
29759 41799 81801 10040 20020 40207 58005 78087 8691/=
29766 41599 72303 10099 20055 40216 58001 72522 87900=
29864 42699 62407 10101 21005 40210 52002 82901   333 91113=
29869 42698 72703 10114 20034 40230 52003 86931   333 95030=
29956 41699 72006 10098 20025 40231 58008 70282 87900   333 87937
95050=
30612 42599 82406 10096 20071 40146 52043 889//=
30622 42698 82903 10159 20041 40069 53018 82933=
44219 32998 42705 10162 21041 38625 40141 58005 82081=
44221 32599 32702 10102 20027 38612 40195 52003 83500=
44224 41698 42301 10081 20023 38076 40174 58001 70201 84200=
44229 32599 72307 10156 20015 37929 40068 57016 85110=
43003 32596 63404 10302 20242 40092 84839 333 58003 81620 83825
85360=
43014
32596 60000 10300 20220 39453 40083 86800 333 58005 83620 84825=
43110 31598 72701 10276 20244 40098 70192 84470 333 59001 82620
83822 85456=
43117 32597 72702 10274 20240 40081 85430 333 59001=
43150 32597 22009 10314 20252 30010 40083 82100 333 58003 82820=
43201 32497 72503 10274 20200 39371 40078 85832 333 58000 83618
83825=
43233 32497 62003 10280 20210 39282 40074 85801 333 56509 59002=
43245 32597 52305 10334 20227 30060 40082 81531 333 58008=
43279 32497 80000 10304 20250 30077 40094 8591/ 333 56699
57922 58010 85712 81930 88460=
43295  32497 60000 10270 20164 39087 48506 84801 333 56409 59002
82616 83825 85070=
43314 32597 22305 10302 20239 40099 82200 333 59006=
43321 31496 39902 10314 20196 39647 40081 70510 82901 333
57982 59004 82615 81925=
43344 32597 52703 10308 20223 39992 40090 82901 333 57932
59006 81825 81930 85075=
43369 32496 60000 10288 20254 40105 84832 333 59002 83618 84360
86075=
43371 21597 70000 10282 20248 30036 40108 75056 84372 333 57963
58000 6991/ 83620 81925 84360=
62306 32960 02808 10250 20207 40119 51004
333 20220=
62318 32560 43212 10280 20221 40102 53004
84800 333 20260=
62337 32560 21501 10268 20196 40088 51004
82500 333 20186=
62366 31556 33304 10258 20221 40102 52004
71000 83200 333 20241=
62393 32960 02910 10244 20185 40107 53019
333 20202=
62405 32960 01602 10290 20133 40080 53003
333 20200=
62414 32960 00204 10274 20109 40085 53010
333 20234=
62417 32960 03401 10252 20197 40118 51002
333 20230=
62440 31508 62809 10244 20224 40088 51002
74444 86500 333 20226=
62463 32960 03116 10296 20188 40070 51009
333 20256=
62420 32960 03103 10243 20193 40119 53005
333 20214=
62432 32960 02703 10262 20115 40100 51002
333 20212=
62435 32960 03405 10304 20184 40089 53013
333 20238=
62455 32560 43603 10261 20214 40095 53005
84100 333 20206=
40718 32560 60000 10200 20178 30253 40222 51009 69971
70162 84870 90550 333 31015 50101 70079 81820 83625 86459 =
16138 31935 40000 10104 20098 30161 40172 57005 710// 80001 90545
333 20100 30///=
30499 42998 80000 10126 21050 40158 57036 80001=
30695 42999 63203 10148 21052 40178 57042 80005=
31253 42999 80000 10075 21036 40189 57021 80005=
31295 42999 22506 10127 21027 40197 57027 80001=
31348 42599 23601 10096 21103 40159 57023 82100=
31418 42599 11601 10094 21030 40163 58017 81100=
31442 42999 83005 10129 21033 40206 57022 80001 333 91110=
31474 42599 82503 10084 21099 40185 57012 81107=
31587 42999 12903 10128 21094 40240 57021 80001=
31632 42598 13002 10108 21041 40163 57017 81100=
31713 42999 13206 10114 21060 40205 57017 80030=
31801 42599 71803 10080 21036 40205 57010 86502=
30455 42999 81701 10106 21067 38861 48442 58048 82037=
30549 42899 81806 10117 20025 38634 48429 57037 85081=
30726 42999 80903 10095 20065 40103 53002 85071=
30739 42999 83001 10162 20027 40094 57039 85072=
30741 42599 82102 10115 20080 38667 48453 58028 883//=
30745 42999 82209 10203 21012 40077 57038 80008=
30764 42999 62702 10142 21005 40126 57044 80003=
30822 42599 72903 10124 20070 40112 53019 82542=
30824 42599 82405 10129 20062 40135 53049 885//   333 88632=
30829 41999 81802 10180 20073 40089 57031 70241 84041=
30846 42999 43501 10165 20062 40120 58037 80003=
30859 42999 31905 10183 20027 40136 57037 80001=
30862 42999 12104 10164 21017 40146 57042 80001=
30957 42999 12305 10221 20006 40123 58037 80002=
30967 42999 02005 10215 21027 40107 57023=
30975 42899 62209 10146 21019 40219 57033 83031=
31825 42599 73003 10082 21050 40174 54000 879//=
31845 42599 63402 10105 21019 40218 57018 86500=
31878 42699 52304 10118 21038 40247 57015 85800=
31915 42999 03204 10148 21054 40252 57022=
31917 42999 02604 10147 21090 40275 57023=
31921 42999 03305 10136 20065 40264 57016=
31969 42998 02206 10161 20127 40272 57019   333 91013 91113=
31981 42699 10203 10107 21044 40248 58009 81100=
31987 42699 13607 10116 21078 40248 56008 81100=
32069 41458 83412 10069 20051 40125 53004 78182 889//   333 91014
91118=
36982 42999 00000 11044 21089 36508 47140 59010 333
21103=
42123 32996 03202 10366 20135 40092 333 58034=
42435 32996 02302 10344 20194 40109 333 58027=
42479 31996 20000 10342 20226 40080 70500 80001 333 58021 82070=
42542 32696 30905 10334 20197 39532 40087 83200 333 58019 83835=
43157 32597 80000 10252 20223 39456 40083 8572/ 333 58003=
24856 42599 82005 10071 20002 40093 57015 8661/   333 91111=
30686 42998 23201 10151 21022 40175 57050 80002=
30777 42999 22204 10164 20004 40155 57051 80002=
30961 42999 11404 10175 21017 40151 58042 80001=
30971 42999 61708 10160 21074 40180 58034 80002=
30978 42999 51905 10143 21041 40215 57042 80001=
31624 42999 02702 10101 20034 40214 58009=
24982 42999 01602 10066 21089 40076 57012=
31913 42999 03404 10135 21044 40247 57029=
32121 41498 82907 10055 20036 40135 58004 78182 889//   333 91010
91113=
32128 41599 63204 10081 20017 40140 54000 70282 86300   333 91112=
42103 32996 00000 10324 20218 40082 333 58026=
42273 31595 30000 10330 20238 40085 70500 83500 333 56600 58020
83625=
43311 43311 32597  10296 20254 40104 83830 333 58001 82620
86360=
43360 32497 53603 10322 20209 39939 40084 83401 333 59001=
43053 32596 32304 10334 20274 40083 83400 222// 20701 333 58009=
33325 32997 01202 102118 20077 40240 53009 333 20089=
98223 11420 82005 10280 20262 40081 57010 69901 78044 8482/
333 56799 84619 88459=
98232 31575 83206 10290 20264 40046 57019 71544 8227/ 222//
299//
333 56999 82820 88358=
98325 31462 63204 10308 20266 40065 58015 70544 84370 222//
20000
333 56999 81816 83817 84359 98308=
98329 31475 71601 10306 20247 40066 57026 70544 83202
333 56999 83818 86075=
98336 31480 82202 10318 20275 40048 57025 70544 82208
333 56599 82818 88275=
98429 31560 42507 10302 20235 40083 57012 70244 82201
333 56999 82825 84080=
98440 31475 73207 10322 20268 40055 57025 71544 84202
333 56699 84816 85279=
98444 32468 72704 10316 20256 40065 57019 83338
333 56999 81918 86270=
98536 31470 41902 10320 20262 40062 57028 70544 81261 222//
20000
333 56499 81818=
98543 11470 73601 10300 20261 40064 58016 69981 71562 83208
333 56999 83818 86272=
98550 31470 70202 10316 20248 40045 57020 71544 84968 222//
20101
333 56599 81915 84818 85272=
98630 11570 52202 10310 20266 40081 58004 60021 70188 82201
222// 2//01
333 56999 82820 83075=
98637 31475 42205 10325 20280 40082 57019 70544 82206
333 56999 81812 83075=
98646 32560 52103 10314 20257 40059 57024 83202
333 56999 83820 85080=
98653 31470 40000 10330 20254 40070 57025 70544 82201
333 56999 82818 83075=
98741 31470 62704 10317 20267 40075 57023 70544 83908
333 56999 83917 82818 85275=
98747 31470 53602 10312 20250 40063 57026 70544 83201
333 56999 83818=
98755 31570 50902 10326 20266 40069 57023 70500 81981
333 56999 81920 83360=
37395 32999 00915 10209 20073 40174 57002   333 20186=
37432 11697 80000 10102 20090 39000 48546 57004 69980 70262 885//
333 20075 88636=
83914=
70026 11156 80917 11006 21006 30100 40106 58001 69901 751// 90553
333 11006 21017 96010 555 92106=
70133 12866 60810 10094 20050 39983 49990 56003 69901 90553 333
10111 20033 555 92106=
70231 32766 40811 10128 20028 39821 49947 56007 90553 333 10178
20056 91018 555 92106=
70261 32866 40504 10089 20050 39833 40000 56006 90553 333 10167
20033 555 92106=
70273 32766 41711 10106 20067 39952 40000 57013 90553 333 10150
20094 91017 555 92106=
70308 12366 82707 10072 20067 39786 49798 56004 69901 90553 333
10100 20072 555 92106=
70316 11466 82312 10083 20067 39811 49846 58001 60011 761// 90553
333 10106 20083 555 92106=
70326 12766 80916 10094 20050 39837 49856 56015 69931 90552 333
10117 20061 91025 555 92106=
70350 11359 81316 10089 20072 39895 49937 58021 60141 763// 90553
333 10106 20050 91023 96010 555 92106=
70361 12666 80000 10083 20067 30039 40059 56014 69931 90553 333
10111 20083 555 92106=
70398 15666 80710 10117 20083 39979 40021 56029 60051 90553 333
10117 20106 91014 555 92106=
10156 20078 555 92106=
70341 12666 80605 10094 20078 39956 49982 56017 69931 90553 333
10122 20078 555 92106=
70194 32966 00203 10020 21010 39872 90615 555 92106=
78325 31530 30000 10253 20229 30098 40155 58003 70400 82202 333
01909 10315 20237 30/// 59001 82820=
78333 31/10 10101 10235 20227 30142 40148 56004 71300 81960 333
06990 10314 20212 30/// 57953 59003 818// 819//=
78338 32960 00000 10241 20229 30142 40155 58006 333 10308 20223
30/// 58001=
78349 31530 20000 10236 20225 30040 40149 58005 71791 82900 333
06900 10313 20215 31/// 57953 58000 81820 82923=
78360 31568 52201 10279 20228 30128 40140 58010 71392 85900 333
06900 10328 20249 30/// 57926 59002 81820 819// 92011=
78369 31464 50000 10261 20235 30126 40138 56014 70192 85200 333
02900 10314 20251 30/// 57880 59007 85818=
72201 32966 01406 10278 20222 30155 40162 56002 90553 333 10283
20261 555 92106=
72202 32966 20000 10256 20217 30157 40161 56003 90556 333 10278
20239 555 92106=
72203 32966 41105 10261 20217 30155 40161 56005 90553 333 10272
20228 555 92106=
72205 32664 41604 10239 20228 30124 40159 58005 90553 333 10256
20217 555 92106=
72206 31958 02404 10239 20228 30146 40154 58001 710// 90556 333
10261 20217 555 92106=
72207 31948 00000 10233 20233 30134 40150 58005 710// 90553 333
10256 20200 555 92106=
72208 32564 41806 10239 20228 30133 40149 58005 90556 333 10244
20183 555 92106=
72211 32964 00000 10239 20222 30144 40158 58005 90553 333 10272
20228 555 92106=
72212 35/// /0000 10217 20211 30140 40156 58003 90553 333 10256
20200 555 92106=
72214 31959 00000 10222 20217 30131 40150 58007 710// 90553 333
10267 20194 555 92106=
72217 11959 02903 10194 20189 30020 40148 58004 69931 710// 90553
333 10233 20194 555 92106=
72218 11958 00000 10211 20206 30094 40145 58005 69901 710// 90553
333 10250 20189 555 92106=
72219 32964 03204 10178 20156 39788 40156 56007 90553 333 10239
20172 555 92106=
72223 32966 00305 10217 20189 30082 40160 58004 90556 333 10256
20211 555 92106=
72226 32961 00000 10161 20161 30088 40159 56005 90553 333 10250
20161 555 92106=
72231 32964 40000 10250 20233 30148 40161 53001 90553 333 10294
20217 555 92106=
72234 32961 02003 10161 20161 30056 40166 55002 90553 333 10228
20161 555 92106=
72235 32966 00000 10189 20172 30041 40159 55006 90554 333 10228
20189 555 92106=
72240 12966 00000 10217 20211 30143 40163 53001 69931 90553 333
10256 20217 555 92106=
72243 12964 20000 10222 20217 30119 40155 58003 60151 90553 333
10317 20217 555 92106=
72248 31958 40000 10200 20194 30062 40157 51005 710// 90556 333
10222 20194 555 92106=
72250 32966 01506 10267 20250 30148 40153 51004 90556 333 10294
20256 555 92106=
72251 32966 01706 10250 20239 30133 40151 53003 90551 333 10294
20250 555 92106=
72253 32966 01605 10250 20228 39868 40144 50008 90553 333 10311
20239 555 92106=
72254 35966 09903 10250 20211 39933 40144 50003 90553 333 10317
20244 555 92106=
72255 35966 01904 10244 20239 30120 40156 50010 90551 333 10283
20239 555 92106=
72256 32966 01906 10250 20206 39973 40152 53004 90551 333 10289
20228 555 92106=
72259 11564 82610 10228 20200 39951 40152 53004 60011 90556 333
10256 20217 555 92106=
72261 35966 01308 10272 20194 39774 40126 51011 90553 333 10333
20256 555 92106=
72263 12866 60613 10211 20167 39498 40157 53027 69901 90553 333
10322 20206 555 92106=
72265 32766 60616 10233 20156 39180 40139 53038 90553 333 10317
20200 555 92106=
72266 11558 81310 10183 20172 39541 40155 55017 60181 795// 90552
333 10322 20183 96010 555 92106=
72267 12766 41618 10217 20122 39040 40119 53003 69901 90553 333
10256 20194 555 92106=
72270 32966 20604 10239 20044 38817 40099 51004 90551 333 10339
20217 555 92106=
72274 32966 01805 10256 20089 39230 40108 51012 90555 333 10367
20211 555 92106=
72278 32966 02605 10333 20061 39714 40089 51009 90556 333 10400
20272 555 92106=
72280 32966 /1509 10300 20178 30019 40088 51010 90556 333 10400
20256 555 92106=
72290 32461 80105 10183 20172 30138 40149 51010 90551 333 10206
20178 555 92106=
72295 31358 62606 10167 20156 30110 40146 51008 710// 90550 333
10183 20161 555 92106=
72401 12266 81403 10206 20206 30102 40165 58001 60111 90554 333
10217 20178 555 92106=
72407 32666 81405 10211 20189 30141 40163 58008 90554 333 10222
20194 555 92106=
72408 12666 61604 10200 20194 30140 40161 58009 60021 90554 333
10211 20194 555 92106=
72411 11008 80000 10156 20156 39755 40170 50001 69931 741// 90554
333 10194 20156 555 92106=
72412 37016 90000 10111 20111 39298 40179 56002 710// 90551 333
10167 20106 555 92106=
72414 31002 90000 10139 20139 39820 40171 53002 741// 90554 333
10200 20133 555 92106=
72422 32961 01804 10156 20128 39815 40170 50003 90554 333 10206
20139 555 92106=
72428 32964 41504 10144 20128 39863 40155 51005 90551 333 10211
20139 555 92106=
72432 32966 00000 10178 20144 30024 40164 53008 90554 333 10211
20122 555 92106=
72434 11559 81708 10194 20178 39947 40141 50043 60031 710// 90553
333 10233 20133 96010 555 92106=
72438 32866 81908 10172 20144 39853 40142 50004 90555 333 10200
20117 555 92106=
72440 32966 61804 10178 20161 39705 40152 52006 90554 333 10222
20122 555 92106=
72445 12666 22011 10178 20172 39820 40138 50001 60081 90554 333
10239 20117 555 92106=
72446 32966 03206 10178 20161 39789 40148 51023 90553 333 10239
20133 555 92106=
72450 32666 82404 10217 20183 39687 40155 53013 90556 333 10244
20167 555 92106=
72451 32966 20408 10178 20167 39268 40156 53009 90556 333 10267
20161 555 92106=
72456 12966 09903 10183 20156 39841 40156 51022 69951 90556 333
10267 20144 555 92106=
72458 35966 00207 10167 20128 39646 40166 51014 90555 333 10261
20156 555 92106=
72464 32966 00206 10139 20044 38601 40167 53017 90554 333 10283
20083 555 92106=
72465 32966 01405 10128 20106 38922 40177 51009 90556 333 10239
20128 555 92106=
72476 32966 01006 10156 21022 38570 40146 53009 90556 333 10294
20117 555 92106=
72486 35966 01811 10117 21061 38125 40145 51007 90553 555 92106=
72488 32966 03506 10211 20011 38681 40148 51017 90556 333 10317
20122 555 92106=
72492 35966 03206 10178 20122 30119 40129 51010 90556 333 10328
20133 555 92106=
72494 32266 22712 10128 20117 30153 40160 51013 90556 333 10167
20128 555 92106=
72712 15466 81708 10133 20117 39995 40227 56009 69901 90554 333
10156 20067 555 92106=
72745 32766 60204 10111 20094 39623 40137 52005 90555 333 10139
20061 555 92106=
72747 37956 00000 10083 20072 39702 40132 53001 710// 90555 333
10161 20033 555 92106=
72753 12966 02405 10094 20089 39810 40141 53004 69931 90553 333
10144 20094 555 92106=
72764 32966 02604 10094 20089 39577 40175 53013 90552 333 10178
20094 555 92106=
72767 32966 00000 10056 20039 39500 40186 51009 90552 333 10183
20050 555 92106=
72768 32966 01010 10089 20000 39353 40174 50003 90556 333 10183
20067 555 92106=
72772 32966 00000 10128 20011 38817 40169 53008 90553 333 10233
20072 555 92106=
72773 32966 00000 10122 21011 39048 40163 51006 90556 333 10239
20033 555 92106=
72776 32966 62406 10117 20011 38880 40141 53001 90556 333 10217
20033 555 92106=
72777 35966 00610 10139 20017 39232 40145 57006 90555 333 10206
20067 555 92106=
72779 35966 00000 10083 20017 39113 40156 51004 90555 333 10211
20000 555 92106=
72781 35966 02508 10111 20061 39748 40140 51010 90556 333 10250
20056 555 92106=
72793 32966 81703 10128 20100 39998 40162 53007 90556 333 10194
20094 555 92106=
72797 35866 80000 10106 20100 30088 40162 51001 90553 333 10150
20072 555 92106=
72306 11659 60000 10200 20194 30003 40161 58003 69901 761// 90551
333 10228 20194 96010 555 92106=
72315 31656 80000 10150 20150 39408 40160 58009 710// 90554 333
10194 20150 555 92106=
64700 32965 50000 10230 20220 39774 40112 83032 90555
333 02300 20227 50451 ///// 55009 59008 83365 84075=
64701 33962 72004 10250 20220 4//// 86072 90554
333 0//00 20230 50472 5//// 86365=
64702 33962 72604 10250 20224 4//// 87090 90555
333 02100 20230 50454 ///// 55/// 5//// 87365=
64706 11230 700000 10218 20218 40116 60074 710// 86632 90600
333 02000 20204 500054 ///// 55000 59015 87365 86075=
64709 31510 72206 10220 20219 4//// 69974 710// 84530 90605
333 01759 20205 50064 ///// 55/// 5//// 84620 87365=
64750 32562 62806 10225 20218 39705 40115 82632 90555
333 01400 20210 50341 ///// 55032 59031 82704 85365 86075
64753 33960 10412 10300 20030 4//// 80002 90600
333 02600 20280 51504 ///// 55/// 5//// 81075=
64754 33962 72804 10220 20213 4//// 87070 90550
333 0//00 20195 50134 ///// 55/// 5//// 87365
64756 13962 60406 10236 20194 40099 600054 85032 90555
333 0//29 20215 5//// ///// 59002 85365 83075=
64758
333
64761
72304 15962 01610 10239 20222 30162 40166 58004 60021 90551 333
10250 20233 555 92106=
72308 32466 62106 10211 20200 30151 40158 58005 90551 333 10222
20200 555 92106=
72310 31859 40000 10211 20206 30069 58004 710// 90556 333 10294
20200 555 92106=
72311 32961 00000 10178 20161 39867 40151 56006 90553 333 10250
20172 555 92106=
72312 31459 20505 10194 20183 39816 40149 58006 710// 90555 333
10222 20178 555 92106=
72314 31559 60000 10200 20200 39883 40155 58002 710// 90551 333
10233 20183 555 92106=
72317 31656 80000 10206 20183 39844 40162 55001 710// 90554 333
10217 20178 555 92106=
72324 31956 00000 10161 20150 39925 40169 55002 710// 90553 333
10211 20156 555 92106=
72326 31016 90603 10150 20144 39810 40162 55004 710// 90553 333
10217 20150 555 92106=
72327 32961 00000 10161 20144 39957 40169 51003 90553 333 10233
20156 555 92106=
72334 32966 41909 10194 20156 30058 40160 50004 90553 333 10239
20167 555 92106=
72340 32961 02203 10178 20172 30068 40162 50010 90553 555 92106=
72344 32966 00403 10183 20172 39993 40157 53010 90553 333 10228
20150 555 92106=
72351 17959 02312 10222 20156 39763 40121 55014 69951 704// 90552
333 10272 20200 555 92106=
72353 32966 82813 10217 20172 39702 40159 53022 90552 333 10228
20161 555 92106=
72356 32966 61806 10200 20178 39907 40146 53002 90553 333 10233
20178 555 92106=
72363 32966 01405 10172 20139 38937 40142 51018 90553 333 10322
20172 555 92106=
72365 32966 22806 10206 20017 38408 40127 53006 90556 333 10300
20172 555 92106=
72374 35966 02310 10200 20028 38538 40142 51006 90556 333 10289
20150 555 92106=
72384 32966 00000 10250 20106 39949 40121 53016 90554 333 10339
20178 555 92106=
72386 32966 02805 10267 20028 39359 40106 51010 90556 333 10367
20217 555 92106=
72389 32966 02908 10250 20122 30002 40119 51013 90556 333 10356
20183 555 92106=
72394 35261 83203 10133 20122 30071 40162 50006 90551 333 10167
20122 555 92106=
89062 47/98 70112 11020 21031 39559 49599 51012 70072=
72503 12666 81609 10211 20194 30151 40162 58012 60211 90551 333
10222 20183 555 92106=
72508 12466 81706 10183 20172 30103 40176 56005 60041 90551 333
10200 20150 555 92106=
72509 11661 81506 10172 20172 30189 40196 56012 69981 761// 90554
333 10178 20139 555 92106=
72515 11840 41704 10156 20150 39587 40162 58000 69901 710// 90556
333 10167 20144 555 92106=
72518 12266 81707 10189 20178 30055 40161 56005 60071 90551 333
10189 20172 555 92106=
72519 32961 62103 10178 20161 39997 40141 50002 90554 333 10200
20178 555 92106=
72520 32966 09903 10144 20128 39721 40165 50002 90551 333 10183
20144 555 92106=
72524 32964 02106 10128 20111 39873 40155 53007 90551 333 10189
20122 555 92106=
72528 12566 82208 10189 20128 39869 40126 53001 69901 8/52/ 90554
333 10206 20172 555 92106=
72530 11224 80506 10167 20156 39865 40107 58004 60341 761// 90556
333 10183 20117 96010 555 92106=
72532 12964 02208 10178 20172 39868 40110 56023 60061 90554 333
10211 20117 555 92106=
72533 32761 42207 10156 20139 39842 40137 58004 90554 333 10172
20128 555 92106=
72537 32966 02005 10128 20094 39891 40131 58000 90554 333 10183
20128 555 92106=
72546 32964 03105 10139 20128 39793 40138 51010 90554 333 10228
20139 555 92106=
72547 17448 82404 10167 20161 39716 40102 58007 60131 710// 90555
333 10183 20094 555 92106=
72552 32966 02905 10128 20117 39521 40177 53011 90553 333 10222
20122 555 92106=
72556 35966 03105 10122 20083 39617 40166 51010 90554 333 10217
20117 555 92106=
72557 35966 03406 10128 20106 39771 40166 51019 90554 333 10222
20117 555 92106=
72562 32966 00000 10089 20089 39218 40192 53011 90556 333 10222
20089 555 92106=
72564 32966 02304 10111 20061 38174 40177 50002 90556 333 10206
20083 555 92106=
72565 32966 01709 10128 20039 38370 40159 50003 90553 333 10256
20122 555 92106=
72569 32966 03604 10078 20050 38396 40175 53002 90553 333 10206
20044 555 92106=
72572 32966 01706 10178 20028 38725 40139 53002 90556 333 10283
20122 555 92106=
72576 35966 03511 10128 20006 38335 40167 53008 90556 333 10228
20100 555 92106=
72578 32966 00304 10128 21011 38656 40158 53005 90556 333 10261
20078 555 92106=
72583 35966 01707 10111 20000 38691 40142 51007 90556 333 10317
20067 555 92106=
72591 35966 00000 10222 20139 30004 40126 51016 90554 333 10339
20167 555 92106=
72594 37008 90000 10089 20089 30161 40189 51014 730// 90553 333
10111 20061 555 92106=
72597 32966 01604 10178 20050 39681 40152 51019 90556 555 92106=
72606 11266 81104 10167 20161 30190 40208 58015 60091 761// 90551
333 10167 20117 555 92106=
72617 12566 81406 10178 20167 30031 40154 58003 60071 90554 333
10183 20167 555 92106=
72635 32966 41805 10122 20111 39824 40116 58007 90556 333 10156
20117 555 92106=
72636 32966 01403 10133 20122 39879 40108 58012 90555 333 10161
20133 555 92106=
72637 32966 02207 10133 20106 39847 40123 50001 90553 333 10167
20128 555 92106=
72638 35466 82713 10133 20117 39694 40108 50006 90555 333 10156
20133 555 92106=
72640 12566 62407 10144 20133 39848 40096 58017 60041 8/278 90552
333 10200 20133 555 92106=
72641 12562 89903 10150 20139 39796 40102 51005 60041 90553 333
10167 20106 555 92106=
72644 37432 62909 10133 20128 39648 40119 50001 710// 90554 333
10161 20072 555 92106=
72645 32864 60505 10133 20122 39854 40109 58001 90556 333 10150
20117 555 92106=
72651 32966 02907 10111 20094 39646 40157 53008 90556 333 10194
20106 555 92106=
72654 32966 02805 10106 20089 39704 40169 53009 90555 333 10194
20094 555 92106=
72658 12464 83606 10144 20133 39826 40126 53006 60051 90553 333
10161 20106 555 92106=
72659 32766 22505 10111 20089 39694 40160 53005 90556 333 10178
20100 555 92106=
72662 35966 02904 10067 20028 39092 40201 53008 90553 333 10200
20061 555 92106=
72666 35966 01704 10072 20033 38810 40177 50000 90553 333 10200
20061 555 92106=
72677 32966 01606 10156 20033 38922 40149 56006 90556 333 10211
20078 555 92106=
72681 32966 01205 10172 21006 39147 40131 51006 90556 333 10294
20100 555 92106=
72683 35966 02909 10111 21017 38734 40155 53011 90553 333 10283
20028 555 92106=
72688 32966 01505 10156 20022 39602 40133 53008 90556 333 10261
20072 555 92106=
72693 32966 01905 10139 20083 30029 40165 51016 90554 333 10267
20056 555 92106=
72694 32966 02206 10111 20078 30089 40162 53014 90556 333 10256
20078 555 92106=
72698 32966 23305 10167 20094 30154 40162 51014 90555 333 10250
20100 555 92106=
72402 35666 42007 10211 20206 30162 40162 58006 90554 333 10217
20200 555 92106=
72405 12766 61405 10194 20178 30138 40160 58007 60081 90551 333
10217 20189 555 92106=
72406 12866 60000 10178 20178 30102 40157 56004 60051 90554 333
10206 20178 555 92106=
72423 32961 00000 10172 20139 39991 40166 51011 90556 333 10211
20150 555 92106=
72425 31920 00000 10133 20133 39865 40166 53002 710// 90551 333
10206 20133 555 92106=
72429 32961 02108 10150 20128 39800 40159 50006 90554 333 10183
20128 555 92106=
72504 15566 81506 10206 20183 30170 40174 58003 60031 90554 333
10222 20200 555 92106=
72507 11464 81706 10194 20189 30170 40193 56010 69951 761// 90551
333 10206 20167 555 92106=
72513 11458 60000 10172 20167 39816 40150 58005 69901 710// 90554
333 10189 20167 555 92106=
72521 32766 22304 10139 20117 39710 40153 53005 8/100 90551 333
10178 20133 555 92106=
72529 31856 42204 10128 20128 39934 40135 55000 710// 8/071 90554
333 10194 20128 555 92106=
72535 11456 82307 10167 20139 39848 40127 58005 60011 761// 90554
333 10172 20122 555 92106=
72536 32966 00000 10106 20089 39887 40136 50000 90552 333 10189
20100 555 92106=
72544 12966 02606 10172 20161 39886 40098 56008 60021 90555 333
10211 20106 555 92106=
72592 32966 00103 10217 20100 39949 40126 51019 90556 333 10339
20172 555 92106=
72605 17258 81607 10178 20172 30063 40188 58013 60041 761// 90551
333 10178 20144 96010 555 92106=
72783 32966 01405 10167 21022 39626 40138 53004 90556 333 10278
20100 555 92106=
72785 32966 42205 10111 21011 39311 40143 53004 90556 333 10233
20078 555 92106=
72791 35966 01503 10100 20089 30167 40176 51009 90555 333 10167
20061 555 92106=
61701 12460 70000 10241 20232 40122 60144 82570
333 20239 50101 55024 58015 82610 85460 =
65101 31460 72109 10228 20222 40139 71022 86522
333 20217 59001 87610 =
65257 11358 70000 10230 20228 40116 69941 76166 875//
333 59013 87607 =
61415 32960 03610 10240 20185 30120 40125
333 0//00 20240 50584 55000 58009 81363 83080=
67767 31660 20907 10237 20157 3//// 48/// 70500 82100 333 20193
5//// 82830=
67843 32980 11206 10207 20104 38940 48495 81030 333 20134 58010
81360=
67969 32475 10904 10172 20128 39195 48537 81100 333 20154 59002
81815=
87097 32970 80504 10191 20171 39840 40147
56003 83077 333 56078 83360 88275=
87155 11556 83607 10196 20180 30086 40146 50000 60011 79592 8692/
333 56479 57900 86630 88540 81950=
87162 11565 82305 10197 20189 30057 40125 50004 60051 76092 8587/
333 56709 85630 83550 88460=
87166 11760 83406 10202 20180 30078 40150 53004 69921 76196 8802/ 333
56069 88550=
87178 32970 80503 10212 20146 30002 40144 53012 80007 333 56000
88270=
87270 31960 61402 10168 20138 30088 40149 52001 70510
80006 333 56007 86270=
87289 32970 30000 10200 20153 30058 40139 57007 80006 333
56006 83270=
87374 32965 00000 10158 20106 30078 40169 53003=
87393 32970 00000 10170 20142 30092 40154 50000=
87480 32965 40000 10168 20144 30148 40178 53003 80006 333
56005=
87534 32960 50000 10096 20070 30036 40196 52009 80006 333 56006
85270=
87548 32960 01108 10140 20125 30076 40171 57007=
87576 31950 51404 10124 20120 30160 40183 57008 71022 80006
333 56007 85270=
87582 32960 00907 10164 20136 30173 40180 57012=
87593 32960 01608 10136 20129 30161 40188 57005=
87623 32982 00701 10070 20027 39962 40190 58007=
87645 32965 01406 10078 20046 30004 40213 54000=
87692 32960 20000 10080 20056 30202 10080 20056 30202 40227 53001
80002 333 56005 82070=
87715 32970 51404 10122 21034 39833 40151 55008 80006 333 56009
85270=
87750 32965 00516 10070 20045 30104 40204 57008=
87765 32980 39903 10008 21019 39184 48469 57008 80002
333 56002 83070=
87022 12460 32708 10196 20149 39607 40106 57031 60011 72192
80006=
87046 32960 42505 10178 20095 39126 48520 51001 84070
333 56060 84360=
87047 11965 33405 10149 20086 38805 48525 58003 69901 70182
83030 333 56000 83360=
87121 31758 83611 10216 20126 39626 40131 52003 70422 885// 333
56500 88650=
87129 32665 73603 10206 20117 39914 40142 52004 8457/ 333 84635
84360=
87217 31965 42311 10212 20060 39646 40123 51003 70600 84060 333
56050 84360=
87222 31958 72704 10206 20042 39600  40103 53008 70611
82076 333 56099 82360 85270=
87311 32965 00203 10105 20026 39474 40155 57016=
87320 32960 00000 10204 20099 39622 40138 51004=
87328 31965 21802 10140 20086 39507 40147 53001 70500 80006
333 95090=
87344 32965 22703 10138 20105 39632 40169 58007 82070 333 56050
82360=
87349 32970 02105 10135 20133 39478 40171 55004=
87371 32962 00000 10170 20135 30150 40171 51004=
87416 32965 62305 10126 20034 39405 40146 58013 86070=
87418 32965 00000 10138 20027 39349 40142 57015=
87436 31960 41107 10130 20060 39332 40139 57012 70411 80006=
87448 32965 60210 10064 20046 39609 40172 57020 80006 333 56996=
87453 32965 32703 10119 20066 39683 40170 57015 80006 333
56009=
87467 31956 20000 10129 20124 30028 40162 54000 71000 80006=
87506 32970 20000 10066 20001 38597 48520 56013 81076 333 56066 81360
95095=
87509 32970 82308 10100 20046 39313 40162 57017 8807/ 333 88360=
61202 11958 30000 10295 20123 39575 40109 69904 70696 83040
333 02913 20280 51264 55000 59004 83365=
61223 32960 62804 10251 20193 39839 40137 83042
333 01900 20248 59003 83365 83075=
61226 32960 12804 10283 20193 39828 40115 81040
333 02000 20283 50804 55096 59011 81365=
61230 32960 60000 10250 20228 39853 40118 86070
333 01300 20242 50342 55/// 58019 86365=
61233 32960 30000 10236 20227 3//// 4//// 81042
333 01800 20236 50292 55110 5//// 81365 83075=
61240 32965 62808 10275 20212 39803 40120 86070
333 02200 20260 5//// 55110 58016 86365=
61257 32570 70000 10252 20235 30080 40133 87500
333 02000 20250 50204 58029 87630=
61265 32970 10000 10254 20226 3//// 4//// 80002
333 01600 20250 50720 55/// 5//// 81075=
61270 12965 70000 10235 20228 39745 40129 60074 84070
333 02100 20230 5///0 55073 87465=
61272 32960 30000 10230 20215 39806 40129 83040
333 02100 20230 50590 55095 58010 83365=
61277 12970 50000 10228 20226 39811 40130 60024 85040
333 01900 20228 50214 55095 58001 85365=
61291 32560 60000 10220 20218 39717 40127 81542 930//
333 0//00 20218 58021 81630 84362=
61293 32970 60000 10230 20223 39722 40132 86040
333 01300 20225 50420 55106 58013 86365=
61296 32970 60000 10230 20216 39738 40129 86072
333 02100 20225 50250 55033 58016 86365=
61297 32970 60000 10220 20213 3//// 4//// 86070
333 02100 20216 50380 55047 5//// 86465=
63733 32582 31307 10230 20156 38870 48511 81331 90554
333 20182 50591 55088 55314 59010 81921 83077=
63756 11582 71205 10223 20181 38878 48514 69904 72996 83970 90555
333 0//11 20198 50601 55087 55300 59009 69907 83620 81921 87359=
63791 32580 20000 10210 20163 39168 48543 82100
333 20150 50351 55016 55310 59006 82822=
63832 32980 40910 10235 20117 38831 48509 80001 90545
333 20187 5///1 55079 55312 58003 84075=
63844 32580 70000 10259 20209 30109 40149 87200
333 20191 50701 55097 55309 59006 87824=
63862 32980 11220 10206 20155 38918 48522 80001 90550
333 20165 5///1 55101 55215 59001 81078=
63866 32480 70705 10212 20185 39563 48/// 875// 90550
333 20180 50551 55082 55305 59001 87618=
63887 32980 00000 10205 20112 38604 48525 90555
333 20125 50701 55112 55310 59010=
63894 12580 40904 10254 20210 30100 40160 60014 84200 90550
333 0//19 20180 50491 55093 55310 59004 70014 84821=
63932 32582 11512 10185 20104 38310 48507 81100 90550
333 20128 50701 55105 55310 59015 81823=
63962 31575 10812 10214 20146 38983 48537 70644 81100 90550
333 20150 50801 55099 55310 59004 81820=
63971 32580 61910 10246 20210 30026 40155 84230 90550
333 20190 5//// 55101 55306 59009 84823 83358=
87791 32980 00520 10077 20030 30182 40191 57013=
87803 32980 70000 10015 21017 39201 40132 58008 85076 333 56066
85360=
87828 32980 53610 10100 21033 30082 40135 55000 81072 333 56000
81360 83070=
87860 32680 83210 10107 21033 30056 40111 53013 82576 333 56566
82640 83360=
87909 32980 72720 10090 21006 39986 40060 52007 85076 333 56000
85360=
87925 32680 32722 10036 21007 30002 40025 52035 83500 333 56600
83635=
87938 11580 42332 10026 20010 39870 49940 52052 69981 70162 84500
333 56500 84630=
61214 42960 10000 10290 20128 39600 40100 81040
333 02600 20290 51024 55/// 59015 81365=
63630 32580 72202 10224 20178 38912 48/// 81536
333 20172 59005 81621 87277
555 10194=
63726 11509 72702 10146 20143 38147 48504 60124 74044 8157/
333 20106 55059 59001 81620 87362
555 10144=
63654 12570 42702 10206 20185 60134 81532
333 20165 55015 81620
555 10192=
63602 12570 72505 10220 20181 38850 60264 84552
333 20165 84620 86080
555 10194=
63674 32570 30504 10235 20195 39065 48817 83132
333 20170 55090 59001 83820 83079
555 10208=
94103 35/// /2104 10287 30100 40107 57019=
94147 35/// /0910 10300 30081 40100 57013=
94151 35/// /0609 10286 30089 40109 57019=
94290 35/// /1320 10244 30139 40146 57006=
89573 32980 10712 11208 21268 39768 49791 52002 80001=
94289 35/// /1219 10248 30127 40136 57008=
94307 35/// /2711 10261 30088 40128 57013=
94371 35/// /1417 10226 30160 40166 57004=
94379 35/// /1415 10225 30165 40174 57001=
91502 11470 51404 10286 20255 40086 57010 69901 71552 82231
333 56399 82816 84361=
91503 31480 60000 10274 20248 40078 56005 71522 81236
333 56999 81816 86280=
91165 12566 20614 10261 20206 30115 40167 53013 69901 90553 333
10294 20250 555 92106=
91182 31058 60810 10240 20220 30156 763// 90602 333 91021 96010
555 92106=
91190 32766 80711 10256 20178 30138 40167 53024 90554 333 10300
20228 555 92106=
91212 32966 03506 10278 20233 39978 40059 56007 90554 555 92106=
91285 12866 82407 10222 20200 30159 40170 53016 69931 90553 555
92106=
91317 32469 32805 10311 20282 30066 40070 57016 83200 333 566//
70257 83816 555 92106=
56669 70000 555 92106=
91348 11474 80905 10297 20230 30029 40081 55003 69901 70282 81171
333 56299 70000 555 92106=
91356 11466 81404 10278 20236 30076 40083 55003 60381 70286 86276
333 56299 70381 86818 555 92106=
91366 11569 81304 10286 20246 30078 40082 55005 60101 70282 81521
333 56344 70097 555 92106=
91376 32474 81008 10290 20240 30067 90550 555 92106=
91408 11472 80000 10283 20253 30041 40079 57015 69901 78082 85978
333 56199 79999 555 92106=
91413 31466 82205 10281 20247 30054 40073 57015 71622 84371 333
56599 70036 555 92106=
91520 31480 70906 10290 20241 40075 56006 70522 85833
333 56299 82817 84630 85360=
96009 11460 60206 10290 20244 30080 40113 57012 69901 70262 82272
333 56000 57803 82819 84460 80859=
96011 32460 73009 10310 20221 30075 40098 57014 84932
333 56000 57904 57804 81919 83819 80959=
96035 32461 73105 10312 20237 30063 40095 57023 84276
333 56000 57801 84818 80856=
96073 32562 70000 10308 20242 30085 40092 56019 83222
333 56000 57802 83820 80860=
96109 31458 71508 10325 20247 30041 40080 57012 70522 84231
333 56000 57831 84817 80860=
96145 01462 70000 10254 20236 30090 40095 56009 60431 76196 84570
333 56500 57/// 60437 84615 87460=
96163 32560 52507 10313 20253 30082 40089 57023 82231
333 56000 57802 82820 80830=
96179 32460 71810 10310 20248 30068 40105 57007 84238
333 56400 57842 84817 80850=
96221 32460 61104 10322 20222 30091 40107 57018 84232
333 56299 84818 80858=
96237 32465 71008 10325 20225 30089 40090 56023 83232
333 56000 57801 83817 80858=
96249 32562 71312 10326 20215 30033 40082 57031 84131
333 56300 57831 84820 80863=
96253 31460 41804 10318 20240 30052 40071 57026 70521 83831
333 56400 57800 82820=
96295 32460 70912 10310 20234 30009 40113 56031 85921
333 56000 57901 81915 80940=
96509 11460 70000 10303 20230 30064 40071 57039 69901 70262 83271
333 56000 57801 83815 86462 80857=
96581 32460 70904 10312 20252 30095 40102 57011 86131
333 56400 57842 86812 80860=
96633 01460 52007 10305 20250 30074 40082 57028 60061 70296 83571
333 56400 69997 83618=
96655 31/20 93403 10334 20234 30070 40098 57038 70444
333 89/08=
96685 31559 61206 10352 20179 30055 40081 57030 70541 84241
333 56000 57802 84820 80865=
96749 31559 60309 10323 20247 30077 40091 58029 70522 82521
333 56000 82625 84463=
96781 31450 73008 10226 20187 39277 48729 57026 70521 85331
333 56000 57901 81918 80980 84818 80858=
96805 32564 61307 10306 20235 30111 40112 56020 83220
333 56000 57802 83820 80860=
96933 32562 11220 10345 20183 30082 40088 57031 81101
333 56000 81820=
97014 01440 73403 10278 39982 40075 57018 60011 76096 85970
333 56000 57901 57801 60017 81919 80975 84820 80865=
97048 32565 62112 10328 20212 30035 40059 57033 85911
333 56400 57400 57942 87841 81920 80980 84820 80860=
97120 31460 32203 10320 20249 30051 40084 56020 70521 82201
333 56200 57823 82818 80860=
97192 32460 12004 10320 20198 30083 40107 57010 81500
333 56200 81617=
97230 32465 31208 10299 20233 30092 40099 57022 82201
333 56200 57822 82818 80857=
97260 32566 41505 10356 20186 30074 40080 57023 84101
333 56000 84820=
97270 31458 31617 10350 20182 30081 40086 58030 70500 83201
333 56000 57802 83815 80859=
97300 32565 32712 10324 20225 30063 40095 57029 82201
333 56400 57844 82820 80856=
97372 32565 40914 10332 20212 39973 40100 58015 83201
333 56000 57800 83820=
97430 31457 70103 10292 20231 30048 40078 57023 72922 84972
333 56700 57971 81915 87460 80980 80860=
97580 32465 50000 10302 20247 30088 40096 57015 84902
333 56200 57921 82916 80960 84817=
97600 32563 51803 10316 20235 30102 40108 53015 82231
333 56000 57844 82820 80860=
97686 31460 60000 10254 20177 38328 40060 57022 71511 85862
333 56000 83813 82614 85362=
97690 32463 70000 10290 20241 39967 40069 57021 83868
333 56000 57802 82816 87278 80858=
97724 01460 73103 10260 20242 30065 40080 57018 60031 72162 84871
333 56300 57831 60037 83819 80842=
97760 32465 71704 10294 20243 30075 40084 57023 83202
333 56000 57801 83815 80860=
97796 31460 71808 10302 20247 30045 40084 57038 70522 86972
333 56000 57901 81916 84817 80980=
97900 32565 70704 10292 20237 30090 40121 58013 86206
333 56300 57831 86820 80857=
97980 01462 41609 10288 20236 30071 40074 57023 60011 71566 83242
333 56000 60017 83818=
96015 32566 52712 10300 20233 30090 40097 56015 82231
333 56000 57804 82820 80860=
96033 11457 70204 10290 20250 30085 40092 57026 70562 84928
333 56000 57903 69937 81920 84617 80980=
96075 42466 53613 10312 20256 30100 40110 57010 82211
333 56000 57802 82817 80857=
96087 01458 71606 10282 20237 30062 40092 56022 69901 79592 85972
333 56400 69907 82917 83820 80970 80858=
96171 32460 61507 10320 20227 30062 40086 57031 84221
333 56300 57833 84816 80850=
96273 11458 70000 10268 20229 40083 60041 71796 85970
333 56000 82919 85617=
96505 31460 70000 10282 20206 39057 48090 57023 71522 86221
333 56000 57801 86818 80862=
96525 32460 72705 10305 20249 30070 40077 57031 84916
333 56400 57951 82915 83817 80980=
96535 32470 63304 10311 20241 30074 40094 58028 82933
333 56300 57931 57832 81915 82816 80965 80866=
96557 01430 81304 10274 20239 30054 40090 57024 69901 70464 8392/
333 56609 57961 57861 69907 81914 83815 88460 80960 80857=
96559 32459 71605 10294 20251 30052 40088 57025 85270
333 56400 57845 85812 86462 80858=
96595 31460 60000 10312 20237 30050 40097 57020 70522 86202
333 56000 57801 86817 80860=
96607 32462 71704 10290 20235 30096 40111 57015 83271
333 56000 57842 81818 83619 80840=
96695 32562 71507 10307 20245 30091 40096 57005 84220
333 56000 57802 84820 80860 83463=
96739 31550 60000 10322 20219 30040 40089 57028 70521 85202
333 56000 57803 82820 80860=
96745 32559 70409 10328 20232 30083 40091 56028 84221
333 56200 57821 84820 86460 80830=
96801 11457 70000 10262 20227 39742 40119 60021 72122 83270
333 56000 57800 83818 80860 80850=
96853 31560 62406 10308 20216 39964 40089 57017 70521 84231
333 56000 57803 84820 80862=
96925 32465 51108 10314 20237 30091 40098 57023 84201
333 56200 57820 84817 80860=
96935 32960 11206 10324 20202 30084 40091 57025 80001
333 56000 81080=
96973 32562 41122 10320 20244 30080 40084 57025 82146
333 56200 57824 82821 80850=
96987 32462 41506 10304 20237 30044 40103 57021 83501
333 56300 83618=
97008 31458 60000 10305 20234 30064 40111 57015 71521 85231
333 56000 57801 85818 80860=
97016 32565 62012 10303 20250 30068 40070 57027 85232
333 56400 57841 85820 80860=
97126 32560 20000 10324 20211 39988 40047 57028 81113
333 56000 57804 81820 80840=
97240 31459 72208 10296 20229 30070 40090 56030 70521 85931
333 56000 57901 81916 85817 80982 80860=
97310 31566 33606 10310 20227 30074 40084 57024 70510 83201
333 56000 57803 83820 80830=
97320 31565 31106 10308 20250 30099 40116 56009 70510 82201
333 56000 57803 82820 80840=
97630 01466 60000 10270 20216 39927 4//// 56025 69901 71596 84973
333 56000 57901 69907 81916 83814 83078 80980=
97682 32470 33604 10310 20265 40057 56023 82232
333 56000 57802 82816=
97700 32565 41315 10309 20220 4//// 81232
333 56300 57834 81820 83074 80858=
97722 32460 61205 10280 20236 30095 40110 57019 85972
333 56300 57931 81918 83358 80982 80852=
68906 12497 71606 10045 20020 30286 40352 52005 69954 875//
222// 0//// 333 20032 91006 555 10089 20005 91035=
78862 32580 41108 10277 20235 30113 40136 84202 333 59006 84823=
67009 32582 11819 10265 20140 30030 40150 52007 81800
333 01800 10303 20202 50684 55/// 81820 91123
555 81650=
67012 11582 5//// 10260 20191 30146 40156 52014 60024 70361 85200
333 0//14 10295 20225 50184 55/// 85820=
67019 32582 11610 10275 20136 30087 40153 52011 81200
333 02100 10305 20226 50404 55/// 81820=
67025 32582 31210 10240 20167 30064 40165 51008 83200
333 01800 10266 20189 50344 55/// 83820=
67027 32582 20612 10285 20154 30126 40147 52014 81832
333 02200 10298 20232 50244 55111 81823
555 81640 81360 81073=
67045 11582 73401 10282 20149 30058 40147 51010 69944 7016/ 8583/
333 02215 10339 20240 5///4 55/// 81820 85640
555 83360=
67072 11470 82806 10229 20198 30180 40183 51011 60094 71562 888//
333 01602 10256 20196 50314 55/// 84817 88640 92428=
67073 32582 1//// 10257 20207 30121 40147 51006 81100
333 0//00 10286 20201 50//4 55/// 81823=
67083 32580 61206 10172 20121 38780 48550 51020 83830
333 01100 20130 50044 55099 83820 86360=
67095 32481 70000 10240 20195 30172 40178 51006 8683/
333 01700 10258 20156 50204 55098 83817 85640
555 82360=
67113 32581 60000 10248 20172 30178 40180 51010 85830
333 01500 10286 20196 50354 55/// 84823
555 82640 82360=
67117 32582 13604 10260 20192 30135 40144 51013 81800
333 01200 10306 20164 50354 55/// 81820
555 81633=
67137 11265 70000 10172 20146 38931 48529 51009 69904 71552 878//
333 0//11 10258 20142 50344 55/// 81707 86817
555 82620=
67143 11470 8//06 10218 20200 30173 40180 52011 69984 71562 888//
333 0//53 10265 20200 5///4 55/// 84817 87633 92438=
67152 31960 00406 10220 20076 39234 48536 51006 7050/
333 0//00 10291 20139 50784 55///=
67157 12475 7//// 10220 20198 30190 40197 52012 69914 8687/
333 0//12 10/// 20/// 50524 55/// 82817 85633
555 82360=
67161 32982 01408 10230 20188 30150 40159 51005
333 01300 10280 20170 50464 55///=
67197 32482 60612 10238 20160 30181 40191 52009 86800
333 01600 10249 20175 55104 55094 84817 86640=
61990 32580 21009 10244 20156 40180 82100
333 22155 50500 59003 943//=
61988 11460 71315 10230 20206 40154 60034 75082 87800
333 20190 50360 59014=
61986 11460 71717 10235 20205 40146 69934 78022 8787/
333 20218 59005 94316=
61974 31465 71805 10265 20228 40123 71521 87802
333 20221 59010 94317=
40009 32970 00000 10232 20090 40062 51014 333 20130 30///=
40016 32970 0000 10247 20091 40078 51011 333 20155 30///=
40022 32965 00902 10252 20193 40098 53007 22// 20000 333 20222 30///
40030 32970 00000 10238 20172 40069 57009 333 20188 30///=
40039 32970 02301 10246 20170 40074 52011 333 20192 30///=
40066 32570 10202 10234 20191 40087 52005 81500 333 20213 30// 816266
40072 32970 00000 10260 20100 40077 52018 333 20230 30//=
40083 32970 01801 10190 20048 48469 54000 333 20148 30///=
48900 41497 62804 10313 20264 30061 40071 57028 70298 83201 333
58000 83894 83099=
48914 32498 72904 10324 20232 30082 40084 57017 86201 333 58004
82894 85895 82995=
48917 32598 62704 10297 20265 30079 40084 57016 83208 222// 00307
2//01 333 59001 83895 86299=
48918 32470 72705 10309 20246 30078 40089 57018 82208 222// 00307
2//01 333 58003 81894 87299=
48916 32598 62702 10314 20256 30041 40087 58015 862// 333 58001
86895=
48907 32598 72306 10307 02253 30082 40084 58019 83908 333 58000
82895 82995 86299=
42348 32996 23606 10344 20143 40087 82030 333 58026 82360=
42452 32596  20202 10340 20199 40093 81530 333 59019=
22550 32997 32304 10136 20113 40228 53002 80001   333 20084=
22583 32984 22703 10150 20098 40205 57004 80001   333 20083=
22768 32997 02003 10111 20085 40277 53002   333 20080=
22845 32998 02402 10115 20082 40299 53005   333 20047=
22887 32970 09901 10131 20106 40273 55002   333 20062=
23205 12498 83007 10100 20076 40112 53008 69940 884//   333 20075
86616=
23418 12470 82204 10110 20092 40150 57014 69930 886// 333
20098 88710=
23711 32998 52303 10123 20095 40213 57012 80001 333 20083=
23804 32998 32303 10142 20110 40253 57003 80001 333 20069=
27037 31958 02201 10098 20080 40306 53001 72840 333 20021=
27199 31998 02401 10140 20107 40287 53010 70240   333 20075=
27271 31995 10000 10115 20097 40299 53001 71000 80001   333 20038=
27459 31996 50000 10140 20084 40304 53003 71011 80001   333 20085=
27730 31959 60000 10110 20080 40313 53004 71011 86030   333 20056=
22165 31356 72004 10093 20090 40139 57002 71022 81630   333 20090=
22422 32878 61801 10148 20117 40215 57006 86030=
22676 32974 32203 10146 20106 40233 57005 80005   333 20064=
22954 32961 03201 10138 20099 40298 52003 333 20072=
23405 41572 82703 10116 20106 40166 57002 83303 333 20085=
23412 32498 82806 10104 20098 40130 57021 885// 333 20080=
23803 32999 00000 10114 20094 40247 57012 333 20038=
27066 32998 01401 10116 20080 40296 58003 333 20042=
27083 32999 00000 10132 20088 40285 52005   333 20050=
27113 31294 50000 10066 20064 40308 54000 72841 85600 333
20034 85703=
27242 /1856 40000 10070 20061 40317 53002 71011 84030   333 10032=
27329 31927 70000 10105 20093 40311 53003 71022 87030   333 20069=
27373 32999 23201 10133 20095 40295 53004 80001   333 20074=
27665 32965 62701 10128 20084 40310 53004 80001   333 20077=
27823 32982 00000 10111 20055 40318 54000   333 20054=
28009 32998 40000 10114 20092 40284 53007 82031   333 20065=
28411 32997 70000 10110 20092 40300 52011 87030   333 20048=
22282 11596 72706 10100 20095 40146 53004 69960 71082 82140   333
20079=
22292 32265 83308 10090 20081 40142 52011 886//   333 20102=
22365 32498 72708 10132 20111 40178 52002 83550   333 20123=
22438 32966 32306 10104 20085 40229 53004 83070   333 20095=
22446 42968 52605 10120 20104 40228 53009 82031   333 21118=
22563 31859 22102 10131 20110 40216 57006 71011 81031   333 20103=
22854 31983 02302 10102 20077 40289 53001 70240   333 20044=
22867 32976 00000 10101 20081 40295 52002   333 20037=
22939 32996 00000 10099 20095 40307 54000 71040 333 20041=
22996 31998 01801 10117 20095 40279 53001 70240 333 20059=
27008 32982 02701 10095 20081 40311 53003 333 20003=
27051 32965 02402 10099 20085 40300 57001 333 20044=
27225 33869 70902 10108 20081 40313 53003 87030   333 20070=
27252 32972 33202 10117 20082 40305 53001 83030   333 20031=
27369 32999 30701 10122 20088 40303 53001 83031   333 20063=
27393 32996 62702 10132 20107 40300 52003 80001   333 20066=
27479 32980 30000 10162 20118 40296 52003 80001   333 20112=
27532 32997 60000 10134 20090 40305 58001 86030   333 20087=
27648 32957 60000 10143 20090 40308 53002 71022 86030   333 20071=
27679 32966 60201 10132 20080 40301 53005 86041   333 20107=
28214 31957 72501 10135 20095 40288 53001 71022 85032   333 20058=
31285 42999 02506 10087 21050 40178 57019=
31561 42698 62003 10094 21019 40179 57009 82530=
32010 41498 33209 10074 20045 40124 52001 70282 83900   333 91010
91112=
10261 20217 555 92106=
10317 20217 555 92106=
42309 32596 61803 10310 20263 40082 84330 333 58014=
42492 21395 61402 10324 20254 40084 76022 86700 333 58022 6990/
82708 84618=
42591 32596 40000 10330 20245 40084 84400 333 58023 83620 83825=
42701 31496 33604 10302 20178 39369 40071 70500 82501 333 58013
82618=
42798 31596 22703 10330 20219 40068 70500 82400 333 58016 81620=
42895 32596 20203 10334 20259 40075 82500 333 58013 82620=
42971 32596 23203 10340 20256 40080 82500 333 58009 82620=
43333 32596 52704 10298 20244 40088 83401 333 59007 82620
83070=
91245 32566 40813 10300 20240 30113 90550 555 92106=
91353 32574 60405 10294 20257 30069 40074 56007 84230 333 5611/
70213 84819 555 92106 91425 32474 50405 10322 20239 30063 40064
56008 83208 333 561/9 70013 83818 555 92106 91434 11474 80502
10267 20259 30085 40088 56007 60091 78182 882// 333 56199 70127
88817 555 92106=
64753 33960 10412 10300 20030 4//// 80002 90600
333 02600 20280 51504 ///// 55/// 5//// 81075=
64756 13962 60406 10236 20194 40099 600054 85032 90555
333 0//29 20215 5//// ///// 59002 85365 83075=
10161 20072 555 92106=
12105 11556 81403 10122 20111 30086 40127 52007 60012 71062 8257/
333 10135 20116 31011 55029 70016=
41530 31996 00000 10300 20175 40107 70500 333 58035=
41620 31995 00000 10255 21028 48514 70500 333 58048=
41624 41624 32997 00000 10320 20218 40097 333 58040=
41640 31996 02703 10340 20225 40086 70500 333 58030=
41660 31994 03104 10217 21013
8?24 70600 333 58040=
41675 31996 00000 10330 20213 40099 70500 333 58043=
41715 31996 01302 10335 20201 40096 70500 333 58042=
41756 ?4156 41756 32997 01802 10325 20320 70500 333 58062=
41764 32996 0-388 10320 20223 40093 333 58041=
41768 31996 02302 10325 20232 40093 70500 333 58027=
41780 32597 52304 10305 20233 40106 85600 333 56900
58031 82520 83620=
41515 81597 60000 10170 20114 48558 60012 70262 86620 333 58061
69907=
41571 31996 00000 10306 20178 40090 70500 333 58030=
41685 32997 03602 10380 20092 48511 333 58061=
41710 32996 01302 10278 -8875 40123 70500 333 58003=
41718 32997 02305 10325 20248 40090 333 58033=
41739 31995 03607 10278 -1030 48527 70500 333 58060=
41744 32997 03602 10288 21033 48491 333 58018=
41749 31996 00000 10336 20246 40092 70500 333 5884-=
83348=
20292 41480 72706 11011 21015 49952 52003 70242 87500 333
87612=
20674 41584 62403 10029 21064 40004 57012 70282 84201=
20744 11497 83207 10031 20015 40068 57004 60010 78082 883//
333 20031 88911 91111=
20891 41497 72403 10068 20047 49984 57009 78082 85331 333
85916=
23022 11397 83203 10039 20027 40060 57022 60030 72582 8465/
333 20017 91106=
23032 11463 81806 10032 20022 40055 57023 60020 78082 889//
333 20030 88913 91109=
23256 12397 73206 10038 20023 40059 54000 69950 87300   333 20030
84607=
23330 11497 81802 10046 20036 40102 57031 76162 8672/   333 20040
86716=
23552 11497 83304 10048 20033 40090 52002 69980 78086 86950   333
20041=
23631 31997 82004 10082 20041 40154 57020 76162 8807/   333 20044=
23734 32698 82401 10085 20068 40177 57005 885//   333 20056=
23849 41496 83104 10075 20053 40145 52009 72522 889//   333 88915=
23933 32597 72703 10095 20036 40184 52008 87500   333 20062=
28064 32999 82702 10113 20059 40218 52003 83031   333 20041=
28275 32599 82302 10113 20064 40213 52001 82952   333 20023=
28493 12599 72902 10088 20053 40194 52012 69930 85970   333 20069=
28698 11398 83202 10094 20068 40206 52014 69950 70260 8852/   333
20044 85624 83507=
43192 32597 42304 10294 20248 40094 83402 333 58000=
23929 32981 62702 10109 20074 40215 54000 84031   333 20057=
28383 12598 72605 10104 20064 40200 52005 69940 86239   333 20051
86824=
28586 12599 83403 10085 20061 40213 52017 60020 889//   333 20062
88925=
28588 12582 63402 10104 20046 40214 52011 69930 86201   333 20065=
28688 11498 73404 10095 20071 40219 52012 60010 70182 87300   333
20074 87919=
28696 31499 83202 10086 20073 40204 52014 70242 887//   333 20028
88716=
28791 11499 83103 10096 20076 40212 52015 69970 70262 8772/   333
20073 87718=
29367 42484 72706 10086 20040 40164 53006 87900   333 87919=
30117 41157 82903 10056 20047 40111 53001 78084 889//   333 86702
88910=
30253 42698 80705 10081 21036 40094 57045 82337=
23426 11989 82203 10071 20046 40114 57034 69900 70262 8807/   333
20046=
23527 32699 32610 10149 20081 40139 57018 81141   333 20097 91114=
23625 32699 42602 10142 20082 40157 57010 82181   333 20045=
28367 32596 83001 10127 20067 40240 52008 84231   333 20060=
28382 12699 73105 10112 20046 40205 52004 69910 83230   333 20053=
28491 12698 72803 10098 20059 40196 52008 60020 87500   333 20066
87646=
28593 11584 63303 10113 20055 40196 52011 69930 70262 86300   333
20053 86927=
28786 31498 83204 10094 20073 40218 52016 70242 886//   333 20061
88714=
28797 11497 83303 10094 20084 40208 52013 60030 70262 883//   333
20063 88915=
28799 11496 83402 10098 20081 40202 52008 69900 78084 889//   333
20051=
23662 11599 82502 10065 20058 40065 57009 69900 72582 883//   333
20047=
23788 41597 80000 10075 20064 40060 57010 78082 889//=
23986 42499 82004 10056 20032 40105 57006 8632/   333 86917=
36103 41599 72902 10086 20004 40227 51009 70282 86902   333 95000=
36259 42599 22802 10053 21056 38273 48536 58006 82902=
65528 32960 7//// 10203 20201 39661 40133 83032
333 20172 58017 83360 87076=
65536 32460 6//// 10213 20208 39698 40126 83530
333 20210 58001 83613 85360=
65548 32258 8//// 10215 20207 39756 40139 885//
333 20200 5//// 83705 88613=
65557 32458 70000 10214 20205 39904 40143 87500
333 20210 58004 87611=
65562 32360 8//// 10228 20216 3//// 4//// 885//
333 20218 5//// 84706 88613=
65578 16/// /2301 10226 2//// 30140 40150 53007 69924
333 20227 59002=
65592 32458 1//// 10220 20214 30110 40133 81500
333 20195 59001 81613=
65599 31402 4//// 10215 20209 30060 40135 74640 82502
333 20211 58008 82611 84076=
43128 32597 60000 10304 20205 39485 40074 85801 333 59006 83620
83825=
43185 31596 60000 10316 20257 30073 40076 70522 84430 333
58000 83620 84360=
43213 31597 62302 10290 20225 39775 40088 70252 82832 333 58003=
43237 31597 62704 10290 20222 39702 40089 70252 85802 333
56609 58004 83620 83830=
43284 21597 62705 10294 20236 39987 40101 75052 85830 333 58001
6990/ 83620 83825=
43329 21496 71602 10320 20258 30070 40083 76022 86330 333
57915 59009 6991/=
43353 31496 39903 10298 20234 40106 70252 82801 333 56609 59003
82614=
41594 31996 01305 10315  20223 40090 70400 333 58043=
30811 42699 70502 10095 20062 40117 53016 8257/=
37549 41696 80000 10138 20104 40262 53005 72162 8752/   333 20124=
16520 32975 03501 10129 20121 30141 40169 51000
333 20124=
43181 32597 52903 10320 20261 30051 40078 82239 333 59002=
43221 32597 32302 10326 20201 30064 40077 82401 333 58004=
40001 32970 00905 10301 20158 40058 52011 333 20217 30///=
40007 32970 03102 10242 20177 40051 53002 333 20182 30///=
40045 32970 03401 10272 20149 40071 52009 333 20180 30///=
40061 32970 02702 10225 20144 40061 52010 333 20206 30///=
40095 32970 60000 10215 20176 39474 40082 52003 86500
333 20185 30/// 86630=
60580 32960 12706 10230 20204 40100 52011 81030
333 20230 81360=
60611 32960 00000 10243 20013 40124 53007
333 0//00 20240=
60680 32956 10000 10244 20044 38679 48546 53006 80002
333 01800 20205 81073 95900=
23975 41599 82102 10098 20070 4//// 70282 889//=
23987 42398 71603 10064 20048 40098 57008 87900=
24908 42680 82702 10094 20034 40091 57010 82107=
29253 42599 82503 10080 20051 40129 53001 889//=
29553 41560 82504 10076 20009 40169 52004 78022 889//=
29471 41599 72505 10098 20030 40161 58001 70282 86930   333 91112=
29481 41599 62705 10114 20046 40158 58003 70262 85301=
29263 41598 81301 10076 20061 40135 58002 70282 8595/=
13160 32697 40501 10096 20083 30066 40174 57013 82530 333 20073
31005 55083=
13262 32698 40000 10122 20108 30037 40184 56001 84500 333 20106
31008 55075=
13272 31957 50401 10140 20131 30045 40167 57005 71022 85030 333
20116 31007 55067 85360=
13285 32697 60702 10141 20125 30089 40190 58004 85530 333 20097
31008 55078=
13289 31/91 91004 10116 20112 48518 50000 74544 333 20105 31007
55103=
13363 32670 70000 10105 20097 48509 58003 87500 333 20098 31007
55053=
13376 32898 70000 10135 20123 39923 40180 54000 87030 333 20126
31011 55071=
13388 32698 70000 10134 20106 39945 40187 53006 83570 333 20120
31009 55089=
13462 32770 73602 10186 20133 30131 1 EEE 40174 54000 85530 333
20170 30/// 55/// 85650 87360=
13489 32698 80000 10128 20090 39679 40188 53007 8457/ 333  /0120
30011 55093=
60620 32960 02112 10240 20007 40108 53021
333 0//00 20234=
60640 31925 01704 10285 20041 40114 53015 70700
333 0//00 20274=