ZCZC 000
SMCI10 BENJ 030600
AAXX 03061
52740 16/// /3206 10190 29020 36874 60000
555 1/133 2//00 /////=
59082 32580 21805 10335 20221 30006 40079 570R0
59211 11580 71802 10321 20244 39872 40071 57020 69901 70080
82242 333 20245=
59265 32570 23202 10344 20233 39954 40085 57022 82100 333
20242=
59287 32564 41602 10342 20239 30041 40090 57021 84200 333
20260 =
59316 32580 21803 10326 20235 30082 40091 57017 82202 333
20260=
59431 11580 61604 10300 20246 39945 40088 57013 69901 78000
85942 333 20258=
59644 32580 11604 10314 20246 30075 40090 57012 81142 333//
20272=
59758 32580 61604 10333 20235 30065 40085 57011 86200 333//
20262=
57259 11380 80903 10217 20196 40078 52004 60021 72166 8577/
333 20197=
57265 11258 80000 10213 20207 39976 40082 52013 60101 72198
8772/ 333 20205=
57279 11465 83602 10217 20202 40072 52003 60191 76098 8777/
333 20205=
57399 11960 83202 10281 20256 40036 57010 69981 76060 8807/
333 20268=
57461 11480 81802 10231 20219 39909 40063 52007 60091 79596
889// 333 20223=
57476 11965 83603 10224 20204 40060 52002 69901 76060 8807/
333 20221=
57494 32968 82903 10291 20244 30009 40036 57001 8807/ 333
20277=
57655 32580 22206 10334 20217 40044 57020 82100 333 20240=
57662 32580 72703 10344 20233 39998 40037 57006 86140 333
20268=
57766 32680 72004 10324 20220 40059 57013 86140 333// 20242=
57866 32580 22509 10336 20214 39874 40068 57014 82140 333//
20263=
57972 32670 21403 10343 20207 39861 40070 57017 82100 333
20276=
58102 11461 80204 10217 20200 30014 40063 57006 60021 76060
8672/ 333 20190=
58203 11558 83404 10201 20198 30013 40057 57002 60121 76066
885// 333 20194=
58314 32970 80403 10290 20237 39941 40024 57020 8807/ 333
20241=
58321 11667 83202 10241 20220 40037 57009 69901 70060 885//
333 20235=
58338 32968 73403 10305 20255 40027 57007 8704/ 333 20234=
58424 32968 61807 10331 20241 30002 40024 57016 85042 333
20272=
58527 32580 72503 10326 20235 39978 40049 57014 85102 333//
20249=
59023 11580 60902 10308 20245 39833 40071 57024 69971 78060
86240 333 20248=
59293 32570 61802 10339 20234 30039 40085 57022 86100 333
20254=
59417 32580 73403 10322 20237 39933 40080 57016 82242 333
20247=
59501 32580 12205 10311 20243 30089 40105 57016 81200 333
20263=
59663 32580 12003 10316 20247 30064 40091 57013 81200 333
20267=
59838 32580 22504 10330 20252 30072 40086 57009 82100 333//
20266=
59948 11580 30902 10321 20256 30079 40087 57010 69951 70080
83202 333// 20265=
59981 32580 21403 10314 20260 30082 40088 57009 82900 333//
20273=
59985 32580 20903 10331 20278 30075 40080 57011 82200 333//
20267=
58040 11660 70405 10188 20172 30080 40084 57002 69901 70060
875// 333 20162=
58144 11364 80403 10208 20191 30033 40055 57002 60091 76060
8672/ 333 20182=
58633 32580 72509 10337 20218 39957 40050 57011 86142 333
20243=
58659 31956 70903 10323 20270 30016 40049 57019 71000 85042
333 20254=
58847 32680 71405 10380 20209 39963 40058 57023 81102 333
20262=
BSHI  03141 99310 11223 41901 70906 10216 40031 57018 74640
8701/ 00214 20901=
57957 32570 72203 10317 20233 39892 40080 57018 87200 333
20250=
59046 32580 71803 10325 20239 40082 57022 87200 333 20267=
59058 32680 21603 10318 20240 40085 57021 82240 333 20246=
59072 32580 41802 10349 20222 40078 57018 84100 333 20270=
59087 32568 42003 10325 20248 40095 57015 84100 333 20251=
59096 32680 62902 10336 20224 40081 57024 86100 333 20229=
59209 11572 60000 10260 20209 40087 57009 60011 72580 85240
333 20217=
59254 32575 32003 10327 20233 40084 57019 83900 333 20247=
59278 32680 21402 10338 20236 40086 57021 82100 333 20258=
59456 32580 31803 10338 20223 40089 57017 83100 333 20247=
59493 32580 71802 10321 20240 40092 57012 874// 333 20276=
59632 32580 52004 10321 20252 40087 57009 82202 333 20265=
59647 32580 10902 10312 20258 40089 57010 81102 333// 20271=
59658 32575 10903 10315 20240 40095 57011 81200 333 20275=
59673 32580 31402 10320 20253 40095 57013 83200 333 20261=
59845 32580 61602 10330 20230 40078 57017 86200 333// 20247=
59855 11580 21105 10313 20262 40087 57008 69901 70080 82100
333// 20260=
58345 31940 81403 10282 20250 40032 57005 71000 8807/ 333
20235=
58543 32680 72004 10327 20212 40047 57011 8114/ 333 20240=
58569 32960 72704 10288 20259 40041 57012 8703/ 333 20236=
58646 32575 63602 10359 20226 40045 57024 82102 333 20234=
58660 32680 72703 10370 20204 40033 57025 86802 333 20231=
58834 32678 22204 10352 20209 40066 57024 82102 333 20239=
58944 32975 72208 10315 20220 40081 57016 80002 333 20261=
53513 11570 81403 10162 20128 38959 40122 57003 69931 72160
8672/ 333// 00254 20142=
54218 32980 70202 10294 20029 39459 40098 57013 80002 333//
20147=
54511 32962 81202 10285 20151 30067 40105 57012 80007 333
20187=
57447 11470 80702 10229 20214 39542 40057 52008 60041 76098
8172/ 333 20224=
57584 32580 72505 10332 20227 40042 57016 86140 333 20282=
57598 32580 22504 10356 20207 40038 57020 82100 333 20237=
57745 32580 31808 10326 20228 39739 40044 57021 82101 333
20242=
57799 32580 21803 10346 20222 39979 40058 57018 82100 333
20261=
57845 11765 82204 10259 20227 40081 57004 69901 76060 885//
333 20252=
57853 32680 52504 10323 20218 40062 57009 84140 333// 20233=
58506 32475 72504 10265 20199 40052 57010 84102 333// 20216=
58715 32580 21606 10342 20221 40057 57021 82102 333// 20250=
58813 32580 22204 10345 20202 40059 57023 81102 333// 20242=
59102 32580 21602 10334 20203 40079 57024 82100 333// 20232=
50468 32975 71406 10294 20071 39853 40047 57028 80002 333
20076=
50745 32670 13202 10323 20057 39900 40069 57024 81100 333
20145=
50774 32670 43602 10273 20083 39796 40083 57018 81102 333
20043=
50953 32770 62705 10304 20064 39915 40084 57020 86100 333
20120=
54337 32970 70702 10296 20126 30026 40107 57012 80002 333
20167=
54342 32970 60704 10300 20067 30039 40098 57019 80002 333
20147=
54471 32961 73603 10289 20093 30092 40097 57019 82032 333
20185=
54497 32980 70205 10307 20067 30068 40082 57021 80002 333
20167=
54662 32974 71803 10282 20118 39979 40094 57015 80002 333
20171=
51468 16/// /1900 10054 29005 36582 60181
555 1/140 2//03 /////=
58138 11460 80704 10211 20199 40049 52003 60321 76060 8472/
333 20188=
58259 11556 81403 10227 20221 40035 57016 60041 76060 885//
333 20225=
58358 11958 80000 10299 20272 40018 57015 69941 78094 8807/
333 20231=
58464 32570 71602 10306 20239 40027 57016 82442 333 20224=
58549 32680 62709 10354 20208 40040 57017 81142 333 20254=
58665 32961 71805 10335 20264 40035 57018 82042 333 20246=
58667 32965 72506 10273 20242 40059 57018 82042 333 20235=
59117 32580 12203 10350 20193 39982 40083 57022 81100 333
20249=
58150 11240 80405 10193 20187 30051 40059 52005 60071 76166
8772/ 333 20182=
58926 32780 11401 10355 20213 40071 57028 81100 333 20229=
58472 31959 70903 10276 20234 39942 40035 57021 71040 87042
333 20206=
58477 31958 81403 10291 20252 39990 40032 57016 71000 85047
333 20226=
58666 31660 72014 10251 20232 39955 40052 57015 70040 875//
333 20226 91118 91522=
58760 32965 71804 10277 20232 40056 57018 81032 333 20235=
58921 32675 10403 10344 20227 39840 40071 57026 81100 333
20231=
58556 32980 72505 10330 20223 40038 57016 8704/ 333 20247=
58725 32780 73202 10353 20220 39818 40064 57025 83101 333
20213=
53772 11950 80402 10183 20123 39258 40140 57008 60061 70560
8801/ 333// 20151=
54823 32960 80405 10244 20164 39895 40090 57008 8802/ 333
20199=
53463 32580 71802 10223 20078 38935 40102 57019 86902 333//
00254 20165=
52418 32980 50402 10311 20060 38787 40004 57020 80002 333
00100 20136=
56046 32580 20202 10136 20018 36312 57011 82100 333 00302
20019=
56080 32580 40702 10214 20059 37152 57013 84202 333 00303
20061=
53915 11680 71105 10198 20157 38620 40081 57009 69901 70060
878// 333 00303 20151=
56096 32680 12003 10316 20128 38846 49997 57028 81100 333
00106 20198=
52652 32780 13603 10234 20089 38488 40087 57009 81100 333
00108 20090=
53923 11680 81602 10155 20147 40106 57003 69901 70060 885//
333 20126=
57006 32580 10902 10260 20144 40045 57021 81102 333 00205
20168=
50632 32980 02001 10287 21005 39245 40083 57022 333// 20047=
58820 32680 12204 10330 20214 40068 57021 81102 333 20212=
889// 333 20231=
58562 32965 72203 10339 20232 40025 57017 86041 333 20257=
58457 32580 72204 10343 20227 39973 40021 57021 85462 333
20244=
58562 32965 72203 10339 20232 40025 57017 86041 333 20257=
58457 32580 72204 10343 20227 39973 40021 57021 85462 333
20244=
50548 32980 12502 10327 20062 40063 57025 80002 333// 20066=
50834 32580 10000 10323 20055 40069 57026 81200 333// 20083=
53480 32680 71605 10225 20043 40103 57018 83102 333// 20140=
53673 11960 81602 10185 20152 40128 57009 69931 76060 8802/
333// 20149=
53898 11464 80203 10230 20146 40149 57002 69901 76060 8172/
333// 20196=
54602 32760 81401 10252 20161 40114 57010 8351/ 333// 20194=
54725 32665 80706 10244 20146 40100 57009 8253/ 333// 20161=
54751 32965 70903 10232 20137 40100 57011 8703/ 333// 20109=
54916 32662 80403 10264 20187 40080 57010 82407 333// 20199=
58238 11430 82902 10254 20234 30021 40030 57006 60041 72588
889// 333 20231=
58251 11570 70704 10218 20206 30024 40030 57004 60631 72598
8244/ 333 20195=
58457 32580 72204 10343 20227 39973 40021 57021 85462 333
20244=
58343 11420 80000 10247 20240 40030 57009 69951 76060 8772/
333 20226=
58562 32965 72203 10339 20232 40025 57017 86041 333 20257=
58265 11470 81106 10204 20201 30017 40028 57028 60061 76260
8772/ 333 20203=
56294 32567 72701 10317 20218 39469 40029 57013 8214/ 333
00305 20224=
56492 32968 60203 10326 20203 39647 40026 57009 86040 333
00405 20250=
56571 32780 12002 10314 20145 38343 57015 81100 333 00352
20233=
56651 32680 51406 10229 20131 37613 57012 85200 333 00152
20141=
56778 11570 71603 10220 20162 38099 57010 69901 70080 87202
333 00152 20190=
56951 11580 70000 10252 20179 38467 57015 69921 78080 879//
333 00000 20187=
57328 11415 80000 10230 20220 39655 40044 57002 60021 76098
885// 333 20216=
57411 11456 80702 10249 20235 39690 40041 57004 69901 71060
8577/ 333 20224=
57816 32580 71804 10269 20184 38748 40053 57008 86830 333
00251 20212=
58027 11468 80905 10230 20188 30018 40067 57010 60021 76060
8277/ 333 20174=
58241 11580 70404 10225 20210 40046 52003 60351 70098 875//
333 20195=
57687 32980 52006 10340 20238 39970 40045 57017 85040 333
20264=
57776 32080 62208 10245 20193 40077 57001 86061 333 20195
91124 91520=
58221 11558 80405 10206 20198 30024 40058 52002 60031 79560
889// 333 20195=
58437 31/00 92508 10172 20172 38146 57005 74544 333 20157
91125 91525=
58606 32975 42206 10340 20241 39996 40048 57012 81042 333//
20252=
50527 32970 03402 10306 20087 39374 40060 57020 333// 20104=
50727 32580 12703 10291 20026 38950 40092 57018 81100 333//
20027=
53564 11970 82901 10179 20120 39154 40124 57005 69961 76066
8802/ 333// 00358 20154=
53959 11557 81102 10180 20167 39685 40121 57002 60031 76066
8672/ 333// 20161=
54843 32970 80000 10260 20176 30065 40091 57006 8807/ 333//
20162=
54909 11664 80000 10225 20211 30017 40077 57001 69941 76060
8357/ 333// 20201=
57516 31940 00202 10302 20237 39734 40025 57007 71000 333
00652 20256=
58730 32680 72203 10339 20216 40059 57021 83102 333 20224=
58731 32780 52004 10334 20227 40061 57019 81132 333 20220=
58911 32676 61102 10326 20226 40080 57024 85102 333 20212=
58931 32380 72703 10258 20131 38371 57009 81101 333 20165=
45007 32570 32503 10329 20241 30083 40092 58016 83200
333  59011 82825 =
56146 32780 32201 10178 20062 36762 57024 83100 333 00301
20057=
56172 32680 12702 10245 20095 37334 57036 81100 333 00451
20114=
56247 32880 61401 10289 20071 37392 57038 84942 333 00302
20154=
56294 32567 72701 10317 20218 39469 40029 57013 8214/ 333
00305 20224=
56444 32780 20903 10198 20056 36820 57017 82100 333 00102
20069=
56462 11580 70000 10189 20123 37122 57017 69951 79180 87902
333 00257 20103=
56492 32968 60203 10326 20203 39647 40026 57009 86040 333
00405 20250=
56571 32780 12002 10314 20145 38343 57015 81100 333 00352
20233=
56651 32680 51406 10229 20131 37613 57012 85200 333 00152
20141=
56691 32580 21806 10236 20131 37764 57010 82140 333 00200
20167=
56739 32578 73202 10242 20166 38318 57011 879// 333 00052
20176=
56778 11570 71603 10220 20162 38099 57010 69901 70080 87202
333 00152 20190=
56951 11580 70000 10252 20179 38467 57015 69921 78080 879//
333 00000 20187=
56964 11480 71401 10254 20182 38671 40061 57007 69901 72580
87962 333 00101 20205=
56985 11580 71405 10240 20186 38680 40076 57007 69931 78080
87402 333 00253 20200=
57328 11415 80000 10230 20220 39655 40044 57002 60021 76098
885// 333 20216=
57411 11456 80702 10249 20235 39690 40041 57004 69901 71060
8577/ 333 20224=
57516 31940 00202 10302 20237 39734 40025 57007 71000 333
00652 20256=
57633 32580 72001 10304 20198 39303 40032 57010 8213/ 333
00200 20228=
57816 32580 71804 10269 20184 38748 40053 57008 86830 333
00251 20212=
57902 32580 52207 10265 20177 38595 40056 57018 84140 333
00251 20205=
50136 32970 42506 10319 20099 39534 40028 57022 80002 333
20045=
50353 32970 21402 1030 20096 39827 40033 57027 80002 333
20088=
50557 32970 22705 10318 20028 39791 40070 57022 80002 333
20089=
50756 32970 00203 10308 20045 39803 40079 57020 333 20122=
50788 32570 40403 10236 20075 30009 40090 57015 84100 333
20114=
50949 32970 01802 10304 20070 39939 40097 57019 333 20164=
50963 32580 11803 10288 20087 39952 40080 57025 81100 333
20093=
50978 32580 13604 10240 20047 39815 40091 57012 81200 333
20121=
54161 32575 11102 10296 20037 39827 40101 57018 81100 333
20138=
54236 32980 21103 10304 20050 30007 40105 57018 80002 333
20143=
54292 32580 73604 10289 20039 39873 40080 57015 87900 333
20106=
54374 32675 10202 10278 20056 39712 40096 57019 81100 333
20100=
56193 32776 23201 10313 20180 40007 57028 81102 333 00301
20200=
56196 32680 62002 10341 20184 40017 57017 81140 333 00207
20037=
56287 32580 61102 10323 20205 40029 57020 82140 333 00304
20215=
56385 31/80 70000 10147 20112 37041 57001 70040 878// 333
00552 20098=
56666 32680 30702 10344 20153 49983 57023 83200 333 00200
20239=
56671 11780 70000 10251 20157 38182 57015 69901 78000 87400
333 00251 20179=
56684 32580 32905 10241 20142 37879 57012 83100 333 00151
20171=
56751 32680 41101 10246 20153 38000 57012 84200 333 00151
20163=
56786 32580 61806 10256 20161 38097 57009 86240 333 00101
20184=
56886 32680 62203 10249 20166 38254 57012 84240 333 00151
20176=
56977 11580 60000 10252 20191 40072 57007 69901 72580 86402
333 00152 20203=
57206 32580 20203 10324 20179 40013 57019 82140 333 20230=
57348 11760 80000 10206 20203 40060 52002 60231 79598 889//
333 20200=
57426 11460 80702 10217 20213 40046 54000 60181 78098 884//
333 00660 20215=
57602 32962 53203 10323 20213 40026 57006 85040 333 20250=
57713 32580 71805 10317 20192 40015 57012 87100 333 00200
20245=
56079 31780 43601 10162 20040 36726 57014 70040 83942 333
00302 20038=
56152 31680 73607 10126 20049 36366 57006 70090 87900 333
00453 20052=
56167 32780 22201 10239 20089 37085 57032 82102 333 00302
20119=
56173 11680 50203 10133 20055 36692 57005 69951 72598 85900
333 00452 20077=
56182 11680 61802 10197 20064 37201 57020 69901 79590 86900
333 00452 20111=
56193 32776 23201 10313 20180 40007 57028 81102 333 00301
20200=
56196 32680 62002 10341 20184 40017 57017 81140 333 00207
20037=
56257 11680 73403 10102 20041 36327 52001 69981 79590 87900
333 00458 20090=
56287 32580 61102 10323 20205 40029 57020 82140 333 00304
20215=
56357 32680 52503 10191 20015 36475 57017 83102 333 00200
20058=
56374 11680 20908 10200 20132 37416 57021 69921 70080 82400
333 00551 20128=
56385 31/80 70000 10147 20112 37041 57001 70040 878// 333
00552 20098=
56586 32680 62003 10279 20113 38022 57005 86800 333 00351
20177=
56666 32680 30702 10344 20153 49983 57023 83200 333 00200
20239=
56671 11780 70000 10251 20157 38182 57015 69901 78000 87400
333 00251 20179=
56684 32580 32905 10241 20142 37879 57012 83100 333 00151
20171=
56748 11580 70000 10246 20163 38318 57013 69901 78000 86942
333 00153 20179=
56751 32680 41101 10246 20153 38000 57012 84200 333 00151
20163=
56763 32680 61403 10313 20190 40017 57021 86902 333 00100
20219=
56768 11680 71803 10254 20172 38207 57013 69941 70080 86902
333 00101 20187=
56786 32580 61806 10256 20161 38097 57009 86240 333 00101
20184=
56838 32675 72502 10281 20222 40042 57018 86432 333 00052
20222=
56886 32680 62203 10249 20166 38254 57012 84240 333 00151
20176=
56946 11680 50402 10286 20208 40038 57021 69901 70080 84202
333 00000 20202=
56954 11580 72702 10238 20203 40070 57004 69961 71798 8694/
333 00151 20207=
56959 11780 61402 10308 20227 40045 57017 69931 70080 84232
333 00151 20228=
56966 11780 71803 10310 20221 40043 57014 69921 78000 8796/
333 00251 20253=
56969 32580 40901 10308 20230 40058 57011 83101 333 00151
20226=
56977 11580 60000 10252 20191 40072 57007 69901 72580 86402
333 00152 20203=
56986 11470 81606 10208 20184 40095 57005 60011 72580 884//
333 00200 20177=
57237 32680 53605 10267 20192 40039 57014 81140 333 20191=
57306 32970 71802 10282 20223 40033 57011 8703/ 333// 20219=
57348 11760 80000 10206 20203 40060 52002 60231 79598 889//
333 20200=
57426 11460 80702 10217 20213 40046 54000 60181 78098 884//
333 00660 20215=
57504 32562 72702 10331 20200 40016 57012 8314/ 333 00403
20251=
57602 32962 53203 10323 20213 40026 57006 85040 333 20250=
57707 32680 61404 10302 20170 38433 57013 85130 333 00201
20203=
57713 32580 71805 10317 20192 40015 57012 87100 333 00200
20245=
57731 32580 41405 10340 20197 40023 57019 84100 333 20251=
57832 32580 42003 10316 20192 40044 57014 84800 333 20245=
57916 32680 71402 10315 20231 40063 57016 8714/ 333 20234=
57922 12580 72005 10267 20191 40073 57012 69901 70080 86240
333 20209=
57932 32680 51803 10315 20215 40061 57017 85800 333 20239=
59007 11580 72203 10258 20175 40076 57011 69901 70060 874//
333 20204=
57355 11565 80903 10233 20226 40054 57007 60161 76198 8672/
333 20219=
57447 11470 80702 10229 20214 39542 40057 52008 60041 76098
8172/ 333 20224=
57562 11570 80706 10250 20217 40039 52010 69911 78000 8697/
333// 20247=
57584 32580 72505 10332 20227 40042 57016 86140 333 20282=
57598 32580 22504 10356 20207 40038 57020 82100 333 20237=
57671 32970 61801 10347 20232 40037 57011 86040 333 20264=
57682 32680 72203 10329 20227 40051 57019 8714/ 333 20236=
57745 32580 31808 10326 20228 39739 40044 57021 82101 333
20242=
57774 32580 32003 10342 20233 40052 57015 82130 333// 20254=
57799 32580 21803 10346 20222 39979 40058 57018 82100 333
20261=
57845 11765 82204 10259 20227 40081 57004 69901 76060 885//
333 20252=
57853 32680 52504 10323 20218 40062 57009 84140 333// 20233=
57872 32680 22203 10347 20220 40062 57011 82200 333// 20259=
57894 32580 13204 10310 20189 40081 57014 81100 333// 20184=
57965 32580 21806 10324 20217 40072 57015 82100 333// 20269=
58506 32475 72504 10265 20199 40052 57010 84102 333// 20216=
58519 32980 72007 10326 20235 40057 57010 80002 333// 20265=
58531 32680 72205 10326 20225 40041 57014 81140 333 20233=
58608 32570 12005 10348 20240 40055 57016 81100 333 20264=
58634 32580 72506 10338 20220 40049 57017 81202 333// 20242=
58715 32580 21606 10342 20221 40057 57021 82102 333// 20250=
58813 32580 22204 10345 20202 40059 57023 81102 333// 20242=
59102 32580 21602 10334 20203 40079 57024 82100 333// 20232=
59082 32580 21805 10335 20221 30006 40079 57024 82200 333
20265=
59211 11580 71802 10321 20244 39872 40071 57020 69901 70080
82242 333 20245=
59265 32570 23202 10344 20233 39954 40085 57022 82100 333
20242=
59287 32564 41602 10342 20239 30041 40090 57021 84200 333
20260 =
59316 32580 21803 10326 20235 30082 40091 57017 82202 333
20260=
59431 11580 61604 10300 20246 39945 40088 57013 69901 78000
85942 333 20258=
59644 32580 11604 10314 20246 30075 40090 57012 81142 333//
20272=
59758 32580 61604 10333 20235 30065 40085 57011 86200 333//
20262=
57046 11/00 92701 10114 20112 37930 54000 69901 74564 333
00452 20106=
52889 32580 12502 10294 20109 38417 49995 57024 81100 333
00203 20185=
53646 11665 81102 10140 20124 38940 40127 57019 60021 76066
8552/ 333 00359 20126=
53845 11765 80403 10168 20136 39047 40126 57004 69911 70060
8552/ 333 00351 20136=
52836 32980 03201 10189 21058 36933 57014 333 00203 20072=
52866 32580 21401 10246 20077 37673 57022 82102 333 00204
20084=
52955 32580 13202 10211 21058 36990 57010 81100 333 00204
20033=
52754 32580 22905 10182 21072 36820 57010 82100 333 00205
20007=
52602 32680 22501 10222 21093 37282 57014 81102 333 00104
20037=
52533 32980 10906 10236 20092 38488 40079 57009 80002 333
05106 20093=
54102 32680 12702 10279 20091 39010 40096 57013 81100 333//
20141=
53588 11975 81112 10094 20016 37809 57003 69981 72166 8802/
333 20061=
57083 11458 83202 10210 20178 39967 40097 57004 60011 72166
8672/ 333// 20190=
53787 11762 80703 10162 20119 40124 54000 60031 76066 885//
333// 20128=
53798 11760 83602 10219 20143 30026 40116 57002 69901 76060
885// 333// 20200=
54423 32575 60000 10292 20137 39668 40106 57017 83202 333//
20164=
54401 32670 71603 10276 20064 39297 40102 57021 82102 333//
20184=
54527 32965 70902 10266 20167 40113 57009 80002 333 20189=
58208 11359 83603 10206 20201 40048 52002 60021 76196 8772/
333// 20204=
54308 32680 61802 10287 20071 40108 57023 81102 333// 20150=
58647 32575 72205 10343 20234 40052 57021 81102 333 20217=
58737 32680 72706 10346 20226 40066 57020 82101 333 20232=
58846 32670 21401 10346 20251 40051 57025 81102 333 20252=
58918 32680 22002 10334 20217 40085 57021 82200 333 20251=
59126 32680 21602 10350 20202 40084 57026 81102 333 20251=
59133 32580 72008 10284 20243 40083 57019 81932 333 20250=
54618 32962 70403 10261 20119 30086 40103 57013 8703/ 333//
20174=
50136 32970 42506 10319 20099 39534 40028 57022 80002 333
20045=
50353 32970 21402 10307 20096 39827 40033 57027 80002 333
20088=
50557 32970 22705 10318 20028 39791 40070 57022 80002 333
20089=
50756 32970 00203 10308 20045 39803 40079 57020 333 20122=
50788 32570 40403 10236 20075 30009 40090 57015 84100 333
20114=
50949 32970 01802 10304 20070 39939 40097 5APQKUS
TPOYE EWTIP QQIPE QPWII WPPIU EOOTW RPPIP TUPWT IQQPP EEE
WPPOEV
TPOUI EWTIP QEYPR QPWRP WPPRU EOIQT RPPOQ TUPQW IQWPP EEE
WPQWQV
TRQYQ EWTUT QQQPW QPWOY WPPEU EOIWU RPQPQ TUPQI IQQPP EEE
WPQEIV
TRWEY EWOIP WQQPE QPEPR WPPTP EPPPU RPQPT TUPQI IPPPW EEE
WPQREV
TRWOW EWTIP UEYPR QPWIO WPPEO EOIUE RPPIP TUPQT IUOPP EEE
WPQPYV
TREUR EWYUT QPWPW QPWUI WPPTY EOUQW RPPOY TUPQO IQQPP EEE
WPQPPV
53352 32680 70906 10204 20053 40096 57010 875// 333// 20134=
53764 11970 80903 10168 20114 40123 57002 60021 70060 8802/
333// 20126=
53863 11959 80405 10154 20137 40140 57007 60111 76166 8807/
333// 20139=
53975 11956 83201 10173 20151 40122 57001 60041 76066 8802/
333// 20150=
54405 32668 71104 10287 20077 40105 57016 81102 333// 20182=
54436 32680 82203 10289 20144 40096 57024 81107 333// 20149=
54808 32973 83603 10231 20192 40092 57002 8802/ 333// 20193=
54826 31265 80904 10148 20131 38440 57003 70040 8381/ 333//
20110=
54836 32670 80704 10238 20164 40091 57001 885// 333// 20183=
54863 32970 71403 10222 20165 40093 57005 8703/ 333// 20153=
57071 11565 83402 10190 20167 40107 54000 60021 72166 8672/
333// 20165=
57378 11462 83405 10216 20200 40061 57002 60021 76060 8777/ 333
20206=
57554 32876 80902 10292 20237 40041 57007 885// 333 20238=
50246 32680 32904 10332 20045 40027 57024 83100 333 20037=
50658 32580 22205 10321 20023 40065 57019 81101 333 20104=
50844 32662 12505 10335 20059 40073 57021 81100 333 20170=
50854 32570 12703 10320 20048 40079 57018 81100 333 20129=
50888 32680 23604 10228 20082 40090 57014 82100 333 20092=
50968 32580 12905 10294 20061 40091 57020 81100 333 20116=
50983 32670 53403 10226 20103 40090 57009 85200 333 20118=
54096 32570 13405 10236 20000 40089 57011 81100 333 20077=
54259 32980 11104 10286 20068 40113 57015 80002 333 20098=
54273 32580 12201 10278 20086 40100 57022 81100 333 20115=
54324 32965 70000 10301 20088 40097 57018 83032 333 20167=
54346 32972 50705 10300 20081 40096 57017 80002 333 20133=
54493 32974 70203 10292 20079 40094 57014 80002 333 20117=
333 20235=
47401 41/60 81701 10121 20113 30075 40088 56007 78082 887//=
47412 41456 83304 10141 20127 30048 40079 55001 79198 889//=
47420 42/60 81803 10107 20088 30051 40097 56011 886//=
47426 42/70 72704 10147 20113 30048 40091 56015 8227/=
47582 42/70 42704 10189 20124 30063 40088 56020 81202=
47590 42/65 21505 10202 20098 30024 40074 58017 81232=
47600 42565 60305 10184 20137 30075 40091 57013 82232=
47648 41/40 83504 10190 20170 30036 40068 56019 71082 8222/=
47662 41958 82205 10251 20154 30016 40057 56029 70522 8807/=
47678 41558 80602 10191 20179 30003 40097 56016 76322 8627/=
47740 42/70 70705 10197 20147 30051 40088 56013 81206=
47778 41/60 81803 10197 20171 39998 40085 58019 76162 8172/=
47807 41/65 80303 10224 20175 30051 40068 55001 78086 8622/=
47827 41/57 82605 10235 20214 30023 40059 53002 78188 8727/=
47843 41457 80103 10214 20184 30033 40063 55000 78082 882//=
47898 41258 80206 10185 20183 30022 40060 55033 76366 887//=
47909 42/82 72003 10288 20218 30076 40084 56014 82232=
47918 42/82 22004 10312 20251 30086 40094 58015 82200=
47936 42/80 72107 10286 20246 30036 40096 56012 872//=
47945 42/75 71903 10283 20253 30080 40103 56015 81101=
47971 42/80 61902 10286 20228 30105 40114 56019 82202=
47991 42/82 70902 10292 20228 30122 40132 58009 82232=
58362 32662 81105 10246 20227 30024 40034 57019 885// 333 20225=
58362 32662 81105 10246 20227 30024 40034 57019 885// 333 20225=
58321 11667 83202 10241 20220 40037 57009 69901 70060 885//
333 20235=
56586 32680 62003 10279 20113 38022 57005 86800 333 00351
20177=
56748 11580 70000 10246 20163 38318 57013 69901 78000 86942
333 00153 20179=
56763 32680 61403 10313 20190 40017 57021 86902 333 00100
20219=
56768 11680 71803 10254 20172 38207 57013 69941 70080 86902
333 00101 20187=
56838 32675 72502 10281 20222 40042 57018 86432 333 00052
20222=
56946 11680 50402 10286 20208 40038 57021 69901 70080 84202
333 00000 20202=
56954 11580 72702 10238 20203 40070 57004 69961 71798 8694/
333 00151 20207=
56959 11780 61402 10308 20227 40045 57017 69931 70080 84232
333 00151 20228=
56966 11780 71803 10310 20221 40043 57014 69921 78000 8796/
333 00251 20253=
56969 32580 40901 10308 20230 40058 57011 83101 333 00151
20226=
56986 11470 81606 10208 20184 40095 57005 60011 72580 884//
333 00200 20177=
57237 32680 53605 10267 20192 40039 57014 81140 333 20191=
57306 32970 71802 10282 20223 40033 57011 8703/ 333// 20219=
57504 32562 72702 10331 20200 40016 57012 8314/ 333 00403
20251=
59007 11580 72203 10258 20175 40076 57011 69901 70060 874//
333 20204=
47575 42/65 10405 10160 20116 30074 40078 56019 81232=
47585 42460 60204 10149 20119 30025 40080 56012 83202=
47598 41/40 70902 10184 20166 30066 40072 56020 79592 879//=
47602 42/80 13507 10194 20140 30064 40084 56018 81131=
47618 41/58 81504 10183 20144 39380 40067 57009 79198 889//=
47624 41/30 82302 10209 20194 39932 40062 56015 79782 889//=
47636 41/56 81604 10228 20168 30016 40080 56017 72162 8552/=
47655 41/56 82605 10217 20171 30032 40086 58016 76062 8222/=
47750 41458 80203 10216 20172 30051 40076 55013 72522 8327/=
47755 42465 80203 10211 20179 30051 40074 56010 8357/=
47772 42962 82604 10216 20159 39984 40079 56019 8801/=
47800 41458 83403 10192 20159 30064 40086 55003 71022 882//=
47815 41/57 80102 10189 20172 30065 40080 56006 76166 8672/=
47817 41460 80102 10214 20191 30016 40057 55001 76162 8672/=
47830 41/40 83102 10197 20185 30044 40061 53001 78198 889//=
47837 41/65 72409 10259 20224 30036 40057 56011 72582 83272=
47891 41970 82202 10232 20160 30058 40069 58023 72162 8802/=
47899 41/58 80411 10171 20161 39854 40071 58035 76164 8372/=
47927 42/80 22205 10300 20249 30050 40096 56014 82231=
57251 11772 81402 10221 20207 40078 52001 60041 70060 8657/
333 20205=
57545 32778 80000 10286 20235 40034 52001 885// 333 20244=
57574 32578 72503 10328 20224 40036 57005 8724/ 333 20268=
57649 32680 71403 10333 20236 40033 57023 874// 333 20234=
57669 32680 62706 10342 20207 40037 57017 82141 333 20228=
57687 32980 52006 10340 20238 39970 40045 57017 85040 333
20264=
57776 32080 62208 10245 20193 40077 57001 86061 333 20195
91124 91520=
58015 11670 80405 10238 20198 40065 57006 69901 76060 8757/
333 20187=
58221 11558 80405 10206 20198 30024 40058 52002 60031 79560
889// 333 20195=
58402 32670 82202 10301 20255 40056 52002 888// 333 20242=
58437 31/00 92508 10172 20172 38146 57005 74544 333 20157
91125 91525=
58606 32975 42206 10340 20241 39996 40048 57012 81042 333//
20252=
52436 32980 10904 10271 20059 38423 40043 57008 80002 333
00005 20088=
52787 11580 73612 10105 20043 37053 52003 69901 79500 86902
333 00351 20040=
52996 32480 51602 10191 20096 37565 57006 84102 333 00306
20098=
57016 11962 81402 10193 20162 40101 57008 69901 70060 8807/
333 20165=
52737 32680 13201 10200 21017 37103 57010 81100 333 00205
20089=
56018 32680 22701 10149 20025 36238 57013 82200 333 00205
20051=
52323 32680 11102 10249 21008 38218 57008 81100 333 00202
20086=
52681 32680 53405 10229 20088 38601 40076 57008 82102 333
00203 20119=
57036 11560 80402 10173 20166 39651 40113 57002 69981 76066
8672/ 333 20164=
51886 32780 71607 10220 21114 37110 57026 81102 333 05105
20059=
56029 11680 30000 10171 20054 36535 57017 69901 70086 83900
333 00110 20069=
50603 32980 21102 10322 20019 39423 40038 57021 80002 333//
20158=
54026 32680 11804 10331 20078 39775 40076 57024 81100 333//
20000=
54027 32680 22001 10318 20030 39542 40089 57019 82202 333//
20129=
JBOA    03064 99300 11352
41/97 82017 10235 20227 40077 58037 78082 8627/
22282 00240 20502 322// 40701=
JFDG    03064 99340 11370
41/97 82016 10215 20158 40079 58021 76166 8572/
22252 00222 1//01 20301 320// 40601 70005=
JBOA    03064 99300 11352
41/97 82017 10235 20227 40077 58037 78082 8627/
22282 00240 20502 322// 40701=
JNSR    03064 99469 11549
41496 80216 10030 40062 57009 76122 888//
22211 06038 10704 20403 312// 40704=
59134 32580 21603 10322 20235 39935 40092 57017 81102 333
20244=
54094 32575 63206 10287 20065 39801 40080 57013 86200 333
20132=
53478 32775 72206 10188 20070 40113 57006 874// 333// 20140=
53853 11570 81103 10156 20132 40120 57008 60031 70060 8572/
333// 20130=
54518 32962 80402 10284 20127 40111 57015 80007 333// 20183=
54852 32970 72005 10277 20156 40081 57012 8703/ 333// 20152=
57089 11320 83406 10185 20177 40086 54000 60091 76166 8772/
333// 20183=
53068 32780 71403 10280 20072 39025 40076 57021 84902 333//
05201 20173=
53231 11780 71607 10157 20103 38461 52002 69921 70060 86502
333// 00256 20122=
53276 32680 71605 10252 20030 38841 40092 57016 81102 333//
20157=
54135 32980 00903 10316 20050 39893 40100 57022 333// 20129=
54753 32965 63605 10248 20154 30090 40096 57008 86030 333//
20147=
54857 31558 71802 10206 20167 30005 40094 57009 71000 8253/
333// 20156=
57067 11457 80402 10170 20165 39456 40109 52003 69981 76166
8372/ 333// 20159=
57178 11456 80206 10198 20172 39932 40084 52014 60071 76066
8672/ 333// 20195=
57297 11360 83403 10201 20198 39926 40059 54000 60161 79198
889// 333// 20193=
50442 32670 32501 10314 20050 40055 57021 81102 333 20074=
53362 11580 71102 10203 20073 40101 57018 69901 70060 83102
333// 20125=
53664 32970 81404 10174 20117 40126 57003 8807/ 333// 20118=
53782 11560 80000 10174 20129 40127 57010 60071 76066 8672/
333// 20155=
54429 31940 72902 10280 20193 40098 57018 70400 82042 333//
20188=
54623 32965 71803 10239 20139 40111 57009 86042 333 20193=
54705 32862 83403 10242 20149 40108 57010 8651/ 333// 20188=
54736 32965 80904 10244 20149 40100 57011 8807/ 333// 20175=
54824 32660 73404 10253 20165 40091 57003 872// 333// 20212=
54936 32570 70703 10233 20184 40091 57006 875// 333// 20171=
57077 11458 80902 10162 20154 40110 52004 60071 76166 8772/
333// 20154=
57091 11960 83605 10215 20173 40096 52001 69921 76060 8802/
333// 20194=
57156 11570 83202 10215 20198 40073 52004 60051 76086 8572/
333// 20198=
57181 11430 83404 10190 20180 40097 57002 60101 76066 8672/
333// 20178=
53614 32765 73603 10191 20140 38862 40093 57013 86802 333
00251 20132=
53723 32675 72702 10217 20136 38617 40081 57011 83102 333
00102 20121=
52713 32980 12203 10194 21092 36940 57009 80002 333 00205
20033=
56004 32680 21403 10107 21009 35889 57009 82100 333 00302
21036=
56033 32580 22502 10110 21037 36089 57011 82100 333 00302
20013=
53705 32962 01801 10230 20145 40066 57019 333 00105 20142=
56065 31680 53203 10171 20023 36663 57010 70040 85200 333
00303 21004=
52908 32580 11803 10088 21081 35830 57011 81102 333 00104
21032=
56021 32580 31801 10128 21012 36144 57004 83202 333 00204
20014=
54539 32970 71802 10268 20164 30093 40107 57013 85032 333//
20165=
50564 32570 52504 10309 20041 40055 57026 81102 333 20045=
54049 32670 12502 10300 20066 40113 57016 81100 333 20137=
54115 32680 50000 10299 20009 40095 57018 82102 333// 20119=
54157 32570 12902 10295 20066 40105 57020 81100 333 20121=
54186 32575 13404 10270 20034 40095 57016 81100 333 20088=
54377 32980 10404 10303 20050 40090 57017 80001 333 20118=
54386 32580 33605 10242 20052 40089 57017 83200 333 20056=
56146 32780 32201 10178 20062 36762 57024 83100 333 00301
20057=
56172 32680 12702 10245 20095 37334 57036 81100 333 00451
20114=
56247 32880 61401 10289 20071 37392 57038 84942 333 00302
20154=
56444 32780 20903 10198 20056 36820 57017 82100 333 00102
20069=
56462 11580 70000 10189 20123 37122 57017 69951 79180 87902
333 00257 20103=
56691 32580 21806 10236 20131 37764 57010 82140 333 00200
20167=
56739 32578 73202 10242 20166 38318 57011 879// 333 00052
20176=
56964 11480 71401 10254 20182 38671 40061 57007 69901 72580
87962 333 00101 20205=
56985 11580 71405 10240 20186 38680 40076 57007 69931 78080
87402 333 00253 20200=
57633 32580 72001 10304 20198 39303 40032 57010 8213/ 333
00200 20228=
57902 32580 52207 10265 20177 38595 40056 57018 84140 333
00251 20205=
53593 32780 71103 10258 20111 40102 57014 82132 333// 20170=
53698 32962 83601 10250 20151 40117 57011 8807/ 333// 20204=
VMBD 03063 99150 11282 41498 61708 10312 20254 40083 57010 71522
85265 22243 00293 20401 312// 40603 80272=
YJYY2 03060 99143 31498 41497 71428 10245 20186 40120 51016 70211
87233 22243 00280 20602 314// 40604 80205=
C6IZ7 03061 99125 11257 41797 33501 10300 20260 40080 55010 70011
83/88 22284 00300 20103 33535 40103 50103 80270=
ELXD6 03063 99354 51307 /1/94 /0128 00/// 10188 20182 40180 51010
6//// 76366 8//// 22223 00180 2//// 3//// 4//// 5//// 6//// 80185=
WAURI 03064 99122 31229 41596 21019 10276 20195 40088 57020 70700
82100 22200 02275 20203 3//// 4//// 5//// 80220=
YJQV2 03063 99284 31763 41197 83419 10195 20192 40062 54000 76366
88700 22243 02210 20302 323// 40805 5//// 80193=
VRVA8 03063 99079 31203 13/98 30908 10305 40050 22223=
PGWY 03060 99078 31504 41498 71806 10282 20252 40098 56008 70322
84933 22273 20302 318// 40604 80260=
3FSL4 03064 99378 31697 41197 81321 10140 20102 49950 54010 71602
87/// 22223 00160 20603 319// 40905 80110=
GQVM 03063 99115 51317 41/96 /1114 10262 20246 40142 54000 75352
8//// 22263 02270 20402 318// 40704 5//// 80250=
DDGY 03060 99230 51605 41598 31505 10202 20134 40158 52010 70200
83/// 22224 02238 20602 315// 40708 80160=
J8KU6 03063 99108 31328 41498 31121 10240 22193 40123 50010 70121
83900 22264 00270 20202 311// 40202 5//// 6//// 80210=
ZMFB 03063 99407 31728 41/94 81819 49960 22200 20302 30000 40000=
ELHZ5 03063 99375 31504 41497 72326 10135 20074 40159 54000 70222
87500 22252 00220 20505 316// 41306 5//// 6//// 80105=
ZCBH6 03063 99067 31048 41498 70912 10284 20255 40071 56011 70222
878// 22213 02290 20402 308// 40806 80264=
J8KU6 03063 99108 31328 41498 31121 10240 20193 40123 50010 70121
83900 22264 00270 20202 311// 40202 5//// 6//// 80210=
ELXS8 03061 99387 31483 41598 52709 10135 20096 40178 55002 70222
85395 22223 00159 20302 312// 40904 80113=
V7AT5 03063 99332 30166 41/98 19904 10171 20155 40251 53005 70200
81200 22273 02180 20301 326// 40808 5//// 80161=
VRUW5 03063 99009 11351 41698 69908 10310 20227 40058 56020 70222
85286 22273 00300 2//// 307// 40201 5//// 80270=
ZCBX4 03063 99320 31667 41397 42630 10170 20098 40016 51013 71688
84400 22273 00/// 20202 399// 4//09 80134=
D5HD 03064 99097 50838 42/98 81216 10220 20188 40155 54000 88///
22274 02230 80200=
CBGR 03054 99193 31474 46/// /1309 10209 40174=
MYRF 03054 99183 31474 46/// /1315 10211 40147=
DVRF 03054 99188 31477 46/// /1517 10189 40143=
PDLF 02060 99004 30674 41296 83409 10220 20191 40110 51020 76266
882// 22273 00290 20402 30000 80200=
SHIP 03064 99107 31385 41/97 71221 10250 40000 70222 222// 20201
31512 40303 50302=
C6FD9 03064 99061 31027 41499 70404 10290 2025/ 40104 70222 87368
22233 00280 206// 315// 41004 80260=
9KWK 03063 99355 31364 42598 52217 10150 2//// 40228 53017 70322
85441 22223=
VJDK 03063 99085 31250 41498 10606 10275 20181 40077 56020 70281
81500 22243 00288 20201 307// 40402 5//// 6//// 80215=
SHIP 03064 99062 31562 41/98 10505 10290 20260 40059 70200 222//
00300 20401 305// 40901 5////=
GDTT 03063 99345 31753 41/98 83521 10180 20140 49986 57016 71322
88/// 22243 00181 20403 330// 40704 5//// 80167=
SHIP 03064 99083 31262 41/96 11410 10280 40074 70000 222// 20301
308// 40604=
9KWK 03063 99355 31364 42598 32217 10150 20920 40228 53017 70322
85441 22223=
VJBF 03063 99367 31375 41298 82519 10140 20102 40197 55005 78082
88570 22273 00145 20401 325// 40502 80120=
C6OT9 03063 99489 71369 41598 71109 10105 20055 40199 56010 70222
87500 22273 0//// 20201 336// 40603 80082=
VRRB 03064 99368 31501 41598 22513 10140 20056 40185 54002 70200
80070 22283 00154 20000 315// 40602 5//// 80010=
UEYO 03061 99086 11218 42598 50000 10320 40083 58010 82361 22243
00300 20000 31800 40401=
C6CN4 03064 99211 31492 46/// /1614 10162 20091 30156 40180 57006
22200 85122=
VSBU3 03063 99255 31055 41397 81012 10180 20180 40160 57005 79199
8594/ 22233 02270 20303 310// 40804 80180=
VSBU2 03063 99148 11144 41398 30709 10304 20282 40087 56006 70300
82260 22253 00290 20101 312// 40802 5//// 80288=
SHIP 03064 99343 31558 41398 52219 10200 20153 40134 54001 72572
85462 22213 00180 20504 320// 40604=
3FRR5 03063 99271 31707 41598 62924 10215 20157 40056 56020 70212
86860 22234 04200 20403 327// 40303 80180=
56079 31780 43601 10162 20040 36726 57014 70040 83942 333
00302 20038=
56144 32680 70205 10170 20061 36897 57014 86902 333 00654
20075=
56152 31680 73607 10126 20049 36366 57006 70090 87900 333
00453 20052=
56167 32780 22201 10239 20089 37085 57032 82102 333 00302
20119=
56173 11680 50203 10133 20055 36692 57005 69951 72598 85900
333 00452 20077=
56182 11680 61802 10197 20064 37201 57020 69901 79590 86900
333 00452 20111=
56257 11680 73403 10102 20041 36327 52001 69981 79590 87900
333 00458 20090=
56357 32680 52503 10191 20015 36476 57017 83102 333 00200
20058=
56374 11680 20908 10200 20132 37416 57021 69921 70080 82400
333 00551 20128=
57707 32680 61404 10302 20170 38433 57013 85130 333 00201
20203=
57731 32580 41405 10340 20197 40023 57019 84100 333 20251=
57832 32580 42003 10316 20192 40044 57014 84800 333 20245=
57916 32680 71402 10315 20231 40063 57016 8714/ 333 20234=
57922 12580 72005 10267 20191 40073 57012 69901 70080 86240
333 20209=
57932 32680 51803 10315 20215 40061 57017 85800 333 20239=
44216 32599 32702 10260 20056 38897 40023 54000 82280=
44374 32599 73206 10235 20050 38238 40006 58008 84203=
44385 31997 41809 10237 20125 38868 40067 58002 71022 81102=
57793 32580 22706 10342 20218 40058 57015 82100 333// 20233=
57993 32680 12703 10341 20215 39932 40072 57023 81100 333//
20260=
53083 32580 42004 10268 20107 40095 57014 84102 333// 05202
20130=
53487 32568 71404 10249 20030 40090 57016 81130 333// 20169=
54226 32980 71602 10294 20076 40104 57017 80002 333// 20141=
54311 32580 72202 10280 20064 40099 57015 81202 333// 20125=
54534 32965 72002 10296 20148 40099 57016 80002 333// 20192=
54587 32980 70702 10274 20178 40053 57013 80002 333// 20133=
54715 32970 70405 10246 20176 40100 57013 8703/ 333// 20175=
54929 32765 70904 10227 20180 40087 57004 8353/ 333// 20181=
54945 31558 71104 10185 20167 40101 57005 71040 875// 333//
20153=
57193 11358 83403 10202 20196 40072 57003 60081 76066 8772/
333// 20196=
57290 11558 80404 10205 20197 40059 57005 60131 78096 889//
333// 20200=
53195 32680 61805 10275 20070 40084 57015 81102 333// 20170=
54624 32965 80403 10254 20131 40112 57013 80007 333// 20169=
54774 31970 70403 10218 20142 40095 57011 70040 82042 333//
20127=
58005 11560 80402 10220 20205 40071 57006 69981 76060 8672/
333// 20191=
52818 32980 13601 10229 21032 37246 57019 80002 333 00104
20092=
56066 36/// ///// 10168 21077 36648 4//// 57009
555 10020 2//// 3//// 40111 51001 60/// 7//// 80000
9//// ///// 1/020 2//00 30000=
50434 32980 42503 10285 20018 39249 40084 57019 80002 333//
21006=
50915 32680 62505 10325 21007 39152 40072 57017 82202 333//
20157=
53149 32580 71402 10240 20052 38757 40082 57015 83202 333//
00153 20161=
53192 32580 61604 10272 21020 38882 40112 57013 82102 333//
20127=
53336 32570 71806 10177 20101 38696 40110 57003 86902 333//
00358 20140=
53391 32580 71806 10224 21021 38515 40112 57013 82102 333//
00000 20109=
53529 11567 81603 10132 20113 38597 40121 57007 69911 72160
8672/ 333// 00154 20116=
53543 11580 81404 10119 20099 38533 40143 57006 60011 76066
8272/ 333 20111=
54012 32580 20202 10280 20026 39002 40102 57013 82102 333//
20097=
54208 32580 70000 10242 20038 38751 40114 57017 81102 333//
20091=
54776 31965 73206 10174 20137 30037 40094 57012 70040 80002
333// 20118=
52634 36/// /0000 10141 21074 36775 4//// 57009
555 10020 2//// 30128 41111 51011 60/// 7//// 80000
9//// ///// 1/119 2//00 30000=
57528 16/// /2200 10231 29756 37563 61430
555 1/134 2//00 30225 12100
11101 10100 10111 01110 1111/
/////
2//// 3//// 6//// ///// ///// 8//// 9//// ///// ///// //004
11101 11111 1011/
11111 110//=
45007 32570 32503 10329 20241 30083 40092 58016 83200 333
59011 82825=
45011 42475 31306 10326 20263 40104 57012 82201 333 59009=
58015 11670 80405 10238 20198 40065 57006 69901 76060 8757/
333 20187=
58531 32680 72205 10326 20225 40041 57014 81140 333 20233=
21595   0306/ 99365 11338
46/// ///// 40085
22290 06183 10602 70008=
22001   03064 99281 11263
46/// /2319 10267 20249 40074 57019 8////
22200 06267 10702 70010 80254=
21004   03064 99289 11349
46/// ///12 10246 20239 40087 57021 8////
22200 06240 11701 70007 80241=
57127 32565 13602 10264 20206 39481 40053 57013 81130 333
20189=
57245 11765 82501 10235 20214 39733 40066 57003 69951 70086
8252/ 333 00303 20201=
SHIP 03064 99051 31194 32561 62604 10315 20246 40059 83231 222//
00/// 20000  333 56000 83820 84360 80877=
58754 32575 71405 10342 20247 40047 57026 81102 333 20255=
58968 31656 72903 10333 20258 30072 40079 57020 70522 87400=
58974 32575 72405 10298 20264 39976 40091 57015 875//=
59358 32560 22604 10337 20258 30073 40084 57017 82200=
59559 32570 21806 10339 20246 30060 40087 57017 82100=
59792 32563 30704 10322 20271 30087 40091 57010 83200=
59997 32565 60303 10297 20266 30055 40069 58019 82220=
59158 32565 62803 10324 20253 39990 40086 57014 86200=
59562 32580 21802 10307 20250 30076 40087 57018 82100=
59567 32470 42105 10282 20247 39731 40096 57016 84100=
47105 41556 80702 10197 20159 30075 40105 58010 71022 8551/=
47108 32560 50202 10308 20154 39960 40057 57019 85400=
47115 31557 60901 10186 20164 39845 40100 51004 71021 83530
333 92031=
47135 31557 81104 10258 20179 39795 40069 57014 71022 8452/=
47138 31958 60505 10196 20160 30099 40102 57006 71022 83502
333 92033=
47159 31958 80704 10203 20162 30004 40084 57005 71022 8801/
333 92022=
47165 31956 82705 10221 20177 30034 40076 58007 71022 8801/
333 92022=
47184 41556 80905 10193 20175 30048 40075 57009 76166 8572/
333 92023=
47008 42580 31401 10220 20117 30037 40087 57012 82130=
47014 42650 30000 10277 20100 39699 40064 57027 83100=
47016 42570 32703 10258 20059 39269 40098 57027 83500=
47020 42565 12703 10298 20090 39730 40073 57029 81100=
47025 42560 20000 10173 20130 30065 40093 57022 82500=
47035 42770 40203 10312 20098 30083 40091 57017 87080=
47041 41760 51604 10230 20170 30068 40093 57014 71042 85020=
47055 42965 60501 10198 20156 30061 40104 57016 80007=
47058 42566 83602 10308 20125 30032 40075 57021 88501=
47069 42960 82303 10301 20171 30024 40115 58012 83102=
23914 32699 72703 10217 20134 40096 53006 81285 333 20156=
23921 12599 71301 10240 20159 40084 57011 60020 82909 333
20135=
23955 41598 80303 10150 20050 40087 58005 70282 82989=
24641 41599 70303 10167 20073 40069 52007 70282 87300 333
86627=
28440 32598 23105 10254 20109 40106 57004 82200 333 20169=
28748 32560 13406 10269 20118 40131 57008 81200 333 20102=
29231 41597 89902 10108 20085 40047 57007 78582 8633/=
29838 41597 72406 10139 20084 40099 52036 70282 88431=
30372 42799 80804 10237 20046 49975 57016 86932=
30673 41698 62009 10317 20086 49974 57024 70422 82381=
30823 42998 22602 10312 20086 40005 57020 80002=
30935 42699 62201 10294 20105 40017 57021 82141=
30965 42999 72602 10330 20073 40008 57024 82042=
31004 42699 80202 10209 20073 40002 57009 84101=
31088 42498 81705 10047 20027 40119 56002 886// 333 85710=
31137 41699 73302 10202 20030 49990 57013 70282 81530=
31300 42999 21902 10287 20077 40000 57038 80001=
31329 42599 80802 10192 20009 40059 56008 86937=
31369 42698 21007 10152 20082 40085 57012 82500 333 91012
91112=
31371 42999 50000 10296 20133 40017 57027 80007=
31388 42999 62503 10260 20043 40058 58028 83042=
31416 42699 80501 10231 20071 40066 57016 84903=
31510 429// 01203 10299 20086 40040 57026=
31707 42599 63203 10255 20034 40081 57008 84101=
31735 42597 70502 10200 20112 40079 57014 84201=
31866 41498 50305 10083 20073 40093 58006 74022 85600=
31873 42699 60103 10216 20090 40079 57010 83206=
31909 42499 61301 10110 20092 40094 58003 70282 83530=
31960 42599 20105 10233 20093 40074 56013 82200=
32053 42998 51106 10097 20056 40103 57006 85030=
32061 42297 83203 10083 20068 40112 58004 82602=
32098 42598 31704 10084 20050 40111 56008 81243=
32150 42598 72102 10128 20080 40098 57007 85170 333 84633=
32165 41456 71802 10066 20055 40105 56010 71022 87900=
52740 16/// /3206 10190 29020 36874 60000
555 1/133 2//00 /////=
59082 32580 21805 10335 20221 30006 40079 570R0
59117 NIL=
59211 11580 71802 10321 20244 39872 40071 57020 69901 70080
82242 333 20245=
59265 32570 23202 10344 20233 39954 40085 57022 82100 333
20242=
59287 32564 41602 10342 20239 30041 40090 57021 84200 333
20260 =
59316 32580 21803 10326 20235 30082 40091 57017 82202 333
20260=
59431 11580 61604 10300 20246 39945 40088 57013 69901 78000
85942 333 20258=
59644 32580 11604 10314 20246 30075 40090 57012 81142 333//
20272=
59758 32580 61604 10333 20235 30065 40085 57011 86200 333//
20262=
57259 11380 80903 10217 20196 40078 52004 60021 72166 8577/
333 20197=
57265 11258 80000 10213 20207 39976 40082 52013 60101 72198
8772/ 333 20205=
57279 11465 83602 10217 20202 40072 52003 60191 76098 8777/
333 20205=
57399 11960 83202 10281 20256 40036 57010 69981 76060 8807/
333 20268=
57461 11480 81802 10231 20219 39909 40063 52007 60091 79596
889// 333 20223=
57476 11965 83603 10224 20204 40060 52002 69901 76060 8807/
333 20221=
57494 32968 82903 10291 20244 30009 40036 57001 8807/ 333
20277=
57655 32580 22206 10334 20217 40044 57020 82100 333 20240=
57662 32580 72703 10344 20233 39998 40037 57006 86140 333
20268=
57766 32680 72004 10324 20220 40059 57013 86140 333// 20242=
57866 32580 22509 10336 20214 39874 40068 57014 82140 333//
20263=
57972 32670 21403 10343 20207 39861 40070 57017 82100 333
20276=
58102 11461 80204 10217 20200 30014 40063 57006 60021 76060
8672/ 333 20190=
58203 11558 83404 10201 20198 30013 40057 57002 60121 76066
885// 333 20194=
58314 32970 80403 10290 20237 39941 40024 57020 8807/ 333
20241=
58321 11667 83202 10241 20220 40037 57009 69901 70060 885//
333 20235=
58338 32968 73403 10305 20255 40027 57007 8704/ 333 20234=
58424 32968 61807 10331 20241 30002 40024 57016 85042 333
20272=
58527 32580 72503 10326 20235 39978 40049 57014 85102 333//
20249=
59023 11580 60902 10308 20245 39833 40071 57024 69971 78060
86240 333 20248=
59293 32570 61802 10339 20234 30039 40085 57022 86100 333
20254=
59417 32580 73403 10322 20237 39933 40080 57016 82242 333
20247=
59501 32580 12205 10311 20243 30089 40105 57016 81200 333
20263=
59663 32580 12003 10316 20247 30064 40091 57013 81200 333
20267=
59838 32580 22504 10330 20252 30072 40086 57009 82100 333//
20266=
59948 11580 30902 10321 20256 30079 40087 57010 69951 70080
83202 333// 20265=
59981 32580 21403 10314 20260 30082 40088 57009 82900 333//
20273=
59985 32580 20903 10331 20278 30075 40080 57011 82200 333//
20267=
58040 11660 70405 10188 20172 30080 40084 57002 69901 70060
875// 333 20162=
58144 11364 80403 10208 20191 30033 40055 57002 60091 76060
8672/ 333 20182=
58633 32580 72509 10337 20218 39957 40050 57011 86142 333
20243=
58659 31956 70903 10323 20270 30016 40049 57019 71000 85042
333 20254=
58847 32680 71405 10380 20209 39963 40058 57023 81102 333
20262=
57957 32570 72203 10317 20233 39892 40080 57018 87200 333
20250=
59046 32580 71803 10325 20239 40082 57022 87200 333 20267=
59058 32680 21603 10318 20240 40085 57021 82240 333 20246=
59072 32580 41802 10349 20222 40078 57018 84100 333 20270=
59087 32568 42003 10325 20248 40095 57015 84100 333 20251=
59096 32680 62902 10336 20224 40081 57024 86100 333 20229=
59209 11572 60000 10260 20209 40087 57009 60011 72580 85240
333 20217=
59254 32575 32003 10327 20233 40084 57019 83900 333 20247=
59278 32680 21402 10338 20236 40086 57021 82100 333 20258=
59456 32580 31803 10338 20223 40089 57017 83100 333 20247=
59493 32580 71802 10321 20240 40092 57012 874// 333 20276=
59632 32580 52004 10321 20252 40087 57009 82202 333 20265=
59647 32580 10902 10312 20258 40089 57010 81102 333// 20271=
59658 32575 10903 10315 20240 40095 57011 81200 333 20275=
59673 32580 31402 10320 20253 40095 57013 83200 333 20261=
59845 32580 61602 10330 20230 40078 57017 86200 333// 20247=
59855 11580 21105 10313 20262 40087 57008 69901 70080 82100
333// 20260=
58345 31940 81403 10282 20250 40032 57005 71000 8807/ 333
20235=
58543 32680 72004 10327 20212 40047 57011 8114/ 333 20240=
58569 32960 72704 10288 20259 40041 57012 8703/ 333 20236=
58646 32575 63602 10359 20226 40045 57024 82102 333 20234=
58660 32680 72703 10370 20204 40033 57025 86802 333 20231=
58834 32678 22204 10352 20209 40066 57024 82102 333 20239=
58944 32975 72208 10315 20220 40081 57016 80002 333 20261=
53513 11570 81403 10162 20128 38959 40122 57003 69931 72160
8672/ 333// 00254 20142=
54218 32980 70202 10294 20029 39459 40098 57013 80002 333//
20147=
54511 32962 81202 10285 20151 30067 40105 57012 80007 333
20187=
57447 11470 80702 10229 20214 39542 40057 52008 60041 76098
8172/ 333 20224=
57584 32580 72505 10332 20227 40042 57016 86140 333 20282=
57598 32580 22504 10356 20207 40038 57020 82100 333 20237=
57745 32580 31808 10326 20228 39739 40044 57021 82101 333
20242=
57799 32580 21803 10346 20222 39979 40058 57018 82100 333
20261=
57845 11765 82204 10259 20227 40081 57004 69901 76060 885//
333 20252=
57853 32680 52504 10323 20218 40062 57009 84140 333// 20233=
58506 32475 72504 10265 20199 40052 57010 84102 333// 20216=
58715 32580 21606 10342 20221 40057 57021 82102 333// 20250=
58813 32580 22204 10345 20202 40059 57023 81102 333// 20242=
59102 32580 21602 10334 20203 40079 57024 82100 333// 20232=
50468 32975 71406 10294 20071 39853 40047 57028 80002 333
20076=
50745 32670 13202 10323 20057 39900 40069 57024 81100 333
20145=
50774 32670 43602 10273 20083 39796 40083 57018 81102 333
20043=
50953 32770 62705 10304 20064 39915 40084 57020 86100 333
20120=
54337 32970 70702 10296 20126 30026 40107 57012 80002 333
20167=
54342 32970 60704 10300 20067 30039 40098 57019 80002 333
20147=
54471 32961 73603 10289 20093 30092 40097 57019 82032 333
20185=
54497 32980 70205 10307 20067 30068 40082 57021 80002 333
20167=
54662 32974 71803 10282 20118 39979 40094 57015 80002 333
20171=
51468 16/// /1900 10054 29005 36582 60181
555 1/140 2//03 /////=
58138 11460 80704 10211 20199 40049 52003 60321 76060 8472/
333 20188=
58259 11556 81403 10227 20221 40035 57016 60041 76060 885//
333 20225=
58358 11958 80000 10299 20272 40018 57015 69941 78094 8807/
333 20231=
58464 32570 71602 10306 20239 40027 57016 82442 333 20224=
58549 32680 62709 10354 20208 40040 57017 81142 333 20254=
58665 32961 71805 10335 20264 40035 57018 82042 333 20246=
58667 32965 72506 10273 20242 40059 57018 82042 333 20235=
59117 32580 12203 10350 20193 39982 40083 57022 81100 333
20249=
58150 11240 80405 10193 20187 30051 40059 52005 60071 76166
8772/ 333 20182=
58926 32780 11401 10355 20213 40071 57028 81100 333 20229=
58472 31959 70903 10276 20234 39942 40035 57021 71040 87042
333 20206=
58477 31958 81403 10291 20252 39990 40032 57016 71000 85047
333 20226=
58666 31660 72014 10251 20232 39955 40052 57015 70040 875//
333 20226 91118 91522=
58760 32965 71804 10277 20232 40056 57018 81032 333 20235=
58921 32675 10403 10344 20227 39840 40071 57026 81100 333
20231=
58556 32980 72505 10330 20223 40038 57016 8704/ 333 20247=
58725 32780 73202 10353 20220 39818 40064 57025 83101 333
20213=
53772 11950 80402 10183 20123 39258 40140 57008 60061 70560
8801/ 333// 20151=
54823 32960 80405 10244 20164 39895 40090 57008 8802/ 333
20199=
53463 32580 71802 10223 20078 38935 40102 57019 86902 333//
00254 20165=
52418 32980 50402 10311 20060 38787 40004 57020 80002 333
00100 20136=
56046 32580 20202 10136 20018 36312 57011 82100 333 00302
20019=
56080 32580 40702 10214 20059 37152 57013 84202 333 00303
20061=
53915 11680 71105 10198 20157 38620 40081 57009 69901 70060
878// 333 00303 20151=
56096 32680 12003 10316 20128 38846 49997 57028 81100 333
00106 20198=
52652 32780 13603 10234 20089 38488 40087 57009 81100 333
00108 20090=
53923 11680 81602 10155 20147 40106 57003 69901 70060 885//
333 20126=
57006 32580 10902 10260 20144 40045 57021 81102 333 00205
20168=
50632 32980 02001 10287 21005 39245 40083 57022 333// 20047=
58820 32680 12204 10330 20214 40068 57021 81102 333 20212=
58238 11430 82902 10254 20234 30021 40030 57006 60041 72588
889// 333 20231=
58562 32965 72203 10339 20232 40025 57017 86041 333 20257=
58457 32580 72204 10343 20227 39973 40021 57021 85462 333
20244=
50548 32980 12502 10327 20062 40063 57025 80002 333// 20066=
50834 32580 10000 10323 20055 40069 57026 81200 333// 20083=
53480 32680 71605 10225 20043 40103 57018 83102 333// 20140=
53673 11960 81602 10185 20152 40128 57009 69931 76060 8802/
333// 20149=
53898 11464 80203 10230 20146 40149 57002 69901 76060 8172/
333// 20196=
54602 32760 81401 10252 20161 40114 57010 8351/ 333// 20194=
54725 32665 80706 10244 20146 40100 57009 8253/ 333// 20161=
54751 32965 70903 10232 20137 40100 57011 8703/ 333// 20109=
54916 32662 80403 10264 20187 40080 57010 82407 333// 20199=
58251 11570 70704 10218 20206 30024 40030 57004 60631 72598
8244/ 333 20195=
58343 11420 80000 10247 20240 40030 57009 69951 76060 8772/
333 20226=
58265 11470 81106 10204 20201 30017 40028 57028 60061 76260
8772/ 333 20203=
56294 32567 72701 10317 20218 39469 40029 57013 8214/ 333
00305 20224=
56492 32968 60203 10326 20203 39647 40026 57009 86040 333
00405 20250=
56571 32780 12002 10314 20145 38343 57015 81100 333 00352
20233=
56651 32680 51406 10229 20131 37613 57012 85200 333 00152
20141=
56778 11570 71603 10220 20162 38099 57010 69901 70080 87202
333 00152 20190=
56951 11580 70000 10252 20179 38467 57015 69921 78080 879//
333 00000 20187=
57328 11415 80000 10230 20220 39655 40044 57002 60021 76098
885// 333 20216=
57411 11456 80702 10249 20235 39690 40041 57004 69901 71060
8577/ 333 20224=
57816 32580 71804 10269 20184 38748 40053 57008 86830 333
00251 20212=
58027 11468 80905 10230 20188 30018 40067 57010 60021 76060
8277/ 333 20174=
58241 11580 70404 10225 20210 40046 52003 60351 70098 875//
333 20195=
57687 32980 52006 10340 20238 39970 40045 57017 85040 333
20264=
57776 32080 62208 10245 20193 40077 57001 86061 333 20195
91124 91520=
58221 11558 80405 10206 20198 30024 40058 52002 60031 79560
889// 333 20195=
58437 31/00 92508 10172 20172 38146 57005 74544 333 20157
91125 91525=
58606 32975 42206 10340 20241 39996 40048 57012 81042 333//
20252=
50527 32970 03402 10306 20087 39374 40060 57020 333// 20104=
50727 32580 12703 10291 20026 38950 40092 57018 81100 333//
20027=
53564 11970 82901 10179 20120 39154 40124 57005 69961 76066
8802/ 333// 00358 20154=
53959 11557 81102 10180 20167 39685 40121 57002 60031 76066
8672/ 333// 20161=
54843 32970 80000 10260 20176 30065 40091 57006 8807/ 333//
20162=
54909 11664 80000 10225 20211 30017 40077 57001 69941 76060
8357/ 333// 20201=
57516 31940 00202 10302 20237 39734 40025 57007 71000 333
00652 20256=
58730 32680 72203 10339 20216 40059 57021 83102 333 20224=
58731 32780 52004 10334 20227 40061 57019 81132 333 20220=
58911 32676 61102 10326 20226 40080 57024 85102 333 20212=
58931 32380 72703 10258 20131 38371 57009 81101 333 20165=
45007 32570 32503 10329 20241 30083 40092 58016 83200
333  59011 82825 =
56146 32780 32201 10178 20062 36762 57024 83100 333 00301
20057=
56172 32680 12702 10245 20095 37334 57036 81100 333 00451
20114=
56247 32880 61401 10289 20071 37392 57038 84942 333 00302
20154=
56444 32780 20903 10198 20056 36820 57017 82100 333 00102
20069=
56462 11580 70000 10189 20123 37122 57017 69951 79180 87902
333 00257 20103=
56691 32580 21806 10236 20131 37764 57010 82140 333 00200
20167=
56739 32578 73202 10242 20166 38318 57011 879// 333 00052
20176=
56964 11480 71401 10254 20182 38671 40061 57007 69901 72580
87962 333 00101 20205=
56985 11580 71405 10240 20186 38680 40076 57007 69931 78080
87402 333 00253 20200=
57633 32580 72001 10304 20198 39303 40032 57010 8213/ 333
00200 20228=
57902 32580 52207 10265 20177 38595 40056 57018 84140 333
00251 20205=
50136 32970 42506 10319 20099 39534 40028 57022 80002 333
20045=
50353 32970 21402 1030 20096 39827 40033 57027 80002 333
20088=
50557 32970 22705 10318 20028 39791 40070 57022 80002 333
20089=
50756 32970 00203 10308 20045 39803 40079 57020 333 20122=
50788 32570 40403 10236 20075 30009 40090 57015 84100 333
20114=
50949 32970 01802 10304 20070 39939 40097 57019 333 20164=
50963 32580 11803 10288 20087 39952 40080 57025 81100 333
20093=
50978 32580 13604 10240 20047 39815 40091 57012 81200 333
20121=
54161 32575 11102 10296 20037 39827 40101 57018 81100 333
20138=
54236 32980 21103 10304 20050 30007 40105 57018 80002 333
20143=
54292 32580 73604 10289 20039 39873 40080 57015 87900 333
20106=
54374 32675 10202 10278 20056 39712 40096 57019 81100 333
20100=
56193 32776 23201 10313 20180 40007 57028 81102 333 00301
20200=
56196 32680 62002 10341 20184 40017 57017 81140 333 00207
20037=
56287 32580 61102 10323 20205 40029 57020 82140 333 00304
20215=
56385 31/80 70000 10147 20112 37041 57001 70040 878// 333
00552 20098=
56666 32680 30702 10344 20153 49983 57023 83200 333 00200
20239=
56671 11780 70000 10251 20157 38182 57015 69901 78000 87400
333 00251 20179=
56684 32580 32905 10241 20142 37879 57012 83100 333 00151
20171=
56751 32680 41101 10246 20153 38000 57012 84200 333 00151
20163=
56786 32580 61806 10256 20161 38097 57009 86240 333 00101
20184=
56886 32680 62203 10249 20166 38254 57012 84240 333 00151
20176=
56977 11580 60000 10252 20191 40072 57007 69901 72580 86402
333 00152 20203=
57206 32580 20203 10324 20179 40013 57019 82140 333 20230=
57348 11760 80000 10206 20203 40060 52002 60231 79598 889//
333 20200=
57426 11460 80702 10217 20213 40046 54000 60181 78098 884//
333 00660 20215=
57602 32962 53203 10323 20213 40026 57006 85040 333 20250=
57713 32580 71805 10317 20192 40015 57012 87100 333 00200
20245=
56079 31780 43601 10162 20040 36726 57014 70040 83942 333
00302 20038=
56152 31680 73607 10126 20049 36366 57006 70090 87900 333
00453 20052=
56167 32780 22201 10239 20089 37085 57032 82102 333 00302
20119=
56173 11680 50203 10133 20055 36692 57005 69951 72598 85900
333 00452 20077=
56182 11680 61802 10197 20064 37201 57020 69901 79590 86900
333 00452 20111=
56257 11680 73403 10102 20041 36327 52001 69981 79590 87900
333 00458 20090=
56357 32680 52503 10191 20015 36475 57017 83102 333 00200
20058=
56374 11680 20908 10200 20132 37416 57021 69921 70080 82400
333 00551 20128=
56586 32680 62003 10279 20113 38022 57005 86800 333 00351
20177=
56748 11580 70000 10246 20163 38318 57013 69901 78000 86942
333 00153 20179=
56763 32680 61403 10313 20190 40017 57021 86902 333 00100
20219=
56768 11680 71803 10254 20172 38207 57013 69941 70080 86902
333 00101 20187=
56838 32675 72502 10281 20222 40042 57018 86432 333 00052
20222=
56946 11680 50402 10286 20208 40038 57021 69901 70080 84202
333 00000 20202=
56954 11580 72702 10238 20203 40070 57004 69961 71798 8694/
333 00151 20207=
56959 11780 61402 10308 20227 40045 57017 69931 70080 84232
333 00151 20228=
56966 11780 71803 10310 20221 40043 57014 69921 78000 8796/
333 00251 20253=
56969 32580 40901 10308 20230 40058 57011 83101 333 00151
20226=
56986 11470 81606 10208 20184 40095 57005 60011 72580 884//
333 00200 20177=
57237 32680 53605 10267 20192 40039 57014 81140 333 20191=
57306 32970 71802 10282 20223 40033 57011 8703/ 333// 20219=
57504 32562 72702 10331 20200 40016 57012 8314/ 333 00403
20251=
57707 32680 61404 10302 20170 38433 57013 85130 333 00201
20203=
57731 32580 41405 10340 20197 40023 57019 84100 333 20251=
57832 32580 42003 10316 20192 40044 57014 84800 333 20245=
57916 32680 71402 10315 20231 40063 57016 8714/ 333 20234=
57922 12580 72005 10267 20191 40073 57012 69901 70080 86240
333 20209=
57932 32680 51803 10315 20215 40061 57017 85800 333 20239=
59007 11580 72203 10258 20175 40076 57011 69901 70060 874//
333 20204=
57355 11565 80903 10233 20226 40054 57007 60161 76198 8672/
333 20219=
57562 11570 80706 10250 20217 40039 52010 69911 78000 8697/
333// 20247=
57671 32970 61801 10347 20232 40037 57011 86040 333 20264=
57682 32680 72203 10329 20227 40051 57019 8714/ 333 20236=
57774 32580 32003 10342 20233 40052 57015 82130 333// 20254=
57872 32680 22203 10347 20220 40062 57011 82200 333// 20259=
57894 32580 13204 10310 20189 40081 57014 81100 333// 20184=
57965 32580 21806 10324 20217 40072 57015 82100 333// 20269=
58519 32980 72007 10326 20235 40057 57010 80002 333// 20265=
58531 32680 72205 10326 20225 40041 57014 81140 333 20233=
58608 32570 12005 10348 20240 40055 57016 81100 333 20264=
58634 32580 72506 10338 20220 40049 57017 81202 333// 20242=
57046 11/00 92701 10114 20112 37930 54000 69901 74564 333
00452 20106=
52889 32580 12502 10294 20109 38417 49995 57024 81100 333
00203 20185=
53646 11665 81102 10140 20124 38940 40127 57019 60021 76066
8552/ 333 00359 20126=
53845 11765 80403 10168 20136 39047 40126 57004 69911 70060
8552/ 333 00351 20136=
52836 32980 03201 10189 21058 36933 57014 333 00203 20072=
52866 32580 21401 10246 20077 37673 57022 82102 333 00204
20084=
52955 32580 13202 10211 21058 36990 57010 81100 333 00204
20033=
52754 32580 22905 10182 21072 36820 57010 82100 333 00205
20007=
52602 32680 22501 10222 21093 37282 57014 81102 333 00104
20037=
52533 32980 10906 10236 20092 38488 40079 57009 80002 333
05106 20093=
54102 32680 12702 10279 20091 39010 40096 57013 81100 333//
20141=
53588 11975 81112 10094 20016 37809 57003 69981 72166 8802/
333 20061=
57083 11458 83202 10210 20178 39967 40097 57004 60011 72166
8672/ 333// 20190=
53787 11762 80703 10162 20119 40124 54000 60031 76066 885//
333// 20128=
53798 11760 83602 10219 20143 30026 40116 57002 69901 76060
885// 333// 20200=
54423 32575 60000 10292 20137 39668 40106 57017 83202 333//
20164=
54401 32670 71603 10276 20064 39297 40102 57021 82102 333//
20184=
54527 32965 70902 10266 20167 40113 57009 80002 333 20189=
58208 11359 83603 10206 20201 40048 52002 60021 76196 8772/
333// 20204=
54308 32680 61802 10287 20071 40108 57023 81102 333// 20150=
58647 32575 72205 10343 20234 40052 57021 81102 333 20217=
58737 32680 72706 10346 20226 40066 57020 82101 333 20232=
58846 32670 21401 10346 20251 40051 57025 81102 333 20252=
58918 32680 22002 10334 20217 40085 57021 82200 333 20251=
59126 32680 21602 10350 20202 40084 57026 81102 333 20251=
59133 32580 72008 10284 20243 40083 57019 81932 333 20250=
54618 32962 70403 10261 20119 30086 40103 57013 8703/ 333//
20174=
53352 32680 70906 10204 20053 40096 57010 875// 333// 20134=
53764 11970 80903 10168 20114 40123 57002 60021 70060 8802/
333// 20126=
53863 11959 80405 10154 20137 40140 57007 60111 76166 8807/
333// 20139=
53975 11956 83201 10173 20151 40122 57001 60041 76066 8802/
333// 20150=
54405 32668 71104 10287 20077 40105 57016 81102 333// 20182=
54436 32680 82203 10289 20144 40096 57024 81107 333// 20149=
54808 32973 83603 10231 20192 40092 57002 8802/ 333// 20193=
54826 31265 80904 10148 20131 38440 57003 70040 8381/ 333//
20110=
54836 32670 80704 10238 20164 40091 57001 885// 333// 20183=
54863 32970 71403 10222 20165 40093 57005 8703/ 333// 20153=
57071 11565 83402 10190 20167 40107 54000 60021 72166 8672/
333// 20165=
57378 11462 83405 10216 20200 40061 57002 60021 76060 8777/ 333
20206=
57554 32876 80902 10292 20237 40041 57007 885// 333 20238=
50246 32680 32904 10332 20045 40027 57024 83100 333 20037=
50658 32580 22205 10321 20023 40065 57019 81101 333 20104=
50844 32662 12505 10335 20059 40073 57021 81100 333 20170=
50854 32570 12703 10320 20048 40079 57018 81100 333 20129=
50888 32680 23604 10228 20082 40090 57014 82100 333 20092=
50968 32580 12905 10294 20061 40091 57020 81100 333 20116=
50983 32670 53403 10226 20103 40090 57009 85200 333 20118=
54096 32570 13405 10236 20000 40089 57011 81100 333 20077=
54259 32980 11104 10286 20068 40113 57015 80002 333 20098=
54273 32580 12201 10278 20086 40100 57022 81100 333 20115=
54324 32965 70000 10301 20088 40097 57018 83032 333 20167=
54346 32972 50705 10300 20081 40096 57017 80002 333 20133=
54493 32974 70203 10292 20079 40094 57014 80002 333 20117=
47401 41/60 81701 10121 20113 30075 40088 56007 78082 887//=
47412 41456 83304 10141 20127 30048 40079 55001 79198 889//=
47420 42/60 81803 10107 20088 30051 40097 56011 886//=
47426 42/70 72704 10147 20113 30048 40091 56015 8227/=
47582 42/70 42704 10189 20124 30063 40088 56020 81202=
47590 42/65 21505 10202 20098 30024 40074 58017 81232=
47600 42565 60305 10184 20137 30075 40091 57013 82232=
47648 41/40 83504 10190 20170 30036 40068 56019 71082 8222/=
47662 41958 82205 10251 20154 30016 40057 56029 70522 8807/=
47678 41558 80602 10191 20179 30003 40097 56016 76322 8627/=
47740 42/70 70705 10197 20147 30051 40088 56013 81206=
47778 41/60 81803 10197 20171 39998 40085 58019 76162 8172/=
47807 41/65 80303 10224 20175 30051 40068 55001 78086 8622/=
47827 41/57 82605 10235 20214 30023 40059 53002 78188 8727/=
47843 41457 80103 10214 20184 30033 40063 55000 78082 882//=
47898 41258 80206 10185 20183 30022 40060 55033 76366 887//=
47909 42/82 72003 10288 20218 30076 40084 56014 82232=
47918 42/82 22004 10312 20251 30086 40094 58015 82200=
47936 42/80 72107 10286 20246 30036 40096 56012 872//=
47945 42/75 71903 10283 20253 30080 40103 56015 81101=
47971 42/80 61902 10286 20228 30105 40114 56019 82202=
47991 42/82 70902 10292 20228 30122 40132 58009 82232=
58362 32662 81105 10246 20227 30024 40034 57019 885// 333 20225=
47575 42/65 10405 10160 20116 30074 40078 56019 81232=
47585 42460 60204 10149 20119 30025 40080 56012 83202=
47598 41/40 70902 10184 20166 30066 40072 56020 79592 879//=
47602 42/80 13507 10194 20140 30064 40084 56018 81131=
47618 41/58 81504 10183 20144 39380 40067 57009 79198 889//=
47624 41/30 82302 10209 20194 39932 40062 56015 79782 889//=
47636 41/56 81604 10228 20168 30016 40080 56017 72162 8552/=
47655 41/56 82605 10217 20171 30032 40086 58016 76062 8222/=
47750 41458 80203 10216 20172 30051 40076 55013 72522 8327/=
47755 42465 80203 10211 20179 30051 40074 56010 8357/=
47772 42962 82604 10216 20159 39984 40079 56019 8801/=
47800 41458 83403 10192 20159 30064 40086 55003 71022 882//=
47815 41/57 80102 10189 20172 30065 40080 56006 76166 8672/=
47817 41460 80102 10214 20191 30016 40057 55001 76162 8672/=
47830 41/40 83102 10197 20185 30044 40061 53001 78198 889//=
47837 41/65 72409 10259 20224 30036 40057 56011 72582 83272=
47891 41970 82202 10232 20160 30058 40069 58023 72162 8802/=
47899 41/58 80411 10171 20161 39854 40071 58035 76164 8372/=
47927 42/80 22205 10300 20249 30050 40096 56014 82231=
57251 11772 81402 10221 20207 40078 52001 60041 70060 8657/
333 20205=
57545 32778 80000 10286 20235 40034 52001 885// 333 20244=
57574 32578 72503 10328 20224 40036 57005 8724/ 333 20268=
57649 32680 71403 10333 20236 40033 57023 874// 333 20234=
57669 32680 62706 10342 20207 40037 57017 82141 333 20228=
58015 11670 80405 10238 20198 40065 57006 69901 76060 8757/
333 20187=
58402 32670 82202 10301 20255 40056 52002 888// 333 20242=
52436 32980 10904 10271 20059 38423 40043 57008 80002 333
00005 20088=
52787 11580 73612 10105 20043 37053 52003 69901 79500 86902
333 00351 20040=
52996 32480 51602 10191 20096 37565 57006 84102 333 00306
20098=
57016 11962 81402 10193 20162 40101 57008 69901 70060 8807/
333 20165=
52737 32680 13201 10200 21017 37103 57010 81100 333 00205
20089=
56018 32680 22701 10149 20025 36238 57013 82200 333 00205
20051=
52323 32680 11102 10249 21008 38218 57008 81100 333 00202
20086=
52681 32680 53405 10229 20088 38601 40076 57008 82102 333
00203 20119=
57036 11560 80402 10173 20166 39651 40113 57002 69981 76066
8672/ 333 20164=
51886 32780 71607 10220 21114 37110 57026 81102 333 05105
20059=
56029 11680 30000 10171 20054 36535 57017 69901 70086 83900
333 00110 20069=
50603 32980 21102 10322 20019 39423 40038 57021 80002 333//
20158=
54026 32680 11804 10331 20078 39775 40076 57024 81100 333//
20000=
54027 32680 22001 10318 20030 39542 40089 57019 82202 333//
20129=
22282 00240 20502 322// 40701=
59134 32580 21603 10322 20235 39935 40092 57017 81102 333
20244=
54094 32575 63206 10287 20065 39801 40080 57013 86200 333
20132=
53478 32775 72206 10188 20070 40113 57006 874// 333// 20140=
53853 11570 81103 10156 20132 40120 57008 60031 70060 8572/
333// 20130=
54518 32962 80402 10284 20127 40111 57015 80007 333// 20183=
54852 32970 72005 10277 20156 40081 57012 8703/ 333// 20152=
57089 11320 83406 10185 20177 40086 54000 60091 76166 8772/
333// 20183=
53068 32780 71403 10280 20072 39025 40076 57021 84902 333//
05201 20173=
53231 11780 71607 10157 20103 38461 52002 69921 70060 86502
333// 00256 20122=
53276 32680 71605 10252 20030 38841 40092 57016 81102 333//
20157=
54135 32980 00903 10316 20050 39893 40100 57022 333// 20129=
54753 32965 63605 10248 20154 30090 40096 57008 86030 333//
20147=
54857 31558 71802 10206 20167 30005 40094 57009 71000 8253/
333// 20156=
57067 11457 80402 10170 20165 39456 40109 52003 69981 76166
8372/ 333// 20159=
57178 11456 80206 10198 20172 39932 40084 52014 60071 76066
8672/ 333// 20195=
57297 11360 83403 10201 20198 39926 40059 54000 60161 79198
889// 333// 20193=
50442 32670 32501 10314 20050 40055 57021 81102 333 20074=
53362 11580 71102 10203 20073 40101 57018 69901 70060 83102
333// 20125=
53664 32970 81404 10174 20117 40126 57003 8807/ 333// 20118=
53782 11560 80000 10174 20129 40127 57010 60071 76066 8672/
333// 20155=
54429 31940 72902 10280 20193 40098 57018 70400 82042 333//
20188=
54623 32965 71803 10239 20139 40111 57009 86042 333 20193=
54705 32862 83403 10242 20149 40108 57010 8651/ 333// 20188=
54736 32965 80904 10244 20149 40100 57011 8807/ 333// 20175=
54824 32660 73404 10253 20165 40091 57003 872// 333// 20212=
54936 32570 70703 10233 20184 40091 57006 875// 333// 20171=
57077 11458 80902 10162 20154 40110 52004 60071 76166 8772/
333// 20154=
57091 11960 83605 10215 20173 40096 52001 69921 76060 8802/
333// 20194=
57156 11570 83202 10215 20198 40073 52004 60051 76086 8572/
333// 20198=
57181 11430 83404 10190 20180 40097 57002 60101 76066 8672/
333// 20178=
53614 32765 73603 10191 20140 38862 40093 57013 86802 333
00251 20132=
53723 32675 72702 10217 20136 38617 40081 57011 83102 333
00102 20121=
52713 32980 12203 10194 21092 36940 57009 80002 333 00205
20033=
56004 32680 21403 10107 21009 35889 57009 82100 333 00302
21036=
56033 32580 22502 10110 21037 36089 57011 82100 333 00302
20013=
53705 32962 01801 10230 20145 40066 57019 333 00105 20142=
56065 31680 53203 10171 20023 36663 57010 70040 85200 333
00303 21004=
52908 32580 11803 10088 21081 35830 57011 81102 333 00104
21032=
56021 32580 31801 10128 21012 36144 57004 83202 333 00204
20014=
54539 32970 71802 10268 20164 30093 40107 57013 85032 333//
20165=
50564 32570 52504 10309 20041 40055 57026 81102 333 20045=
54049 32670 12502 10300 20066 40113 57016 81100 333 20137=
54115 32680 50000 10299 20009 40095 57018 82102 333// 20119=
54157 32570 12902 10295 20066 40105 57020 81100 333 20121=
54186 32575 13404 10270 20034 40095 57016 81100 333 20088=
54377 32980 10404 10303 20050 40090 57017 80001 333 20118=
54386 32580 33605 10242 20052 40089 57017 83200 333 20056=
20069=
53593 32780 71103 10258 20111 40102 57014 82132 333// 20170=
53698 32962 83601 10250 20151 40117 57011 8807/ 333// 20204=
82100 22200 02275 20203 3//// 4//// 5//// 80220=
81200 22273 02180 20301 326// 40808 5//// 80161=
56144 32680 70205 10170 20061 36897 57014 86902 333 00654
20075=
44216 32599 32702 10260 20056 38897 40023 54000 82280=
44374 32599 73206 10235 20050 38238 40006 58008 84203=
44385 31997 41809 10237 20125 38868 40067 58002 71022 81102=
57793 32580 22706 10342 20218 40058 57015 82100 333// 20233=
57993 32680 12703 10341 20215 39932 40072 57023 81100 333//
20260=
53083 32580 42004 10268 20107 40095 57014 84102 333// 05202
20130=
53487 32568 71404 10249 20030 40090 57016 81130 333// 20169=
54226 32980 71602 10294 20076 40104 57017 80002 333// 20141=
54311 32580 72202 10280 20064 40099 57015 81202 333// 20125=
54534 32965 72002 10296 20148 40099 57016 80002 333// 20192=
54587 32980 70702 10274 20178 40053 57013 80002 333// 20133=
54715 32970 70405 10246 20176 40100 57013 8703/ 333// 20175=
54929 32765 70904 10227 20180 40087 57004 8353/ 333// 20181=
54945 31558 71104 10185 20167 40101 57005 71040 875// 333//
20153=
57193 11358 83403 10202 20196 40072 57003 60081 76066 8772/
333// 20196=
57290 11558 80404 10205 20197 40059 57005 60131 78096 889//
333// 20200=
53195 32680 61805 10275 20070 40084 57015 81102 333// 20170=
54624 32965 80403 10254 20131 40112 57013 80007 333// 20169=
54774 31970 70403 10218 20142 40095 57011 70040 82042 333//
20127=
58005 11560 80402 10220 20205 40071 57006 69981 76060 8672/
333// 20191=
52818 32980 13601 10229 21032 37246 57019 80002 333 00104
20092=
56066 36/// ///// 10168 21077 36648 4//// 57009
555 10020 2//// 3//// 40111 51001 60/// 7//// 80000
9//// ///// 1/020 2//00 30000=
50434 32980 42503 10285 20018 39249 40084 57019 80002 333//
21006=
50915 32680 62505 10325 21007 39152 40072 57017 82202 333//
20157=
53149 32580 71402 10240 20052 38757 40082 57015 83202 333//
00153 20161=
53192 32580 61604 10272 21020 38882 40112 57013 82102 333//
20127=
53336 32570 71806 10177 20101 38696 40110 57003 86902 333//
00358 20140=
53391 32580 71806 10224 21021 38515 40112 57013 82102 333//
00000 20109=
53529 11567 81603 10132 20113 38597 40121 57007 69911 72160
8672/ 333// 00154 20116=
53543 11580 81404 10119 20099 38533 40143 57006 60011 76066
8272/ 333 20111=
54012 32580 20202 10280 20026 39002 40102 57013 82102 333//
20097=
54208 32580 70000 10242 20038 38751 40114 57017 81102 333//
20091=
54776 31965 73206 10174 20137 30037 40094 57012 70040 80002
333// 20118=
52634 36/// /0000 10141 21074 36775 4//// 57009
555 10020 2//// 30128 41111 51011 60/// 7//// 80000
9//// ///// 1/119 2//00 30000=
57528 16/// /2200 10231 29756 37563 61430
555 1/134 2//00 30225 12100
11101 10100 10111 01110 1111/
/////
2//// 3//// 6//// ///// ///// 8//// 9//// ///// ///// //004
11101 11111 1011/
11111 110//=
45011 42475 31306 10326 20263 40104 57012 82201 333 59009=
57127 32565 13602 10264 20206 39481 40053 57013 81130 333
20189=
57245 11765 82501 10235 20214 39733 40066 57003 69951 70086
8252/ 333 00303 20201=
58754 32575 71405 10342 20247 40047 57026 81102 333 20255=
58968 31656 72903 10333 20258 30072 40079 57020 70522 87400=
58974 32575 72405 10298 20264 39976 40091 57015 875//=
59358 32560 22604 10337 20258 30073 40084 57017 82200=
59559 32570 21806 10339 20246 30060 40087 57017 82100=
59792 32563 30704 10322 20271 30087 40091 57010 83200=
59997 32565 60303 10297 20266 30055 40069 58019 82220=
59158 32565 62803 10324 20253 39990 40086 57014 86200=
59562 32580 21802 10307 20250 30076 40087 57018 82100=
59567 32470 42105 10282 20247 39731 40096 57016 84100=
47105 41556 80702 10197 20159 30075 40105 58010 71022 8551/=
47108 32560 50202 10308 20154 39960 40057 57019 85400=
47115 31557 60901 10186 20164 39845 40100 51004 71021 83530
333 92031=
47135 31557 81104 10258 20179 39795 40069 57014 71022 8452/=
47138 31958 60505 10196 20160 30099 40102 57006 71022 83502
333 92033=
47159 31958 80704 10203 20162 30004 40084 57005 71022 8801/
333 92022=
47165 31956 82705 10221 20177 30034 40076 58007 71022 8801/
333 92022=
47184 41556 80905 10193 20175 30048 40075 57009 76166 8572/
333 92023=
47008 42580 31401 10220 20117 30037 40087 57012 82130=
47014 42650 30000 10277 20100 39699 40064 57027 83100=
47016 42570 32703 10258 20059 39269 40098 57027 83500=
47020 42565 12703 10298 20090 39730 40073 57029 81100=
47025 42560 20000 10173 20130 30065 40093 57022 82500=
47035 42770 40203 10312 20098 30083 40091 57017 87080=
47041 41760 51604 10230 20170 30068 40093 57014 71042 85020=
47055 42965 60501 10198 20156 30061 40104 57016 80007=
47058 42566 83602 10308 20125 30032 40075 57021 88501=
47069 42960 82303 10301 20171 30024 40115 58012 83102=
23914 32699 72703 10217 20134 40096 53006 81285 333 20156=
23921 12599 71301 10240 20159 40084 57011 60020 82909 333
20135=
23955 41598 80303 10150 20050 40087 58005 70282 82989=
24641 41599 70303 10167 20073 40069 52007 70282 87300 333
86627=
28440 32598 23105 10254 20109 40106 57004 82200 333 20169=
28748 32560 13406 10269 20118 40131 57008 81200 333 20102=
29231 41597 89902 10108 20085 40047 57007 78582 8633/=
29838 41597 72406 10139 20084 40099 52036 70282 88431=
30372 42799 80804 10237 20046 49975 57016 86932=
30673 41698 62009 10317 20086 49974 57024 70422 82381=
30823 42998 22602 10312 20086 40005 57020 80002=
30935 42699 62201 10294 20105 40017 57021 82141=
30965 42999 72602 10330 20073 40008 57024 82042=
31004 42699 80202 10209 20073 40002 57009 84101=
31088 42498 81705 10047 20027 40119 56002 886// 333 85710=
31137 41699 73302 10202 20030 49990 57013 70282 81530=
31300 42999 21902 10287 20077 40000 57038 80001=
31329 42599 80802 10192 20009 40059 56008 86937=
31369 42698 21007 10152 20082 40085 57012 82500 333 91012
91112=
31371 42999 50000 10296 20133 40017 57027 80007=
31388 42999 62503 10260 20043 40058 58028 83042=
31416 42699 80501 10231 20071 40066 57016 84903=
31510 429// 01203 10299 20086 40040 57026=
31707 42599 63203 10255 20034 40081 57008 84101=
31735 42597 70502 10200 20112 40079 57014 84201=
31866 41498 50305 10083 20073 40093 58006 74022 85600=
31873 42699 60103 10216 20090 40079 57010 83206=
31909 42499 61301 10110 20092 40094 58003 70282 83530=
31960 42599 20105 10233 20093 40074 56013 82200=
32053 42998 51106 10097 20056 40103 57006 85030=
32061 42297 83203 10083 20068 40112 58004 82602=
32098 42598 31704 10084 20050 40111 56008 81243=
32150 42598 72102 10128 20080 40098 57007 85170 333 84633=
32165 41456 71802 10066 20055 40105 56010 71022 87900=
47003 42980 13202 10235 20127 30071 40075 57028 80001=
47005 42680 10000 10200 20032 38593 57010 81100=
47022 42475 13602 10228 21038 38808 57005 81202=
47031 42570 61803 10228 20110 83502=
47037 42970 80501 10306 20078 39966 40078 57024 80002=
47039 42560 82701 10310 20185 39908 40081 57014 83231=
47046 41540 81803 10152 20141 30100 40123 57003 71042 82532=
47050 42965 73201 10301 20160 30041 40072 57020 80002=
47060 42960 72304 10266 20181 30021 40074 57019 86031=
47061 42670 60502 10193 20151 30065 40106 57013 86030=
47065 42565 53206 10297 20160 30017 40076 57021 82202=
47067 42565 60702 10307 20151 39954 40063 57022 85102=
47068 42570 82705 10279 20145 30044 40076 57005 81202=
47070 42570 62302 10294 20164 39994 40074 57020 83202=
98223 31565 42202 10330 20266 40080 58007 70544 82361 333
56999 82920=
98325 31462 53404 10332 20278 40062 57020 70544 82271 222//
20000 333 56999 82817 83359 98308=
98328 31462 72502 10246 20199 38501 40055 57011 74044 87300
333 56999 83912 84813=
98429 31562 61303 10336 20233 40076 57021 70242 83930 333
56999 81922 82823 84360=
98440 31470 60903 10332 20282 40070 57017 71592 83978 333
56299 82915 83816 86278=
98444 11468 60402 10314 20264 40073 57018 60051 70282 83332
333 56999 81918 83360=
98543 32475 50901 10346 20270 40076 57021 82201 333 56999
82915 84075=
98550 11460 71402 10325 20278 40070 58017 60041 70584 82200
222// 20101 333 56999 82818 83357 86074=
98630 32475 80000 10314 20273 40074 57012 84207 222// 20000
333 56999 84818 88275=
98637 31475 50905 10340 20255 40057 56023 70544 82971 333
56999 82912 83358=
98755 11575 31402 10324 20265 40066 58018 69941 70162 81902
333 56999 81920=
98836 11565 60602 10280 20259 40069 57012 69901 72586 8327/
333 56999 83820 86272=
02548 16/// ///// 1//// 2//// 38667 40149 57006 69952
555 1//// 2//// 3//// 40001 50000 60/// 7//// 80000
9//// ///// 1/019 2//00 30000=
44212 32699 62307 10259 20070 39006 40020 58007 86200=
44231 31598 70000 10268 20107 38643 49987 57020 71522 83268=
44232 32699 20000 10312 20105 39011 40009 57012 82100=
44239 32699 41803 10297 20077 38718 49978 57018 82143 333
91112=
44259 32598 62305 10323 20023 39232 40029 57014 86300=
44277 32599 72714 10147 20081 37817 40076 52008 82540 333
91214=
44347 32697 61802 10262 20118 38659 40025 58016 70622 86200=
44373 32999 61106 10234 20109 38495 40044 57006 84048=
28661 32699 82807 10226 20136 40098 57010 82331 333 20107=
28679 42699 72607 10218 20062 40069 57025 86950 333 20092=
28879 32997 32507 10195 20043 40106 57030 83030 333 20086=
28952 32598 22704 10258 20097 40134 57015 82900 333 20086=
29023 41496 80502 10131 20071 40065 57013 70282 889//=
29122 41699 83604 10133 20071 40062 57008 70282 8333/=
29807 32597 62706 10186 20115 40117 54000 85331 333 20063=
30230 42599 80602 10241 20124 40061 54000 84201=
30309 42698 71104 10254 20078 40034 58008 81101=
30385 42599 80000 10300 20034 49947 57030 83909=
30650 32599 82307 10264 20070 49996 57007 86901 333 86929=
30710 42960 80802 10271 20123 40007 57030 80001=
31532 42999 80503 10235 20023 40069 57021 86051=
31829 42/93 90405 10078 20071 40101 56005 74742=
31989 41599 31603 10145 20090 40067 56010 70240 82980=
35078 32998 72508 10200 21030 40141 57012 86082 333 20046=
35108 32997 61402 10260 20151 40190 57003 80001 333 20125=
35188 32698 72707 10172 20004 40153 58010 82131 333 20060=
35229 32998 20000 10245 20123 40195 58001 80001 333 20110=
35416 32997 10000 10271 20099 80001 333 20130=
35671 32998 03604 10187 21025 40225 54000 333 20030=
35746 32998 02702 10234 20062 40226 58006 333 20118=
35796 32697 72503 10157 20046 40200 52014 87500 333 20090=
36003 32598 72703 10163 20058 40126 58007 84950 333 20075=
36177 11597 72803 10164 20059 40149 52010 69950 72582 87300
333 20108=
36428 11599 71401 10140 20107 40151 52012 60020 72522 85950
333 20085 95000=
36859 32599 83004 10155 20093 40159 52023 8397/ 333 20124=
36870 11597 70000 10132 20088 40201 58001 60070 70282 87900
333 20088 87723=
38198 32999 01102 10215 20036 333 20082=
38341 32599 50305 10169 20068 40199 52009 85400 333 20081=
44207 32699 71605 10236 20036 38274 49992 57016 82208=
44218 32698 30000 10234 20068 38534 40010 54000 83100=
44241 32999 31803 10334 20107 39146 40006 57023 82041=
44272 32698 73206 10224 20109 38177 49987 50002 84880=
44305 32999 23203 10303 20132 39007 40058 57017 82100=
44314 32598 62706 10312 21053 39081 40046 57014 84684=
44341 32999 61403 10259 20058 38567 40032 57012 82071=
44352 32699 32805 10286 20092 38891 40049 57007 83200=
44358 32997 52303 10270 20158 39028 40067 57014 85200=
22550 32997 21202 10161 20080 40125 57012 82081 333 20036=
22768 32697 61803 10172 20073 40142 57010 82131 333 20090=
22845 32698 71804 10162 20064 40129 57022 875// 333 20057=
26063 11497 82204 10137 20109 40069 57011 60052 70262 885//
333 20110 88614=
26298 11597 82303 10156 20078 40142 57010 69942 70282 8557/
333 20090=
26477 11665 82005 10158 20092 40159 57010 69932 70182 8251/
333 20120=
26702 11596 53103 10158 20131 40164 53008 69942 71022 85500
333 20137=
26850 32965 72202 10156 20068 40203 57003 82031 333 20126=
26997 32972 02401 10165 20082 40224 53002 333 20008=
27595 32697 62704 10220 20141 40166 52001 82101 333 20166=
27612 32997 22102 10184 20065 40207 57003 80001 333 20063=
27947 11497 83405 10142 20131 40192 52012 69970 70282 883//
333 20133 86910=
27962 32997 60203 10194 20102 40157 54000 86050 333 20142=
33008 32970 61802 10176 20085 40213 54000 80001 333 20110=
34009 32968 00103 10152 20073 40203 52002 333 20106=
34172 32770 79902 10244 20163 40162 53002 82101 333 20185=
34247 32970 81203 10216 20154 40164 58003 80004 333 20150=
34391 32997 22003 10289 20084 40177 52002 80002 333 20166=
37054 32998 63301 10225 20167 40103 57009 80001 333 20143=
98618 11575 30703 10305 20266 40070 58010 60041 70584 82201
333 56999 82820 83075=
44242 32998 61805 10347 20109 39200 49989 57020 82202=
44243 32999 22002 10349 20048 39288 40008 57015 82204=
44266 32699 33605 10182 20073 37779 40039 54000 81104=
44317 32598 43204 10300 20106 38905 40036 58010 84200=
44325 31698 72912 10292 20150 38763 49990 57004 73522 85284
333 91214=
44348 32997 41807 10250 20136 38665 40040 57006 84080=
44386 31597 62006 10266 20073 38989 40049 58012 70592 86300=
44203 32599 62305 10246 2005/ 38348 49974 57017 83288=
44213 41699 62706 10216 20130 38717 40039 53007 70262 83250=
44215 32698 63207 10189 20062 38469 40046 52002 86500=
44230 32698 61401 10290 20090 38721 40011 57015 81107=
44256 32599 20000 10325 20137 39244 49993 58023 71311 86800=
44265 44264 32999 30000 10244 20077 38810 40024 52002 83040=
44313 32699 22709 10336 20034 39284 40013 57029 81240=
44336 32699 70000 10274 20034 38644 40022 58015 85207=
23074 42997 00902 10100 20040 40166 58010=
23711 32598 71903 10204 20126 40080 57011 81130 333 20147=
23804 11599 73402 10128 20107 40131 53008 60120 70262 83250
333 20099=
24143 42999 33605 10162 20004 40115 52008 80001=
24343 42699 20106 10179 20011 40096 52003 82502 333 91011
91112=
24738 42699 43504 10174 20092 40062 52007 85530=
24951 41599 70902 10179 20106 40019 54000 78081 85940=
24959 42598 80000 10167 20088 40036 52001 8657/=
24966 42699 82204 10201 20058 40009 56004 84931=
29313 42598 63102 10157 21012 40060 57004 85139=
29612 42598 52205 10164 20022 40074 58008 85200=
29698 42698 81201 10234 20156 40033 56001 86902=
30758 41599 62508 10343 21007 49973 57030 70232 84901=
30949 42699 62901 10315 20062 49997 57025 83851=
35406 32997 00000 10288 20103 40227 52007 333 20160=
38062 32999 00304 10214 20032 333 20112=
38232 32998 01405 10280 21041 40201 51001 333 20200=
38388 32998 00502 10282 21012 40202 52012 333 20184=
38413 42998 00604 10219 20013 40218 52005 333 10138=
38457 32999 22902 10228 21033 40169 52009 82050 333 20123=
38507 32998 01209 10320 21060 40148 52008 333 20215=
38545 32998 00805 10233 20082 40194 52009 333 20129=
38656 32998 00903 10290 20038 40181 52007 333 20192=
38687 32997 03404 10251 20000 40173 52010 333 20138=
38880 32999 00905 10295 21038 40167 51004 333 20179=
38895 32997 00402 10286 20124 40172 52004 333 20175=
38927 32997 02903 10280 20061 40137 52007 333 20019=
38974 32998 00202 10301 20019 40153 53010 333 20168=
47003 42980 13202 10235 20127 30071 40075 57028 80001=
47005 42680 10000 10200 20032 38593 57010 81100=
47022 42475 13602 10228 21038 38808 57005 81202=
47031 42570 61803 10228 20110 83502=
47037 42970 80501 10306 20078 39966 40078 57024 80002=
47039 42560 82701 10310 20185 39908 40081 57014 83231=
47046 41540 81803 10152 20141 30100 40123 57003 71042 82532=
47050 42965 73201 10301 20160 30041 40072 57020 80002=
47060 42960 72304 10266 20181 30021 40074 57019 86031=
47061 42670 60502 10193 20151 30065 40106 57013 86030=
47065 42565 53206 10297 20160 30017 40076 57021 82202=
47067 42565 60702 10307 20151 39954 40063 57022 85102=
47068 42570 82705 10279 20145 30044 40076 57005 81202=
47070 42570 62302 10294 20164 39994 40074 57020 83202=
98223 31565 42202 10330 20266 40080 58007 70544 82361 333
56999 82920=
98325 31462 53404 10332 20278 40062 57020 70544 82271 222//
20000 333 56999 82817 83359 98308=
98328 31462 72502 10246 20199 38501 40055 57011 74044 87300
333 56999 83912 84813=
98429 31562 61303 10336 20233 40076 57021 70242 83930 333
56999 81922 82823 84360=
98440 31470 60903 10332 20282 40070 57017 71592 83978 333
56299 82915 83816 86278=
98444 11468 60402 10314 20264 40073 57018 60051 70282 83332
333 56999 81918 83360=
98543 32475 50901 10346 20270 40076 57021 82201 333 56999
82915 84075=
98550 11460 71402 10325 20278 40070 58017 60041 70584 82200
222// 20101 333 56999 82818 83357 86074=
98630 32475 80000 10314 20273 40074 57012 84207 222// 20000
333 56999 84818 88275=
98637 31475 50905 10340 20255 40057 56023 70544 82971 333
56999 82912 83358=
98755 11575 31402 10324 20265 40066 58018 69941 70162 81902
333 56999 81920=
98836 11565 60602 10280 20259 40069 57012 69901 72586 8327/
333 56999 83820 86272=
44212 32699 62307 10259 20070 39006 40020 58007 86200=
44231 31598 70000 10268 20107 38643 49987 57020 71522 83268=
44232 32699 20000 10312 20105 39011 40009 57012 82100=
44239 32699 41803 10297 20077 38718 49978 57018 82143 333
91112=
44259 32598 62305 10323 20023 39232 40029 57014 86300=
44277 32599 72714 10147 20081 37817 40076 52008 82540 333
91214=
44347 32697 61802 10262 20118 38659 40025 58016 70622 86200=
44373 32999 61106 10234 20109 38495 40044 57006 84048=
28661 32699 82807 10226 20136 40098 57010 82331 333 20107=
28679 42699 72607 10218 20062 40069 57025 86950 333 20092=
28879 32997 32507 10195 20043 40106 57030 83030 333 20086=
28952 32598 22704 10258 20097 40134 57015 82900 333 20086=
29023 41496 80502 10131 20071 40065 57013 70282 889//=
29122 41699 83604 10133 20071 40062 57008 70282 8333/=
29807 32597 62706 10186 20115 40117 54000 85331 333 20063=
30230 42599 80602 10241 20124 40061 54000 84201=
30309 42698 71104 10254 20078 40034 58008 81101=
30385 42599 80000 10300 20034 49947 57030 83909=
30650 32599 82307 10264 20070 49996 57007 86901 333 86929=
30710 42960 80802 10271 20123 40007 57030 80001=
31532 42999 80503 10235 20023 40069 57021 86051=
31829 42/93 90405 10078 20071 40101 56005 74742=
31989 41599 31603 10145 20090 40067 56010 70240 82980=
35078 32998 72508 10200 21030 40141 57012 86082 333 20046=
35108 32997 61402 10260 20151 40190 57003 80001 333 20125=
35188 32698 72707 10172 20004 40153 58010 82131 333 20060=
35229 32998 20000 10245 20123 40195 58001 80001 333 20110=
35416 32997 10000 10271 20099 80001 333 20130=
35671 32998 03604 10187 21025 40225 54000 333 20030=
35746 32998 02702 10234 20062 40226 58006 333 20118=
35796 32697 72503 10157 20046 40200 52014 87500 333 20090=
36003 32598 72703 10163 20058 40126 58007 84950 333 20075=
36177 11597 72803 10164 20059 40149 52010 69950 72582 87300
333 20108=
36428 11599 71401 10140 20107 40151 52012 60020 72522 85950
333 20085 95000=
36859 32599 83004 10155 20093 40159 52023 8397/ 333 20124=
36870 11597 70000 10132 20088 40201 58001 60070 70282 87900
333 20088 87723=
38198 32999 01102 10215 20036 333 20082=
38341 32599 50305 10169 20068 40199 52009 85400 333 20081=
44207 32699 71605 10236 20036 38274 49992 57016 82208=
44218 32698 30000 10234 20068 38534 40010 54000 83100=
44241 32999 31803 10334 20107 39146 40006 57023 82041=
44272 32698 73206 10224 20109 38177 49987 50002 84880=
44305 32999 23203 10303 20132 39007 40058 57017 82100=
44314 32598 62706 10312 21053 39081 40046 57014 84684=
44341 32999 61403 10259 20058 38567 40032 57012 82071=
44352 32699 32805 10286 20092 38891 40049 57007 83200=
44358 32997 52303 10270 20158 39028 40067 57014 85200=
22550 32997 21202 10161 20080 40125 57012 82081 333 20036=
22768 32697 61803 10172 20073 40142 57010 82131 333 20090=
22845 32698 71804 10162 20064 40129 57022 875// 333 20057=
26063 11497 82204 10137 20109 40069 57011 60052 70262 885//
333 20110 88614=
26298 11597 82303 10156 20078 40142 57010 69942 70282 8557/
333 20090=
26477 11665 82005 10158 20092 40159 57010 69932 70182 8251/
333 20120=
26702 11596 53103 10158 20131 40164 53008 69942 71022 85500
333 20137=
26850 32965 72202 10156 20068 40203 57003 82031 333 20126=
26997 32972 02401 10165 20082 40224 53002 333 20008=
27595 32697 62704 10220 20141 40166 52001 82101 333 20166=
27612 32997 22102 10184 20065 40207 57003 80001 333 20063=
27947 11497 83405 10142 20131 40192 52012 69970 70282 883//
333 20133 86910=
27962 32997 60203 10194 20102 40157 54000 86050 333 20142=
33008 32970 61802 10176 20085 40213 54000 80001 333 20110=
34009 32968 00103 10152 20073 40203 52002 333 20106=
34172 32770 79902 10244 20163 40162 53002 82101 333 20185=
34247 32970 81203 10216 20154 40164 58003 80004 333 20150=
34391 32997 22003 10289 20084 40177 52002 80002 333 20166=
37054 32998 63301 10225 20167 40103 57009 80001 333 20143=
98618 11575 30703 10305 20266 40070 58010 60041 70584 82201
333 56999 82820 83075=
44242 32998 61805 10347 20109 39200 49989 57020 82202=
44243 32999 22002 10349 20048 39288 40008 57015 82204=
44266 32699 33605 10182 20073 37779 40039 54000 81104=
44317 32598 43204 10300 20106 38905 40036 58010 84200=
44325 31698 72912 10292 20150 38763 49990 57004 73522 85284
333 91214=
44348 32997 41807 10250 20136 38665 40040 57006 84080=
44386 31597 62006 10266 20073 38989 40049 58012 70592 86300=
44203 32599 62305 10246 2005/ 38348 49974 57017 83288=
44213 41699 62706 10216 20130 38717 40039 53007 70262 83250=
44215 32698 63207 10189 20062 38469 40046 52002 86500=
44230 32698 61401 10290 20090 38721 40011 57015 81107=
44256 32599 20000 10325 20137 39244 49993 58023 71311 86800=
44265 44264 32999 30000 10244 20077 38810 40024 52002 83040=
44313 32699 22709 10336 20034 39284 40013 57029 81240=
44336 32699 70000 10274 20034 38644 40022 58015 85207=
23074 42997 00902 10100 20040 40166 58010=
23711 32598 71903 10204 20126 40080 57011 81130 333 20147=
23804 11599 73402 10128 20107 40131 53008 60120 70262 83250
333 20099=
24143 42999 33605 10162 20004 40115 52008 80001=
24343 42699 20106 10179 20011 40096 52003 82502 333 91011
91112=
24738 42699 43504 10174 20092 40062 52007 85530=
24951 41599 70902 10179 20106 40019 54000 78081 85940=
24959 42598 80000 10167 20088 40036 52001 8657/=
24966 42699 82204 10201 20058 40009 56004 84931=
29313 42598 63102 10157 21012 40060 57004 85139=
29612 42598 52205 10164 20022 40074 58008 85200=
29698 42698 81201 10234 20156 40033 56001 86902=
30758 41599 62508 10343 21007 49973 57030 70232 84901=
30949 42699 62901 10315 20062 49997 57025 83851=
35406 32997 00000 10288 20103 40227 52007 333 20160=
38062 32999 00304 10214 20032 333 20112=
38232 32998 01405 10280 21041 40201 51001 333 20200=
38388 32998 00502 10282 21012 40202 52012 333 20184=
38413 42998 00604 10219 20013 40218 52005 333 10138=
38457 32999 22902 10228 21033 40169 52009 82050 333 20123=
38507 32998 01209 10320 21060 40148 52008 333 20215=
38545 32998 00805 10233 20082 40194 52009 333 20129=
38656 32998 00903 10290 20038 40181 52007 333 20192=
38687 32997 03404 10251 20000 40173 52010 333 20138=
38880 32999 00905 10295 21038 40167 51004 333 20179=
38895 32997 00402 10286 20124 40172 52004 333 20175=
38927 32997 02903 10280 20061 40137 52007 333 20019=
38974 32998 00202 10301 20019 40153 53010 333 20168=
98135 31470 60405 10310 20261 40094 57028 70544 85362 222//
20302 333 56999 81918 84819=
98232 31575 60404 10321 20279 40075 57019 70544 82372 222//
299// 333 56999 82920 83075=
98329 31475 41603 10338 20259 40070 5/013 70544 82951 333
56999 82918=
98653 31470 71202 10320 20260 40070 57020 70544 81270 333
56999 81818 86358=
20046 31364 73002 11016 21046 40042 52006 77172 875// 333
21016 86708=
20087 42268 82508 10002 21001 40084 52009 886// 333 88705
91112=
20292 42380 82613 11001 21004 40122 52009 886// 333 88707
91117=
20674 41766 81905 10021 20002 40124 57019 76164 8807/ 333
88450=
20891 42997 79901 10080 21014 40181 58001 87030=
29328 41498 83302 10111 20074 40059 53009 78082 889//   333 84711=
29348 41697 72601 10137 20122 40015 57008 70265 87500   333 87633=
29405 42597 62301 10148 20016 40062 57007 85330=
29937 41698 52606 10160 20015 40116 52027 70282 83501=
22113 32584 11705 10153 20019 40065 58018 81200 333 20081
91008=
22271 31580 11505 10120 20077 40116 57007 70240 81500 333
20010=
22820 32499 71903 10112 20070 40075 57030 87500 333 20084
87614=
22887 32570 39902 10167 20071 40153 57003 83100 333 20110=
26781 32997 72403 10169 20081 40207 54000 80001 333 20088=
27037 32970 51903 10173 20045 40166 58010 80001 333 20061=
33345 32998 00302 10189 20078 40239 52007 333 20115=
33393 32997 21703 10152 20089 40229 53003 80001 333 20074=
33658 32997 00000 10161 20082 40243 56003 333 20090=
33791 32597 63606 10154 20117 40190 52006 86500 333 20130
86620=
33837 32998 20103 10191 20109 40192 54000 80009 333 20147=
33946 31235 80105 10160 20155 40144 58001 71022 886// 333
20147 88704=
34300 31496 80106 10148 20121 40200 53007 71022 885// 333
20134 88613=
34560 32962 60000 10258 20110 40158 52006 86030 333 20168=
34691 32998 60905 10296 20078 40170 5/005 80002 333 20150=
34866 32998 60903 10290 20106 40135 58006 86031 333 20174=
34880 32997 51004 10283 20120 40164 52005 80001 333 20181=
37472 32998 30705 10217 20178 40114 50002 83030 333 20188=
48071 32566 83201 10313 20267 40014 82306 333 56709 59020=
48077 32461 81801 10320 20248 40035 85930 333 56490 59011=
48325 01562 60000 10290 20253 39791 40030 60031 70162 84806
333 58000 60037 70028=
48357 32565 51102 10315 20244 39895 40059 82346
333 58012 70042=
48403 32562 70000 10315 20244 39835 40026 84941
333 59018=
48405 01560 70000 10300 20243 39889 40048 60021 70262 85576
333 58010 60027 70028=
48425 11562 61501 10316 20251 30027 40037 69901 70162 83256
333 58003 70026=
48430 12560 60000 10303 20241 30030 40038 60021 83963
333 59005 70445=
48450 32560 61201 10312 20240 30003 40036 84836
333 58000=
48459 21559 81601 10292 20254 30038 40041 76096 8657/
333 59003 60065=
48550 01558 72604 10277 20242 30058 40065 69901 76062 82876
333 58003 69905 70215=
48551 01456 80000 10273 20243 30059 40067 60061 72166 84877
333 59004 60027 70121=
48565 11460 82202 10287 20263 30055 40066 60061 72162 82257
333 59003 70171=
48568 01459 72405 10295 20234 30061 40069 69901 72162 83866
333 58004 69906 70016=
48569 01459 80000 10257 20240 30033 40073 60171 76166 83876
333 58006 60177 70194=
48583 11560 70000 10394 20241 30060 40065 69901 70262 82146
333 59002 79999=
96011 01560 81602 10266 20233 30033 40056 58009 60021 70262 83532
333 56000 69907 83620=
96035 32461 70504 10322 20254 30031 40063 58006 84236
333 56000 57801 84818 80859=
96073 32562 72703 10316 20225 30054 40061 57006 83722
333 56000 57802 81820 80865 82623=
96509 11460 70000 10308 20253 30066 40099 57014 60171 70262 84231
333 56000 57801 84815 80860=
96607 32462 70000 10308 20242 30074 40088 56002 83221
333 56000 83817 86459=
96739 11556 80702 10268 20234 30025 40074 56009 69901 70562 83171
333 56000 83820=
48327 11562 70503 10293 20232 39680 40028 69901 71562 84973
333 59020 70003=
48331 32565 62401 10314 20253 39818 40041 82276 333 58010
70020=
48353 01558 81802 10273 20244 39766 40051 60021 71562 89836
333 58018 69957 70370=
48356 01568 30702 10306 20247 39860 40052 60041 70161 82131
333 58010 60017 70133=
48375 01562 73201 10274 20245 39798 40022 60071 70162 84876
333 59009 60077 70165=
48378 11460 70000 10310 20249 39982 40034 69941 70262 85876
333 59005 70107=
48381 32565 61603 10296 20244 39833 40052 85245 333 58011
70005=
48407 31560 60903 10297 20235 39914 40053 70161 85241 333
58008 70126=
48431 32560 71203 10305 20237 39835 40043 84836 333 58002
70256=
48432 01560 61202 10258 20239 39986 40051 69951 72162 83946
333 58001 69945 70053=
48455 01459 80000 10259 20246 30038 40043 60201 79592 86973
333 58006 60206 70207=
48456 01458 61706 10270 20261 30024 40041 69981 76022 81976
333 58000 69985 70041=
48480 01420 80000 10252 20249 30054 40058 60711 76366 8687/
333 58010 60437 70958=
48500 11563 60000 10296 20248 30042 40048 69901 70252 83107
333 59002 79999=
48008 32558 32202 10320 20257 40042 82930 333 56560 59004=
48025 31456 61401 10306 20250 40039 75095 84970 333 56320
59007=
48035 32560 50000 10289 20230 49994 83930 333 56790 58007=
48042 32558 41302 10344 20257 40021 84800 333 56300 59002=
48053 32558 61801 10335 20250 40022 83946 333 56599 59014=
48060 32556 70000 10270 20211 40038 84970 333 56560 58017=
48062 /2562 81303 10295 20270 40017 84930 333 56190 59019=
48078 21550 51801 10291 20256 40032 76165 83331 333 56499
59011=
48108 32596 81302 10298 20253 40043 84267 333 56349 59025=
48109 32497 61802 10285 20250 40025 84970 333 56590 59019=
24266 41699 70204 10182 20029 40066 53004 72582 86206 333
84937=
24329 42699 33101 10127 20059 40159 51004 83100=
24382 42698 80603 10155 20032 40075 56002 8693/=
24507 42698 61601 10207 20062 40130 57010 86100=
24688 41699 73602 10126 20017 40061 57002 71482 87931=
24817 42599 50102 10228 20085 40072 58001 85400=
24908 42679 70303 10260 10107 40069 52003 84930=
24944 41597 82905 10213 20143 40030 57003 79598 84937=
29594 42699 72705 10222 20119 40042 53006 86962=
29634 41457 82905 10101 20090 40067 52034 78088 883// 333
86926=
29676 41698 81202 10189 20153 40055 52027 70262 888//=
30054 41598 71704 10218 20139 40050 57006 79598 85907=
30393 42599 83502 10240 20055 49982 57013 83901=
30433 42699 81302 10081 20019 40059 54000 82101=
30469 41998 61403 10322 20056 49938 57064 70422 82042=
30554 42598 81906 10295 20055 49960 57024 85901=
30603 42998 80903 10240 20098 40024 57015 80002=
30612 42599 80903 10124 20136 40041 57017 82135=
30635 42899 83503 10207 20109 40041 58009 85052=
30692 42997 02304 10304 20089 49976 57031=
30802 42999 83004 10264 20055 38628 48427 57016 82031=
30879 42999 82104 10306 20139 40029 57013 80002=
30925 42699 51803 10333 20111 49986 58016 81104=
35700 32998 21907 10264 20074 40189 52008 80001 333 20200=
35925 32998 02005 10271 20023 40223 52006 333 20129=
36034 42699 82705 10160 20004 40133 52016 82200=
36061 41599 82906 10153 20073 40111 52028 78082 87401=
36982 42598 82309 10007 21044 36490 47029 54000 8695/=
38001 32998 51410 10284 20192 40153 54000 80002 333 20218=
38353 12597 60000 10161 20073 40181 52012 69900 86900 333
20124=
38392 32998 00704 10239 20025 40221 52015 333 20163=
38613 42999 61802 10223 20038 40132 51004 85092 333 20171=
38696 32999 00905 10213 21022 40155 52012 333 20014=
38750 32997 02703 10263 20204 40146 53017 333 20178=
59995 32480 73203 10287 20245 30066 40074 57012 86202 333XX 20273=
84200 22253 00200 20805 32220 40706=
96163 32568 52704 10322 20229 30058 40065 57008 82231
333 56000 57802 82820 80850=
10146 20040 30002=
82915 86635=
10385 32959 10401 10179 20141 30141 40201 51011 81032 333
10275 20153 30012 55132 55310 70000 81364=
10637 32975 30502 10182 20147 30058 40191 53007 81081 333
10268 20147 30011 55111 55310 70000 81363 83075=
16560 32970 03201 10182 20128 30187 40193 53001 90545 333
20156 30015 55122 2//// 55300=
17609 31459 22204 10239 20166 30052 40054 52005 70511 82100
333 20188 50841 55128 82816=
12330 32970 23503 10178 20131 30086 40191 52012 82030 333
10245 20103 30009 55111=
12375 32980 52103 10185 20104 30069 40195 54000 82082 333
10215 20113 31010 55154=
12843 32975 00801 10188 20076 30067 40232 52003 333 20112
55133=
13272 32980 01702 10178 20123 30113 40230 53030 333 20111
30003 55134=
21802 42999 82807 10039 21001 40179 52004 8807/=
23256 32999 01002 10137 20009 40149 57011 333 20046=
23274 42998 03601 10174 20048 40148 57003=
23330 32598 81903 10187 20015 40107 57011 83231 333 20100=
23383 42699 60204 10119 20021 40160 58003 82531=
23472 42699 20804 10193 20061 40124 58013 81101=
23631 32999 21305 10177 20027 40114 57005 81031 333 20122=
23678 42598 60703 10190 20098 40083 57016 85904=
23734 32998 21604 10157 20046 40123 58003 81031 333 20093=
23849 42796 30805 10147 20013 40116 52001 83100=
23884 42570 80602 10178 20114 40056 57017 8251/=
23891 42598 81005 10218 20107 40070 57007 86906=
23933 12597 10703 10133 20067 40132 52002 69900 81100 333
20090=
23966 41597 80402 10139 20081 40058 57020 70282 889//=
25400 42599 32902 10190 20045 40083 57010 83100=
28275 32999 00605 10165 20002 40096 52009 333 20130=
28382 11698 30305 10151 20004 40078 52002 69990 70281 83200
333 20097=
28493 32599 80604 10136 20019 40072 57007 86901 333 20052=
28573 11689 43204 11155 20086 40075 57008 69900 70181 82530
333 20116=
28698 11598 82402 10125 20076 40065 57023 69910 76062 885//
333 20093 88627=
28722 32998 02304 10267 20135 40165 58003 333 20164=
28786 31598 82004 10159 20059 40089 57018 70282 84352 333
20095=
29253 41899 83201 10114 20112 40021 57010 70262 8801/=
29263 41498 81402 10148 20124 40026 53004 70298 8695/=
29282 42598 81202 10281 20089 40031 57012 889//=
29430 41498 80201 10119 20111 40016 54000 70282 889// 333
88914=
35067 32998 6//// 10227 20025 40145 57020 83036=
35121 32998 02802 10258 20160 40189 58001 333 20154=
38763 32998 00906 10288 20089 40157 52006 333 20195=
38911 32998 03305 10284 21007 40137 52006 333 20159=
38954 32899 60000 10172 20073 48460 52007 69990 86900 333
20120=
38987 32996 00103 10265 21033 40147 52007 333 20115=
60549 114064 114057 114059 110055 111059 107060=
116038 127038 121037 124033 129035=
40100 58020 70221 88/// 22225 2//// 308// 40503=
84570 22214 2//// 312// 80240=
59626 32580 71803 10311 20255 40089 57009 87202 333// 20279=
57608 31956 23402 10326 20220 40023 57009 71000 82040 333
20243=
57583 32875 72704 10333 20222 40033 57006 875// 333 20293=
58311 11572 83603 10243 20225 40034 57007 69901 76000 885//
333// 20240=
54335 32970 70401 10311 20046 40099 57019 80002 333 20158=
58122 11575 80405 10208 20189 40060 54000 69981 72160 885//
333// 20180=
59317 32580 11804 10316 20239 40095 57013 81100 333 20254=
52645 32680 23205 10154 21086 36829 57001 82100 333 00204
20005=
51709 11880 73604 10221 20026 38665 40048 52008 69901 70080
85962 333// 00153 20183=
51705 32780 72712 10159 21086 37802 57003 879// 333// 00052
20121 91122 91527=
51716 11965 73202 10176 20104 38845 40062 52012 69941 78098
8706/ 333// 00256 20173=
59849 32580 31604 10319 20226 40083 57011 83100 333// 20238=
76382 32760 30000 10250 20184 38917 40103 52010 83030 90530
333   10337 20200 30/// 55050 01747 56050 58021 83350=
76402 32950 00000 10202 20148 30096 40157 52014 90543 333
10388 20142 30/// 55120 22358 58008=
76412 32760 32701 10270 20169 30119 40159 52015 83030 90540
333   0/010 10360 20214 30/// 55125 50008 83356=
76458 32958 23402 10278 20226 30114 40124 52010 83020 90545
333   10315 20244 30/// 55975 56090 58010 82358=
76471 31580 70000 10180 20119 37734 40070 52006 70192 8750/
90235 333   10269 20118 30/// 55056 5610/ 58011 87634=
76640 32130 11401 10262 20251 30171 40201 52021 81100 90540
333   002// 10338 20240 30/// 55082 58018 81803=
76644 32950 00902 10254 20135 30169 40179 52008 90540 333
10338 20238 30/// 55095 23049 58008=
76687 32560 61801 10181 20158 38692 40178 51014 865// 90538
333   10265 20165 31/// 55092 563// 58013 86622=
76737 01480 60503 10188 20173 38818 40176 50012 60151 72162
86700 90540 333   10259 20150 31/// 55084 56200 58015 69915
86717=
76556 32460 60000 10224 20213 39116 40110 52014 86600 90530
333   0/700 10310 20205 30/// 55038 58002 86710=
76741 31440 43604 10279 20241 30146 40166 52024 70544 84200
90540 333   028// 10308 20248 30/// 55101 58021 84814=
54454 32970 70402 10279 20115 40111 57013 80002 333 20158=
50758 32570 22505 10316 20019 40081 57012 82100 333 20154=
50853 32570 23202 10312 20085 40073 57021 82100 333 20130=
50349 32670 50203 10322 20040 40038 57021 85100 333 20046=
50656 32970 20403 10312 20018 40071 57021 80002 333 20089=
54195 32575 23205 10290 20035 40079 57014 82100 333// 20082=
54041 32970 01804 10328 20037 40083 57023 333// 20127=
54142 32970 01602 10284 20096 40113 57022 333// 20115=
54276 32575 10401 10255 20054 40116 57012 81100 333// 20060=
54181 32580 10000 10283 20073 40104 57016 81200 333// 20102=
54171 32580 13202 10286 20059 40102 57020 81200 333// 20103=
54285 32570 32903 10258 20007 40108 57019 83200 333// 20061=
54263 32580 13601 10276 20094 40109 57015 81100 333// 20097=
54063 32570 10000 10297 20073 40070 57016 81100 333// 20158=
51828 31/50 92902 10242 20095 38552 40001 52006 70600 333//
05301 20195=
56386 32960 71801 10305 20214 40030 57009 8703/ 333 00303
20238=
54339 32964 60902 10301 20078 40098 57016 80002 333 20184=
53810 32670 13403 10240 20149 40064 57014 81100 333 20144=
50775 32664 50904 10253 20088 40089 57015 82101 333 20104=
54237 32980 71103 10308 20036 40106 57018 80002 333 20137=
51133 32680 72902 10195 20046 39531 40152 52002 82902 333//
00601 20099=
53868 11940 80403 10185 20150 40119 57009 60081 71060 8802/
333// 20165=
57947 11568 72002 10306 20235 40082 57014 69901 72160 8514/
333// 20257=
57143 11960 82702 10197 20173 40094 57001 60011 76060 8807/
333 20168=
53882 11959 83603 10149 20123 40125 52001 60071 76166 8802/
333// 20128=
53663 11580 71105 10142 20061 40129 57001 69901 70080 872//
333// 20122=
51573 32970 72701 10336 20104 39987 40029 57019 80002 333//
00453 20241=
59453 32574 31602 10335 20227 40088 57018 83200 333// 20251=
57037 11550 80702 10169 20156 40110 57002 69971 76060 8772/
333 00653 20154=
53740 11666 81404 10148 20124 40121 57008 69901 76060 885//
333 20119=
59242 32580 32004 10325 20240 40077 57021 82140 333// 20257=
54365 32975 10203 10287 20076 40107 57020 80002 333 20117=
54326 32975 71103 10289 20117 40097 57015 80002 333 20164=
54563 32570 73205 10295 20150 40085 57016 82202 333 20172=
59446 32580 52203 10329 20235 40082 57018 85202 333// 20259=
56543 32680 52705 10205 20067 36866 57014 85200 333// 00003
20053=
56533 32780 41604 10289 20156 38353 57034 84200 333// 05205
20150=
56741 32580 42003 10244 20166 38172 57016 84240 333// 00100
20186=
56664 32580 30704 10336 20162 49996 57021 83400 333// 00200
20221=
53519 11962 71102 10162 20133 40104 57010 60021 72160 8703/
333 20132=
53615 11665 70903 10178 20136 40095 57012 69901 70060 85102
333 20136=
59218 11580 72002 10267 20210 40087 57010 69921 72580 8794/
333// 20218=
59478 32580 42001 10334 20236 40092 57019 84200 333 20250=
59298 32566 50202 10339 20234 40086 57018 85200 333 20261=
59664 32480 11603 10324 20247 40097 57010 81100 333 20271=
57996 32675 22504 10337 20213 40076 57025 82100 333 20247=
59754 32480 50904 10323 20249 40085 57012 85200 333 20258=
59271 32580 42502 10338 20234 40080 57024 84200 333 20239=
59462 32578 42702 10347 20227 40082 57022 83202 333 20258=
51628 11770 82203 10188 20087 40079 52030 69931 78080 889//
333 00457 20123=
58236 11658 83403 10220 20211 40034 54000 60151 76098 885//
333 20212=
58215 11540 80707 10201 20196 40043 57009 60691 76598 8772/
333 20198=
57134 32580 42006 10269 20202 40020 57007 84100 333 00210
20162=
52707 32680 21604 10225 21059 37276 57017 81102 333 00102
20065=
53821 11780 71604 10198 20148 40087 57011 69901 70060 87500
333 00302 20142=
56093 32580 20902 10234 20122 37672 57020 82202 333 00204
20123=
56151 31580 70000 10168 20038 36663 57016 71700 86902 333
00304 20060=
52876 32570 10903 10254 20115 38134 57022 81100 333 00200
20120=
52984 32580 13203 10251 20124 38037 57017 81100 333 00202
20129=
52797 32780 10902 10248 20094 38328 57014 81100 333 00301
20127=
52661 32780 10702 10225 20059 38209 57010 81100 333 00108
20090=
52986 32680 40403 10266 20102 38061 57020 82902 333 00204
20106=
57385 11560 80201 10210 20202 40040 57004 60121 79586 889//
333 20206=
57458 11570 83402 10230 20212 40056 52013 69911 78080 884//
333 00254 20227=
57405 32570 73601 10293 20209 40031 57010 81130 333 20232=
50514 32580 11603 10313 20038 40044 57017 81130 333// 20166=
50425 32980 52203 10305 20032 40072 57023 80002 333// 20079=
54134 32977 11603 10309 20081 40098 57020 80002 333// 20137=
54213 32680 70402 10308 20043 40094 57020 81102 333// 20151=
56178 11780 22701 10261 20124 37630 57033 69921 70080 81140
333 00655 20152=
54351 32980 20000 10286 20114 40110 57019 80002 333// 20110=
57144 11580 71602 10248 20182 40065 57009 60021 70060 81630
333 20185=
53738 11680 81603 10158 20133 40110 57010 69911 70060 885//
333 20125=
54287 32180 10000 0074/ 21040 37405 57003 81100 333 20012=
54266 32575 11102 10276 20067 40108 57017 81100 333// 20106=
54363 32570 20201 10271 20087 40101 57017 82100 333// 20111=
50936 32970 01806 10325 20030 40075 57022 333// 20154=
51811 11860 70401 10206 20089 38718 40047 52014 69901 70080
8496/ 333// 05154 20167=
51931 31/15 90000 10261 20122 49972 57001 70600 333// 05301
20200=
53502 32662 73203 10190 20142 40084 57007 83132 333// 00000
20150=
52495 11775 70000 10172 20130 38644 40096 57002 69901 70060
82502 333// 00101 20128=
52576 32980 03402 10213 20061 38467 57003 333// 00207 20096=
52378 32780 70403 10224 20109 40099 57004 83902 333// 00454
20160=
52267 32980 72203 10280 20072 39036 40062 57016 80002 333//
00351 20160=
53602 11670 80000 10153 20131 38406 57003 60041 78086 889//
333// 20124=
59954 32580 61104 10326 20261 40092 57007 86900 333// 20259=
57313 32580 61401 10286 20226 40028 57013 82140 333 00306
20216=
56565 32580 50904 10232 20105 37477 57009 85200 333 00252
20143=
56475 32680 50903 10298 20168 38268 57025 84202 333 00552
20167=
56485 32675 51103 10281 20195 40030 57010 82140 333 00602
20184=
56459 32880 22003 10294 20066 37606 57027 82200 333 00001
20171=
51467 32980 60000 10196 20004 38213 57033 80002 333// 00151
20083=
51495 32680 73413 10295 21019 40115 57030 81802 333// 00254
20195 91121 91534=
54871 31980 80903 10180 20140 40090 57011 70040 80007 333//
20127=
51526 32975 61107 10298 20033 40024 57018 80002 333// 00251
20134=
51542 32680 72003 10104 20033 37551 57009 81102 333// 05108
21011=
51656 32980 70408 10280 20043 38999 40013 57018 80002 333//
00051 20099=
51642 32775 71402 10284 20007 40014 57004 86402 333// 05207
20131=
51765 32970 71406 10316 20061 39065 49978 57030 80002 333//
00052 20152=
51777 31956 80905 10294 20060 39002 49955 57035 70600 80007
333// 05256 20215=
54449 32962 71103 10216 20172 40106 57013 86032 333// 20146=
59228 11580 70000 10309 20259 40084 57016 69901 72500 8794/
333 20240=
57034 11560 81103 10188 20175 40118 57004 69921 72160 8772/
333 20165=
53754 11572 81403 10155 20129 40125 57003 69981 76060 8572/
333 20127=
54284 32570 13602 10233 20068 40110 57013 81100 333 20047=
50948 32570 13202 10318 20032 40093 57020 81100 333// 20145=
53942 11660 80000 10163 20131 40123 57004 69931 70060 8752/
333 20127=
57232 11580 71403 10260 20205 40063 57008 69901 70060 8313/
333 20192=
56074 32580 52503 10171 20046 36698 57010 85900 333 00302
20039=
52868 32680 12703 10280 20047 37732 57022 81100 333 00203
20076=
56043 32580 32002 10168 20007 36494 57015 83900 333 00302
21002=
57106 32580 12504 10307 20188 40031 57016 81100 333 00112
20174=
53929 32765 71103 10188 20156 40100 57009 875// 333 20145=
56125 11680 70000 10157 20065 36568 57014 69941 70060 83902
333 00207 20072=
52765 32580 22904 10203 21023 37182 57013 82100 333 00204
20035=
52856 32580 10000 10230 21025 37213 57017 81100 333 00202
20061=
54606 32962 80203 10242 20157 40109 57011 8807/ 333// 20180=
57522 31840 70702 10286 20247 40032 57005 71000 875// 333
20270=
57432 11630 80000 10226 20222 49837 52001 61151 79598 889//
333 20220=
51818 31858 83206 10213 20052 40035 52015 70700 885// 333//
05153 20172=
51839 31/10 90703 10274 20028 49960 57009 70600 333// 05351
20205=
89009 41561 70407 11485 37017 50003 77672 8702/ 333 81420 87430=
89054 32260 80130 11003 21027 49927 57045 886//
333 78899 88704=
89056 32360 80245 11003 21007 49913 57047 885//
333 00258 71199 88608=
89057 31210 80730 10004 21014 49927 57039 73633 887//
333 00640 71099 88704=
89058 11561 80224 10001 21023 39923 49938 57040 69901 70070 885//=
89059 32860 80616 11014 21031 49980 57040 8802/
333 00233 71009 88458=
78583 11462 70910 10246 20243 40154 60121 76386 86273 333 03225 59002
70333
86812 86458 87075=
60101 32960 00810 10204 20172 40130 55001
333 20195=
60115 31405 81402 10170 20170 40153 54000 74422 886//
333 20164 88710=
60135 31430 82008 10193 20183 40125 55003 71022 886//
333 20192 88710=
60150 32960 23002 10205 20085 39490 40123 58003 80002
333 20202 82070=
60155 31440 70202 10206 20189 40128 56005 71022 876//
333 20192 30018 87710=
60156 32350 63204 10193 20180 40131 57003 86600
333 20170 86708=
60230 32958 41202 10223 20163 40121 55004 83082
333 20218 83360=
60060 31312 80202 10184 20178 40143 5//// 710// 886//
333 20177 88708 95310=
60105 31920 20403 10187 20187 40122 53002 710// 80001
333 20180 31018 82070=
60107 32457 80000 10205 20202 40151 55000 886//
333 20194 88710 95380=
60141 32960 01408 10200 20088 39475 40127 55000
333 20194 95400 95800=
60185 32465 80206 10195 20171 40135 55000 885//
333 20187 88616=
60190 12962 00806 10222 20135 39531 40113 56002 60014
333 20220=
60191 32565 11402 10180 20137 40125 53002 81200
333 20180 81833=
60210 12670 50000 10222 20105 39004 48542 58019 60014 84532
333 20220 84630 83358=
60265 32670 43604 10218 20004 38918 48557 69904 83202
333 20217 83840=
60318 32456 81004 10202 20186 40159 58016 882//
333 20192 84710 86820=
60340 32556 80202 10220 20197 40148 56006 8557/
333 20208 85633 84360=
88963 32365 80210 11016 21043 39970 49999 57024 886//
333 56099 88708 92406 95010=
88968 31357 80000 11070 21083 30120 40136 58005 71022 886//
333 56499 88707 90043 92416 92851 94070 D/INV=
89034 32970 01629 11165 21242 39682 40018 52008=
89053 11340 83630 10004 21012 39918 49932 57032 69901 71032 886//
333 56899 88708 90115 92445 92800 94072 95092 96010
555 53630=
89055 32360 80220 11044 21050 39755 40005 57013 886//
333 56199 88709 91025 91502 92700 92843 95190
555 19990=
81405 11158 50000 10239 20236 40131 60011 70162 84802
333 58012 82702=
78897 11565 40808 10250 20219 40170 58018 60041 70286 82202
333 022/6 10312 20231 58002 70072 82820 83078=
33815 32998 09901 10180 20058 40219 58001 333   20138=
68454 32989 3//// 10056 21012 83080 333 20048 555 10185=
61901 36/// /1111 10174 20145 40173 5//// 333 20166 3/015=
88889 11240 83311 10078 20074 49916 52009 60041 75865 887// 333
84704 88707=
48698 31472 70405 10314 20234 30048 40066 70522 82972 333 70004
81918 87365=
89564 45/// /0406 11153 21211 39908 49929 52026=
89571 41960 71506 11155 21199 39862 49892 52004 77022 8473/=
89573 32975 20919 11176 21243 39865 49888 52005 82070=
89611 41980 30406 11117 21162 39876 49931 52019 70200 83030=
81408 06/// /0000 10238 20236 40129 69921
333 58012 69907=
81415 16/// /0502 10231 20229 40135 69921
333 58011=
68906 12598 62508 10120 20065 30000 40064 52004 60024 86500
222// 333 20116 91021 555 10148 20023 91006=
76256 32960 00000 10304 20162 30106 40122 52019 90555 333
10370 20230 30/// 55011 58002=
76342 31340 60000 10236 20007 39479 40161 52007 70122 86700
90538 333   10317 20230 31/// 55020 21149 58024 86710=
76390 31850 20000 10176 20153 38264 40123 52003 70544 82040
90540 333   10283 20176 30/// 55051 21053 56050 58014=
76405 32940 01504 10227 20160 30127 40147 52022 90550 333
10352 20164 30/// 55122 22649 58002=
76423 01560 80702 10168 20156 38208 40137 52010 60071 70096
8652/ 90546 333   10320 20161 32/// 55066 21973 5699/ 58022
69917 86620 82457=
76491 32956 00000 10265 20206 39788 40179 52022 90537 333
10385 20230 30/// 55103 58017=
76577 32460 53603 10180 20118 38079 40139 52028 85500 90540
333   10310 20144 30/// 55071 56100 58003 85619=
76654 01750 83603 10264 20230 30124 40128 53002 60091 70596
8802/ 90550 333   0009/ 10331 20258 31/// 55102 2//// 58011
60091 88456=
76685 32960 00000 10158 20103 37903 40108 52009 90550 333
10260 20120 30/// 55083 21578 58004=
76698 12958 00000 10239 20231 30120 40135 54000 60031 90550
333   10327 20234 32/// 55093 58003 70027=
76743 01320 60701 10234 20217 30146 40166 57013 60021 70222
8445/ 90545 333   0/00/ 10344 20234 31/// 55093 21964 58014
60027 84607 82357=
76775 31565 80503 10200 20142 38536 40174 52021 70544 8555/
90545 333   10300 20141 30/// 55495 5699/ 58012 85627 83357
=
76843 32965 00000 10240 20200 39545 40185 52010 90540 333
10325 20205 30/// 55115 2//// 59015=
76243 32570 40801 10258 20222 39881 40157 52004 84200 90537
333   10356 20242 30/// 55300 56200 58019 70000 84820=
76305 32970 00000 10265 20200 30117 40127 52011 90530 333
10340 20230 30/// 20213 59070 90800=
76393 31456 70604 10266 20222 39575 40140 52005 70540 875//
90550 333   02399 10356 20228 30/// 55040 58009 87615=
76840 32956 03608 10294 20209 30095 40145 52013 90540 333
10360 20275 30/// 59006=
76848 32050 00501 10165 20148 38405 40027 52010 90535 333
10250 20163 30/// 55098 59004=
76855 32980 03602 10266 20233 3//// 4//// 5//// 90530 333
10326 20266 31/// 55069 58/// 92000=
76903 12960 70000 10272 20245 30012 40142 52015 69901 87030
90535 333   0/010 10352 20231 30/// 55072 58003 87358=
78397 32570 63603 10274 20260 3013
CHECK/TEXT/NEW ENDING ADDED MKJPYTYX=
68240 31960 00000 10048 20030 48547 52010 70400 333 20028 555 10226
30102=
60096 31225 80210 10190 20174 40135 5//// 710// 886//
333 20182 88705=
60127 11565 40000 10204 20158 39570 40148 57004 69964 70398 82502
333 20201 82633 83073=
60195 12670 2//// 10175 20096 38533 48558 57006 69924 82200
333 20160 82833 95500=
67341 31958 03404 10160 20149 40209 52019 71000
333 20137 50//0 55/// 555 10000=
60710 32965 01006 10221 20152 30087 40168 51003
333 20173=
60714 32456 31007 10203 20187 30183 40190 53004 83200
333 20178 83816=
60720 32458 41702 10205 20183 30155 40190 53001 84600
333 20183 84713=
60723 33965 01102 10179 20173 30008 40193 53002
333 20142=
60728 33558 11706 10212 20196 30188 40192 51001 81200
333 20204 81820 92416=
60734 33965 01304 10211 20098 39673 40178 52004
333 20164=
60738 32960 01616 10149 20113 38967 48540 54000
333 20124=
60740 31430 10000 10197 20186 30192 40195 53002 71000 81200
333 20184 81816=
60745 32558 10708 10185 20160 39819 40185 54000 81500
333 20171 81630=
60748 33962 00000 10178 20156 39776 40190 52002
333 20149=
60750 32960 00202 10220 20182 30162 40194 52011
333 20183=
60764 33960 00417 10212 20189 30145 40196 52010
333 20197=
60770 33950 00000 10216 20191 30043 40180 52007
333 20194=
60780 33960 20908 10217 20131 39870 40168 51005 80002
333 20200 82070=
96315 14470 73505 10300 20254 40062 70282 83963
333 82817 85080=
91570 36/// /1610 10229 20182 30120 40123 53002
555 10255 20196=
91574 36/// /1514 10224 20137 30138 40144 55000
555 10239 20202 69924=
91598 06/// /1324 10134 30081 40113 53007 69961
333 69947
555 10173 20114 60034=
91408 32474 83304 10272 20250 30041 40079 57007 87308 333 56222
70076 555 90306=
91348 11474 81306 10272 20251 30032 40084 55005 69981 70282 8527/
333 56299 70549 555 90306=
17601 31458 22105 10226 20178 40056 52009 70500 82800 333 20195
30017 81616=
11036 32975 11702 10160 20113 39994 40219 53007 81042 333 20103
81362=
11010 32780 41103 10176 20122 39846 40211 51004 81131 333 20133
81856 83366=
11120 32984 12702 10169 20145 39538 40218 52003 81041 333 20133
81368=
11150 32986 11603 10195 20132 39686 40202 51004 81041 333 20134
81363=
11240 32882 19901 10174 20141 39814 40218 52003 81131 333 20124
81857=
11816 32965 10703 10164 20091 30070 40230 53004 81030
333 20106 30009 81360 =
11826 32970 10102 10157 20113 30037 40232 50004 80001
333 20075 30004 81070 =
11903 32975 00000 10138 20082 39870 40244 51001
333 20060 30003 50322 =
11934 32983 00902 10152 20091 39426 42856 51001
333 20062 30003 50242 =
11968 32982 10000 10172 20091 39960 40233 51002 80001
333 20085 30004 50272 81070 =
11841 32965 00901 10139 20094 39863 40232 55001
333 20069 31005 50332 =
11858 32980 09901 10203 20118 30086 40231 52005
333 20096 30005 50382 =
11916 32989 03501 10097 21010 38056 48549 52005
333 20052 3//// 41998 =
11927 32981 00000 10160 20092 39979 40234 58001
333 20079 30004 50312 =
11930 32989 13302 10071 20020 37466 47177 53003 80001
333 20036 3//// 44065 81060 =
11993 32970 00401 10140 20078 30029 40242 52001
333 20058 30002 50342 =
11855 32975 10703 10182 20098 30073 40234 52004 81040
333 20083 30006 81361 =
11867 32975 12101 10152 20118 39929 40238 53001 81040
333 20070 31004 50232 81360 =
11880 32970 10901 10164 20107 30067 40234 52002 81030
333 20064 30002 50312 81360 =
11918 32986 02303 10135 20073 39423 42855 51001
333 20063 30002 50252 =
11933 32984 12803 10110 20058 38710 48562 53003 80001
333 20042 31003 81070 =
11938 32989 02003 10133 20090 39192 42852 52002
333 20058 30002 50242 =
11976 32982 03001 10134 20085 39982 40241 51003
333 20062 30004 50252 =
11978 32980 01001 10156 20104 30116 40243 51004
333 20066 30003 50302 =
12772 32981 01001 10171 20090 39957 40234 52004 333 20119 55135=
12822 32968 11201 10182 20106 30083 40223 52002 81040
333 20106 55125=
12882 32981 01301 10164 20110 30106 40237 53004 333 20097 55139=
12925 32970 10000 10169 20125 30055 40223 53002 81030
333 20082 55125=
12942 32970 10902 10178 20083 39990 40230 53005 81040
333 20121 55127=
12982 32982 10000 10189 20101 30133 40232 52002 80001
333 20081 55144=
10015 32582 60304 10123 20087 30210 40220 53011 86500
222// 02121
333 10128 20111 31010 55003 553// 79999 83628 84636=
10020 12580 33505 10104 20055 30185 40221 52014 69912 82531
333 10125 20086 31007 55002 55310 2//// 70001 82630=
10035 32575 33403 10106 20068 30164 40223 51012 82831
333 10139 20086 30007 55008 55310 79999 81823=
10055 32481 43304 10114 20084 30204 40214 51015 83831
333 10155 20111 30011 55099 55309 70000 81815 83633=
10147 11360 83503 10133 20112 30198 40216 51010 69902 75022 875//
333 10179 20119 31008 55090 55300 79999 84708 87611=
10162 31456 73002 10134 20116 30126 40208 51010 7102/ 875//
333 10211 20120 30008 55125 55300 70000 87610=
10184 32465 63102 10138 20113 30196 40203 51012 85232
333 10192 20126 30011 55104 55300 70000 85813=
10224 32368 80703 10135 20114 30207 40213 52010 886//
333 10201 20105 30008 55114 55300 70000 85709 88710=
10270 32458 23405 10146 20121 30155 40209 52010 81130
222// 06173
333 10268 20118 30009 55151 55310 70000 81810=
10338 32458 70402 10142 20127 30135 40207 53009 875//
333 10237 20110 30008 55149 55300 70000 87618=
10361 31550 12901 10147 20128 30107 40209 51009 71000 81530
333 10272 20130 30010 55154 55310 70000 81625=
10384 32959 13602 10176 20140 30141 40199 51008 80001
333 10279 20144 30010 55142 55310 70000 81080=
10393 32960 10302 10176 20132 30078 40201 51019 80001
333 10276 20151 30013 55140 55310 20951 30363 70000 81075=
10400 31856 50402 10157 20144 30142 40190 52004 71011 82531
333 10256 20123 30011 55133 55306 70000 82657 83365=
10438 32767 53602 10163 20132 39931 40205 51009 83580
333 10251 20137 30011 55139 55300 70000 83656 83361=
10469 32960 10204 10164 20136 30045 40206 51014 80001
333 10276 20140 30013 55153 55310 70000 81073=
10488 32982 22302 10185 20122 39925 40196 52012 82030
333 10269 20155 30013 55150 55310 70000 82363=
10548 32680 30901 10158 20118 39668 40193 51006 83200
333 10253 20132 30008 55127 55310 70000 83840=
10685 32786 21101 10170 20122 39548 40199 53005 81530
333 10234 20134 30008 55132 553// 70000 81650=
10738 12784 10901 10168 20141 39735 40189 53004 69902 81231
333 10251 20138 30010 55132 55310 79999 81850=
10763 32981 21402 10178 20133 39827 40196 52004 82081
333 10270 20142 30013 55127 55310 20787 70000 82362=
10788 32980 30802 10146 20145 39780 40201 52005 82031
333 10237 20112 31008 55134 55306 70000 82363=
10852 32982 11502 10161 20131 39645 40197 51003 81030
333 10230 20121 31011 55125 55310 70000 81363=
10946 32989 11302 10150 20085 39394 40201 51002 81030
333 10257 20119 31010 55133 55309 70000 81362=
10091 32482 63206 10115 20078 30155 40206 53017 86501
333 10159 20111 30011 55067 55309 21026 30444 79999 86617=
10113 11472 80704 10124 20112 30193 40212 50005 69902 70262 878//
222// 06152
333 10141 20119 31012 55025 55300 79999 81813 87618=
10129 11357 80503 10131 20115 30204 40217 51012 69902 72122 885//
222// 02165 20000
333 10155 20129 31012 55076 55300 79999 85709 88620=
10131 32475 70604 10126 20095 30201 40216 52010 875//
222// 02150
333 10154 20125 31012 55054 55300  87616=
10170 32482 53305 10137 20098 30191 40206 51014 83282
333 10171 20131 30013 55079 55304 70000 83813=
10253 32218 83503 10121 20119 30194 40216 52011 7102/ 886//
333 10247 20094 30007 55142 55300 70000 88705=
10280 31456 72903 10134 20123 30112 40209 53011 7102/ 878//
333 10234 20113 30009 55139 55300 70003 81810 87618=
10291 31356 70103 10141 20129 30139 40205 51013 71041 876//
333 10269 20118 30009 55143 55308 70000 87709=
10305 31218 80803 10130 20127 30175 40207 50002 71042 886//
333 10213 20117 31011 55117 55300 70000 88705 96446=
10315 31957 30602 10137 20128 30140 40203 53005 71040 80001
333 10227 20099 30007 55140 55309 70000 83075=
10348 31556 71102 10149 20134 30108 40213 52008 71011 865/1
333 10249 20117 30010 55153 55306 70000 86620=
10427 32568 41004 10139 20100 39218 48538 51004 81281
333 10210 20136 31008 55136 55304 70000 81826 83356=
10453 32680 32504 10135 20063 38906 48544 53006 81084
333 10172 20121 31009 55139 55310 70000 81343 83070
444 56085=
10474 32858 10402 10180 20139 30076 40201 51015 81500
333 10281 20151 30013 55140 55310 20817 70000 81656=
10490 32970 20403 10162 20137 30082 40201 51017 81032
333 10280 20113 30008 55142 553// 21050 70000 81363=
10499 32982 32404 10183 20114 39913 40192 53009 83030
333 10237 20165 30013 55146 55302 70000 83365=
10501 32762 30101 10166 20135 39942 40183 57002 81531
333 10241 20150 31014 55121 55300 70000 81656=
10513 32664 71201 10168 20156 30072 40190 51005 83881
333 10259 20137 30013 55141 55300 70000 81835 83645 85362=
10532 32570 23502 10172 20147 39965 40194 51006 81131
333 10260 20150 30013 55119 55310 70000 81826=
10544 32982 11702 10189 20109 39153 48558 52006 81031
333 10193 20145 31010 55134 55310 70000 81361=
10554 11682 60503 10160 20120 39820 40198 51008 69902 78081 83980
333 10248 20145 31010 55139 55305 20481 79999 83940 85360=
10577 32983 13202 10185 20119 39710 40195 53008 81042
333 10248 20155 30013 55148 55309 20836 30252 70000 81363=
10578 31789 53104 10156 20088 38849 48556 51006 71411 85080
333 10185 20137 31011 55150 55302 20484 30403 70000 82350 83357 91113 91211=
10609 32568 40501 10163 20157 39861 40183 55000 82831
333 10251 20153 31014 55095 70000 82825=
10655 32981 12501 10166 20139 39873 40191 53007 80001
333 10256 20149 30013 55132 55310 70000 81077=
10688 32982 20000 10153 20120 39691 40201 51004 82030
333 10245 20118 30008 55138 55310 70000 82365=
10708 32762 10000 10186 20167 39814 40185 53001 81101
333 10254 20153 31012 55130 55309 70000 81856=
10729 32781 31801 10182 20158 30068 40185 51006 82580
333 10263 20138 30011 55121 55307 82650=
10776 32980 30000 10131 20121 39775 40212 52004 83030
333 10255 20119 30010 55132 55307 70000 83363=
10803 12773 33301 10188 20129 39842 40191 53003 69902 83540
333 10278 20172 31015 55115 55308 79999 83650=
10836 32988 11401 10182 20135 39348 40180 53003 81040
333 10236 20161 31012 55142 55310 70000 81362=
10929 32989 10101 10155 20148 39678 40198 51003 81080
333 10255 20137 31011 55130 55309 70000 81358=
10961 32689 33402 10054 21089 37181 47170 53003 83080
333 10059 20043 44335 55097 55307 70000 81340 83350=
10962 32989 22101 10186 20075 39096 48563 53002 82032
333 10214 20173 31011 55140 55302 70000 82363=
48010 32560 31801 10332 20257 40034 84130 333 56560 59015=
48019 32562 53201 10332 20191 40030 83830 333 56450 59011=
48037 21458 73201 10310 20267 40039 75055 86930 333 56/90 59010=
48097 31457 62203 10290 20248 40030 72055 83371 333 56699 59002=
16597 00309 10222 20165 30112 40198 53008
333 20179 30012=
11101 32980 21301 10161 20134 39681 40191 50003 81031 333 20141
81360=
11022 32975 10503 10155 20101 39834 40214 53008 80002 333 20131 3/011
81081=
11028 32980 10802 10166 20121 39878 40212 52006 80001 333 20113 3/008
81080=
11130 32982 12202 10170 20139 39634 40202 51003 81040 333 20137
81362=
11146 32689 62401 10045 21019 37045 47162 57001 8604/
333 20033 49340 86348=
11157 32982 29901 10154 20127 39464 40210 50000 82041 333 20096 31008
82365=
11172 32975 30000 10114 20098 54000 80005 333 20100 83270=
11204 36/// /0000 10130 20127 39449 40220 333 20115 3/009=
11231 32980 19901 10161 20124 39672 40225 52003 81030 333 20125
81360=
11464 32875 23005 10175 20092 39250 42838 52004 82030
333 20158 30012 70000 82357=
11487 31987 70000 10165 20127 39605 40208 52004 71411 86091
333 20107 30009 50342 70000 86360 9512/=
11518 32982 43102 10185 20131 39780 40203 52008 84081
333 20116 30009 70000 84365=
11659 32981 11205 10162 20113 39596 40217 52004 81049
333 20100 31008 50342 70000 81360=
11782 32970 22404 10183 20121 39917 40221 53005 82040
333 20075 30005 70000 82365=
26038 11498 72505 10125 20098 40068 53006 60032 70282 87900   333
20113 86917   555 31011=
26058 12597 72108 10144 20120 40075 57005 60012 87900   333 20105
91012 91112   555 31010=
26115 32998 12408 10100 20084 40089 52018 80001   333 20092 91012
91113   555 31009=
26135 11497 62705 10129 20081 40088 53005 60022 70262 84902   333
20115   555 31012=
26141 11498 72506 10128 20105 40078 53002 60022 70262 87300   333
20096 87917   555 31010=
26215 12998 62807 10123 20073 40099 52011 69952 80002   333 20099
555 31010=
26231 12398 62405 10128 20099 40100 53006 69962 82605   333 20128
91113   555 31013=
26242 12598 82405 10149 20118 40100 52003 60022 883//   333 20102
88625   555 31010=
40087 57004 8353/ 333// 20181=
60715 32556 21206 10220 20181 30180 40185 53001 82500
333 20195 82623=
60725 33965 00804 10189 20178 30017 40184 53004
333 20162=
60735 32558 10000 10192 20166 30117 40198 54000 81200
333 20179 81823=
60760 32958 01114 10223 20159 30053 40161 53009
333 20210=
60765 32960 01108 10233 20174 30175 40181 53002
333 20217=
60769 32558 20908 10232 10183 30174 40179 52010 82200
333 20207 82820=
60775 33965 30704 10189 20156 39823 40173 53005 80002
333 20185 55127 22596 83070=
91324 32474 80904 10300 20247 30061 40063 83211 333 56299 83818
85463 555 90306
91339 32474 80408 10300 20253 30068 40074 56010 8426/ 333 56199
83818 88363 555 90306=
26045 11597 72306 10140 20097 40071 52006 69972 72992 87900   333
20107   555 31008=
17022 11556 73606 10150 20135 40146 56005 60472 78022
85270 333 20140 32014 50064 55000 20808 70602 85832
87359 92446=
70026 84836 87360 92438=
17038 11440 72805 10189 20179 40111 58004 69902 71082 86650
333 20176 31017 50201 55066 21914 79999 82715 84830 87359 92425=
17050 32970 00108 10180 20108 40201 55000 333 20121
30010 50381 55130 22370=
17060 32660 50215 10190 20150 40171 52004 83230 333 20150
30013 83835 84360=
17096 32570 30920 10180 20098 38214 48463 50000 83100
333 20010 30006 50691 55112 22408 83830 10049=
17124 11665 73010 10118 20100 39252 40149 52006 60032 78082  85250 333 20110 320
70026 85835 87360=
17128 11665 70406 10120 20067 39037 40103 53002 60042 78082 84250
333 20104 32009 50311 55012 70056 84840 86359=
17170 32970 00000 10198 20134 38325 48491 58003 333 20102 30008 10065=
17195 32670 72705 10143 20104 38910 48456 54000 84250
333 20122 30010 84835 87360 10069=
17200 11670 71204 10190 20148 39124 40053 52009 69912 70282 84270
333 20132 30011 70001 84835 87459=
17219 32565 43516 10191 20102  53004 84200
333 20170 30/// 84830=
17240 32575 63403 10130 20076 38988 40104 53006 84250
333 20112 31008 50171 55003 20384 70120 84830 86360=
17244 11670 73514 10116 20084 38945 48462 52002 60022 72588 84250
333 20098 32009 50441 55054 21893 70114 84835 87359 10096=
17280 31560 73408 10244 20113 39308 40045 53017 79511 87900
333 20134 31012 51301 55136 22844 82925 85840=
17350 32660 50305 10238 20140 40055 51002 83250
333 20202 30/// 83835 85360=
17026 11670 73106 10164 20144 40138 56003 60092 70291
84270 333 20150 32015 50221 55000 20473 70086 84835
87360 92428=
17034 11670 71603 10164 20134 40106 58008 60022 70282
84270 333 20158 32015 50264 70020 84835 87359 92428=
17070 11558 71102 10118 20109 39289 40142 53001 60042
78088 87200 333 20109 32011 50104 55000 70038 87833=
17084 12670 73607 10127 20106 39228 40108 55000 60092
84220 333 20122 32011 50111 55002 20845 70117 84835
87460=
17098 32670 20214 10176 20120 38212 48498 50006 82100
333 20064 32005 70011 82835 10096=
17160 11560 73103 10098 20087 38970 48460 53010 60082
79522 85950 333 20097 32012 50831 55066 22176 70170
82933 84835 87359 10105=
17184 32670 60210 10184 20122 40147 53002 84230 333
20152 30014 50501 55067 22125 84838 86360=
17190 11557 72906 10106 20091 39000 48482 52003 60062 78082 85250
333 20092 32008 50271 55000 20435 70241 85830 87359 10130=
17210 32975 30000 10273 20106 39070 40026 51002 80030
333 20200 30017 51104 55131 22384 83360=
17234 32670 30000 10201 20121 40119 53005 83200
333 20160 30013 50701 55098 22144 83840=
17260 32670 43204 10200 20092 39256 40013 51004 84200
333 20176 30015 84840=
17290 32970 03117 10196 20151 40101 52008 333 20184
30017 50234 55100 22221 92448=
17370 32665 30310 10246 20193 40054 53004 83200 333
20220 30019 50254 55124 22221 83835 92437=
17024 11570 82203 10157 20145 40135 55000 60062 70262
8452/ 333 20145 32014 50111 55001 70063 84633 88459
92448=
17056 32970 03303 10190 20153 40184 54000 333 20136
31012 50481 55092 22173 92418=
17067 11670 62703 10182 20150 40170 56004 60012 70282 86200
333 20140 32013 70080 86836 92408=
17092 32670 70710 10190 20086 38808 48465 52019 84250
333 20116 30010 50454 55103 22294 84838 87359 10050=
17112 32970 00206 10184 20153 40200 51003 333 20148
30013 50721 55113 22137 92418=
17115 32660 50109 10175 20092 40117 53005 85200 333 20161 31015
70040 85835=
17116 11560 63503 10154 20137 40175 53001 60032 70282 84250
333 20134 32011 50124 55001 20565 70040 84830 86360=
17188 32670 60211 10130 20076 39090 40123 52008 86200
333 20116 30011 50681 86837=
17202 32670 61906 10200 20080 39088 40061 52018 84250
333 20134 30012 84835 86360=
17248 11675 30501 10130 20077 38920 48454 52008 60192
70298 83200 333 20090 32008 50671 55095 22272 70186
83840 10079=
17292 32670 33405 10166 20085 39357 40084 53007 83200
333 20150 30014 50741 55099 22480 83840=
17330 32970 13205 10240 20126 40047 51001 81030 333
20213 30020 50801 55113 22619 81360=
17042 12670 70000 10201 20189 40109 56001 60012 84270
333 20186 32018 50074 55081 70073 84835 87460 92438=
17074 11670 80000 10114 20100 39210 40123 58002 60102
70262 8422/ 333 20104 32009 50101 55000 20428 70119
84834 88460=
17085 11560 70305 10153 20109 40087 58008 60102 79522
85970 333 20122 32012 50494 55098 22311 70096 82930
83833 87359=
17100 32970 00000 10224 20031 39152 40111 51002 333
20152 30012 50624 55086 22214=
17140 11656 80607 10100 20084 38653 48448 55004 60152
71062 8452/ 333 20096 32010 50571 55074 22206 70177
84635 88460 10084=
17203 32670 70000 10196 20123 38827 48506 51004 84250
333 20152 30014 50554 55109 22288 84840 87360 10093=
17205 32980 00702 10192 20132 38326 48492 54000 333 20090 30008
50461 55106 22226 92418 10073=
17237 32670 82907 10156 20101 40122 53005 8552/ 333
20152 31015 50351 55000 20515 70085 85637 88459=
17255 12670 43004 10230 20162 39396 40025 53002 69902 83230 333
20190 30017 50604 55107 22522 79999 83835 84360=
17270 11670 62001 10240 20137 39421 40016 51002 69902
70192 84230 333 20224 30018 50544 55121 22789 79999
84835 86359=
17275 32680 71111 10288 20059 38922 48484 57007 85130
333 20242 30021 85840 87360 10031=
17375 32975 03306 10254 20124 40052 52010 333 20216
30016 50604 55114 22090 92418=
26247 11497 82202 10153 20126 40112 56001 69932 70282 8631/   333
20110   555 31010=
83704 83073 555 53066=
12205 31458 73003 10145 20117 30199 40207 52015 71011 875//
333 10252 20123 30006 55126=
12465 32975 02003 10181 20112 39972 40197 52001
333 10203 20124 30009 55152 23616=
12560 32998 12103 10175 20093 39885 40220 53002 81030
333 10206 20107 30008 55140=
12695 32970 00502 10160 20108 39898 40231 52006
333 10173 20087 31006 55142=
12120 12497 52607 10142 20116 30178 40185 51014 60012 85200
333 10175 20125 31012 55058 2//// 70015=
12250 32497 23101 10179 20131 30100 40186 52013 81201
333 10239 20144 30011 55090=
12295 32770 52302 10185 20099 30010 40189 58005 81501
333 10192 20111 30011 55147=
12424 32999 20000 10185 20130 30048 40195 53005 82030
333 10233 20107 30008 55117=
12100 32460 73302 10144 20120 30194 40201 52013 873//
333 10174 20120 30010 55052 21859=
12105 32497 83003 10138 20128 30157 40198 52013 885//
333 10177 20108 30006 55077=
12135 11496 62803 10141 20124 30178 40181 52015 60022 71022 84631
333 10170 20132 31011 55070 70022=
12185 32970 52303 10172 20131 30040 40171 53004 80002
333 10182 20144 31013 55076=
12195 32570 62104 10162 20115 39952 40173 55002 83502
333 10204 20131 30012 55073=
12235 32497 72803 10139 20116 39990 40196 52016 875//
333 10223 20126 30010 55117=
12300 31957 12302 10167 20121 30113 40200 52011 71000 80001
333 10261 20127 30010 55146=
12360 32998 22202 10175 20119 30058 40187 53004 81031
333 10217 20133 31011 50353 55155=
12385 32998 31904 10187 20095 30016 40199 50001 80001
333 10197 20118 30011 55152=
12400 32970 30302 10178 20117 39971 40199 53018 82031
333 10252 20149 30014 55137=
12435 32965 12003 10180 20130 30026 40192 52004 80001
333 10223 20127 30011 55125=
12495 32998 31901 10162 20112 39932 40217 52003 80001
333 10187 20088 31005 55153=
12510 32799 43210 10136 20045 38440 48554 53008 83031
333 10136 20099 41998 55150=
12520 32999 10000 10149 20118 39792 40216 54000 81089
333 10202 20081 30007 50253 55145=
12570 32998 11701 10159 20100 39908 40217 55000 81042
333 10179 20070 30005 55145=
12575 32960 00000 10178 20113 39975 40222 52004
333 10200 20078 31006 55137=
12595 32997 32103 10172 20098 39972 40225 52004 80001
333 10177 20079 30004 55138 22965=
17250 11675 32406 10115 20085 38750 48454 50000 60012
72990 83200 333 20100 32009 50591 55086 22331 70024
83840 10078=
57029 74186 87/// 90548
333 10142 20086
555 796// 80091 0/010=
41170 42964 03513 10395 20121 30003 40016 333 20309 58004 555 00292=
12160 32597 73104 10164 20139 30129 40180 52014 86201
333 10228 20124 30010 55030 79999=
12210 32497 72701 10139 20124 30135 40202 52015 875//
333 10203 20087 30006 =
12230 32560 23403 10165 20117 30109 40197 52013 81202
333 10243 20122 31011 55115=
12310 31950 03603 10173 20140 30175 40204 52013 710//
333 10274 20110 30008=
12399 32998 41703 10173 20099 30047 40210 57003 81038
333 10193 20086 30006 55151=
12418 32997 53001 10182 20132 30083 40194 53012 85050
333 10235 20114 31007 55119=
12469 32998 22004 10181 20102 39977 40201 50000 81032
333 10205 20102 30008 50423 55151=
12488 32997 02304 10198 20141 30056 40205 55000
333 10198 20112 30010 55155=
12540 32997 11702 10181 20116 39971 40214 51003 81039
333 10197 20097 30006 55146=
12566 32970 10000 10160 20104 39939 40221 54000 80001
333 10217 20097 31008 55147=
12625 32984 00000 10130 20095 39248 42855 52003
333 10184 20061 31004 55134 22791=
12690 32998 00301 10151 20097 39736 40234 52003
333 10186 20073 30006 55121=
12115 32597 52807 10138 20124 30176 40189 52013
84230
333 10178 20132 30010 79999=
12125 12497 82603 10132 20116 30139 40189 52016 60022 885//
333 10207 20110 31011 70019=
12200 32565 62702 10148 20115 30198 40205 51011 86500
333 10177 20129 30008=
12272 32970 42702 10175 20109 30014 40176 52008 82032
333 10218 20155 31014=
12280 32970 62702 10170 20107 30018 40174 52004 80002
333 10206 20145 30013 55111=
12415 32999 60000 10192 20140 30043 40190 52005 85039
333 10224 20133 30010 55129 22813=
12455 32970 11803 10186 20106 39962 40199 53003 80001
333 10202 20124 31011 55136=
12497 32970 41903 10169 20094 30005 40218 50001 80008
333 10176 20066 30004 50473 55143=
12500 32998 30000 10162 20121 39796 40201 53003 83030
333 10223 20093 31006 55138=
12530 32998 41503 10183 20107 30011 40204 52005 84039
333 10223 20127 30009 55139=
12580 32970 12302 10169 20098 39988 40227 53005 80001
333 10190 20064 30004 55143=
12585 32997 12002 10145 20108 39964 40226 52003 80001
333 10200 20102 31009 50253 55158=
12600 32980 01805 10189 20087 39749 40214 53003
333 10202 20130 30007 55149=
12650 32984 11901 10104 20029 38073 48560 52004 80001
333 10108 20062 3//// 41998 55155 2////=
12660 32970 02401 10134 20104 39883 40236 51003
333 10206 20084 31006 55143=
33317 32988 02501 10175 20067 40235 53003 333 20082=
33506 32498 80205 10131 20117 40206 52001 886// 333 20120=
33587 32997 03201 10179 20077 40230 52005 333 20088=
33663 32998 00000 10159 20098 40239 53002 333 20063=
33711 32998 03508 10170 20077 40213 53007 333 20091=
33910 32598 60206 10197 20162 40151 53002 86500 333 20155=
33924 32497 80207 10161 20138 40171 52003 889// 333 88913 20160=
34519 31216 80305 10164 20157 40166 52012 71042 886//
333 20146 88705=
11406 32975 40000 10149 20117 39657 40206 52004 84040
333 20109 30006 50312 70000 84360=
11457 32986 40401 10176 20085 38954 48570 52005 84081
333 20107 31004 70000 84359=
11520 32981 52102 10188 20111 39850 40204 53006 85050
333 20146 30013 50302 70000 85360=
11636 32980 19901 10151 20102 39554 42848 53005 81031
333 20103 30006 50402 70000 81362=
11679 32970 11003 10174 20105 39743 40215 54000 80002
333 20101 30006 50382 70000 81073=
11723 32970 11002 10175 20115 39934 40223 53008 81041
333 20110 30006 70000 81362=
11766 32982 12305 10149 20082 39355 42850 53005 80002
333 20113 30009 50432 70000 81074=
11774 32980 11601 10187 20105 39959 40222 53004 80001
333 20093 30008 70000 81073=
11787 32988 11906 10121 20047 38739 48562 52005 81041
333 20089 31007 70000 81358=
70200  80000 22200 00045 20805 80050= =
62405 03061 99303 10042 41195 81008 10126 20110 40200 54000 70222
886// 22200 00116 20501 3//// 4//// 5//// 80117=
224037 219037 216037 212036 215035 206036=
102055 104052 105051 112050 116052 118055=
50862 32970 13202 10288 20089 40084 57014 80001 333 20085=
50877 32980 21802 10275 20043 40085 57017 80001 333 20120=
50742 32668 12207 10325 20006 40068 57023 81101 333 20140=
59065 32580 32202 10336 20225 40077 57025 83800 333 20264=
59021 32580 70000 10298 20217 40070 57018 878// 333 20231=
54646 32962 70903 10196 20150 40113 57012 82042 333 20146=
56137 11680 70402 10218 20081 36837 57014 69901 72500 86902
333// 00551 20076=
56116 11580 50000 10135 20047 36388 57007 69901 71798 85900
333// 00305 20053=
56223 11680 70000 10193 20030 36550 57023 69901 78000 87200
333// 00202 20061=
56331 32680 70704 10189 20030 36431 57015 86902 333// 00201
20043=
51701 11575 73205 10014 21043 36644 52003 69901 72680 874//
333 00054 21005=
52447 32980 01106 10275 20078 40075 57012 333 05109 20099=
52446 32980 00402 10266 20086 40072 57010 333 05108 20100=
52674 32580 10402 10218 20070 38002 57009 81100 333 00205
20059=
56034 32580 30000 10104 21006 35984 57008 83100 333 00301
20001=
56067 11580 71602 10129 20057 36578 57008 69961 72998 83902
333 00452 20030=
52943 32580 33404 10195 21008 36824 57013 83200 333 00302
20019=
52842 32670 12705 10210 21090 37003 57010 81100 333 00203
20019=
52825 32580 10902 10239 21025 37261 57018 81100 333 00104
20100=
56312 32680 72003 10219 20086 37092 57018 87800 333 00104
20106=
55591 32780 22202 10219 20041 36536 57013 82200 333 00102
20102=
56227 32880 73203 10204 20075 37325 57023 8213/ 333 00103
20070=
56434 32680 72002 10260 20091 37658 57027 87800 333 05102
20120=
56317 32680 73601 10209 20091 37142 57013 878// 333 00104
20080=
55585 32780 21803 10206 20069 36405 57014 82100 333 00201
20070=
55493 32780 60000 10154 20040 36062 57014 86900 333 00200
20051=
58407 32675 72703 10334 20226 40024 57013 878// 333 20266=
53399 32670 71606 10218 20037 40111 57014 82102 333// 20119=
59303 32578 20401 10345 20205 40082 57019 82100 333 20250=
56251 11680 50203 10216 20068 36955 57018 69911 70080 85100
333 00453 20093=
58626 32580 22204 10348 20226 40050 57021 82240 333// 20247=
58326 32570 83204 10276 20233 40031 57012 885// 333 20236=
58319 32562 72206 10310 20263 40018 57015 87100 333 20254=
51243 32880 72202 10228 20041 39611 40129 57005 874// 333
00700 20164=
52203 11980 70000 10324 20082 39216 40014 57014 69901 70098
80002 333 00351 20178=
51711 11680 72502 10143 20040 37991 52007 69901 76060 81112
333 00256 20090=
51356 32670 70401 10230 20097 40131 57006 82162 333 00401
20117=
52895 32670 10403 10261 20111 40032 57017 81100 333 00206
20136=
52633 32680 32702 10142 21082 36789 57005 83100 333 00206
20009=
53817 32680 41403 10210 20139 38210 57007 84200 333 20137=
53903 32580 30902 10227 20115 38053 57008 83100 333 20080=
52657 32680 33603 10207 21010 37261 57016 83200 333 00205
20033=
52974 32680 20403 10257 20049 37505 57022 82200 333 00204
20095=
78958 01462 60912 10258 20247 30133 40143 69961 72581 85801
333 O2209 10309 20248 58004 70032 83816=
91925 36/// /0402 10256 20213 30073 40131 52016
333 55073
555 1//21 58005=
91938 01565 71916 10246 20205 30150 40153 53020 69901 71582 878//
333 55010 56499 69907 84820 86640
555 11919 58020=
91943 36/// /0612 10272 20236 30138 40141 51012
333 55095
555 1//17 58008=
91944 36/// /0412 10264 20231 30151 40157 53007
333 55023
555 1//17 58009=
91948 36/// /0204 10246 20225 30080 40182 53016
333 55046
555 1//16 58012=
91954 36/// /2608 10204 20141 30134 40138 51015
333 55060
555 1//21 58032=
91958 16/// /3008 10216 20147 30112 40114 53014 69921
333 55048
555 1//33 58037=
61990 11465 51207 10246 20201 40201 60064 71582 85800
333 20185 59002 50290 94311=
61995 11468 50804 10223 20187 39717 69924 71521 85840
333 20177 59001 50270 94311=
61988 12480 41307 10258 20197 40191 69924 84200
333 20211 59007 50320 94313=
61986 32580 21219 10255 20190 40173 82200
333 20242 59003 94312=
61974 12575 21512 10283 20210 40134 69924 82200
333 20249 59003 94314=
78970 11460 80000 10251 20244 30119 40144 69951 76086 8487/
333 05299 10313 20246 58008 84815 86362 90916=
78962=
78388 32570 40000 10270 20229 40154 84800 333 01000 10329 20244 59009
82822=
91643 31599 20911 10284 20252 40085 53007 70200 82101 333 562/9
82820=
91631 11498 80906 10276 20251 40088 69931 78018 8437/ 333 5629/=
91636 31499 31108 10287 20249 4//// 70110 81201 333 562/9=
91811 11498 60815 10275 2025/ 40100 69931 72582 868// 333 562//=
91843 31599 31703 10196 20145 40177 53019 70321 83100 333
564// 83825=
91554 32575 72506 10275 20239 40089 53005 878// 333
566// 83820 87640=
91555 01450 72706 10265 20244 40095 5//// 60021 780/1 878// 333
566// 60021 82712 87818=
91557 01320 81903 10240 20240 40108 53005 60181 76088 889// 333
565// 60181 83706 85815 81920 88635=
91565 01470 81608 10210 20204 40131 53012 60031 78088 8587/ 333
5639/ 60031 82710 85818 88460=
91568 01370 82112 10220 20198 40122 53010 60081 72588 888// 333
564// 60061 83708 85818 88640
86218 31462 80413 10147 20119 40173 55022 76062 8657/ 333
60021=
86260 22370 80902 10124 20119 40160 54000 887// 333 60041 88710=
60020 32470 13309 10194 20123 30123 40167 55003 81500
333 20193 55124 92427=
60030 32560 20116 10202 20166 30099 40154 57002 82500
333 20195 55127 924/6=
60040 31570 10307 10188 20178 30141 40166 53007 702// 81500
333 20183 55113 92428=
60338 32465 80000 10210 20181 30084 57010 885//
333 20200 55044 92417=
13585 42698 10000 10150 20086 39456 40231 54000 81100 333 20096 30005
=
13598 42998 00000 10097 20062 48541 53001 333 20036 31001=
71629 36564 33406 10106 20068 39956 40186 53029 333 10240 20105
70145 555 33126 40190=
71918 460// /3013 11118 39772 40194 53001 333 11066 21118 555 33327
40181=
71923 16/// /0909 11030 21040 39809 40253 52009 69921 333 10042 21090
70014=
71201 36/// ///// 10130 333 10214 20110 70060=
10161 21044 70018 555 31117 40200=
40191=
71194 36/64 /0703 10075 20040 30088 40101 58010 333 10137 20074
70000 555 32319 4018/=
71197 36664 60915 10076 20034 30031 40079 58032 333 10141 20067
70005=
89642 42980 70906 11131 21196 39891 49947 53015 83036
333 55000 20012 8335/=
71450 36/// /1009 10103 20034 39509 40218 58007 333 10184 20030 70000
555 31818 40200=
71490 36/// /0000 11037 21047 39897 40211 57018 333 11031 21171
70000=
71103 36964 00000 10095 20046 39546 40197 53018 333 10234 20018
70010 555 30526 40220=
71115 36/// /1107 10101 20089 333 10175 20071 70016=
71121 36964 32103 10093 20005 39396 40208 51011 333 10212 20028
70005 555 31618 40210=
71127 46064 /0000 10098 20067 39505 40233 51009 333 10179 20037 555
30422 40000=
71143 36/// /0808 10106 20052 39933 40245 51012 333 10192 20070
70000=
71607 17/// /0901 10106 20101 39984 40015 56018 69921 7//4/ 333
10195 20066 70004=
71609 11232 82110 10125 20108 39879 40008 58036 69941 71098 886//
333 10221 20048 70004 90920=
71610 36264 82911 10096 20084 39798 40086 51043 333 10216 20078
70010 555 32822 40040=
71621 32974 23508 10115 20074 30068 40172 52031 82070 333
10238 20114 70136=
71624 11574 73314 10109 20070 39992 40200 51022 69901 70162
87800 333 10238 20109 70012 90930 555 33133 40231=
71625 36964 03106 10083 20062 30025 40183 51026 333 10235 20083
70000 555 32827 40201=
71627 36564 83514 10111 20066 30078 40121 51051 333 10219 20111
70005 555 33426 40061=
71628 32574 63214 10104 20054 30014 40151 51038 86800 333
10245 20101 70016 555 32831 40001=
71631 36/64 /3406 10077 20067 39726 40221 51021 333 10182 20077
70022=
71633 32774 83602 10093 20058 39953 40223 52018 885// 333
10176 20093 70014 555 32732 40190=
71700 11674 80603 10126 20110 39988 40012 57022 60011 72982 885//
333 10222 20053 70010 90911=
71705 11569 81507 10141 20106 39919 40003 57039 69901 70282
8257/ 333 10219 20077 79999 90945=
71706 11774 81409 10123 20097 39958 40016 57037 69901 70282 885//
333 10200 20069 79999 90950=
71707 11/08 91204 10087 20078 39985 40060 57027 69941 75186
333 10196 20054 70004 90942 555 31720 40180=
71714 17/// /3405 10090 20088 30003 40093 53027 60041 7//4/ 333
10132 20089 70056 555 30825 40190=
71715 17/64 /0106 10059 20058 39901 40081 54000 69981 7//4/ 333
10110 20052 70022=
71719 17/// /0317 10068 20061 30044 40050 58017 60021 7//4/ 333
10141 20037 70017 555 30319 40061=
71802 36/// ///// 10078 20055 40116 333 70000 555 32541 4018/=
71846 17/64 /2803 10005 21007 39924 40236 51008 60011 7//4/ 333
10166 20005 70010 555 33423 40200=
71851 36/// /2206 10120 20047 39909 40239 52003 333 10205 20029
70000=
71852 36864 32307 10116 20035 39944 40234 50001 333 10211 20011
70000=
71873 36/64 /1704 10081 21002 39284 40222 51002 333 10172 20000
70000=
71875 17464 80407 10083 20066 38836 40203 51003 60011 7//4/ 333
10163 20019 70015=
71725 36964 03104 10057 20033 39776 40190 51013 333 10097 20035
70135 555 33630 40191=
71726 17/64 /3201 10053 20053 39624 40157 51015 69921 7//4/ 333
10079 20046 70152=
71727 11466 82709 10072 20068 39914 40108 52011 60031 76185
885// 333 10127 20037 70072 90973=
71728 11782 73011 10074 20062 39900 40118 52008 60011 70366 87500
333 10089 20028 70070 90923=
71730 32974 22804 10042 20040 39794 40217 51012 80001 333
10149 20042 70019 555 33422 40170=
71731 13/// /0000 10051 20047 39759 40207 51015 69901 333
10147 20050 70020 555 33525 40200=
71733 36964 03105 10079 20067 39997 40234 51013 333 10155 20061
70020 555 33028 40151=
71739 32974 12302 10048 20027 39842 40204 50003 81070 333 10135 20044
70082 555 19999 29999 30625 40120=
71749 36964 02806 10060 20058 39998 40243 51002 333 10166 20060
70010=
71799 32983 10000 10106 20077 30192 40215 53009 80001 333
10184 20098 70016=
71801 32874 82510 10097 20026 39943 40112 50002 8807/ 333 10188 20059
70000 555 32736 40082=
71803 32780 72207 10102 20035 39910 40092 58008 83570 333
10183 20066 70002 555 33127 40071=
71807 36/// /2113 10083 20041 30106 40122 58006 333 10128 20060
70000=
71808 36764 83602 10032 20022 30029 40075 58008 333 10103 20018
70010 555 32425 40141=
71809 32674 70000 10076 20054 30057 40084 57015 83570 333 10165 20068
70000 555 32530 40191=
71810 36/64 /0000 10063 20037 30004 40066 58013 333 10120 20062
70000=
71813 36964 00000 10058 20046 30051 40064 56013 333 10130 20015
70005 555 32726 40151=
71814 36/// /0302 10059 20052  333 10164 20052 70000=
71815 32774 80304 10098 20067 30045 40076 57021 885// 333
10112 20070 70000 555 32520 40130=
71865 36/64 /2106 10066 20014 39566 40241 50000 333 10194 20061
70000=
71866 36964 01806 10104 20007 39621 40226 51002 333 10210 20020
70005 555 32217 40180=
71867 32774 11502 10025 20007 39909 40245 51004 81500 333
10128 20023 70000=
71868 16964 31404 10099 20055 39803 40238 50006 69951 333 10204
20019 70015 555 30219 40220=
71869 32874 20705 10102 20049 39709 40225 50003 82070 333 10203 20011
79999=
71870 36864 31407 10111 20069 39255 40212 55004 333 10167 20027
70000=
71871 32774 41803 10105 21005 39421 40214 53005 81501 333 10202 20039
70000=
71872 11569 83610 10112 20091 39361 40203 50014 60031 76162 885// 333
10203 20054 70032 90921=
71874 17564 31007 10095 20064 39117 40196 56003 60041 7//4/ 333
10197 20037 70040 555 30521 40000=
71876 32774 71308 10091 20003 39562 40217 51004 81508 333
10219 21006 70000=
71877 11559 80906 10079 20066 38959 40218 52005 60131 78122
885// 333 10167 20015 70130 90952 555 31520 40180=
71878 32974 20403 10073 21006 39152 40213 51003 80001 333 10193 20021
70000=
71879 36964 02103 10160 21011 39413 40198 51012 333 10215 20063
70000=
71881 36964 00000 10096 21004 39130 40208 51016 333 10201 21016
70000 555 30918 40200=
71882 36964 01804 10118 20084 39674 40200 51025 333 10230 20055
70000 555 31733 40220=
71883 36/// /0000 10053 20024 39394 40205 51028 333 10231 20019
70000=
71889 32774 10000 10107 20058 39790 40202 51013 81500 333 10184 20072
70016=
71891 17964 00000 10099 20087 39949 40225 51020 69951 7//4/ 333
10202 20084 70015 555 33221 40010=
71892 32483 10802 10146 20081 30208 40213 51007 81600 333 10194 20108
70020=
71816 32774 62406 10022 21015 30021 40081 53002 86500 333
10112 20022 79999 555 32728 40161=
71817 36764 82302 10043 21002 30058 40072 55003 333 10139 20028
70000 555 30926 40200=
71818 32574 71302 10042 20020 30050 40068 52004 87570 333
10098 20039 79999 555 32928 40181=
71821 36764 33106 10069 20021 39839 40182 53006 333 10143 20030
70020 555 33519 40220=
71822 36964 02604 10017 20009 39672 40145 50003 333 10092 20000
70050=
71825 32674 20000 11010 21032 39438 40101 58005 82500 333 10094 21011
79999 555 19999 29999 33218 40120=
71827 11374 83009 11024 21065 39931 40175 50005 69901 78576 885//
333 10085 21025 79999 90917 555 19999 29999=
71828 36664 83004 10010 21033 39470 40103 58006 333 10058 21001
70000 555 32625 40141=
71832 17/64 /0000 10061 20061 39888 40211 55008 60041 7//4/ 333
10159 20057 70146=
71834 32674 10206 10072 20056 39793 40217 53007 81500 333
10163 20055 70068 555 30322 40230=
71836 36964 30304 10001 21010 30202 40213 50008 333 10153 20000
70010 555 33527 40230=
71842 32974 22303 10109 20034 39758 40231 51003 82070 333 10185 20061
70006 555 32818 40180=
71850 32974 22305 10114 20055 39745 40239 50000 82070 333 10188 20062
70006=
71855 36964 00504 10080 20053 39871 40241 51011 333 10233 20013
70005 555 32725 40200=
71856 36964 00000 10090 20062 39953 40234 51003 333 10209 20007
70005 555 32820 40220=
71858 36/64 /0000 11022 21043 39976 40259 50001 333 10102 21022
70000=
71861 36764 62005 10116 20063 39526 40243 50003 333 10186 20034
70005 555 33020 40150=
71862 32874 81003 10086 20061 39546 40242 58004 82071 333
10174 20008 70000=
71863 36964 01107 10092 20057 39542 40234 58007 333 10176 20014
70005 555 31919 40200=
71702 36/// /1205 10135 20109 40010 333 10206 20099 70000 555 31622
4002/=
71434 36/// /3505 11039 21055 30161 40228 58002 333 10045 21040
70000 555 30220 40200=
40061=
71073 36/// /0000 10035 21011 39815 40232 52005 333 10178 21037 70000
555 33318 40210=
71075 36/// /0704 10031 20011 39642 40243 51015 333 10124 21030 70000
555 32621 40000=
71096 460// /0000 11094 39393 40128 53001 333 11080 21111 555 30220
40091=
10203 20082 70014 555 32618 4002/=
71261 36/// /3509 10092 20083 39963 40222 53013 333 10182 20092
70000 555 33426 40020=
71265 36564 63209 10119 20072 30106 40198 53025 333 10255 20116
70015 555 32734 40201=
71952 36/// /0000 10088 20052 39361 40198 53018 333 10238 21008
70000=
71967 36/// /3004 10132 20050 39250 40206 53009 333 10176 20033
70000=
40072=
71893 32980 11904 10125 20099 30176 40207 52011 80001 333
10207 20084 70000=
71894 36/// ///// 10105 30220 40229 53013 333 10167 20072 70000=
71896 32982 10000 10114 20041 39381 40198 53010 81070 333 10234 20014
70000=
71898 36964 00000 10106 20084 30162 40205 53006 333 10164 20068
70000=
71899 32974 13204 10090 20075 30164 40214 54000 81070 333 10130 20065
70000=
71905 11474 83115 11031 21069 30157 40170 54000 69901 77185 885//
333 10012 21032 70002 90927 555 10002 20002=
71906 32574 62703 11008 21050 30042 40089 50000 86500 333 10059 21008
70022 555 10022 20022 33225 40210=
71907 37056 93016 11022 21049 30084 40116 56005 745// 333 10011
21022 70005 555 32826 40181=
71909 36464 80808 11009 21056 30023 40066 54000 333 10009 21015
70000 555 31418 40170=
71910 36464 83613 11030 21051 30018 40082 58004 333 11004 21031
70000 555 33620 40060=
71911 46064 /2111 11100 30135 40192 58009 333 11070 21133 555 33017
40160=
71912 32774 60806 10028 21031 30051 40235 53001 86500 333
10095 21028 70000 555 3////=
71913 36964 00000 11050 21092 30214 40251 51002 333 11008 21056
70000 555 33221 40150=
71917 33574 82711 11068 21090 30070 40084 53001 8157/ 333
11044 21075 70000=
71922 32974 00000 10019 21005 39783 40251 52004 333 10135 20019 70002
=
71925 11524 82405 11007 21008 30073 40109 58020 60011 77172
885// 333 11007 21090 42028 70012 90921 93101 555 10012 20012 31820
40221=
71926 32480 83104 11068 21093 30215 40239 57001 885// 333
11050 21080 79999 555 19999 29999 33523 40141=
71928 36/64 /0000 10063 20007 39064 40215 51008 333 10180 20013
70000=
71931 36/64 /3304 10085 20012 39543 40221 51011 333 10203 20047
70000=
71932 36964 61904 10106 21007 39779 40229 53014 333 10192 21015
70015=
71933 36964 00505 10067 21005 39937 40224 53006 333 10190 21033
70005 555 31518 40010=
71934 32874 60902 10126 20033 39962 40214 53007 84071 333
10203 20032 70000=
71935 32974 61304 10124 20002 39992 40197 53001 84031 333 10160 20050
70000=
71936 32674 51904 10078 21023 39952 40208 57006 81571 333 10141 20045
70000=
71940 32982 63105 10120 20001 39412 40204 54000 82071 333 10215 20064
70000 555 33530 40231=
71943 11874 61002 10122 20020 39381 40204 55000 69901 70281 86071
333 10202 20061 79999 90960 555 33420 40000=
71944 36964 01303 10125 20021 39376 40190 53008 333 10222 20034=
71945 11766 81805 10124 20096 39733 40194 50007 69941 72982 87401
333 10204 20034 70004 90910=
71948 46364 62829 11014 30052 40164 56003 333 11006 21068 555 32836
40062=
71949 36/64 /0000 10127 20014 39346 40199 53001 333 10157 20068
70000=
71950 32982 10000 10134 20049 39577 40194 52017 80001 333 10251 20033
70000=
71951 32980 00000 10149 20057 39937 40200 53015 80001 333 10252 20082
70000=
71957 36564 33109 10003 21046 30171 40260 51013 333 10120 21002
70050 555 33021 40050=
71958 36964 02103 10131 21069 39262 40209 53019 333 10216 20004
70000 555 32720 40060=
71964 32786 70000 10118 20032 39355 40195 53008 81474 333 10188 20040
70000=
71966 46/// ///// 10155 333 10200 20046=
71968 465// 63210 11016 30199 40263 51009 333 10018 21016 555 33221
40080=
71397 11456 82003 10141 20129 39983 40016 57033 60011 79582
885// 333 10244 20094 70014 90921=
71398 36/56 /1204 10110 20104 39978 40026 58043 333 10222 20041
70000=
71400 36/64 /2101 10072 20056 40086 333 10204 20072 70007 555 32731
4015/=
71410 17/64 /1505 10136 20119 39987 40015 58042 69961 7//4/ 333
10214 20075 70006=
71411 36/16 /2212 10102 20094 30027 40037 58032 333 10133 20089
70000=
71412 46/// /1824 10086 20077 30016 40029 58034 333 10133 20086=
71430 36/64 /3413 10131 20086 30073 40169 53028 333 10187 20109
70086 555 32832 40230=
71431 36/// /3407 10125 20063 30090 40184 53029 333 10226 20119
70016=
71432 36/64 /3316 10119 20115 30103 40199 51023 333 10206 20118
70044 555 33133 40021=
71435 36/63 /3604 10072 20001  333 10156 20054 70002=
71436 36/64 /3403 10087 20082 39850 40204 53022 333 10190 20084
70016=
71441 36/// /2707 10099 20035 39943 40248 53002 333 10211 20038 70000
555 33217 40210=
71443 36/// /0303 10074 20038 39836 40243 50001 333 10212 20047
70000=
71474 36964 02105 10059 20020 38994 40222 53009 333 10167 20049
70045=
71538 32974 03408 10116 20047 30000 40227 51011 333 10257
20114 70004 555 32824 40161=
71600 46002 91913 10108 20105 30067 40073 58031 333 10149 20073 555
31917 40030=
71601 31/10 92104 10110 20110 39966 40027 58042 71042 333
10181 20095 70010 555 30921 40120=
71043 31683 62909 10144 20045 30092 40183 53012 71521 81170
333 10202 20074 79999=
71045 36/// /0000 10122 20011 39350 40194 53009 333 10185 20012
70000=
71050 36/64 /0000 10062 21001 39151 40214 5/016 333 10201 20005
70000=
71066 32874 70000 10095 21038 39784 40197 53001 82071 333 10192 21002
70000=
71068 32974 43605 10121 20030 39521 40203 50004 82071 333 10201 20062
70000=
71069 36964 33004 10129 20029 39520 40213 53013 333 10210 20021
70005=
71076 46/// /0701 10068 20009 39856 40248 53010 333 10151 21019=
71077 36/64 /1104 10084 20020 39715 40241 51007 333 10142 20047
70022=
71078 31874 62405 10068 21021 39798 40238 55000 71422 86070
333 10121 21024 70000=
71079 32974 30000 10008 21009 39962 40241 54000 81071 333 10126 20008
70000=
71081 36464 83410 11060 21081 30134 40145 51002 333 11041 21146
70000=
71082 36364 80305 11070 21087 30042 40082 56002 333 11051 21071
70000=
71083 32574 80116 11052 21090 30184 40222 53002 885// 333 11036 21076
70000 555 33225 40231=
71090 36964 02407 11078 21107 30086 40121 53006 333 11008 21092
70000 555 33124 40130=
71091 460// /0000 11068 39917 40125 51004=
71092 46964 00706 11102 39460 40125 54000 333 11065 21123=
71093 460// /1909 11092 39625 40121 53003 333 11047 21105 555 30818
40080=
71094 460// /0121 11124 39181 40083 55001 333 11102 21141 555 33628
40121=
71095 36564 80000 11061 21101 30046 40118 53004 333 11044 21135
70000=
71101 36964 02303 10119 20062 30202 40210 53006 333 10168 20075
70000=
71104 32974 00000 10097 20015 39112 40206 52014 333 10205 20027 70000
555 33519 40220=
71107 36/// /3211 10090 30106 40218 53006 333 70002=
71108 32974 03301 10115 20101 30145 40216 51008 333 10196 20091 70048
=
71109 32348 21804 10099 20092 30194 40221 52016 81600 333 10149 20063
70000=
71114 36964 00604 10116 20093 30177 40225 51020 333 10184 20101
70010=
71119 36/// /1602 10120 20002 333 10206 20048 70000=
71122 17/64 /0000 10057 20044 38628 40210 53009 69921 7//4/ 333
10160 21027 70002=
71123 31974 11802 10081 21009 39358 40212 51011 71411 81080
333 10211 20019 70000=
71125 33874 20803 10099 20035 39646 40225 52010 82030 333
10202 20014 70000=
71129 32774 81207 10120 20016 39391 40207 50000 885// 333
10193 20019 70000=
71131 36/64 /0709 10104 20057 38964 40204 50001 333 10138 20024
70000=
71138 32974 32505 10082 20020 39637 40237 51004 81031 333
10210 20038 70000=
71141 32874 10000 10027 20014 39979 40259 52009 81070 333
10124 20012 70008=
71145 32974 22304 10050 20027 39963 40260 53004 80001 333
10097 20003 70008 555 10008 20008=
71148 36/// /2403 10081 20033 39689 40264 53001 333 10182 20017
70000=
71182 36664 30000 11006 21036 39562 40096 58006 333 10081 21008
70000 555 33126 40100=
71185 36964 02010 10067 20040 30046 40069 58009 333 10098 20044
70000 555 32130 40191=
71187 17764 32804 10073 20064 30046 40073 56009 60031 7434/ 333
10132 20038 70025=
71188 11769 82702 10063 20061 30023 40063 58017 60031 76186
885// 333 10174 20012 70026 90936 555 30817 40180=
71196 36864 31907 10090 20030 30065 40101 58008 333 10173 20057
70000=
71200 36/// /2605 10128 20083 333 10178 20101 70002=
61641 32358 32506 10229 20203 30085 40118 85500
333 02000 20226 50574 55085 59001 85508=
61679 32960 02808 10242 20223 30113 40121
333 02300 20245 50434 55103 59014=
68026 32960 00000 10090 20052 48550 53014
333 20046 555 10260 30109 60057=
68029 32960 11403 10130 20077 48547 52012 81080 333 20061 555 10253
30108 60059=
68038 31960 00000 10105 20069 48582 52020 70500 333
20043 555 10237 30101 60058=
68040 32960 00903 10100 20070 48548 53014 333 20052 555 10236 30102
60055=
68054 32960 00000 10051 20033 48556 53007 333 20003
555 10223 30095 60054=
68148 32960 00000 10086 20040 48549 52017 333 20046 555
10225 30100 60056=
68234 32960 03604 10078 20036 48554 52012 333 20040 555 10235 30096
60060=
30102=
68328 32960 02105 10055 21008 48567 52015 333 20033 555
10260 30104 60062=
65352 32960 60000 10250 20240 39923 40098 80002
333 20250 59017 86076=
65361 12960 70000 10220 20216 39666 40106 60244 85032
333 20215 59009 85362 87076=
65376 32460 72804 10225 20218 39641 40103 82532
333 20223 59017 82610 83363 87076=
65387 32460 72604 10251 20242 30076 40104 81202
333 20250 59018 81810 87073=
94120 46/// /1109 10251 20019 30073 40109=
94150 46/// /1612 10249 20138 30047 40108=
94203 46/// /1212 10246 21022 30120 40131=
94207 35/// /0918 1//// 30120 40131 57014=
94212 46/// /1113 10214 21011 39655 40139=
94216 46/// /1112 10243 20001 30079 40130=
94238 46/// /1213 10198 21007 39735 40170=
94268 46/// /1306 10249 20042 30106 40121=
94287 46/// /1312 10227 20096 30142 40151=
94294 46/// /0511 10213 20045 30162 40172=
94298 35/// /1315 10217 30142 40148 52001=
94299 46/// /1319 10229 20136 30127 40138=
94300 46/// /0206 10267 21030 30161 40171=
94302 46/// /0214 10236 20073 30158 40164=
94312 46/// /0912 10236 21038 30147 40157=
94317 46/// /0909 10217 21036 39581 40189=
94319 46/// /1316 10222 21011 39833 40175=
94326 46/// /1409 10160 20024 39582 40223=
94332 46/// /1508 10209 21025 39768 40165=
94346 46/// /1506 10205 21020 39956 40184=
94363 46/// /1307 10198 20018 39954 40178=
94367 46/// /1311 10172 20092 30140 40178=
94374 46/// /1007 10205 20008 30162 40179=
94394 35/// /1514 10211 30150 40158 52005=
94403 46/// /0609 10243 21029 30170 40212=
94429 46/// /0710 10205 21007 39747 40227=
94430 46/// /1013 10207 21076 39607 40212=
94461 46/// /1309 10178 21013 39524 40220=
94462 46/// /1210 10178 20009 39649 40226=
61902 32584 61212 10252 20190 40139 85801 333 20249 59016 82825
84650=
94510 46/// /1907 10188 21044 39838 40199=
94515 46/// /1807 10175 21015 39835 40197=
94552 46/// /2410 10177 21038 39708 40189=
94578 46/// /0306 10202 20012 30169 40180=
94584 46/// /1509 10171 20069 30067 40179=
94601 46/// /0916 10161 20093 30262 40279=
94610 46/// /1013 10189 20087 30230 40255=
94637 46/// /1310 10183 20055 39829 40271=
94638 46/// /1608 10157 20088 30263 40296=
94647 46/// /1607 10154 20117 30149 40272=
94651 46/// /2313 10163 20106 30188 40267=
94653 46/// /2310 10161 20085 30237 40256=
94659 46/// /2106 10161 20029 30043 40245=
94672 46/// /2306 10135 20118 30217 40222=
94693 46/// /3108 10152 20053 30157 40221=
94703 46/// /2407 10148 20048 30092 4////=
94729 46/// /2308 10117 21014 39326 40200=
94767 46/// /1605 10143 20090 30173 40179=
94776 46/// /2907 10160 20034 30177 40187=
94791 46/// /2005 10180 20073 30167 40174=
94802 46/// /1308 10169 20088 30205 40289=
94804 46/// /2320 10136 20106 30181 40220=
94821 46/// /3008 10127 20070 30100 40184=
94850 46/// /2410 10118 20104 30098 40144=
94865 46/// /3113 10149 20073 30155 40180=
94910 46/// /2406 10061 20038 39961 40220=
94926 46/// /3411 10082 20024 39505 40194=
94954 46/// /2710 10122 20102 30028 40140=
94956 46/// /3604 10121 20094 30099 40125=
94968 46/// /0804 10069 20035 39932 40148=
94975 46/// /1003 10121 20055 30092 40125=
94983 46/// /2909 10116 20055 30110 40135=
94995 46/// /2315 10169 20101 30107 40115=
94996 41480 42515 10168 20105 39938 40067 53015 71511 84800=
95711 46/// /2305 10115 20033 39912 40224=
95719 46/// /2712 10116 20055 39873 40216=
96995 46/// /1210 10259 20236 39783 40077=
96996 41575 61414 10284 20235 30078 40082 58009 70211 81230=
94934 35/// /2215 10129 30150 40174 57005=
94974 37/// /3106 10118 30100 40123 57013 7//44=
95288 35/// /1617 10233 30119 40134 57009=
95872 46/// /3513=
86330 32997 01307 10074 20051 40193 58015=
86360 32997 00306 10082 20055 40185 57012=
86460 32998 00605 10060 20041 40197 51007=
86560 32998 00309 10099 20051 40189 53012=
86580 32997 00109 10170 20070 40201 51005=
78894 36/// /1008 10260 20219 30117 40177 58019
333 10300 20254 59001=
61666 33458 62804 10232 20214 30105 40115 86500
333 01400 20192 50701 55/// 59013 86615=
61697 32458 20108 10254 30234 40101 40115 82500
333 02100 20252 50274 5/// 59018 82613
85406 32960 00205 10161 20140 40185 54002=
85418 32965 01709 10149 20132 40161 58011=
85488 32962 01210 10117 20097 40201 57010 =
85574 31930 01801 10055 20051 39643 40218 57006 71000
333 58022 56///=
85682 11350 80125 10137 20124 40128 54001 60111 76166 8572/
333 56889 85707 88510=
85743 11230 89901 10111 20103 40090 50002 60344 76366 8372/
333 56779 83706 88509=
85799 11657 83608 10086 20079 40064 52006 69961 78186 8552/
333 56879 85640 86340=
85874 12575 43212 10015 20007 39376 49996 51018 60021 70288 84200
333 56600 84830=
85930 11496 83628 10050 20036 49824 52010 60031 76062 887//
333 56899 88714=
85934 32580 20000 10025 20012 49865 52031 82100
333   56700 82820 =
85972 11395 83230 10050 20037 49685 52046 60011 75055 887//
333 56799 88708=
65306 11558 73608 10226 20194 39777 40102 69914 79596 8597/
333 20220 58001 84620 82930 87463 94959 95877=
65319 32960 5//// 10243 20216 39578 40085 80002
333 20240 59025 85076=
65330 32460 71404 10239 20220 39669 40104 875//
333 20235 59016 87610=
65335 12460 7//// 10236 20227 39871 40095 60014 83502
333 20232 58034 83613 85076=
65344 32458 73004 10265 20245 30087 40097 82232
333 20261 59020 82813 83362 85076 94904 95814=
76113 32970 03602 10278 20212 39662 40117 52015 90550 333
10422 20232 30/// 58007=
76647 32860 30502 10235 20227 30134 40164 52003 83020 90550
333   0//// 10329 20230 31/// 55060 58002 83458=
76726 01250 83603 10180 20177 38421 40105 52021 60031 72099
889// 90550 333   10315 20163 31/// 55072 563// 58006 60037
88910=
76750 32558 60903 10255 20226 30136 40146 57005 85405 90550
333   02253 10326 20238 31/// 55062 59002 84820=
63980 11465 71317 10278 20233 40115 69924 70282 85862 911//
333 20251 50520 55099 59014 81711 85816 94314 91130=
65338 32960 72002 10240 20234 39914 40102 8703/
333 20240 59025 87363=
71473 36/// /2308 30180 53005 333 70002 555 33519 4009/=
71603 11761 82507 10140 20121 39983 40034 56020 69901 70182
885// 333 10213 20078 79999 90940=
71623 32674 83508 10109 20060 39883 40215 51013 885// 333 10234 20108
70018 555 33508 41201=
71632 36/64 /0000 10038 20038 39987 40220 51019 333 10149 20038
70002=
71475 36/// /1502 10141 20083 30127 40220 53023 333 10235 20060
70072 555 32220 4017/=
71120 11974 70805 10136 20030 39574 40222 53009 69901 70282
86071 333 10204 20064 79999 90950 555 30920 40020=
71135 36/64 /1408 10108 20032 39151 40223 55004 333 10154 20014
70000=
71140 32974 62506 10108 20061 39755 40251 53005 80001 333 10196 20010
70000=
71915 11574 83608 11043 21069 30069 40152 51006 69901 70277
86507 333 11017 21044 42006 79999 90951 555 19999 29999=
71831 11474 32102 10072 20045 39918 40197 58003 60011 70161
83801 333 10150 20040 70052 90921 555 30718 40110=
71811 32880 80000 10060 20048 30000 40067 56012 8807/ 333 10127 20046
70000 555 32222 40160=
61701 32960 22906 10245 20223 40102 80002
333 20224 50781 55102 59032 82073=
44416 42575 51706 10608 20234 39282 40019 83261 333 59002=
44438 41560 40910 10322 20269 39913 40037 70252 81130 333 58008=
44454 42565 31604 10280 20193 38616 48456 83100 333 58013=
80002 333// 20118=
47101 32478 20203 10313 20132 39971 40055 57022 82100=
92031=
47133 31656 81409 10281 20163 39986 40063 57014 70521 8451/=
92022=
47168 31656 80904 10206 20156 30002 40078 57007 71022 8252/ 333
92022=
92023=
47090 31958 51104 10181 20143 30085 40105 57010 71022 82032 333
92022=
47095 32565 23610 10298 20120 39887 40058 57021 82100=
47100 31125 61105 10167 20146 39155 40098 57005 71022 83601=
47106 31630 80504 10177 20151 30066 40110 58008 71022 8451/=
47112 32561 62508 10287 20183 39987 40064 57018 86100 333 92011=
47114 32665 42002 10312 20143 39886 40050 57019 84500=
47119 31657 52708 10306 20182 30022 40059 57017 70522 85500=
47121 32568 50206 10296 20135 39790 40049 57018 82201=
47129 32962 20705 10287 20159 30042 40070 57017 80001=
47130 31558 80705 10177 20142 30047 40104 57009 71022 8352/ 333
92022=
47131 31657 71802 10283 20163 39996 40060 57017 71022 87500=
47136 32963 61109 10259 20145 39915 40074 57011 80002=
47140 31930 82713 10229 20171 30032 40067 57011 71011 8801/ 333
92011=
47143 31950 71108 10232 20151 30018 40083 58008 70522 83032=
47146 31956 82705 10289 20185 30000 40062 57013 71022 83038=
47152 32960 80707 10206 20150 30054 40092 57007 8801/=
47155 31930 81807 10207 20162 30077 40082 57005 71022 8802/ 333
92022=
47156 31957 82009 10266 20188 39985 40067 57009 71022 8801/=
47162 31650 81805 10212 20157 30044 40081 57007 71022 8252/ 333
92012=
47170 41556 81608 10207 20173 30040 40079 58006 71062 8352/ 333
92023=
47185 41560 83408 10181 20171 39987 40070 52002 76166 8472/ 333
92033=
47189 41565 80708 10215 20179 30012 40071 53003 76066 8672/ 333
92012=
47192 32960 81104 10268 20166 30050 40075 57011 8802/=
13160 32997 01601 10180 20110 30125 40232 54000 333 20081 30004
55131=
13376 32999 00000 10144 20086 39987 40246 54000 333 20088 31005
55125=
13388 32998 01201 10147 20085 30004 40248 53002 333 20088 31007
55136=
13462 32970 00102 10232 20071 30172 40215 52003 333 20186 30///
55///=
26229 32998 82305 10129 20107 40112 53010 8807/
333 20127 91111=
26313 32997 62806 10120 20080 40115 52012 80004
333 20120 91112=
26314 11598 72305 10112 20087 40130 52021 69902 70281 84930
333 20111 91010 91112=
26324 32598 72605 10143 20107 40122 53009 87930   333 20135 86922=
26348 11499 82004 10143 20125 40127 57006 60032 70262 8661/   333
20096 86715=
26406 11959 72804 10123 20105 40146 52012 69932 71098 80030
333 20122 91111=
26422 12497 82403 10153 20127 40131 52007 69902 885//
333 20135 86617=
26446 11598 71904 10130 20111 40145 57004 60092 70282 82960   333
20120=
26544 11560 81904 10140 20118 40151 58014 60022 70282 883//   333
20130 83922=
91376 32474 80711 10278 20239 30086 40090 53005 85806 333 562/9
70005 555 90306=
17600 31457 51506 10230 20180 30043 40059 53006 70511 85800
333 20182 84617 92426=
91353 32474 70706 10294 20265 30074 40079 51007 85230 333
5611/ 70033 85818 555   90306=
91425 11474 70407 10256 20250 30072 40073 56014 60921 70282
83840 333   5611/ 70922 83618 84362 555   90306=
91434 32474 81002 10306 20261 30075 40078 56010 85230 333
5622/ 70000 85818 83362 555   90306=
71805 43/// /0000 10064 20050 30088 40116 58010=
430035 700000 710000 720000 730000 740000 750000 999 010001
020001 252471=
11024 21084=
37549 42797 41202 10264 20121 40144 58011 83530=
17090 32565 62906 10160 20111 38652 48438 58002 86900
333 20114 31010 50401 55116 22605 81933 85838 10034=
38713 32699 13203 10182 21030 48550 52024 81100 333   20195=
12270 32997 42104 10174 20120 30006 40182 53002 80008
333 10209 20128 31010 55139=
38933 12998 01802 10290 20138 40031 52008 69900 333   20198=
33261 32968 00502 10175 20090 40228 52007 333 20080=
33275 32997 03606 10159 20095 40219 52005 333 20101=
33301 32997 22002 10183 20110 40234 57006 80001 333 20088=
33325 32998 03201 10170 20080 40236 53002 333 20067 555 52003=
33377 32997 03604 10168 20074 40222 52001 333 20110=
33415 32997 01402 10152 20100 40236 57001 333 20076=
33429 32997 20502 10180 20068 40243 53007 80001 333 20112=
33466 32998 00303 10180 20104 40228 52004 333 20081=
33526 32960 00000 10146 20092 40243 53003 333 20060 52003=
33562 32997 00000 10155 20102 40237 53003 333 20082 555
31005 52004=
33614 32598 10203 10162 20102 40206 52005 81100 333 20129=
33761 32998 03506 10172 20109 40215 52003 333 20113=
33889 32998 03607 10191 20097 40202 54000 333 20118=
33902 32598 83604 10162 20124 40177 53002 885// 333 20141=
34415 31358 80702 10158 20146 40184 52004 71022 886// 333
20153 88708=
34712 31958 70204 10223 20178 40138 58001 70411 86081 333
20174=
16059 31628 50000 10196 20191 39872 40210 54002 71011 83550
333 20190 83640 83360=
16080 31956 00000 10205 20191 30085 40206 51002 71000
333 20184 30///=
16153 31996 00310 10234 20170 39944 40199 56002 71011 90545 333
20228 30/// 55087 22601 555 0114/=
16105 31910 00201 10192 20162 30201 40207 53000 71000
333 20165=
16191 32982 02106 10173 20130 30191 40208 56001
333 20122=
16158 32961 01104 10158 20146 30191 40198 53001 90545 333 20132
30/// 55120 22926 55300=
16242 31956 00702 10192 20168 30189 40192 51001 71000
333 20151 555 0////=
16310 32998 01105 10208 20178 39977 40193 53004 90545 333 20198
30/// 55130 22921 55310 555 0100/=
16261 32980 02905 10168 20113 30132 40204 53006 90545 333 20108
30/// 55127 22969 55310 95000=
16320 32960 03110 10210 20203 30179 40191 55001 90545 333 20192
30018 55120 22966 55310 555 0327/=
16420 32997 01301 10208 20145 30129 40192 53007 90545 333 20196
30/// 55119 22940 55309 555 0100/=
16429 32968 00605 10186 20163 30184 40195 53002 90545 333 20134
30/// 55125 2//// 55306=
16470 32970 01607 10210 20094 39961 40192 53001 90545 333 20194
30/// 55116 22737 55300 22022 95000=
16410 33970 00000 10206 20123 30051 40188 53001 90545 333 20180
30///=
33135 32998 00201 10193 20061 40230 53003 333 20105=
34504 31396 80405 10146 20131 40184 52007 71022 886// 333
20140 88709=
34601 32497 80207 10168 20138 40177 50012 885// 333 20138
886//=
33631 32997 00903 10170 20084
40240 53006 333 20079=
26554 11965 82103 10146 20093 40160 58020 69902 72122 8802/
333 20142   555 31011 52010 90013=
26666 32960 72204 10170 20064 40189 57005 86035   333 20134
555 30011 52010 90012=
26863 32960 62204 10183 20064 40210 58001 80002   333 20109   555
31009 52007=
26951 32965 72104 10167 20097 40219 57002 80002   333 20114   555
31011 52009 90014=
33036 32970 11901 10182 20058 40227 52006 80001   333 20084   555
30006 52003 90011=
33041 32970 12001 10174 20103 40234 53004 80001   333 20085   555
31008 52003 90012=
16066 31920 03602 10184 20143 39963 40214
52003 71000 333 30///=
16084 32960 00000 10174 20145 30046 40209 53004 90545 333 20150
30/// 55118 22564 55300=
16120 32970 00307 10238 20163 30192 40195 53002
333 20210 97075 555 0200/=
16090 31958 03301 10190 20188 30121 40201 56005 71000 90545 333
20153 30/// 55111 22653 55308=
16170 32960 00000 10203 20169 30148 40192 51002
333 20183 30///=
16206 31959 00406 10180 20163 30185 40194 55000 71000 90545 333
20148 30///=
16289 32964 00802 10226 20136 30111 40194 53003 333 20169 30///=
16405 32965 03301 10219 20145 30151 40191 53005
333 20165 95400=
16460 32958 02404 10179 20149 30179 40199 53005
333 20141 95000=
16362 32962 01102 10194 20138 30178 40196 52002
333 20140=
28867 31498 73204 10174 20098 40133 57013 72511 87300   333 20086=
36639 32599 72703 10179 20092 40150 52015 85932   333 20074=
36821 11598 70000 10178 20077 40188 52010 69900 71798 87980 333
20111 87924=
16008 42961 00000 10098 20092 38610 48567 56001 90545 333 20098
30///=
16020 32965 00000 10164 20155 39933 40218 54000
333 20153=
16110 32970 00000 10192 20155 30177 40201 56001 90545 333 20189
55128
22891 55307 555 0100/=
16134 32989 02005 10100 20035 37909 48572 58001 90540 333 20094
30/// 55098 2//// 55310=
16149 32980 00000 10175 20140 30191 40206 52001 90545 333 20130 30///
=
16219 32980 00000 10170 20097 38206 48572 57004 90545 333 20138
30/// 55120 23061 55310=
16230 32982 02103 10174 20125 30188 40201 50000
333 20115=
16252 32981 00000 10170 20002 39288 42842 54000 90545 333 20156
30/// 55117 23045 55300=
16270 32960 02405 10202 20097 30156 40208 50004
333 20122=
16325 32998 02709 10166 20117 30175 40189 58003 90545 333 20152
30/// 98070 555 0100/=
16360 32997 00309 10208 20177 30051 40183 53004 90545 333 20182
30/// 55127 2//// 55310 555 0////=
16400 33998 02103 10192 20168 39914 40198 53001 90545 333 20180
30/// 55128 2//// 55310 22/// 555 0100/=
16453 32997 00502 10198 20141 30129 40206 56006 90545 333 20194
30/// 55125 2//// 55310 98077 555 0000/=
16480 32998 00104 10216 20098 30140 40200 53005 90545 333 20190
30/// 55123 22291 55308 555 0100/=
16520 32975 00303 10191 20153 30165 40192 51002
333 20150=
16522 32998 00707 10210 20141 39961 40199 54000 90545 333 20184
30/// 55128 22997 55308 555 0100/=
16539 32997 01504 10172 20150 30074 40187 54003 90545 333 20168
30/// 555 0100/=
16550 32998 00604 10214 20163 30012 40187 53001 90545 333 20182
30/// 55123 22634 55310 555 0200/=
16564 33998 00000 10214 20134 30053 40191 53003 90545 333 20196
30/// 555 0000/=
15004 32975 01803 10128 20074 39917 40247 53002 333   20080 30010=
15020 32965 00000 10148 20082 30047 40241 58002 333 20084 30006=
15090 32965 02502 10150 20080 30114 40239 53004 333 20090 30007=
15108 32286 13604 10057 20050 38158 48570 57002 81100
333 20014 30/// 95100=
15120 32970 00000 10115 20074 39756 40247 53002 333   20072 30007=
15150 32962 00000 10153 20102 30014 40241 58001 333 20100 30007=
15200 32970 00902 10173 20085 30090 40229 53005 333 20094 30007=
15260 32970 00000 10124 20093 39721 40246 53003
333 20053 30005 95010=
15280 31/00 70514 11010 21010 37559 47107 53004 74144 87300
333 21024 3//// 41998 91120=
15292 32980 00000 10130 20088 39960 40250 54000
333 20078 30010 95000=
15310 32980 00204 10176 20103 30137 40220 53006 333 20141 30011=
15346 32972 40000 10148 20071 39961 40244 51005 84070   333 20092
30008 95000=
15350 32960 03605 10188 20115 30115 40230 52005 333 20138 30010=
15360 32962 00208 10175 20121 30178 40189 52006
222 00180 20401 333 20159 92427=
15410 32960 00000 10178 20130 30143 40237 58002   333 20110 30010=
15420 32960 03602 10187 20079 30113 40220 52005
333 20089 31009 91002 91202=
15450 32660 50905 10170 20115 30002 40234 54000 82270   333 20135
30014=
15460 32960 00203 10173 20061 30199 40223 53004 333 20091 30007=
15470 32960 33602 10156 20094 30117 40241 53013 83030
333 20110 31009=
15480 32960 03208 10172 20111 30191 40207 52007
222 00182 2////  333 20158 31012 92427 555 60063=
12345 32970 22603 10192 20125 30051 40190 52006 80002
333 10226 20130 30012 55150=
12550 32960 22602 10181 20091 39860 40207 53004 80002
333 10206 20116 30012 55149=
41240 32960 01105 10320 20265 30011 40014 333 20295 58004=
41244 36/// /0514 10388 20148 39682 40034
333 0E029 20272 58000  =
41246 32560 30608 10340 20290 30017 40022 83500
333 20283 58012 83620 =
41254 23565 13003 10285 20023 38027 48279 333 20180 58003 70072 81820=
41256 31959 00206 10348 20285 30003 40012 70500
333 20298 58007 =
41262 36/// /1408 10369 20168 39823 40010
333 0E031 20285 58000  =
41268 32960 03303 10390 20268 39998 40013 333 20291 58003=
41288 31359 32310 10307 20245 30010 40032 70600 82601 333 20261 58000 82708=
41304 36/// /1004 10388 20115 39711 40028
333 0E028 20277 58000  =
41312 36/// /1704 10303 20260 39994 40035
333 0E/// 20283 59005  =
41316 32565 42005 10325 20243 30007 40032 82501
333 20293 59004 82625 83080 =
26645 32670 81703 10162 20086 40166 57007 8257/   333 20128   555
30011 52011 90011=
26659 32960 52304 10170 20073 40190 57010 80001   333 20134   555
30011 52010 90010=
26763 32965 82104 10173 20071 40204 57004 80007   333 20098   555
30009 52008 90013=
26832 32965 61804 10170 20080 40188 57010 83031   333 20126   555
31012 52009 90012=
26887 32970 32202 10169 20092 40222 58002 80002   333 20074   555
31006 52005 90011=
26961 32965 22204 10189 20062 40218 57001 80002   333 20070   555
30007 52003 90012=
33027 32965 62301 10178 20082 40231 54000 80006   333 20070   555
30006 52004 90011=
11414 32984 40000 10192 20112 39505 42842 52005 83031
333 20118 30008 70000 83363
555 360// 50140 60139 70139 80130=
11438 32980 21401 10178 20119 39822 40205 52006 82030
333 20116 30008 50272 70000 82363
555 368//=
11502 31978 19901 10178 20106 39763 40203 52008 701// 81030
333 20150 30009 50322 70000 81360
555 363// 50155 60155 70157 80138 90126=
11538 32684 40901 10177 20115 39621 40206 52004 81231
333 20130 30008 70000 81833
555 367// 50165 60171 70161 80137=
11628 32870 30000 10170 20111 39592 40205 53002 82049
333 20108 30005 50492 70000 82358
555 368//=
11643 31984 10501 10168 20125 39270 42839 57002 702// 80001
333 20090 31005 50342 70000 81070
555 376// 50130 60124 70126=
11683 32980 11802 10166 20108 39365 42847 52005 81040
333 20114 31009 50322 70000 81361
555 369//=
11693 32966 10702 10152 20096 39749 40226 52005 81031
333 20101 30004 50372 70000 81360
555 369//=
11698 31981 19902 10155 20090 39823 40222 52007 703// 80009
333 20097 30009 50382 70000 81176
555 366// 50167 60196 7//// 8//// 9////=
11710 31970 11602 10159 20091 39621 40220 52005 702// 81041
333 20106 30005 50372 70000 81360
555 364// 50136 60136 70146 80139=
60360 31940 02202 10192 20187 40162 56011 70140
333 01300 20167 95950=
60390 31506 50000 10170 20170 40160 53005 74441 85200
333 01100 20145 85720 95990=
60402 32560 22404 10170 20156 40161 53007 81202
333 01300 20152 81820 95900=
60419 32970 01205 10189 20165 40150 53003
333 01200 20153 95900=
60490 32458 70000 10209 20189 40149 54000 87502
333 01600 20200 87616 95990=
60525 32958 01206 10238 20167 40174 51018
333 02200 20226 95900=
60531 31430 60000 10196 20180 40153 58001 71012 86602
333 01800 20186 86710 95970=
60566 32660 40000 10258 20105 40142 53003 83202
333 0//00 20250 83846=
60571 32958 40408 10255 20071 39246 48551 58002 81082
333 0//00 20248 81360 84073 95900=
60580 32960 00814 10268 20138 40130 53006
333 0//00 20258 =
60590 32965 30000 10235 20102 40125 53014 81032
333 01900 20220 81361 83073
60611 32960 20614 10219 20110 40116 51009 82030
333 0//00 20200 82360=
60630 32965 10612 10270 21004 40098 53002 80001 333
333   02100 20255 81075=
60670 32780 11010 10241 20061 39044 48515 53007 81100
333 01800 20208 81850 95900=
60680 32965 01010 10240 21022 38632 48500 53007
333 01500 20205 95900=
38149 42998 00404 10242 20128 40219 54000   333 20135=
38178 42998 00606 10207 20053 40212 52010   333 20111=
38262 42998 01404 10235 20078 40221 52011   333 20103=
38264 35998 00906 10243 20002 30221 52011   333 20110=
38396 42997 00806 10235 21044 40225 52008   333 20128=
38403 42997 00908 10223 20059 40211 52015   333 20154=
38462 42699 32303 10173 21025 38765 48524 52010 83900   333 20050=
38565 32998 00606 10215 20009 40163 51002   333 20123=
38579 32998 00202 10223 20006 40179 52007   333 20106=
38583 42997 03203 10233 20103 40182 52009   333 20109=
38611 42797 21906 10244 20056 40132 51011 81202   333 20164=
38618 32999 52704 10249 20000 40113 52006 80009   333 20204=
38683 42997 03607 10245 21009 40183 52011   333 20154=
38812 42997 03306 10273 20067 40140 52010   333 20176=
40357 42960 01714 10325 20000 39421 40011 333 20240 59036=
40360 42960 03014 10230 20070 39497 40052 333 20176 59007=
40361 41957 02620 10290 20020 39293 40009 70740 333 20230 59025=
40362 42962 01115 10340 20050 39532 40012 333 20271 59022=
40373 42960 00000 10362 20010 39636 40021 333 20270 59002=
40375 42960 03504 10270 20090 39220 40043 333 20220 58004=
40377 42960 01206 10370 20040 39578 40020 333 20254 59011=
40394 42962 02505 10334 20040 38964 48476 333 20211 59006 555
04410 50000=
40400 42960 03108 10275 20250 30024 40051 333 20210 59001=
40405 42960 02408 10330 21030 39310 49994 333 20240 58003=
40416 42960 03612 10390 20140 39987 40005 333 20290 59001=
40430 42960 00000 10330 21030 39350 40025 333 20250 58005=
40437 42960 01610 10370 21020 39366 40016 333 20270 58001=
40438 42960 01610 10360 20010 39378 40033 333 20290 58003=
40439 42960 02703 10330 20170 30022 40034 333 20230 59012=
41024 42960 03608 10300 20180 30016 40035 333 20238 58001=
41030 42960 00000 10390 20150 39756 40012 333 20300 59006=
41036 42960 00000 10300 20060 38539 48483 333 20183 58008 555
04410 50021=
41055 42960 03615 10290 21020 38348 48489 333 20220 59002 555
04410 50021=
41084 42960 00204 10306 21020 38819 48480 333 20230 59006 555
04410 50023=
41114 42560 31014 10275 20025 37964 48472 82431 333 20196 59004
82625 81359 555 04410 59994=
41128 42960 00000 10340 21050 38764 48481 333
20200 58007 555 04410 50007=
41140 42560 22508 10340 20290 30025 40033 82100 333 20290 59005
82825=
41883 32456 30000 10345 20260 30000 40020 83500 333 56900 59013 70000
83618=
41891 31450 60902 10335 20250 40026 70544 84431 333 56999 59017 70000
83615 83365 80480=
41907 32558 51301 10345 20270 30008 40026 85200 333 56900 59001 70000
85825=
41923 32450 63601 10336 20260 30018 40028 85431 333 56499 59007 83618
83826=
41936 31456 60305 10350 20260 40026 70522 83830 333 56990 59005 70000
83615 83362=
41943 32960 20000 10340 20230 30028 40034 82030 333 56090 59011 70000
82362=
41950 32450 70000 10328 20280 30024 40028 85430 333 56990 59003 70000
83616 86362=
41978 11456 30000 10336 20270 40024 69951 70296 82430 333 56990 59013
70162 81615=
41992 32456 52405 10325 20260 30012 40016 84470 333 56990 59014 70000
83615 84825 84362=
60355 32960 01804 10202 20180 40160 55004
333 0//00 20185 95900=
60445 32965 10000 10190 20120 39011 48544 54000 80002
333 01100 20171 95900=
60511 32965 30000 10186 20085 39071 48540 55001 81032
333 01400 20160 81359 83073 95900=
60535 33970 10000 10173 20106 38859 48544 53001 80001
333 01500 20164 81070 95900=
60550 33960 10000 10201 20046 38698 48548 56002 81039
333 01500 20196 81360 95900=
60555 32960 01212 10238 20160 40153 53008
333   02300 20235 =
60559 32960 01018 10218 20182 40158 53007
333 20210=
60607 32950 00307 10281 21090 40127 50000
333 0//00 20280 =
60620 32965 00412 10260 21007 40102 53008
333 0//00 20240=
60640 32960 00908 10250 20063 40092 53007
333 0//00 20230=
38647 32997 01503 10296 20023 40162 51007 333   20219=
38774 39298 01101 10290 21009 40185 52022 333   20220=
38799 32997 00202 10183 20100 40183 52023 333   20150=
38806 32997 03604 10274 20000 40156 52021 333   20143=
38886 32993 00601 10290 20256 4067 52020 333   20180=
38915 32998 01801 10291 20061 40136 51010 333   20179=
33019 32960 22802 10178 20099 40225 52002 80001   333 20098   555
31008 52004 98813=
47407 42/80 73606 10172 20103 39929 40064 56018 87903=
47409 41/70 80404 10088 20063 30040 40092 57008 70282 882//=
47418 42/60 81406 10115 20089 30046 40090 56018 886//=
47421 41/60 80601 10127 20114 30038 40083 56002 78082 8527/=
47430 41/70 22304 10179 20103 30027 40078 57016 70181 82381=
47570 42/75 63410 10265 20118 39810 40048 56029 82362=
47605 42/60 70209 10216 20170 30040 40078 56012 81232=
47663 41/60 71502 10205 20193 30051 40082 56023 76166 8172/=
47675 41/65 82313 10227 20176 39991 40082 56016 72162 8112/=
47741 42362 81010 10207 20165 30053 40078 56010 85807=
47746 41/58 83108 10207 20165 30061 40079 55009 71002 8287/=
47887 41440 83104 10205 20184 30028 40067 58019 76166 8372/=
26941 32960 52603 10168 20093 40213 57002 80009   333 20101   555
31009 52011 90012=
VRWB7   03064 99197 11137 41598 30710 10300 20253 40097 54000 70222
8319/ 22285 00300 20303 315// 40503 80265=
98135 31470 60405 10310 20261 40094 57028 70544 85362 222//
20302 333 56999 81918 84819=
98232 31575 60404 10321 20279 40075 57019 70544 82372 222//
299// 333 56999 82920 83075=
98329 31475 41603 10338 20259 40070 5/013 70544 82951 333
56999 82918=
98653 31470 71202 10320 20260 40070 57020 70544 81270 333
56999 81818 86358=
20046 31364 73002 11016 21046 40042 52006 77172 875// 333
21016 86708=
20069 41242 82109 10004 20001 40074 58005 71042 886// 333
88706 91112=
20087 42268 82508 10002 21001 40084 52009 886// 333 88705
91112=
20292 42380 82613 11001 21004 40122 52009 886// 333 88707
91117=
20674 41766 81905 10021 20002 40124 57019 76164 8807/ 333
88450=
20891 42997 79901 10080 21014 40181 58001 87030=
29328 41498 83302 10111 20074 40059 53009 78082 889//   333 84711=
29348 41697 72601 10137 20122 40015 57008 70265 87500   333 87633=
29405 42597 62301 10148 20016 40062 57007 85330=
29937 41698 52606 10160 20015 40116 52027 70282 83501=
22113 32584 11705 10153 20019 40065 58018 81200 333 20081
91008=
22271 31580 11505 10120 20077 40116 57007 70240 81500 333
20010=
22820 32499 71903 10112 20070 40075 57030 87500 333 20084
87614=
22887 32570 39902 10167 20071 40153 57003 83100 333 20110=
26781 32997 72403 10169 20081 40207 54000 80001 333 20088=
27037 32970 51903 10173 20045 40166 58010 80001 333 20061=
33345 32998 00302 10189 20078 40239 52007 333 20115=
33393 32997 21703 10152 20089 40229 53003 80001 333 20074=
33658 32997 00000 10161 20082 40243 56003 333 20090=
33791 32597 63606 10154 20117 40190 52006 86500 333 20130
86620=
33837 32998 20103 10191 20109 40192 54000 80009 333 20147=
33946 31235 80105 10160 20155 40144 58001 71022 886// 333
20147 88704=
34300 31496 80106 10148 20121 40200 53007 71022 885// 333
20134 88613=
34560 32962 60000 10258 20110 40158 52006 86030 333 20168=
34691 32998 60905 10296 20078 40170 5/005 80002 333 20150=
34866 32998 60903 10290 20106 40135 58006 86031 333 20174=
34880 32997 51004 10283 20120 40164 52005 80001 333 20181=
37472 32998 30705 10217 20178 40114 50002 83030 333 20188=
48071 32566 83201 10313 20267 40014 82306 333 56709 59020=
48077 32461 81801 10320 20248 40035 85930 333 56490 59011=
48325 01562 60000 10290 20253 39791 40030 60031 70162 84806
333 58000 60037 70028=
48357 32565 51102 10315 20244 39895 40059 82346
333 58012 70042=
48403 32562 70000 10315 20244 39835 40026 84941
333 59018=
48405 01560 70000 10300 20243 39889 40048 60021 70262 85576
333 58010 60027 70028=
48425 11562 61501 10316 20251 30027 40037 69901 70162 83256
333 58003 70026=
48430 12560 60000 10303 20241 30030 40038 60021 83963
333 59005 70445=
48450 32560 61201 10312 20240 30003 40036 84836
333 58000=
48459 21559 81601 10292 20254 30038 40041 76096 8657/
333 59003 60065=
48550 01558 72604 10277 20242 30058 40065 69901 76062 82876
333 58003 69905 70215=
48551 01456 80000 10273 20243 30059 40067 60061 72166 84877
333 59004 60027 70121=
48565 11460 82202 10287 20263 30055 40066 60061 72162 82257
333 59003 70171=
48568 01459 72405 10295 20234 30061 40069 69901 72162 83866
333 58004 69906 70016=
48569 01459 80000 10257 20240 30033 40073 60171 76166 83876
333 58006 60177 70194=
48583 11560 70000 10394 20241 30060 40065 69901 70262 82146
333 59002 79999=
96011 01560 81602 10266 20233 30033 40056 58009 60021 70262 83532
333 56000 69907 83620=
96035 32461 70504 10322 20254 30031 40063 58006 84236
333 56000 57801 84818 80859=
96073 32562 72703 10316 20225 30054 40061 57006 83722
333 56000 57802 81820 80865 82623=
96509 11460 70000 10308 20253 30066 40099 57014 60171 70262 84231
333 56000 57801 84815 80860=
96607 32462 70000 10308 20242 30074 40088 56002 83221
333 56000 83817 86459=
96739 11556 80702 10268 20234 30025 40074 56009 69901 70562 83171
333 56000 83820=
48327 11562 70503 10293 20232 39680 40028 69901 71562 84973
333 59020 70003=
48331 32565 62401 10314 20253 39818 40041 82276 333 58010
70020=
48353 01558 81802 10273 20244 39766 40051 60021 71562 89836
333 58018 69957 70370=
48356 01568 30702 10306 20247 39860 40052 60041 70161 82131
333 58010 60017 70133=
48375 01562 73201 10274 20245 39798 40022 60071 70162 84876
333 59009 60077 70165=
48378 11460 70000 10310 20249 39982 40034 69941 70262 85876
333 59005 70107=
48381 32565 61603 10296 20244 39833 40052 85245 333 58011
70005=
48407 31560 60903 10297 20235 39914 40053 70161 85241 333
58008 70126=
48431 32560 71203 10305 20237 39835 40043 84836 333 58002
70256=
48432 01560 61202 10258 20239 39986 40051 69951 72162 83946
333 58001 69945 70053=
48455 01459 80000 10259 20246 30038 40043 60201 79592 86973
333 58006 60206 70207=
48456 01458 61706 10270 20261 30024 40041 69981 76022 81976
333 58000 69985 70041=
48480 01420 80000 10252 20249 30054 40058 60711 76366 8687/
333 58010 60437 70958=
48500 11563 60000 10296 20248 30042 40048 69901 70252 83107
333 59002 79999=
48008 32558 32202 10320 20257 40042 82930 333 56560 59004=
48025 31456 61401 10306 20250 40039 75095 84970 333 56320
59007=
48035 32560 50000 10289 20230 49994 83930 333 56790 58007=
48042 32558 41302 10344 20257 40021 84800 333 56300 59002=
48053 32558 61801 10335 20250 40022 83946 333 56599 59014=
48060 32556 70000 10270 20211 40038 84970 333 56560 58017=
48062 /2562 81303 10295 20270 40017 84930 333 56190 59019=
48078 21550 51801 10291 20256 40032 76165 83331 333 56499
59011=
48108 32596 81302 10298 20253 40043 84267 333 56349 59025=
48109 32497 61802 10285 20250 40025 84970 333 56590 59019=
24266 41699 70204 10182 20029 40066 53004 72582 86206 333
84937=
24329 42699 33101 10127 20059 40159 51004 83100=
24382 42698 80603 10155 20032 40075 56002 8693/=
24507 42698 61601 10207 20062 40130 57010 86100=
24688 41699 73602 10126 20017 40061 57002 71482 87931=
24817 42599 50102 10228 20085 40072 58001 85400=
24908 42679 70303 10260 10107 40069 52003 84930=
24944 41597 82905 10213 20143 40030 57003 79598 84937=
29594 42699 72705 10222 20119 40042 53006 86962=
29634 41457 82905 10101 20090 40067 52034 78088 883// 333
86926=
29676 41698 81202 10189 20153 40055 52027 70262 888//=
30054 41598 71704 10218 20139 40050 57006 79598 85907=
30393 42599 83502 10240 20055 49982 57013 83901=
30433 42699 81302 10081 20019 40059 54000 82101=
30469 41998 61403 10322 20056 49938 57064 70422 82042=
30554 42598 81906 10295 20055 49960 57024 85901=
30603 42998 80903 10240 20098 40024 57015 80002=
30612 42599 80903 10124 20136 40041 57017 82135=
30635 42899 83503 10207 20109 40041 58009 85052=
30692 42997 02304 10304 20089 49976 57031=
30802 42999 83004 10264 20055 38628 48427 57016 82031=
30879 42999 82104 10306 20139 40029 57013 80002=
30925 42699 51803 10333 20111 49986 58016 81104=
35700 32998 21907 10264 20074 40189 52008 80001 333 20200=
35925 32998 02005 10271 20023 40223 52006 333 20129=
36034 42699 82705 10160 20004 40133 52016 82200=
36061 41599 82906 10153 20073 40111 52028 78082 87401=
36982 42598 82309 10007 21044 36490 47029 54000 8695/=
38001 32998 51410 10284 20192 40153 54000 80002 333 20218=
38353 12597 60000 10161 20073 40181 52012 69900 86900 333
20124=
38392 32998 00704 10239 20025 40221 52015 333 20163=
38613 42999 61802 10223 20038 40132 51004 85092 333 20171=
38696 32999 00905 10213 21022 40155 52012 333 20014=
38750 32997 02703 10263 20204 40146 53017 333 20178=
59995 32480 73203 10287 20245 30066 40074 57012 86202 333XX 20273=
UAHV 03064 99280 51669 41597 62612 10215 2016/ 40165 55005 70320
8683/ 22254 0021/ 20101 312// 41407 80180=
ELXD6 03063 99354 51307 /1/94 /0128 00/// 10188 20182 40180 51010
6//// 76366 8//// 22223 00180 2//// 3//// 4//// 5//// 6//// 80185=
VJDK 03063 99085 31250 41498 10606 10275 20181 40077 56020 70281
81500 22243 00288 20201 307// 40402 5//// 6//// 80215=
C6FD9 03064 99061 31027 41499 70404 10290 2025/ 40104 70222 87368=
SHIP 03064 99124 31308 41/97 21415 10250 41103 70000 222// 20201
314// 40201 5////=
ELMA4 03064 99161 31547 41597 61322 10250 20207 40120 56010 70202
85468 90535 22243 00260 1XXXX 2XXXX 3XXXX 4XXXX 5XXXX 6XXXX 80220=
ELMQ 03064 99304 31541 41197 41222 10200 20184 40126 51010 70360
84200 22253 00200 20805 32220 40706=
SHIP 03063 99121 31231 41/97 31118 10260 40100 70200 22211 20202
31011 40204=
96163 32568 52704 10322 20229 30058 40065 57008 82231
333 56000 57802 82820 80850=
02186 11320 80902 10083 20079 39941 49966 57024 69922 76165
877// 333 20075 30/// 87706=
02226 12589 62905 10042 20004 39598 40051 52014 60082 84570
333 20037 31/// 84626 83359=
02464 46/// /2804 10119 20018 30081 40098 51025 333 20099=
02590 46/// /2504 10103 20075 30068 40130 52018 333 20094=
02836 32984 51002 10137 20047 40016 57023 70211 80008 333
10146 20040 30002=
02935 47584 71903 10108 20092 49977 57010 70086 87/// 90552
333 10110 20086=
03005 11482 33508 10070 20008 40210 52018 69902 70181 83800
333 20065 31003 82816=
03772 32664 71801 10134 20112 40181 52002 81531 333 20121
30009 81636 87366=
03917 11480 60704 10084 20063 40194 53001 60012 70262 8353/
333 20080 31009 81710 83656 86358=
03953 11358 73201 10128 20122 30121 40157 53003 69902 71052
876// 333 20112 31007 55002 85708 86628 92426=
04018 41482 61703 10061 20040 40196 56005 71581 86360 333
82915 86635=
04077 42382 11404 10016 21009 40208 57006 81200=
04320 31284 31003 11077 21090 30093 40109 57015 74011 82608
333 11024 21084=
04360 12884 72802 10016 20012 30099 40164 57006 69902 8707/
333 10048 20015=
06610 35868 50000 10152 20132 39629 40200 54000 84081 333
20125 30/// 55111 82358 83361=
07149 32958 70302 10177 20157 30066 40172 53005 86081 333
10251 20163 30/// 70000 86360 85075=
07510 01235 81402 10155 20147 30108 40181 50017 60102 72196
877// 333 10256 20151 32015 55084 69987 70096 87704=
07650 32960 11701 10207 20136 30158 40196 52007 80002 333
10250 20168 30013 55137 70000 81076=
07761 32970 00503 10199 20127 30184 40195 50000 333 10242
20148 30014 55132 70000 95000=
08509 32761 24951 10106 20083 30205 40271 56010 81530 333
20100 55080 81650=
10385 32959 10401 10179 20141 30141 40201 51011 81032 333
10275 20153 30012 55132 55310 70000 81364=
10637 32975 30502 10182 20147 30058 40191 53007 81081 333
10268 20147 30011 55111 55310 70000 81363 83075=
10870 32973 11201 10148 20137 39688 40209 53004 81080 333
10245 20119 30010 55123 55309 70000 81363=
16560 32970 03201 10182 20128 30187 40193 53001 90545 333
20156 30015 55122 2//// 55300=
17609 31459 22204 10239 20166 30052 40054 52005 70511 82100
333 20188 50841 55128 82816=
12330 32970 23503 10178 20131 30086 40191 52012 82030 333
10245 20103 30009 55111=
12375 32980 52103 10185 20104 30069 40195 54000 82082 333
10215 20113 31010 55154=
12843 32975 00801 10188 20076 30067 40232 52003 333 20112
55133=
13272 32980 01702 10178 20123 30113 40230 53030 333 20111
30003 55134=
21802 42999 82807 10039 21001 40179 52004 8807/=
23256 32999 01002 10137 20009 40149 57011 333 20046=
23274 42998 03601 10174 20048 40148 57003=
23330 32598 81903 10187 20015 40107 57011 83231 333 20100=
23383 42699 60204 10119 20021 40160 58003 82531=
23472 42699 20804 10193 20061 40124 58013 81101=
23631 32999 21305 10177 20027 40114 57005 81031 333 20122=
23678 42598 60703 10190 20098 40083 57016 85904=
23734 32998 21604 10157 20046 40123 58003 81031 333 20093=
23849 42796 30805 10147 20013 40116 52001 83100=
23884 42570 80602 10178 20114 40056 57017 8251/=
23891 42598 81005 10218 20107 40070 57007 86906=
23933 12597 10703 10133 20067 40132 52002 69900 81100 333
20090=
23966 41597 80402 10139 20081 40058 57020 70282 889//=
25400 42599 32902 10190 20045 40083 57010 83100=
28275 32999 00605 10165 20002 40096 52009 333 20130=
28382 11698 30305 10151 20004 40078 52002 69990 70281 83200
333 20097=
28493 32599 80604 10136 20019 40072 57007 86901 333 20052=
28573 11689 43204 11155 20086 40075 57008 69900 70181 82530
333 20116=
28698 11598 82402 10125 20076 40065 57023 69910 76062 885//
333 20093 88627=
28722 32998 02304 10267 20135 40165 58003 333 20164=
28786 31598 82004 10159 20059 40089 57018 70282 84352 333
20095=
29253 41899 83201 10114 20112 40021 57010 70262 8801/=
29263 41498 81402 10148 20124 40026 53004 70298 8695/=
29282 42598 81202 10281 20089 40031 57012 889//=
29430 41498 80201 10119 20111 40016 54000 70282 889// 333
88914=
35067 32998 6//// 10227 20025 40145 57020 83036=
35121 32998 02802 10258 20160 40189 58001 333 20154=
38763 32998 00906 10288 20089 40157 52006 333 20195=
38911 32998 03305 10284 21007 40137 52006 333 20159=
38954 32899 60000 10172 20073 48460 52007 69990 86900 333
20120=
38987 32996 00103 10265 21033 40147 52007 333 20115=
86068
22261 00023 20503 325// 40808
333 80007=
22212 00229 20302 31900 40403 50000=
62402 03064 99548 10046 415// 50912 10095 20048 40220 51005 7////
855/6 22200 00100 20201 332// 40502 5//// 80072=
58022 70222 885// 22243 00001 20504 81022=
80425 11460 21302 10252 20186 30086 40117 69901 70252 82500
333 30/// 56900 58005 82613 1011=
80427 32960 03402 10236 20222 39884 40136 333 30/// 58002
1015=
80431 32560 60701 10239 20218 39619 40090 8252/ 333 30///
5699/ 59010 82620 84460 1012=
80403 32465 50907 10260 20226 30136 40155 81530 333 30///
56990 58009 81616 84356 1015=
80407 32460 30202 10274 20209 30039 40114 83800 333 30///
56900 59002 83816 1011=
80410 32460 60903 10220 20190 39460 40174 8352/ 333 30///
5699/ 58004 83616 83457 1017=
80415 32560 20501 10251 20234 30091 40145 82500 333 30///
56900 58001 82620 1014=
80419 12360 82001 10221 20195 30107 40116 60041 8352/ 333
32/// 5699/ 58007 83610 85458 1011=
80428 32960 00902 10232 20218 39932 40113 333 30/// 59002
1014=
80435 32460 83602 10241 20223 30064 40140 882// 333 30///
562// 58004 88713 1014=
80438 11240 72001 10184 20170 38535 48533 69931 70125 876//
333 31/// 569// 58000 83703 84610 1022=
80444 11360 80702 10245 20236 30088 40139 60021 75025 885//
333 32/// 562// 58007 88610 1013=
80447 32560 21802 10226 20172 39687 40104 82500 333 30///
56900 59001 82623 1015=
80457 32460 80201 10243 20236 30047 40132 855// 333 30///
569// 58005 88610 1013=
41598 72010 10250 20229 40090 57017 70222 86232
22243 00235 20202 323// 40303 5//// 80235=
41697 62716 10216 20206 40120 55007 70211 85411
22232 06192 1//04 20202 328// 40704 80209=
83090 22281 00234 20502 306// 40704 5//// 6//// 80240 ICE /////=
15613 18001 19004 22055 23101 35081 36078 50057 51000 52000 53000
70075 71066 72710 73139 74499 75138 76916 77000 05262 07349 10016
11029 12314 14705 15614 18000 19004 22055 23101 35078 50057 51000
52000 53000 70078 71066 72709 73138 74500 75111 76961 77000=
10805 70025=
62120 03064 99564 10021 46998 ///// 1//// 20030 40231 52002 22200
80071=
86500 22223 00100 20302 334// 40606 80112=
62103 03064 99499 70029 46/98 ///05 10120 20110 40177 57006 22200
00119 10904 70019 555 05006 10023 11039 12420 13419 14934 15584
17171 35084 36072 05005 07160 12422 13420 14920 15583 17173 35085
36077=
62301 03063 99523 70045 46/// /0103 1//// 2//// 40170 22200 00143
10602=
51368 52005 53089 70003 71066 73126 74500 75194 76952 77000=
11127 12412 13430 14802 15595 18003 19002 22055 23022 35063 36091
50048 51429 52012 53270 70001 71999 73129 74012 75442 76900 80080=
53201 70001 71999 72159 73127 74012 75434 76900 80101 05332 07006
10109 11147 12409 13424 14893 15588 18006 19001 22055 23053 35065
36125 50050 51595 52013 53201 70001 71999 72619 73129 74012 75435
76900 80078=
83470 22200 02144 20202 336// 40705 5//// 80115=
81100 22265 00194 20305 332// 40405 5//// 6//// 80170 ICE /////=
55578 32780 11402 10190 20044 36390 57012 81100 333 00101
20100=
55664 32880 10000 10165 20044 36041 57010 81100 333 00101
20036=
55773 32670 31103 10115 21007 36057 57001 83200 333 00105
21002=
55680 32880 13204 10178 20028 36254 57014 81100 333 00101
20048=
55569 32780 30000 10198 20006 36245 57014 83200 333 00102
20095=
55572 32780 22504 10192 20059 36268 57012 82100 333 00102
20051=
55655 11680 41606 10148 20067 36508 57006 69901 70080 82400
333// 00101 20070=
56188 32670 72502 10292 20201 40027 57011 81130 333 00303
20209=
51076 11680 20000 10202 20059 39305 40146 57003 69911 70080
82102 333 00852 20121=
51288 32680 13606 10181 21031 38329 57011 81102 333 00555
20076=
51431 32780 72706 10212 20058 39384 40141 52014 82402 333
00202 20118=
51463 32778 80205 10168 20102 39075 40127 57007 885// 333
00455 20124=
51644 32780 72001 10263 20083 38848 40020 52003 81432 333
05308 20134=
51334 32780 70701 10239 20069 40143 57003 82532 333 00751
20135=
51730 11670 70000 10240 20096 40032 52010 69901 72580 82902
333 00101 20142=
51241 11680 73603 10149 20051 40164 52004 69901 72560 879//
333 00500 20090=
51365 32680 62902 10243 20104 40115 57014 83102 333 00652
20117=
51477 32680 23207 10195 20094 40106 57015 81402 333 00555
20090=
51720 11580 80000 10175 20113 40071 52022 69921 78080 889//
333 00358 20150=
51346 32780 70402 10216 20073 40133 57002 874// 333 00500
20154=
57806 32580 62005 10255 20177 40056 57012 82140 333// 20202=
55299 32780 50902 10128 20029 35903 57013 85400 333 00108
20014=
55279 11680 40707 10077 20016 35755 57009 60041 72980 82902
333// 00103 20017=
56106 32780 40401 10162 20038 36252 57020 84400 333 00106
20060=
55472 31780 71407 10164 21033 35775 57014 71400 87900 333
05109 20019=
55294 32780 43602 10110 20013 35776 57012 84200 333 00203
20004=
56202 11680 62507 10114 20030 35917 57011 69901 78080 85902
333// 00300 20029=
52424 32980 70905 10308 20075 40019 57010 80002 333 00102
20149=
48300 01565 30000 10309 20259 39727 40023 69931 70161 82933
333 59008 69937 70039=
54764 32965 73403 10252 20146 40096 57012 84042 333// 20145=
58436 32680 72004 10331 20236 40025 57011 8314/ 333 20235=
56038 11680 60000 10120 20023 36157 57010 69941 70080 86100
333 00307 20017 93902=
56875 11680 71601 10250 20169 38341 57013 69971 71580 87200
333// 00152 20188=
56994 11580 71404 10255 20178 40082 57011 69901 70080 87400
333// 00251 20190=
56548 32680 23203 10258 20112 37679 57013 82200 333// 05103
20116=
51330 11568 82702 10080 20058 40194 52015 60041 76060 8257/
333 00860 20078=
51633 32680 80000 10210 20105 40056 52003 889// 333 00051
20082=
55228 32780 62707 10138 21077 36053 57003 86800 333 05101
20024=
55248 32780 33602 10164 21057 35934 57005 81102 333 05104
20005=
55437 32780 72005 10166 20036 36376 57002 87800 333 00101
20080=
59321 32580 21804 10306 20248 40096 57018 81102 333 20258=
48601 31562 71504 10300 20237 30071 40075 70522 81132 333 81820
83364 87077=
60351 31358 30000 10180 20174 40159 53002 72841 83600
333 01400 20164 83706 95900=
60425 32960 20102 10223 20120 40151 54001 82002
333 01700 20203 82070 95900=
60430 33965 30000 10245 20056 40138 55002 80002
333 01800 20228 83073 95900=
60444 32965 10000 10201 20112 39132 48553 54000 80002
333 01600 20180 81073 95900=
60468 32965 01204 10174 20137 39233 48539 57003
333 01300 20141 95900=
60515 33960 22604 10225 20119 40162 53008 80002
333 01800 20210 82070 95900=
60518 33460 70000 10208 20199 40134 56003 8423/ 222// 20000
333 0//00 20205 82710 83820 91806 95900=
60581 32965 01012 10255 20118 40138 53005
333   0//00 20252 =
89002 43/// /0830 11126 21143 39802 49855 57014=
71887 32983 02403 10113 20073 39784 40200 53014 333 10189 20089 70012
=
85201 32984 03207 10004 21132 36297 50010
333 58006=
85223 32984 00000 10096 20024 37506 47127 52010
333 58006=
68994 11295 83108 10090 20079 30095 40122 57008 60094 76166 8652/
222// 00120 20000 300// 40000
333 20047 69945 91014 555 10090 20090 91012=
71938 11332 80000 11004 21012 30160 40189 50003 60051 77177
886// 333 10101 21047 42007 70053 90973 93108 555 10081 20051=
31926 40141=
61968 32580 11208 10287 20217 40157 81830
333 02100 20231 55093 58000 81830 92448=
61970 36/// /1210 10274 20217 30170 40181
333 20253 58003=
61972 32570 11708 10257 20168 40207 81200
333 01900 20205 55095 59008 81820 92438=
61976 12580 21317 10268 20204 40181 60044 82200
333 02419 20246 55076 58002 82823 92448=
61980 12575 20912 10255 20192 40205 60024 82800
333 01819 20185 50314 55072 58000 81823 92428=
67005 32580 31410 10280 20231 40165 83200
333 02000 20224 55045 58006 83821=
61996 12584 72614 10154 20084 40160 60014 82802
333 01117 20125 50114 55000 59006 82826 87073 92439=
61998 12582 73114 10013 21028 39931 49967 58003 69924 82556
333 10015 21016 30102 55046 58056 70002 82630 87073 91133=
91577 22580 41814 10222 20133 40129 53006 81130
333 56460 81830 83366
555 10243 20156 60164=
91579 16/// /1802 10213 20199 40116 53004 69941
555 10237 20176 60124=
91582 23665 70000 10215 20187 40117 52010 8357/
333 56000 83640 87360
555 10228 20186 60084=
91583 26/// /2102 10219 20168 40123 53011
555 10260 20161 60194=
91587 06/// /0000 10211 2//// 30073 40123 53007 60022
333 10223 20175 55/// 69927 70074=
91590 22575 62706 10212 20141 40129 53008 84830
333 82823 83646
555 10248 20155 60284=
91592 02580 52516 10216 20138 40122 53007 69901 83831
333 56566 81830 83646
555 10236 20155 60274=
91753 32475 11008 10272 20226 40104 53011 81100
333 81818
555 10300 20260=
91754 36/// /0604 10266 2//// 40108 53010
555 10296 20253=
91945 06/// /0000 10233 20217 30147 40152 50023 69961 333 55007
69947 555 1//14 58020=
83768 32970 01502 10148 20132 39546 40198 55005=
83840 32270 61105 10121 20110 39186 40220 58005 86600=
83899 32570 52102 10113 20110 30234 40234 58004 82504=
83971 32970 00000 10076 20056 30234 40234 52008=
83612 32570 50904 10200 20170 39522 40144 56003 84501=
83721 31960 11320 10140 20120 39449 40197 56006 71000
81031=
83722 31960 00916 10140 20119 39484 40182 58007 71000=
83349 32570 42405 10225 20222 40168 82201 333 58020=
82398 32470 41805 10268 20237 40124 84500 333 58005=
82400 32470 21807 10262 20231 40119 82100 333 59006=
82579 32570 30000 10250 20236 40110 83500 333 59008=
82899 32570 31812 10269 20236 40139 83200 333 58001=
82993 32570 40000 10230 20227 40130 84200 333 59006=
82193 21470 10000 10248 20248 40091 70161 81100 333
59004 69931=
82022 21459 70202 10246 20237 40134 71062 82531 333
58011 60011=
82332 42470 71206 10250 20240 40124 83530 333 59001=
82824 32970 00000 10246 20243 40111 333 59003 =
89022 42/99 11307 11256 21274 39924 49965 52005=
68024 32960 00000 10115 20033 48546 52010 333 20055 555 10246 30105
60057=
68032 32960 01403 10090 20027 48544 52022 333 20069 555 10255 30105
60054=
68226 32960 02404 10070 21038 48559 52015 333 20044 555 10252 30099
60054=
64387 32959 20000 10184 20140 38532 48527 80002
333 01300 10276 20152 50494 55082 58007 82080 1021.2=
89050 41440 80330 10001 21021 49921 58054 77073 8852/
333   85613=
89512 32979 61234 11102 21221 49913 57013 82031 333 21108=
89606 42956 02012 11516 21551 36308 47676 54000 333
96110 96510=
84628 34240 61706 10168 20157 30133 40149 71044 83601
333   563/1 59008 83707 83076=
84752 31960 00000 10070 21086 37551 70200
333   59002=
84782 31660 20404 10134 20125 39659 40201 70144 82500
333   56900 59/// 82640=
84686 31960 00000 10053 20013 36891 70200
333   59004=
84377 31460 80000 1?235 20221 30019 40125 70322 8457/
333   5600/ 59009 84612 85460=
84401 31960 00000 10210 20165 30089 40158 70200
333   59015=
84390 31965 01611 10205 20167 30048 40151 70200
333   58002=
84691 31960 02003 10170 20146 30132 40139 70200
333   59002=
84452 31960 31811 10192 20167 30120 40151 70300 83010
333   56000 58002 83462=
84515 31960 00000 10246 20235 39962 40141 70200
333   58019=
84370 31960 20000 10240 20211 30083 40112 70200 82030
333   56090 59013 82360=
84501 31962 01104 10187 20160 30116 40157 70200
333   59016=
31484 42699 80000 10234 20071 40057 57019 83831=
11423 32986 22603 10188 20122 39352 42843 52005 82081
333 20151 30009 50262 70000 82360=
40103 32560 42406 10249 20185 40066 53004 84200
333 20189 30/// 50374 22794 84824=
40155 32460 52112 10238 20166 30064 40074 52005 85200 333 20216=
40180 31460 52512 10237 20197 30035 40081 52009 71021 85200 333 20206=
40199 32975 00409 10275 20130 30076 40079 52012 333 20238 51361 55125=
40250 32970 03404 10244 20093 39288 40026 52007 333 20200 30017=
40265 32660 12508 10196 20144 39320 40081 53008 81100 333 20140
30013 81830=
40296 32965 00000 10272 20164 40115 52013 333 20240 30021=
40310 32960 02906 10218 20105 38893 48460 52011 333 20166 30012=
40255 32660 42404 10194 20158 39390 40080 52004 84200 333 20132
30013 84825=
40260 32960 03112 10276 20157 39308 40036 52008 333 20204 30018=
40270 32660 12106 10196 20114 39208 40069 52007 81100 333 20153
30011 81830=
40272 32960 02912 10202 20163 39264 40066 52006 333 20123 30010=
40340 31958 03606 10254 20197 40068 52016 70500 333 20210 30023=
36911 11698 71401 10142 20048 39270 40202 52009 60010 70282
85930 333 20100=
36974 11697 82705 10115 20040 37957 48488 54000 69900 70282
889// 333 20081=
48303 01565 60000 10305 20244 39602 40034 60011 72122 84856
333 59004 60017 70032=
48328 32562 61104 10306 20235 39761 40030 84845
333 59012 70029=
48330 01560 80000 10300 20250 39852 40034 69921 76022 83576
333 59001 69925 70121=
48351 32562 80000 10325 20268 39964 40035 86836
333 59007 70023=
48354 01462 71902 10307 20239 39846 40045 69961 70296 85963
333 58014 69967 70016=
48376 01558 80000 10267 20238 39901 40045 60071 76166 8452/
333 59001 69937 70073=
48379 01560 60000 10311 20259 39896 40026 69901 72162 82236
333 59005 69906 70033=
48400 01530 81203 10285 20261 39997 40037 60011 76062 8552/
333 59001 60016 70781=
48462 01559 63602 10289 20250 39998 40053 60101 71062 85672
333 58014 60087 70120=
48475 32564 80000 10323 20232 30030 40041 82277
333 58003=
48477 11564 82110 10315 20245 30030 40044 69901 71565 82110
333 58003 79999=
48517 01557 82104 10257 20243 30056 40062 60041 76162 8687/
333 59003 60037 70088=
48532 01450 81802 10242 20232 30055 40064 60521 76166 8672/
333 59012 60317 71447=
48567 01557 82303 10256 20249 30051 40068 60361 76166 8382/
333 58002 60327 70707=
17150 32660 73612 10176 20114 40173 50000 83130 333 20138 31013
50564 55034 21742 70006 84835 85360=
41112 42960 30812 10271 21070 37932 48475 83030 333 20181 58000 83358
555 04410 50001=
41136 42960 03304 10360 21060 39251 40012 333 20250 59002=
62306 32560 43312 10178 20142 40116 51005
84500 333 20216=
62318 32560 43015 10226 20158 40100 53009
84800 333 20210=
62337 32560 42605 10244 20188 40087 53015
84500 333 20194=
62366 32960 23106 10223 20170 40102 52001
82030 333 20204=
62393 32960 03407 10240 20161 40093 52014
333 20200=
62414 32960 00114 10304 20067 40067 51013
333 20263=
62417 32960 00502 10232 20176 40141 53016
333 20197=
62440 32960 53008 10230 20166 40093 53007
85500 333 20200=
62463 32960 03418 10290 20132 40065 51008
333 20252=
62465 32960 03512 10273 20196 40066 51011
333 20257=
33983 11597 83504 10200 20192 40137 57002 69902 79589 8693/ 333
20163 86921=
33177 32999 31802 10165 20085 40233 53001 80001 333 20087=
33246 32997 00000 10184 20111 40233 52008 333 20068=
33088 32997 32201 10178 20078 40233 57002 80001 333 20070=
33990 32970 60301 10196 20149 40135 57006 85032 333 20152=
26825 32960 61905 10184 20088 40187 57003 80002   333 20115   555
30008 52008=
34523 32697 63102 10204 20166 40161 52002 84201 333 20160=
40706 32960 00907 10250 20030 38642 40081 55000 90545 333
30017 51181 70000=
40718 32960 00101 10244 20194 30173 40142 52004 90550 333 30017
50501 70000 90212=
40732 32962 00904 10250 20170 30149 40129 54000 90550 333
30015 50621 70000=
40754 32960 00000 10272 20152 38831 40094 50007 90555 333 30019
51501 70000 =
40766 32960 03202 10288 20022 38657 40028 51005 90550 333
30011 51321 70000=
40811 31956 00000 10342 20067 39985 40011 50008 70500 90550 333
30021 51891 70000=
40841 32960 00000 10296 20020 38254 40043 52010 90550 333 30019
51581 70000=
40848 32960 01202 10310 20069 38494 40009 51012 90550 333 30014
51241 70000=
40856 32960 20106 10250 20024 38631 40062 50002 82030 90550 333
30021 51941 70000 82360=
28766 32999 63206 10179 20048 40098 57021 83031   333 20072=
28966 31597 82302 10157 20086 40142 58017 76161 885//   333 20039=
29802 32497 72705 10165 20027 40095 53001 86321   333 20063=
35426 32999 11701 10252 20114 40199 52002 80001   333 20121=
35497 32698 62902 10137 20041 40196 52011 86100   333 20032=
35532 32998 01807 10232 20070 40207 52004   333 20164=
36152 12597 72706 10172 20043 40142 52006 69940 87200   333 20085=
36397 12599 80000 10138 20062 40154 52008 69940 70282 883//   333
20090=
36864 12699 52503 10126 20015 40185 52009 60020 87200   333 20096=
38196 32598 03604 10142 20053 40201 52013 81100   333 20086=
38222 32698 33202 10190 20053 40168 53012 83100   333 20127=
38328 32999 00504 10202 20011 40170 52010   333 20055=
38334 32599 10506 10173 20021 40179 52008 81200   333 20082=
38343 32798 42701 10169 20038 40182 52011 84100   333 20085=
38439 32998 03403 10219 20058 40190 52010   333 20121=
48615 11470 81405 10310 20247 30067 40073 69901 70262 8327/ 333
83818 83364 88469=
48620 31470 71302 10324 20229 30066 40075 70522 83955 333 81917
84364 86078=
48647 31468 70000 10333 20228 30042 40066 70522 83242 83818 87078=
48657 31570 70505 10316 20244 30059 40077 70522 83132 333 83820
84366 86078=
48665 31576 71906 10321 20248 30060 40070 70522 84942 333 84820
86078=
96413 11480 72607 10268 20239 30058 40084 60021 70162 84931 333
81915 83817 85365=
96421 32580 73308 10289 20236 30040 40075 83141 333 83824 84365=
96441 11480 72607 10278 20245 30075 40080 69981 71798 84941 333
81915 84816 85365=
96449 11460 70106 10268 20253 30047 40067 60041 79196 8357/ 333
83814 87365=
96465 32478 72908 10300 20254 30030 40064 82942 333 81814 81916
87080=
96471 11468 73305 10320 20265 30057 40060 69901 79562 84948 333
82814 82916 84640 87277=
96481 32462 62509 10308 20233 30038 40060 83841 333 82817 86080=
96491 32475 60209 10316 20244 30048 40061 83941 333 83816 81917
86080=
28978 32999 52309 10187 20000 40125 57020 80001=
35173 32996 62506 10167 20045 40158 57012 86070   333 20032=
28255 /1999 83301 10209 20151 40092 53003 69930 70282 85031   333
20128=
23909 31498 82404 10196 20129 40104 58001 78082 8537/   333 20150=
28116 32898 72504 10218 20119 40119 57001 83032   333 20135=
28240 32999 02703 10254 20122 40097 57010   333 20127=
28419 32998 22404 10252 20136 40137 57009 80001   333 20120=
28621 32981 12703 10260 20151 40155 57002 81030   333 20195=
29418 41598 72003 10156 20016 40065 57012 70281 839//=
29524 42584 82704 10154 20015 40068 52003 83500=
29605 41497 82304 10105 20069 40080 57001 78098 889//=
29631 41497 82501 10104 20094 40053 52022 78082 889//=
29706 41499 82504 10161 20039 40078 58008 78082 86302=
29736 41497 82802 10104 20079 40073 52047 78082 883//=
30781 41998 61503 10323 20120 40000 57066 70422 80005=
28216 32599 32504 10210 20017 40133 53021 83200   333 20156=
28321 42584 32702 10241 20150 40125 57005 82502   333 20153=
28451 11598 62303 10195 20164 40098 58016 60030 70282 82230   333
20133=
28537 32482 52704 10257 20124 40136 58010 83202   333 20155=
28541 32584 12705 10250 20117 40112 57008 81100   333 20094=
28642 32697 33009 10260 20157 40121 57005 81131   333 20160=
28655 11576 52503 10203 20149 40123 57004 69960 70198 82930   333
20114=
28925 32599 21902 10280 20135 40178 58006 82200   333 20124=
29557 41598 71706 10146 20092 40045 53010 72581 86350   333 91118=
29625 42599 52706 10149 20027 40073 52010 85200=
29642 41560 81707 10128 20105 40034 53004 72582 8537/   333 85623=
29813 41499 82305 10151 20018 40075 51009 72582 889//
333 88918=
29846 41597 82110 10134 20105 40070 52014 78082 889//   333 88921=
62002 32960 40804 10180 20160 39463 48548 51007 80008 333 20175
50884 50884 55130 84275=
62007 32960 20700 10225 20208 40165 53004 80002 333 20210 50454
55103 82070=
62008 32970 31308 10182 20056 39384 48543 53007 80001 333 20175
50984 83070=
62010 32560 30809 10195 20174 40177 52006 82550 333 20150 50784
55125 82625 83360=
62012 32560 51012 10211 20187 40205 57001 85500 333 20195 50304
85630=
62016 32562 40811 10216 20179 40205 53008 84500 333 20206 50254
55202 84625=
62019 32958 00612 10212 20154 40162 58002 33 20175 50304 55122=
62053 32962 00422 10220 20077 40168 53010 333 20190 5//// 55118=
62055 32960 00305 10190 20107 40158 51014 333 2019050564 55128=
62056 32560 20115 10160 20124 39447 48519 55003 82500 333 20145
50434 55105 82620=
62062 32560 23608 10210 20157 40135 57002 82100 333 20190
50224 55098 82825=
62124 32960 30410 10206 20067 39632 40115 52008 80004 333 20204
51934 5125 83070=
62131 32970 03206 10160 20146 39847 40152 51009 333 20150 51124 55133
62161 32970 00310 10222 20104 40158 53/// 333 20194 51104 55106=
62200 32960 0000 10235 20091 39616 40133 53021 333 20204 51304 55107=
62259 32970 03604 10228 20103 4013053018 33 20207 51454 55133=
62271  32970 00610 10246 20080 40144 53020 333 20230 52484 55127=
40703 32960 00000 10234 20112 38896 40082 58001 90550 333 30009
51071 70000=
40712 32960 00000 10232 20092 38678 40098 51005 90550 333 30010
50961 70000=
40729 32960 00904 10228 20032 38352 40085 52006 90545 333 30008
50951 70000=
40736 32960 03402 10276 20195 30161 40134 51003 90550 333
30020 50581 70000=
40739 32965 00000 10244 20040 38685 40120 51007 90550 333 30016
50161 70000=
40743 32965 00905 10262 20022 39059 40135 51005 90550 333
30018 51061 70000=
40762 32965 01004 10226 20055 38573 40113 51005 90550 333
30007 51301 70000=
40768 32960 00000 10234 20074 38255 40061 52008 90550 333
30008 50901 70000=
40769 32962 00000 10250 20024 38300 40068 50004 90550 333 30012
51161 70000=
40809 32970 00705 10244 20048 38520 40076 51005 90550 333
30015 51641 70000=
40821 32960 02904 10290 20038 38780 40065 51008 90550 333 30021
51721 70000
40820 32960 03004 10322 20057 39004 49973 50002 90550 333 30024
40831 32960 00000 10356 20078 30009 40017 53004 90550 333 30021
52441 70000=
48310 32565 30000 10316 20245 39592 40028 82531
333 59012 70115=
48329 31560 71502 10307 20230 39697 40026 71522 85836
333 59025 70002=
48380 32560 80000 10293 20249 39948 40040 84576
333 58009=
48383 11565 51210 10317 20235 39891 40045 69901 70162 84201
333 58008 70033=
48421 31559 70000 10320 20249 39922 40033 71022 83236
333 59005 70308=
48465 32561 80000 10304 20241 30035 40040 84973
333 58004 70314=
48552 11457 80000 10282 20238 30060 40067 60011 71562 86876
333 58009 70128=
48566 01559 80712 10279 20259 30066 40074 60131 71062 83846
333 58002 60027 70153=
26898 32998 02501 10177 20068 40218 54000   333 20099=
27703 32997 29902 10162 20077 40213 53001 80001   333 20044=
27707 32982 00000 10166 20090 40215 54000   333 20070=
27719 32997 00000 10154 20094 40221 53006   333 20045=
27786 32997 60602 10229 20144 40165 58003 86030=
27906 32997 03602 10167 20073 40225 52003   333 20060=
27928 32698 13603 10158 20105 40200 52005 81100   333 20108=
27983 32998 31602 10250 20127 40163 57009 82031   333 20144=
28711 32998 02505 10254 20109 40162 57002 333 20170=
28807 32997 31902 10256 20142 40177 57004 81081   333 20128=
34047 32565 83303 10158 20146 40185 52011 885//   333 20157 88622=
34116 32397 80505 10129 20107 40205 52002 886//   333 20123 86706=
34123 32475 83604 10136 20123 40204 52011 886//   333 20128 88712=
34152 32999 71503 10186 20159 40164 52013 8707/   333 20168=
34186 32998 72205 10284 20109 40175 52001 80001   333 20145=
34336 32998 63203 10202 20171 40173 52006 80001   333 20163=
22217 32599 61405 10132 20058 40062 57010 81131   333 20050 91008=
22235 12583 31503 10148 20053 40086 58014 83200   333 20049 91006=
22349 32599 20904 10095 20065 40117 57007 82500   333 20057 91005=
22408 11560 81203 10090 20058 40044 57033 69942 78082 883//   333
20063 88924=
22602 11458 81305 10096 20064 40011 57030 60012 78082 889//   333
20086=
22721 32699 81601 10081 20055 40070 57035 8555/   333 20064 85635=
22802 11325 81905 10086 20080 40045 57024 60032 75165 886//   333
20070 88707=
26059 11497 82404 10141 20124 40073 56005 60032 70282 886//   333
20110 87712 91112=
26094 11680 72005 10146 20095 40100 57029 69952 70262 87500   333
20081 87640 91111=
26258 11460 82101 10146 20120 40112 57007 60032 78082 8595/   333
20107=
26585 32599 72302 10161 20068 40191 57008 85330   333 20114=
27402 11997 71902 10149 20084 40182 57008 69902 70281 87030   333
20067=
22028 32983 11906 10143 20056 40077 57007 81030   333 20083 41998
91007 91110=
22106 32698 21602 10162 20034 40047 57013 82100   333 20042 91004=
22127 32599 31504 10152 20043 40073 57015 83200   333 20058 91006=
22324 32699 61206 10137 20056 40073 58023 82531   333 20074 91010
91110=
22621 11698 71303 10103 20059 40073 57043 69902 72582 875//   333
20080 87642=
22831 32698 71302 10135 20055 40105 57026 83930   333 20052=
22892 11497 82208 10121 20111 40047 57002 60082 883//   333 20112
91115=
26275 11496 81905 10134 20121 40130 57002 60032 76162 8472/   333
20112=
26389 11458 82303 10130 20088 40155 57006 69912 78086 889//   333
20080=
26695 32997 72402 10153 20067 40215 53003 87030   333 20057=
26882 32970 62304 10169 20081 40223 57001 80001   333 20074=
48315 01557 81703 10306 20253 39786 40049 69901 71562 84976
333 58017 69907 70259=
48413 01540 80000 10282 20265 39962 40044 60021 76222 8457/
333 58000 60025 70020=
48416 01562 71304 10286 20255 39904 40053 60071 72162 86806
333 58007 60075 70077=
48418 32564 72107 10300 20250 39975 40031 85556
333 59004 70112=
48460 31560 80000 10274 20253 30019 40051 70292 83576
333 58001 70081=
48501 01440 80000 10253 20244 30061 40069 60271 76166 885//
333 58001 60047 71888=
48561 01457 80000 10245 20238 30062 40066 60341 76166 8352/
333 58001 60247 70724=
48564 01457 82406 10285 20246 30061 40065 60071 76062 83976
333 59001 69937 70330=
48570 01458 80000 10245 20230 30081 40087 60031 76096 84877
333 58022 60036 70086=
48580 32560 80000 10312 20237 30057 40064 86857
333 58002=
21432 41496 82706 11002 21002 40085 57002 71022 885// 333
88613=
21647 42584 21003 10020 21008 40109 57008 81130=
21824 41570 80405 10017 21002 40140 52005 70242 86501 333
86621=
21921 42599 50105 10120 20027 40108 58002 82201=
21946 42984 61204 10120 20002 40122 57007 83032=
21982 32370 82402 11030 21040 40280 57002 886//   333 11029 88708
91104=
25123 42998 62503 10142 21025 40132 57017 82031=
25173 32298 61107 11005 21023 40251 57008 83630   333 11003 91111=
25399 31998 80404 11004 21010 40253 52002 885//   333 10004 88621
91106=
25551 11597 80905 10047 20033 40190 54000 60022 76062 8652/   333
10048=
25563 11480 80412 10056 20029 40198 52006 69932 78082 889//   333
10071 91116=
25594 11462 72502 10027 20014 40225 53008 69932 72162 86530   333
10055 91109=
31054 42699 82102 10154 20058 40030 57001 8391/=
31123 41599 81001 10110 20097 49990 58035 71798 8807/=
25621 42599 72104 10118 21044 40099 57005 86330=
25703 42699 62103 10165 20027 40076 57014 86300=
25913 41297 82704 10027 20024 40145 57007 76162 8672/   333 84706=
25954 42599 82203 10087 20002 40125 57002 84971=
32215 41907 01403 10029 20025 40123 53001 74440=
32389 42699 21007 10161 20051 40108 57002 81201=
32583 42999 61604 10104 20043 40126 52001 80001=
32618 42598 60304 10043 20031 40139 52003 86500=
83818 83364 88469=
83814 87365=
40356 42960 03110 10270 20010 39105 48456 333
20220 59025 555 04410 50009=
35217 32998 31802 10264 20140 40150 52006 80001   333 20139=
35302 32998 21803 10243 20131 40193 57002 80001   333 20178=
35849 32998 01101 10224 20024 40240 52003   333 20094=
35953 32999 00502 10209 20015 40242 52009   333 20080=
35969 32599 105// 10202 20013 40236 52010 81100   333 20072=
36535 12599 82003 10134 20056 40143 57001 60010 889//   333 20094=
38069 32998 00904 10206 20050   333 20085=
41515 32997 00000 10297 20078 48448 333 58002=
34824 32597 70603 10227 20174 40126 57004 85530   333 20200=
34858 32965 60000 10238 20159 40122 57006 80001   333 20144=
28049 32599 53103 10221 20128 40091 57007 82101   333 20148=
28319 32899 32703 10243 20146 40134 57004 83050   333 20159=
28334 32599 22002 10216 20053 40116 57009 82300   333 20139 82923=
28434 32999 22401 10269 20111 40128 57011 80001   333 20149=
28552 11597 82704 10182 20155 40099 58022 60130 72998 85302   333
20136=
29111 42599 73403 10136 20061 40079 57002 85570=
29209 42598 70000 10142 20029 40068 57005 87900=
29602 41599 82306 10159 20017 40068 57012 71511 86902=
29636 41598 82804 10110 20100 40032 53021 72582 883//=
29712 42998 41805 10156 20043 40089 52003 82071=
29724 42599 42504 10151 20030 40091 52012 82201=
29726 41598 62803 10144 20082 40086 52023 70282 84331=
29814 42599 72303 10151 20026 40103 52001 84302=
29827 42599 70808 10160 20040 40111 51007 86404=
29923 42599 62605 10149 20013 40099 52022 70182 84201=
29939 41498 72006 10135 20103 40117 52041 72582 85331=
36021 42599 63205 10156 20036 40119 52006 83102=
36022 42598 82606 10164 20011 40125 52013 82982=
36038 41498 71802 10126 20061 40139 51006 72992 87500   333 87619=
36058 41699 81102 10170 20051 40119 53025 72522 82931=
58436 32680 72004 10331 20236 40025 57011 8314/ 333 20235=
?
58326 32570 83204 10276 20233 40031 57012 885// 333 20236=
58015 11670 80405 10238 20198 40065 57006 69901 76060 8757/
333 20187=
58221 11558 80405 10206 20198 30024 40058 52002 60031 79560
889// 333 20195=
58437 3146 57005 74544 333 20157
91125 91525=
58319 32562 72206 10310 20263 40018 57015 87100 333 20254=
58531 32680 72205 10326 20225 40041 57014 81140 333 20233=
?
96925 01463 82710 10246 20226 30081 40088 56001 60221 76166 8327/
333 56200 57820 60227 83817 87460 80860=
06011 11684 23502 10064 20013 30159 40228 52012 69902 7258/
81565 333 10080 20023 31/// 81640 91215=
06180 12575 52905 10107 20065 30195 40201 52018 69902 85501
333 10146 20091 30009 85621=
07110 31001 81903 10130 20130 30062 40176 57002 74642 886//
333 10142 20126 31013 55015 79999 88701=
08001 31456 70000 10134 20119 30107 40187 55000 71030 8553/
333 20132 50214 55088 92436=
08221 32960 00000 10165 20143 39506 40172 53005 333 20138
55140=
08306 32465 20000 10194 20178 30182 40188 53003 81631 333
20152 55109=
08495 32462 10704 10187 20176 40158 53003 81630 333 20186
30017 81714=
08589 32960 00403 10218 20185 40137 333 20201 58021=
08594 31457 30104 10218 20191 40143 83500 333 58013 83612=
10338 32458 70401 10142 20127 30135 40207 53009 875// 333
10237 20110 30008 55149 55300 70000 87618=
16242 31956 00701 10192 20168 30189 40192 51001 71000 333
20151=
16320 32960 03105 10210 20203 30179 40191 55001 90545 333
20192 30018 55120 22966 55310=
16420 32997 01301 10208 20145 30129 40192 53007 90545 333
20196 30/// 55119 22940 55309=
16597 32970 00305 10222 20165 30112 40198 53008 333 20179
30012=
17060 32660 50208 10190 20150 40171 52004 83230 333 20150
30013 83835 84360=
17128 11665 70403 10120 20067 39037 40103 53002 60042 78082
84250 333 20104 32009 50311 55012 70056 84840 86359=
17170 32970 00000 10198 20134 38325 48491 58003 333 20102
30008 10065=
17200 11670 71202 10190 20148 39124 40053 52009 69912 70282
84270 333 20132 30011 70001 84835 87459=
11518 32982 43102 10185 20131 39780 40203 52008 84081 333
20116 30009 70000 84365=
15420 32960 03602 10187 20079 30113 40220 52005 333 20089
31009 91002 91202=
15614 31697 20000 10131 20090 39544 40239 52003 70100 82230
333 20075 50302 55108=
58326 32570 83204 10276 20233 40031 57012 885// 333 20236=
58015 11670 80405 10238 20198 40065 57006 69901 76060 8757/
333 20187=
58221 11558 80405 10206 20198 30024 40058 52002 60031 79560
889// 333 20195=
58319 32562 72206 10310 20263 40018 57015 87100 333 20254=
24982 41499 62302 10129 20043 40076 57010 70282 86900=
25325 42599 51202 10170 21044 40110 57012 85200=
28255 /1999 83301 10209 20151 40092 53003 69930 70282 85031
333 20128=
28642 32697 33009 10260 20157 40121 57005 81131 333 20160=
29557 41598 71706 10146 20092 40045 53010 72581 86350 333
91118=
29846 41597 82110 10134 20105 40070 52014 78082 889// 333
88921=
30777 42998 32404 10329 20040 49998 57027 80002=
31174 41999 81701 10050 20015 40094 58023 70242 8807/=
31263 42999 81903 10247 20051 39523 40039 57027 83072=
31624 42599 60000 10244 20070 40067 57024 86901=
31832 42599 63203 10206 20105 40083 57011 82202=
31913 42699 61604 10217 20142 40082 57012 86200=
36087 41598 72205 10220 20171 40130 58002 79592 87900 333
95010=
36096 41699 70904 10235 20085 40020 58007 70282 82231 333
95000=
36103 41699 80000 10145 20095 40095 57002 70282 889// 333
95000=
36259 42599 72703 10123 20006 38191 48449 52004 85901=
36307 42599 72301 10227 20071 38860 48457 51001 85201 333
95000=
36974 11697 82705 10115 20040 37957 48488 54000 69900 70282
889// 333 20081=
58102 11461 80204 10217 20200 30014 40063 57006 60021 76060
8672/ 333 20190=
58321 11667 83202 10241 20220 40037 57009 69901 70060 885//
333 20235=
58321 11667 83202 10241 20220 40037 57009 69901 70060 885//
333 20235=
58424 32968 61807 10331 20241 30002 40024 57016 85042 333
20272=
58314 32970 80403 10290 20237 39941 40024 57020 8807/ 333
20241=
58122 11575 80405 10208 20189 40060 54000 69981 72160 885//
333 20180=
58203 11558 83404 10201 20198 30013 40057 57002 60121 76066
885// 333 20194=
58215 11540 80707 10201 20196 40043 57009 60691 76598 8772/
333 20198=
58338 32968 73403 10305 20255 40027 57007 8704/ 333 20234=
59995 32480 73203 10287 20245 30066 40074 57012 86202 333XX 20273=
48820 11598 70902 10312 20251 30069 40077 57011 60181 70398
879// 333 58008 83895 84895 85995=
48826 32597 61406 10306 20274 39949 40075 58007 862// 333
58013 86895=
48839 32498 21403 10327 20255 30019 40082 58010 82100 222//
2//01 333 58012 82894=
48845 32598 40903 10304 20262 30060 40067 57007 84200 333
58020 84895=
48848 11970 21406 10295 20261 30066 40074 58003 69911 70261
80001 333 58024 82099=
48855 32570 51109 10308 20249 30062 40070 58007 82208 333
58017 82895 85299=
48870 32498 21602 10314 20268 30064 40071 56009 82200 333
58010 81894=
48877 32598 69904 10315 20252 30072 40077 57010 84801 333
58019 82895=
48887 11570 72302 10315 20234 30071 40077 57009 69901 70362
8484/ 333 58012 82895 83697 85399=
48900 41496 62804 10260 20252 30067 40077 57008 78082 862//
333 58016 86894=
48914 11598 71802 10279 20240 30076 40078 57008 69911 70362
87801 333 58002 82895 86697=
48917 11497 81404 10259 20243 30065 40070 57010 60021 78082
8692/ 222// 00282 2//02 333 59012 83894 85995 88499=
48918 11470 71801 10267 20230 30070 40081 58016 69901 72162
878// 222// 00288 2//00 333 58006 81894 87696=
48920 32598 73406 10303 20255 30049 40049 57012 82208 222//
00297 20201 333 58008 82895 87299=
48803 32460 70000 10259 20253 39972 40081 57007 878// 333
58015 83894 87696=
48806 32570 71604 10279 20221 39323 40065 57010 872// 333
58010 87895=
48808 11570 60501 10295 20240 39808 40075 58008 69971 70262
868// 333 58019 83895 86696=
48823 32598 71405 10320 20254 30071 40074 58008 87201 333
58015 87895=
48830 32570 70903 10323 20234 39781 40074 57015 8594/ 333
58011 81895 85995=
48840 11498 60508 10302 20258 30069 40075 57007 69951 70362
862// 333 58010 84894 86895=
48852 32570 10503 10327 20246 30047 40057 57011 81200 333
58018 81895=
48802 11/00 93602 10188 20188 38406 58005 60061 76164 333
58006 96045=
48810 11470 43203 10291 20247 39884 40082 57012 69941 72999
84200 333 58010 82894 84895=
48831 11470 62703 10263 20259 30040 40077 58012 60221 72998
868// 333 58015 81894 96025=
48838 32598 61801 10315 20269 30084 40090 56008 84201 333
58013 84895=
48846 32598 20906 10308 20257 30061 40064 57009 82200 333
58022 82895=
48863 32598 11402 10310 20252 30058 40067 57010 81200 333
58012 81895=
48866 11598 51804 10273 20213 39226 40082 57014 69901 70362
85200 333 58018 85895=
48875 11560 72003 10287 20220 39547 40070 57014 69901 78081
872// 333 58003 87895=
48907 11598 71804 10298 20254 30076 40078 57006 60171 70262
878// 333 58003 83895 84696=
10401 70007 333 91208 555 11070 22073=
52118 11780 41102 10209 20071 38253 57008 69901 70080 82102
333 00354 20116=
51437 11675 70000 10110 20066 38132 52005 69901 78000 86902
333 00151 20063=
52101 11880 72702 10194 20089 38344 57007 69901 70080 81132
333 00455 20100=
51855 31958 70402 10285 20055 49945 57019 70600 80002 333
05154 20187=
51567 32980 70000 10257 20081 40035 57018 80002 333 00101
20098=
52313 32780 50902 10287 21036 38375 57009 81102 333 00201
20136=
55696 32680 23404 10178 20041 36373 57018 82200 333 00200
20072=
55598 32780 20000 10202 20052 36615 57016 82100 333 00101
20103=
55690 11680 22509 10119 20038 36035 57004 69901 70080 82200
333// 00102 20045=
56307 11780 20000 10218 20061 36858 57019 69901 70060 82100
333// 00200 20120=
55681 32680 30000 10128 21005 35950 57002 83200 333 00201
20033=
51379 32680 20903 10224 20112 40114 57016 81102 333 00655
20100=
63791 32580 50803 10216 20151 39185 48558 81130
333 20144 50651 55071 55308 58005 81823 85358=
63832 32980 51112 10195 20108 38846 48513 80001 90545
333 20154 55011 55305 58015 85078=
63844 01465 81910 10230 20215 30129 40169 60024 76022 8582/
333 0//11 20210 50671 55108 55300 58005 60027 84616 88458=
58013 86895=
58020 84895=
80001 333 58024 82099=
58017 82895 85299=
58010 81894=
58011 81895 85995=
91650 31599 41305 10279 2024/ 40101 53008 70200 82101
333 562/9 82825 83080=
91659 31598 50000 10262 2022/ 40112 53009 70301 85800
333 569// 84820=
91670 36/// /0607 10263 20247 40109=
91680 31599 40000 10275 20213 40111 53006 70110 84800
333 569// 81828 83650=
91683 31599 10000 10260 20215 40122 53008 70100 81800
333 569// 81824=
91691 36/// /0602 10248 20237 40124=
91699 36/// /0308 10247 20225 40133=
58006 96045=
58012 81895=
71946 11774 80000 10142 20052 39968 40176 51005 69921 71682 83321
333 10217 20082 70002 90950=
71880 11682 82905 10094 20085 39103 40192 51027 60051 72982 88200
333 10198 20060 70052 90936=
80022 31962 03602 10262 30095 40097 70500
333 56/// 59020=
80028 31965 00803 10266 20254 30076 40093 70500
333 59022=
80112 31356 60000 10148 20144 37919 70522 86500
333 560// 59002 86607=
80222 31957 30000 10107 20100 37537 701021 82055
333 56/39 59001 82358=
80259 31460 30000 10202 20185 39048 70521 83800
333 560// 59002 86607=
80398 32970 00000 10232 20226 30020 40115
333 59003=
68174 31950 02104 10078 20051 38834 48560 52013 71000
333 20035 91004 555 10206 91024=
68242 32980 01904 10058 20017 38779 48555 52020
333 20038 91000 555 10224 91023=
68262 31930 00000 10051 20031 38764 48570 52014 70400
333 20031 91001 555 10219 91026=
68263 31958 01704 10067 20031 38533 48556 52011 70400
333 20042 91006 555 10200 91025=
68350 36/// /0000 10087 20056 38711 48558 52021
333 20043 91003 555 10238 91024=
68368 32982 03403 10100 20043 38349 48551 52013
333 20050 555 10190 91025=
68372 36/// /0000 10010 20003 38511 48573 52012
333 21021 91002 555 10188 91027=
68424 32982 00000 10039 20036 39279 48560 52013
333 20016 91003 555 10197 91025=
68442 31975 01604 10017 21014 38698 48542 53012 70500
333 21031 555 10220 91023=
68461 32980 10000 10024 20017 38367 48562 52014 81030
333 21021 91003 555 10179 91025=
68512 32382 10808 10077 20055 39079 48552 52005 81600
333 20061 91010 555 10143 91024=
68588 32575 32307 10193 20141 30209 40225 52021 83500
333 20167 555 10254 91022=
68618 12580 10704 10055 20045 39128 48563 52010 60024 81500
333 20026 91006 555 10146 20017 91025=
68668 31570 70000 10098 20067 39390 48570 52025 70522 8355/
333 20083 555 10253 91026=
68714 11230 80000 10127 20126 30217 40255 52013 60024 74024 886//
333 20127 91004 555 10170 20018 91025=
68752 36/// /2708 10104 2//// 39561 48577 52016
333 20077 91010 555 10186 91025=
68828 12670 13403 10108 20088 30020 40254 51016 60054 81500
333 20100 555 10212 20046 91025=
68842 32682 22710 10142 20104 30169 40244 51019 81582
333 20124 555 10205 91024=
68858 32682 12607 10144 20110 30102 40251 52018 81100
333 20114 555 10208 91025=
64600 11258 80000 10200 20195 39468 40119 60054 70142 887//
333 01919 20195 59009 88702=
64601 31240 82404 10190 20190 39003 48510 74042 886//
333 02000 20187 58005 88703=
64610 31470 70404 10240 20201 39601 40112 70191 83902
333 02100 20211 58013 83616 87080=
64650 11240 81404 10215 20208 39708 40120 69934 71022 886//
333 02019 20215 55016 58013 88706=
64655 11260 8//// 10204 20202 39467 40108 60264 72196 8167/
333 01991 20192 58018 81704 88365=
64656 11275 6//// 10220 20211 39567 40107 60104 72196 83670
333 02061 20202 58027 83704 86365=
64659 11665 80000 10206 20197 39393 40108 60144 71792 8197/
333 01979 20192 58016 81940 88365 94948 95818=
64660 31560 82804 10209 20201 39593 40118 72992 82962
333 02100 20205 58020 82820 81940 84365 88080 94947 95877=
64661 11665 8//// 10210 20201 39468 40127 60104 76162 8372/
333 0//51 20165 58037 83704 88464=
65545 32360 80000 10225 20215 39686 40102 886//
333 20221 59015 88706=
65560 12458 8//// 10224 20218 39804 40114 60034 885//
333 20205 59006 88616=
65563 32458 82208 10230 20223 39864 40103 885//
333 20206 59011 88611=
65585 12458 3//// 10218 20215 60114 83500
333 20215 83613=
65594 11440 80000 10240 20230 60234 71062 882//
333 20220 88813=
64500 32458 60000 10240 20231 30097 40111 71022 86500
333 02300 20242 50510 55000 58002 83610 88633=
64501 32460 60000 10243 20231 30106 40116 84232
333 02400 20238 50144 55019 58013 84810 85360 94919 95839=
64503 31220 5//// 10220 20220 30070 40111 71022 83730
333 02100 20219 50074 59008 83611 85360=
64510 11104 6//// 10205 20205 3//// 40/// 60354 76162 8267/
333 0//57 20205 50144 55/// 5//// 82703 88460 81913 94944 95874=
64550 12460 5//// 10230 20226 39014 40116 69904 83532
333 02119 20230 50024 55/// 59004 83610 84360 85073=
64551 31/02 9//// 10242 20239 30088 40117 74742
333 0//00 20240 50134 55/// 58011 89///=
64552 11/02 9//// 10200 20200 39457 40105 60104 74544
333 0//29 20194 5//// 55/// 58001 89///=
64556 11458 8//// 10205 20202 39527 40095 60674 72996 8452/
333 0//11 20198 50104 55/// 59008 84613 88460=
64565 31205 7//// 10210 20210 39470 40107 74242 8455/ 903//
333 0//00 20205 50054 55/// 59004 83703 84606 87360=
61997 16/// /2918 10030 21003 30012 40194 69984
333 20012 55003 58072=
56499 88707 90043 92416 92851 94070 D/INV=
64504 32465 8//// 10240 20236 30104 40119 8557/
333 0//00 20240 50114 55/// 59004 85613 88361=
64507 31102 8//// 10210 20210 3//// 40/// 74447 886//
333 0//00 20208 50044 55/// 5//// 88703=
93004 16/// /3523 10138 20129 49968 57013 60021=
93023 16/// /2905 10156 20139 49975 57019 60051=
93196 16/// /3519 10162 20134 40023 57016 69921=
93305 41395 81520 10135 20116 49933 58040 76566 886//=
93334 16/// /0206 10089 20070 39038 57018 60041=
93404 16798 /1210 10108 20085 49972 57033 60031=
93498 16/// /0706 10107 20097 49992 57019 60011=
93527 16/// ///14 10109 20101 49955 57028 60051=
93597 16/// /1605 10109 20085 49995 57004 69941=
93615 16/// /1603 10087 20073 49981 57009 69921=
93678 36497 /2608 10091 20070 40001 57002=
93709 36/// /1505 10073 20051 49994 57001=
93831 36698 /0603 10038 20008 40038 52006=
93896 31498 82418 10083 20054 40010 53010 71522 885//
333 88618=
93947 16/// /1315 10036 20009 40100 52002 69941=
93994 16/// /0615 10188 20178 40109 57002 60181=
63612 31980 10906 10275 20136 40119 70200 80001
333 20234 58002 81078=
63661 32980 30505 10182 20121 48539 80001
333 20103 58005 83080=
63708 31580 40910 10218 20137 48508 70300 81131
333 20171 58006 81821=
63740 31581 41807 10177 20102 48536 70122 81101
333 58006 81824 84078=
63820 11470 72410 10225 20217 40158 60034 70182 8327/
333 20209 58002 83818 87358=
63619 31582 61807 10199 20142 48544 70222 84242
333 20180 59003 84822 84280=
63641 32980 21232 10188 20114 80001
333 20140 82078=
63695 32480 11404 10180 20121 81500
333 20092 81617=
63714 32982 41410 10170 20091 48518 80001
333 20125 58010 84076=
63723 32582 31910 10276 20166 40139 81130
333 20210 59007 81825=
63793 32582 12308 10258 20140 40149 81131
333 20195 59002 81821=
61442 32957 32810 10212 20193 30096 40100 83080
333 0//00  20207 50424 55104 59001 83363=
34240 32975 83602 10199 20146 40156 58002 85031 333 20153=
34357 32998 73001 10215 20177 40160 53008 87030 333 20184=
34363 32979 41802 10233 20119 40161 53006 82081 333 20186=
34545 32998 70402 10219 20148 40147 53004 86032   333 20184=
34579 32998 50904 10252 20112 40163 58007 80002   333 20180=
34655 32997 50702 10261 20146 40133 54000 84031 333 20184=
34759 32998 71104 10250 20140 40133 58002 80001   333 20152=
34838 32997 80302 10226 20174 40122 57003 80001   333 20175=
34929 11964 70202 10231 20160 40113 58004 69930 70182 87030   333
20183=
34954 32998 80000 10240 20150 40115 58010 80002   333 20156=
37031 32497 80000 10209 20187 40117 57012 82504   333 20152=
37085 31996 60909 10276 20134 40128 54020 73631 81098   333 20204=
37145 32998 50000 10227 20159 40115 58003 82031 333 20145=
37171 32998 73102 10210 20177 40095 57017 84031 333 20169=
37228 32598 43202 10220 20171 40087 57014 82281 333 20153=
23226 32981 81609 10173 20088 40064 57011 8805/ 333   20134=
23606 11360 83304 10094 20084 40107 52002 60050 78182 883// 333
20127 86707=
23701 11681 63102 10123 20085 40126 54000 60020 70282 82231   333
20108=
26167 12564 82004 10141 20124 40103 57008 60042 885//   333 20096
88620=
27857 12598 83304 10141 20137 40189 53012 60020 883//   333 20148=
28909 32997 32303 10267 20128 40180 58001 80009   333 20156=
37061 32998 71001 10228 20162 40116 58004 82031   333 20156=
29068 41598 83202 10115 20111 40026 58030 72582 889//=
29274 41582 70701 10142 20136 40056 53011 70182 87900=
29363 41499 82105 10138 20127 40034 53014 70262 885//=
29456 41599 62301 10186 20098 40032 58004 70282 82901=
29467 42698 62504 10179 20077 40046 52007 86200=
29477 42599 82403 10180 20117 40043 52015 86900=
29576 41698 82603 10176 20112 40053 22013 70262 83237=
29587 41598 72502 10166 20151 40064 52018 72162 83250=
30157 41998 31202 10170 20136 40069 53005 70181 83030=
30320 42698 53503 10259 20137 40051 57006 83201=
30713 80601 10258 20084=
24639 41599 80505 10168 20074 40080 52008 70282 84931=
24656 42599 81504 10199 20011 40046 57003 82102=
24724 41598 72903 10165 20050 40089 53014 78081 86930=
24768 42599 70403 10197 20064 40027 57009 82530=
24923 42599 82802 10224 20102 40047 57003 83931=
24962 42599 83601 10206 20058 40012 57007 8437/=
30493 42598 80000 10259 20135 49972 57008 889//=
29756 42699 62203 10190 20053 40060 54000 86500=
29962 42599 72405 10206 20034 40064 52002 83974=
24988 42498 71403 10074 20045 40101 57006 87500=
25325 42599 51202 10170 21044 40110 57012 85200=
25378 11597 73505 10060 20006 40239 53004 69902 78082 86950   333
10070 86930 91112=
31174 41999 81701 10050 20015 40094 58023 70242 8807/=
31263 42999 81903 10247 20051 39523 40039 57027 83072=
31959 41498 61603 10084 20068 40096 51002 86500=
32076 42598 80202 10036 20034 40118 57001 885//=
32408 42999 22103 10082 21002 40140 52001 80009=
32509 42999 00102 10097 20034 40146 51005   777 314// 45093 8//2/=
32594 42599 22004 10068 20027 40105 53004 81502=
61017 31958 50414 10317 20040 39665 40053 7072/ 80002
333 02200 20256 51304 55115 59010 85080=
61024 32960 31202 10270 20056 39512 40054 80002
333 01800 20260 52071 55101 59018 83080=
61036 32965 7//// 10325 20216 39823 40050 86072 90545
333 03100 20320 51231 50994 55107 59035 86464=
61043 32970 32006 10282 20190 39627 40049 80002
333 02700 20276 51581 51064 55104 59022 83080=
61045 32965 7//// 10270 20193 39577 40054 80008 90548
333 02500 20258 51451 51074 55117 59001 87280=
61049 32960 7//// 10263 20183 39754 40068 80008 90545
333 02100 20254 51161 51004 55105 59008 87280=
61052 32965 51810 10300 20228 39825 40068 81082
333 03000 20300 51061 55111 59017 81364 85080=
61075 32960 72004 10287 20216 39759 40056 80008
333 02700 20284 51231 50914 55108 59026 87280=
61080 32965 72204 10282 20221 39647 40050 80008 90547
333 02600 20280 51451 55115 59018 85080=
61090 32965 72806 10276 20185 39571 40061 82048 90548
333 20266 51551 51204 55110 59002 82365 86280=
61096 32970 71806 10272 20194 39693 40061 80008 90545
333 02600 20264 51491 51164 55087 59004 87280=
61099 11665 7//// 10246 20191 39/// 4//// 60034 71796 81972 90545
333 02612 20230 50924 55000 5//// 81940 87464=
56793 32580 21806 10272 20170 38446 57016 82200 333 00151
20202=
56856 11680 72901 10253 20210 40065 57013 60031 70080 86902
333 00151 20206=
57606 32580 71803 10302 20197 40015 57010 8784/ 333 20234=
57803 32580 41802 10291 20181 40021 57011 84100 333 20218=
57825 32580 41805 10299 20189 40052 57014 83140 333 20241=
57906 32580 61402 10305 20211 40068 57015 83142 333 20213=
65528 32960 6//// 10228 20222 39627 40092 80002
333 20216 59015 86076=
65536 32360 8//// 10233 20220 39673 40096 885//
333 20225 59018 84706 88613=
65555 31101 82408 10225 20225 39673 40107 74641 886//
333 20218 59012 88703=
65557 12258 80000 10230 20223 39872 40111 60074 885//
333 20225 59010 82705 88610=
65562 32458 7//// 10235 20235 83570
333 20228 83613 87360=
65578 11540 73204 10238 20236 30094 40103 60484 71011 85532
333 20225 59007 85620 85076=
65592 12460 8//// 10255 20230 30089 40112 60094 885//
333 20225 59010 88613=
65599 12458 7//// 10234 20228 30030 40104 60524 85270
333 20227 59009 85811 87360=
16622 32665 23004 10210 20138 30218 40223 54000 82400 333 20174
30/// 51080 55085 90730 91107 555 10000 30234 20000 89025
99070 30000 10242 20240 30246 40252 50252 40000 47698 44250
50000 50168=
16641 32970 01713 10196 20152 30184 40189 52008 333 20164 30/// 55138
90730 91120 555 10000 30248 20000 89035 99080 40000 47671 44230 50000
50170=
16716 32570 20113 10220 20090 30177 40194 53007 82100 333 20188 30///
55116 90730 91125 555 10000 30226 20000 89029 99057 40000 47668 44245
50000 50150=
16734 32570 20208 10236 20073 30124 40186 53007 82200 333 20150 30///
55032 90730 91116 555 10000 30234 20000 89078 99087 40000 47628 44230
50000 50150=
16749 32970 03111 10220 20188 30069 40082 53008 333 20204 30/// 55119
90730 91119 555 10000 30250 20000 89075 99091 40000 47585 44230 50000
50200=
16754 32565 43420 10202 20116 30111 40158 52012 84800 333 20194 30///
50990 55084 82820 83625 90730 91126 555 10000 30210 20000 89056 99077
40000 47621 44250 50000 50154=
16643 32960 21008 10238 20101 30193 40198 52004 80004 333
20162 30/// 90730 91112 555 10000 30238 20000 89026 99083
40000 47682 44260 50000 50162=
16648 32660 40000 10198 20102 30119 40207 50004 81130 333 20136
30/// 50710 55121 81835 84358 90730 91105 555 10000 30246
20000 89025 99068 30000 10220 20218 30230 40234 50228 60202
40000 47622 44230 50000 50146=
16650 32970 03618 10208 20111 30187 40191 54002
333 20180 30/// 55130 90726 555 10000 30208 20000
89045 99072 30000 20212 30214 40234 50244 60226
40000 47675 44245 50000 50154=
16684 32560 13512 10206 20125 30159 40185
53009 81100 333 20182 30/// 55118 90730
91119 555 10000 30208 20000 89055 99079
40000 47656 44260 50000 50160=
16732 32565 23528 10188 20128 30145 40157 52008 82200 222// 00182
333 20182 30/// 55114 90730 91136 555 10000 30198 20000 89073 99078
40000 47641 44220 50000 50154=
16614 32975 00000 10124 20068 39458 40238 54000 333 20070 30/// 55130
90730 91105=
16627 32960 00114 10214 20086 30193 40197 51003 333 20156 30/// 55128
90730 91116 555 10000 40214 20000 89045 99079 30000 10180 20182 30188
4//// 51217 60206 40000 47676 44225 50000 50146=
16667 32570 13606 10194 20131 30168 40174 51008 81100 333 20180 30///
55098 90730 91114 555 10000 30206 20000 89056 99075 30000 1//// 20210
30226 4//// 5//// 6//// 40000 47661 44240 50000 50158=
16675 32565 12703 10194 20123 30198 40220 53008 81100 333 20154
30/// 55094 90730 91109 555 10000 30224 20000 89040 99081 30000
10218 20226 30240 40246 50237 60205 40000 47685 44250 50000 50154=
16710 32564 53614 10110 20036 39430 40199 53002 85200 333 20046 31///
50980 55097 90730 91131 555 10000 30130 20000 89044 99072 30000 10200
20242 30208 40222 50222 60198 40000 47106 44240 50000 50076=
16723 32565 33417 10204 20092 30130 40138 53008 83200 333 20178
30/// 55127 90730 91128=
16738 32560 23628 10200 20109 39964 40157 56007 82100 333 20164 30///
90730 91134=
16746 32460 53610 10196 20120 39995 40174 52006 85800 333 20180
30/// 55095 81820 85630 90730 91118 555 10000 30198 20000
89040 99080 40000 47533 44245 50000 50152=
40745 32960 00902 10248 20052 39061 40144 51008 90550 333=
16280 33998 01109 10224 20186 39969 40184 58008 90545 333 20212
30/// 55125 23034 55305 555 0112/=
42071 31995 00000 10252 20183 49987 70500 333 58001=
42111  32696  61402  10316  20232 39286  40014  84830
333  58020  82635  83840  85360 =
42131 32996 00000 10294 20186 49983 333 58011=
42182 31995 00905 10360 20260 40003 70500 333 58012=
42189 31596 10903 10340 20250 40020 70500 81500 333 56200 58018
81630=
42379 32596 70504 10322 20255 40020 85530 333 56290 58009
85625 87360=
29570 42599 62402 10178 20120 40053 52010 83902=
29862 42599 72504 10210 20085 40055 58002 84231=
23973 42599 83203 10153 20115 40054 57018 82207=
29471 41599 82303 10172 20113 40050 52021 70282 82901=
29481 41997 80902 10168 20168 40048 52019 76168 8802/=
29553 41572 61802 10180 20107 40034 54000 71782 86900=
29562 41698 22103 10190 20105 40043 5//// 70281 82200=
29581 41598 72503 10166 20151 40066 52019 78082 8497/=
29653 41597 72309 10138 20062 40048 58001 78081 87300   333 91117=
29675 42698 50000 10206 20124 40045 52006 85200=
29759 41599 52302 10136 20082 40061 53013 72581 83904=
29766 42699 61203 10207 20126 40057 58001 86500=
29869 41698 70000 10185 20080 40076 52005 78082 85901   333 95030=
29956 41699 71805 10169 20053 40074 53010 78041 87900   333 95050=
30504 42598 71504 10218 20149 40024 57015 83132=
30622 42998 62401 10271 20127 40020 57011 82231=
30499 42684 63202 10304 20094 49966 57031 83130=
30695 32998 20000 10159 20089 39768 40067 58004 82030   333 20057=
31253 42599 80902 10264 20077 40010 57023 84551=
31295 42997 62102 10308 20149 40006 57025 80001=
31348 42999 80702 10230 20053 40067 57021 82507=
31418 42599 83602 10225 20092 40068 57016 81107=
31439 42599 51902 10183 20080 40077 57016 84901=
31442 42999 81505 10279 20085 40026 57021 80001 333 91111=
31445 42999 31806 10267 20080 40043 57026 80001 333 91111=
31474 42699 80000 10223 20025 40075 57016 8242/=
31534 42999 60000 10242 20043 40067 57045 80001=
31587 42999 81101 10265 21074 40071 57022 85031=
31632 42598 82601 10218 20093 40057 57015 85931=
31702 42999 63003 10247 20029 40068 57016 80001=
31725 42598 62301 10222 20094 40078 57016 86400=
31801 41598 83401 10192 20103 40082 57016 70262 85902=
30455 42699 80103 10235 20099 38809 48411 57026 72995 87901=
30726 42998 12504 10122 20090 40059 57010 80001=
30731 41597 42703 10208 20119 40035 58007 70511 81102=
30739 42699 82705 10300 20023 49998 57015 85902=
30745 42599 81903 10249 20078 40010 57003 8598/=
30764 42699 62205 10321 20099 49961 57034 82201=
30822 42998 70502 10191 20133 40046 57018 80002=
30824 41998 83603 10131 20094 40048 57015 74011 80003=
30829 42999 30902 10323 20123 49999 57021 80001=
30846 42699 72203 10308 21002 49992 57019 85903=
30859 41699 82103 10333 20071 49987 57032 71791 83903=
30862 42999 62207 10318 20071 49994 57018 80003=
30957 41699 73311 10292 20032 40015 57015 71799 87900=
30967 42699 22504 10344 20095 49978 57020 82102=
30975 42999 22106 10313 20009 40035 57026 80001=
31825 42699 51602 10166 20095 40075 56005 85900=
31845 41598 72701 10179 20140 40075 56011 72582 87900=
31878 42699 43504 10217 20074 40075 58013 81201=
31915 42998 30404 10246 20094 40080 57012 83200=
31917 42599 40404 10263 20064 40080 57012 83930=
31921 42599 10805 10199 20130 40088 58012 81200=
31969 42598 50803 10192 20140 40078 56007 85200   333 91115=
31981 42599 53504 10221 20076 40062 57009 85200=
31987 42699 33605 10246 20056 40065 56010 83200=
32069 41598 83102 10087 20068 40105 57008 78082 8597/=
42309 32596 11801 10340 20259 40025 81200 333 59015=
42314 32596 10203 10336 20249 40027 81100 333 59013 81825=
42410 32597 33608 10322 20272 40023 83430 333 59017 82620=
42415 31996 00000 10330 20266 40019 70500 333 59015=
42492 32996 21406 10332 20256 40019 80001 333 58001 82075=
42701 32496 51805 10302 20232 39310 40008 83530 333 58013
83618 83360=
42724  32596 70000 10338 20251 40028 83530 333 59007 83620 83360=
42798 31596 51202 10354 20234 40008 70522 83130 333 58005
83825 84360=
42886 32596 21401 10314 20244 40004 81530 333 59003 81620=
42895 32596 61402 10340 20256 40018 83231  333 58002 82620 85360
86075=
42971 32596 60903 10348 20243 40015 85401 333 59003 82620 83825=
43333 21495 82706 10264 20250 40023 76066 8542/ 333 59011 6001/
84617 85819 88457=
41785 32997 02314 10350 20253 40010 333 59006=
41523 32697 5362 10308 20156 48478 .11470 333 58011=
24856 42598 80403 10149 20090 40041 52002 885//   333 88625=
30686 42999 53601 10239 20075 49991 57029 80002=
30777 42998 32404 10329 20040 49998 57027 80002=
30961 42699 81703 10342 20058 49996 58023 82106=
30971 42999 31601=
30978 42999 02502 10322 20093 40027 57027=
31624 42599 60000 10244 20070 40067 57024 86901=
31832 42599 63203 10206 20105 40083 57011 82202=
24982 41499 62302 10129 20043 40076 57010 70282 86900=
31913 42699 61604 10217 20142 40082 57012 86200=
32121 42599 33204 10129 20068 40105 54000 83100=
32128 42599 73202 10101 20067 40098 56007 86530=
42779 32597 42702 10354 20190 39330 49987 83401 333
59010 82825 83075=
42867 32597 23210 10368 20205 49996 82200 333 59006 82830=
42934 32597 40502 10325 20215 40017 81530 333 58004
81630 83360=
43041 32597 10502 10330 20209 39413 40003 81100 333
59012 81830=
98336 32480 50402 10320 20278 40075 57012 82270
333 56199 82818 84358=
98431 31476 30903 10318 20258 40078 58009 70544 81201
333 56999 81818=
98531 32478 61405 10344 20270 40059 57015 82402
333 56999 82618 85080=
98536 31470 50802 10318 20250 40065 58013 70544 82260 222//
20000
333 56999 82818 83357=
98646 32460 50202 10316 20267 40083 57017 82902
333 56999 82918 84080=
98741 31470 60402 10300 20257 40082 57012 70544 82208
333 56999 82817 86275=
98747 31470 23603 10312 20250 40052 57018 70544 82301
333 56999 81917=
98753 31465 61803 10310 20252 40053 57004 70544 85932
333 56999 83915 83816 83358=
87078=
43086 32597 33204 10342 20243 39844 40015 82801 333 58001=
43128 31597 33406 10314 20251 39425 40008 70162 82502 333 59010
82620=
43150 31596 40000 10326 20271 39932 40004 70522 82831 333 59011
81620 84070=
43185 32597 63204 10344 20251 30001 40004 82501 333 59016 82620
85070=
43189 32597 52702 10368 20230 39992 40001 82432 333 59014=
43201 32497 72704 10280 20200 39329 40031 85802 333 56609 59009
84618 86075=
43213 32597 52702 10310 20222 39714 40023 84809 333 56609 59011=
43233 32398 72312 10278 20205 39240 40028 85631 333 56599 59006=
43245 32597 63204 10356 20249 39989 40011 81531 333 59013=
43279 32997 82712 10334 20209 39998 40015 83036 333 59005 83360
88270=
43295 32497 72705 10256 20200 39042 48461 85631 333 56699 59011
82710 83616 85358=
43314 31597 73403 10274 20236 40070 71722 8397/ 333 57932 57952
59012=
43321 31496 69902 10296 20206 39608 40044 70522 82531 333 59004 82615
83358 86070=
43329 32597 62904 10346 20203 30007 40020 83550 333 59021=
43353 31496 59903 10288 20242 40079 70265 83830 333 56790 59005
82616 84359=
43369 32597 62706 10318 20253 40076 83431 333 59014 82620 84360=
43371 32597 62702 10316 20222 30000 40071 84370 333 57912 59004
83620 81925 85360=
23205 11384 80304 10061 20045 40119 52013 60010 70282 886//   333
20042 88706=
23418 31460 83303 10117 20110 40086 52006 78082 889//
333 20129 85714=
27199 11398 83201 10147 20129 40153 52005 69910 78086 883//   333
20152 85706=
27271 11698 33502 10158 20097 40173 55001 60030 70161 82101   333
20112=
27459 11598 73603 10135 20103 40190 52003 60020 70262 85808   333
20120=
27730 32965 10102 10152 20097 40208 52004 81030   333 20083=
22165 31908 91804 10056 20056 40116 58006 74341   333 20018=
22422 42480 51403 10127 20076 40072 57016 82131   333 82813=
22954 32684 71905 10168 20040 40148 57015 81141   333 20066=
27066 32798 23202 10171 20065 40169 53001 82200   333 20115=
27083 11599 73602 10141 20117 40155 52004 60030 70262 87900   333
20117 87922=
27113 32597 82204 10158 20051 40152 58021 8333/   333 20020=
27242 32984 72401 10172 20089 40185 58001 80001   333 20068=
27329 32976 72302 10174 20077 40196 58004 83032   333 20049=
27355 12584 53402 10158 20092 40193 52007 60010 82932   333 20100=
27373 11599 83503 10144 20110 40171 51003 60040 70182 86531   333
20122=
27665 11349 83402 10132 20125 40180 58001 60070 76162 8872/   333
20140 86709=
27823 12982 20404 10154 20071 40214 52001 69950 80001   333 20086=
28009 31665 70000 10171 20143 40125 58003 72582 87900   333 20131=
28411 31797 80304 10224 21120 40139 58003 78082 82331   333 20157=
22365 32480 11102 10117 20078 40118 57004 81200   333 20057=
22438 32581 62007 10135 20076 40087 57024 82134   333 20090=
22641 32584 81804 10156 20034 40104 58021 85932   333 20095=
22854 32584 61705 10161 20032 40134 57013 82284   333 20066=
22867 32589 42202 10175 20064 40150 57010 81101   333 20066=
22939 32597 71505 10147 20062 40142 57016 8655/   333 20568 85920=
27008 32682 71602 10126 20081 40132 57019 85530   333 20061=
27051 32960 02102 10170 20028 40170 53001 33320   063=
27225 33569 81702 10163 20068 40170 57020 885//   333 20072 88620=
27252 12584 62902 10168 20056 40183 52001 69930 82201   333 20080=
27369 12662 50103 10147 20105 40179 52006 60010 85300   333 20124=
27393 11498 80504 10179 20150 40155 58006 60030 78082 8697/   333
20152=
27479 11284 83003 10146 20133 40171 53007 60020 78082 889//   333
20152 88906=
27532 12997 23102 10159 20055 40203 58001 69930 80001   333 20074=
27648 12564 63503 10147 20113 40199 53011 60100 84501   333 20116=
27679 32567 73601 10193 20161 40173 52001 85540   333 20175 85624=
28214 10910 31599 82602 10175 20144 40145 58004 70281 8696/   333
20140 86929=
31285 42699 80000 10188 20125 40074 57025 885//=
31561 42698 60104 10235 20050 40068 57014 84201   333 91110=
32010 42997 21104 10130 20023 40111 57004 82030   333 91113=
38345 32799 22503 10151 20000 38824 48328 52011 82200
333 20057=
51087 32680 13203 10222 20059 39217 40129 57010 81102 333
00755 20126=
51156 32780 72703 10167 20004 38708 40145 52001 86402 333
00605 20068=
51068 11680 23602 10209 20048 40146 57006 69901 70080 82302
333 00700 20138=
51186 32680 23202 10206 20060 40116 57012 82202 333 00655
20101=
51232 11780 73205 10211 20091 40165 52005 69901 70060 84532
333 00855 20163=
53852 11678 83402 10166 20137 40132 57006 60021 70060 8651/
333// 20141=
53966 11570 83602 10161 20146 40123 54000 60091 76066 8272/
333// 20141=
96195 32462 70000 10312 20258 30043 40078 56009 84231
333 56000 57804 84815 80840=
96581 01460 80000 10272 20246 30090 40097 57014 60171 70262 8417/
333 56809 57881 69917 84818 88462 80840=
96633 32560 51603 10313 20240 30049 40057 57020 82531
333 56000 81620=
96655 01459 62402 10272 20241 30058 40086 57026 60041 72162 84572
333 56700 69917 84610=
96685 31460 81102 10315 20232 30040 40066 57030 71522 85871
333 56000 57802 82615 84818 80862=
96805 31560 81202 10292 20246 30068 40078 53009 71422 8522/
333 56009 57801 85820 85460 80860=
87097 11560 80000 10129 20129 39873 40190 58001 60011
71062 8357/ 333 56009 83630 88360=
87155 11360 81103 10128 20121 30112 40174 53005 69941 71062 8767/
333 56279 87708 88360=
87162 11970 80509 10140 20126 30090 40162 56009 60021 70262 8802/
333 56009=
87166 11368 81103 10130 20117 30098 40172 57001 60021 70262 8362/
333 56669 83709 85560=
87178 11770 80905 10148 20117 30032 40179 57015 69901 70262 8802/
333 56009 88556=
87270 32965 10503 10108 20086 30114 40177 57001 80006 333 56007
81270=
87289 32970 00910 10098 20068 30105 40188 57016=
87374 32965 00504 10092 20075 30076 40170 57001=
87393 31960 00904 10080 20058 30122 40187 57019 71000=
87395 32965 00508 10091 20068 30141 40186 58016=
87497 32965 00000 10082 20056 30158 40183 51008=
87534 32960 03612 10095 20082 39961 40123 58008=
87548 31960 00216 10094 20077 30057 40154 51012 71000=
87576 32960 60209 10125 20057 30164 40188 50008 80006
333 56006 86270=
87582 32960 03614 10125 20079 30186 40193 50007=
87623 41965 83607 10102 20090 39878 40105 51004 71022 8802/ 333
56069 88564=
87645 32965 03611 10062 20058 39950 40161 52004=
87692 32960 50209 10092 20071 30150 40175 53004 80006 333 56006
85270=
87715 32965 62709 10173 20054 39733 40044 52011 81076 333 56066 81360
85270=
87750 32965 63220 10097 20070 30090 40108 52011 86070 333 56070
86360=
87765 11440 89903 10003 21010 39116 48403 52023 60151
77176 8372/ 333 56669 83712 88540=
71472 36/// /1307 10107 30198 40216 53007 333 10107 20075 70000=
87022 32965 00000 10092 20079 39606 40130 58015=
87046 32965 00000 10070 20048 39109 48478 58011=
87047 32968 00000 10022 20015 38772 48480 57013=
87121 41956 80000 10080 2007439610 40138 56010 71010=
87129 32970 00000 10073 20070 39908 40143 56001=
87217 32970 02706 10073 20058 39617 40120 51009=
87222 32970 00508 10106 20068 39577 40098 52011=
87320 32965 01414 10094 20068 39591 40126 54003=
87328 32980 00905 10088 20048 39470 40122 58001 333 95000=
87344 32965 03403 10082 20049 39574 40122 55004=
87349 32965 03609 10090 20071 39730 40125 55001=
87371 32962 00508 10106 20094 30149 40171 51001=
87416 32970 00000 10058 20048 39347 40090 58001=
87418 32965 01802 10073 20067 39300 40110 58001=
87436 32980 60506 10087 20082 39272 40084 58009 82076=
87448 32970 00000 10034 20023 39535 40103 58004=
87453 32970 03604 10082 20056 39614 40104 53003=
87467 32965 00504 10084 20077 30007 40143 53003=
87506 32970 63606 10078 21003 38518 48442 51008 86070 333 95090=
87509 32970 33612 10050 20026 39227 40084 52004 83070=
70133 32966 00000 10022 21006 30214 40221 55000 90553 333 10044
20011 555 90306=
70231 32966 61204 10156 20044 30082 40209 53004 90553 333 10172
20072 555 90306=
70261 12766 62304 10139 20083 30040 40209 53002 69951 90553 333
10167 20094 555 90306=
70273 32866 62808 10100 20044 30175 40225 53004 90553 333 10144
20056 555 90306=
70308 11359 81017 10050 20033 30080 40091 53006 69901 710// 90553
333 10078 20044 555 90306=
70316 12466 81214 10056 20039 30108 40148 53001 60091 90553 333
10067 20056 555 90306=
70326 32766 61813 10094 20006 30192 40212 53002 90552 333 10122
20056 555 90306=
70350 32966 01909 10083 20006 30202 40245 55002 90553 333 10111
20033 555 90306=
70361 32466 69905 10094 20083 30215 40232 55002 90553 333 10128
20033 555 90306=
70398 35966 00000 10128 20100 30162 40204 53005 90553 333 10211
20072 555 90306=
70341 32666 81909 10089 20022 30217 40245 57002 90553 333 10111
20033 555 90306=
72201 32566 21204 10272 20239 30175 40183 58005 90553 333 10283
20256 555 90306=
72202 32966 00000 10256 20233 30178 40184 58006 90556 333 10278
20244 555 90306=
72203 32566 40000 10239 20217 30185 40191 58006 90553 333 10272
20228 555 90306=
72205 32966 00000 10222 20206 30157 40195 58002 90553 333 10278
20183 555 90306=
72206 32966 02006 10233 20200 30173 40184 58007 90556 333 10289
20183 555 90306=
72207 32966 02504 10233 20211 30161 40180 58004 90553 333 10294
20183 555 90306=
72208 32966 02606 10244 20217 30163 40178 53001 90556 333 10283
20200 555 90306=
72211 32966 01303 10261 20211 30178 40192 58003 90553 333 10294
20222 555 90306=
72212 35/// /0000 10222 20217 30170 40186 58003 90553 333 10300
20194 555 90306=
72214 32966 03006 10256 20178 30165 40186 58003 90553 333 10328
20172 555 90306=
72217 32966 03003 10228 20167 30054 40179 58004 90553 333 10333
20161 555 90306=
72218 32964 02805 10256 20161 30115 40167 58003 90553 333 10344
20150 555 90306=
72219 32966 02805 10228 20172 39821 40185 58007 90553 333 10294
20200 555 90306=
72223 31959 20000 10217 20211 30122 40199 58005 710// 90556 333
10283 20189 555 90306=
72226 32966 00000 10233 20183 30115 40188 58003 90553 333 10322
20178 555 90306=
72231 32966 02403 10252 20212 30185 40198 58004 90553 333 10283
20228 555 90306=
72234 31959 40000 10211 20200 30086 40194 58001 710// 90553 333
10306 20172 555 90306=
72235 32966 20000 10222 20194 30075 40193 50001 90554 333 10317
20189 555 90306=
72240 32966 01703 10233 20222 30180 40201 50000 90553 555 90306=
72243 32966 81803 10267 20239 30156 40192 51004 90553 333 10300
20200 555 90306=
72248 32964 00000 10244 20222 30092 40187 58001 90556 333 10311
20228 555 90306=
72250 32966 01409 10267 20244 30175 40182 50009 90556 333 10300
20250 555 90306=
72251 32966 01410 10256 20239 30156 40174 50002 90551 333 10294
20233 555 90306=
72253 12766 81307 10250 20211 39901 40177 51013 69901 90553 333
10306 20233 555 90306=
72254 35966 01608 10256 20206 39966 40177 50014 90553 333 10289
20228 555 90306=
72255 35461 21104 10239 20233 30151 40186 51009 90551 333 10289
20222 555 90306=
72256 12766 80204 10244 20228 30007 40183 50010 69901 90553 333
10306 20228 555 90306=
72259 12966 80108 10244 20222 39988 40187 50006 69901 90553 333
10306 20239 555 90306=
72261 35962 03604 10233 20217 39801 40156 50003 90553 555 90306=
72263 11664 81903 10228 20217 39514 40176 50005 69951 761// 90553
555 90306=
72265 32966 00000 10211 20194 39202 40176 51011 90553 555 90306=
72266 31259 80907 10210 20210 39563 761// 90613 333 96010 555
90306=
72267 32366 80706 10189 20178 39089 40188 50006 90553 555 90306=
72270 11856 81303 10183 20161 38895 40201 51037 60131 795// 90551
333 10322 20183 555 90306=
72274 32966 03205 10300 21006 39252 40127 51017 90555 333 10378
20228 555 90306=
72278 32966 02805 10328 20044 39740 40117 51013 90556 333 10389
20267 555 90306=
72290 32962 03405 10183 20150 30168 40180 51005 90551 333 10206
20172 555 90306=
72295 32361 62609 10167 20150 30140 40178 53006 90550 555 90306=
72304 17956 02406 10211 20206 30152 40155 58005 69901 710// 90551
333 10233 20200 555 90306=
72308 32966 00903 10244 20189 30131 40139 58008 90551 333 10306
20211 555 90306=
72310 32966 02505 10261 20156 30083 40161 58001 90556 333 10350
20194 555 90306=
72311 31959 02904 10228 20167 39894 40177 58007 705// 90553 333
10300 20178 555 90306=
72314 32962 00000 10222 20200 39893 40161 58006 90551 333 10306
20172 555 90306=
72317 31859 63204 10239 20183 39841 40158 58007 705// 90554 333
10294 20194 555 90306=
72324 32962 62103 10233 20200 39948 40189 58003 90553 333 10306
20172 555 90306=
72326 32861 62203 10222 20200 39833 40182 58004 90553 333 10283
20189 555 90306=
72327 31959 83604 10250 20194 39980 40190 58000 705// 90553 333
10289 20189 555 90306=
72334 32964 80505 10267 20206 30095 40193 50002 90553 333 10322
20217 555 90306=
72340 32961 23405 10222 20206 30112 40205 53003 90553 333 10306
20206 555 90306=
72344 32961 60603 10228 20217 30044 40207 50005 90553 333 10239
20211 555 90306=
72351 11862 80908 10206 20200 39836 40200 50003 60011 761// 8/07/
90553 555 90306=
72353 31262 80907 10210 20200 39757 761// 90611 555 90306=
72356 12966 80504 10200 20183 39980 40220 50004 69931 90553 555
90306=
72363 31256 80807 10170 20160 38983 763// 90612 333 96010 555
90306=
72365 12966 40310 10183 20128 38448 40183 52004 60021 90556 555
90306=
72374 35966 02409 10217 21033 38553 40150 51013 90556 333 10328
20156 555 90306=
72384 32966 03510 10233 20072 39976 40149 53018 90556 333 10344
20172 555 90306=
72386 32966 02107 10289 21006 39372 40116 53012 90556 333 10378
20233 555 90306=
72389 32966 03014 10244 20100 30032 40149 51014 90556 333 10350
20167 555 90306=
72394 35262 83304 10111 20100 30105 40196 50003 90551 333 10167
20106 555 90306=
72401 31958 61804 10233 20217 30078 40141 58006 710// 90554 333
10300 20194 555 90306=
72403 32761 83008 10239 20183 30028 40140 53003 90551 333 10239
20167 555 90306=
72407 32966 02707 10217 20178 30101 40122 50000 90554 333 10283
20178 555 90306=
72408 32866 42909 10250 20167 30107 40128 50005 90554 333 10300
20183 555 90306=
72411 32961 02606 10228 20167 39748 40158 56012 90554 333 10289
20178 555 90306=
72412 17558 62503 10178 20172 39317 40174 58004 60041 710// 90551
333 10239 20156 555 90306=
72414 11656 60000 10194 20189 39834 40180 53003 60041 710// 90554
555 90306=
72421 32866 40107 10150 20089 39901 40215 51016 90551 333 10256
20150 555 90306=
72422 12566 80109 10200 20133 39851 40202 51013 69901 90554 333
10244 20189 555 90306=
72428 32966 23205 10150 20044 39915 40207 51014 90551 333 10256
20150 555 90306=
72429 32966 03305 10122 20089 39866 40225 51012 90552 555 90306=
72432 32966 00509 10189 20122 30078 40217 51016 90554 555 90306=
72434 32966 43003 10161 20122 30033 40233 50005 90553 333 10256
20161 555 90306=
72438 32966 60306 10139 20094 39942 40232 51009 90555 555 90306=
72440 32966 00304 10178 20161 39780 40229 50001 90554 555 90306=
72445 32966 00105 10128 20111 39919 40241 50004 90554 333 10239
20122 555 90306=
72446 32966 00706 10172 20111 39877 40244 50004 90553 333 10217
20150 555 90306=
72450 32966 20704 10172 20128 39759 40236 50003 90556 333 10222
20156 555 90306=
72451 32566 81405 10167 20128 39328 40233 58002 90556 333 10206
20133 555 90306=
72456 32966 00000 10150 20144 39927 40246 51003 90556 333 10228
20150 555 90306=
72458 35966 01504 10139 20089 39714 40243 50002 90555 333 10244
20128 555 90306=
72464 12966 00208 10156 20094 38610 40191 50000 69901 90554 555
90306=
72465 32566 41810 10150 20094 38956 40218 58004 90556 333 10228
20078 555 90306=
72476 32966 00706 10178 21106 38558 40123 51014 90556 333 10328
20150 555 90306=
72486 35966 02806 10133 21122 38130 40148 53015 90553 333 10278
20044 555 90306=
72492 32966 03108 10178 20078 30163 40172 53013 90556 333 10306
20122 555 90306=
72503 12666 42810 10233 20172 30097 40109 50004 69931 90551 555
90306=
72508 12966 49904 10178 20144 30026 40098 51013 69901 90551 333
10206 20144 555 90306=
72509 12966 42414 10200 20189 30063 40072 58001 60011 90554 333
10217 20189 555 90306=
72515 32566 83011 10122 20072 39584 40155 51021 90556 333 10211
20122 555 90306=
72518 32966 02814 10150 20111 30018 40122 51025 90551 333 10211
20139 555 90306=
72519 32566 42814 10133 20094 30010 40155 51024 90554 333 91017
555 90306=
72520 32566 63609 10140 20090 39763 90609 555 90306=
72524 32566 80113 10130 20080 39943 90609 555 90306=
72528 32566 83013 10120 20080 39929 90607 333 91017 555 90306=
72530 32966 00504 10117 20078 30007 40253 53008 90556 333 10211
20100 555 90306=
72532 32966 00000 10133 20094 30001 40245 52007 90554 333 10244
20133 555 90306=
72533 32966 03604 10117 20089 39935 40236 50006 90554 333 10228
20117 555 90306=
72537 32966 03608 10111 20056 39991 40230 51014 90554 333 10239
20111 555 90306=
72546 32966 00607 10156 20083 39905 40253 50004 90554 333 10217
20128 555 90306=
72547 35966 03503 10133 20094 39861 40254 51002 90555 333 10189
20128 555 90306=
72552 32966 01106 10122 20078 39582 40248 58001 90556 333 10222
20067 555 90306=
72556 35966 21304 10117 20078 39692 40250 58003 90554 333 10211
20072 555 90306=
72557 32966 00906 10139 20089 39859 40258 50003 90555 333 10217
20083 555 90306=
72562 32966 01007 10128 20067 39249 40226 58005 90556 333 10233
20044 555 90306=
72564 32966 01710 10150 20094 38162 40155 58002 90556 333 10228
20044 555 90306=
72565 32966 41715 10172 20089 38365 40144 58008 90553 333 10244
20072 555 90306=
72569 32966 03410 10122 20078 38367 40129 51001 90555 333 10272
20017 555 90306=
72572 32966 01410 10189 20044 38710 40116 51003 90556 333 10306
20106 555 90306=
72576 35966 02811 10167 21056 38315 40136 50010 90556 333 10289
20033 555 90306=
72578 32966 00000 10139 20028 38644 40141 52010 90556 333 10300
20022 555 90306=
72583 35966 00000 10156 21061 38717 40169 51020 90556 333 10306
20028 555 90306=
72591 32966 00000 10206 20089 30041 40162 53014 90555 333 10322
20133 555 90306=
72597 32966 02105 10194 20028 39707 40179 51025 90556 555 90306=
72606 32966 02309 10194 20167 30021 40038 50001 90551 333 10206
20133 555 90306=
72617 32566 63214 10150 20089 39977 40100 53033 90554 333 10228
20133 91023 555 90306=
72635 32966 23406 10094 20056 39953 40248 51007 90556 333 10206
20094 555 90306=
72636 32966 00107 10094 20061 30018 40253 51005 90555 333 10183
20094 555 90306=
72637 32966 03307 10083 20061 39960 40241 51009 90553 333 10194
20078 555 90306=
72638 35666 83507 10078 20056 39828 40252 51011 90555 333 10178
20072 555 90306=
72640 32966 00000 10089 20072 30003 40258 53005 90552 333 10200
20083 555 90306=
72641 32966 00000 10117 20111 39938 40249 51001 90553 333 10178
20111 555 90306=
72644 32966 03204 10106 20072 39785 40265 51004 90554 333 10161
20089 555 90306=
72645 32966 00000 10083 20072 30003 40264 51011 90556 333 10178
20078 555 90306=
72651 32966 41005 10100 20072 39740 40259 50004 90556 333 10189
20067 555 90306=
72654 32966 41207 10139 20089 39776 40245 58007 90555 333 10189
20067 555 90306=
72659 32966 81207 10122 20061 39772 40246 58007 90556 333 10183
20061 555 90306=
72662 32966 01508 10100 20089 39073 40183 58010 90555 333 10222
20011 555 90306=
72666 32966 03307 10128 20100 38782 40138 58008 90556 333 10244
20006 555 90306=
72677 32966 00305 10161 20078 38910 40135 58009 90556 333 10244
20039 555 90306=
72681 32966 01406 10189 20017 39144 40124 51012 90556 333 10317
20111 555 90306=
72683 35966 02909 10150 20006 38755 40171 51022 90553 333 10278
20028 555 90306=
72688 32966 00605 10150 20028 39641 40173 53021 90556 333 10256
20094 555 90306=
72693 32966 03303 10122 20083 30056 40191 53014 90556 333 10244
20078 555 90306=
72694 32966 00000 10150 20078 30116 40189 53015 90556 333 10250
20089 555 90306=
72698 32966 43007 10178 20100 30187 40195 53014 90555 333 10244
20111 555 90306=
72712 31261 83613 10080 20080 39799 761// 90603 555 90306=
72745 32966 00000 10050 20044 39740 40268 50002 90555 333 10150
20050 555 90306=
72747 35966 02403 10044 20022 39817 40258 51002 90555 555 90306=
72753 32966 01805 10100 20044 39922 40259 50000 90553 333 10178
20061 555 90306=
72764 32966 00703 10078 20067 39635 40238 57001 90552 333 10172
20022 555 90306=
72767 32966 00904 10117 20067 39535 40220 58005 90552 333 10178
21010 555 90306=
72768 32966 00917 10133 20067 39360 40179 55009 90556 333 10189
20033 555 90306=
72772 32966 02605 10167 20078 38820 40168 51023 90556 333 10261
20033 555 90306=
72773 32966 42905 10139 20050 39057 40169 53013 90556 333 10261
20033 555 90306=
72776 32766 69905 10139 20078 38899 40160 51017 90556 333 10211
20017 555 90306=
72777 35866 80612 10133 21006 39260 40176 53013 90556 333 10189
20033 555 90306=
72779 35966 60000 10161 20050 39119 40154 53004 90556 333 10222
20033 555 90306=
72781 35966 02004 10133 20000 39794 40184 51026 90556 333 10278
20067 555 90306=
72785 32966 02208 10128 20056 39330 40163 51011 90556 333 10211
20100 555 90306=
72793 32966 23605 10139 20061 30048 40211 53006 90556 333 10194
20100 555 90306=
72306 31958 00000 10222 20211 30000 40153 58003 710// 90551 333
10306 20183 555 90306=
72315 32962 03207 10189 20161 39433 40182 58007 90554 333 10261
20167 555 90306=
10317 20189 555 90306=
72402 15866 22006 10206 20178 30125 40127 57020 69901 90554 333
10256 20183 555 90306=
72405 11858 83607 10217 20206 30111 40134 58005 69951 710// 90551
555 90306=
72406 32966 82807 10222 20189 30075 40130 50002 90554 333 10250
20194 555 90306=
72423 32866 63614 10194 20111 30037 40211 51021 90556 333 10250
20194 555 90306=
72425 12664 63405 10194 20178 39892 40189 51015 60071 90551 555
90306=
72504 15661 23011 10206 20189 30095 40100 53006 60031 90554 333
10233 20167 555 90306=
72507 32666 22705 10189 20178 30065 40088 50004 90551 333 10217
20183 555 90306=
72513 32966 03511 10156 20117 39809 40141 51032 90554 333 10194
20139 555 90306=
72521 32566 80214 10122 20083 39769 40211 53019 8/5// 90551 333
10222 20122 91018 555 90306=
72529 32566 82912 10133 20089 39974 40176 53019 8/5// 90554 333
10211 20133 555 90306=
72535 32966 03605 10089 20078 39964 40248 53006 90554 555 90306=
72536 32966 03608 10122 20072 39974 40225 51010 90552 333 10256
20122 555 90306=
72544 32966 20000 10117 20111 30029 40248 51004 90555 333 10211
20117 555 90306=
72592 32966 00204 10211 20067 39983 40162 53015 90556 333 10322
20133 555 90306=
72605 35966 03011 10194 20122 39942 40066 53007 90551 333 10211
20128 91019 555 90306=
72783 35966 00000 10144 20083 39655 40171 50009 90556 333 10250
20122 555 90306=
72784 32974 03610 10172 20007 39902 40165 52025 333 10287 20127
555 90306=
72791 35966 01504 10117 20106 30198 40205 51008 90556 555 90306=
89062 42/98 83606 11019 21080 39802 49843 57037=
87791 32680 83216 10126 20091 30062 40070 51008 8802/ 333 56079
83540
88460=
87803 11570 80502 10008 20004 39110 40029 53012 60061 71576 8282/
333 56609 82820 88550=
87828 32980 82310 10120 20056 39973 40024 52023 85076 333 56000
85360 84270=
87860 32980 52901 10078 20000 39934 49990 52029 81076 333 56066
81360 84070=
87903 32580 10000 10014 21027 39628 49891 52015 81400 333 56000
81630=
87909 32980 33610 10034 21022 39870 49945 53037 83070 333 56000
83360=
87925 32980 03210 10028 21030 39864 49887 52025=
87938 11580 62309 10054 20002 39726 49795 52068 69901 70352 82570 333
56550 82630 86360=
33228 40091=
94103 35/// /0615 10245 3//// 5////=
94151 35/// /2109 10244 30103 40123 57015=
94290 35/// /1216 10226 30142 40149 52001=
91503 31480 60000 10281 20256 40084 56001 71522 82836
333 56299 82818 85280=
91507 01475 50000 10285 20252 40086 52001 69901 75052 84858
333 56299 69907 82816 83625=
94129 35/// /1506 10248 30077 40100 57023=
94210 35/// /0807 10252 30127 40132 57017=
94289 35/// /1317 10230 30131 40140 57001=
94307 35/// /0719 10212 30120 40160 57022=
94379 35/// /1312 10211 30155 40164 52003=
96749 11560 81005 10275 20257 30062 40076 58021 60041 8452/
333 56009 84620 88460=
97014 01458 70806 10286 20230 39970 40063 57005 60031 79196 86921
333 56000 57902 60037 82913 80970 84817=
97028 01463 80906 10264 20243 30040 40046 57018 60081 72996 85321
333 56000 57602 60047 81919 84619 87460 80960=
97048 31560 71810 10315 20235 30019 40043 57021 71522 86931
333 56400 57941 57842 81920 80980 84820 80860=
97072 01458 70706 10316 20229 39974 40076 56018 69901 76062 84871
333 56000 57802 69907 83819 80860=
97086 01459 62507 10260 20242 30040 40063 56017 60031 72162 83271
333 56000 57000 60037 83617=
97180 32460 70303 10208 20232 30036 40054 56021 84232
333 56000 83819=
97192 32467 30303 10304 20228 30021 40085 57016 82231
333 56200 57825 82817 80840=
97230 11462 71109 10281 20237 30066 40073 57019 60051 70262 84231
333 56000 57801 84619=
97270 31458 51610 10296 20221 30073 40077 56009 70521 85801
333 56000 57802 85813 80860=
97300 32565 52208 10294 20200 30052 40084 57018 83201
333 56400 57841 83820 80858=
97340 32570 60910 10276 20200 30082 40093 57007 83232
333 56200 57826 83820 80856 85360=
97372 32565 01015 10284 20182 39961 40090 57019
333 56000=
97430 01458 71703 10286 20252 30033 40063 56014 69901 76096 84922
333 56700 57971 69907 82915 86458 80980=
97600 32462 71208 10298 20255 30078 40084 58011 84271
333 56300 57832 84817 80858=
97900 32468 71105 10270 20206 30092 40123 54001 84820
333 56200 57821 83617 87460 80873=
96001 01557 82315 10270 20222 39926 40070 56011 60071 70262 84522
333 56600 69947 84820=
96015 01461 70404 10301 20250 30052 40059 56018 69921 70262 85232
333 56100 57812 69927 82815 83615 80857=
96033 32461 50609 10310 20258 30067 40074 55011 83931
333 56000 57902 57803 80920 83818 80980 80860=
96075 01459 63312 10294 20248 30061 40071 57006 69981 72162 84271
333 56000 57802 69987 84818 80858=
96171 31460 70000 10302 20241 30047 40071 54000 70242 85222
333 56000 57802 85815 80833=
96525 11465 53303 10294 20239 30056 40060 57026 60121 70162 82116
333 56500 82813=
96529 32458 63004 10308 20250 30058 40082 57014 84131
333 56000 84815=
96557 32470 70000 10290 20241 30034 40070 57026 85921
333 56600 57962 67861 81914 80960 84815 80858 86460=
96595 11460 70000 10296 20238 30025 40072 57021 69931 70562 86532
333 56600 86612=
96695 01458 73006 10280 20263 30066 40071 57015 60181 72162 85220
333 56000 57802 60187 83818 80858=
96737 01416 80904 10254 20242 30048 40097 57016 60041 76162 8552/
333 56009 60027 85618 88459=
96751 32559 80606 10232 20184 39035 48920 86520
333 56209 79999 86620 83460=
96783 32459 80906 10246 20198 39252 48791 57013 71522 8392/
333 56009 57900 81918 84820 88462 80980=
96937 01550 81404 10261 20255 30078 40085 57014 60121 76022 8512/
333 56009 60127 85820=
97008 11460 30905 10299 20244 30048 40095 57011 69921 70162 82232
333 56000 57802 82819 80861=
97016 32566 62305 10306 20246 30049 40051 57020 84232
333 56000 57801 84820 80860=
97126 32460 40604 10309 20244 39973 40031 57024 82231
333 56000 57802 82817 80860=
97182 32561 62604 10315 20246 40059 52018 83231
333 56000 57802 83820 84360 80877=
97240 31462 51707 10300 20245 30049 40069 52020 70521 81231
333 56000 57801 81817 80860=
97320 32568 60807 10292 20225 30083 40100 56008 85831
333 56000 57801 83820 80850=
97378 32570 20920 10267 20249 39921 49924 56026 82101
333 56200 82820=
97722 01456 70806 10264 20246 40087 57016 60131 76096 86970
333 56200 57921 60027 82916 86457 80982=
97790 01457 71410 10259 20238 30033 40053 57017 60094 72162 84872
333 56300 57833 60057 81816 83617 80858=
91490 31599 39902 10281 2025/ 70200 83100 333 562//=
91601 31599 20910 10300 2025/ 40087 70200 82100 333 562//=
91623 11499 70907 10278 2025/ 69901 70228 83208 333 562/9=
91629 31599 40911 10284 2025/ 40083 70221 82138 333 56299=
91701 31499 30913 10278 2025/ 40085 70200 83200 333 562//=
71718 11666 83303 10070 20068 30013 40077 58007 60011 76166 885//
333 10115 20059 70022 90983=
91520 31480 70000 10296 20250 40079 57005 70522 82947
333 56299 81818 81920 87280=
91527 31480 10000 10300 20255 4//// 5//// 70500 81201
333 56000 81818=
91541 01480 50000 10270 20249 40083 57007 60121 70188 81201
333 56809 60067 81816 85080=
67009 11575 61218 10257 20212 30037 40157 51014 69984 71561 86200
333 020/6 10303 20216 50534 55/// 86820=
67012 32582 3//02 10276 20240 30150 40160 52009 83830
333 0//00 10323 20205 50174 55/// 83820
555 81640 81360=
67019 32482 1//// 10280 20173 30095 40161 51011 81800
333 02100 10334 20233 51104 55/// 81817
555 81633=
67025 11580 5//// 10244 20205 30084 40185 51018 60494 71500 85800
333 02079 10286 20215 50234 55/// 83820 84640=
67027 32982 11016 10270 20147 30151 40172 52010 80002
333 01700 10346 20200 50434 55092 81073=
67045 32982 11410 10280 20140 30086 40175 51008 81030
333 01800 10338 20217 5///4 55/// 81360=
67072 11465 72012 10240 20/// 30199 40202 51015 60034 72162 878//
333 02102 10255 20223 50394 55/// 85817 87640 92427=
67073 32982 00000 10265 20210 30153 40179 51011
333 01800 10320 20200 5///4 55///=
67083 32480 71509 10163 20129 38806 48574 52016 878//
333 01000 20125 50244 55010 84817 86620=
67095 32482 32206 10245 20191 30206 40212 52014 82830
333 00800 10250 20195 50104 55000 82817
555 81633 81360=
67117 32982 01202 10230 20165 30180 40189 52019
333 01400 10334 20175 50344 55///=
67137 32480 70402 10146 20124 38978 48571 52016 872//
333 01000 10214 20120 50244 55/// 87817=
67143 32580 32806 10230 20206 30221 40228 52008 83800
333 0//00 10268 20176 50//4 55/// 82820 92438=
67152 32982 00404 10196 20086 39278 48572 52017
333 0//00 10276 20140 50434 55///=
67157 12580 10000 10224 20203 30219 40226 52013 60014 81201
333 01701 10262 20165 50294 55/// 81820
555 81073=
67161 32980 00000 10252 20178 30178 40187 51009
333 01200 10303 20167 50284 55///=
67197 11456 80810 10198 20193 30227 40237 52017 60044 76066 888//
333 01816 10269 20200 50604 55032 83817 87633=
67023 12582 320// 10260 20199 30174 40180 52013 60334 83800
333 0//19 10/// 20220 50364 55/// 81820 83640=
67037 32982 00000 10265 20196 3//// 4//// 5////
333 0//00 10331 20204 55294 55///=
67107 32580 50404 10147 20105 38545 48583 52011 85800
333 00600 10220 20097 50154 55/// 83820 83627=
67131 32582 10810 10240 20152 30183 40188 52007 81200
333 0//00 10306 20144 50514 55/// 81820=
43181 32997 73405 10354 20217 39978 40004 80006 333 59013=
43221 32597 32903 10366 20217 39991 40004 81131 333 59016=
43311 32597 62710 10304 20253 40065 84801 333 59008 83620 83075=
43360 32997 32004 10242 20209 39883 40026 80001 333 59022=
43466 32498 42705 10304 20253 30057 40065 82201 333 59014 82818
83080=
43053 32596 61404 10330 20275 40019 83431 222// 20701 333 59003=
91165 32566 20506 10239 20194 30115 40165 53015 90553 333 10278
20211 555 90306=
91182 32566 60410 10244 20194 30153 40158 53019 90553 333 10306
20239 555 90306=
91190 32666 40310 10239 20194 30131 40161 53008 90554 333 10294
20194 555 90306=
91212 12566 21011 10300 20244 30005 40103 56012 69901 90554 333
10306 20272 555 90306=
91285 32566 60000 10239 20200 30156 40167 53014 90553 333 10278
20222 555 90306=
91334 11474 81210 10287 20283 30078 40081 56007 60061 72582 83371
333 56399 70102 555 90306=
91356 32574 60910 10289 20236 30072 40079 55000 83276 333 56299
70025 83822 555 90306=
91366 11574 40716 10282 20246 30073 40082 54000 69901 70281 83170
333 5623/ 70008 555 90306=
91413 11456 80908 10253 20244 30052 40071 58008 60101 78082 8627/
333 5629/ 70107 555 90306=
91765 32566 40918 10272 20214 30113 40117 52012 82101 333 562/9
70000 555 90306=
91245 31462 40512 10280 20250 30130 716// 90550 555 90306=
40420 42960 03405 10398 20040 39825 40017 333 20288 58001=
42361 31996 00000 10400 20229 49991 70600 333 59004=
29654 41599 81704 10115 20093 40041 53003 72598 889//   333 86920=
23426 32989 61804 10167 21007 40104 57010 85031   333 20098=
28076 12597 20603 10148 20030 40113 52002 69900 82200   333 20088=
28367 11596 72902 10195 20131 40091 52003 69900 70282 87500   333
20091=
28481 32599 60502 10160 20061 40072 53004 80200   333 10106=
28491 11598 40502 10135 20071 40064 57070 60100 70262 84200   333
20080 84820=
28593 31960 82502 10081 20070 40082 53001 76162 8802/   333 20058=
28797 31496 82304 10131 20064 40093 57015 78082 889//   333 20092
88917=
28799 11597 82702 10134 20073 40097 57009 69900 78086 889//   333
20085 88923=
23929 32998 80904 10184 20064 40104 54000 85032   333 20111=
28383 11698 50202 10152 20027 40077 57002 60050 70282 85900   333
20065=
28465 32581 82904 10201 20094 40088 52002 83331   333 20130=
28586 11599 70504 10109 20078 40069 57008 69990 70282 87900   333
20085 87927=
28588 11582 72705 10141 20094 40063 57027 69900 70262 85230   333
20109=
28688 11496 83204 10136 20070 40086 57014 69910 78082 883// 20101
88914=
28696 11699 82103 10114 20074 40074 57019 69900 78082 889//   333
20073 87636=
28791 31499 82305 10151 20055 40078 57018 72162 8677/   333 20107
86713=
29367 41584 61902 10178 20113 40030 51003 70282 85984=
23788 41598 83203 10220 20097 40060 57022 70242 85306=
23986 41464 89901 10141 20119 40051 56002 78082 8371/=
36087 41598 72205 10220 20171 40130 58002 79592 87900   333 95010=
36096 41699 70904 10235 20085 40020 58007 70282 82231   333 95000=
36103 41699 80000 10145 20095 40095 57002 70282 889//   333 95000=
36259 42599 72703 10123 20006 38191 48449 52004 85901=
36307 42599 72301 10227 20071 38860 48457 51001 85201   333 95000=
42559 32997 52702 10396 20190 4//// 80001 333 58/// 85070=
42667 32996 42910 10358 20213 39442 49997 81031 333 59006
81360 83075=
42675 32597 22703 10380 20195 49996 81101 333 59019 81830
81830=
42754 32996 22515 10350 20239 39404 40007 82030 333 59003
82360=
42874 32596 52704 10352 20218 49992 81530 333 59004 81625
84360=
60475 32960 00808 10175 20159 39257 48556 53008
333 01500 20165 95900=
29864 42699 72308 10202 20136 40048 52001 85201   333 95000=
43198 32497 72708 10276 20196 39230 40033 85801 333 56609
59006 84612 83820 85075=
43284 21396 72906 10264 20250 39954 40070 75165 83870 333
58000 6006/ 83608 83820 87458=
40001 32570 60904 10334 20056 40015 54000 86200 333 20226
30/// 86826=
40007 11565 42608 10235 20107 40020 52008 69901 70261 82530
333 20202 30/// 82630 83360=
40045 32970 20202 10312 20132 40023 58002 82030
333 20216 30/// 82360=
40080 32965 02205 10230 20117 39369 40037 52008 333 20164 30///=
40095 32570 50102 10208 20137 39458 40065 51003 85500 333 20166
30/// 85630=
40009 32570 300000 10258 20148 40015 53002 83500 333 20186
30/// 83630=
40016 32570 51601 10313 20070 40031 53006 85500 333 20188
30/// 85630=
40022 32565 21106 10234 20187 40071 53007 82100 222// 20000
333 20223 30/// 82830=
40030 32970 03104 10248 20130 40037 53008 333 20190 30///=
40039 32970 32804 10262 20108 40023 51006 83050 333 20215
30/// 83360=
51053 32680 70201 10204 20041 40146 52001 81162 333 00506
20114=
10215 20113 31010 55154=
84270 333 20132 30011 70001 84835 87459=
15614 31697 20000 10131 20090 39544 40239 52003 70100 82230
333 20075 50302 55108=
23219 11498 82803 10095 20082 40062 53007 60020 70262 886//
333 20086 88715=
71421 46/// ///// 10008 21018 39423 40123 58002=
71433 36/// /2808 10051 20051 30019 40251 51008 333 10080 20051=
83780 31458 51310 10140 20108 39305 40212 58005 71011
85500=
71841 36/// /3302 10058 20047 39840 40234 51017 333 10199 20058=
96935 01458 61207 10270 20243 30069 40070 57017 69931 76062 84531
333 56200 69937 84618=
83827 21560 81305 10130 20123 39896 40185 58006 71062
83521 333 60021=
83248 32470 31709 10259 20225 40158 83100 333 58013=
64700 32962 42606 10258 20226 39743 40075 82032 90545
333 02100 20254 51091 ///// 55072 59006 82365 84075=
64701 33960 11406 10276 20191 4//// 80002
333 0//00 20268 50952 ///// 55/// 5//// 81075=
64706 13962 71806 10242 20233 40081 60014 82573 930//
333 01800 20234 50264 ///// 55027 59011 82630 86365=
64709 13965 82604 10245 20223 4//// 60024 8807/ 965//
333 02259 20243 50224 ///// 5//// 5//// 88365=
64750 32962 71806 10245 20192 39686 40090 87072 90555
333 01800 20245 50551 ///// 55030 59004 87365=
64753 33962 30406 10291 21016 3//// 4//// 83030 965//
333 02700 20285 51864 ///// 55106=
64754 33962 61808 10310 10266 20221 4//// 86030 965//
333 0//00 20260 50144 ///// 55/// 5//// 86365=
64756 33962 41808 10310 20200 4//// 800002 975//
333 02600 20290 50841 ///// 55/// 59015 84075=
64758 33960 61608 10300 20228 4//// 86082 965//
333 0//00 20258 51314 ///// 55/// 5//// 86365=
61202 31925 00000 10304 20134 39518 40042 70600
333 02800 20304 51414 55063 59027=
61214 31958 00000 10310 20106 39544 40036 70600
333 02600 20305 51364 55079 59031=
61223 32960 52408 10302 20164 39762 40048 85080
333 02800 20302 59032 85364=
61226 31930 00000 10329 20138 39762 40043 70600 85040
333 02900 20330 51260 55079 59034 85365=
61230 32960 32808 10315 20187 39816 40071 80002
333 02700 20311 51592 55083 59011 83075=
61240 31756 62408 10330 20147 30753 40063 70611 81372
333 0//00 20330 5//// 55090 59013 85362 81940 94950 95875=
61257 32960 02608 10317 20212 30039 40090
333 02500 20317 50834 55096 59023=
61265 31970 72208 10305 20174 3//// 4//// 7019/ 87070
333  02800 20305 51360 55/// 5//// 87465=
61270 11965 50000 10244 20237 39715 40082 60244 70296 80002
333 02177 20231 5///0 55108 59014 85075=
61277 32970 20000 10296 20230 39775 40084 82040
333 02700 20296 50684 55106 59005 82365=
61291 32965 42004 10248 20214 39674 40077 81042 962//
333 02000 20247 59008 81362 83080=
61293 32970 22204 10280 20214 39673 40072 82040
333 02300 20280 51280 55510 59014 82365=
61296 32970 60000 10260 20216 30706 40089 80002
333 02400 20258 50560 55104 59009 86075=
61297 32970 72404 10255 20211 3//// 4//// 80006
333 02300 20255 50830 50444 55111 5//// 87275=
96853 31462 10912 10294 20230 39937 40062 57005 70522 83871
333 56000 57803 82818 80862=
96925 01463 82720 10246 20226 30081 40088 56001 60221 76166 8327/
333 56200 57820 60227 83817 87460 80860=
96973 32462 70705 10298 20262 30067 40071 57015 83976
333 56200 57923 81919 80977 82820 80856=
96987 31458 81608 10288 20242 30013 40078 57024 71422 86911
333 56400 57942 82920 84618 80980=
83378 32970 00000 10157 20132 38992 48551 333 58011=
96933 11460 81020 10299 20239 30070 40077 57017 69991 76022 8592/
333 56209 57921 81917 83618 88460 80960=
89816 46/// ///// 11249 38296 4//// 5////=
41150 42970 03211 10358 20192 40016 333 20292 30023 59001=
41184 42960 01902 10392 20199 40023 333 20206 58003=
41194 42960 09903 10357 20174 30011 40023 333 20250 3//// 58006=
41196 42960 01903 10381 20120 39980 40017 333 20212 30020 58003=
41216 41956 02504 10317 20254 30016 40020 70541 333 20259 30023
58004=
41217 41960 02404 10315 20246 39991 40020 70244 333 20252 30024
58004=
62600 32970 03403 10285 20125 39869 40074 333 10380
20240 58000=
62640 31965 03612 10330 20020 39703 40046 70700 333
10430 20270 59018=
62641 32970 03409 10340 20190 30005 40052 333 10400
20255 59015=
62650 32970 03607 10315 20060 39802 40064 333 10415
20230 58001=
62660 32970 73607 10320 20020 39/// 4/// 80007 333
10430 30265 56009 5//// 87275=
62680 31968 03407 10340 20080 39654 40033 70600 333
10455 20290 59012=
62721 31962 73407 10330 20060 39625 40046 70622 80007
10430 202809 56009 59005 871275=
62730 31968 01913 10325 20165 39/// 4/// 87070 333
10430 20299 5////=
62733 32970 72503 120325 2003039556 40048 80007 333
10445 20272 56009 59005 87275=
62750 32970 =
62751 32970 72604 10327 20143 39624 40069 82047 333
10457 20258 56099 58013 83365 87275=
62752 32970 71608 103125 20180 39399 40052 80007 333
10425 20270 56009 58006 87275=
62760 32970 71703 10265 20170 39287 40088 81037 333
10400 20258 56029 58021 83365 87275=
62762 32970 61805 10315 20205 39583 40041 80007 333
10416 20276 56009 59002 87275=
62770 41965 71810 10280 20196 39434 40097 70622 82047 33
10397 20245 56039 49002 83365 87275=
62771 32970 72706 10256 20196 39434 40069 60064 83037 333
10395 20234 56099 58009 83365 87275=
62772 32970 72605 10320 20180 39650 40070 80007 333
10436 20270 56009 58006 87275=
62790 32970 72703 10250 20190 39387 401106 87070 333
10395 20250 56090 58021 87365=
62795 1297(0 72205 10315 20170 39543 40032 69904 83047 333
10417 20282 46099 59008 83365 87275=
22695 32584 63202 10148 20040 40132 58005 86200 333 20098 86826=
62420 32960 03510 10219 20153 40113 51008
333 20186=
62435 32960 03309 10276 20142 40086 53016
333 20213=
62455 32960 03307 10238 20170 40092 51013
333 20206=
42123 32996 01403 10356 20205 40000
333 58016=
42542 32996 30205 10376 20218 39450 49992 80001
333 59007 83070=
98526 32570 80403 10306 20270 40066 57021 82277 333 56299
82820 86359 88275 98315=
84670 22233 00260 20304 310// 40704 5//// 6//// 80264=
82825 83075=
59004 82615 83358 86070=
42647 32996 72503 10354 20237 40025 82031 333 59010 82360
85075=
42737 32997 32503 10346 20231 40024 80001 333 59002 83075=
42909 32596 62904 10318 20262 40036 82502 222// 222// 21301
333 56600 59011 82620 84070=
43014 32596 73204 10294 20223 39400 40026 84502 333 59001
84620 87070=
43063 32597 70000 10298 20221 39426 40031 86801 333 58001
84628 83830=
43117 32597 62701 10300 20262 40027 84730 333 59009=
43192 31596 71802 10286 20249 40047 70522 84732 333 59009=
58008 70126=
63962 32480 60000 10166 20112 39009 48558 86200 90550
333 20105 50401 55088 55302 59002 86815=
71900 46/// /2710 30039  58005=
60467 33965 21214 10236 20144 40135 53017 80002
333 02000 20231 82073 95900=
63772 12580 42310 10276 20228 60014 83230
333 20265 83827=
71800 46/// /2311 30097  50008=
71403 36/// /1912 10092 20086 30023 40035 58039 333 10131 20086
70000=
63756 32582 31708 10212 20118 38882 48516 81902 91155
333 20168 50801 55107 55305 58002 81821 81922 83075=
63729 32581 21612 10240 20156 3//// 48/// 81930 90550
333 20160 50611 55105 55315 81820 81922=
63733 32582 60910 10220 20137 38869 48509 81101 90545
333 20150 50611 55103 55313 58003 81922 86078=
43157 32597 52701 10294 20213 39415 40031 83401 333 59002=
15615 31/91 90508 10035 21035 37175 47120 53002 74944 333 21045 41///
55007 555 92717 95199=
15627 31/91 93610 10001 20002 37669 47115 53002 74144 333 20000 55000
555 31/// 95199=
15712 31698 13402 10180 20081 40223 53003 70200 81100 333 20128 50762
55123 555 30009 95000=
15600 31298 53604 10070 20065 38370 48566 56004 70211 85200 333 20046
55095 555 31/// 95130=
15605 31998 00000 10139 20040 39407 40232 56001 70200 333 20040 555
30/// 95000=
15601 31998 10000 10138 20092 39619 40234 54000 70300 81100 333 20076
50492 55128 555 30004 95000=
15625 31960 22504 10160 20112 40225 51002 70100 82030 333 20115 555
31/// 95400=
15640 31798 12703 10182 20089 40205 51001 70300 81100 333 20145 55105
555 31012 95000=
15730 31698 33609 10177 20094 40214 53003 70200 83200 333 20128 50552
55095 555 31012 95000=
15552 31998 03605 10194 20096 40196 53003 70200 222// 00187 2//00 333
20145 50382 55090 555 31013 92015 92418=
15655 31998 00508 10182 20100 40201 53005 70211 222// 00170 20501 333
20149 555 31/// 92025 92428=
16743 32565 10624 10204 20082 39982 40178 53006 81200 333 90730
91138 555 10000 40182 20000 89049 99083 40000 47521 44225 50000
50140=
15535 31998 12301 10174 20124 40227 53005 70300 81050 333 20111 55114
555 30/// 82364=
43110 32598 53202 10294 20234 40051 83832 333 59006 83620 83822=
37484 12497 82204 10194 20183 40103 57001 60030 883// 333   20178=
51839 31/10 90703 10274 20028 49960 57009 70600 333// 05351
20205=
52203 11980 70000 10324 20082 39216 40014 57014 69901 70098
80002 333 00351 20178=
52267 32980 72203 10280 20072 39036 40062 57016 80002 333//
00351 20160=
51053 32680 70201 10204 20041 40146 52001 81162 333 00506
20114=
51087 32680 13203 10222 20059 39217 40129 57010 81102 333
00755 20126=
51156 32780 72703 10167 20004 38708 40145 52001 86402 333
00605 20068=
51839 31/10 90703 10274 20028 49960 57009 70600 333// 05351
20205=
51076 11680 20000 10202 20059 39305 40146 57003 69911 70080
82102 333 00852 20121=
51133 32680 72902 10195 20046 39531 40152 52002 82902 333//
00601 20099=
51243 32880 72202 10228 20041 39611 40129 57005 874// 333
00700 20164=
51288 32680 13606 10181 21031 38329 57011 81102 333 00555
20076=
51431 32780 72706 10212 20058 39384 40141 52014 82402 333
00202 20118=
51463 32778 80205 10168 20102 39075 40127 57007 885// 333
00455 20124=
51542 32680 72003 10104 20033 37551 57009 81102 333// 05108
21011=
51644 32780 72001 10263 20083 38848 40020 52003 81432 333
05308 20134=
51495 32680 73413 10295 21019 40115 57030 81802 333// 00254
20195 91121 91534=
51656 32980 70408 10280 20043 38999 40013 57018 80002 333//
00051 20099=
51709 11880 73604 10221 20026 38665 40048 52008 69901 70080
85962 333// 00153 20183=
51716 11965 73202 10176 20104 38845 40062 52012 69941 78098
8706/ 333// 00256 20173=
51828 31/50 92902 10242 20095 38552 40001 52006 70600 333//
05301 20195=
51931 31/15 90000 10261 20122 49972 57001 70600 333// 05301
20200=
51855 31958 70402 10285 20055 49945 57019 70600 80002 333
05154 20187=
51777 31956 80905 10294 20060 39002 49955 57035 70600 80007
333// 05256 20215=
51855 31958 70402 10285 20055 49945 57019 70600 80002 333
05154 20187=
55472 31780 71407 10164 21033 35775 57014 71400 87900 333
05109 20019=
55279 11680 40707 10077 20016 35755 57009 60041 72980 82902
333// 00103 20017=
55299 32780 50902 10128 20029 35903 57013 85400 333 00108
20014=
55578 32780 11402 10190 20044 36390 57012 81100 333 00101
20100=
55591 32780 22202 10219 20041 36536 57013 82200 333 00102
20102=
55664 32880 10000 10165 20044 36041 57010 81100 333 00101
20036=
55696 32680 23404 10178 20041 36373 57018 82200 333 00200
20072=
55773 32670 31103 10115 21007 36057 57001 83200 333 00105
21002=
56312 32680 72003 10219 20086 37092 57018 87800 333 00104
20106=
56106 32780 40401 10162 20038 36252 57020 84400 333 00106
20060=
56137 11680 70402 10218 20081 36837 57014 69901 72500 86902
333// 00551 20076=
91165 32566 20503 10239 20194 30115 40165 53015 90553 333
10278 20211=
91245 31462 40506 10280 20250 30130 716// 90550=
91285 32566 60000 10239 20200 30156 40167 53014 90553 333
10278 20222=
91334 11474 81205 10287 20283 30078 40081 56007 60061 72582
83371 333 56399 70102=
91348 11474 81303 10272 20251 30032 40084 55005 69981 70282
8527/ 333 56299 70549=
91353 32474 70703 10294 20265 30074 40079 51007 85230 333
5611/ 70033 85818=
91356 32574 60905 10289 20236 30072 40079 55000 83276 333
56299 70025 83822=
91366 11574 40708 10282 20246 30073 40082 54000 69901 70281
83170 333 5623/ 70008=
91376 32474 80706 10278 20239 30086 40090 53005 85806 333
562/9 70005=
91408 32474 83302 10272 20250 30041 40079 57007 87308 333
56222 70076=
91413 11456 80904 10253 20244 30052 40071 58008 60101 78082
8627/ 333 5629/ 70107=
91425 11474 70404 10256 20250 30072 40073 56014 60921 70282
83840 333 5611/ 70922 83618 84362=
98526 32570 80403 10306 20270 40066 57021 82277 333 56299
82820 86359 88275 98315=
98748 31475 43601 10336 20/// 40062 57018 70544 83971 333
56999 82917 84358=
48820 11598 70902 10312 20251 30069 40077 57011 60181 70398
879// 333 58008 83895 84895 85995=
48826 32597 61406 10306 20274 39949 40075 58007 862// 333
58013 86895=
48838 32598 61801 10315 20269 30084 40090 56008 84201 333
58013 84895=
48839 32498 21403 10327 20255 30019 40082 58010 82100 222//
2//01 333 58012 82894=
48845 32598 40903 10304 20262 30060 40067 57007 84200 333
58020 84895=
48848 11970 21406 10295 20261 30066 40074 58003 69911 70261
80001 333 58024 82099=
48855 32570 51109 10308 20249 30062 40070 58007 82208 333
58017 82895 85299=
48870 32498 21602 10314 20268 30064 40071 56009 82200 333
58010 81894=
48877 32598 69904 10315 20252 30072 40077 57010 84801 333
58019 82895=
48887 11570 72302 10315 20234 30071 40077 57009 69901 70362
8484/ 333 58012 82895 83697 85399=
48900 41496 62804 10260 20252 30067 40077 57008 78082 862//
333 58016 86894=
48914 11598 71802 10279 20240 30076 40078 57008 69911 70362
87801 333 58002 82895 86697=
48917 11497 81404 10259 20243 30065 40070 57010 60021 78082
8692/ 222// 00282 2//02 333 59012 83894 85995 88499=
48918 11470 71801 10267 20230 30070 40081 58016 69901 72162
878// 222// 00288 2//00 333 58006 81894 87696=
96109 32460 70000 10318 20240 30015 40056 56015 84531
333 56000 84616=
96237 01460 80703 10284 20254 30027 40078 56004 69901 76062 85270
333 56000 57802 69907 85615 80858=
96109 32460 70000 10318 20240 30015 40056 56015 84531
333 56000 84616=
96237 01460 80703 10284 20254 30027 40078 56004 69901 76062 85270
333 56000 57802 69907 85615 80858=
44214 32698 32712 10167 20002 38238 40050 58008 73531 82243
333 91016=
44288 32699 71807 10241 20056 38155 40017 54010 82208=
44292 32699 31803 10285 20013 38657 40026 57017 82208=
44354 32996 71407 10276 20128 39037 40031 58016 70422 82102=
91772 31498 30205 10261 20215 40122 70210 83800 90530   333 561//=
91784 31498 60813 10249 20200 40138 70222 868//   333 562// 82818
86640=
91792 31598 70000 10230 20183 40155 51006 70222 878//   333 569//
82822 87645=
98132 31570 51402 10292 20261 40113 57011 70544 85202
333 56399 85817=
98222 31575 22701 10320 20268 40091 5/006 70544 81301
333 56999 81920 86359=
98233 31570 70000 10340 20248 40081 57018 70544 87320 222//
299//
333 56999 87920=
98324 32475 42205 10338 20270 40066 58001 82461
333 56999 82618=
98425 31460 82403 10320 20255 40072 57015 71544 86807
333 56999 84817 88280=
98427 11470 80000 10266 20250 40061 57008 60151 79596 8592/
333 81918 84620 88458=
98428 31565 60904 10341 20275 40073 58019 70544 82970
333 56999 82920 86359=
98430 31462 72601 10320 20246 40085 58018 71744 85970
333 56999 83820 84358=
98434 11459 70000 10281 20269 40087 58007 60071 79582 84370
333 56199 84916 87358=
98435 31472 73602 10300 20264 40078 57017 71744 84970
333 56999 81918 83819 87358=
98447 11480 60405 10282 20258 39816 40076 56012 60084 71582
83202
333 56199 83818 84070=
98538 31466 50904 10300 20265 40070 58016 71544 83906
333 56299 83911 84072=
98546 11470 81802 10277 20254 40086 57011 60021 72998 84907
333 56999 84915 88275=
98548 11475 73601 10283 20258 40085 56018 60181 70584 84808
333 56399 84816 86272=
98553 11464 72902 10280 20259 40092 58012 60331 72186 83278
333 56999 83818 86272=
98558 11466 80000 10282 20266 40088 5/010 60061 71584 83970
222// 20101
333 56999 81915 83358 88272=
98642 31465 60904 10304 20249 40058 58025 70192 83978
333 56999 83915 83358 86272 98318=
98644 31465 70000 10308 20245 40060 58027 70544 83968
333 56999 83915 85358 84272=
98751 31475 60000 10316 20242 39382 40055 57018 70544 84201
333 82920=
98851 32475 31801 10328 20272 40054 5/029 82270
333 56999 81818 83368=
10328 20156=
10261 20033=
96221 32460 81003 10290 20239 30073 40088 57001 84237
333 56499 57842 84818 80857 88280=
96179 32460 71804 10302 20259 30050 40087 57005 84271
333 56000 57802 84817 80850=
96295 32460 70907 10288 20233 39991 40095 56012 85228
333 56000 57800 85818 80800=
91610 31499 31007 20247 40079 50796 70200 82100=
44214 32698 32712 10167 20002 38238 40050 58008 73531 82243
333 91016=
44288 32699 71807 10241 20056 38155 40017 54010 82208=
44292 32699 31803 10285 20013 38657 40026 57017 82208=
44354 32996 71407 10276 20128 39037 40031 58016 70422 82102=
96797 01450 80404 10232 20229 50001 60521 79296 8692/
333 56000 57940 60527 82917 80981 83818 80880 88459=
96837 32560 80000 10284 20243 30076 40078 57012 83277
333 56000 57800 83822=
96839 31559 80703 10282 20236 30077 40081 56013 70522 84922
333 56903 83822 87980 84823=
78016 32464 42406 10229 20202 30164 40205 56007 82101 333
10274 20226 70000=
10044 20011=
85442 32970 03406 10147 20109 40157 57021=
48010 32560 31801 10332 20257 40034 84130 333 56560 59015=
48019 32562 53201 10332 20191 40030 83830 333 56450 59011=
48025 31456 61401 10306 20250 40039 75095 84970 333 56320 59007=
48035 32560 50000 10289 20230 49994 83930 333 56790 58007=
48037 21458 73201 10310 20267 40039 75055 86930 333 56/90 59010=
48601 31562 71504 10300 20237 30071 40075 70522 81132 333 81820
83364 87077=
48615 11470 81403 10310 20247 30067 40073 69901 70262 8327/ 333
83818 83364 88469=
48620 31470 71301 10324 20229 30066 40075 70522 83955 333 81917
84364 86078=
48647 31468 70000 10333 20228 30042 40066 70522 83242 83818 87078=
48657 31570 70503 10316 20244 30059 40077 70522 83132 333 83820
84366 86078=
48665 31576 71903 10321 20248 30060 40070 70522 84942 333 84820
86078=
96001 01557 82308 10270 20222 39926 40070 56011 60071 70262 84522
333 56600 69947 84820=
96033 32461 50605 10310 20258 30067 40074 55011 83931
333 56000 57902 57803 80920 83818 80980 80860=
96075 01459 63306 10294 20248 30061 40071 57006 69981 72162 84271
333 56000 57802 69987 84818 80858=
96171 31460 70000 10302 20241 30047 40071 54000 70242 85222
333 56000 57802 85815 80833=
96179 32460 71804 10302 20259 30050 40087 57005 84271
333 56000 57802 84817 80850=
96195 32462 70000 10312 20258 30043 40078 56009 84231
333 56000 57804 84815 80840=
96221 32460 81003 10290 20239 30073 40088 57001 84237
333 56499 57842 84818 80857 88280=
96295 32460 70907 10288 20233 39991 40095 56012 85228
333 56000 57800 85818 80800=
96413 11480 72604 10268 20239 30058 40084 60021 70162 84931 333
81915 83817 85365=
96421 32580 73304 10289 20236 30040 40075 83141 333 83824 84365=
96441 11480 72604 10278 20245 30075 40080 69981 71798 84941 333
81915 84816 85365=
96449 11460 70103 10268 20253 30047 40067 60041 79196 8357/ 333
83814 87365=
96471 11468 73303 10320 20265 30057 40060 69901 79562 84948 333
82814 82916 84640 87277=
96491 32475 60205 10316 20244 30048 40061 83941 333 83816 81917
86080=
96581 01460 80000 10272 20246 30090 40097 57014 60171 70262 8417/
333 56809 57881 69917 84818 88462 80840=
96633 32560 51603 10313 20240 30049 40057 57020 82531
333 56000 81620=
96655 01459 62402 10272 20241 30058 40086 57026 60041 72162 84572
333 56700 69917 84610=
96685 31460 81102 10315 20232 30040 40066 57030 71522 85871
333 56000 57802 82615 84818 80862=
96737 01456 80902 10295 20242 30048 40097 57016 60041 76162 8552/
333 56009 60027 85618 80458=
96797 01450 80404 10232 20229 50001 60521 79296 8692/
333 56000 57940 60527 82917 80981 83818 80880 88459=
96805 31560 81202 10292 20246 30068 40078 53009 71422 8522/
333 56009 57801 85820 85460 80860=
96837 32560 80000 10284 20243 30076 40078 57012 83277
333 56000 57800 83822=
96839 31559 80703 10282 20236 30077 40081 56013 70522 84922
333 56903 83822 87980 84823=
96853 31462 10906 10294 20230 39937 40062 57005 70522 83871
333 56000 57803 82818 80862=
96935 01458 61204 10270 20243 30069 40070 57017 69931 76062 84531
333 56200 69937 84618=
96973 32462 70703 10298 20262 30067 40071 57015 83976
333 56200 57923 81919 80977 82820 80856=
96987 31458 81604 10288 20242 30013 40078 57024 71422 86911
333 56400 57942 82920 84618 80980=
91434 32474 81001 10306 20261 30075 40078 56010 85230=
44304 32599 32305 10302 21044 38944 40027 57016 82108=
44284 32699 50000 10207 21012 37855 40010 57018 85100=
44287 32599 62003 10248 20077 38107 49998 57011 85142=
44225 32698 70000 10243 20084 38219 49991 57012 86240=
44275 32598 63205 10208 20038 37728 49989 57011 86500=
44302 32699 32304 10315 20011 39044 40028 57017 82103=
44217 41698 62306 10120 20084 37893 40153 58002 70262 84844=
44219 32698 62706 10239 20056 38560 40027 54000 86200=
44221 41698 82302 10183 20132 38544 40066 52003 70262 82147=
44224 32698 72303 10150 20058 38034 40056 52008 87500=
44254 32598 32708 10319 2//// 38967 40003 58019 82204 333
91112=
44257 32598 42307 10311 20025 38925 40024 57010 82204=
44263 32698 22705 10171 20013 38042 40073 54000 82200=
44329 32598 40000 10220 20074 37756 49981 58001 84200=
43344 32597 62707 10334 20213 39936 40033 81532 333 59014
81620 83360 85075=
44304 32599 32305 10302 21044 38944 40027 57016 82108=
44284 32699 50000 10207 21012 37855 40010 57018 85100=
44287 32599 62003 10248 20077 38107 49998 57011 85142=
44225 32698 70000 10243 20084 38219 49991 57012 86240=
44275 32598 63205 10208 20038 37728 49989 57011 86500=
44302 32699 32304 10315 20011 39044 40028 57017 82103=
44217 41698 62306 10120 20084 37893 40153 58002 70262 84844=
44219 32698 62706 10239 20056 38560 40027 54000 86200=
44221 41698 82302 10183 20132 38544 40066 52003 70262 82147=
44224 32698 72303 10150 20058 38034 40056 52008 87500=
44254 32598 32708 10319 2//// 38967 40003 58019 82204 333
91112=
44257 32598 42307 10311 20025 38925 40024 57010 82204=
44263 32698 22705 10171 20013 38042 40073 54000 82200=
44329 32598 40000 10220 20074 37756 49981 58001 84200=
87480 32965 00505 10106 20084 30138 40169 50000=
43303 32597 83202 10334 20246 39783 40017 8282/ 333 58011=
28240 32999 02703 10254 20122 40097 57010   333 20127=
28419 32998 22404 10252 20136 40137 57009 80001   333 20120=
31285 42699 80000 10188 20125 40074 57025 885//=
31561 42698 60104 10235 20050 40068 57014 84201   333 91110=
24125 42699 83303 10119 20030 40175 52003 82201=
21908 42599 71701 10081 21031 40186 52002 875//=
16181 32962 00000 10170 20134 39952 40194 53001 90545 333 20128 30///
55127 22992 55300=
42435 32996 02302 10360 20175 40017 333 59003=
41859 32557 30502 10340 20260 39993 40031 82130 333 56990 59008 70000
82825 83362=
60560 33960 30000 10166 20083 38968 48529 55003 80002
333 01400 20162 83073 95900=
20667 nil=
20744 nil=
23022 nil=
23032 nil=
31478 42584 83001 10180 21036 40052 57006 8291/=
78946 15/// /0903 10258 60401 90600 222// 00274 555 07092
17080=
97260 32562 41505 10300 20205 30050 40057 58018 82201
333 56000 82820=
61627 32958 02404 10235 20212 30079 40102
333 01700 20235 50970 55/// 59012=
61630 32960 02810 10286 20158 30074 40093
333 02300 20272 50882 55072 59025=
61687 32957 62810 10284 20182 30044 40100 80002
333 02500 20275 50891 55071 59019 86073=
61695 32460 32804 10252 20243 30087 40113 83500
333 02300 20242 50204 55/// 59031 83615=
71051 46/// ///// 11063 21064 30016 40125 53002 333 11017
21101=
61612 32960 62206 10231 20199 30100 40108 86080
333 02200 20229 50951 55/// 59001 86363=
61698 32956 60000 10263 20254 30092 40103 86030
333 02400 20258 50524 55/// 59032 86363=
61699 13960 72206 10212 20187 39908 40095 60214 85082
333 01900 20207 50384 55/// 59005 85363 84073=
88903 41/00 ///00 11010 21019 40072 52031 70022 8////=
83716 32970 01410 10155 20119 39659 40171 56001=
48377 01556 80000 10300 20235 39869 40031 60071 76166 868//
333 59008 60017 70179=
48461 32562 72108 10307 20238 39974 40042 84576
333 59001=
48478 31558 82405 10310 20261 30047 40052 71022 82545
333 58004 70002=
63971 32582 31817 10250 20228 30028 40158 83200 90550
333 20213 55/// 553// 59006 83822=
42634 32996 62508 10354 20227 40017 80001 333 59002 86075=
61404 32960 02608 10247 20159 30732 40108
333 20247 52214 55/// 58001=
61415 32960 00219 10185 20160 30113 40118
333 0//00 20180 51114 55033 59006=
61421 31950 03608 10310 20132 39835 40078 70600
333 0//00 20310 51984 55/// 59009=
61437 32960 01206 10280 20142 39965 40097
333 0//00 20275 50984 55/// 59009=
61450 32958 62804 10295 20121 39637 40071 86070
333 0//00 20290 5//// 55/// 59006 86363=
61461 32960 32604 10233 20206 30018 40103 83070
333 0//00 20222 50864 55/// 59011 83363=
61489 31950 32810 10230 20141 30113 40120 706// 83070
333  20214 59006 83363=
61492 32958 12808 10265 20150 30103 40122 81070
333 0//00 20265 51714 58008 81363=
61497 31956 11804 10334 20143 3//// 4//// 70600 81030
333 20332 50964 55/// 5//// 81363=
61498 31957 32206 10310 20108 39929 40055 705// 83030
333 0//00 20310 51244 55/// 59026 83363=
61499 31956 22806 10318 20106 39810 40051 70500 82070
333 0//00 20306 51354 55/// 59017 82363=
63766 32582 11104 10227 20135 48542 81530
333 20141 81623=
42591 32996 30000 10344 20242 40008 81031 333 58006 81360
83075=
24125 42699 83303 10119 20030 40175 52003 82201=
21908 42599 71701 10081 21031 40186 52002 875//=