ZCZC 000
SMCI10 BENJ 300600
AAXX 30061
57399 11560 72003 10211 20176 40061 57022 60021 70060 8317/
333 20174=
57494 11465 82202 10205 20174 30033 40061 57015 60081 76060
8277/ 333 20171=
57687 11320 83202 10200 20191 39990 40068 57006 60031 76060
8772/ 333 20180=
52740 16/// /1804 10158 29029 36865 60000
555 1/133 2//00 /////=
58040 11660 80000 10191 20166 30027 40031 57016 69911 70060
885// 333 20154=
58633 32565 32702 10299 20231 39941 40036 57031 82140 333
20200=
58659 31540 60202 10265 20216 30033 40067 57021 71000 81140
333 20189=
59134 32475 41803 10301 20232 39933 40091 57021 81142
333 20229=
57957 11586 72702 10295 20246 39864 40052 57020 69901 70080
8324/ 333 20228=
59082 32580 22005 10320 20231 39983 40056 57027 82200 333
20261=
59117 32580 42202 10344 20222 39966 40067 57029 84100 333
20248=
59211 32580 30903 10333 20229 39838 40035 57052 83142 333
20252=
59265 32572 60901 10324 20244 39928 40060 57024 86100 333
20241=
59287 32567 61604 10326 20241 30023 40072 57024 86200 333
20250=
59316 32468 41803 10314 20242 30077 40086 57021 83202 333
20247=
59431 32580 62004 10319 20248 39908 40050 57024 83242 333
20250=
59644 11575 71805 10308 20265 30049 40064 57018 69901 70080
8714/ 333// 20276=
59758 32580 60903 10328 20263 30042 40062 57018 86200 333//
20266=
59023 32575 71401 10312 20240 39799 40036 57019 878// 333
20243=
59293 32573 32203 10337 20228 30022 40068 57028 83100 333
20259=
59417 31580 73202 10311 20251 39910 40056 57014 71700 879//
333 20255=
59501 32580 21404 10308 20249 30076 40092 57020 82202 333
20256=
59663 32480 22005 10315 20243 30044 40071 57019 82201 333
20270=
59838 32580 72204 10324 20259 30054 40068 57010 82902 333//
20258=
59948 32580 60902 10332 20260 30052 40060 57022 81102 333//
20262=
59981 32580 60904 10316 20264 30057 40063 57017 81102 333//
20274=
59985 32580 30904 10321 20264 30053 40058 57012 81102 333//
20266=
57265 32966 72003 10249 20192 39932 40038 57025 8703/ 333
20156=
57378 11962 82003 10200 20176 40061 57021 60021 76060 8807/
333 20162=
57447 11580 50402 10216 20170 39550 40074 57014 60031 70060
81130 333 20153=
57476 11462 82203 10200 20186 40065 57018 60091 76066 8772/
333 20180=
57545 11962 70000 10209 20182 40072 57009 60031 70086 8704/
333 20164=
57554 11462 80000 10203 20183 40075 57006 60101 70098 885//
333 20171=
57562 11440 82702 10194 20181 40058 57015 60091 76060 887//
333// 20177=
57655 11962 82723 10202 20181 40078 57007 60121 70060 8807/
333 20167=
57671 11460 80901 10192 20189 40058 57018 60101 76060 8772/
333// 20180=
57682 11465 83402 10197 20194 40069 57011 60161 76086 887//
333// 20178=
57766 11758 80201 10243 20215 40059 57015 60021 71060 885//
333// 20188=
57866 11580 71604 10295 20240 39848 40045 57022 60021 70086
8624/ 333// 20201=
57965 11580 72204 10305 20237 40044 57022 69901 70060 82142
333// 20235=
59046 32580 61805 10322 20245 40049 57024 84130 333 20241=
59058 11680 71401 10304 20248 40058 57022 69901 70060 872//
333 20245=
59072 32580 72202 10327 20239 40056 57021 87442 333 20243=
59087 32568 62203 10324 20242 40070 57024 86200 333 20254=
59096 32680 42003 10327 20225 40063 57027 84100 333 20242=
59209 11568 71403 10265 20213 40056 57008 69901 70080 872//
333 20232=
59254 11572 62004 10331 20252 40051 57026 69901 72500 86900
333 20254=
59278 32680 30403 10326 20249 40063 57029 83200 333 20248=
59456 32580 62202 10333 20230 40061 57025 86200 333 20247=
59493 32580 21403 10322 20251 40070 57023 82202 333 20273=
59632 31573 71804 10306 20257 40066 57018 70090 81942 333
20238=
59647 32570 61803 10310 20270 40066 57015 86100 333// 20274=
59658 32580 41403 10308 20255 40072 57015 84102 333 20275=
59673 32580 51103 10310 20257 40075 57019 81102 333 20265=
59845 32580 40404 10334 20243 40058 57019 84100 333// 20247=
59855 32580 20904 10322 20249 40061 57018 82100 333// 20261=
58543 11670 73201 10244 20220 40049 57023 60061 70098 8114/
333 20190=
58569 32762 72206 10246 20216 40050 57023 8353/ 333 20174=
58646 32770 70902 10285 20224 40049 57031 83540 333 20203=
58660 32765 70000 10267 20212 40050 57028 875// 333 20189=
58834 32671 21101 10306 20235 40069 57027 81140 333 20221=
58926 32780 22504 10336 20200 40069 57029 82100 333 20236=
58944 32566 42204 10306 20226 40080 57023 81132 333 20218=
50468 32575 73603 10179 20035 39866 40065 57009 82102 333
20034=
50745 32768 71103 10245 20012 39861 40032 57013 82532 333
20150=
50953 32980 81403 10221 20072 39859 40029 57005 8802/ 333
20151=
54337 32965 11813 10260 20102 39918 49999 57008 80002 333
20177 91118 91520=
54342 32960 22209 10268 20087 39953 40012 57008 80002 333
20192=
54471 32760 72210 10217 20137 30024 40029 57008 82102 333
20195 91118 91520=
54497 32568 71802 10187 20135 30045 40059 57009 875// 333
20134=
54662 11970 82009 10191 20109 39933 40049 57011 69901 70060
8807/ 333 20178=
58138 11960 82204 10230 20181 40037 57013 69901 70060 8807/
333 20143=
58259 11440 82702 10215 20209 40045 57015 60031 76066
8772/ 333 20182=
58343 11415 83203 10206 20203 40042 57015 60151 76164 8772/
333 20179=
58358 11411 82501 10223 20217 40036 57021 60081 76060 8672/
333 20188=
58665 32961 71803 10262 20224 40046 57024 8704/ 333 20180=
58667 32465 82506 10225 20213 40068 57023 888// 333 20178=
53513 32680 23203 10269 21037 38879 40004 57009 82102 333//
05104 20144=
53772 32660 13203 10315 20002 39128 49976 57029 81100 333//
20144=
54218 32775 61403 10292 20013 39322 49947 57024 82202 333//
20204=
54511 32570 12103 10266 20130 39961 49998 57023 81100 333
20175=
54823 32570 62203 10261 20150 39827 40020 57014 86100 333
20183=
51468 16/// /0700 10025 29054 36569 60121
555 1/138 2//02 /////=
58144 11940 82902 10213 20183 30013 40035 57020 69901 71064
8807/ 333 20160=
58345 11440 82701 10212 20204 40047 57010 60131 76066 8572/
333 20192=
58464 11665 81601 10236 20221 40041 57024 60051 72586 8247/
333 20189=
58472 11970 82203 10245 20215 39954 40048 57015 69981 70060
8807/ 333 20188=
58477 11465 81402 10242 20212 30002 40045 57020 69931 70086
8787/ 333 20181=
58725 32680 20202 10308 20240 39807 40054 57033 82100 333
20222=
58760 32562 71805 10235 20220 40061 57024 878// 333 20182=
58921 32680 62002 10333 20203 39827 40059 57029 86100 333
20230=
50774 32670 30402 10222 20053 39755 40044 57011 82102 333
20016=
54094 32565 72902 10250 20094 39749 40028 57018 878// 333
20118=
58457 11630 72002 10258 20224 39988 40037 57021 69901 78080
8646/ 333 20194=
58562 11970 81802 10263 20212 40037 57022 69901 70080 8807/
333 20176=
58015 32970 72203 10230 20158 40027 57018 80002 333 20163=
58238 11411 82201 10193 20187 30031 40040 57017 60021 76060
8272/ 333 20183=
58236 11960 72203 10221 20181 40037 57017 69901 70060 8704/
333 20173=
58311 32975 71602 10228 20191 40040 57024 8707/ 333 20176=
58102 32970 82702 10238 20146 39976 40025 57022 8801/ 333
20159=
58203 32970 82704 10241 20176 39991 40035 57021 8807/ 333
20149=
58215 32762 72704 10229 20160 40041 57020 8257/ 333 20167=
58424 11658 82203 10211 20206 30025 40048 57013 60331 78188
889// 333 20210=
58321 11956 82002 10215 20183 40042 57021 69901 71060 8807/
333 20182=
58338 11420 83601 10198 20193 40047 57014 60111 76066 8772/
333 20196=
58326 11430 80000 10192 20187 40046 57022 60071 76060 8772/
333 20188=
58314 11958 80702 10206 20192 39957 40042 57024 60021 76060
8807/ 333 20180=
58436 11458 83403 10227 20221 40046 57011 60211 76066 8672/
333 20194=
58122 32980 72702 10237 20164 40036 57023 80002 333 20167=
58221 32660 72903 10244 20169 30005 40039 57022 8214/ 333
20176=
58437 11/00 92907 10159 20159 38123 57013 60231 76098 333
20142 91122 91527=
58531 11468 73403 10232 20222 40043 57023 60221 70098 877//
333 20198=
58319 11550 80901 10193 20191 40047 57014 60191 72166 885//
333 20186=
58251 11356 81803 10206 20197 30031 40037 57017 69941 72166
8572/ 333 20170=
58820 32667 62003 10308 20230 40056 57025 86140 333 20216=
58666 32465 72012 10220 20209 39960 40058 57025 878// 333
20179 91118 91520=
57259 32980 72202 10254 20171 40048 57024 87040 333 20142=
57461 11962 72202 10211 20186 39903 40059 57016 60021 70060
8704/ 333 20170=
57574 11450 81402 10182 20170 40064 57014 60081 76060 8177/
333 20178=
57584 11357 83401 10185 20182 40070 57016 60051 76060 887//
333 20174=
57598 11357 80000 10220 20212 40055 57021 60101 78080 889//
333 20199=
57649 11668 62702 10233 20191 40066 57018 60101 70086 83140
333 20175=
57662 11430 82901 10186 20175 30025 40066 57017 60141 76160
8472/ 333 20179=
57669 11440 80000 10190 20185 40069 57016 60171 78096 889//
333// 20171=
57745 11456 80000 10206 20190 39762 40078 57015 60151 71060
885// 333 20171=
57799 32775 71604 10326 20233 39960 40039 57023 875// 333
20232=
57845 11460 83602 10200 20183 40068 54000 60181 78096 889//
333 20192=
57853 11456 83603 10240 20213 40059 57013 60041 76060 887//
333 20194=
57872 11956 83202 10263 20227 40048 57020 69931 76060 8807/
333 20198=
57894 11575 71103 10270 20217 40061 57017 69901 70060 8724/
333 20201=
57972 32966 72204 10328 20215 39838 40049 57022 87040 333//
20223=
58402 11762 82001 10190 20179 40069 57017 60101 72166 885//
333 20179=
58519 11761 82902 10269 20246 40049 57018 69971 70098 885//
333 20222=
58606 11760 72703 10286 20254 39987 40039 57022 69901 76000
875// 333// 20231=
58608 32760 72502 10316 20249 40042 57017 87500 333 20236=
58634 11566 72202 10298 20238 40037 57032 69901 70064 8684/
333// 20195=
59102 32580 52004 10312 20208 40074 57021 85200 333 20230=
57127 32961 00402 10248 20168 39478 40055 57030 333 20143=
56046 32580 11602 10103 21025 36311 57016 81100 333 00202
21014=
56029 32680 60402 10149 21004 36532 57018 86200 333 00201
20008=
52836 32980 01601 10161 21056 36920 57011 333 05105 20044=
56080 32580 20905 10164 20029 37159 57020 82100 333 00107
20031=
53915 32680 12201 10305 20026 38573 40005 57021 81100 333
05211 20107=
56096 32680 12002 10301 20083 38853 40012 57034 81202 333
05107 20167=
52652 32775 73603 10273 20039 38430 49993 57018 81102 333
05302 20104=
57006 32580 12901 10286 20100 40021 57034 81100 333 05108
20143=
53463 32580 62705 10253 20019 38828 49983 57010 86100 333//
05501 20130=
53588 32480 32719 10170 21057 37722 57014 83100 333// 20069
91129 91527=
57083 32963 82501 10322 20109 39882 40009 57022 80007 333//
20155=
53673 32680 12903 10317 21013 49965 57025 81100 333// 20151=
53787 32580 33203 10313 20050 49979 57022 83100 333// 20105=
53898 32970 21606 10294 20142 40008 57026 81032 333// 20156=
54602 32968 01604 10277 20150 40000 57025 333// 20169=
54725 32665 71404 10260 20140 40018 57019 875// 333// 20189=
54751 32970 61808 10230 20106 40045 57015 80002 333// 20176=
54916 11958 81404 10194 20175 40038 57017 69901 71060 8807/
333// 20160=
58208 11980 82702 10224 20160 40039 57016 69901 76060 8807/
333// 20165=
56294 32962 52203 10273 20176 39498 40067 57028 85040 333
05104 20192=
56492 11858 71401 10241 20170 39686 40077 57019 69911 71060
875// 333 00000 20180=
56571 11680 71401 10209 20137 38382 57014 69951 70060 878//
333 00656 20175=
56651 31680 72502 10235 20098 37605 57015 71500 8794/ 333
00100 20149=
56778 32580 62503 10254 20143 38075 57013 86202 333// 00151
20179=
56951 32780 70703 10270 20162 38463 57011 86402 333 00000
20176=
57328 31957 81802 10224 20172 39684 40080 57020 71000 8807/
333 20163=
57411 32564 62501 10255 20170 39721 40075 57023 86100 333
20172=
57516 31750 70000 10245 20176 39781 40080 57018 71000 875//
333 05105 20178=
57816 11665 73402 10200 20142 38745 40077 57013 69911 70060
885// 333 00101 20144=
58027 11958 83203 10206 20163 39982 40031 57021 69901 71060
8807/ 333 20162=
58150 11356 82203 10194 20186 30020 40028 57021 60021 72166
8772/ 333 20164=
58556 32675 70000 10292 20219 40041 57024 81142 333 20185=
58241 11513 82003 10212 20190 40041 57016 69911 71064 885//
333 20164=
58265 11458 82502 10215 20207 30030 40041 57018 60021 76060
8772/ 333 20185=
58730 11680 42202 10298 20234 40053 57032 69911 70060 84140
333 20218=
58731 32780 72003 10306 20243 40058 57029 8314/ 333 20208=
58911 32680 62201 10302 20221 40069 57027 83140 333 20224=
58931 31380 72503 10192 20174 38355 57011 70040 85132 333
20161 91117 91522=
50527 32970 60403 10245 20015 39312 40005 57014 80002 333//
20057=
53564 32680 12709 10302 21052 39039 49970 57017 81100 333//
05504 20157=
54843 32665 81607 10168 20135 30017 40043 57017 8657/ 333//
20159=
54909 32970 72003 10263 20162 39961 40021 57018 80002 333//
20158=
50136 32670 70701 10207 20051 39538 40049 57017 83102 333
21023=
50353 32570 53402 10166 20008 39860 40073 57008 83102 333
20073=
50557 32670 23603 10218 20031 39769 40056 57010 81102 333
20026=
50756 32970 20403 10226 20001 39767 40046 57008 80002 333
20093=
50788 32570 23205 10208 20020 39967 40048 52002 82102 333
20096=
50949 11568 70905 10251 20120 39840 49998 57006 69901 72500
872// 333 20164=
50978 32580 72702 10240 20011 39765 40041 57007 86902 333
20105=
54161 32970 72209 10278 20095 39722 49992 57011 80002 333
20194 91120 91522=
54236 32962 61613 10281 20119 39889 49985 57010 80002 333
20181 91118 91516=
54292 32975 72902 10285 20067 39816 40021 57016 80002 333
20124=
54374 32975 62203 10256 20076 39658 40040 57020 80002 333
20108=
56193 32674 50000 10296 20145 40029 57040 81102 333 05308
20158=
56196 31656 62201 10258 20170 40065 57025 71000 82140 333
05205 20184=
56287 32962 50701 10268 20186 40072 57018 85040 333 05104
20185=
56385 32480 62503 10137 20050 37045 57005 81142 333 00405
20046=
56666 32680 30903 10346 20132 49975 57028 83200 333 00101
20238=
56671 11780 73203 10241 20150 38174 57011 69901 78000 874//
333 00252 20173=
56684 32580 70203 10195 20128 37883 57009 874// 333// 00454
20133=
56751 32680 31403 10249 20126 37989 57013 83900 333// 00101
20162=
56786 32575 51602 10255 20129 38077 57009 85200 333// 00100
20175=
56886 32680 62504 10257 20160 38229 57014 86240 333 00000
20182=
56977 32580 31101 10282 20192 40045 57023 82142 333 00000
20204=
57206 32965 10000 10260 20160 40056 57031 80001 333 20157=
57348 11758 82201 10179 20166 40090 57008 69901 71060 885//
333 20139=
57426 11561 82203 10207 20167 40088 57014 69901 70060 885//
333 05104 20167=
57602 31858 70901 10239 20186 40081 57015 71000 875// 333
20184=
57713 32578 73601 10226 20154 40073 57017 878// 333 00004
20157=
58647 32568 72203 10304 20229 40050 57032 87800 333 20205=
58737 32680 61603 10308 20232 40056 57026 85130 333 20225=
58846 11658 70000 10268 20230 40068 57027 69901 71060 8213/
333 20206=
58918 32680 71403 10311 20224 40076 57026 87240 333 20235=
59126 32678 51701 10332 20238 40083 57029 85100 333 20242=
59133 32565 21805 10268 20239 40082 57022 81102 333 20228=
57251 32980 72703 10277 20161 40037 57028 80002 333 20163=
57279 32970 72003 10222 20172 40056 57019 8707/ 333 20156=
57458 11575 83405 10196 20172 40068 57011 60061 76060 885//
333 05201 20151=
57774 11956 73401 10233 20210 40060 57012 69971 71060 8704/
333// 20184=
57776 11/68 72012 10203 20191 40064 57010 69901 70086 878//
333 20176 91129 91522=
58506 11/00 91803 10181 20181 40056 57017 60401 78084 333//
20181=
58527 11650 83403 10265 20244 39964 40036 57028 60051 71098
885// 333// 20215=
58626 11662 81802 10250 20230 40049 57018 60041 79598 889//
333// 20208=
58715 32580 71806 10312 20230 40045 57021 8224/ 333// 20245=
58813 32580 32005 10320 20222 40041 57027 82140 333// 20243=
50727 32580 81405 10173 21023 38881 40022 57001 81507 333//
20096=
53959 32980 02702 10317 20125 39586 40006 57031 333// 20159=
50548 32580 33202 10233 21019 40043 57014 81102 333// 20026=
50834 32980 80405 10208 20020 40032 57005 8807/ 333// 20086=
53480 32680 62504 10210 20031 49991 57005 86900 333// 20116=
50632 32980 21403 10208 21027 39194 40045 57013 80002 333//
20002=
52418 32980 73202 10312 20027 38763 49975 57013 80002 333
05401 20128=
53646 32580 12507 10300 21016 38851 49989 57018 81100 333
05306 20127=
52323 32980 73205 10210 21036 38186 57008 80002 333 00152
20081=
57036 32970 02003 10312 20151 39571 40017 57033 333 20177=
53845 32668 12502 10327 20020 38955 49985 57024 81100 333
05409 20156=
57245 32975 20902 10249 20175 39725 40059 57031 81032 333
05506 20155=
56033 32580 22504 10085 21119 36082 57013 82100 333 00202
21055=
52713 32680 70402 10174 21101 36923 57011 82102 333 05205
20015=
51886 32780 71401 10204 21102 37102 57021 81102 333 05304
20048=
52866 32580 51602 10214 20029 37678 57023 85900 333 00201
20055=
52602 32680 72204 10203 21113 37265 57017 81102 333 05305
20027=
52533 32980 11104 10257 20021 38440 40006 57018 80002 333
05203 20100=
52436 32980 30904 10271 21001 38384 49998 57016 81032 333
05302 20081=
52787 32580 73603 10153 21048 37035 57009 86902 333 00005
20041=
52996 32480 12202 10202 21002 37555 57015 81100 333 00105
20104=
57046 32971 22703 10202 20060 37913 57003 80002 333 00109
20094=
57016 32670 13201 10338 20095 40004 57029 81100 333 20147=
56065 32680 12201 10129 21031 36661 57015 81100 333 00202
21027=
54102 32680 71606 10220 20070 38870 49947 57012 83902 333//
20163=
54423 32580 12203 10270 20084 39553 49988 57023 81102 333//
20145=
54618 32562 61604 10263 20154 39992 40009 57023 86100 333//
20193=
54308 32680 72005 10236 20106 49979 57020 82202 333// 20159=
54527 32665 20703 10267 20149 40008 57027 82100 333 20193=
54401 11670 60202 10232 20082 39178 49978 57014 69901 79580
84902 333// 20176=
53798 32960 02003 10287 20147 39910 49998 57023 333// 20161=
53352 32580 12906 10222 21025 49985 52001 81100 333// 20131=
53764 32570 23205 10292 20085 49991 57023 82100 333// 20140=
53863 32565 13207 10321 21005 49978 57024 81100 333// 20154=
53975 32570 61602 10318 20076 49996 57030 82102 333// 20131=
54436 32670 61804 10255 20111 40006 57022 86200 333// 20196=
54808 32971 61403 10261 20194 40017 57021 80002 333// 20148=
54826 11965 73605 10161 20113 38373 57006 69921 70064 80002
333// 20074=
54836 32660 80902 10170 20139 40037 57016 885// 333// 20146=
54863 11580 81406 10146 20117 40067 57017 69901 72160 885//
333// 20144=
57071 32975 22002 10330 20121 40000 57030 80002 333// 20140=
50246 32580 22201 10176 20017 40071 57018 81102 333 20007=
50442 32670 20904 10216 20029 40051 57012 82100 333 20015=
50658 32980 21401 10236 20041 40039 57007 80002 333 20088=
50844 11762 80707 10227 21015 40023 57005 69901 72100 885//
333 20144=
50854 32770 80706 10243 20008 40023 57007 885// 333 20146=
50888 32980 13405 10236 20007 40041 54000 80002 333 20096=
50968 11570 70403 10197 20091 40039 57004 69901 70086 878//
333 20125=
50983 32970 23203 10239 20041 40040 57005 80002 333 20089=
54096 32570 70703 10227 20064 40044 57003 81202 333 20098=
54259 32980 72504 10259 20098 40019 57021 80002 333 20146=
54273 32980 72208 10264 20075 40018 57013 80002 333 20134=
54324 32975 52506 10292 20077 49973 57018 85030 333 20212=
54346 32968 72008 10231 20109 40031 57007 80002 333 20200=
54493 32974 73201 10213 20127 40058 57008 8703/ 333 20116=
58847 31559 62201 10306 20241 39973 40071 57029 71000 81242
333 20215=
47401 42/70 72704 10120 20038 30007 40020 51025 8353/=
47412 42982 03005 10234 20011 30006 40035 51013=
47420 42/65 20107 10155 20042 39953 49998 53038 81242=
47426 42960 12908 10143 20091 39998 40041 55000 80001=
47582 42986 22307 10239 20079 30074 40098 58002 81041=
47590 42980 21102 10285 20140 30023 40072 56012 80001=
47600 42981 82603 10270 20028 30069 40085 56015 80007=
47648 42975 31908 10244 20167 30069 40101 56020 81032=
47662 42962 61905 10276 20094 30051 40091 56017 80002=
47678 42/65 72203 10228 20179 30019 40111 56010 81132=
47740 42980 72505 10250 20067 30042 40078 57018 86048=
47778 42981 71303 10237 20177 30015 40101 55015 80002=
47807 41/57 83501 10219 20173 30069 40086 58017 76162 8277/=
47827 41/65 81102 10237 20170 30061 40097 56016 72122 8127/=
47843 41/57 80403 10162 20126 30063 40094 58017 76162 8127/=
47898 42965 71301 10224 20186 30064 40102 58012 8707/=
47909 41260 81701 10230 20207 30088 40097 56018 76362 8682/=
47918 41/80 42005 10304 20257 30087 40095 57015 70281 84202=
47936 42/65 72006 10280 20250 30039 40099 58014 86232=
47945 42/75 22004 10280 20250 30085 40108 56016 81132=
47971 42/80 71802 10252 20234 30117 40126 56010 81272=
47991 41/70 61107 10279 20244 30129 40139 55005 70281 82963=
56586 32665 72501 10189 20129 38043 57007 878// 333// 00452
20113=
56748 32580 70000 10249 20157 38313 57009 83440 333// 00051
20179=
56763 32680 40401 10317 20157 49993 57021 82202 333 00100
20226=
56768 32680 51101 10257 20138 38189 57014 85200 333 00000
20183=
56838 11680 61601 10274 20218 40057 57017 60031 72500 86932
333// 05151 20209=
56946 32680 60401 10291 20181 40037 57017 83402 333// 05102
20194=
56954 32580 42502 10302 20182 40038 57021 84101 333// 05101
20192=
56959 32780 11802 10312 20222 40031 57027 81900 333// 00051
20224=
56966 32780 51602 10347 20213 40007 57028 82102 333// 00000
20234=
56969 32580 21601 10315 20218 40046 57024 82100 333// 00000
20221=
56986 32380 61403 10240 20204 40053 57009 86242 333// 00001
20194=
57237 32980 20701 10226 20152 40073 57020 82040 333 20144=
57306 32970 72201 10250 20173 40069 57026 8704/ 333 20174=
57504 32962 71804 10259 20171 40071 57020 8704/ 333 05103
20178=
59007 32580 32005 10284 20175 40026 57017 83102 333// 20198=
82100 22254 022733 20302 302// 40503 80250=
60549 300157 304155 308148 310146 309144 308147=
54063 32670 71604 10250 20099 49993 57003 86402 333// 20156=
53664 32675 43207 10296 20062 49991 57020 84100 333// 20125=
59849 32580 51803 10325 20226 40059 57020 85100 333// 20232=
51828 32860 70402 10242 20095 38557 49995 57022 81962 333//
00258 20199=
53782 32580 43204 10325 20049 49967 57024 84200 333// 20161=
50775 32670 50903 10233 20038 40043 57003 84102 333 20079=
59626 11580 72205 10311 20249 40061 57021 60021 70098 82242
333// 20262=
57067 32975 22502 10279 20152 39391 40029 57030 80002 333//
20134=
51133 32680 20201 10281 20047 39454 40057 57011 82102 333//
00103 20122=
59228 32580 72202 10324 20258 40051 57021 86240 333// 20251=
50758 32970 50205 10240 21012 40038 57011 80002 333 20125=
50349 32670 30403 10191 20022 40064 57015 82102 333 20001=
50853 32570 70405 10239 21008 40041 57006 81108 333 20099=
50877 32980 41402 10248 20065 40038 57014 80001 333 20078=
50564 32570 30906 10187 20046 40058 57009 83102 333 20005=
50656 32576 20402 10224 20019 40049 57012 82100 333 20034=
52633 32680 20902 10136 21047 36761 57015 82200 333 05206
21012=
52876 32573 12703 10268 20053 38134 57025 81900 333 00103
20096=
56151 32580 10401 10156 21042 36671 57017 81100 333 00301
20023=
51573 32870 71402 10332 20068 39978 40020 57007 82532 333//
00151 20243=
57608 32570 63402 10267 20143 40074 57022 81148 333 20180=
59954 32580 21104 10316 20262 40064 57020 82200 333// 20256=
58549 32665 62502 10282 20222 40040 57025 81140 333 20205=
51709 32780 12002 10267 20046 38636 40007 57017 81100 333//
00152 20136=
51811 32965 13202 10277 20054 38695 40002 57013 80002 333//
00151 20166=
54195 32975 73202 10272 20062 40028 57014 80002 333// 20101=
54142 32970 82008 10288 20114 49984 57009 80007 333// 20183=
54285 32970 73203 10242 20053 40035 57018 80008 333// 20094=
54263 32975 82007 10257 20112 40010 57016 80007 333// 20162=
54276 32970 72002 10241 20093 40036 57016 82032 333// 20111=
54181 32575 71804 10259 20093 40020 57018 83102 333// 20115=
54386 32580 72202 10238 20024 40027 57021 82202 333// 20062=
54171 32980 82003 10273 20092 40010 57012 80007 333// 20120=
54186 32970 72003 10256 20050 40025 57013 80002 333// 20110=
56386 11965 51402 10252 20176 40076 57015 69901 70060 85040
333 00001 20184=
59065 32580 71602 10318 20239 40053 57023 878// 333// 20246=
89664 32961 20000 11340 30163 40203 57017 80008
333 56//0 82262=
89009 41961 07011 011639 36938 57010 77670 =
37985 42998 00201 10254 20111 40110 54000=
37575 42999 62302 10229 20124 40097 52005 86040 333   20173=
91348 11474 81306 10280 20251 30019 40071 56010 60081 72582 86371
333 56399 70102 555 93006=
58003 72072 86602 22281 00008 20100 81026=
62405 30061 99303 10042 41498 42505 10108 20067 40150 54000 70211
832/5 22200 00108 20301 33225 41004 50702 80087=
80001 22223=
81100 22224 00290 2//// 3//// 80244=
83827 22265 00057 20201 319// 40805 5//// 6//// 80056 ICE /////=
11010 70051 333 91218 555 11162 22173=
43221 60549 319159 320164 320160 320158 318164 318163=
54311 32580 61805 10228 20085 49979 57011 86900 333// 20145=
54405 11562 70702 10233 20141 49974 57022 69951 79500 85902
333// 20167=
50742 32965 22701 10249 21006 40037 57011 80001 333 20104=
50862 32980 20203 10238 20014 40041 57006 80002 333 20061=
45007 32575 21606 10326 20241 30065 40074 56020 82200
333  59011 82825 =
51839 31925 92503 10287 20034 49992 57005 70600 89//2 333//
00153 20213=
56146 32780 30702 10169 21010 36769 57015 83100 333 00203
20053=
56167 32780 23206 10217 21013 37097 57029 82100 333 00005
20080=
56247 32880 20902 10258 20036 37413 57042 82100 333 05206
20095=
56257 32680 63402 10143 20000 36316 57012 86202 333 00007
20044=
56357 32680 20904 10163 20002 36475 57016 82100 333 00200
20061=
53543 32670 13208 10245 21071 38446 49993 57008 81100 333
20130=
57178 32963 82203 10257 20182 39882 40033 57026 80007 333//
20156=
58407 11420 82202 10190 20179 40062 57015 60141 76366 8772/
333 20181=
54539 32980 02005 10228 20146 30016 40030 57016 333// 20198=
52737 32680 12502 10159 21021 37095 57012 81100 333 05106
20042=
56018 32680 12502 10124 21017 36233 57014 81100 333 00003
21011=
56021 32580 62202 10108 21061 36135 57009 86902 333 00103
21047=
52797 32780 10202 10282 20018 38300 57015 81100 333 05104
20136=
53817 32680 12902 10267 21105 38185 57015 81100 333 20132=
53903 32580 13603 10254 21019 38036 57017 81100 333 20096=
52974 32680 10402 10220 20039 37515 57027 81100 333 00105
20059=
52657 32680 31601 10181 21030 37253 57019 82102 333 05105
20020=
52868 32680 11602 10232 20024 37748 57026 81100 333 00104
20046=
56043 32580 12503 10126 21084 36494 57015 81100 333 00201
21028=
52889 32580 13202 10297 20043 38415 49995 57030 81100 333
00005 20156=
52754 32580 12003 10129 21024 36818 57012 81202 333 00105
21009=
56034 32580 43202 10080 21077 35974 57007 83202 333 00201
21067=
56125 32680 10702 10159 20011 36559 57019 81100 333 00103
20021=
56875 32680 62503 10269 20140 38317 57015 86232 333// 00051
20196=
56739 11475 71803 10213 20169 38327 57008 69961 72580 879//
333// 00052 20170=
57156 32980 71602 10286 20174 40037 57024 82042 333// 20156=
59303 32574 31603 10334 20213 40070 57027 83100 333 20246=
53068 11780 72910 10236 21011 38907 49956 57003 69901 70080
83902 333// 05354 20156 91119 91529=
58362 11465 82503 10226 20215 30035 40045 57017 60081 76060
8677/ 333 20196=
51701 11580 72903 10052 21028 36644 57003 69901 78380 84402
333 00003 21008=
56251 32680 20202 10212 20031 36963 57023 82100 333 00005
20063=
56152 32780 22902 10127 21035 36365 57011 82102 333 00205
20005=
56462 32580 71606 10192 20043 37133 57024 86202 333 00201
20/95=
56038 32680 60000 10104 21024 36149 57012 86100 333 00201
21028=
54624 32565 21604 10279 20125 40016 57023 82100 333// 20190=
53593 11762 62505 10284 20035 49964 57024 69901 72580 86900
333// 20142=
53698 32662 31404 10264 20158 49990 57028 83100 333// 20159=
51288 32680 12504 10187 21004 38307 57004 81102 333 00203
20095=
51463 32780 70205 10251 20038 39036 40061 57011 81102 333
00201 20169=
51379 32680 50204 10267 20049 40076 57012 81102 333 00202
20120=
51330 32580 70902 10225 20022 40077 57013 82102 333 00101
20099=
51365 32680 71402 10291 20061 40059 57013 81102 333 00103
20141=
56144 32680 20000 10186 21004 36893 57021 82100 333 00103
20045=
52674 32580 71103 10242 20001 37964 57011 82102 333 05102
20063=
52447 32980 00902 10296 21004 49997 57023 333 05204 20106=
52424 32980 41105 10306 21019 49980 57012 80002 333 05302
20142=
52765 32580 41804 10182 21010 37178 57018 84200 333 00103
20005=
52955 32580 13201 10173 21072 36994 57010 81100 333 00105
20001=
54774 11580 71808 10175 20098 40059 57017 69901 70060 8243/
333 20168=
50963 32970 72202 10244 20006 39906 40035 57009 80002 333
20069=
91570 36/// /0606 10259 20234 30089 40092 55004
555 10291 20247 69944=
91574 36/// /1410 10230 20198 30101 40107 55009
555 10242 20214=
91598 06/// /1324 10166 30076 40108 53003 69981
333 69947
555 10191 20156 60034=
76525 01253 80907 10131 20116 37489 40111 52010 60031 70922
8477/ 90555 333   10205 20108 31/// 55092 22202 5622/ 58///
60031 84704 84358=
76581 32460 70000 10226 20185 39065 40134 52017 85620 90550
333   10294 20188 30/// 55042 56220 59004 85720 82460=
76585 01960 00000 10220 20214 39997 40147 52017 60061 71096
90530 333   10334 20219 32/// 55819 59008 60061 91307 91536
=
76593 32950 01402 10269 20217 30128 40144 53006 90535 333
10302 20220 30/// 55084 22416 58000 92021=
76647 32460 40601 10228 20225 30095 40125 54000 81220 90550
333   10356 20224 32/// 55067 562/0 59013 81810 83458=
76741 11430 60903 10269 20242 30108 40128 52017 60171 79544
869// 90522 333   10302 20236 32/// 55089 5619/ 58015 83715
83925=
76805 32965 03202 10264 20245 30123 40123 52013 90550 333
10334 20250 30/// 58000=
76848 11150 80000 10172 20164 38377 49985 5//// 60311 76366
887// 90540 333   10250 20158 32/// 565// 59006 88703=
78388 32570 11802 10262 20227 40127 81800 333 00000 10319 20249 58000
81822=
33815 32998 19901 10224 20132 40101 53006 80001 333   20156=
13585 42698 10000 10187 20145 39376 40134 52013 81100 333 20129 30009
=
13598 12698 30000 10144 20118 48474 52008 60052 81830 333 20108 32008
=
91925 36/// /2902 10237 20214 30060 40119 51019
333 55089
555 1//19 58006=
91938 01470 33514 10273 20242 30081 40084 52012 69921 70181 83200
333 55072 56800 69927 83816
555 13519 59020=
91943 36/// /0412 10272 20230 30110 40113 51019
333 55088
555 1//17 58005=
91944 36/// /0219 10268 20233 30115 40121 51014
333 55054
555 1//25 58000=
91948 16/// /0106 10241 20225 30038 40140 51010 69941
333 55045
555 1//21 58003=
91954 06/// /3219 10237 20223 30022 40025 51006 60091
333 55000 60017 91135
555 1//41 59054=
61627 32958 03202 10215 20192 30079 40102
333  01300 20215 50570 55/// 59001=
61641 32357 63610 10208 20192 30079 40112 86500
333 02000 20208 50714 55054 58001 86706=
61990 11468 60401 10265 20218 40184 69904 71521 86800
333 20210 58006 50200 94307=
61995 32470 71103 10245 20191 39704 85840
333 20194 58010 50300 943//=
61988 12475 70608 10254 40189 60044 87800
333 20192 58006 50490 943//=
61986 12580 31013 10279 20228 40165 69954 83200
333 20243 58009 94309=
61974 11465 61305 10285 20232 40139 69904 71521 83342
333 20209 58002 94313=
78988 32482 41109 10279 20246 30107 40116 57008 86201
333 58002 86817 84081=
78982 32480 51012 10275 20242 30109 40114 57006 82201
333 58005 82818 85081=
60020 32960 02702 10184 20146 30126 40171 54000
333 20183 55120 92416=
60030 32562 20222 10195 20177 30102 40157 53003 82500
333 20195 55115 92446=
60040 31460 40508 10191 20191 30141 40166 53007 702// 84500
333 20186 55113 92436=
60338 32980 00000 10198 20154 30120 40185 52005
333 20186 55133 92408=
71397 32474 60203 10058 20028 30204 40238 50002 86500 333
10103 20055 79999 555 30417 40160=
71398 36/64 /3402 10036 20013 30195 40245 51003 333 10100 20036
70000=
71400 36/64 /3505 10005 21004 40191 333 10077 21026 70000 555 30222
4017/=
71410 36/64 /3402 10022 20012 30220 40249 50002 333 10078 20022
70008=
71411 36/60 /0604 10080 20051 30232 40242 54000 333 10135 20070
70000=
71412 46/// /0107 10037 20021 30220 40233 51004 333 10062 20035=
71430 36/64 /1004 10098 20081 30108 40204 53010 333 10163 20097
70000=
71431 36/// /0000 10096 20056 30112 40206 53012 333 10140 20096
70000=
71432 36/64 /2403 10091 20091 30101 40197 51009 333 10130 20090
70000=
71436 36/64 /1602 10107 20068 39846 40200 51004 333 10194 20083
70000=
71441 36/// /2606 10089 20033 39822 40124 58001 333 10184 20083 70000
555 33226 40141=
71443 36/// /2403 10037 21005 39731 40137 50002 333 10173 20037
70000=
71474 17664 30303 10050 20029 38967 40196 51002 60011 7//4/ 333
10127 20026 70030=
71538 32974 60000 10131 20102 39958 40185 58001 80001 333
10206 20095 70000=
71600 36964 03608 10058 20038 30208 40214 51005 333 10079 20056 555
30329 40171=
71601 32574 23409 10050 20030 30173 40236 50000 82500 333
10132 20050 70000 555 30122 40120=
71603 32374 83102 10083 20070 30181 40234 50000 885// 333
10175 20072 70000 555 30617 40151=
71607 36/// /0000 10009 20005 30214 40246 50002 333 10141 20009
70000=
71610 36964 00000 10069 20055 39931 40224 53012 333 10185 20043
70005=
71621 32974 03202 10083 20079 30101 40206 51011 333 10200
20069 70000=
71623 32974 20902 10114 20080 39862 40194 51003 80001 333 10209 20075
70000=
71624 32974 60904 10118 20062 39989 40198 50004 80001 333
10190 20073 70000=
71625 36664 31403 10118 20089 30047 40205 53012 333 10198 20033
70000=
71627 36864 33302 10125 20083 30160 40204 53004 333 10193 20086
70000 555 30419 40100=
71628 32974 00406 10107 20061 30067 40206 53006 333 10193
20089 70000 555 30618 40170=
71631 36/64 /1504 10109 20060  333 10177 20057 70000=
71632 36/64 /1701 10104 20097 39959 40189 50002 333 10192 20076
70000=
71633 32674 81706 10130 20085 39921 40188 50000 84501 333
10188 20062 70000=
71700 32966 00000 10008 20007 30223 40249 52006 333 10107 20004 70000
555 30419 40150=
71705 32974 02403 10011 20009 30152 40240 51001 333 10078
20009 70004 555 33622 40071=
71706 32474 32803 11002 21011 30180 40241 51001 83500 333 10071 21003
70003=
71707 32974 03003 10010 21003 30138 40215 51003 333 10084 20001 70024
555 30519 40070=
71714 36/// /0607 10096 20047 30140 40231 53007 333 10170 20066
70000 555 31020 40160=
71715 36/64 /0000 10074 20058 30048 40230 55002 333 10134 20047
70000=
71718 32974 21504 10027 20010 30163 40228 53001 80001 333 10135 20023
70000=
71719 36/// /2506 10007 20002 30230 40236 50000 333 10077 21010
70000 555 30328 40090=
71043 32683 60000 10113 20032 30146 40239 51003 82571 333 10138 20062
70002 555 32618 40200=
71045 36/// /2705 10052 21019 39379 40239 53015 333 10119 20023
70000=
71050 46/64 /0000 10070 20052 39139 40208 51013=
71066 32774 20106 10080 21083 39806 40221 52015 80001 333 10164 21013
70000=
71068 32774 20108 10077 21064 39516 40202 52009 81501 333 10168 20006
70000=
71069 36964 01802 10046 21043 39499 40200 53016 333 10153 21020
70005=
71076 46/// /3606 11024 21032 39795 40191 51005 333 10015 21024=
71077 36/64 /3314 10024 21016 39645 40172 50005 333 10108 20022
70000=
71078 32974 42908 10008 21019 39649 40086 58011 84070 333
10090 20008 70074 555 33425 40121=
71081 36264 80409 11016 21020 30167 40178 58007 333 11010 21034
70000=
71082 36964 03102 11126 21141 30193 40234 56002 333 11063 21132
70005=
71083 31/06 90815 11001 21009 30030 40067 53002 74742 333 10022 21001
70002=
71090 37464 83408 11056 21068 30224 40259 53002 745// 333 10018
21057 70005 555 33327 40221=
71092 46514 81122 11032 39551 40213 58005 333 11011 21062 555 31125
40061=
71093 460// /1019 11065 39737 40233 53007 333 10025 21065 555 31130
40051=
71094 460// /0105 11008 39300 40192 56006 333 10021 21010=
71095 36964 01804 11113 21159 30172 40245 56003 333 11019 21133
70000 555 30617 40000=
71101 36564 62608 10085 20041 30251 40259 51003 333 10123 20081
70000 555 32518 40070=
71104 11674 30000 10053 20035 39095 40200 50003 69961 70181 81501
333 10125 20033 70014 90940=
71108 32674 30000 10105 20082 30119 40189 51001 82570 333 10176 20094
70000=
71109 32774 52807 10087 20049 30195 40222 58001 82501 333 10136 20056
70000 555 33121 40010=
71114 36764 32405 10120 20074 30140 40187 51009 333 10179 20096
70000 555 32721 40230=
71119 36/// /2704 10079 21028 333 10151 20041 70002=
71120 32974 03005 10074 21041 39522 40173 52010 333 10163
20023 70000 555 33122 40210=
71122 17/64 /0000 10025 20019 38611 40206 50005 60061 7//4/ 333
10110 21027 70060 555 10002=
71123 32974 02103 10046 21009 39334 40195 52005 333 10151
20022 70000=
71125 33774 10704 10025 21018 39589 40171 52023 81500 333
10165 20009 70000=
71129 32974 33210 10023 21009 39354 40178 51007 80001 333
10171 20020 70000=
71131 36/64 /3304 10031 20007 38936 40184 50012 333 10123 20017
70010=
71138 32974 02701 10055 20006 39547 40144 52008 333 10179
20055 70000 555 33129 40221=
71140 32974 33105 10078 20058 39646 40139 50004 81031 333 10185 20078
70000 555 33018 40150=
71141 11574 13002 10069 20029 39831 40105 51009 69901 70188
81570 333 10138 20063 70024 90961 555 32830 40171=
71145 32674 42707 10084 20068 39802 40091 51005 84500 333
10155 20072 70014 555 32932 40221=
71148 36/// /2404 10070 20033 39575 40145 50000 333 10162 20062 70000
555 33120 40141=
71182 36964 00000 10020 21050 39675 40211 58003 333 10137 21029
70000=
71185 36961 01002 11020 21033 30176 40200 58001 333 10078 21026
70000 555 33624 40151=
71187 36964 03103 11008 21020 30203 40230 51004 333 10131 21010
70000=
71188 32974 00000 11011 21018 30197 40238 51001 333 10113
21018 70000=
71196 37464 83424 10014 21003 30117 40154 56004 741// 333 10053
20002 70000=
71200 36/// /2510 10105 20078 333 10155 20093 70002 555 32318 4002/=
71893 32780 63004 10115 20062 30159 40190 50004 81571 333
10168 20090 70000=
71894 36/// ///// 10115 30186 40195 56007 333 10166 20072 70000=
71896 32974 30000 10068 20029 39375 40200 51009 81071 333 10154 20065
70050=
71898 36564 33404 10081 20042 30206 40250 51001 333 10127 20068
70005 555 32718 40000=
71899 32574 82510 10080 20039 40211 40261 51001 8757/ 333 10123 20060
70000=
71905 32674 21209 10129 20061 30054 40067 58024 81571 333 10174 21017
70000=
71906 31924 00506 11018 21031 30120 40167 58014 71011 333 10083 21033
79999 555 19999 29999=
71907 36964 00603 10068 20004 30049 40081 58017 333 10166 20023
70000 555 31819 40180=
71909 36964 01509 11020 21028 30154 40197 56010 333 10032 21020
70000 555 31617 40230=
71910 37004 81113 11015 21015 30091 40155 58011 745// 333 10009
21026 70005 555 31218 40190=
71911 46064 /0219 11091 30162 40219 50004 333 11035 21091 555 30432
40141=
71912 11874 42714 10029 20000 39870 40049 51008 69921 70266
82071 333 10144 20027 70076 90942 555 3////=
71913 17033 82912 10004 21026 39947 49983 58002 60021 7//4/ 333
10045 20003 70030=
71915 32374 60610 11012 21021 30048 40130 58009 84601 333
10009 21035 70000 555 30920 40121=
71917 33586 13603 11065 21112 30236 40250 58001 81571 333
11036 21070 70000=
71922 32874 82812 10028 21030 39673 40135 58010 8807/ 333 10104 20024
70004 555 33030 40211=
71925 11474 60210 11107 21131 30243 40280 55001 69901 72277
86500 333 11080 21110 42033 79999 90913 555 19999 29999 30420 40171=
71926 11262 80212 10010 20003 30083 40106 53004 60012 76162
887// 333 10011 20000 44038 70036 555 19999 29999 31017 40091=
71928 36/64 /3101 10049 20023 39049 40211 51009 333 10114 20044
70002=
71816 32974 22904 10026 21022 30157 40218 50001 80001 333
10153 21021 70000=
71817 37464 63508 11003 21032 30189 40204 58004 745// 333 10039
21005 70000 555 30320 40230=
71818 11369 83507 11012 21021 30203 40221 58002 69901 77772
887// 333 10062 21029 41997 79999 90942=
71821 36864 31809 10142 20063 39815 40151 50002 333 10211 20022
70005 555 31425 40170=
71822 36764 81607 10105 20058 39721 40188 51003 333 10181 20079
70000=
71825 32874 21904 10023 21018 39540 40205 58001 82030 333 10158 21022
70000=
71827 32574 61611 10145 20058 39846 40081 57023 81572 333 10203 20080
70000 555 32219 40180=
71828 36964 01408 10030 21037 39563 40196 58007 333 10148 21036
70000=
71831 32974 82310 10149 20054 39852 40124 58003 80007 333
10235 20036 70000 555 32422 40221=
71832 36/64 /2005 10150 20079 39800 40114 58009 333 10227 20018
70000=
71834 11559 82402 10106 20099 39698 40114 58005 60051 76186
885// 333 10219 20012 70050 90973 555 32228 40221=
71836 36964 02209 10169 20085 30074 40085 53002 333 10237 21006 555
31919 40150=
71842 32974 82503 10102 20066 39655 40120 51007 8807/ 333 10232 20102
70006 555 32824 40210=
71850 32974 22802 10117 20038 39633 40119 50004 82070 333 10194 20117
70004 555 32523 40160=
71852 36864 32507 10102 20037 39827 40115 50003 333 10190 20093
70010 555 32926 40141=
71855 36964 02505 10055 20003 39765 40132 53011 333 10204 20053
70000 555 32831 40181=
71856 36964 00103 10072 20042 39839 40117 51010 333 10181 20067
70000 555 32830 40131=
71858 36/64 /0000 10034 21010 39847 40124 50006 333 10153 20005
70004=
71861 36964 02609 10078 20060 39430 40143 50003 333 10163 20062
70005 555 32921 40180=
71862 32774 32503 10076 20064 39462 40153 50001 81101 333
10175 20053 70000=
71863 36964 02608 10048 20036 39466 40156 51007 333 10171 20020
70005 555 32825 40210=
71865 36/64 /2006 10024 20001 39477 40152 51002 333 10160 20024
70000=
71866 36964 02908 10036 21052 39553 40160 51006 333 10184 20036
70000 555 33222 40190=
71867 32774 10000 10018 21004 39774 40105 58007 81500 333
10134 20013 70028 555 33033 40101=
71868 36964 02003 10020 20009 39690 40124 58006 333 10155 20014
70005 555 32826 40181=
71869 32974 03614 10060 21013 39631 40150 53011 333 10156 20035 70000
555 33126 40171=
71870 36964 02309 10042 20019 39217 40179 53015 333 10142 20011
70000 555 33521 40220=
71871 32974 02808 10059 21043 39378 40176 51003 333 10147 20041 70000
555 33318 40230=
71874 36964 02806 10062 20028 39108 40195 51011 333 10153 20044
70020 555 30326 40231=
71876 32974 03005 10055 21036 39505 40161 51003 333 10175
20033 70000 555 33021 40180=
71877 32874 63204 10052 20031 38944 40214 51006 86070 333
10115 20034 70008 555 30720 40200=
71878 32974 13105 10047 20007 39138 40207 51009 81070 333 10142 20037
70000=
71879 36964 03006 10074 21017 39391 40188 51009 333 10160 20024
70010 555 33418 40190=
71880 32782 20000 10072 20041 39093 40183 51009 82500 333 10142 20010
70000 555 32022 40011=
71881 36964 02904 10044 20016 39113 40204 51008 333 10139 20029
70005=
71882 36864 33203 10097 20069 39645 40173 51019 333 10191 20073
70005=
71883 36/// /3402 10083 20047 39382 40192 51010 333 10187 20038
70000=
71887 32883 22306 10106 20057 39758 40173 51009 82070 333 10196 20083
70002=
71889 32774 23304 10121 20023 39753 40163 51011 82500 333 10206 20206
70000=
71891 36764 61204 10121 20068 39912 40186 51012 333 10203 20090
70000 555 31522 40071=
71892 32983 11302 10122 20078 30182 40187 50000 81070 333 10154 20105
70040=
71725 36764 31808 10119 20064 39773 40181 50002 333 10201 20010
70005 555 31719 40210=
71726 36/64 /0000 10051 20046 39685 40216 53011 333 10189 20010
70000=
71727 32874 20908 10087 20035 30022 40217 58001 82070 333
10172 20042 70000=
71728 32982 62310 10115 20060 39989 40207 51005 86070 333 10165 20055
70000=
71730 32974 22104 10120 20061 39762 40178 50000 82070 333
10209 20078 70000=
71731 33/// /1904 10125 20086 39748 40190 50008 333 10209
20072 70000=
71733 36964 01709 10107 20073 39941 40175 58003 333 10179 20086
70000 555 32417 40190=
71749 36662 80203 10106 20101 39880 40119 50000 333 10235 21015
70000 555 31820 40200=
71799 32783 62806 10120 20085 30164 40187 50000 85570 333
10162 20091 70000=
71801 11462 83413 10001 21018 39965 40139 56004 69941 72622 885//
333 10046 21004 70009 90942 555 10004 20004 30330 40161=
71803 11124 83312 11002 21015 39986 40174 55001 69961 77187
887// 333 10052 21008 42001 70008 90973 93101 555 10008 20002 30322
40140=
71807 36/// /3416 10013 21013 30149 40165 51003 333 10077 20013
70000=
71808 36164 80603 11008 21013 30165 40212 53001 333 10076 21013
70000=
71809 32974 00603 11011 21017 30179 40206 51012 333 10109 21019 70000
555 30425 40140=
71810 36/64 /0000 11011 21040 30167 40231 50000 333 10124 21011
70000=
71811 32980 13603 10009 21001 30164 40233 50003 81070 333 10100 20002
70000=
71813 36964 02806 10013 21007 30204 40217 51003 333 10106 20005 555
30618 40080=
71814 36/// /3303 10006 21003  333 10075 20000 70000=
71815 32974 00000 10045 20000 30175 40207 51006 333 10139
20043 70000 555 30524 40121=
71103 46964 00000 10067 20047 39542 40198 51006 333 10166 20057 555
33319 40220=
71115 36/// /0501 10095 20057 333 10190 20040 70000=
71121 36964 02907 10057 21029 39373 40192 51009 333 10159 20009
70005 555 33317 40180=
71127 46064 /0107 10025 21019 39453 40183 53017 333 10156 21008 555
33528 40001=
71143 36/// /2907 10123 20067 39818 40127 53012 333 10167 20105
70000=
71918 460// /0317 11058 39787 40205 50000 333 11031 21060 555 30728
40001=
71923 46/// /0000 11004 21006 39629 40065=
10162 21001 70004 555 31418 40030=
71931 36/64 /3105 10059 21037 39508 40188 51012 333 10152 20025
70000=
71932 36964 00105 10040 21030 39749 40202 51020 333 10145 20012
70005 555 33431 40211=
71933 36964 03507 10048 21055 39917 40207 51003 333 10076 21006
70005 555 33129 40221=
71934 32974 53604 10034 21059 39965 40223 53010 80001 333
10082 21012 79999 555 19999 29999 33321 40220=
71935 32674 10000 10015 21059 30033 40243 53005 81570 333 10086 21030
70000=
71936 32974 11804 10061 21067 39980 40239 51006 81071 333 10122 21015
70000=
71938 11456 80110 11067 21075 30251 40281 52014 69981 75665
886// 333 11047 21085 42010 70022 90973 93102 555 10046 20022 30820
40191=
71940 32882 60905 10076 21065 39401 40199 52010 84071 333 10175 21007
70000=
71943 32874 72303 10093 20002 39374 40201 51010 84071 333 10164 20008
70000=
71944 36964 30000 10064 20050 39386 40212 51007 333 10123 20007
70005=
71945 32874 80000 10120 20016 39738 40200 53010 8807/ 333 10194 20004
70000=
71946 32774 40000 10100 20014 30009 40218 52008 83470 333 10194 20021
70000=
71948 46964 00706 11103 30194 40310 51005 333 11074 21113 555 30730
40081=
71949 36/64 /1601 10090 20021 39371 40230 53015 333 10146 20000
70000=
71950 32782 40000 10073 21010 39592 40218 53006 81401 333 10141 21001
70000=
71951 32980 62708 10102 20017 39962 40228 53009 80001 333 10162 20023
70000=
71957 36964 00709 10002 21047 30181 40270 51001 333 10018 21053
70000 555 30717 40020=
71958 36764 30000 10044 21017 39293 40260 53013 333 10109 21008
70020=
71964 11480 63605 10067 20049 39387 40239 51018 60281 78022 86870
333 10126 20033 70044 90932=
71966 46/// ///// 10112 333 10151 20039=
71968 469// 00203 11050 30207 40272 51002 333 11040 21100=
71201 36/// ///// 10110 333 10174 20101 70000=
33019 4023/=
71434 36/// /2809 10113 20086 39957 40021 53005 333 10173 20063
70000=
71802 36/// ///// 10022 21009 40164 333 70008 555 30651 4012/=
71826 36/// /0901 11013 21025 30165 40194 56007 333 10035 21013
70000=
71846 36/64 /2507 10090 20019 39783 40086 53009 333 10228 20077
70023=
71702 36/// /0000 10009 20008 40239 333 10069 20009 70016 555 30231
4011/=
61697 32460 63406 10230 20220 30097 40112 86500
333 01700 20220 50324 55/// 58003 86615=
61699 32958 62408 10286 20219 39807 40090 86070
333 02200 20268 51004 55/// 59012 86363=
60710 32560 12202 10192 20130 30130 40208 51011 81200
333 20148 81820=
60714 32462 33210 10214 20180 30189 40196 52008 83200
333 20166 83816=
60720 32960 02908 10214 20138 30155 40190 53010
333 20180=
60723 33960 00000 10159 20137 30032 40219 53001
333 20125=
60728 33965 12406 10223 20140 30188 40192 53008 80002
333 20200 81070 92427=
60734 33965 01404 10186 20129 39699 40210 52006
333 20136=
60738 32965 03104 10173 20113 38992 48568 53008
333 20139=
60740 32958 02706 10222 20134 30192 40195 56005
333 20206=
60745 32960 00408 10222 20134 39841 40204 52014
333 20199=
60765 32960 00000 10233 20172 30194 40200 52012
333 20210=
60748 33960 00000 10219 20148 39791 40199 54000
333 20178=
60750 32958 02602 10221 20187 30172 40204 53012
333 20191=
60764 33958 00314 10229 20183 30164 40214 52014
333 20218=
60770 33960 00000 10238 20141 30064 40200 52013
333 20200=
60780 33960 01202 10238 20103 39910 40207 54000
333 20206=
60285 31304 80214 10142 20142 40144 5//// 746// 885//
333 20141 30013 84710 88616=
71851 36/// /2504 10108 20049 39794 40122 51006 333 10186 20108 70000
555 32920 40140=
71873 36/64 /3108 10016 21050 39260 40206 51009 333 10148 20016
70000=
71875 36864 62707 10041 20026 38831 40210 50005 333 10132 21006
70000=
71075 36/// /3209 11018 21025 39500 40099 58007 333 10060 21018 70008
555 33120 40200=
71096 460// /0804 11011 39496 40224 53002 333 10030 21011=
71194 36/64 /0000 10040 21010 30175 40188 55001 333 10138 20026
70000 555 30737 4008/=
71197 36964 03106 10030 21017 30161 40210 53004 333 10099 20029
70005=
71450 36/// /3208 10042 21042 39449 40159 52010 333 10173 20041 70000
555 33222 40201=
71490 36/// /0000 11077 21079 39910 40226 53004 333 11020 21077
70000=
71952 36/// /3202 10039 21002 39364 40213 53011 333 10149 21028
70000=
71967 36/// /2507 10068 20044 39282 40250 51018 333 10127 20008
70000 555 33018 40020=
40041=
71629 36964 00000 10064 20062 39977 40209 53010 333 10198 20058
70000=
71261 36/// /1503 10130 20091 39933 40190 50003 333 10191 20065
70000=
10170 20062 70000 555 30521 40161=
71265 36964 00000 10108 20064 30105 40198 50006 333 10157 20108
70000 555 30821 40150=
80022 31462 50000 10264 20244 30098 40100 70522 82431
333 56100 58007 82815 83357=
80028 31460 50108 10270 20259 30083 40100 70511 85600
333 569// 58009 85715=
80222 31105 80000 10100 20098 37515 7414 8677/
333 5600/ 59004 8673/=
80259 11457 80000 10196 20183 39054 69924 71552 8457/
333 5637/ 58007 84610 86357=
80398 32970 00000 10230 20224 39996 40091
333 58000=
94120 46/// /1209 10277 20077 30065 40100=
94150 46/// /1610 10253 20200 30039 40100=
94203 46/// /1013 10257 21025 30117 40128=
94207 35/// /0916 1//// 30116 40127 57014=
94212 46/// /1112 10215 21025 39667 40147=
94216 46/// /1312 10247 21038 30086 40137=
94238 46/// /1216 10194 21037 39748 40179=
94268 46/// /1609 10282 20082 30082 40097=
94287 46/// /1315 10212 20080 30120 40129=
94294 46/// /1606 10231 20025 30137 40147=
94298 35/// /1516 10221 30117 40123 57006=
94299 46/// /1623 10236 20199 30090 40101=
94300 46/// /3411 10263 20081 30149 40159=
94302 46/// /0317 10229 20099 30157 40163=
94312 46/// /0912 10246 20011 30140 40150=
94317 46/// /0809 10208 20011 39575 40169=
94319 46/// /1115 10230 20014 39831 40169=
94326 46/// /1311 10152 20022 39593 40228=
94332 46/// /1615 10196 21055 39781 40173=
94346 46/// /1711 10180 20000 39958 40183=
94363 46/// /0000 10184 20035 39933 40154=
94367 46/// /1411 10174 20091 30110 40148=
94374 46/// /2207 10155 20010 30139 40156=
94394 35/// /2608 10192 30118 40126 57005=
94403 46/// /0114 10263 21024 30117 40158=
94429 46/// /0611 10194 20005 39724 40196=
94430 46/// /0712 10199 21027 39592 40189=
94461 46/// /0812 10173 21066 39533 40221=
94462 46/// /1013 10166 21001 39662 40233=
94510 46/// /2310 10153 21004 39824 40179=
94515 46/// /2511 10152 20005 39805 40161=
94552 46/// /2517 10128 20001 39668 40140=
94578 46/// /2718 10169 20000 30111 40122=
94584 46/// /2504 10164 20038 30013 40124=
94601 46/// /0215 10194 20032 30146 40163=
94610 46/// /0215 10225 20005 30155 40179=
94637 46/// /0409 10173 21016 39812 40249=
94638 46/// /0313 10179 20038 30234 40267=
94647 46/// /1105 10148 20073 30175 40298=
94651 46/// /1610 10169 20089 30217 40296=
94653 46/// /1612 10167 20042 30270 40289=
94659 46/// /1813 10148 20013 30065 40265=
94672 46/// /1914 10138 20026 30262 40267=
94693 46/// /2108 10127 20035 30168 40231=
94703 46/// /2311 10124 20005 30069 4////=
94729 46/// /2415 10015 20000 39271 40130=
94767 46/// /2721 10115 21014 30094 40100=
94776 46/// /2815 10117 21024 30097 40107=
94791 46/// /2406 10149 20067 30088 40095=
94802 46/// /0114 10201 20021 30123 40206=
94804 46/// /1716 10133 20069 30240 40279=
94821 46/// /2113 10108 20059 30161 40245=
94865 46/// /2119 10113 20056 30171 40196=
94907 46/// /2215 10105 20048 30143 40153=
94910 46/// /2509 10087 20029 39895 40150=
94926 46/// /2613 10083 21044 39432 40107=
94954 46/// /2036 10085 20065 30065 40176=
94956 46/// /1811 10079 20057 30159 40186=
94968 46/// /1607 10089 21010 39934 40149=
94975 46/// /2110 10094 20022 30121 40154=
94983 46/// /1825 10109 20039 30097 40122=
94995 46/// /2717 10173 20095 30079 40087=
94996 41582 72201 10161 20121 30000 40129 52004 70222 81238=
95711 46/// /2210 10095 20004 39881 40190=
95719 46/// /2511 10069 20024 39829 40166=
96995 46/// /1214 10267 20232 39806 40099=
96996 41580 71514 10278 20228 30113 40117 57016 70222 82239=
89564 41580 71324 11146 21201 39809 49830 57034 70311 81571=
89571 41402 80629 11059 21068 39664 49693 57035 73872 8362/=
89611 41908 80910 11053 21061 30046 40102 52080 77377 8802/=
94934 37/// /2331 10093 30056 40080 52007 76044=
94974 37/// /1611 10085 30156 40179 52002 7//44=
95288 35/// /1720 10223 30085 40100 57023=
95872 46/// /2225=
60106 32965 00000 10125 20120 40207 53008
333 20120=
89002 43/// /0844 11105 21119 39893 49945 52008=
78866 32470 51111 10266 20228 30151 40155 57010 85200
333 58013 85818 =
85406 32560 80704 10173 20115 40159 57021 885//
333 56099 88627=
85418 32562 80000 10152 20100 40152 57015 885//
333 56099 88630=
85442 32570 83404 10137 20102 40155 58006 885//
333 56099 88620=
85488 31005 90602 10107 20102 40156 54001 74542 8////
333 56099 8////=
85574 31956 70000 10053 20041 39603 40177 57008 71011 87050
333 59020 56060 87367=
85682 32960 01602 10075 20071 40185 58011=
85743 31/01 90000 10076 20074 40209 57007 74741
333 89/00=
85799 32260 80000 10056 20043 40226 54003 886//
333 56499 88703=
85874 11570 81508 10031 20019 39647 40284 52011 69941 70282 882//
333 56699 88820=
85934 11480 60612 10028 20021 40340 54001 69931 70262 86500
333   56100 86616=
85972 32497 40525 10040 20031 40324 57005 84500
333 56100 84614=
91554 31575 41003 10270 20241 40081 53001 70511 81101 333
562/9 81825 84080
84628 34226 81902 10162 20153 30104 40120 71044 886//
333   564// 59017 88707=
84752 31962 03603 10087 21084 37515 70200
333   59014=
84377 31960 00000 10240 20226 30007 40113 70203
333   59016=
84686 31960 00000 10070 20029 36880 70200
333   59010=
84501 31962 01404 10170 20154 30091 40133 70300
333   59025=
84452 31460 51907 10180 20164 30088 40119 70300 856//
333   560// 59020 85715=
84370 31560 80000 10230 20207 30083 40112 70222 885X
333   560// 58002 88621=
84390 31965 61808 10190 20170 20044 40147 70222 86030
333   56000 59006 86360=
84401 31960 00000 10200 20170 30096 40165 70200
333   58006=
84691 31958 01202 10150 20130 30104 40111 71044
333   59009=
84515 31960 00000 10250 20231 39925 40102 70200
333   59010=
84782 31460 80000 10130 20106 39634 40176 70222 885//
333   569// 59011 88617=
71872 32983 10000 10072 20034 39340 40189 52014 80001 333 10141 20053
70076=
91631 31599 20605 10289 20248 40080 70200 82100 90546 333 561//=
91648 31499 39902 10286 20234 40085 53009 70200 83200 333 562//=
91636 11499 30408 10290 20259 4//// 69901 70108 82201 333 561/9=
91643 31499 40812 10290 20252 40076 54006 70210 83201 333 561/9
83819=
78948 31560 80816 10274 20230 30118 40126 70522 8124/ 333
01249 10299 20257 59003 70015 81820 88459=
60351 32980 00000 10180 20165 40206 53009
333 01300 20150 95900=
60430 33965 01008 10224 20090 40187 53007
333 01500 20198 95900=
60444 32970 00606 10185 20129 39170 48583 55001
333 01600 20170 95900=
60467 33965 03006 10217 20138 40166 53010
333 01700 20213 95900=
60468 32965 01503 10158 20130 39273 48572 53002
333 01200 20136 95990=
60515 33960 00000 10223 20126  40224 53007
333 01600 20190 95900=
60581 32965 01209 10250 20132 40182 53011
333 0//00 20231 =
53487 32565 73207 10270 21019 49965 57013 85102 333// 20148=
53478 32570 12908 10244 20007 49990 57013 81100 333// 20095
91118 91527=
54135 32680 72905 10284 20069 39772 49975 57006 81102 333//
20180=
54226 32677 71606 10290 20074 49960 57016 82902 333// 20185=
52378 32980 72906 10291 21126 40008 57010 80002 333// 05205
20152=
52495 32980 72707 10274 21057 38595 40004 57007 80002 333//
00002 20128=
52267 32980 73205 10294 21059 38976 49995 57016 80002 333//
05104 20127=
53502 32980 72907 10301 21114 49999 57014 80002 333// 00003
20137=
53602 32680 33204 10257 21099 38373 57008 81102 333// 20142=
52576 32980 71402 10274 21078 38410 57016 80002 333// 05202
20126=
53231 32680 32907 10209 21012 38409 57005 83100 333// 00153
20100=
53362 32580 32906 10205 21013 49989 57006 83102 333// 20121=
53336 32980 02906 10230 21030 38612 49993 57003 333// 05100
20126=
53391 11580 62705 10202 20015 38392 49973 57009 69901 70060
86102 333// 05652 20124=
53276 32680 72910 10217 20015 38729 49972 57003 84902 333//
20154=
53529 32970 43206 10264 21101 38531 49992 57014 80002 333//
05204 20148=
54012 11580 71103 10212 20068 38874 49955 57013 69901 70080
83202 333// 20175=
54208 11580 71603 10171 20077 38632 49992 57003 69901 70098
87902 333// 20090=
53192 32580 62008 10222 21022 38732 49949 57013 82102 333//
20131=
54115 32680 70902 10254 20049 49952 57019 83102 333// 20181=
54213 32680 60203 10265 20041 49956 57016 86102 333// 20191=
54027 32680 71403 10252 20023 39436 49978 57007 87202 333//
20152=
54134 32670 73606 10251 20073 49974 57011 85102 333// 20164=
54026 11980 80404 10237 20061 39681 49982 57008 69901 72160
8802/ 333// 20206=
50514 32980 60902 10227 21046 40020 57014 80002 333// 20033=
50603 32680 60703 10227 21026 39375 40005 57005 82132 333//
20097=
50425 32980 10402 10231 21020 40034 57017 80002 333// 20022=
50434 32580 12502 10212 21003 39198 40045 57015 81102 333//
21048=
53083 42678 51806 10226 20023 49937 57007 82102 333// 05455
20135=
53195 11660 72005 10147 20094 49959 52002 60121 79598 879//
333// 20139 93906=
50915 11575 71606 10246 20029 39030 49944 57002 69901 78000
87902 333// 20186=
11406 32470 52401 10062 20039 39628 40194 51007 85200
333 20037 31001 50282 70003 85812=
11457 12486 12703 10055 20017 38902 48503 52010 69912 81201
333 20016 31000 70009 81810=
11520 32984 22602 10092 20046 39832 40198 51011 82030
333 20054 31004 50362 70004 82360=
11541 32875 29901 10094 20059 39685 40205 5//// 82030
333 20070 3/000 4//// 70000 82358=
11636 32585 19902 10087 20045 39518 42811 52009 81230
333 20039 31001 50302 70018 81822 9512/=
11679 12475 42804 10090 20052 39707 40193 53014 69942 84200
333 20038 31000 50332 70004 84816=
11723 32481 13002 10101 20077 39899 40195 52009 81140
333 20046 31000 70006 81816=
11774 12484 13302 10101 20071 39922 40192 51011 69902 81100
333 20050 31002 79999 81813=
11787 11080 62705 10022 20016 38665 48484 52007 69952 70341 84242
333 20005 31101 70077 84801=
26038 12598 72203 10119 20069 40083 53008 69902 82531   333 20096
555 31008=
26045 11598 82203 10112 20088 40097 52008 60102 70282 84570   333
20091   555 31010=
26058 11596 72903 10097 20087 40100 52010 60072 71082 87900   333
20086   555 32009=
26115 32998 72005 10098 20088 40073 53005 80003   333 20088   555
31008=
26141 11598 82103 10100 20088 40098 52010 60082 70282 885//   333
20079 88624   555 32009=
26215 32498 72105 10110 20083 40085 52008 87900   333 20094 86915
555 31007=
26231 12998 72405 10130 20090 40103 53009 60012 87070   333 20100
555 31011=
26242 11598 82101 10101 20095 40114 52010 60142 76186 8457/   333
20089   555 32010=
26247 11496 81701 10099 20093 40118 52011 60072 78182 883//   333
20094   555 32011=
82825 92428=
57297 11970 82003 10206
20172 39909 40044 57021 69901
76000 8807/ 333// 20152=
26135 11597 82002 10114 20100 40100 52014 60032 70282 8594/   333
20085   555 31010=
54715 32670 61804 10248 20162 40020
57027 86800 333// 20173=
16181 31858 30000 10140 20140 39902 40146 53006 710// 83030 90545
333 20127 30/// 55064 21484 55300 83358 9509/=
16280 33997 02610 10210 20168 39929 40143 56001 90545 333 20200
30/// 55112 22885 55304 555 0327/=
16219 32965 20000 10098 20056 38141 48512 53000 80001 90545 333
20070 30/// 55025 20938 55305=
16520 32980 03102 10195 20147 30170 40197 52009
333 20167=
16522 32998 13222 10188 20148 39958 40197 53007 80002 90545 333
20180 30/// 55123 2//// 55310 555 0300/=
16539 32998 03511 10190 20169 30076 40189 55003 90545 333 20186
30/// 555 0200/=
16550 32998 03215 10232 20103 39976 40150 53005 90545 333 20212
30/// 55123 22641 55310 555 0300/=
16564 33598 22831 10198 20156 30033 40171 55001 82200 90545 333
20188 30/// 82820 555 0436/=
11423 11381 22503 10063 20060 39316 42807 52010 69952 70241 82101
333 20027 31001 50332 70010 82808 9512/=
57193 32970 72003 10280
20173 40025 57023 80002 333//
20148=
33345 32698 31801 10209 20158 40108 53002 81130 333 20165=
33506 32998 60401 10223 20147 40124 53003 83031 333 20156=
33658 11497 82908 10139 20112 40131 52012 69902 78082 889// 333
20139 88710=
33663 32998 63002 10217 20132 40106 52010 86030 333 20177=
33711 32998 61002 10222 20138 40117 53004 86030 333 20159=
33837 32998 20702 10228 20153 40103 54000 82030 333 20163=
33910 32598 31106 10227 20154 40106 53001 83100 333 20178=
33946 32997 09902 10214 20133 40103 51005 333 20117=
34300 32997 69902 10232 20125 40134 53003 86030 333 20178=
34504 32997 51807 10240 20114 40125 53010 80001 333 20180=
34519 32660 51502 10223 20117 40124 52003 82330 333 20160=
34601 32797 61502 10222 20132 40126 51006 83530 333 20186=
47101 32565 82003 10222 20137 39977 40065 57016 8452/=
47105 32575 83403 10264 20086 30012 40041 57010 8251/=
47108 31940 82708 10200 20128 39979 40080 57008 71022 8801/ 333
9////=
47115 32965 62310 10204 20124 39795 40048 57017 80002 333 92043=
47133 41562 83414 10204 20122 39997 40075 57008 76062 8652/=
47138 32970 72512 10267 20039 30051 40054 57023 87030 333 92022=
47159 31657 82008 10225 20141 39992 40071 57018 71022 8553/ 333
92022=
47165 41560 81811 10166 20100 30043 40086 57016 76066 8572/ 333
92022=
47168 32960 82023 10185 20094 30005 40082 57013 8802/ 333 92033=
47184 42668 83202 10168 20127 30049 40076 57032 8452/ 333 92022=
57181 32966 73202 10302
20134 40023 57024 80002 333//
20150=
47090 32668 81402 10242 20078 30020 40039 57010 8252/ 333 92012=
47095 31958 82307 10203 20136 39895 40072 57009 71022 8802/=
47100 32970 72708 10199 20056 39117 40043 57010 83031=
47106 32670 81103 10234 20065 39999 40042 57014 8251/=
47112 32562 83604 10188 20144 30002 40081 55011 8652/ 333 92011=
47114 31658 82503 10219 20134 39898 40068 57012 71021 8451/=
47119 32660 82904 10194 20132 30042 40081 55007 8551/=
47121 32970 82704 10234 20114 39785 40051 57026 8802/=
47129 41565 83604 10191 20099 30065 40094 57012 76166 8672/=
47130 32968 71806 10223 20119 39978 40034 57021 84032 333 92012=
47131 31558 83207 10195 20115 30011 40077 58007 71022 8451/=
47135 32968 82708 10222 20118 39785 40063 57016 8802/=
47136 32672 82704 10253 20103 39894 40053 57022 8451/=
47140 41550 82916 10167 20132 30053 40088 57007 76366 8472/ 333
92011=
47143 32970 82707 10251 20063 39996 40061 57020 8801/=
47146 41562 82707 10179 20136 30027 40091 52002 76166 8672/=
47152 32568 82509 10244 20062 30026 40064 57018 8352/=
47155 32565 81808 10226 20127 30069 40073 57016 8652/ 333 92022=
47156 41658 82505 10187 20137 39999 40084 57012 73066 8472/=
47162 32665 82509 10202 20103 30046 40083 57011 8652/ 333 92023=
47170 32662 81808 10172 20096 30046 40086 57013 8552/ 333 92022=
47185 41575 81413 10157 20119 39985 40069 57038 76166 8372/ 333
92033=
47189 41470 80505 10148 20136 30026 40086 57034 76166 8672/ 333
92011=
47192 41668 82008 10233 20134 30048 40074 57017 76066 8652/=
26229 12999 81904 10121 20099 40101 53011 60012 8807/
333 20085=
26313 32997 72405 10118 20074 40093 53006 80030
333 20064=
26314 32498 82209 10112 20083 40095 52006 82104
333 20077 91011 91111=
26324 32598 72503 10121 20086 40104 53007 81236   333 20087=
26348 11498 82501 10092 20081 40121 52022 60062 75165 8661/   333
20076 86710=
26406 32665 72405 10120 20089 40105 52009 85532
333 20072 85635=
26422 12997 81804 10120 20104 40109 52005 60022 8805/
333 20101=
26446 11597 83202 10086 20076 40120 52019 60052 72582 889//   333
20085 88921=
26544 11456 83403 10087 20077 40119 52022 60092 78182 889//   333
20087 86914=
13272 11670 72805 10135 20114 30075 40193 52021 69942 70162
84570 333 20123 31011 55024 83633 87458=
13376 11597 82903 10108 20103 39946 40207 52032 60062 76166
8802/ 333 20106 32010 55060=
13388 12698 83406 10143 20112 39929 40169 52025 60052 885// 333
20140 31014 55080 91111=
13462 32760 43303 10207 20155 30113 40156 52013 81530 333 20166
30/// 55/// 81650 83360=
16453 32998 03302 10210 20111 30096 40172 53006 90545 333 20200
30/// 55126 2//// 55308 98088 555 0100/=
16480 32997 00303 10200 20156 30101 40161 53008 90545 333 20182
30/// 55120 22240 55300 555 0100/=
91353 32574 60506 10289 20257 30054 40059 56010 83270 333
5619/ 70000 83819 83361 555   93006
91425 32474 20405 10306 20253 30052 40053 56008 82200 333
561// 70127 82818 555   93006
91434 32474 51001 10300 20263 30063 40066 56017 85200 333
562// 79999 85818 555   93006
=
36982 42598 72004 10016 21039 36500 47042 54000 86650 333
21030=
41710 32997 00503 10383 20138 49967   333 59006=
41718 32996 02312 10350 20202 49998   333 59007=
41739 31996 02303 10320 20149 48454 70500  333 58004=
41744 32997 02705 10285 20194 48433  333 59004=
41749 31996 01814 10370 20260 40008 70500  333 59010=
41725 32997 01809 10360 20232 40009  333 59009=
41759 32597 40000 10330 20261 40500 84600  333 56900 58013
81720 83630=
16400 33597 12214 10190 20165 39879 40162 53006 81100 90545 333
20184 30/// 55103 2//// 55305 22/// 81820 555 0325/=
16470 31456 42811 10192 20183 39948 40180 50007 7101/ 84100 90545
333 20180 30/// 55098 22663 55300 22016 84810 95060=
16420 32497 43004 10220 20178 30098 40161 53005 84500 90545 333
20218 30/// 55088 22727 55303 84618 555 0100/=
16410 33970 01706 10220 20149 30028 40164 50002 90545 333 20190
30///=
16429 31458 12907 10182 20175 30162 40173 53005 71000 81200 90545
333 20154 30/// 55120 2//// 55305 81812=
12120 11498 72206 10103 20072 30118 40125 52012 69902 72581 85302
333 10127 20064 31004 55096 79999=
12135 32497 62703 10109 20076 30124 40127 52011 86500
333 10126 20080 31005 55074 79999=
12235 32497 42304 10092 20066 39934 40143 52013 83530
333 10138 20051 31004 55098 70009=
12385 11598 72802 10103 20090 39960 40148 52012 69922 72581 873//
333 10119 20087 31008 55017 70052=
12695 12570 72604 10093 20078 39834 40172 52017 69982 878//
333 10117 20093 31008 55065 70100=
37549 42897 31901 10257 20135 40116 58013 83200=
60715 32560 22810 10234 20122 30189 40194 52011 80002
333 20198 82070=
60725 33960 02404 10193 20162 30045 40212 53009
333 20161=
60735 32965 00000 10211 20121 30121 40201 53004
333 20200=
60760 32960 01310 10247 20140 30073 40180 52012
333 20237=
60769 32950 01602 10239 20190 30193 40198 52014
333 20199=
60775 33975 02502 10232 20091 39857 40204 53016
333 20209 55127 22586=
12469 11498 32605 10106 20071 39936 40165 52011 69922 70381 83200
333 10131 20081 31007 50323 55007 70030=
26554 11550 73104 10110 20104 40098 52015 60022 78086 879//   333
20110 86823   555 31009 52009 90012=
26666 32960 52104 10191 20141 40087 53003 83031   333 20172   555
30016 52015 90014=
26850 11565 72902 10142 20112 40105 53018 69902 72211 875//   333
20142 87623   555 30013 90011=
26863 12560 31801 10201 20156 40089 53001 69992 82230
333 20142 555 31013 52012=
26951 32465 82805 10137 20114 40114 52016 886//   333 20128 88712
555 30012 52012 90014=
33036 32660 63003 10178 20141 40104 53007 84504   333 20160   555
30015 52014 90011=
33041 32960 21601 10213 20156 40107 52003 82030   333 20177   555
31015 52013 90012=
11766 12284 32603 10071 20046 39304 42801 52013 69902 83500
333 20035 31002 50052 70017 83605=
53942 32960 01803 10300 20007 40000 57030 333 20130=
57034 32962 12202 10306 20165 40022 57033 80002 333 20153=
57232 32980 72702 10263 20160 40055 57031 8703/ 333 20140=
52645 32680 70901 10133 21077 36809 57013 86902 333 00004
21030=
52984 32580 11401 10240 20031 38041 57022 81100 333 00104
20085=
57134 32680 22005 10263 20174 40024 57019 81102 333 05307
20125=
52707 32680 72703 10232 21072 37254 57018 81102 333 05508
20043=
56067 32580 13202 10129 21060 36575 57012 81100 333 00302
21009=
53821 32680 12702 10317 21058 49993 57024 81100 333 05312
20115=
33008 12965 73102 10127 20085 40137 52008 69902 87030 333
20110 555 31010 52009 90011=
26941 11960 73303 10115 20097 40132 52005 60072 70286 87070
333 20108 555 32012 52012 90011=
10091 20077 60035 70090 81/04 83/17 85/19=
60360 32965 02102 10183 20170 40209 53007
333 01200 20148 95900=
60390 32560 30000 10180 20168 40207 53009 83600
333 01100 20152 83720 95900=
60402 32960 02406 10178 20156 40206 52010
333 01400 20159 95900=
60419 32970 00000 10166 20139 40204 53007
333 01100 20140 95900=
60475 32970 00000 10166 20131 39285 48578 53005
333 01200 20152 95900=
60490 32965 10000 10182 20148 40188 53005 80001
333 00900 20155 81073 95900=
60525 32970 01804 10247 20120 40189 51021
333 01900 20224 95900=
60566 32965 00000 10245 20093 40191 53009
333 0//00 20225=
60571 32662 31712 10260 20039 39269 48572 51008 81281
333 0//00 20250 81840 95900=
60580 32960 00610 10255 20138 40175 53008
333 0//00 20235=
60590 32965 00606 10236 20091 40171 53001
333 02000 20232=
60630 31959 00524 10282 20050 40102 56005 70700
333 02500 20276=
60656 32760 30307 10250 20048 40123 50003 82230
333 02200 20246 82846=
60670 32960 22907 10238 20078 39083 48553 53011 82030
333  02100 20226 82360 95900=
60680 32965 31018 10265 20055 38671 48540 53017 83030
333  01900 20229 83362 95900=
41240 31959 00909 10345 20263 30016 40019 70600 333 20305 58002=
41244 36/// /0506 10368 20182 39689 40041
333 0E030 20284 58000  =
41246 31558 30608 10334 20272 30026 40031 70500 83500
333 20289 58013 83620 =
41254 32965 01905 10280 20048 38021 48276 333 20210 59004=
41256 31557 10206 10330 20278 30017 40026 70500 81500
333 20286 58011 81620 =
41262 36/// /1214 10348 20195 39828 40016
333 0E029 20267 58000  =
41268 32960 02518 10365 20259 30011 40026 333 20302 58008=
41288 31459 42415 10311 20258 30024 40046 70500 81530 333 20263 58013 81610
83360=
41304 36/// /2904 10346 20130 39721 40038
333 0E023 20227 58000  =
41312 36/// /1912 10299 20260 30012 40053
333 0E/// 20283 58001  =
41314 32962 21914 10330 20176 39557 40070 80001 333
20252 58005 82075 =
41316 01562 32014 10314 20262 30025 40050 69991 72161 83400
333 20289 58002 799990 83625 =
26645 11462 82901 10100 20090 40117 52015 60102 76162 8872/   333
20094   555 32011 52011 90011=
26659 32560 72403 10180 20120 40094 52004 86531   333 20152 86526
555 31014 52013 90010=
26763 11458 81506 10195 20152 40091 53005 69902 78081 889//   333
20145 88916 91111   555 31013 52012 90012=
26825 12960 62602 10127 20100 40123 52007 69942 86030   333 20095
555 31009 52008=
26832 11559 82602 10117 20095 40123 52005 60102 71082 8437/   333
20107   555 32012 52009 90013=
26887 32870 61903 10215 20137 40108 58001 86030   333 20157   555
30015 52014 90011=
26961 11560 72903 10159 20139 40102 52014 69902 72511 82330   333
20120   555 30012 52009 90012=
33027 32465 83403 10156 20131 40113 52005 886//   333 20131 88712
555 30012 52009 90011=
11414 12362 79902 10051 20037 39477 42806 52013 69912 876//
333 20032 31102 70005 87706
555 390// 50111 60116 70123 80127=
11438 12570 13005 10086 20053 39803 40199 51014 69902 81101
333 20022 30101 50362 70003 81822
555 379//=
11502 31482 22503 10078 20036 39738 40193 51014 703// 81182
333 20055 31001 50382 70012 81816
555 375// 50116 60125 70141 80141 90128=
11538 32586 22704 10096 20038 39597 40199 51010 81230
333 20055 31002 70008 81823
555 367// 50124 60142 70157 80139=
11628 12575 12902 10094 20040 39558 40188 52006 69902 81100
333 20047 31001 50312 70001 81820
555 369//=
11643 11460 51903 10057 20029 39222 42796 52010 60022 703// 85200
333 20028 31001 50272 70074 85817
555 382// 50109 60112 70118=
11648 12465 42802 10087 20063 39904 40200 5//// 60012 82130
333 20060 30/// 70010 82811 84357
555 383//=
11683 12484 22904 10063 20038 39322 42804 52012 69922 82200
333 20031 31002 50222 70006 82811
555 384//=
11693 32480 29902 10099 20062 39714 40199 52010 82100
333 20043 31102 50342 70015 82816
555 378//=
11698 31580 13103 10104 20053 39792 40197 52010 702// 81202
333 20055 31002 50202 70001 81820
555 370// 50133 60135 7//// 8//// 9////=
11710 12465 23205 10078 20049 39577 40190 52014 69902 82100
333 20049 31001 50312 70005 82811
555 382// 50108 60110 70135 80140=
38178 32998 12404 10296 21022 40061 57002 80001   333 20182=
38264 35998 03003 10297 20124 40078 52002   333 20197=
38396 42997 02603 10312 20065 40082 53003   333 20166=
38403 42997 03203 10318 20125 40076 58002   333 20214=
38457 32698 32301 10298 20055 40049 57002 81101   333 20164=
38565 31598 61206 10259 20097 40074 53016 72581 82940   333 20164=
38579 32599 53201 10332 20097 40042 57001 83204   333 20163=
38611 42697 70901 10278 20107 40075 57011 82340   333 20161=
38618 32999 22401 10262 20100 40057 57009 80001   333 20150=
38683 42997 60205 10306 20081 40070 52005 81330   333 20178=
38696 32999 22502 10298 20048 40052 52010 82080   333 20184=
38812 42697 50202 10337 20155 40051 52008 81131   333 20185=
57947 11560 70000 10281 20254 40055 57016 69991 71786 8494/
333 20229=
57996 32675 22704 10331 20225 40055 57026 82100 333 20243=
59021 32575 72204 10297 20221 40036 57018 87840 333 20254=
59242 11575 22004 10316 20252 40050 57024 69901 70080 82130
333 20235=
59271 32580 61103 10321 20243 40055 57028 86200 333 20233=
59298 32575 61803 10329 20235 40071 57021 86200 333 20256=
59317 32570 71803 10316 20247 40086 57019 872// 333 20250=
59446 11580 72506 10311 20252 40058 57019 69901 79598 879//
333 20259=
59453 32580 71403 10331 20231 40061 57025 879// 333 20261=
59462 32580 20000 10341 20233 40056 57028 82200 333 20260=
59478 32580 61802 10326 20244 40071 57027 84202 333 20256=
59664 32478 31404 10316 20245 40072 57018 83100 333 20270=
59754 32480 61104 10319 20257 40062 57019 86202 333 20261=
40356 42960 00614 10270 20030 39138 48479 333 20170 59015 555
04410 50054=
40357 42962 00712 10305 20020 39460 40055 333 20230 59015=
40360 42960 00000 10254 20050 39526 40082 333 20174 59017=
40361 42960 00000 10276 20010 39336 40060 333 20216 59013=
40362 42962 00000 10305 20130 39573 40060 333 20226 59011=
40373 42960 03608 10350 20010 39657 40046 333 20245 59009=
40375 42960 00000 10264 20090 39248 40075 333 20192 59013=
40377 42960 00000 10314 20020 39605 40055 333 20265 59014=
40394 42960 02105 10314 21020 38989 48492 333 20210 59019 555
04410 50038=
40400 42960 02706 10280 20220 30016 40043 333 20218 59017=
40405 42960 01506 10322 21020 39348 40039 333 20232 59012=
40416 41958 03518 10350 20180 30000 40019 70700 333 20285 59006=
40420 41957 03410 10358 20050 39843 40038 70600 333 20268 59001=
40430 42960 00505 10360 20010 39346 40016 333 20290 59025=
40437 42960 03404 10340 21050 39388 40043 333 20244 59003=
40438 42960 00105 10340 21030 39392 40052 333 20262 58008=
40439 42960 02402 10290 20220 30020 40032 333 20210 59029=
41024 42960 00106 10296 20250 30015 40034 333 20230 59022=
41030 42960 00000 10340 20180 39757 40018 333 20284 59015=
41036 42960 00000 10308 20030 38531 48472 333 20244 59004 555
04410 50011=
41055 42960 03610 10300 21020 38341 48481 333 20230 59014 555
04410 50003=
41084 42960 02403 10322 20060 38814 48481 333 20240 59003 555
04410 50014=
41112 42960 01703 10270 21020 37936 48482 333 20165 59006 555
04410 50013=
41114 42960 02006 10272 20070 37970 48482 333 20174 59005 555
04410 50010=
41136 41956 01022 10365 21010 39258 40019 70700 333 20260 59007=
41140 42660 21706 10335 20280 30038 40046 82100 333 20290 58003
82830=
20069 30006 82812 84072 91125 =
10152 20122 30012 55080 79999 85626 85358 86075=
17600 11560 70610 10208 20176 30097 40113 50024 60032 78081 8388/
333 20166 50761 55118 70025 81820 83640 87358 92437=
17601 11562 83206 10196 20166 40117 50031 60042 72196 8498/
333 20185 32016 83920 86357=
17609 11560 73113 10247 20141 30103 40105 50016 69902 78081 8398/
333 20215 51041 55134 79999 81825 82940 86358 91133=
57077 32970 71103 10275
20136 40023 57020 82042 333//
20139=
54237 32970 72007 10299 20109 49975 57014 80002 333 20186=
54335 32965 41811 10278 20110 49995 57011 80002 333 20168
91117 91520=
54339 32962 52206 1X257 20093 40025 57015 80002 333 20229=
54351 32970 12207 10266 20123 40020 57013 80002 333// 20155=
54365 32575 71605 10212 20102 40050 57008 875// 333 20154=
54454 32665 11809 10236 20138 40023 57011 81100 333 20185=
38413 42998 33204 10309 20070 40073 57002 82031   333 20190=
60355 32965 00000 10200 20164 40206 53010
333 0//00 20176 95900=
60445 32965 00000 10192 20114 39050 48579 56001
333 01200 20172 95900=
60535 33970 00000 10136 20056 38888 48567 53004
333 01000 20120 95900=
60550 33970 10000 10135 21014 38725 48571 53003
333 00700 20119 95900=
60555 32970 02005 10240 20153 40186 53011
333   0//00 20229 =
60559 32960 00000 10265 20160 40183 53013
333 20230=
60560 33970 00000 10161 20049 39000 48560 53007
333 01300 20149 95900=
60607 32960 00712 10214 21009 40161 53004
333 0//00 20211=
60620 32960 00716 10223 20017 40129 52007
333 0//00 20215=
60640 32960 00906 10236 20050 40139 53009
333 0//00 20223 =
41859 11350 80904 10256 20236 30020 40060 60048 70262 8572/ 333 56299
58008 70502 83709 85614 88457=
41883 11556 50000 10270 20230 30034 40054 60011 72152 83370 333 56990
58003 70453 82825 84458 84362 81930=
41891 11356 70902 10270 20230 40058 60051 70365 85370 333 56290 59008
70070 81709 84615 81930 86459=
41907 32358 70906 10306 20270 30026 40044 86620 333 56390 58005 70000
84709 83615 87658=
41923 32450 71804 10304 20240 30034 40044 85470 333 56490 58014 84615
85458=
41943 32460 41803 10320 20270 30068 40077 82530 333 56490 58009 70000
82618 83362=
41950 32450 71808 10324 20270 30042 40046 85450 333 56490 58001 70000
84615 85362=
41978 32450 31806 10320 20260 40064 82430 333 56990 59008 70000
82615=
41992 31450 32105 10315 20260 30055 40059 70522 84300 333 56900 59011
70000 83616=
33246 42597 69902 10212 20171 40117 53004 85330 333 20142=
33261 32672 72401 10249 20147 40124 53005 82530 333 20169=
33275 32997 21004 10220 20150 40127 53001 80001 333 20148=
33325 32798 53103 10187 20140 40106 53007 82201 333 20150=
33377 32997 30901 10222 20151 40122 53002 83030 333 20162=
33415 11497 83208 10120 20111 40118 52002 60222 72582
8633/ 333 20118 86913=
33429 11597 83406 10144 20129 40124 52013 60012 70298 883//
333 10136 88620=
33466 32998 61502 10215 20143 40110 53005 86030 333 20163=
33526 11456 82904 10117 20104 40152 52020 60062 78088 883// 333
20113 87913=
33562 32997 32402 10202 20098 40101 53007 82031 333 20148=
33761 32998 50000 10225 20131 40102 53002 85080 333 20141=
33889 32598 61803 10219 20113 40101 57001 86200 333 20132=
33902 32598 70904 10210 20160 40110 53008 86530 333 20147=
33983 32597 32303 10223 20174 40116 53002 83100 333 20156=
33990 12468 80901 10186 20154 40119 53009 69902 886//=
34415 11989 31101 10255 20150 40127 58003 69902 70281 80001 333
20136=
34523 32697 30803 10246 20141 40134 58010 81280 333 20131=
12424 12599 42805 10108 20069 30030 40181 52013 69902 83830
333 10120 20049 32003 55035 70049=
20046=
16270 32560 32003 10219 20170 30085 40136 51005 81101
333 20167 81820=
16325 32997 02708 10180 20156 30113 40126 53006 90545 333 20180
30/// 98065 555 0100/=
16360 32997 33206 10212 20155 39998 40128 53006 83030 90545 333
20198 30/// 55123 2//// 55305 83359 555 0////=
16252 32970 42204 10170 20137 39230 42789 53007 80001 90545 333
20150 30/// 55116 22918 55303=
16320 32860 40000 10214 20165 30122 40133 50001 84030 90545 333
20198 30018 55115 22630 55304 84357 555 0000/=
16230 32970 31903 10191 20135 30119 40132 52019 80001
333 20142=
48300 31565 30000 10342 20243 39743 40037 71710 82900
333 59014=
48327 31562 61603 10307 20233 39692 40039 71522 84903
333 59003=
48331 32565 70000 10321 20265 39824 40047 86976
333 58002 70271=
48353 32565 72403 10307 20240 39768 40049 84206
333 58000 70109=
48356 11562 60000 10325 20247 39858 40049 60021 71792 83936
333 59002 70048=
48381 31562 70000 10290 20241 39838 40058 70192 82846
333 59014=
48407 32560 61805 10321 20244 39911 40049 85941
333 59006 70017=
48431 31559 70000 10332 20247 39838 40045 70522 85206
333 59006=
48456 01460 62403 10310 20254 30044 40061 60031 72992 82936
333 59003 60036 70026=
48480 32562 70000 10325 20252 30051 40055 85246
333 59010=
48500 32565 41506 10318 20265 30050 40055 82205
333 59010=
48551 32565 60000 10330 20248 30067 40069 84206
333 59008=
48565 01440 83003 10265 20254 30075 40086 60221 76262 82877
333 59003 60225 70377=
48569 32564 52311 10315 20219 30037 40077 83841
333 59002=
48583 32562 42905 10324 20229 30060 40065 82106
333 59007 70041=
91413 32569 41205 10310 20242 30047 40066 57025 82201 333 563/9
70089 555 93006=
48303 32565 40000 10326 20237 39606 40034 84905
333 59004=
48328 31560 41009 10310 20250 39774 40044 71711 82906
333 58004 70008=
48330 31556 70000 10305 20248 39865 40047 71792 84976
333 59006=
48351 31558 62604 10339 20258 38875 40046 70522 84236
333 59005 70013=
48354 11460 70102 10312 20243 39847 40046 69901 70262 82846
333 59004 70150=
48376 31565 72403 10335 20236 39907 40046 72992 86946
333 59005=
48377 32564 50000 10340 20233 39883 40043 82105
333 59003=
48379 32562 60000 10335 20256 39906 40034 83836
333 59011=
48400 32562 70000 10333 20262 30011 40050 82506
333 59008 70016=
48432 32561 60000 10325 20244 39888 40051 85946
333 59006=
48455 01558 70000 10309 20267 30050 40055 69901 72992 86276
333 59002 69907 79999=
48462 32560 22502 10342 20263 39999 40053 82201
333 59012=
48475 32562 61102 10321 20233 30046 40057 82206
333 59005=
48477 32464 61908 10324 20257 30046 40060 82846
333 59011=
48517 32562 52710 10330 20237 30059 40064 83205
333 59007=
48532 01556 62102 10313 20248 30065 40070 69971 70162 83246
333 59007 69917 70088=
48567 01450 82105 10273 20259 30066 40084 60121 76162 85877
333 58011 60127 70116=
91334 11474 89904 10291 20256 30063 40066 56008 69901 72582 84361
333 56129 70074 555 93006=
48310 32562 62102 10314 20246 39661 40036 83936
333 59002=
48325 31565 60000 10339 20241 39803 40037 71792 84926
333 59018=
48329 31560 71809 10335 20243 39709 40036 71721 85976
333 59003=
48380 32560 40000 10320 20252 39958 40050 82105
333 59005=
48383 11563 60000 10328 20261 39885 40038 69931 70192 85805
333 59019 70078=
48403 32562 82402 10324 20247 39847 40052 84876
333 59007=
48405 32562 73302 10319 20251 39889 40047 83906
333 59003 70023=
48421 32562 60000 10340 20227 39944 40055 82236
333 59009 70059=
48425 32562 60000 10348 20254 30038 40048 83206
333 59012=
48426 32562 71802 10330 20254 30035 40049 84976
333 59002=
48430 32562 50000 10340 20256 30047 40055 82963
333 59003 79999=
48450 32562 72102 10342 20238 30020 40052 82206
333 59003 70069=
48459 32562 72904 10328 20246 30054 40057 82906
333 59007=
48465 32562 60000 10325 20250 30051 40055 82546
333 59008=
48550 32565 32808 10323 20251 30065 40070 82903
333 59004=
48566 01560 82708 10278 20250 30082 40090 60061 76022 83877
333 58001 60047 70068=
40582 31940 03111 10352 20072 40051 51008 70600 333 20282=
38933 32998 03201 10312 20118 40039 58011 333   20160=
38713 32599 20000 10265 20059 48480 54000 82300 333   2018=
38954 32899 40000 10218 20157 48460 58010 84100 333   20100=
47407 42/84 12911 10203 21015 39891 40024 51018 81440=
47409 42/80 53315 10129 20033 39953 40004 51045 81132=
47418 42/65 22815 10212 21007 39951 49993 53021 81232=
47421 42/81 13107 10213 20021 30005 40049 51004 81102=
47430 42/80 22713 10221 20071 30002 40052 50001 81202=
47570 42/83 23302 10292 20113 39834 40070 56023 81101=
47575 42981 22914 10254 20126 30049 40053 56003 80001=
47585 42982 72507 10299 20014 39994 40046 55003 80009=
47598 42970 12006 10193 20123 30085 40091 56013 80001=
47602 42980 73306 10240 20059 30073 40092 56016 80001=
47605 42981 82904 10254 20084 30051 40089 56020 80007=
47618 42980 71908 10310 20014 39379 40034 56021 80006=
47624 42/60 61108 10306 20120 39948 40074 56024 81102=
47636 42970 71708 10279 20115 30030 40093 56020 81032=
47655 42965 72207 10230 20177 30049 40103 58016 80002=
47663 42965 70710 10233 20177 30069 40100 56018 82032=
47675 42/70 72212 10242 20184 30010 40101 57019 81106=
47741 42/82 71104 10257 20142 30051 40076 56018 8657/=
47746 42/75 82006 10275 20119 30063 40080 56015 8807/=
47750 42/75 82410 10284 20110 30058 40083 56019 82037=
47755 42975 72903 10239 20122 30054 40077 58018 86072=
47772 42/75 72310 10263 20092 39998 40091 55018 81136=
47800 41960 82504 10217 20120 30065 40087 56015 72162 8807/=
47815 41/65 83002 10219 20173 30077 40092 56011 76162 8217/=
47817 41/65 82903 10182 20137 30065 40106 56008 76162 8172/=
47830 42/70 81307 10230 20158 30078 40095 56017 8187/=
47837 42/70 82310 10239 20176 30080 40101 56017 8227/=
47887 42567 83303 10246 20132 30051 40089 58013 8707/=
47891 42/80 70907 10261 20095 30076 40087 56020 8117/=
47899 42982 62508 10231 20130 39888 40100 56011 80002=
47927 42/75 62111 10294 20256 30050 40096 57015 84232=
53929 32965 02703 10289 20027 40026 57026 333 20094=
56093 32580 13204 10214 20067 37682 57023 81100 333 00105
20088=
57106 32975 12503 10284 20144 40042 57033 80001 333 05410
20133=
52446 32980 20402 10274 20016 40013 57019 80002 333 05202
20090=
53738 23677 23605 10298 20068 40004 57016 81102 333 20117=
57144 32980 20000 10275 20157 40036 57034 80002 333 20139=
57037 32965 51608 10286 20154 40016 57023 80002 333 05507
20135=
52825 32580 10702 10218 21058 37249 57019 81100 333 05410
20034=
52856 32580 11802 10185 21087 37220 57020 81100 333 00102
20036=
53740 32667 13205 10308 21020 49984 57021 81100 333 20142=
53754 32575 33208 10317 20015 49976 57027 83100 333 20159=
56074 32580 22504 10135 21044 36699 57013 82100 333 00201
20012=
52986 32680 21102 10240 20063 38070 57025 81202 333 00004
20085=
57143 32680 22703 10307 20101 40019 57026 81102 333 20129=
52943 32580 22004 10154 21038 36825 57017 82100 333 00200
21017=
52661 32780 62902 10257 20026 38160 57018 81102 333 05205
20097=
40100 31856 13606 10263 20169 40089 58001 70500 81030 906//
333 20205 30/// 50374 55126 22434 81358 92436=
40102 32960 10000 10210 20100 39088 48497 54000 80001
333 20110 30///=
40103 32660 10204 10242 20186 40103 53007 81500
333 20171 30/// 50374 22828 81640=
58754 11570 71402 10264 20227 40067 57025 69901 70060 8113/
333 20204=
53705 32765 12506 10310 20012 49996 57020 81100 333 05107
20140=
53614 32770 23206 10297 21010 38799 49991 57012 81102 333
05208 20151=
53723 31958 02906 10294 20046 38568 49996 57013 70700 333
05207 20145=
54518 32962 01603 10276 20129 40008 57025 333// 20185=
54852 32675 81607 10160 20114 40053 57024 885// 333// 20153=
57089 32670 82204 10288 20148 40020 57023 81107 333// 20155=
54753 32568 71605 10213 20121 30038 40044 57020 82402 333//
20194=
54857 11430 81107 10139 20135 39965 40054 57017 69981 76060
8772/ 333// 20134=
54049 32970 82004 10274 20130 49985 57010 80007 333 20186=
54157 32765 72207 10265 20101 49993 57010 85502 333 20208
91117 91520=
54377 32980 82503 10261 20079 40043 57026 80007 333 20106=
56172 32680 22701 10224 20023 37347 57023 82100 333 00202
20080=
56444 32680 70903 10175 20074 36819 57015 87800 333 00105
20006=
56691 32580 13603 10197 20110 37760 57011 81142 333 00352
20092=
56964 32580 42201 10279 20172 38658 40038 57016 84240 333//
00001 20202=
56985 32580 42004 10281 20173 38650 40028 57013 84200 333//
00000 20195=
57633 11670 72201 10213 20169 39322 40073 57012 69911 70086
874// 333 05203 20157=
57902 31578 70404 10238 20191 38575 40037 57004 71700 879//
333 00152 20201=
54429 32568 61804 10260 20125 40007 57023 86100 333// 20191=
54623 32965 01408 10246 20117 40017 57022 333 20208=
54705 32962 01603 10281 20163 40007 57022 333// 20164=
54736 32664 61605 10205 20138 40032 57022 86400 333// 20191=
54824 32662 62003 10236 20148 40026 57019 86100 333// 20193=
54936 11662 81404 10167 20148 40044 57016 69911 70060 885//
333// 20149=
57091 32962 72203 10283 20162 40017 57022 80002 333// 20150=
57355 11580 73402 10231 20172 40064 57012 69901 70060 878//
333 20153=
57385 11458 81802 10201 20172 40055 57019 60021 76060 8677/
333 20161=
57583 11458 80000 10188 20178 40068 57015 60051 76060 8772/
333 20175=
57793 11960 83201 10284 20231 40046 57023 69901 70060 8807/
333// 20201=
57993 32680 72703 10331 20226 39917 40058 57019 82140 333//
20255=
82900 22263 02160 20204 30228 40904 50905 80139=
56079 32780 62704 10124 21021 36728 57012 86100 333 00301
21001=
56173 32680 21103 10129 20004 36690 57012 82100 333 00302
20020=
56182 32680 20000 10192 21039 37201 57025 82100 333 00301
20069=
56374 32680 61106 10170 20070 37423 57021 86802 333 00104
20092=
57707 32580 20000 10242 20150 38454 57021 81102 333 00206
20128=
57731 11575 73602 10240 20176 40076 57018 69911 70060 878//
333 20173=
57832 11580 82703 10226 20173 40074 57016 60041 70060 888//
333 20159=
57916 11680 71401 10284 20212 40047 57013 69991 70080 878//
333 20232=
57922 11665 83603 10194 20174 40070 57007 60121 70098 885//
333 20183=
57932 11480 80704 10234 20204 40060 57002 69901 76060 885//
333 20218=
82280 22243 00200 2//02 329// 80171 .....=
70200 88600 22244 00078 20405 323// 40506 5//// 6//// 80061 ICE=
10803 70014
333 91206=
83334 22273 00145 20401 321// 40806 80115=
81260 22233 00190 20101 324// 41005 5//// 80145=
82240 22283 00297 20302 310// 40403 80250=
54534 32580 11604 10255 20109 40018 57020 81100 333// 20198=
54587 32975 82203 10166 20118 40022 57009 8802/ 333// 20149=
54929 11950 82502 10189 20159 40044 57016 69901 71060 8802/
333// 20154=
54945 11440 80905 10149 20149 40058 57014 60051 76066 8772/
333// 20144=
57290 32965 72702 10246 20185 40033 57020 8704/ 333// 20156=
58005 32964 82203 10260 20158 40025 57018 80007 333// 20159=
44216 32599 20000 10230 20021 38884 40012 58005 81204=
44229 32599 62304 10146 20002 37877 40012 57007 85201=
44266 32699 60901 10154 20056 37749 40026 58008 84204=
44291 32598 60206 10166 20059 38632 40078 51004 82300 84800=
44325 32699 52001 10250 20123 38729 49973 58013 83204=
44329 32598 60000 10156 20064 37710 49978 57003 82543=
44338 32699 50000 10196 20078 38495 40001 58009 83208=
44348 32997 23212 10224 20088 38579 49996 52014 80002=
44374 32599 73203 10212 20046 38194 49966 58003 83542=
44385 32999 03214 10241 20029 38790 49985 58007=
44386 32999 32909 10234 21033 38885 40942 58007 84202=
56066 36/// ///// 10129 21133 36645 4//// 57012
555 10020 2//// 3//// 40111 51001 60/// 7//// 80000
9//// ///// 1/020 2//00 30000=
52908 32580 72204 10077 21086 35816 57011 86902 333 05105
21038=
52681 32980 60000 10278 20003 38557 40005 57019 80002 333
05102 20127=
56004 32680 72503 10093 21073 35876 57010 87902 333 05104
21034=
52818 32680 70403 10224 21074 37223 57019 81102 333 05609
20034=
44242 32998 50000 10234 20076 39183 40000 57018 84042=
44243 32599 50000 10225 20103 39267 40019 56006 85200=
44257 32598 20904 10205 20041 38859 40000 57009 82144=
44286 32998 23407 10188 21002 38553 40006 58003 82080=
54776 11980 81806 10144 20110 30012 40068 57015 69901 70060
8807/ 333 20141=
52634 36/// /0000 10133 21121 36752 4//// 57012
555 10020 2//// 30125 41111 51011 60/// 7//// 80000
9//// ///// 1/116 2//00 30000=
57528 16/// /2000 10151 29756 37563 61430
555 1/136 2//00 30193 12100
11101 10100 10111 01110 1111/
/////
2//// 3//// 6//// ///// ///// 8//// 9//// ///// ///// //004
11101 11111 1011/
11111 110//=
45011 42475 31308 10322 20261 40084 57018 82201 333 59007=
92022=
47008 42960 80000 10235 20080 39996 40046 57015 887//=
47016 42970 82702 10244 20036 39229 40055 54000 80002=
47020 42965 80000 10260 20117 39706 40051 57020 80004=
47035 42970 82303 10195 20137 30053 40061 57009 8802/=
47041 42770 81108 10269 20106 30007 40032 57011 8802/=
47055 42965 82505 10259 20104 30007 40049 57009 8805/=
47058 42566 82302 10205 20113 30037 40081 57001 885//=
47069 41550 82301 10195 20137 39993 40087 58004 71022 885//=
23914 32999 23201 10154 20053 40172 54000 80002 333 20077=
23921 32999 23405 10123 20019 40170 58001 80001 333 20071=
23955 41597 80703 10108 20098 49988 52003 78086 889// 333
85632=
24641 42599 80401 10154 20048 40044 57002 85311=
28440 12698 23605 10152 20061 40106 52008 69940 81105 333
20115=
28748 12560 23608 10177 20121 40061 52007 60020 82200 333
20106=
29231 41498 81202 10197 20130 49961 57007 71722 8693/=
29838 41597 71802 10177 20119 40012 53002 72582 86330=
30372 41639 82105 10067 20046 40037 53012 78186 8692/=
30673 42699 81505 10203 20019 49986 57025 82372=
30823 42999 13501 30250 21012 40010 57008 80001=
30935 42699 52002 10221 20050 40015 58005 84101=
30965 42999 77002 10223 21005 40003 57012 80002=
31004 42599 82305 10140 20021 40019 57013 86901 333 86928=
31088 42599 51803 10098 20030 40053 54000 83101=
31137 42699 71701 10126 20017 40062 57008 86901=
31300 42599 71202 10181 20002 40063 57008 85501=
31329 42699 80402 10120 21009 40062 52007 882//=
31369 41498 83405 10050 20028 40017 52019 70282 8696/ 333
86915 91112=
31371 42699 31801 10177 20509 40070 57015 83200=
31388 42699 80904 10165 20036 40063 58006 84242=
31416 42699 83605 10138 20040 40063 52010 85571=
31510 429// 63102 10191 20030 40058 58006 82201=
31594 42599 23604 10175 20040 40055 57003 82200=
31707 42599 33205 10207 20038 40047 52002 83200=
31735 42598 70303 10140 20051 40062 52013 82131 333 91111=
31866 42599 33204 10177 20013 40007 52031 83900=
31873 42999 23104 10227 20051 40031 56002 80005=
31909 32999 13208 10263 21005 49998 53003 80009 333 91016=
31960 42999 81805 10211 20032 40044 56008 80005=
32053 41296 83611 10028 20023 49945 52035 78082 889// 333
87704 91017 91120=
32061 41497 83410 10051 20046 49958 52036 70282 889// 333
91015 91118=
32098 41598 73107 10106 20009 49930 52050 72582 85903 333
85924 91116=
32150 41598 73005 10105 20009 49979 52035 70282 87900 333
91010 91113=
32165 42999 83109 10124 20011 40002 53038 80001 333 91014
91114=
47003 42980 81402 10242 20098 30038 40042 58012 80002=
47005 42980 82704 10195 20040 38538 57010 80007=
47028 42968 80000 10239 20147 39960 40048 57022 8802/=
47031 42970 83002 10203 20065 80007=
47039 42960 82701 10249 20164 39895 40073 52020 8753/=
47046 42569 80904 10184 20074 30018 40041 58001 885//=
47050 42565 72305 10200 20147 30036 40068 57007 87500=
47060 42960 82507 10193 20114 30022 40077 54000 8807/=
47061 42980 80000 10229 20115 30001 40042 57026 8803/=
47065 42965 70000 10210 20143 30019 40080 58014 87500=
47067 41960 81802 10199 20144 39962 40075 57011 71000 8805/=
47068 42570 70203 10205 20143 30046 40079 57007 87500=
47070 42962 82301 10178 20143 30004 40087 57011 8802/=
47075 42980 82504 10189 20146 39681 40086 57007 8805/=
98223 31565 33403 10335 20280 40077 57022 71544 82903 333
56999 82920=
98325 31462 61803 10330 20254 40063 58024 70544 82272 222//
20000 333 82817 98308=
98328 31460 71405 10244 20191 38503 40057 56007 74044 86301
333 56299 82912 85813=
98429 31465 51206 10328 20229 40085 57020 70322 84930 333
56999 81923 83825 83360=
98440 31475 40902 10316 20283 40081 57023 71701 83902 333
56299 83915=
98444 32465 60501 10303 20263 40079 57031 82238 333 56999
82818 85270=
98543 32465 80902 10311 20269 40086 58023 84908 333 56999
82818 84915 88272=
98550 31460 70000 10312 20276 40075 57019 71594 83968 222//
20101 333 56999 82915 85272=
98618 31575 71103 10315 20253 40066 58023 70544 82268 333
56999 82820 87273=
98637 31470 50302 10320 20249 40067 58029 70544 82932 333
56999 82912=
98755 31570 70000 10314 20268 40070 57023 70521 82978 333
56999 82920 83360 86278=
98836 31565 51802 10322 20254 40069 57020 70594 83201 333
56999 83820=
44207 41599 31607 10187 20021 38251 40002 56005 70260 82201=
44212 32699 43604 10237 20038 39010 40028 58009 83204=
44231 32699 40000 10201 20045 38629 40010 58015 84300=
44232 32699 20000 10225 20019 39002 40029 57004 82100=
44239 32699 20203 10212 20050 38694 49985 57011 82140=
44241 32699 53602 10212 20099 39119 40008 58012 83101=
44277 41699 60703 10142 20053 37780 40033 52007 70262 84254=
44282 32699 23203 10175 21047 38242 40023 58003 82100=
44284 32699 63201 10155 21078 37819 40000 58004 83202=
44285 32999 00000 10164 20034 38263 40019 57002=
44287 32599 60503 10171 20046 38053 49982 57020 83241=
44288 32699 23606 10170 20055 38109 40005 58006 82100=
44292 32699 63605 10159 20041 38594 40005 54000 82300 85200=
44294 32698 63602 10167 20058 38458 49986 54000 86200=
44298 32699 33405 10204 21017 38589 49957 54003 83200=
44304 41599 80506 10193 21015 38859 49968 51005 8796/=
44341 32599 63610 10185 20030 38500 49992 54002 86100=
44347 32699 43210 10204 20084 38611 49997 58003 84200=
44354 32599 60504 10216 20093 38936 49930 58002 84530=
44358 32698 63209 10229 20099 38905 40934 50000 84260 91210=
44373 32599 42907 10198 20023 38449 40002 58002 84200=
28661 12599 83510 10153 20102 40036 52022 60020 883// 333
20140 88930=
28679 11398 83305 10143 20123 49971 52015 60090 72582 8695/
333 20127=
28879 11397 82506 10143 20125 49970 54000 60040 72162 8802/
333 20100 88506=
28952 11598 83206 10163 20109 40039 52018 60030 70282 889//
333 20109=
29023 41498 80804 10105 20099 49993 58001 72085 87900=
29122 41399 70603 10143 20130 49964 58002 70252 87600 333
87708=
29807 31496 72610 10123 20107 49952 53006 78182 87900 333
20102=
30230 42599 61104 10156 20025 40097 52012 85230=
30650 42699 82707 10213 20030 49986 52007 86501 333 86638=
30710 42960 83003 10230 20046 40021 58002 80001=
31829 42699 63309 10151 21022 40007 52027 84549=
31989 42999 82003 10155 20050 40032 56002 80001=
35078 32598 82409 10133 20098 49996 52004 886// 333 20056
88621=
35108 32997 13101 10200 20172 40172 54000 80001 333 20080=
35188 32598 72701 10151 20073 40004 58008 86230 333 20074=
35229 32698 53303 10189 20090 40109 53002 82361 333 20098=
35394 12697 52405 10167 20046 40001 58007 69960 85100 333
20099=
35416 32997 03206 10209 20085 333 20095=
35671 32798 22906 10218 21019 40040 53003 82101 333 20098=
35746 32998 53104 10206 20058 40076 52004 83041 333 20146=
35796 32698 22106 10226 20126 40029 58003 82100 333 20188=
36003 32699 52407 10190 20050 49985 53001 85900 333 20123=
36177 12597 72003 10235 20114 40006 58010 69900 83331 333
20143=
36428 12799 22604 10240 20136 40040 58009 69970 82201 333
20110 95000=
36859 32599 83101 10255 20095 40064 58006 83965 333 20148=
36870 12697 62702 10257 20051 40047 58012 69900 83930 333
20173=
38198 32999 02602 10289 20071 333 20167=
38341 32698 61201 10302 20040 40031 57012 83440 333 20171=
52203 32780 73403 10302 20044 39204 40007 57008 81132 333
05103 20158=
55228 32780 62507 10112 21070 36058 57007 86900 333 05205=
55279 32780 22203 10109 21107 35752 57012 82100 333 05204
21017=
55299 32780 72701 10103 21059 35902 57013 83102 333 00002
21015=
55472 32780 61802 10130 21122 35776 57013 86400 333 05204
21010=
55578 32780 73402 10158 20051 36400 57014 81109 333 00002
20033=
55591 32780 63602 10170 20023 36556 57016 83202 333 00103
20055=
55664 11880 61803 10135 20033 36033 57013 69901 72580 85202
333// 05206 20019=
55696 32680 21802 10154 20011 36374 57018 82200 333 00004
20049=
51076 32680 22904 10241 20032 39249 40078 57013 81102 333
00103 20092=
51243 32880 71804 10283 20055 39547 40053 57016 81902 333
00004 20186=
51431 32980 72203 10258 20088 39328 40069 57014 80002 333
00000 20128=
51644 11780 63607 10218 20056 38864 40033 52008 69901 70080
81462 333 00256 20198=
51656 32770 82002 10234 20105 39031 40043 52010 889// 333//
00255 20231=
55773 32670 71106 10097 20001 36051 57003 87200 333 00252
20001=
56106 32780 20000 10133 21017 36257 57017 82100 333 00003
21003=
56116 32680 30000 10113 20017 36390 57017 83102 333// 00101
20015=
56137 32680 22901 10186 20017 36839 57025 82100 333// 00004
20044=
56312 32680 22002 10187 20077 37092 57033 82100 333 05307
20075=
57405 32970 70901 10254 20188 40075 57018 8703/ 333 20179=
54563 32575 62505 10222 20114 40043 57012 83130 333 20162=
51628 11780 60405 10247 20073 40023 57004 69901 70080 83462
333 00152 20178=
53519 32980 53211 10282 21047 40010 57014 80002 333 20121=
53615 32670 11803 10290 20024 40001 57022 81102 333 20124=
56543 32680 61803 10186 20059 36856 57016 86200 333// 05104
20071=
56548 32680 73603 10219 20130 37679 57020 86440 333// 00003
20131=
56533 11680 41602 10265 20155 38362 57029 69921 70080 83801
333// 05206 20154=
56856 32680 30000 10293 20184 40036 57020 83200 333// 00000
20185=
56994 32580 62003 10293 20174 40027 57016 84132 333// 05103
20209=
56664 32580 60000 10314 20142 40004 57015 86900 333// 00251
20202=
56741 11480 70000 10193 20167 38179 57009 69931 72160 878//
333// 00153 20167=
54326 32780 22504 10277 20077 49971 57019 81102 333 20210=
57313 32580 72201 10240 20167 40072 57019 81142 333 05204
20163=
56188 31950 70000 10238 20162 40072 57020 71000 8704/ 333
05105 20165=
20274=
54363 32970 62204 10239 20076 40036 57017 80002 333// 20151=
50936 11670 70705 10235 20028 49990 57011 69901 72500 87902
333// 20155=
54041 32970 70904 10266 20119 49976 57008 82032 333// 20193=
50948 32970 70904 10273 20101 49987 57009 80002 333// 20178=
59218 11570 72003 10260 20217 40060 57012 69901 72160 8714/
333// 20225=
56178 32780 12704 10267 20037 37639 57031 81100 333 00107
20138=
53882 32578 33403 10294 20043 40003 57022 82102 333// 20116=
53663 32580 22710 10264 21074 49994 57014 82100 333// 20110=
54646 32980 21608 10199 20154 40030 57016 80002 333 20193=
59321 32580 41103 10278 20244 40096 57018 81140 333 20239=
51705 32780 22713 10213 21139 37790 57010 81102 333// 05101
20111 91122 91527=
51716 32965 00902 10268 20054 38806 49998 57005 333// 00153
20150=
51931 32961 22903 10265 20094 40015 57002 80002 333// 00356
20196=
51437 31675 71603 10152 20076 38120 57009 71790 86902 333//
05104 20049=
51467 32680 81403 10184 20035 38216 57011 82107 333// 00256
20125=
51642 11770 70405 10208 20071 40037 52010 69901 78080 86902
333// 00259 20205=
51765 32980 80905 10284 20078 39089 40003 54000 8802/ 333//
00053 20206=
51777 32968 70905 10305 20012 39030 49985 52001 80002 333//
05254 20185=
51855 32780 73403 10280 20012 49987 57005 81102 333// 00054
20162=
52101 32880 63203 10207 21004 38318 57011 82102 333// 00102
20130=
57432 32860 82002 10218 20175 40086 57001 885// 333 20175=
53810 32675 13605 10308 20011 49994 57020 81100 333 20141=
56459 32880 61405 10231 20092 37625 57012 83240 333 00353
20153=
56475 11580 71401 10202 20129 38321 57021 69941 70080 82440
333 00501 20128=
56485 11980 72501 10186 20147 40099 57016 69921 70060 8707/
333 00201 20131=
56565 32580 70909 10183 20082 37480 57004 879// 333 00356
20145=
54606 32965 01804 10276 20145 40000 57022 333// 20156=
54449 32965 01808 10205 20164 40030 57010 333// 20204=
53868 31958 12005 10319 20124 49992 57033 70400 80002 333//
20158=
53399 11680 42907 10210 20037 49983 57010 69941 72998 84900
333// 20130=
54284 32970 82704 10222 20056 40046 57020 80007 333// 20107=
54266 32975 72003 10252 20095 40019 57011 80002 333// 20143=
56223 32680 20000 10141 21001 36569 57021 82100 333// 00002
20021=
56331 32680 33202 10162 21004 36433 57022 83200 333// 05108
20034=
76256 32960 00000 10252 20202 40079 52010 90530 333   10346
20222 30/// 55012 58003=
76382 11260 70000 10210 20185 38889 40080 52001 60321 70296
87500 90530 333   10343 20205 32/// 01472 55030 56500 58005
87607=
76390 31950 01804 10182 20130 38232 40084 52006 70544 90535
333   10242 20160 30/// 55063 21202 59004=
76412 32760 31401 10265 20162 30088 40128 52014 83030 90540
333   10370 20210 30/// 55123 56040 59003 83070=
76458 32958 02603 10268 20220 30098 40108 52016 90545 333
10320 20244 30/// 55082 58004=
76491 32556 20000 10265 20208 39738 40128 57013 82200 90542
333   10388 20210 30/// 55092 56600 59033 82825=
76539 32658 21202 10168 20134 38131 40066 52017 90540 333
10268 20126 30/// 55064 56200 58/// 82620=
76644 32950 00901 10247 20229 30128 40138 52004 90540 333
10349 20229 30/// 55063 59010=
76654 31960 03601 10268 20220 30110 40114 52003 70544 90545
333   10317 20250 30/// 55103 58002=
76695 02956 80000 10237 20209 30115 40125 52003 60031 8807/
90545 333   10357 20237 32/// 55052 56099 58/// 60031 85360
83460=
76393 31965 00702 10262 20211 39535 40098 52015 70540 90550
333   10335 20222 30/// 55048 59020=
76556 02460 63302 10220 20208 39096 40088 52011 69901 866//
90530 333   10300 20195 30/// 55033 566// 58002 69901 86720
=
91772 31498 51705 10245 20184 40104 70201 84801 333 563/9 =
91784 31599 11808 10232 20168 40101 70200 81100 333 564// 81820 =
91792 31599 41910 10217 20159 40116 51005 70200 84100 333 564//
84820=
89054 32860 82604 11044 21053 40312 57005 8807/
333 76059 88457=
89056 31359 82508 11046 21049 40322 57007 77872 886//
333 76699 88706=
89057 31/03 90000 11062 21062 40323 57006 74942
333 89/02=
89058 11461 83206 11044 21046 30305 40321 57007 69901 77070 885//=
89059 32556 41809 11064 21079 40308 57010 84630
333 74000 84630=
78897 32562 71008 10264 20233 40140 58017 83802
333 02266 10304 20256 59001 70012 83820 85076=
81405 32358 60000 10234 20231 40097 8323/
333 58003 81706 85360=
60155 31201 82202 10175 20175 40176 50000 74641 886//
333 20168 88705=
60156 32203 81402 10164 20164 40181 58005 74442 886//
333 20154 88704=
60230 32960 00000 10206 20147 40166 55003
333 20204=
60060 31308 82203 10170 20170 40140 5//// 746// 886//
333 20162 88708 95360=
60340 32970 00000 10177 20152 40186 52003
333 20150=
48698 31458 73301 10285 20238 30049 40067 71722 84978 333
81614 81916 83818 85080=
324119 322125 322125 322124 320129 319131=
88963 31440 40000 11109 21127 30270 40301 57021 71022 82670
333 56000 82710 84360 92407 95010=
88968 11315 81426 11126 21146 30168 40183 58008 60031 73837 887//
333 56399 88707 90113 90264 91045 91514 92445 92813 92944 94070
DIEBEL/INV=
89053 32462 82315 11042 21054 30306 40320 55009 886//
333 56599 88710 92417 92840 93503 94070 95090=
89055 31/00 93203 11146 21167 30032 40304 57013 74544
333 90090 92722 92843 95199
555 10282=
89066 32970 20000 11063 21090 30316 40324 58004 80002
333 56000 82070 92417 92840 95000=
61902 11582 11011 10255 20170 40129 69904 70281 81100 333 20248
58004 81822=
88889 11581 81608 10013 21012 40304 52006 69921 70382 885// 333
88622 96485=
63980 12481 51311 10277 20233 40138 69994 83202 919//
333 20254 50620 55045 58003 83819 85075 943// 91120=
78583 32470 70000 10265 20246 40126 84833 333 02319 58004 70477 83816 83635
85358 =
60190 32565 21003 10196 20144 39583 40173 53008 82200
333 20194 82830=
60191 32965 21402 10183 20152 40179 53008 82030
333 20183 82360=
81415 16/// /0000 10234 20232 40099 69941
333 59004=
68906 32498 60312 10114 20093 30016 40081 57031 86600
333 20069 91023 555 10114 91008=
96315 14408 72128 10264 20244 40070 60062 79582 85978
333 84815 82916 85465=
78970 11457 80000 10256 20249 30084 40109 60021 72582 85807
333 02209 10305 20249 59006 81818 84635 88278 90925=
91555 31560 10000 10265 20228 40081 54000 70511 81100 333
563// 81828=
91557 32580 30000 10258 20230 40097 53003 83201 333
562/9 83820=
91565 32580 50000 10250 20234 40114 53004 85800 333
568// 81718 83820 85640=
91568 32581 30000 10246 20215 40107 53001 81101 333
563/9 81825 83080
76225 32920 00000 10236 20102 38564 40046 53002 90550 333
10347 20160 30/// 58///=
76342 32840 32101 10278 20183 39426 40095 52012 83020 90539
333   10345 20232 30/// 55061 21672 56030 59021 83458=
76373 01302 81201 10163 20143 38219 40134 50003 69957 70255
886// 90540 333   10312 20118 31/// 565// 58/// 60021 88710
=
76405 32940 01505 10253 20151 30094 40114 52021 90548 333
10400 20214 30/// 55103 22272 59005=
76423 32560 61601 10172 20145 38179 40109 52008 86500 90550
333   10280 20172 30/// 55011 21087 56900 58001 86620=
76577 01560 70000 10184 20135 38048 40100 52013 60021 76055
87500 90530 333   10286 20140 32/// 55078 56100 59007 60025
87622=
76656 31468 30000 10190 20145 38517 40101 52016 82630 90550
333   10295 20152 30/// 55074 56390 58/// 82715=
76687 11558 70701 10174 20168 38652 40140 52019 69991 72055
875// 90538 333   10246 20165 31/// 55033 563// 58002 84622
83718=
76726 01258 80601 10194 20188 38403 40084 52023 69901 72999
883// 90550 333   10294 20167 31/// 55073 563// 58002 69905
88910=
76737 01480 80000 10182 20173 38781 40133 50019 60141 72166
885// 90540 333   10250 20170 31/// 55033 569// 58005 60097
88617=
76743 01230 71601 10250 20239 30118 40138 50010 60081 70242
8445/ 90545 333   10325 20240 31/// 55029 21025 5620/ 58038
69917 84605 83356=
76750 31558 80402 10250 20243 30106 40116 52002 70322 85240
90550 333   10285 20229 32/// 55000 56230 59001 85820 83358
=
76775 01562 80303 10186 20177 38506 40147 52013 60061 70566
8552/ 90545 333   10286 20170 31/// 55225 5699/ 58001 60061
85627=
76843 32665 70701 10234 20213 39532 40171 52010 8257/ 90545
333   10308 20206 31/// 55047 2//// 58006 82640 87360=