ZCZC 000
SMCI10 BENJ 020600
AAXX 02061
58562 11662 80403 10288 20239 40079 57012 69901 78000 884//
333 20237=
58203 11465 80904 10239 20229 30016 40060 57012 60041 76098
8772/ 333 20216=
58338 11462 80000 10235 20229 40075 57004 60121 79598 889//
333 20225=
58531 32580 71804 10322 20238 40074 57014 85142 333 20219=
58326 11558 81402 10238 20234 40070 57009 60371 79598 8692/
333 20227=
58102 11657 80903 10232 20216 30018 40066 57012 60051 76060
885// 333 20216=
58122 11475 80901 10231 20221 40074 57009 69981 76066 8777/
333 20213=
58215 11558 80904 10230 20224 40066 57011 60161 76098 8772/
333 20215=
58314 11980 71103 10262 20230 39973 40056 57028 60051 70098
8707/ 333 20237=
58437 11/00 92511 10167 20165 38165 52001 69911 74598 333
20150 91125 91522=
58236 11659 81803 10232 20225 40063 57012 60471 76098 885//
333 20202=
58457 11920 71101 10284 20240 30026 40075 57018 69931 71080
8706/ 333 20221=
52740 16/// /3104 10149 29037 36854 60000
555 1/133 2//00 /////=
57265 11362 81105 10240 20227 39931 40036 57018 69921 70060
8672/ 333 20203=
57279 11470 80901 10249 20232 40049 57011 69911 70060 8277/
333 20214=
57378 32564 62901 10295 20247 40034 57022 81101 333 20232=
57447 11920 73602 10271 20223 39510 40022 57025 69901 71060
8703/ 333 20207=
57476 32565 61806 10329 20254 40028 57019 83140 333 20246=
57494 32970 72002 10340 20240 30011 40038 57014 85042 333
20243=
57584 32980 22004 10334 20223 40053 57014 82042 333 20264=
57598 32580 72003 10336 20207 40063 57018 82132 333// 20233=
57655 32580 62204 10325 20224 40041 57019 82140 333 20228=
57866 32580 31804 10322 20222 39875 40070 57020 82240 333//
20258=
58527 32580 72204 10329 20238 30000 40071 57013 83142 333//
20240=
58606 32570 72205 10327 20238 30022 40074 57013 82842 333//
20249=
58813 32580 42005 10337 20208 40080 57019 83142 333// 20250=
59082 32580 22005 10330 20223 30019 40092 57019 82241 333
20243=
59211 11575 60902 10288 20260 39867 40066 57017 60011 72998
82962 333 20254=
59265 11675 72002 10286 20245 39960 40093 57018 60031 72586
878// 333 20247=
59287 11564 21404 10329 20225 30053 40102 57017 60021 70080
82100 333 20257 =
59316 32480 41403 10322 20241 30100 40109 57012 82202 333
20262=
59431 11580 61404 10310 20257 39933 40076 57013 60091 72580
84242 333// 20254=
59644 32580 51407 10313 20263 30068 40083 57010 82902 333//
20256=
59758 11480 61804 10305 20250 30062 40083 57011 60041 70080
86900 333// 20263=
59023 11580 60902 10310 20227 39825 40062 57019 69901 70060
83142 333 20253=
59293 32575 21803 10345 20219 30049 40095 57022 82100 333
20248=
59417 11480 71402 10308 20267 39924 40071 57011 60021 72580
87942 333 20252=
59501 32580 21404 10322 20220 30101 40117 57013 82200 333
20267=
59663 32480 61605 10313 20254 30070 40097 57013 84142 333
20259=
59838 11580 72007 10320 20254 30059 40073 57011 69901 70080
87902 333// 20236=
59948 11580 61404 10318 20255 30071 40079 57008 60071 70080
86200 333// 20267=
58144 11356 81102 10238 20217 30058 40080 57010 60021 76060
8372/ 333 20223=
58633 32580 72504 10330 20218 39976 40070 57021 82140 333
20231=
58659 31557 71105 10300 20260 30058 40091 57019 71000 8214/
333 20244=
58847 32564 30905 10352 20257 39987 40083 57028 81240 333
20257=
57545 32670 70901 10294 20239 40022 57018 878// 333 20234=
57461 32961 60701 10319 20251 39873 40024 57017 86040 333
20240=
58543 11680 72901 10308 20242 40082 57017 69911 70060 81142
333 20230=
58646 32665 71801 10328 20242 40080 57025 82540 333 20235=
58660 11965 71402 10317 20251 40079 57022 69901 70080 8704/
333 20234=
58834 32670 61803 10341 20213 40089 57026 82240 333 20235=
58944 32975 12004 10315 20232 40103 57013 81030 333 20259=
57957 32578 71804 10314 20228 39886 40074 57020 872// 333//
20237=
50468 32575 13605 10258 21016 39899 40095 57015 81102 333
20077=
50745 32970 03405 10292 20010 39947 40118 57022 333 20147=
50953 32675 32905 10271 20083 39953 40124 57021 83200 333
20106=
54337 32970 01804 10287 20138 30044 40126 57021 333 20163=
54342 32960 00702 10283 20157 30060 40120 57029 333 20170=
54471 32960 03602 10274 20147 30125 40130 57018 333 20173=
54497 32675 10705 10290 20145 30100 40115 57027 81100 333
20141=
54662 32975 71404 10222 20133 30018 40135 57014 80002 333
20123=
51468 16/// /2041 10023 29076 36564 60001
555 1/135 2//00 /////=
53513 11770 82702 10202 20121 38941 40087 52009 69901 76060
8252/ 333// 00157 20167=
54511 32962 31103 10287 20153 30083 40121 57018 80002 333
20185=
54823 32560 10405 10286 20186 39889 40082 57012 81100 333
20190=
58259 11340 81402 10232 20228 40084 57027 60291 79564
889// 333 20229=
58358 11430 81102 10244 20235 40079 57010 60261 76098 8177/
333 20229=
58464 11550 80903 10253 20236 40087 57018 69941 71086 8457/
333 20218=
58549 11770 70000 10314 20228 40076 57016 69901 70060 875//
333 20237=
58665 32562 71806 10299 20251 40082 57020 81142 333 20235=
58667 11650 72006 10253 20240 40102 57015 69901 71054
875// 333 20230=
58569 31460 72207 10269 20245 40085 57020 70040 85101 333
20222=
59046 11580 41804 10324 20242 40077 57019 69911 70080 82201
333 20265=
59058 11680 61601 10315 20249 40081 57022 69901 70080 86840
333 20239=
59072 11580 51803 10346 20222 40082 57023 69901 70080 83142
333 20236=
59087 11563 30000 10265 20244 40104 57012 60111 70098 81203
333 20238=
59096 32680 51803 10338 20218 40095 57020 85100 333 20233=
59209 11470 72502 10240 20217 40074 57009 60021 78098 879//
333 20227=
59254 11570 30702 10317 20028 40080 57021 60011 70080 83942
333 20234=
59278 32680 21406 10341 20189 40089 57019 82262 333 20264=
59456 32580 60904 10323 20236 40088 57013 86900 333 20250=
59493 32580 31104 10329 20235 40100 57015 83202 333 20280=
59635 40080 57012 82902 333 20262=
59647 32580 20404 10306 20256 40076 57013 81942 333// 20265=
59658 32473 40905 10310 20257 40092 57010 84200 333 20250=
59673 32580 41104 10316 20261 40100 57013 84200 333 20273=
59845 32580 71404 10338 20226 40073 57009 86202 333// 20251=
59855 11580 41806 10310 20242 40080 57010 60031 70080 84200
333// 20253=
58472 11164 82902 10257 20238 39998 40092 57012 60031 72594
81647 333 20218=
58477 11450 81602 10267 20244 30045 40087 57014 69911 78080
885// 333 20228=
58666 31458 72012 10245 20242 30001 40098 57017 71040 878//
333 20228=
58725 32680 50202 10322 20231 39847 40095 57022 85100 333
20213=
58760 11858 81803 10256 20243 40096 57016 69901 71064 885//
333 20234=
58921 32675 62702 10343 20219 39858 40089 57021 84140 333
20237=
59995 32480 72202 10297 20240 30062 40070 57018 85110 333//
20251=
57399 11568 72004 10310 20247 40052 57016 69901 70060 8123/
333 20234=
57554 31680 72203 10306 20223 40034 57015 70040 878// 333
20223=
57662 32580 71604 10340 20235 39992 40031 57022 8614/ 333
20251=
57745 32580 62005 10310 20222 39740 40046 57019 86200 333
20236=
57766 32680 21605 10324 20236 40061 57020 82140 333 20247=
57793 32580 72703 10341 20211 40071 57022 86102 333// 20229=
57799 32580 61804 10337 20220 30002 40081 57018 82140 333
20243=
57972 32667 71403 10323 20214 39870 40080 57017 82142 333
2026=
58221 11461 81403 10234 20227 30042 40076 57010 60071 76066
8372/ 333 20215=
58321 11360 81803 10243 20234 40063 57012 60461 76098 887//
333 20221 91119 91511=
58424 11663 72205 10310 20243 30040 40062 57009 60021 70080
8117/ 333 20265=
58715 32580 61805 10334 20225 40083 57016 82102 333// 20256=
59102 32580 32003 10323 20202 40102 57019 83200 333// 20221=
59981 11580 21404 10313 20260 30075 40081 57012 69981 70080
82240 333// 20254=
58040 11357 80704 10186 20178 30093 40097 57010 69901 75054
886// 333 20178=
59134 32580 21603 10322 20234 39954 40111 57016 82202
333 20251=
58138 11450 81403 10233 20223 40074 57009 60071 76166 8772/
333 20219=
58265 11630 81402 10230 20227 30077 40088 57022 60091 79560
889// 333 20213=
60549 115076 114075 111075 105072 105068 107071=
54454 32965 21103 10262 20154 40140 57013 80002 333 20155=
50564 32570 13204 10262 21022 40096 57016 81102 333 20037=
50968 32580 12506 10248 20090 40126 57028 81100 333 20103=
50788 11570 42707 10213 20095 30010 40091 57014 69901 72500
83902 333 20126=
50854 32570 22903 10282 20074 40117 57024 82100 333 20106=
50844 32665 22507 10300 20036 40117 57020 82200 333 20138=
50136 32670 32706 10285 20049 39591 40098 57019 82102 333
21025=
50246 32680 20402 10279 21015 40100 57027 81102 333 21004=
50658 32580 13402 10275 21021 40108 57015 81100 333 20096=
50756 32670 13205 10276 20012 39829 40108 57024 81100 333
20092=
50963 31570 23210 10272 20040 39982 40111 57027 70040 82100
333 20092=
50353 32670 13605 10261 20023 39889 40099 57019 81102 333
20063=
50862 31670 22706 10253 20069 40114 57025 70040 82200 333
20100=
50742 32968 13405 10286 21027 40118 57019 80002 333 20106=
50853 32570 52907 10273 20026 40110 57027 85100 333 20079=
50983 11665 73210 10202 20072 40109 57005 69911 78080 879//
333 20137 91117 91532=
50656 32580 20204 10264 21045 40102 57021 81102 333 20063=
50557 32670 53206 10270 20002 39831 40115 57021 81102 333
20057=
57522 32575 23601 10336 20239 49964 57025 82100 333// 20256=
59065 11580 72202 10330 20228 40080 57024 69901 70080 86832
333// 20227=
57993 32680 52503 10342 20228 39948 40089 57027 82240 333//
20252=
57071 11556 80705 10191 20181 40070 57012 60021 76066 8572/
333// 20188=
58208 11362 81401 10235 20229 40055 57015 60221 72998 8477/
333// 20231=
56571 32780 21805 10329 20131 38311 57019 81102 333 00003
20230=
54237 32565 22704 10312 20121 40115 57028 82200 333 20160=
54324 32770 12502 10304 20125 40118 57019 81100 333 20170=
54326 32780 11103 10288 20088 40124 57015 81100 333 20140=
57245 11660 80000 10203 20201 39701 40035 57008 60771 79598
889// 333 00161 20198=
51811 32962 40000 10247 20056 38723 40040 57007 80002 333//
00452 20156=
54527 32960 80903 10260 20167 40129 57015 80007 333 20190=
52533 11980 71604 10180 20106 38499 40087 57004 69941 70060
87030 333// 00657 20125=
57947 11570 72002 10293 20255 40077 57016 60021 70086 8684/
333// 20261=
57006 11580 81102 10208 20152 40030 57012 69971 70060 888//
333// 00156 20155=
50775 11565 61102 10209 20070 40102 57014 69981 70098 86202
333 20115=
57127 11550 83202 10190 20184 39461 40040 57001 60011 76066
8272/ 333 20184=
53543 32680 81403 10225 20103 38515 40071 57006 82137 333
20165=
54736 11968 70905 10254 20148 40110 57013 69901 70060 80002
333 20176=
57458 11665 70000 10269 20235 40032 57014 69921 70080 874//
333 05103 20208=
57583 32975 73202 10352 20236 40041 57013 85032 333 20265=
56964 11580 70901 10244 20186 38664 40056 57012 60041 70080
87901 333// 00252 20195=
56287 32561 70902 10286 20192 40001 57012 82140 333 05206
20204=
58345 11550 81401 10236 20230 40079 57011 60321 78098 8297/
333 20224=
56386 31958 70000 10275 20189 40000 57010 71000 8703/ 333
00051 20229=
54857 31558 31108 10200 20176 30023 40112 57018 71040 83600
333 20150=
59954 11580 61103 10304 20255 40085 57007 69901 72500 86202
333// 20254=
57181 11930 80404 10205 20193 40069 57012 69991 76066 8802/
333// 20203=
59453 11570 61604 10288 20241 40082 57020 69951 71780 85901
333// 20253=
57996 32680 22504 10333 20225 40091 57023 82100 333 20233=
59317 32575 21804 10325 20245 40107 57012 82202 333 20258=
59462 11568 32202 10298 20249 40093 57012 60021 70080 82462
333 20264=
59298 11580 51803 10336 20225 40097 57016 60011 70080 84202
333 20260=
59478 11580 51602 10319 20243 40102 57011 60121 70080 85200
333 20263=
59271 11580 70000 10331 20236 40083 57023 69901 70080 84202
333 20244=
59754 11478 70904 10292 20253 40082 57014 60061 79198 86903
333 20251=
54287 31170 53202 10061 20023 37418 57004 70040 85100 333//
20013=
54292 32580 50402 10255 20100 39909 40117 57023 85200 333//
20123=
54041 32670 21804 10296 20070 40114 57020 81102 333// 20166=
54142 11670 80202 10189 20146 40137 57008 60101 79598 889//
333// 20149=
54285 32570 62701 10247 20055 40133 57021 86100 333// 20109=
50948 32570 10402 10288 20039 40123 57023 81100 333// 20151=
54266 32570 13603 10256 20072 40125 57027 81100 333// 20135=
54374 32675 31802 10261 20126 39736 40121 57023 83200 333//
20144=
54276 32560 13202 10240 20065 40132 57015 81100 333// 20116=
54377 31575 23203 10279 20141 40119 57029 70090 82200 333//
20130=
50936 32670 11402 10289 20051 40118 57027 81100 333// 20134=
54171 32580 63403 10258 20054 40135 57017 81102 333// 20108=
54195 32575 33404 10260 20086 40116 57021 83100 333// 20121=
50949 32570 11401 10276 20083 39969 40129 57020 81100 333//
20141=
54181 32575 60205 10253 20085 40134 57019 83102 333// 20108=
54063 32970 11803 10260 20115 40108 57014 80002 333// 20099=
54186 32570 53403 10238 20056 40124 57017 83102 333// 20099=
54386 11570 60204 10152 20113 40130 57019 60021 79590 86900
333// 20098=
51628 32980 10901 10259 20110 40015 57009 80002 333 00102
20158=
51573 32980 70000 10366 20103 39948 49990 57011 80002 333//
05104 20249=
57037 11562 80204 10195 20186 40033 57004 60061 76166 8677/
333 00163 20192=
57046 11/0/ 90909 10133 20131 37895 57006 60031 76064 333
05256 20116 91125 91511=
53845 11558 80404 10173 20162 39021 40078 52007 60111 76260
8272/ 333 00564 20171=
53738 11470 81103 10171 20150 40049 57010 60061 76160 8572/
333 20170=
53754 11965 81401 10186 20169 40088 52007 60031 76060 8802/
333 20184=
54157 11668 70401 10255 20097 40129 57020 69901 71798 879//
333// 20167=
54401 32670 71603 10278 20122 39302 40108 57020 82202 333//
20167=
59446 11575 71805 10304 20237 40079 57015 69901 79500 86901
333// 20260=
59126 32680 60902 10340 20204 40104 57022 86100 333 20259=
53898 32963 80207 10251 20177 40098 57014 8801/ 333// 20196=
57091 31930 80405 10229 20200 40078 57013 71000 8802/ 333//
20199=
57193 11358 81102 10228 20222 40067 57006 60021 76160 8772/
333// 20222=
82240 333// 20254=
54423 32680 21403 10301 20099 39684 40124 57019 82100 333//
20142=
54351 32562 12502 10278 20159 40128 57030 81100 333// 20141=
59632 32580 51404 10332 20235 40080 57012 82902 333// 20262=
53519 11960 83402 10194 20164 40060 57004 60021 76060 8802/
333 20180=
53615 11760 81603 10214 20154 40035 57008 69901 76060 8252/
333 20181=
54236 32575 22004 10301 20105 30016 40113 57029 82100 333
20164=
54365 32575 60203 10257 20147 40135 57025 86500 333 20140=
54493 32574 30902 10265 20137 40121 57025 83200 333 20110=
59242 11580 41804 10320 20236 40074 57018 69901 70080 82102
333// 20257=
56666 32680 71404 10347 20169 49956 57018 87800 333 00100
20254=
54909 32962 80404 10241 20205 30017 40077 57010 8807/ 333
20222=
54929 32662 80905 10222 20181 40098 57010 885// 333 20186=
54836 32964 70705 10264 20146 40094 57012 80002 333 20191=
54725 32965 80707 10281 20172 40101 57015 80007 333 20164=
54843 31663 71104 10230 20184 30083 40109 57013 70040 85502
333 20169=
54863 32462 81408 10185 20158 40126 57007 885// 333 20153=
53787 32970 81105 10228 20071 40088 57007 8810/ 333// 20156=
53564 32770 71805 10260 20107 39123 40066 57006 86402 333//
00354 20191=
53868 11950 80701 10216 20182 40070 57007 60011 76060 8802/
333// 20214=
53975 11940 83202 10186 20177 40079 57012 60071 76166 8802/
333// 20183=
53663 32972 81406 10196 20067 40087 57002 8802/ 333// 20172=
53673 32960 81603 10231 20117 40108 57010 8807/ 333// 20189=
58519 32580 62203 10324 20236 40077 57016 81140 333// 20242=
54646 32980 71105 10154 20136 40133 57009 80008 333 20149=
57682 32680 72005 10328 20214 40066 57027 8714/ 333// 20240=
52707 32680 10402 10206 21049 37270 57010 81100 333 00104
20047=
56093 32580 71802 10194 20127 37648 57009 878// 333 05104
20111=
52787 32580 73610 10119 20058 37021 52002 86902 333 00051
20059=
52889 11580 71102 10268 20107 38394 49976 57018 69901 70060
81102 333 00001 20180=
56046 32580 73404 10116 20019 36282 57006 87902 333 00452
20037=
56043 32580 72202 10150 20055 36466 57009 86902 333 00107
20060=
52943 32580 72004 10173 20041 36797 57013 82102 333 00105
20051=
52984 32570 70000 10232 20121 38014 57013 81102 333 00002
20135=
52986 32665 71801 10224 20113 38045 57015 81142 333 00002
20128=
54945 31/08 90706 10166 20164 40116 57011 74344 333// 20159=
58238 11435 80000 10230 20227 30062 40071 57005 60761 79198
889// 333 20220=
58251 11556 80702 10234 20227 30073 40079 57020 60051 76066
885// 333 20218=
57816 32580 61807 10280 20185 38727 40026 57021 86100 333
00002 20210=
57411 31559 73401 10253 20216 39652 40003 57014 71000 8214/
333 20198=
57405 32580 63602 10265 20210 49998 57017 86100 333 20206=
56193 32670 50903 10305 20157 49974 57027 81140 333 05405
20184=
56294 32565 70701 10268 20174 39440 40003 57013 8324/ 333
05100 20215=
57306 32875 80000 10230 20204 40011 57013 885// 333 20181=
52378 32980 72709 10266 20068 40040 52003 80002 333// 00255
20168=
52267 32970 80703 10292 20009 39007 40021 57003 80007 333//
00253 20203=
53502 11959 81102 10191 20140 40074 52016 60021 76098 8807/
333// 00361 20148=
52495 11970 80704 10158 20136 38638 40072 52006 60031 76160
8172/ 333// 00261 20150=
53602 11970 80405 10157 20107 38396 52004 69941 76060 8802/
333// 20146=
52576 11975 80202 10143 20115 38448 52001 60031 76066 8802/
333// 00463 20128=
57516 31940 00402 10320 20238 39679 49969 57024 71000 333
05202 20225=
54808 32963 73603 10280 20220 40082 57012 80002 333 20195=
54824 32960 70904 10290 20165 40089 57012 80002 333 20200=
54936 32662 71405 10217 20182 40104 57011 875// 333// 20173=
54826 32460 80706 10174 20138 38451 57001 82507 333// 20132=
54518 32962 80703 10290 20135 40129 57014 80007 333// 20183=
54308 32680 41403 10274 20059 40127 57019 82102 333// 20124=
57633 32580 71404 10302 20219 39286 40014 57015 87200 333
05102 20214=
57432 32565 73402 10324 20241 49975 57019 8114/ 333// 0241/=
57348 32570 40402 10292 20228 40003 57009 84100 333 20220=
57426 32566 40202 10312 20236 49980 57017 84100 333 05104
20240=
54534 32980 60902 10293 20148 40122 57020 80002 333// 20178=
58626 32580 62703 10343 20235 40080 57013 82142 333// 20236=
58608 32978 61804 10340 20236 40080 57012 86030 333// 20260=
57894 32575 71102 10282 20196 40102 57014 872// 333// 20175=
57156 11462 81802 10236 20211 40047 57013 60021 76060 885//
333// 20215=
57297 11456 80201 10231 20228 39917 40050 57013 60061 71098
889// 333// 20213=
54259 11580 22902 10272 20089 40128 57026 69901 72500 82200
333 20132=
53399 32670 71807 10224 20094 40119 57012 82102 333// 20118=
54705 32962 80405 10291 20132 40099 57016 80007 333// 20188=
54602 32668 80403 10285 20168 40123 57016 81107 333// 20193=
53588 32470 80908 10123 20080 37816 57005 8212/ 333 20075=
53614 11761 83404 10200 20155 38847 40056 52003 69911 78080
8797/ 333 00156 20175=
58362 11440 82002 10251 20247 30075 40085 57025 60121 76060
8772/ 333// 20225=
53231 31958 81611 10218 20094 38446 54000 70700 8802/ 333//
00054 20163 91117 91516=
53276 32780 71404 10260 20042 38842 40096 57014 84102 333//
20148=
53336 32970 72203 10257 20102 38670 40050 57006 80002 333//
00000 20163=
53529 11560 81105 10176 20142 38584 40073 57007 60061 76066
8272/ 333// 00260 20157=
53391 32580 71405 10224 20061 38515 40119 57010 84102 333//
00203 20096=
53149 32580 70906 10273 21010 38751 40070 57008 81102 333//
00002 20142=
53083 32680 51403 10253 20035 40123 57014 85100 333// 00201
20102=
53362 32580 70903 10236 20031 40079 57010 82102 333// 20137=
53068 32780 71404 10275 21008 39040 40099 57016 81102 333//
00103 20142=
53352 32980 71104 10253 20033 40077 57008 80002 333// 20127=
59218 11580 71606 10266 20221 40071 57009 60021 72580 8794/
333// 20229=
56385 31/80 12506 10163 20119 36990 57005 70040 81140 333
05102 20091=
57143 11558 81402 10203 20191 40035 57019 60121 76066 8572/
333 20183=
54449 32970 21104 10209 20175 40135 57013 80002 333// 20148=
51709 32980 21402 10251 20019 38653 40025 57011 80002 333//
00351 20161=
51818 32964 00902 10245 20065 40041 57007 333// 00552 20180=
51931 31956 52903 10248 20088 40028 52010 70600 80002 333//
00454 20137=
51705 32780 52715 10181 21051 37799 57002 83462 333// 00352
20096 91122 91525=
56182 32680 70203 10216 20108 37158 57015 87800 333 00102
20111=
56172 32680 43202 10256 20120 37290 57030 84100 333 00101
20119=
56173 32680 60405 10154 20085 36652 57009 86900 333 00252
20071=
56079 32780 73602 10139 20069 36694 57005 87202 333 00201
20071=
56178 32780 12703 10311 20089 37571 57041 81100 333 00001
20151=
59021 11572 72902 10271 20240 40068 57015 69961 72160 878//
333// 20244=
57251 11640 80902 10211 20208 40036 57014 60321 79596 8692/
333 20210=
58931 32380 62004 10241 20163 38380 57011 86100 333 20167=
54049 32770 42202 10264 20083 40126 57023 83402 333// 20154=
54284 32570 23602 10218 20055 40130 57013 82200 333// 20104=
54273 32580 61403 10258 20098 40124 57024 81102 333// 20135=
54363 32570 20203 10256 20096 40125 57023 82200 333// 20135=
56459 32880 21606 10284 20067 37602 57020 82200 333 00102
20160=
56565 32780 62705 10251 20073 37458 57015 85202 333 00102
20150=
56671 32780 71804 10259 20147 38167 57008 86202 333 00152
20190=
56475 32680 21606 10314 20144 38216 57023 82102 333 05101
20145=
56485 31657 20903 10259 20195 49967 57020 71000 81140 333
05251 20195=
54623 32962 01407 10218 20147 40133 57011 333 20188=
54753 32960 70907 10274 20139 30103 40109 57019 80002 333
20165=
54916 32662 71403 10296 20155 40084 57007 87400 333 20210=
54751 31435 81108 10155 20143 40128 57015 71040 886// 333
20124=
54606 32962 70405 10282 20148 40115 57013 80002 333// 20185=
54624 32965 70707 10250 20147 40128 57012 81032 333// 20179=
57774 32580 21603 10338 20225 40058 57020 82100 333// 20249=
57669 32680 72902 10329 20232 40037 57020 83140 333// 20230=
57562 32580 71805 10336 20236 40018 57017 8214/ 333// 20235=
56586 32680 22008 10289 20117 37993 57007 82102 333// 00101
20198=
56875 32680 61804 10271 20152 38328 57018 86202 333// 00101
20187=
56778 32580 72202 10242 20153 38089 57013 8724/ 333// 00251
20187=
56548 32680 70000 10227 20117 37684 57007 8644/ 333// 00103
20116=
56684 32580 42905 10251 20138 37870 57004 82130 333// 00200
20173=
56969 32580 20000 10314 20221 40044 57018 82100 333// 00101
20218=
56966 11775 71107 10323 20225 40026 57023 69901 78000 87902
333// 00101 20246=
56533 11580 70000 10244 20187 38377 57006 69901 72580 87800
333// 00104 20169=
56741 32680 72002 10248 20135 38167 57011 83442 333// 00101
20171=
56977 32580 30901 10275 20189 40051 57017 83142 333// 00101
20200=
56543 32680 61803 10174 20064 36866 57004 86900 333// 00102
20100=
56946 11680 60901 10283 20195 40029 57017 69901 70080 85262
333// 00151 20213=
56838 11675 72503 10302 20211 40038 57017 69901 78000 86402
333// 05103 20220=
56664 32580 31605 10338 20138 49970 57022 82202 333// 00100
20217=
56786 32580 52203 10247 20143 38086 57015 85301 333// 00101
20180=
56751 32680 60904 10252 20141 37991 57015 85202 333// 00101
20177=
56886 32680 62205 10255 20156 38240 57019 86240 333// 00201
20176=
56954 11580 72702 10249 20193 40057 57009 69911 71580 86961
333// 00154 20200=
56994 11580 61404 10266 20188 40058 57013 69911 70080 86900
333// 00102 20200=
56748 32580 20000 10277 20142 38305 57013 82200 333// 00101
20174=
59007 32575 72703 10269 20184 40061 57014 84132 333// 20195=
56739 32578 31601 10265 20150 38314 57009 82142 333// 00003
20162=
56651 32680 63202 10246 20108 37606 57013 83102 333// 00105
20145=
56951 11680 73603 10248 20181 38485 52012 69901 71580 879//
333// 00452 20191=
56856 11580 70000 10262 20207 40042 57012 69911 78000 879/2
333// 00254 20210=
56985 32580 41404 10271 20173 38662 40047 57014 84900 333//
00101 20201=
56986 11180 70000 10209 20196 40074 57009 60011 78080 874//
333// 00101 20185=
53646 32970 81103 10232 20114 38915 40065 57004 8802/ 333
00255 20200=
57106 11970 71801 10187 20176 40046 57008 60021 70060 8703/
333 05203 20157=
57144 11570 82902 10188 20179 40036 57018 60211 76098 8372/
333 20173=
57036 11959 80403 10211 20196 39580 40029 57005 69951 76060
8807/ 333 20206=
59321 32580 11803 10304 20255 40116 57012 81102 333 20261=
54774 31965 80703 10172 20150 40129 57013 70040 80007 333
20149=
54871 31418 81103 10165 20148 40133 57011 71040 886// 333//
20140=
54776 31962 70403 10163 20146 30074 40131 57015 70040 8703/
333 20132=
58311 11575 81801 10240 20222 40060 57030 60431 76098 885//
333// 20228=
53463 32675 70000 10265 20107 38915 40069 57018 81102 333//
00051 20178=
57083 11440 80803 10210 20193 39951 40080 57010 69901 76000
8172/ 333// 20203=
50514 32980 11805 10265 21016 40126 57015 80002 333// 20065=
50425 32980 02204 10257 20012 40134 57020 333// 20047=
50548 32580 12201 10287 20022 40115 57021 81102 333// 20049=
50434 32580 12705 10248 21025 39290 40135 57016 81100 333//
21037=
50632 32980 02705 10255 21061 39285 40129 57019 333// 20050=
50603 32980 01403 10292 21003 39481 40111 57024 333// 20089=
56137 11680 60000 10224 20068 36785 57016 69901 78000 86100
333// 00351 20107=
56116 11580 70000 10087 20057 36358 52006 60011 78080 87900
333// 00560 20067 91126 91529=
56223 32680 71403 10177 20083 36528 57002 87100 333// 00200
20058=
56331 32680 71107 10175 21005 36415 57010 879// 333// 00101
20080=
59228 11580 72202 10304 20252 40073 57018 69921 78086 8794/
333// 20259=
50915 32680 42203 10286 20006 39181 40117 57023 84100 333//
20101=
54208 32580 10904 10230 20035 38764 40139 57016 81102 333//
20078=
53195 32680 70906 10266 20042 40106 57017 82102 333// 20136=
54012 32580 33403 10251 20041 39030 40138 57016 83200 333//
20081=
54311 32580 30902 10275 20058 40117 57019 83100 333// 20116=
53593 32770 71604 10252 20091 40111 57012 82102 333// 20168=
54429 32562 22503 10291 20177 40113 57019 82100 333// 20182=
54618 32962 60707 10275 20130 30096 40113 57010 80002 333//
20177=
59664 11475 71404 10316 20253 40096 57010 69911 78080 87202
333 20275=
57089 11356 80205 10252 20200 40065 57016 69901 76060 8372/
333// 20215=
57034 11560 82702 10186 20180 40041 57001 60031 76160 8772/
333 20186=
54715 32966 60406 10284 20204 40098 57014 80002 333 20179=
54852 32962 01607 10236 20168 40110 57009 333 20158=
56196 32680 73602 10276 20163 49999 57010 8114/ 333 05100
20221=
53764 11970 80706 10227 20137 40079 57004 69901 76060 8802/
333// 20194=
57232 11565 80000 10197 20195 40036 57008 60131 79586 8697/
333 20180=
52876 32570 72704 10252 20072 38111 57016 81102 333 00003
20148=
52657 32680 42705 10161 20021 37246 57005 84100 333 00101
20055=
52868 32680 42702 10250 20048 37712 57020 81102 333 00204
20127=
52797 11780 70403 10237 20088 38302 57004 69901 70060 85142
333 00151 20181=
52661 11665 72504 10143 20118 38198 52006 69901 72160 875//
333 00560 20117=
57134 11063 82001 10170 20165 40019 57003 60111 76266 885//
333 05154 20147=
53929 11560 80404 10169 20164 40040 57007 60281 76166 8772/
333 20155=
52446 11980 81602 10186 20102 40083 52001 69971 70060 8807/
333 00760 20149=
56125 11680 80402 10087 20047 36545 52002 60021 76060 885//
333 00761 20066=
56067 32580 40000 10153 20065 36535 57006 84200 333 00201
20051=
53821 11967 81602 10182 20155 40040 57010 60061 76066 8802/
333 00260 20168=
52323 11680 72005 10225 20022 38201 57001 69901 70080 83102
333 00354 20164=
52866 32575 60000 10207 20083 37656 57016 86902 333 00151
20106=
56033 32580 72904 10093 21049 36064 57005 81102 333 00401
20013=
52836 32680 12002 10157 21024 36912 57005 81100 333 00302
20042=
52436 11680 10905 10224 20052 38426 40034 57008 69901 70060
81132 333 00454 20170 91118 91509=
52996 31975 70000 10130 20110 37538 57001 70040 80002 333
00051 20081=
56021 32580 73202 10090 20005 36121 52004 86202 333 00305
20013=
53923 11570 80704 10162 20154 40038 57010 60121 76066 8772/
333 20155=
57178 11412 80404 10221 20209 39902 40053 57010 60011 72160
8177/ 333// 20220=
57290 11660 80902 10236 20230 40055 57010 60031 79560 889//
333// 20224=
58005 11762 80905 10264 20200 40072 57011 69901 70060 8652/
333// 20221=
57687 32680 41806 10331 20231 39982 40058 57020 82140 333
20250=
53705 11765 80000 10185 20156 40048 57001 60041 76160 8257/
333 00256 20166=
53810 11970 83602 10161 20153 40046 57004 60011 76060 8802/
333 20156=
53723 11762 81106 10194 20106 38607 40051 52003 69901 78080
8547/ 333 00258 20193=
58506 32280 72204 10267 20190 40076 57011 81142 333// 20204=
57237 11858 80000 10195 20186 40024 57013 60201 78098 884//
333 20183=
55655 32780 21609 10137 20053 36498 52007 82100 333// 00201
20056=
55664 32880 20000 10152 20012 36031 57007 82200 333// 00300
20025=
55572 32780 30000 10177 20039 36255 57010 83400 333// 00301
20043=
55680 32880 30000 10171 20013 36246 57009 83100 333// 00301
20028=
55578 32780 21402 10183 20019 36378 57013 82200 333// 00301
20064=
55773 11470 71106 10066 20037 36050 52006 69931 78080 879//
333// 00253 20012=
55569 32780 50000 10182 21016 36236 57012 85400 333// 00301
20071=
54436 32675 23601 10295 20126 40121 57019 82200 333// 20153=
54102 32680 52201 10262 20115 39025 40120 57018 85100 333//
20120=
53480 32680 71104 10227 20113 40099 57018 83102 333// 20109=
78663 32665 60000 10228 20225 39453 40131 52013 71300 81901 333
062/1 10300 20204 30/// 58003 81940 85080=
78897 32575 42502 10231 20204 40168 58015 84200
333 012// 10314 20231 59002 79999 84821=
60101 32958 20806 10188 20171 40168 56004 80002
333 20181 30016 82073=
60115 32565 71610 10215 20182 40171 50001 84981
333 20192 82823 83930 84360=
60135 31406 60000 10167 20167 40163 55004 74640 86600
333 86///=
60156 32960 00406 10182 20127 40166 56003
333 20170=
60230 32957 30000 10234 20099 40147 56003 80002
333 20234 83070=
60060 31310 82007 10172 20167 40136 5//// 710// 886//
333 20156 88708 95360=
60105 31402 80000 10175 20175 40162 51003 7444/ 886//
333 20171 88616=
60107 12558 70202 10200 20195 40177 53002 69914 878//
333 20187 83816 85626 95380=
60141 32660 21606 10176 20104 39509 40169 54000 82500
333 20172 82633 95400 95800=
60185 32965 10613 10181 20134 40139 58009 80002
333 20181 81070=
60190 32962 40604 10205 20109 39571 40159 53008 83032
333 20203 83361=
60191 32965 52604 10213 20102 40155 57002 83032
333 20187 84360 83073=
60220 32458 50210 10178 20147 40133 56012 81604
333 20168 81710 85073=
60265 32965 22802 10210 21020 38933 48570 53007 80002
333 20210 82073=
60318 32558 60804 10215 20181 40182 56011 86200
333 20200 86820=
60285 31402 82406 10160 20160 40153 5//// 746// 885//
333 20157 88616=
60340 12460 52604 10208 20194 40176 54000 69904 85800
333 20198 82816 84820=
33815 11598 83502 10133 20112 40218 52015 69962 70282 885//
333   20126=
81405 11030 30000 10231 20228 40119 60021 72886 83600
333 58011 82701=
63980 32482 51210 10290 20237 40129 83202 919//
333 20255 50340 55094 59006 83819 84075 94312 91117=
78958 31566 30706 10263 20221 30129 30139 70611 81201
333 0/209 10317 20258 58002 81822 83078=
61901 16/// /1213 10176 20112 40189 5//// 69922 333 20159 3/015=
61902 11584 31015 10254 20158 40155 69904 70181 83800 333 20229
58013 82823=
88889 11150 80519 10030 20025 40057 58018 69941 75865 887// 333
82702 88704 90710 91126 96450=
88963 32465 63606 11057 21056 30097 40128 57013 87600
333 56000 87715 92407 95095=
88968 32565 61408 11066 21098 30112 40128 54000 86500
333 56400 86622 92417 92851 94060 DIEBEL/INV=
89053 32962 00215 11038 21078 30092 40106 57007
333 92417 92840 95090=
89055 31/02 90208 11120 21136 39859 40119 57009 74744
333 90091 92722 92843 95199
555 10096=
89066 32970 30000 11052 21089 30010 40019 57009 80004
333 56009 83270 92427 92840 95000=
78388 32570 71803 10
CHECK/TEXT/NEW ENDING ADDED KATLYTAA=
81408 16/// /2202 10224 20222 40117 69921
333 58007=
81415 36/// /0000 10230 20228 40124
333 58010=
76113 32970 00504 10308 20235 39655 40109 52022 90540 333
10412 20224 30/// 58047=
76225 32440 62502 10212 20144 38605 40110 52019 86500 90550
333   10321 20180 31/// 55081 56700 58026 86720=
76323 32550 32004 10216 20124 38286 40085 52022 83200 90540
333   10300 20160 30/// 56700 58008 83820=
76342 31540 82701 10260 20209 39844 40126 52011 70350 8407/
90543 333   10340 20244 31/// 55040 23331 56050 58023 84356
84458=
76390 11550 52101 10184 20161 38250 40098 52010 69901 70322
83406 90540 333   10273 20175 30/// 55085 21443 56208 58030
82630=
76402 32950 00000 10184 20146 30089 40149 52019 90546 333
10340 20180 30/// 55110 21940 58///=
76412 31960 01401 10240 20205 30127 40167 52023 70544 90540
333   10325 20220 30/// 55780 58026 70000=
76423 32560 81801 10196 20157 38186 40109 51012 88200 90550
333   10300 20140 30/// 55035 21288 56900 58018 70000 88820
=
76471 31580 80000 10170 20140 37723 40079 52014 70292 887//
90530 333   10215 20103 31/// 55003 561// 58018 88734=
76491 32956 00000 10266 20218 39771 40162 52024 90540 333
10362 20242 30/// 55100 58027=
76539 32658 10601 10172 20139 38154 40086 52017 81400 90540
333   10282 20140 30/// 55060 56200 58025 81620=
76644 01950 00902 10253 20238 30161 40171 52012 60051 70252
90540 333   10384 20235 31/// 55096 21954 58028 60051=
76647 32960 00201 10245 20227 30132 40163 52009 90550 333
10350 20244 30/// 55088 58020=
76656 31862 40000 10175 20164 38537 40133 52016 70544 84010
90550 333   10280 20150 31/// 55033 56090 58023 84457=
76685 32550 10401 10158 20124 37899 40094 52014 81100 90556
333   10248 20124 30/// 59077 21481 56900 58022 81824=
76687 12860 30201 10186 20159 38679 40163 52018 69981 83030
90538 333   10267 20165 31/// 56/7/ 58017 83356=
76698 32958 00000 10242 20243 30117 40132 52007 90547 333
10317 20230 32/// 55082 58000 70153=
76743 01120 62001 10232 20226 30132 40152 57011 60214 70213
865// 90545 333   021// 10340 20238 32/// 55112 22373 58010
60107 86602=
76750 32558 10902 10276 20248 30138 40148 52006 81100 90550
333   01200 10345 20261 30/// 55082 58022 84820=
76843 01565 32001 10226 20212 39560 40201 50009 69901 72162
83500 90545 333   0/900 10324 20220 31/// 55043 58018 69901
83633=
60096 31230 80210 10182 20179 40139 5//// 71022 886//
333 20179 88705=
78397 11570 70207 10270 20252 30143 40159 69901 70182 81810 333 00000
10288 20230 58002 81822 87460 90960=
76243 32370 71802 10264 20230 39862 40138 52012 87700 90530
333   10375 20234 31/// 55400 56200 58028 70030 87920=
76305 32970 00000 10255 20220 30124 40134 52039 90530 333
10327 20222 30/// 20193 58/// 90800=
76393 32464 20903 10254 20206 39566 40130 53015 82400 90555
333   0/300 10328 20228 30/// 55016 58021 82616=
76405 32940 01404 10225 20137 30099 40119 52021 90252 333
30/// 58035=
76548 01458 31101 10278 20255 30142 40172 51018 69906 75005
844// 90545 333   013// 10320 20260 30/// 55100 58027 69906
84611=
76585 31670 30000 10249 20241 30019 40170 51029 71094 83400
60535 333   0/2// 10341 20219 30/// 55100 58024 83637=
76593 32950 00902 10277 20243 30163 40179 52009 90540 333
10300 20234 30/// 55123 22311 58025 92021=
76640 11030 11101 10264 20261 30153 40183 52017 69951 72159
81100 90545 333   10340 20230 31/// 55093 562// 58025 81800
=
76840 32740 70408 10294 20206 30101 40151 52013 87030 90550
333   0/090 10345 20235 30/// 58004 87358=
76848 32350 70000 10162 20142 38409 40041 53003 8422/ 90538
333   10237 20155 31/// 55002 56199 58021 74806 83360=
76903 31975 00401 10253 20216 30009 40139 51006 90540 333
10332 20235 30/// 55013 58001=
91570 06/// /1806 10213 20198 30092 40095 53004 69921
333 69927
555 10233 20208 69924=
91574 36/// /2110 10222 20135 30110 40116 53002
555 10238 20203=
91598 06/// ///// 10171 30049 40081 53004 69981
333 69947
555 10174 20136 60034=
57007 87400 333// 20210=
11036 32984 41403 10144 20065 30029 40257 50003 81082 333 20084
81361 83080=
11010 32984 71302 10136 20092 39875 40247 51001 81042 333 20102
81364 87080=
11120 32882 69901 10138 20113 39557 40247 50000 81189 333 20096
81858 85080=
11150 32784 71705 10148 20098 39704 40231 58004 81242 333 20111
81856 83365 86080=
11240 12982 19901 10145 20097 39851 40262 52006 69912 81031 333
20092 81365=
11816 32980 30603 10140 20068 30108 40270 53005 81081
333 20077 30005 81360 83070 =
11826 32980 33602 10129 20082 30075 40273 52007 80002
333 20051 30002 83073 =
11903 32980 00201 10124 20062 39902 40279 51002
333 20047 30002 50362 =
11934 32683 10701 10108 20045 39458 42882 53002 81100
333 20023 31100 81846 =
11968 32980 00302 10143 20069 39998 40275 50005
333 20058 30000 50352 =
11841 32980 10702 10108 20064 39899 40274 51003 80001
333 20043 31003 50442 81070 =
11858 32982 11503 10169 20094 30124 40272 52009 80001
333 20074 30003 50372 81073 =
11916 31/84 23503 10024 21029 38057 48562 52007 70344 82101
333 21002 3//// 41998 828//
444 28//6 =
11927 32981 00000 10146 20081 30015 40273 53002
333 20073 30004 50312 =
11930 32989 13304 11012 21075 37453 47146 53007 80001
333 21067 3//// 44070 81060 93598
444 18199 27074 =
11993 32460 10000 10098 20062 30064 40281 52002 81600
333 20029 30000 50242 81719 =
11855 32980 31003 10157 20082 30110 40273 51006 80002
333 20067 30005 83073 =
11867 32980 32101 10129 20097 39965 40278 51004 80001
333 20045 30002 50352 83070 =
11880 32970 10702 10154 20086 30103 40272 52003 80001
333 20064 30002 50322 81070 =
11918 31184 12301 10077 20036 39454 42879 53004 74000 81601
333 20011 31102 50192 81701 =
11933 32484 12802 10060 20025 38727 48574 53005 81101
333 21001 31101 81816 =
11938 32682 12205 10102 20058 39217 42876 52004 81101
333 20024 30000 50242 81833 =
11976 31963 03301 10089 20074 30019 40284 51004 72800
333 20038 31000 50232 =
11978 32982 03603 10137 20098 30148 40276 51006
333 20055 30003 50292 =
12772 32970 00201 10145 20083 39992 40273 52004 333 20090 55115=
12822 32970 21803 10161 20063 30123 40264 52008 80001
333 20055 55132=
12843 32977 12901 10157 20067 30106 40273 52007 80002
333 20096 55125=
12882 32970 00504 10140 20093 30136 40268 53007 333 20087 55115=
12925 32980 00000 10130 20106 30094 40265 51007 333 20046 55132=
12942 32965 01203 10152 20069 30028 40271 53007 333 20099 55128=
12982 32970 00303 10147 20093 30170 40271 53008 333 20068 55107=
17601 32970 30000 10254 20134 40071 52004 80004 333 20201 30017
83075=
41170 42970 03311 10390 20136 39999 40012 333 20296 59008
555 00274=
10004 46/60 ///11 10130 20122 30153 40153 54000
222// 00124
333 10138 20130 55001 55300 91114 91212=
10015 32358 82408 10130 20118 30145 40155 53001 876//
222// 02122
333 10135 20128 31012 55003 553// 70005 87709 91114 91211=
10020 11257 72309 10134 20129 30101 40136 50001 69912 71052 8463/
333 10136 20127 31013 55025 55300 2//// 70007 84706 87363 91118 91212=
10035 11356 82305 10142 20131 30103 40160 51003 60022 71062 877//
333 10142 20134 31013 55031 55300 70030 87709=
10055 11958 72204 10152 20137 30150 40160 55001 69902 70362 82032
333 10164 20142 31014 55061 55300 79999 82360 87075=
10147 11558 52204 10159 20135 30156 40174 58001 69952 70161 83501
333 10160 20139 31012 55017 55305 70006 83620 85175=
10162 12562 42403 10157 20135 30096 40177 51007 69902 84500
333 10180 20132 30012 55070 55303 79999 84622=
10184 11970 42305 10175 20123 30167 40174 53003 69902 70361 80004
333 10189 20155 30014 55097 55310 79999 84073=
10224 11958 32204 10152 20131 30175 40181 52003 69922 70241 80001
333 10173 20114 31009 55010 55309 70004 83075=
10270 12980 02103 10170 20122 30140 40194 53005 69902
222// 06165
333 10200 20149 30/// 55072 55310 79999=
10338 12970 22203 10171 20132 30114 40185 50005 69902 80001
333 10196 20141 30011 55032 55310 79999 82075=
10361 12970 11802 10165 20123 30096 40197 53004 69912 80002
333 10201 20135 30010 55058 55310 70001 81076=
10384 12883 21903 10178 20112 30139 40197 53003 69902 81530
333 10210 20162 30015 55087 55310 79999 81657=
10393 12982 42303 10174 20109 30083 40207 52001 69902 84050
333 10198 20143 30013 55101 55310 21033 30263 79999 84358=
10400 32570 41602 10148 20129 30143 40192 50001 81131
333 10225 20109 30007 55043 55304 70000 81827 84080=
10438 32980 31602 10144 20115 39929 40205 50004 80002
333 10198 20123 30009 55028 55310 70000 83076=
10469 32980 21803 10165 20106 30046 40207 50000 80001
333 10202 20127 30010 55075 55310  82073=
10488 32981 11705 10166 20100 39943 40217 53002 81030
333 10202 20136 31012 55088 55310 70000 81358=
10548 32984 11703 10115 20094 39682 40218 52001 81030
333 10187 20084 30004 55021 55310 79999 81366=
10637 32975 51601 10157 20128 30076 40211 52002 80001
333 10225 20106 31008 55066 55310 70000 85075=
10685 32984 21402 10135 20100 39564 40225 50002 80002
333 10171 20092 30003 55062 553// 70000=
10738 31975 51201 10140 20128 39756 40217 53001 81081
333 10229 20096 31005 55099 55310 70000 81359 85075=
10763 32982 41403 10153 20106 39847 40220 50001 80002
333 10210 20109 31010 55063 55310 20852 70000 84080=
10788 32982 61304 10141 20102 39804 40228 52004 82032
333 10183 20107 31008 55105 55308 70000 82363 86075=
10852 32989 41302 10128 20111 39666 40225 50000 81032
333 10212 20090 31007 55109 55310 70000 81365 84074=
10946 32689 61602 10131 20090 39410 40223 55001 82832
333 10211 20093 31008 55127 55308 70000 81840 84365 86073=
10091 11357 82508 10153 20133 30120 40170 53004 69912 72065 877//
333 10167 20138 31014 55083 55300 20143 30143 70001 87707 91113=
10113 11456 82306 10135 20135 30142 40161 53004 69912 71022 886//
222// 06154
333 10148 20132 31012 55000 55300 70012 87710 91113=
10129 11357 72107 10152 20141 30158 40171 52001 69922 71022 82601
222// 02167 2//01
333 10167 20145 31013 55001 55306 70008 82709 87075=
10131 12458 72205 10149 20126 30147 40161 58001 69962 875//
222// 02141
333 10158 20148 31014 55008 55300 70014 82710 87614=
10170 12560 82204 10163 20131 30153 40167 52004 69912 875//
333 10185 20152 31014 55067 55300 70001 87625=
10253 12975 22303 10161 20140 30168 40189 51009 69902 82030
333 10191 20126 30010 55046 55305 79999 82359=
10280 12775 32206 10172 20131 30087 40182 52004 69902 81532
333 10184 20144 30013 55084 55308 79999 81650=
10291 12975 12004 10181 20108 30128 40193 53002 69902 81049
333 10200 20162 30015 55091 55310 79999 81363=
10305 12962 11903 10145 20139 30149 40180 58001 69982 80001
333 10188 20128 31012 55011 55310 70010 81080=
10315 32959 11902 10148 20129 30126 40189 51001 80001
333 10205 20120 31009 55033 55310 79999 81076=
10348 12980 12203 10169 20124 30094 40198 51008 69902 80001
333 10194 20142 31011 55049 55310 79999 81075=
10385 12784 22103 10174 20116 30142 40202 53004 69902 81530
333 10207 20153 30014 55090 55306 79999 81656=
10427 32986 12407 10128 20100 39212 48530 53001 80001
333 10156 20104 31009 55034 55310 70000 81075=
10453 32986 32314 10106 20091 38896 48531 55002 81041
333 10108 20097 31009 55025 55310 79999 91118 91215=
10474 12983 12203 10175 20115 30077 40202 53002 69902 80004
333 10203 20142 31011 55073 55310 20898 79999 81073=
10490 32982 12105 10167 20114 30091 40210 55000 81040
333 10208 20129 30010 55083 55310 21173 70000 81363=
10499 32970 31907 10156 20080 39939 40221 50001 83030
333 10181 20141 30013 55119 55309 70000 83358=
10501 32484 72501 10158 20132 39948 40190 51002 875//
333 10213 20133 31011 55087 55301 79999 87615=
10513 32784 41302 10150 20128 30079 40198 51003 82531
333 10230 20095 30008 55072 55310 70000=
10532 32970 10000 10128 20116 39976 40208 53002 81031
333 10221 20101 31008 55059 55310 70000 81363=
10544 32984 22106 10140 20106 39158 48552 51002 80001
333 10140 20093 31007 55046 55310 70000 82077=
10554 12986 11803 10146 20099 39826 40204 54000 69902 80001
333 10192 20114 30010 55045 55310 20855 79999 81076=
10577 32984 12205 10165 20113 39724 40213 50002 80002
333 10172 20118 31009 55077 55310 21018 30207 70000 81073=
10578 32782 22210 10101 20075 38854 48554 53001 81041
333 10107 20087 31007 55068 55310 21032 30203 70000 81356 91115 91212=
10609 31975 60000 10119 20117 39877 40203 55000 70241 80001
333 10213 20110 31009 55050 70000 85077 95136=
10655 32973 20000 10132 20129 39893 40216 52004 80001
333 10211 20107 30008 55074 55310 70000 82077=
10688 32981 22001 10139 20103 39711 40225 50003 81032
333 10190 20088 3/005 55061 55310 70000 81362=
10708 32982 50701 10137 20127 39830 40208 55000 81031
333 10219 20108 31007 55090 55309 70000 81363 85080=
10729 32980 41401 10156 20139 30086 40205 58001 80001
333 10220 20097 31007 55092 55310  84075=
10776 32980 51502 10136 20104 39798 40235 53003 82032
333 10192 20126 31010 55047 55308 79999 82360 84076=
10803 32981 71801 10162 20103 39862 40214 55000 81038
333 10235 20141 31013 55129 55310 70000 81361 87275=
10836 32589 51903 10157 20093 39366 40208 53003 81182
333 10195 20140 31009 55102 55310 70000 81826 85075=
10929 32981 52802 10138 20135 39702 40226 53006 81042
333 10208 20123 31010 55100 55310 70000 81363 85078 98486=
10961 32789 52608 10042 21012 37182 47171 51003 82042
333 10043 20018 44345 55125 55308 70000 82350 84066=
10962 32989 52004 10150 20065 39109 48568 52001 82042
333 10174 20140 31009 55134 55304 70000 82363 83075=
57014 8801/ 333// 20196=
44404 42580 53402 10229 20184 4//// 84600 333 5////=
44424 42584 52706 10241 20135 4//// 83510 333 5////=
44434 42462 30000 10278 20186 39124 48450 83200 333 58002=
44449 42565 41209 10324 20267 39872 40022 81131 333 58003=
44462 42465 50000 10240 20181 38215 48425 85400 333 58012=
44474 41366 32701 10228 20123 38218 48431 70244 83200 333 58014=
44478 42565 51210 10310 20248 39948 40029 85800 333 58017=
26038 32998 42004 10126 20055 40202 57004 80009   333 20059   555
30003=
26058 32998 32004 10125 20066 40227 53002 82032   333 20025   555
31002=
26115 32598 81504 10104 20075 40180 58017 8112/   333 20083   555
30008=
26141 32998 22002 10119 20069 40217 58005 82040   333 20034   555
31003=
26215 31998 81607 10109 20054 40191 57014 76111 88028   333 20094
555 30008=
26231 32998 71804 10128 20079 40219 57006 80006   333 20099   555
30008=
26247 32698 31602 10131 20043 40235 58002 82531   333 20033   555
30004=
40110 57009 333// 20158=
11101 32980 40000 10152 20131 39703 40216 50003 82032 333 20125
82360=
11022 32977 20603 10138 20060 39864 40248 50003 80002 333 20114 3/008
82080=
11028 32975 30702 10142 20080 39910 40248 51002 80001 333 20080 3/005
83081=
11130 32975 22103 10120 20105 39656 40238 50001 81042 333 20107
81363=
11146 32689 53507 10049 21003 37047 47164 52004 83044 333
20019 49350 83348 84072 95110=
11157 32982 59901 10110 20087 39491 40253 50001 81042 333 20064 31005
81366 85080=
11172 32775 50000 10093 20074 58013 81132 333 20059 81856 83365
85070=
11204 36/// /1102 10122 20103 39475 40251 333 20080 3/005=
11231 32981 19901 10134 20092 39708 40269 51007 80001 333 20094
81080=
11423 32986 19901 10156 20092 39368 42856 52003 80001
333 20113 31007 50202 70000 81070=
11464 32775 62406 10126 20083 39268 42854 52001 86050
333 20098 31007 70000 86356=
11487 31987 60901 10131 20092 39628 40241 52002 71411 81082
333 20081 30006 50262 70000 81361 86073 9512/=
11518 32980 21803 10164 20096 39806 40234 53002 81042
333 20100 30008 70000 81365=
11603 32980 21604 10148 20064 39768 40238 50002 82031
333 20113 31010 70000 82358=
11659 32981 21403 10142 20079 39623 40250 55000 80004
333 20086 31006 50342 70000 81070=
11782 32970 12302 10115 20070 39956 40270 53005 80001
333 20051 31002 70000 81070=
26045 32998 62206 10131 20051 40217 57003 82071   333 20047   555
31004=
80002 333// 20200=
17022 11560 70000 10154 20129 40162 53006 60122 76098
85470 333 20137 32013 50154 55095 22405 70119 85632
87458 92437=
17038 32670 32905 10198 20174 40135 54000 82130
333 20161 30015 50601 55121 22509 82835 83360
92428=
17050 32970 20209 10168 20120 40206 52013 82030 333
20128 32010 50321 55000 20435 70023 82360=
17060 11560 70307 10154 20132 40178 53012 60092 78082 85270
333 20146 32014 70212 85820 87358=
17096 32570 10816 10166 20055 38228 48485 55000 81100
333 20040 30001 50551 55096 22329 81830 10081=
17124 12665 70407 10150 20120 39248 40131 52008 60022 85290
333 20120 31011 70022 85835 86360=
17128 11670 73103 10138 20089 39044 40099 52008 60062 72581 85250
333 20120 32010 50521 55119 70060 85840 85358=
17170 32670 12904 10188 20123 38326 48493 58003 81100
333 20080 30007 81835 10080=
17195 32670 20706 10192 20156 38934 48478 57004 82100
333 20092 30007 82840 10083=
17200 32670 11104 10236 20130 39144 40072 53002 81100
333 20114 30010 81840=
17219 32565 60118 10186 20115 40143 52013 84250
333 20177 30/// 84830 85360=
17240 12575 60000 10174 20136 38983 40089 56002 69902
83250 333 20150 31010 50551 55114 21728 70007 83830
86360=
17244 11670 63416 10166 20103 38948 48472 52005 69992 70281 83250
333 20142 30013 50531 55118 22842 70009 83840 86360 10069=
17280 32670 20102 10264 20107 39313 40050 53003 81101
333 20152 30013 51101 55136 22968 81845=
17350 32960 01603 10248 20192 40079 53002 333 20165 30///=
17026 11670 73103 10170 20151 40150 51002 60022 70282
84270 333 20161 32016 50211 55033 21220 70024 84836
87360 92418=
17034 32670 71603 10176 20140 40132 53008 84270 333
20166 30016 50174 84835 87359 92428=
17070 12562 70303 10122 20110 39297 40144 52007 60212
87200 333 20103 32010 50274 55085 70214 87833=
17084 11660 70303 10146 20136 39248 40116 50008 60022
78011 84270 333 20140 32012 50261 55104 22319 70020
84834 87359=
17090 32965 03602 10172 20099 38691 48475 58001 333
20090 32007 50501 55132 22858 10080=
17098 32670 50404 10144 20094 38215 48507 51005 83150
333 20058 30005 83835 85360 10123=
17150 11660 70213 10167 20114 40170 52008 69912 72582 85250
333 20150 31014 50244 55056 21912 70195 85835 85359=
17160 32670 60211 10182 20117 38982 48484 52012 84250
333 20127 31010 50601 55129 22450 84840 86360 10084=
17184 32670 50211 10206 20127 40138 52010 83230 333
20170 30016 50751 55100 22279 83840 85360=
17190 32670 72706 10132 20096 38998 48488 56002 84230 333
20130 30011 50541 55111 22484 84835 87360 10105=
17210 32975 00000 10250 20139 39082 40046 53005
333 20188 30016 51054 55129 22340=
17234 32970 20902 10215 20166 40098 52005 82030 333
20177 30015 50871 55113 22446 82360=
17260 32970 00104 10252 20098 39280 40044 53001 333 20160 30014=
17290 32670 23412 10210 20180 40091 54000 82200 333
20204 30019 50654 55101 22266 82836 92438=
17370 32665 20503 10244 20188 40076 50002 82100 333
20214 30018 50254 55117 22355 82835 92417=
17024 11665 82205 10148 20138 40155 50017 60052 72162
8452/ 333 20140 32014 50261 55060 70048 84635 88459
92427=
17056 12970 53603 10170 20155 40192 53010 69902 85030
333 20148 32014 50291 55001 20470 70112 85360 92418=
17067 11670 71401 10168 20152 40174 52006 60092 70282 87200
333 20142 32014 70090 87835 92408=
17092 32670 40000 10190 20086 38822 48474 54000 83130
333 20120 30009 50404 55104 22621 83840 83360 10066=
17112 32670 53508 10168 20155 40195 53008 83250 333
20150 32014 50501 55015 21196 70066 83835 85360 92418=
17115 11457 70213 10160 20108 40179 53014 60092 78082 86270
333 20154 32014 70122 83710 85830 87360=
17116 11560 70704 10150 20136 40174 52012 60042 78022 85270
333 20140 32014 50454 55079 21801 70167 85830 87359=
17188 32670 22202 10168 20108 39080 40093 56002 82100
333 20136 31012 50401 82840=
17202 32670 00905 10224 20100 39100 40076 51001 81101
333 20110 30010 81835 83070=
17248 32675 10702 10193 20128 38923 48466 53003 81100
333 20120 30010 50601 55116 22823 81840 10052=
17292 32970 03403 10182 20131 39347 40065 56003 333
20155 30015 50901 55101 22368=
17300 32965 21701 10240 20171 40057 58005 80001 333 20200 30///
50404 55130 22922 82070=
17330 32970 31604 10260 20202 40073 51004 83030 333
20185 30015 50801 55118 22736 83360=
17042 32970 00000 10210 20167 40130 51003 333 20150
32014 50194 55072 92428=
17074 11560 80901 10138 20125 39214 40114 54000 60102
78098 8422/ 333 20130 32011 50221 55048 21399 70102
84830 88458=
17085 32970 30403 10202 20126 40110 52009 82031 333
20138 30013 50454 55114 22609 82360 83070=
17100 32970 32702 10220 20078 39157 40118 51007 83030
333 20170 30015 50664 55090 22517 83360=
17140 32665 50706 10149 20108 38680 48478 51005 83250
333 20125 30011 50621 55127 22752 83840 85360 10088=
17203 32670 30000 10230 20116 38840 48520 54000 83100
333 20144 30012 50564 55112 22545 83840 10103=
17205 32980 00704 10180 20103 38330 48492 51006 333 20090 30008
50481 55107 22409 92418 10084=
17237 32670 73204 10182 20126 40107 53003 83270 333
20178 30017 50671 55118 22041 83840 87359=
17250 32675 10403 10190 20099 38761 48470 55000 81100
333 20122 31011 50531 55121 23062 81840 10060=
17255 32970 00000 10238 20188 39429 40061 53001 333
20174 30015 50644 55110 22743=
17270 32970 02901 10296 20128 39450 40047 51002
333 20213 30016 50344 55123 22896=
17275 32980 00204 10265 20051 38947 48506 52008 333
20180 30017 10069=
17375 32975 01602 10235 20166 40062 54000 333 20190
30015 50584 55116 22247 92408=
26242 32998 11702 10124 20057 40231 57003 80009   333 20052   555
31005=
12205 32970 32105 10175 20115 30183 40191 53003 83030
333 10188 20153 31014 55086=
12560 32998 11102 10125 20074 39927 40269 51003 80001
333 10152 20040 31002 55127=
12695 32970 01401 10128 20099 39941 40279 52008
333 10130 20065 31006 55024 70009=
12120 11498 71905 10153 20083 30175 40182 57005 69902 70162 8657/
333 10163 20110 30009 55158 2//// 79999=
12250 32998 51803 10160 20058 30139 40226 58004 85070
333 10177 20117 30009 55118=
12295 32970 21502 10151 20058 30077 40259 52002 80001
333 10164 20018 30101 55094=
12330 32960 71804 10159 20075 30112 40218 57003 8707/
333 10186 20112 31011 55137=
12375 32970 01804 10148 20078 30130 40259 54000
333 10161 20045 30003 55100=
12424 32999 71502 10140 20101 30088 40238 54000 8703/
333 10174 20074 31005 55130=
12100 32970 52103 10182 20102 30177 40183 53001 80002
333 10195 20155 30014 55106 22277=
12105 32598 71703 10165 20123 30144 40184 57002 8453/
333 10189 20151 30014 55136=
12135 11598 81905 10127 20086 30195 40198 57007 69902 72111 885//
333 10142 20120 30008 55145 79999=
12185 32970 41805 10146 20072 30103 40236 57010 83031
333 10152 20074 31004 55120=
12195 32670 52204 10138 20060 30026 40250 57002 84501
333 10150 20028 30101 55116=
12235 11497 81803 10136 20086 30004 40211 56002 69902 70282 885//
333 10162 20118 30011 55135 79999=
12270 32997 41703 10145 20057 30063 40242 57005 83031
333 10159 20075 31004 55141=
12300 32970 22202 10171 20108 30119 40206 55000 82040
333 10197 20133 30010 55104=
12360 32998 21703 10138 20069 30112 40244 56005 82030
333 10164 20077 31005 50283 55134=
12385 32997 12102 10147 20058 30075 40262 50001 80002
333 10147 20028 30001 55097=
12400 32980 21803 10167 20087 39987 40216 58001 82030
333 10177 20134 31012 55078=
12435 32970 71603 10141 20082 30070 40239 58002 8703/
333 10174 20089 31008 55138=
12495 32997 02101 10140 20085 39980 40268 51005
333 10142 20046 31000 55077=
12520 32999 40000 10126 20073 39826 40255 51001 82049
333 10172 20060 31005 50313 55114=
12570 31998 01501 10123 20082 39957 40272 52006 70240
333 10157 20031 30001 55075 79999=
12575 32960 01801 10140 20080 30022 40274 52007
333 10148 20068 31001 55060 70003=
12595 32997 00000 10139 20099 30017 40274 52005
333 10140 20042 32001 55031 21283 70003=
44416 42470 72601 10296 20243 39284 40021 85810 333 58005=
44438 41520 82710 10264 20246 39921 40043 75022 8492/ 333 58027=
44454 42562 51303 10273 20199 38603 48443 82202 333 58009=
44477 42365 52602 10270 20209 38757 48472 85200 333 58000=
57067 11440 80902 10191 20186 39414
40056 57008 60061 76160 8272/ 333// 20186=
31004 84704 86711 86623=
33317 32988 03502 10125 20081 40252 52008 333 20055 555
31004 52003=
33393 32997 00000 10131 20071 40271 57008 333 20045
555 31004=
33587 12997 03403 10149 20099 40207 52005 60032
333 20108=
33658 31997 72905 10122 20090 40264 52014 69902 87030 333 20106=
33711 32598 73408 10148 20094 40185 52010 85530 333 20131 85626=
33791 32597 83506 10151 20097 40165 52008 8535/ 333 20140 85930=
33910 11597 83402 10182 20162 40137 52010 60072 70282 883// 333
20166=
33946 32497 80204 10182 20147 40140 53010 885// 333 20138=
34300 11497 83304 10150 20132 40151 52010 69902 79598 883// 333 20140 86710=
34519 32325 50000 10182 20159 40136 53009 71042 85600 333
20148 85708=
34601 11396 73305 10148 20141 40145 53006 69972 78082 87900
333 20145 85609=
87616=
12160 11597 71805 10149 20083 30163 40215 57008 69902 72511 873//
333 10167 20106 31007 55129 70000=
12210 32998 51803 10171 20086 30122 40189 54000 85030
333 10188 20139 33015=
12230 32968 62102 10148 20096 30125 40213 55000 85032
333 10181 20122 31009 55124=
12310 31960 41902 10178 20111 30178 40207 55000 7011/ 84030
333 10202 20147 30013=
12399 32997 10000 10132 20073 30100 40267 51002 80001
333 10158 20032 31000 55100=
12469 32998 11702 10136 20069 30030 40258 52001 80002
333 10160 20049 31003 50263 55117=
12488 32997 00701 10136 20098 30111 40264 53002
333 10163 20031 31002 55088=
12540 32997 31403 10115 20081 30013 40263 51002 82042
333 10170 20062 31005 55140=
12566 32970 00601 10116 20059 39984 40272 52005
333 10173 20058 31004 55119=
12625 32984 10000 10098 20040 39272 42877 52002 80002
333 10112 20014 31100 55056 21301 79999=
12690 11/08 90801 10078 20078 39777 40291 52005 69912 74344
333 10121 20044 31003 55021 70001=
12115 32598 81905 10162 20100 30167 40180 56003 8457/
333 10177 20154 30011=
12125 11598 82202 10146 20089 30141 40190 57004 69902 7008/ 8497/
333 10165 20127 31010 79999=
12200 12970 32503 10171 20120 30174 40180 51002 69902 81031
333 10198 20159 30011 79999=
12272 32670 61904 10150 20047 30069 40233 57006 83530
333 10162 20037 31000=
12280 32975 52203 10142 20054 30086 40245 57004 83032
333 10149 20090 31005 55143=
12285 36/// /9903 10149 20099 30139 40252 57002 60032
333 20035 70000=
12345 32970 51805 10152 20062 30097 40238 56002 85050
333 10165 20078 31007 55146=
12415 32999 51803 10160 20109 30078 40227 52001 85030
333 10175 20115 31009 55131 22841=
12455 32965 61704 10148 20064 30008 40249 51001 86050
333 10166 20080 31005 55149=
12497 32970 12301 10147 20089 30054 40270 52004 81030
333 10147 20039 31001 50293 55080 79999=
12530 32997 61502 10142 20068 30055 40252 51003 86050
333 10176 20070 30003 55141=
12550 32970 11901 10140 20065 39905 40258 53004 81030
333 10159 20073 30004 55139=
12580 32970 02101 10121 20088 30033 40277 52005
333 10142 20026 31000 55049 79999=
12585 12997 02002 10119 20089 30013 40278 52007 69912
333 10147 20074 31004 50453 55059 70001=
12600 32984 01003 10134 20048 39788 40264 52006
333 10148 20068 31003 55120=
12650 32984 13302 10024 21050 38076 48575 52007 80002
333 10028 21011 3//// 41998 55052 2////=
12660 32970 00000 10083 20057 39924 40285 51002
333 10161 20030 31002 55059=
301022 304024=
57853 32680 61803 10320 20212 40057 57017 86100 333// 20243=
54339 32560 20403 10286 20153 40127 57024 82100 333 20175=
50349 32670 23202 10266 21022 40105 57016 82100 333 20013=
50758 32570 12704 10278 21004 40112 57021 81100 333 20118=
50888 11680 73603 10181 20068 40102 57010 69901 78098 879//
333 20125=
54096 32570 52905 10214 20059 40119 57013 85100 333 20109=
50877 32680 23210 10272 20019 40101 57026 82100 333 20122=
50978 11580 23606 10229 20087 39832 40110 57017 60041 70098
82900 333 20124 93905=
58647 32572 72204 10324 20225 40086 57025 86140 333 20222=
51437 32680 60903 10115 20068 38121 57008 86900 333// 00253
20075=
51467 32780 71804 10204 20050 38199 57006 81902 333// 05104
20114=
51495 32980 62005 10332 20036 40081 57006 80002 333// 00105
20211=
51526 32780 71103 10308 20027 49996 57011 81102 333// 05105
20184=
57077 11450 80201 10195 20186 40056 57010 60091 76166 8672/
333// 20190=
51716 11870 62702 10239 20088 38826 40029 52003 69921 70080
81962 333// 00302 20166=
51542 11862 80707 10026 20019 37563 52016 60051 76087 8802/
333// 00359 20004=
51642 11762 83205 10219 20057 40041 52016 69901 78000 889//
333// 00357 20171=
51765 32970 01403 10337 20066 39065 49970 57010 333// 05102
20170=
51777 32970 03602 10352 20056 39017 49965 57009 333// 05104
20152=
51656 32780 70902 10286 20071 39001 40006 52005 85432 333//
00102 20224=
51855 32980 00000 10321 20038 49956 52002 333// 00004 20158=
55591 32680 23402 10199 20027 36524 57012 82200 333 00300
20072=
55585 32780 10000 10197 20065 36390 57016 81100 333 00202
20052=
55493 32780 51603 10153 20045 36042 57007 85902 333 00206
20069=
53772 32960 80906 10223 20104 39239 40108 57008 8801/ 333
20153=
56146 11780 60902 10168 20072 36730 57012 69931 72580 86900
333 00354 20080=
56152 11780 50702 10156 20075 36326 57012 69951 70080 85100
333 00300 20052=
56247 32880 72202 10271 20062 37365 57023 87100 333 00151
20141=
56257 32680 52206 10184 21014 36287 57015 85100 333 00100
20063=
56357 32680 62705 10194 20015 36456 57014 86100 333 00101
20054=
56374 32680 61107 10212 20128 37365 57021 86400 333 05102
20117=
57328 31958 80203 10255 20225 39610 49998 57012 71000 8807/
333 20206=
56167 11780 60406 10216 20095 37053 57023 60021 79180 86900
333 00253 20075=
57313 11750 80000 10225 20216 40009 57005 60011 78088 8647/
333 05203 20191=
53192 32580 21403 10257 20012 38893 40132 57016 82100 333//
20117=
57259 11580 80903 10235 20208 40027 57019 69921 70060 8177/
333 20203=
57355 32565 72902 10276 20232 40012 57019 8214/ 333 20222=
57385 11560 71103 10296 20253 40033 57019 60171 70098 8654/
333 20219=
54539 32970 70905 10251 20162 30116 40130 57016 80002 333//
20150=
52447 11980 71603 10183 20113 40090 57005 69921 72160 8707/
333 00660 20142=
52895 32780 70903 10204 20127 40018 57006 875// 333 00154
20181=
52674 11770 71802 10164 20091 37983 57002 69901 70060 83942
333 00255 20118=
52424 32770 10905 10287 20060 40001 57008 81100 333 00352
20179=
52765 32580 52903 10164 20046 37164 57005 85100 333 00253
20064=
52856 32580 72507 10209 21018 37191 57014 82102 333 00202
20091=
56065 32680 62903 10138 20032 36634 57007 86840 333 00204
20047=
52737 32680 20000 10153 20070 37088 57005 82900 333 00207
20041=
53817 11565 81102 10150 20132 38195 54000 60041 76066 8272/
333 20127=
53903 11980 80000 10140 20122 38033 57005 60031 76060 8802/
333 20112=
52974 32680 30402 10217 20076 37489 57017 83202 333 00004
20110=
54263 32980 20000 10255 20087 40128 57021 80002 333// 20126=
58556 11970 70000 10310 20239 40080 57015 69901 72580 8706/
333 20223=
59849 32580 41805 10307 20227 40077 57011 84100 333// 20247=
56251 32680 60203 10247 20089 36913 57024 86400 333 00200
20069=
58319 11565 80000 10255 20233 40065 57009 69901 76060 885//
333 20235=
58015 31959 80405 10222 20192 40080 57006 71000 8807/ 333
20216=
58436 11680 81101 10280 20249 40067 57015 60021 70098 8117/
333 20212=
52602 32680 63201 10185 21079 37274 57010 81102 333 00301
20017=
52754 32575 43405 10137 21002 36800 57003 84102 333 00200
20012=
51886 32780 71402 10173 21043 37115 57010 81202 333 00104
20052=
52825 32980 12502 10200 21024 37252 57011 80002 333 00204
20038=
56018 11680 70000 10104 20041 36216 57005 69941 70060 879//
333 00402 20032=
56034 32580 61403 10096 21026 35955 57004 85902 333 00500
20003=
56004 32680 73602 10090 21025 35863 57001 87902 333 00451
21010=
58027 11959 80704 10216 20193 30034 40083 57008 69901 71060
8807/ 333 20195=
54226 32580 30402 10301 20088 40117 57022 83100 333// 20131=
54115 32680 41802 10283 20054 40118 57020 84100 333// 20112=
54134 32674 42704 10301 20063 40107 57020 82102 333// 20154=
54027 32680 40205 10298 21012 39563 40114 57019 83102 333//
20117=
50727 32580 12704 10243 21049 38986 40145 57016 81100 333//
20010=
54026 32580 22905 10303 20067 39800 40103 57023 82200 333//
20168=
50834 32580 22703 10283 20055 40124 57025 82100 333// 20080=
54213 32680 11101 10293 20048 40116 57018 81100 333// 20152=
56462 32680 31604 10256 20051 37098 57024 83400 333 00102
20101=
58407 32670 61402 10334 20228 40051 57010 85140 333 20257=
53959 11558 80703 10208 20202 39628 40053 57010 60101 76166
8572/ 333// 20205=
53863 32962 80405 10215 20129 40096 57002 8807/ 333// 20168=
53478 32575 71604 10222 20096 40093 57008 83102 333 20123=
56312 11580 73204 10175 20091 37081 57011 69901 72580 874//
333// 00252 20106=
55696 32680 33202 10182 20045 36358 57013 83200 333 00204
20060=
55598 32780 12502 10195 20037 36602 57015 81200 333 00201
20092=
55690 32580 32507 10099 20056 36027 54000 83200 333 00302
20021=
56227 11580 70000 10179 20104 37318 57006 60021 70080 87900
333// 00103 20104=
56434 32680 62203 10238 20119 37667 57009 86800 333 00106
20138=
56317 11580 70402 10167 20074 37131 57001 69921 78080 874//
333// 00200 20099=
55681 32780 53602 10122 21013 35932 57012 85200 333 00301
20016=
56307 32780 31103 10220 20040 36834 57022 83200 333 00004
20105=
51701 32580 12504 10057 21094 36644 52003 81402 333// 00200
21029=
52652 11970 73206 10150 20125 38483 40088 52007 60021 70060
85042 333 00661 20130=
53915 11558 82902 10166 20150 38588 40042 57007 60121 76066
8372/ 333 00060 20149=
54218 32780 20000 10293 20063 39475 40117 57020 82200 333//
20136=
56080 11580 70901 10180 20066 37125 57012 69901 70060 84942
333 00004 20092=
56096 32680 71802 10260 20138 38832 49996 57017 878// 333
05203 20180=
59117 32580 42703 10345 20211 39990 40091 57029 84100 333
20243=
50774 32670 53205 10254 20035 39805 40093 57021 85800 333
20078=
51133 11680 42003 10182 20117 39475 40089 57011 60011 70080
83302 333// 00355 20132=
54094 32570 23604 10254 20034 39835 40117 57020 82200 333
20119=
54161 32570 60401 10270 20038 39851 40127 57023 81102 333
20145=
58150 11220 81104 10203 20198 30074 40082 57024 69981 76054
8772/ 333 20200=
56038 11480 83603 10047 20029 36132 52004 60031 78088 889//
333 00559 20013=
56188 32962 70000 10261 20170 40001 57008 8703/ 333// 05202
20200=
52713 32680 11802 10148 21024 36924 57006 81102 333 00109
21001=
53942 11956 80703 10170 20164 40058 57004 60311 76160 8802/
333 20167=
52842 32670 32707 10182 21055 36985 57006 82102 333 00108
20026=
52908 32580 23402 10053 21053 35816 52002 82100 333 00407
21035=
53698 32962 70401 10267 20168 40124 57014 8703/ 333// 20203=
58402 32970 82202 10316 20252 40067 57005 8807/ 333 20222=
53487 32560 71604 10248 20089 40090 57011 82102 333// 20159=
52313 32780 31403 10278 21015 38360 57007 82102 333// 00100
20138=
54405 32665 60706 10278 20118 40115 57013 81102 333// 20182=
89642 41230 81106 11151 21170 39862 49918 56017 77177 887//
333 55000 20005 88703=
78988 31465 50815 10278 20244 30144 40153 57012 70622 82201
333 58008 85081=
91925 36/// /0912 10264 20229 30068 40126 52021
333 55027
555 1//27 58007=
91938 32570 61710 10251 20199 30130 40133 53022 86800
333 55053 56500 82820 86640
555 11921 58026=
91943 36/// /0610 10273 20231 30130 40133 52015
333 55096
555 1//23 58011=
91944 36/// /0214 10266 20229 30142 40148 51019
333 55083
555 1//27 58010=
91948 36/// /0204 10242 20211 30068 40170 51020
333 55055
555 1//17 58012=
91958 06/// /3212 10217 20146 30075 40077 51017 69921
333 55060 69927
555 1//27 58032=
48698 01450 82703 10269 20249 30055 40073 69921 79592 85978 333
69927 70101 81710 83915 85466=
89564 41950 31237 11096 21121 39895 49916 57024 73831 80001=
89571 41965 30823 11103 21182 39885 49915 57022 70211 80001=
89573 32970 40929 11101 21164 39905 49928 57014 80002=
89611 41212 70926 11067 21099 39728 49782 50001 73622 8457/=
91554 01475 73205 10250 20242 40080 53006 69961 72528 878//
333 568// 69961 82715 83820 87640=
91555 31570 63604 10274 20234 40078 53002 70522 83831
333 56899 82825 83650 85080=
91557 01465 80502 10255 20235 40088 53005 60011 72522 8693/
333 5689/ 60011 83818 82920 86628 87362=
91565 01460 83603 10250 20236 40106 53012 60161 76122 8497/
333 5689/ 60161 83818 82920 88460=
91568 01370 83608 10236 20227 40094 53014 60141 76062 8562/
333 5619/ 60141 85708 88559
13585 42698 20206 10147 20068 39464 40242 52010 81530 333 20099 30007
=
13598 42698 13404 10131 20056 48539 51004 81500 333 20068 32004=
91643 11498 80911 10263 20243 40095 50012 60051 78086 8432/ 333 5629/
8
4
9
1
8
88460=
91631 31599 70908 10290 20248 40085 70222 83208 333 562/9=
91636 11599 80906 10270 20241 4//// 60021 70288 8117/ 333 5629/=
91648 31498 89902 10290 20264 40106 53009 71512 84237 333 5619=
84628 34928 01906 10171 20160 30141 40157 71044
333   58012=
84691 31958 00000 10170 20145 30134 40141 71044
333   58004=
84501 31962 01203 10190 20159 30132 40173 70202
333   58017=
84452 31960 01609 10200 20158 30118 40149 70112
333   58008=
84390 31065 51813 10227 20173 30046 40147 70222 8503/
333   5600/ 58001 85363=
84370 31460 80000 10235 20213 30096 40125 70222 885//
333   569// 58008 88615=
84752 31962 00807 10068 20042 37553 70124
333   58032=
84515 31960 00000 10230 20214 39943 40130 70002
333   59007=
84401 31660 60000 10200 20170 30105 40175 70222 8353/
333   5600/ 59011 83640 83358=
84377 31460 70000 10240 20226 30010 40116 70222 8457/
333   5600/ 59003 84613 83460=
81401 06/// /0000 10238 20228 40119 69921
333 58010 69927=
76525 01760 81802 10124 20105 37512 40141 52009 60201 76162
8802/ 90600 333   10185 20116 31/// 5604/ 58028 60201 88558
=
60020 32480 23207 10197 20116 30119 40163 55003 81501
333 20195 55115 92428=
60030 32560 20122 10200 20160 30094 40149 53003 82500
333 10196 55120 92436=
60040 31465 33513 10205 20188 30131 40156 58008 702// 81501
333 20196 55109 92427=
60338 32465 82902 10210 20194 30115 40179 52001 885//
333 20202 55005 92417=
71918 460// /3415 11090 39765 40186 56004 333 11069 21116 555 33428
40221=
71923 36/// /1302 11068 21088 39824 56005=
71629 17128 80000 10140 20132 39927 40156 56020 60051 7434/ 333
10199 20120 70050=
10177 21028 70010=
71194 36/64 /2710 10093 20044 30054 40067 53007 333 10104 20066
70014 555 32919 4005/=
71197 36964 03014 10081 20019 30046 40095 53013 333 10119 20068
70045=
71450 36/// /2406 10086 20057 39540 40257 51006 333 10151 20062 70024
555 30817 40130=
71490 36/// /0000 11147 21158 39969 40290 56006 333 11064 21147
70000=
71725 36964 30606 10097 20037 39744 40151 58031 333 10182 20056
70000 555 33322 40200=
71726 36/64 /0000 10046 20028 39646 40175 58013 333 10190 20046
70000=
71727 32974 12505 10067 20024 39980 40174 50000 80001 333
10198 20060 70004 555 32727 40181=
71728 32982 22505 10030 20020 39957 40175 56007 80001 333 10205 20029
70000 555 33322 40210=
71730 32674 81408 10135 20088 39705 40119 52044 885// 333
10173 20079 79999=
71731 33/// /1405 10139 20085 39692 40132 58036 333 10179
20085 79999=
71733 36464 81407 10130 20088 39864 40097 56048 333 10169 20100
70010=
71739 11662 80508 10085 20066 39778 40134 56029 69981 78082 885//
333 10178 20059 70008 90946=
71749 17562 80207 10080 20074 39910 40153 53009 60101 7434/ 333
10131 20080 70180 555 30720 40140=
71799 11574 62504 10127 20095 30137 40160 52006 69901 70282
86870 333 10177 20094 79999 90940=
71801 32574 22516 10069 20043 39843 40012 55007 81501 333 10167 20067
79999 555 32530 40031=
71803 11474 82919 10067 20049 39827 40008 53011 60041 78098
885// 333 10167 20059 70042 90917 555 33027 40061=
71807 36/// /2213 10057 20050 30029 40045 55005 333 10096 20057
70000=
71808 36964 03204 10030 20014 39987 40033 51017 333 10066 20029
70025 555 32119 40150=
71809 32569 80000 10080 20064 30029 40056 52027 885// 333 10163 20068
70066 555 32228 40121=
71810 36/64 /0000 10065 20008 30050 40113 53006 333 10140 20043
70000=
71811 32983 03402 10068 20018 30058 40125 53008 333 10174 20063 79999
555 32932 40151=
71813 36964 03003 10044 20032 30075 40088 50003 333 10155 20038
70015 555 32935 40191=
71814 36/// /3010 10060 20046  333 10103 20057 70000=
71815 11674 73314 10088 20048 30049 40080 50027 69901 70282
87500 333 10109 20063 70058 90940 555 32933 40031=
71865 36/64 /2409 10089 20018 39570 40248 51004 333 10151 20058
70000=
71866 36964 02407 10055 21016 39634 40245 51006 333 10190 20051
70005 555 32718 40020=
71867 32774 10103 10100 20048 39874 40204 51008 81501 333
10186 20007 70000=
71868 36964 02005 10033 20005 39783 40222 53001 333 10171 20019
70005=
71869 32974 02605 10084 21002 39702 40222 52004 333 10190 20046 70000
=
71870 36964 02109 10048 20037 39296 40270 51005 333 10118 20047
70095 555 30221 40151=
71871 32974 22208 10069 21030 39433 40233 51001 80001 333 10182 20027
70000=
71872 32783 12403 10080 20023 39402 40253 52004 81500 333 10157 20050
70012=
71874 36964 01308 10051 21028 39153 40244 51007 333 10166 21034
70005=
71876 32974 02104 10084 21025 39579 40237 51005 333 10200
21017 70000=
71877 32974 71908 10085 21043 38973 40236 51003 80004 333
10162 21019 70000=
71878 32974 01506 10095 21013 39166 40230 50002 333 10173 21033 70000
=
71879 36964 01906 10130 21041 39421 40213 53002 333 10189 20037
70000 555 31820 40200=
71880 32982 01603 10094 21027 39112 40203 50004 81030 333 10188 21006
70000=
71881 36964 00702 10076 21034 39124 40207 51007 333 10188 21026
70000=
71882 36964 00000 10103 20048 39655 40182 51009 333 10221 20050
70000=
71883 36/// /0000 10066 20036 39391 40198 51006 333 10209 20011
70000=
71887 11783 62105 10138 20062 39753 40165 57002 69921 70282 82270
333 10204 20085 70002 90940=
71889 32774 20000 10115 20032 39756 40167 51005 82400 333 10211 20045
70000=
71891 36964 33302 10116 20092 39907 40181 53003 333 10173 20090
70035=
71103 36964 00000 10083 20057 39547 40200 51002 333 10198 20029
70005 555 30717 40210=
71115 36/// /1204 10133 20055 333 10195 20055 70000=
71121 36964 01906 10110 21042 39403 40218 51001 333 10190 21010
70000=
71127 46064 /0310 10101 20028 39502 40227 53015 333 10198 21032=
71143 36/// /2409 10094 20049 39913 40228 50000 333 10124 20089
70000=
40061=
71397 32974 60707 10106 20095 30102 40135 53009 80001 333
10263 20106 79999 555 32719 40201=
71398 36/64 /0902 10065 20042 30102 40151 53009 333 10194 20065
70000=
71400 36/64 /3105 10073 20061 40029 333 10189 20062 70089 555 32724
4023/=
71410 36/64 /1402 10083 20066 30124 40152 50011 333 10172 20083
70006=
71411 36/56 /0203 10126 20100 30128 40138 51002 333 10150 20099
70000=
71412 46/// /2508 10100 20035 30124 40137 50004 333 10216 20078=
71430 36/64 /1405 10114 20108 30058 40154 58016 333 10177 20106
70000=
71431 17/// /3503 10119 20109 30062 40155 56018 60081 7//4/ 333
10169 20115 70078=
71432 36/64 /0508 10137 20137 30041 40136 58027 333 10198 20123
70000=
71435 17/63 /3602 10053 20004  60031 7//4/ 333 10110 20046 70112=
71436 17/24 /3307 10125 20125 39803 40155 55014 60151 7//4/ 333
10181 20106 70146=
71441 36/// /3408 10072 20066 39921 40229 51009 333 10107 20064 70000
555 30417 40090=
71443 36/// /2306 10042 21006 39827 40238 51001 333 10145 20042
70000=
71474 36764 62806 10085 20016 38970 40192 50001 333 10137 20047
70000 555 30517 40050=
71538 11662 42808 10233 20179 39917 40140 56008 69901 78011
84740 333 10284 20166 79999 90910=
71600 46927 00000 10092 20084 30124 40130 58006 333 10170 20080 555
32318 40220=
71601 32974 00202 10111 20097 30080 40142 53007 333 10223
20095 79999 555 32418 40180=
71043 32683 31705 10132 20032 30122 40214 56006 81501 333 10184 20102
79999=
71045 36/// /0000 10091 21012 39374 40222 53001 333 10157 20000
70000=
71050 36/64 /3201 10031 20030  333 10124 20031 70010=
71066 32974 60000 10059 21039 39824 40242 51001 81071 333 10149 20052
79999=
71068 32974 80610 10112 20031 39534 40216 53002 85071 333 10206 20010
70000 555 33625 40231=
71069 36964 01206 10092 20018 39527 40225 51022 333 10194 21007
70005=
71076 46/// /0702 10005 21015 39876 40273 54000 333 10068 21006=
71077 36/64 /0411 10097 21003 39714 40237 50009 333 10161 20065
70000=
71078 32974 10503 10003 21029 39813 40256 51008 80002 333
10127 20003 79999=
71081 37964 03515 11121 21135 30120 40131 56003 745// 333 11054
21126 70005 555 33618 40100=
71082 36264 80505 11054 21063 30125 40165 56010 333 11017 21089
70000=
71083 32474 73318 11073 21108 30160 40198 56006 87500 333 11011 21073
70010 555 10010 20010 33527 40171=
71090 37464 83115 11070 21088 30070 40105 58003 745// 333 11031
21086 70005=
71092 46964 00508 11123 39434 40099 58003 333 11077 21125 555 30930
40101=
71093 460// /1009 11098 39598 40094 55003 333 11077 21102 555 31620
40101=
71094 460// /0118 11131 39146 40048 56009 333 11121 21133 555 30225
40061=
71095 36964 01704 11106 21140 30052 40124 58012 333 11051 21134
70000=
71101 36964 02503 10103 20074 30209 40217 55001 333 10141 20075
70000=
71104 11974 63606 10093 20043 39103 40200 58002 60011 70182 81071
333 10158 20044 70024 90936=
71108 11574 20000 10121 20105 30089 40159 53010 69941 70181 82400
333 10211 20094 70006 90921=
71109 11480 11804 10095 20087 30164 40190 55008 60021 81500
333 10157 20055 70032 90930 555 33118 40010=
71816 32774 22416 10079 20027 39969 40028 55001 82500 333
10157 20079 70000 555 33325 40181=
71817 36964 02503 10034 20002 39991 40005 51001 333 10169 20026
70000=
71818 32574 12208 10060 20030 39975 49992 56008 81570 333
10165 20043 70000 555 32126 40090=
71821 36964 00203 10056 20010 39837 40179 58023 333 10138 20054
70000 555 33421 40220=
71822 36964 03605 10055 20032 39705 40175 58014 333 10132 20035
70000 555 33024 40120=
71825 32574 72712 10027 21012 39451 40114 52008 87500 333 10102 21003
70100 555 10048 20048 32920 40170=
71827 11274 82506 10011 21021 39947 40191 58006 69901 70252 886//
333 10053 20004 70006 90921 555 32922 40191=
71828 36464 82813 10003 21035 39455 40084 53008 333 10115 20002
70000 555 32632 40201=
71832 17/64 /0305 10070 20070 39846 40166 56020 60071 7//4/ 333
10144 20032 70650=
71834 11262 80405 10066 20061 39737 40160 57022 60071 76186
887// 333 10141 20018 70070 90962=
71836 36964 00911 10054 20019 30182 40193 58017 333 10121 20024 555
33021 40170=
71842 11466 80000 10062 20055 39722 40197 57003 60071 76166 887//
333 10122 20056 70134 90973 555 30717 40160=
71850 11358 80202 10069 20064 39700 40196 50000 60011 75162 887//
333 10106 20069 70096 90983=
71852 36664 83104 10073 20061 39931 40224 53005 333 10116 20062
70085 555 30618 40100=
71855 36964 02305 10022 21006 39864 40239 53001 333 10140 20018
70015 555 30729 40170=
71856 36864 83307 10068 20036 39940 40223 53004 333 10107 20067
70010 555 30922 40110=
71858 36/64 /2203 10024 21001 39939 40219 56006 333 10153 21028
70000=
71861 36964 02406 10037 20024 39535 40265 51004 333 10113 20025
70125 555 30521 40191=
71862 11974 03103 10049 20044 39570 40275 53012 69961 70288
333 10111 20046 70196 90951 555 30427 40161=
71863 36964 02506 10044 20037 39565 40267 51006 333 10121 20044
70175 555 30526 40151=
60710 32965 00806 10191 20139 30118 40201 52001
333 20145=
60714 32557 23502 10194 20186 30196 40203 55000 82200
333 20155 82820=
60720 32558 53604 10205 20180 30155 40190 53003 85200
333 20185 85820=
60723 33965 00000 10162 20138 30027 40214 53001
333 20141=
60728 33960 03608 10217 20186 30183 40187 54000
333 20195 92416=
60734 33965 01402 10184 20128 39693 40203 53003
333 20132=
60738 32965 00000 10167 20104 38982 48558 53002
333 20144=
60740 32460 43408 10215 20190 30193 40196 53006 84800
333 20206 83816=
60745 32960 00606 10221 20144 39830 40193 52003
333 20200=
60748 33962 00000 10212 20131 39778 40188 52004
333 20162=
60750 32960 03504 10216 20174 30164 40196 52004
333 20182=
60764 32960 00806 10227 20185 30161 40211 52005
333 20212=
60770 33956 00000 10223 20190 30053 40190 54000
333 20194=
60780 33660 10904 10206 20082 39891 40191 54000 81500
333 20197 81633=
71931 36/64 /0205 10114 20001 39542 40217 53009 333 10200 20014
70000=
71932 17864 30702 10032 20020 39800 40253 51001 69951 7//4/ 333
10166 21009 70005 555 33321 40200=
71933 36964 00000 11010 21059 39976 40268 53001 333 10101 21010
70000 555 31119 40190=
71934 32974 32007 10062 21020 39992 40248 57001 80001 333
10146 21025 70000=
71935 32774 21603 10092 21027 30024 40231 56003 82531 333 10131 20004
70000=
71938 32474 73601 11036 21058 30217 40246 56008 87630 333
11032 21121 70000=
71940 32982 70410 10119 20010 39408 40199 52018 82071 333 10224 20022
70000 555 30525 40031=
71943 32774 70303 10121 21007 39399 40224 50012 83171 333 10208 20044
70000=
71944 36964 00902 10099 20026 39383 40200 53003 333 10206 20016
70005 555 32727 40230=
71945 32783 60705 10105 20084 39759 40225 53001 85570 333 10180 20066
70026 555 30320 40020=
71946 32874 63407 10126 20070 30015 40224 56002 85072 333 10207 20057
70000=
71948 46904 01213 11067 30101 40215 58026 333 11067 21096 555 30723
40151=
71949 36/64 /2703 10126 20007 39371 40227 53001 333 10155 20039
70000=
71950 32882 30000 10119 20038 39568 40187 52007 82081 333 10240 20038
70000=
71957 36864 61602 10120 20032 30100 40187 56014 333 10142 21028
70005=
71958 36964 00603 10093 21038 39275 40228 53008 333 10196 20020
70005 555 33218 40220=
71964 32786 82703 10115 20015 39380 40224 56002 81577 333 10162 20042
70000=
71966 46/// ///// 10137 333 10183 20001=
71968 463// 83007 10019 30150 40214 53019 333 10074 21037 555 32726
40020=
71603 32969 32001 10094 20088 30080 40132 57009 80004 333
10148 20094 70000 555 32617 40140=
71607 36/// /0000 10095 20070 30116 40148 51016 333 10283 20094
70000=
71609 32974 00502 10067 20050 30008 40140 51009 333 10193 20062 79999
=
71610 36964 00000 10088 20076 39866 40155 58001 333 10234 20088
70000 555 32822 40190=
71621 11674 80000 10145 20143 30050 40154 56015 69921 79582
8597/ 333 10221 20123 70002 90915=
71624 11774 80804 10143 20109 39935 40142 57020 60021 70198
8457/ 333 10227 20128 70018 90941=
71625 36764 60902 10143 20118 39987 40144 58024 333 10213 20078
70000=
71627 36964 02206 10157 20119 30109 40152 58004 333 10244 20145
70000 555 32621 40191=
71628 32774 82004 10150 20096 30013 40150 58016 81571 333
10205 20125 70000 555 30217 40130=
71631 17/64 /1802 10142 20135 39666 40155 55006 60041 7//4/ 333
10198 20092 71730=
71633 11774 81510 10143 20132 39845 40110 58045 60191 79592
8337/ 333 10176 20079 70190 90947=
71700 32974 53403 10113 20063 30118 40143 51012 85070 333 10265 20090
70000 555 33024 40190=
71705 32974 21404 10108 20057 30055 40140 51009 82070 333
10261 20107 79999 555 32631 40191=
71706 32974 21603 10088 20062 30085 40144 52011 80001 333 10230 20056
79999 555 33430 40201=
71707 32974 02507 10072 20011 30055 40130 52008 333 10232 20066 70008
555 32527 40190=
71714 36/// /3604 10132 20036 30074 40164 50016 333 10242 20103
70000 555 33123 40170=
71715 36/64 /3605 10102 20029 39984 40163 51011 333 10181 20102
70032=
71718 32983 02704 10089 20047 30096 40160 53018 333 10183 20089 70048
555 32918 40080=
71719 36/// /0701 10052 20036 30120 40126 50005 333 10195 20049
70000 555 32531 40170=
71851 36/// /2605 10055 20053 39900 40235 51005 333 10104 20055
70090=
71873 36/64 /1805 10058 20001 39311 40257 51005 333 10161 21001
70000=
71875 36964 00000 10055 21044 38860 40236 50000 333 10156 21029
70000 555 31322 40230=
71952 36/// /0000 10121 20056 39360 40197 53011 333 10217 21012
70000 555 33317 4023/=
71967 36/// ///// 10085 20052 39272 40235 55002 333 10142 20047
70000=
71802 36/// ///// 10061 20043 40053 333 70000 555 32733 4000/=
71826 36/// /2705 11023 21028 30018 40047 58004 333 10028 21024 70000
555 30923 40071=
71846 36/64 /0901 10042 20026 39876 40187 58010 333 10112 20025
70000=
71893 11680 43107 10109 20094 30144 40175 57003 60031 70198
81482 333 10172 20091 70036 90935=
71894 36/// ///// 10112 30159 40168 50002 333 10164 20055 70000=
71896 32974 20000 10086 20053 39380 40199 50000 81071 333 10200 20030
70000 555 31528 40230=
71898 36259 82202 10088 20085 30169 40213 55002 333 10141 20081
70000=
71899 32374 73008 10090 20077 30180 40230 56004 86640 333 10122 20055
70000=
71905 11266 82908 11012 21031 30167 40180 58003 69921 78522 885//
333 10013 21016 70004 90952 555 10002 20002 32619 40180=
71906 11574 82704 10005 21021 30003 40050 51016 69901 70288 885//
333 10093 20004 70020 90923 555 19999 29999 32730 40141=
71907 36264 83013 11001 21023 30090 40122 50000 333 10025 21004
70020=
71909 37148 81702 11009 21012 39986 40028 58003 745// 333 10046
21009 70000 555 30822 40081=
71910 36364 80314 11020 21033 39999 40063 53001 333 10023 21020
70000=
71911 46064 /0103 11109 30144 40201 56004 333 11059 21133 555 33019
40231=
71912 11974 60510 11003 21067 30055 40238 52005 69901 70166
86010 333 10142 21031 79999 90951 555 3////=
71913 36964 03407 11043 21096 30212 40249 56004 333 11001 21043
70000 555 33320 40211=
71917 33574 22709 11072 21091 30148 40162 57016 81530 333
11024 21073 79999 555 19999 29999=
71922 32974 30615 10089 20035 39758 40217 58001 83070 333 10200 21010
70000 555 33335 40220=
71924 32474 20118 11097 21125 30116 40206 56006 81570 333
11054 21112 70000 555 33521 40041=
71925 32474 70000 11069 21100 30229 40266 56007 87500 333
11056 21106 79999 555 19999 29999=
71926 11480 83612 11068 21091 30210 40234 58001 69901 77177
885// 333 11051 21112 42029 79999 90983 555 19999 29999 33426 40091=
71928 36/64 /1403 10064 21057 39069 40224 50005 333 10167 21021
70000=
71261 17/// /1313 10157 20154 39853 40107 58031 60041 7//4/ 333
10218 20112 70070 555 32926 40050=
71265 17864 30611 10147 20102 30050 40142 56026 60011 7//4/ 333
10212 20120 70010=
71201 17/// ///// 10136 60031 7//4/ 333 10182 20110 70030=
71075 36/// /0602 11016 21034 39656 40265 53003 333 10079 21017
70000=
40050=
71096 460// /0208 11110 39357 40091 56005 333 11077 21111=
70086=
11035 21105 46009 79999 555 19999 29999=
71702 36/// /2002 10105 20063 40141 333 10254 20099 70006 555 32824
4019/=
71114 36964 00402 10134 20099 30115 40162 53017 333 10236 20097
70000=
71119 36/// /1703 10110 21047 333 10181 20047 70000=
71120 32974 22205 10114 21011 39565 40212 50002 81071 333
10208 20006 70000=
71122 36/64 /3403 10060 21049 38630 40216 51007 333 10156 21041
70000 555 10001=
71123 32974 11807 10076 21028 39365 40223 50002 81070 333
10186 21016 70000=
71125 33974 12408 10077 21001 39635 40214 51007 81071 333
10205 21009 70000=
71129 32974 01805 10062 21010 39424 40251 52005 333 10161
20029 70000=
71131 36/64 /1302 10039 20020 39014 40278 51006 333 10100 20012
70044=
71138 32974 12408 10055 20027 39641 40247 50000 81070 333
10132 20055 70008=
71140 32974 02705 10037 20029 39751 40255 51009 333 10098 20037 70148
555 30820 40200=
71141 32874 10000 10034 20026 30211 40211 55001 81070 333
10131 21005 70000=
71145 32874 43602 10074 20048 39918 40210 55001 81071 333
10134 21010 70000=
71148 16/// /2903 10032 20031 39673 40255 51007 69921 333 10092 20025
70044 555 30617 40090=
71182 36564 82910 10023 21015 39544 40075 53013 333 10117 20023
70000 555 33030 40000=
71185 17964 02505 10052 20046 30025 40048 51031 60061 7//4/ 333
10091 20050 70205 555 32038 40081=
71187 36964 03007 10085 20013 30124 40151 53014 333 10200 20084
70020 555 32729 40161=
71188 32974 00000 10030 20018 30084 40125 52003 333 10203
20016 70010 555 33136 40171=
71196 37564 82629 10066 20043 39950 49986 56014 743// 333 10169
20063 70000 555 32338 40082=
71200 36/// /2001 10110 20083 333 10172 20096 70000=
71434 36/// /0504 10011 21022 30137 40203 58003 333 10119 20003
70000 555 33519 40090=
94120 46/// /1010 10262 21016 30080 40116=
94150 46/// /1615 10239 20141 30053 40114=
94203 46/// /1115 10262 21085 30125 40136=
94207 35/// /0917 1//// 30121 40132 57019=
94212 46/// /1011 10217 21071 39671 40156=
94216 46/// /1311 10246 21039 30097 40148=
94238 46/// /1214 10188 20020 39743 40179=
94268 46/// /1309 10251 20008 30103 40118=
94287 46/// /1309 10204 20049 30131 40140=
94294 46/// /1610 10214 21023 30142 40152=
94298 35/// /1913 10204 30127 40133 57003=
94299 46/// /1717 10221 20124 30117 40128=
94300 46/// /3107 10258 20031 30165 40175=
94302 46/// /0216 10236 20052 30161 40167=
94312 46/// /1112 10255 21028 30146 40156=
94317 46/// /0909 10218 21043 39583 40191=
94319 46/// /1010 10238 21035 39842 40184=
94326 46/// /1010 10158 20020 39584 40225=
94332 46/// /1613 10199 21009 39769 40166=
94346 46/// /1712 10187 21002 39951 40179=
94363 46/// /2508 10194 20023 39929 40153=
94367 46/// /1305 10178 20080 30111 40149=
94374 46/// /2212 10194 20001 30129 40146=
94394 35/// /2517 10186 30106 40114 57003=
94403 46/// /0708 10253 20028 30170 40212=
94429 46/// /0707 10222 20001 39740 40220=
94430 46/// /0907 10219 21052 39605 40210=
94461 46/// /1409 10182 21076 39524 40220=
94462 46/// /0909 10170 21002 39651 40229=
94510 46/// /1710 10153 20009 39830 40190=
94515 46/// /2113 10153 20007 39815 40176=
94552 46/// /2318 10140 21004 39668 40147=
94578 46/// /2707 10191 21008 30109 40120=
94584 46/// /2108 10160 20028 30013 40125=
94601 46/// /0504 10160 20101 30252 40269=
94610 46/// /1304 10203 20068 30222 40247=
94637 46/// /0901 10202 20034 39803 40244=
94638 46/// /1610 10158 20118 30223 40256=
94647 46/// /1507 10189 20007 30122 40245=
94651 46/// /1806 10186 20029 30174 40253=
94653 46/// /1805 10169 20043 30239 40258=
94659 46/// /1907 10141 20022 30050 40252=
94672 46/// /2805 10136 20052 30250 40255=
94693 46/// /2509 10117 20046 30180 40244=
94703 46/// /2208 10147 20053 30079 4////=
94729 46/// /1910 10097 20006 39307 40179=
94767 46/// /2219 10127 20076 30158 40164=
94776 46/// /2414 10122 20063 30148 40158=
94791 46/// /2116 10161 20026 30116 40123=
94802 46/// /2305 10154 20094 30183 40266=
94804 46/// /3212 10155 20096 30198 40237=
94821 46/// /3503 10115 20087 30155 40239=
94842 46/// /2709 10116 20070 30122 40223=
94850 46/// /2307 10111 20062 30169 40216=
94865 46/// /2107 10119 20062 30199 40224=
94907 46/// /2608 10133 20066 30196 40206=
94910 46/// /2208 10131 20025 39939 40197=
94926 46/// /1408 10100 21015 39504 40192=
94954 46/// /2319 10100 20047 30097 40209=
94956 46/// /0806 10080 20041 30182 40209=
94968 46/// /1606 10082 20014 39983 40201=
94975 46/// /2305 10096 20025 30168 40202=
94983 46/// /1606 10105 20035 30162 40187=
94995 46/// /2109 10141 20101 30022 40030=
94996 41582 23013 10187 20088 39955 40084 55001 71500 82800=
95711 46/// /2210 10125 20043 39897 40209=
95719 46/// /2311 10127 20058 39847 40188=
96995 46/// /0912 10274 20216 39785 40079=
96996 41575 51315 10284 20230 30091 40095 58011 70222 83239=
94934 37/// /2317 10115 30156 40180 52007 7//44=
94974 35/// /1006 10083 30183 40206 57007=
95288 35/// /1719 10217 30111 40126 57010=
95872 46/// /2506=
89002 43/// /0814 11173 21211 39871 49924 52001=
45007 32580 31305 10327 20224 30094 40103 58012 83200
333  58013 83830 =
68026 32960 01803 10095 20041 48554 53014
333 20051 555 10267 30111 60057=
68029 32960 01307 10135 20077 48565 52021 333 20168 555
10274 30108 60063=
68038 31960 01505 10100 20086 48588 52016 70500
333 20060 555 10263 30105 60058=
68054 31955 03601 10044 20044 48572 51014 71000 333 20005
555 10238 30106 60056=
68148 31960 00000 10089 20069 48560 52013 70500 333
20041 555 10231 30107 60055=
68234 32960 00505 10080 20048 48570 52010 333 20014 555
10250 30102 60054=
68328 32960 10403 10054 21012 48561 52008 80004 333 20018
555 10272 30104 60060=
91811 11498 51312 10275 2025/ 40103 60081 72182 852// 333 563//=
91843 31599 11708 10204 20150 40149 51010 70121 81100 333
564// 81825=
80022 01460 80000 10254 20240 30115 40117 60141 71796 83970
333 5699/ 58005 60137 83910 85457=
80112 01250 80000 10144 20137 37921 60141 75165 8672/
333 5600/ 58013 83705 83710 85458=
80222 31568 79901 10108 20093 37538 70521 83850
333 5639/ 58006 83620 84358=
80259 31460 50000 10204 20184 39060 70522 82830
333 5600/ 58004 82817 84360=
86330 32997 01303 10042 20027 40220 57004=
86360 32997 00000 10035 20030 40213 58006=
86460 32998 00000 10044 20024 40218 51002=
86560 32597 20105 10067 20036 40205 50001 81101=
86580 32996 00105 10044 20034 40213 51001 71000=
85406 32960 00504 10155 20125 40196 52004=
85488 32460 60908 10116 20087 40205 50005 86500
333 56000 86613=
85574 31930 02502 10042 20035 39620 40198 52010 71000
333 58027 56///=
85682 32560 80219 10128 20109 40131 57005 8522/
333 56889 85820 88457=
85743 11460 80309 10110 20091 40084 57015 60181 76266 8372/
333 56779 83812 88540=
85799 11458 80124 10101 20090 49978 57024 60051 71566 8802/
333 56089 88518=
85874 32680 71504 10035 20023 39260 49878 57029 76062
333 56669 83720 88540=
85930 11596 80330 10072 20060 49727 57055 60061 76065 887//
333 56899 88730=
85972 32497 83525 10080 20056 49837 57006 885//
333 56899 88614=
63726 31903 31402 10119 20119 38147 48504 74244 80001
333 20097 55078 59011 83080
555 10119=
63705 32560 42902 10241 20238 38859 48515 82905
333 20200 59014 82820 81922 83280
555 10///=
86218 32970 61305 10118 20099 40195 57013 86050 =
86233 32970 00000 10092 20086 40190 54000 =
65352 12960 70000 10242 20235 39940 40116 69954 83032
333 59010 83363 87076=
65361 32965 70000 10238 20234 39675 40112 82032
333 20235 58003 82362 87076=
65376 32960 70000 10233 20215 39658 40120 83032
333 20222 58007 83363 87076=
65387 11457 73201 10236 20227 30094 40122 60134 72162 82272
333 20236 58022 82810 86360=
78866 32584 21009 10255 20215 30177 40181 57016 82200 333
59003 82821=
68906 11498 43419 10115 20072 39977 40041 57012 60144 72500 84200
333 20102 91024 555 10163 20144 91004=
37735 42698 23401 10223 20153 40145 52002 82100=
71107 36/// /3312 10067 30103 40216 56006 333 70028=
71475 36/// /3105 10078 20068 30084 40177 51008 333 10198 20059
70002 555 32922 4015/=
71473 17/// /3103 30124 58001 69961 7//4/ 333 70006=
71632 17/64 /1605 10140 20119 39896 40124 69921 7//4/ 333 10171
20045 70006=
71135 36/64 /2003 10033 20015 39198 40291 51009 333 10094 20009
70000=
68454 31988 0//// 10040 21034 70400 333 20006 555 10171=
60351 32970 00000 10180 20171 40189 53006
333 01200 20142 95900=
60425 32960 30606 10226 20126 40168 58004 82032
333 01700 20206 82360 95900=
60444 32970 00408 10200 20143 39164 48583 58012
333 01800 20190 95900=
60467 33670 00808 10252 20158 40141 53006
333 02100 20247 95900=
60468 32970 10000 10176 20142 39259 48563 56009 80002
333 01400 20155 81070 95900=
60515 33960 01408 10240 20141 40177 53002
333 02100 20227 95900=
60581 32965 31108 10282 20127 40156 53004 83030
333 0//00 20258 83360=
50527 32970 02704 10261 20050 39435 40132 57013 333// 20089=
11406 32970 10000 10139 20094 39679 40232 52002 80001
333 20076 30003 50242 70000 81070=
11457 32986 69902 10118 20072 38963 48570 53002 81088
333 20070 31003 70000 81360 86070=
11520 32970 21903 10151 20076 39877 40237 58001 81041
333 20105 30009 50342 70000 81360=
11541 32970 61302 10138 20099 39731 40244 5//// 81038
333 20123 3/000 4//// 70000 81360 86270=
11636 32984 69901 10124 20043 39580 42868 52002 81046
333 20078 31004 50302 70000 81363 86071=
11679 32982 50000 10151 20065 39774 40252 52002 81041
333 20075 30004 50262 70000 81361 85073=
11723 32982 39902 10141 20067 39965 40259 50003 81041
333 20076 30002 70000 81361 83070=
11766 32984 12304 10132 20026 39381 42872 52004 80004
333 20091 30006 50292 70000 81073=
11774 32975 21702 10143 20079 39993 40261 51006 80002
333 20045 31004 70000 82073=
11787 32989 11903 10100 20007 38759 48579 52005 80001
333 20053 31002 70000 81070=
58634 32580 72004 10328 20236 40076 57020 82142 333// 20226=
57011 70000 83/// 90551
333 10128 20043
555 765// 81830 0/604=
57001 70000 81/// 90548
333 10148 20054
555 772// 82135 0/604=
71098 889// 333// 20213=
47101 32572 42304 10286 20127 30019 40104 57022 81502=
47105 31958 40504 10232 20155 30100 40130 52001 71011 80002=
47108 31940 52511 10266 20158 30015 40114 57016 71021 80001=
47115 31658 31801 10255 20219 39880 40131 57016 71011 83500 333
92032=
47133 32665 72304 10254 20153 30035 40112 57020 84502=
47138 32962 70507 10227 20172 30123 40127 57011 83032 333 92022=
47159 31950 81807 10210 20170 30049 40129 55013 71022 8803/ 333
92022=
47165 3155/ 82710 10234 20167 30070 40113 57021 71022 82501 333
92022=
47168 31660 31104 10213 20153 30049 40126 57020 80001 333 92022=
47184 32668 80205 10205 20162 30092 40118 57019 8352/ 333 92022=
47090 31950 21408 10186 20147 30113 40133 57016 71022 80002 333
92022=
47095 32660 62903 10269 20144 39932 40106 57022 81501=
47100 32462 61106 10188 20129 39181 40118 57013 82501=
47106 31950 41104 10193 20152 30091 40134 57014 71021 80001=
47112 32961 62708 10233 20158 30045 40123 57015 80001 333 92011=
47114 31558 62303 10271 20166 39939 40107 57016 71022 82531=
47119 31650 82705 10256 20171 30079 40118 57016 70522 83501=
47121 32965 72004 10275 20159 39838 40102 57020 83031=
47129 31958 82703 10229 20156 30098 40127 57022 71022 8801/=
47130 32962 81404 10184 20154 30078 40135 57011 8801/ 333 92021=
47131 31958 72002 10243 20151 30048 40113 57020 71022 80002=
47135 32960 81606 10245 20174 39837 40114 57016 8801/=
47136 32962 73403 10270 20165 39953 40112 57018 80002=
47140 31959 52912 10228 20152 30080 40115 57024 71022 80002 333
92011=
47143 31958 72902 10245 20158 30056 40121 57015 70522 84502=
47146 32963 20205 10289 20162 30046 40108 57025 80001=
47152 31940 81103 10214 20147 30088 40126 57014 71022 8802/=
47155 32960 41606 10229 20159 30121 40126 55018 84030 333 92011=
47156 32960 22707 10289 20170 30023 40105 57027 80009=
47162 31958 61604 10220 20158 30089 40126 57021 71022 83032 333
92022=
47170 32662 81411 10195 20163 30084 40124 57020 8252/ 333 92022=
47185 32660 81609 10211 20181 30036 40118 58014 8552/ 333 92034=
47189 32665 81104 10217 20188 30066 40125 58019 8562/ 333 92011=
47192 32960 33200 10271 20167 30096 40121 57024 80001=
26135 32997 22304 10126 20057 40221 53002 81042   333 20040   555
31002=
26229 32999 41505 10128 20058 40218 57006 80001
333 20014=
26313 32997 81803 10099 20059 40196 57018 8807/
333 20054=
26314 11498 81504 10102 20069 40186 57021 69982 78081 889//
333 20080 88914=
26324 32598 81502 10115 20051 40213 57007 889//   333 20030 88922=
26348 32999 21702 10120 20050 40242 58004 80002   333 20043=
26406 11564 81105 10129 20082 40190 57016 69932 78082 8395/
333 20081 91010 91113=
26422 32597 81703 10118 20070 40228 57008 8297/
333 20059 82926=
26446 32998 03001 10131 20056 40241 51001   333 20051=
26544 32962 71801 10126 20068 40243 52002 80001   333 20036=
13272 32970 03002 10147 20097 30143 40261 52009 333 20089 30003
55074=
13376 32698 63402 10142 20100 30005 40264 51004 86800 333 20099
31070 55098=
13388 32998 03202 10148 20095 30012 40251 52017 333 20097
31006 55079=
430013 700000 710000 720000 730000 740000 750000 999 070002
252404=
33275 11497 83507 10118 20098 40185 52012 69902 78082
8537/ 333 20118 85912=
33301 32997 13403 10131 20076 40268 52010 80001 333 20060=
33325 32998 03302 10141 20084 40241 52005 333 20091=
33377 32697 73605 10139 20085 40192 52006 83131 333 20117=
33415 12997 03404 10122 20088 40260 52009 69902 333 20080=
33429 12997 03204 10134 20084 40256 52010 69912 333 20073=
33466 12998 10103 10158 20094 40211 52012 69912 80001 333 20120=
33526 32960 03103 10126 20084 40272 52007 333 20073 555 52004=
33562 12997 03403 10137 20098 40235 52017 60012 333 20093=
33761 11998 63305 10149 20122 40196 54000 60022 70162 86080 333
20119=
33889 32998 43209 10167 20107 40202 52006 84030 333 20124=
33983 32697 62304 10209 20161 40136 53008 82101 333 20154=
34415 31212 83201 10176 20171 40140 52007 71042 886// 333
20151 88705=
34523 11997 80801 10213 20164 40139 57002 69942 70362
86057 333 20180=
15004 32970 11401 10114 20056 39937 40269 52011 81040 333 20071 31007
=
15020 32562 62907 10129 20106 30059 40254 52013 84830 333 20112 30010
=
15090 01560 73207 10129 20106 30116 40242 52016 60032 72162 86470 333
20115 31011 69907 555 60033=
15108 31/01 92306 10004 20004 38142 48557 53004 74544 333 21001 31///
555 60046=
15120 32660 12001 10112 20081 39769 40262 52006 81100 333 20065 30006
=
15150 32560 83407 10134 20103 30015 40243 52007 8587/ 333 20120 30010
555// 60016=
15200 32965 00503 10124 20077 30112 40253 52003 333 20068 30005=
15260 32565 20000 10132 20099 39729 40254 53016 82300 333 20105 30010
95050 555 60004=
15280 31/05 83612 11028 21028 37542 47076 53006 74144 883// 333 21038
3//// 41998 91118 555 60011=
15292 32980 01402 10104 20095 39971 40263 52003 333 20054 30006 95000
=
15310 32570 42907 10156 20121 30133 40213 52005 82241 333 20113 31009
555 60000=
15346 32662 20505 10164 20086 39950 40231 52008 82200 333 20124 30013
95090=
15350 12560 23204 10169 20107 30114 40229 52008 69922 82800 333 20120
31009 555 60008=
15360 32962 33610 10162 20135 30177 40188 52005 83030 222// 00186
20503 333 20149 92437=
15410 32960 10000 10156 20105 30142 40236 52018 80001 333 20104 30009
=
15420 12960 03402 10162 20104 30118 40226 52010 60152 333 20085 32010
91002 91202 555 60171=
15450 12960 60502 10144 20144 30008 40241 52020 69912 86070 333 20115
31011 555// 60013=
15460 32560 20204 10160 20103 30201 40225 52008 81140 333 20124 30010
555 60012=
15470 32960 30000 10161 20132 30117 40241 52022 83080 333 20115 31010
555 60033=
15480 32960 03610 10156 20115 30190 40206 52006 222// 00180 2//// 333
20138 31014 92437 555 60100=
37549 42897 39902 10247 20136 40151 56006 82230=
60715 32456 53006 10207 20177 30189 40194 53002 85800
333 20189 83813 84620=
60725 33965 02202 10189 20142 30039 40205 53001
333 20149=
60735 32965 03604 10211 20131 30114 40195 52005
333 20196=
60760 32957 01114 10239 20156 30064 40172 53006
333 20230=
60765 32960 01104 10235 20190 30187 40193 53001
333 20206=
60769 32960 00506 10238 20182 30180 40185 53002
333 20206=
60775 33975 20704 10200 20138 39843 40194 53003 80002
333 20180 55124 22622 82070=
17600 32960 42605 10235 20180 30061 40077 53003 80002
333 20153 50741 55134 84075 92417=
17609 32260 51206 10241 20211 30073 40075 51006 84604
333 20191 50871 55134 82705 83708=
36911 12699 73002 10185 20045 39192 40102 52004 60070 85530
333 20111=
36974 12798 32702 10140 20009 37987 48484 57008 60030 83200
333 20054=
36982 12599 22307 10018 21088 36500 47042 54000 69962 82800
333 21040=
38345 12999 32702 10151 20029 38772 48481 53009 60020 83030
333 20090=
38353 12598 60000 10182 20090 40097 52003 60050 83150 333
20100=
38613 42699 10000 10235 20085 40092 57012 69990 81200 33320
20117=
12510 32799 42206 10062 20025 38444 48559 51005 82031
333 10064 20042 41998 55110=
12465 32965 11602 10148 20083 30022 40251 57002 80001
333 10166 20079 30004 55129 23267=
12500 11999 30000 10149 20080 39826 40234 55000 69902 70161 82031
333 10163 20080 32004 55115 79999=
57574 32980 52007 10330 20235 40038 57017 83042 333 20260=
57671 32968 71606 10323 20247 40041 57019 8703/ 333 20255=
57872 32680 42006 10334 20220 40068 57017 82242 333 20249=
53740 11662 81407 10199 20138 40073 52002 69901 76000 8152/
333 20192=
56151 11580 70000 10125 20066 36632 57007 69941 79500 879//
333 00353 20063=
26554 32965 03001 10140 20076 40248 52007   333 20069   555 31005
52003 90012=
26666 32960 00102 10159 20070 40238 52006   333 20080   555 30006
52004 90013=
26850 32970 10401 10158 20045 40253 52007 80001   333 20068   555
30004 90010=
26863 32960 03402 10146 20076 40239 51006   333 20037   555 31003
52002=
26941 32960 00000 10137 20071 40254 52002 333 20067 555 31006
52006 90011=
26951 32965 03001 10133 20092 40256 52008   333 20066   555 31005
52004 90014=
33008 32970 00000 10158 20056 40260 58002 333 20058 555
31003 52001 90010=
33019 32960 03201 10142 20089 40262 52004 333 20078 555 21006
52003 90012=
33036 32970 03302 10149 20070 40242 52008   333 20089   555 30006
52004 90011=
33041 32965 03502 10154 20088 40238 52010   333 20097   555 31009
52007 90013=
41240 31958 03407 10314 20281 30007 40010 333 20302 59004=
41244 36/// /0508 10404 20092 39677 40029
333 0E029 20269 59000  =
41246 32560 20607 10340 20282 30005 40010 82500
333 20283 59013 82620 =
41254 22965 00307 10280 20081 38024 48279 333 20187 59001 70287=
41256 31958 00509 10350 20121 39996 40005 70600
333 20299 59010 =
41262 36/// /1410 10386 20165 39818 40004
333 0E031 20297 59000  =
41268 32960 02516 10383 20266 39995 40010 333 20288 59014=
41288 31357 11106 10307 20249 30010 40032 70600 81600 333 20265 59001 81708=
41304 36/// /2512 10388 20132 39707 40025
333 0E028 20270 59000  =
41312 36/// /2106 10307 20260 39999 40040
333 0E/// 20281 59014  =
41314 32962 02410 10375 20107 39545 40058 333
20257 59012 =
41316 32562 41906 10317 20246 30011 40036 84500
333 20289 59017 84625 =
26645 32975 22401 10137 20050 40245 51001 80001   333 20039   555
31006 52002 90010=
26659 32965 03502 10140 20056 40248 52005   333 20097   555 30007
52007 90009=
26763 32960 03501 10147 20070 40240 52005   333 20045   555 31005
52004 90010=
26825 32960 31502 10141 20067 40260 52005 80001   333 20044   555
31002 52001=
26832 /2965 21001 10147 20067 40258 52007 80001   333 20057   555
31004 52002 90011=
26887 32970 20206 10150 20080 40228 52010 80002   333 20090   555
31009 20008 90010=
26961 32965 03502 10141 20074 40248 52008   333 20032   555 31004
52001 90012=
33027 32970 10202 10149 20041 40257 52010 80001   333 20084   555
31007 52006 90013=
60360 31330 31704 10170 20144 40145 51003 71044 83702
333 01100 20138 83713 95910=
60390 32558 10000 10185 20174 40181 53005 81200
333 01300 20160 81826 95900=
60402 32960 00000 10185 20152 40187 53004
333 01500 20165 95900=
60490 32960 60000 10200 20182 40163 50005 80002
333 01400 20194 86073 95490=
60525 32965 11314 10262 20100 40186 52015 80002
333 02400 20254 81073 95900=
60531 32565 60000 10235 20171 40174 53009 84932
333 02100 20210 83826 82930 95900=
60571 32965 50906 10243 20033 39268 48570 53006 80002
333 0//00 20234 85073 95900=
60590 32965 00000 10220 20091 40156 53008
333 01600 20210=
60656 32960 20107 10260 20049 40106 53004 80002
333 0//00 20260 82073=
60670 32780 20908 10256 20088 39069 48541 53011 82200
333 01800 20228 82856 95900=
60680 32970 21014 10255 20020 38656 48524 53001 82030
333 01500 20196 82362 95900=
58926 32780 61401 10347 20214 40092 57025 84140 333 20231=
38149 42998 09901 10760 21143 40152 58003   333 21123=
38178 32998 02806 10249 20027 40123 57001   333 20141=
38264 35998 03603 10262 20074 40167 52009   333 20130=
38403 42998 00502 10263 20082 40152 53014   333 20158=
38413 32998 00604 10252 20017 40155 52014   333 20146=
38457 32998 00000 10240 20019 40115 52003   333 20129=
38565 32998 60405 10254 20073 40104 53002 80003   333 20120=
38579 32999 60703 10245 20045 40111 51002 80006   333 20131=
38583 42997 12902 10261 20131 40118 52002 80001   333 20110=
38611 42697 20802 10236 20118 40098 57012 82300   333 20137=
38618 12699 13302 10247 20112 40083 57003 69900 81200   333 20131=
38683 42997 83606 10260 20000 40115 52004 80007   333 20140=
38696 32999 71404 10232 20062 40097 53009 82042   333 20149=
38812 42997 63206 10271 20078 40083 52004 83031   333 20184=
38927 31996 72606 10290 20041 40071 52006 70522 87030   333 20190=
11414 32983 19901 10154 20085 39525 42857 52004 80001
333 20093 30004 70000 81070
555 364// 50123 60125 70127 80125=
11438 32980 10000 10144 20078 39849 40238 53005 81030
333 20080 30004 50042 70000 81361
555 365//=
11502 31878 72101 10131 20079 39790 40239 52007 703// 87070
333 20113 30005 50332 70000 87357
555 370// 50132 60134 70143 80135 90127=
11538 32584 69902 10149 20090 39645 40238 53001 81141
333 20096 30006 70000 81823 83358 85070
555 368// 50147 60154 70152 80136=
11628 32965 61702 10151 20065 39619 40239 53001 80002
333 20105 30007 50412 70000 86070
555 356//=
11643 31980 21804 10135 20048 39295 42862 58001 702// 80001
333 20057 31003 50232 70000 82070
555 356// 50117 60115 70117=
11648 32980 41203 10150 20079 39961 40252 5//// 80002
333 20099 30/// 70000 84070
555 363//=
11683 32983 61805 10131 20039 39389 42867 53002 80002
333 20092 31008 50262 70000 86070
555 354//=
11693 32980 69902 10128 20066 39778 40261 50003 80002
333 20068 30002 50292 70000 86073
555 366//=
11698 31982 21203 10139 20046 39854 40256 50002 702// 80002
333 20072 30005 50312 70000 82080
555 354// 50151 60362 7//// 8//// 9////=
11710 32975 59902 10123 20051 39648 40260 52004 80001
333 20084 30002 50312 70000 85070
555 361// 50118 60118 70135 80136=
41859 11456 70502 10297 20260 30001 40040 60026 70262 85420 333 56190
58017 70172 85616 86458=
41883 32456 70902 10322 20250 30013 40033 86820 333 56490 58015 70000
86616 87458=
41891 11456 61202 10288 20261 40044 60318 70192 84870 333 56990 58016
70310 83615 85362=
41907 32458 51302 10344 20270 30009 40027 84831 333 56399 58003 70000
82615 83825=
41923 32450 61801 10336 20240 30025 40035 85801 333 56409 58012 83615
83825=
41936 31356 72604 10348 20260 40031 70511 83630 333 56990 58006 70000
81708 83362=
41943 32460 30000 10318 20250 30038 40047 82530 333 56990 58010 70000
82618 83362=
41950 32450 50000 10338 20260 30027 40031 85400 333 56400 58011 70000
83616=
41978 11340 62006 10312 20250 40037 60011 70262 8563/ 333 56991 58000
70008 82708 83614 84360=
41992 11456 40000 10314 20260 30027 40031 69906 70525 83430 333 56990
58005 70060 82616 82825 84362=
16597 32960 00705 10220 20187 30112 40198 52011
333 20174 30013=
36864 12699 62703 10186 20046 40101 52010 60020 86200   333 20127=
10146 20133 3/012 91124 =
40356 42960 01212 10288 20020 39130 48482 333 20190 59017 555
04410 50040=
40357 42962 01012 10310 20030 39457 40051 333 20220 59005=
40360 42960 03308 10250 20110 39504 40059 333 20190 59031=
40361 41958 00910 10306 20040 39318 40033 70500 333 20228 59013=
40362 42962 00612 10330 20050 39554 40035 333 20261 58001=
40373 42960 00214 10354 20010 39638 40023 333 20270 59006=
40375 42960 03603 10270 20080 39216 40038 333 20230 59032=
40377 42960 00210 10350 20040 39589 40032 333 20260 59003=
40394 42962 00706 10310 20010 38970 48483 333 20262 59001 555
04410 50014=
40400 42960 02304 10276 20250 30025 50052 333 20200 59010=
40405 42960 00802 10330 21030 39307 49990 333 20250 59001=
40416 42960 03310 10390 20110 39988 40007 333 20290 58003=
40420 42960 03609 10396 20040 39824 40017 333 20290 59010=
40430 42960 00000 10340 21050 39345 40019 333 20270 59016=
40437 42960 01605 10360 21010 39365 40001 333 20270 59005=
40438 42960 01506 10360 20020 39375 40030 333 20290 59003=
40439 42960 00000 10288 20230 30034 40046 333 20218 59006=
41024 42960 03608 10320 20110 30015 40034 333 20236 59025=
41030 42960 00000 10360 20130 39762 40021 333 20280 59023=
41036 42960 03214 10318 21020 38531 48482 333 20240 59016 555
04410 50013=
41055 42960 03309 10290 21030 38350 48491 333 20220 59005 555 04410
50019=
41114 42960 00114 10250 21006 37968 48478 333 20169 59014 555
04410 50005=
41128 42960 00000 10330 21050 38757 48476 333 20190 59008 555
04410 50003=
41136 42960 02307 10320 21110 39253 40019 333 20220 59005=
41140 42660 12506 10340 20290 30030 40038 81100 333 20280 59002
81830=
16059 31545 50302 10170 20158 39898 40239 53002 71011 82570
333 20150 82630 84360=
16080 32860 51105 10188 20140 30115 40237 55002 85050
333 20177 85358=
16153 32997 00605 10230 20156 39965 40221 55001 90545 333 20220
30/// 55107 22737 555 0114/=
16105 31956 00304 10171 20134 30237 40243 51000 71000
333 20145=
16191 32970 02105 10166 20113 30223 40240 51002
333 20118=
16158 32980 01104 10144 20131 30212 40219 51001 90545 333 20142
30/// 55115 22886 55300=
16242 32970 00202 10193 20095 30203 40206 51002
333 20158 30/// 555 0////=
16310 32998 03611 10188 21063 39973 40190 53003 90545 333 20176
30/// 55114 22368 55310 555 0100/=
16261 32570 13012 10196 20134 30142 40213 53009 81100 90545 333
20156 30/// 55125 22868 55308 81830 95000=
16320 31960 00410 10210 20140 30182 40194 53010 70200 90545 333
20200 30019 55120 22904 55304 555 0321/=
16420 32597 33306 10228 20191 30125 40189 53005 83200 90545 333
20214 30/// 55120 22482 55304 83820 555 0100/=
16429 32966 00000 10174 20168 30187 40198 53006 90545 333 20148
30/// 55107 2//// 55306=
16470 31156 30617 10186 20177 39950 40182 53001 7100/ 83600 90545
333 20186 30/// 55097 22557 55300 22013 83703 95000=
16410 33970 02103 10220 20134 30061 40198 53006 90545 333 20192
30///=
16560 32975 00401 10174 20153 30201 40208 53008 90545 333 20152
31014 55119 2//// 55300=
59303 32578 21401 10350 20210 40093 57026 82102 333 20241=
59626 11575 71403 10304 20257 40079 57012 69901 70080 86902
333// 20277=
16066 31858 60000 10180 20145 39992 40245
52003 71022 86050 333 30/// 86357 =
16084 31940 00000 10176 20159 30075 40239 51003 71000 90545 333
20090 30/// 55110 22616 55301=
16120 32965 00410 10226 20157 30221 40224 53003
333 20206 97065 555 0200/=
16090 32880 60301 10176 20159 30155 40237 53002 86050 90545 333
20153 30/// 55123 22711 55300 86358=
16170 32965 00801 10188 20138 30176 40221 51004
333 20157=
16206 32970 20405 10176 20134 30205 40213 54001 80004 90545 333
20144 30///=
16289 32970 00607 10224 20123 30124 40207 53004 333 20175 30///=
16405 32960 02302 10226 20175 30156 40196 50009
333 20186 95400=
16460 32960 02401 10196 20154 30175 40195 52010
333 20150 95000=
16362 32460 21102 10198 20166 30175 40193 52007 82200
333 20153 82815=
16008 42970 00000 10078 20061 38621 48577 56002 90545 333 20074=
16020 32965 00000 10150 20123 39962 40250 53007
333 20126=
16040 33965 00000 10092 20085 39351 42867 53002 90545 333 20070 =
16110 32980 00000 10184 20082 30213 40236 52003 90545 333 20180
55121
22773 55307 555 0100/=
16134 32989 03104 10088 20042 37923 48589 53003 90540 333 20086
30///
55069 2//// 55310=
16149 32980 00000 10150 20134 30221 40237 53005 90545 333 20111
30///=
16400 33598 20806 10210 20187 39923 40205 54000 82100 90545 333
20196 30/// 55127 20000 55309 22/// 82820 555 0100/=
16453 32997 00000 10206 20118 30120 40197 53000 90545 333 20198
30/// 55105 2//// 55305 98077 555 0000/=
16480 32998 00603 10236 20154 30132 40191 53004 90545 333 20192
30/// 55123 22338 55308 555 0100/=
58241 11362 80903 10233 20223 40080 57016 60101 78096 889//
333 20221=
58820 32676 62002 10321 20220 40096 57017 86100 333 20205=
54335 32562 11803 10294 20145 40121 57025 81100 333 20158=
33924 32598 73606 10171 20133 40163 52015 83939 333 20170=
34504 11496 70107 10140 20132 40142 52006 69962 79598 87900 333
20140 87910=
33631 32998 00000 10145 20078 40268 52001 333 20061=
33506 11598 83404 10132 20113 40167 53010 69902 78088 869// 333
20130=
33663 32998 03101 10164 20102 40238 52008 333 20120=
56492 31956 82703 10276 20205 39605 49987 57027 71000 8804/
333 05154 20228=
60355 32965 01810 10194 20157 40191 51005
333 0//00 20174 95900=
60445 32970 10000 10210 20120 39034 48567 58004 80002
333 01400 20192 95900=
60535 33970 00000 10180 20100 38870 48554 54000
333 01100 20170 95900=
60550 33970 50000 10198 20046 38721 48571 52006 83032
333 01300 20165 83360 83075 95900=
60559 32960 01013 10244 20159 40172 53008
333 0//00 20237=
60640 32960 00000 10235 20030 40120 54000
333 20220=
38392 32998 03403 10266 20051 40165 51014 333   20151=
38507 32498 51706 10241 20193 40133 52013 85500 333   85616
20185=
38545 32998 63604 10258 20121 40146 52011 82083 333   20143=
38687 32997 73606 10261 20015 40118 52010 82032 333   20141=
38763 32898 12502 210283 20197 40129 52006 81030 333   20229=
38880 21699 63502 10286 20092 40135 52008 70182 83309 333
69900 20246=
38895 32997 80602 10259 20124 40135 52026 889// 333   20198=
38987 32996 20406 10296 20038 40081 58007 82080 333   20195=
38911 32998 63405 10288 20004 40083 52009 83032 333   20185=
38647 32998 23101 10284 20153 40153 52004 82040 333   20213=
38774 32898 20000 10290 20127 40137 58011 82030 333   20236=
38799 32997 70202 10289 20121 40121 52027 80003 333   20184=
38806 32997 63602 10272 20019 40099 52008 80002 333   20189=
38886 32693 62503 10262 20234 40123 52014 86500 333   20212=
38915 32599 63204 10301 20011 40066 54000 84260 333   20204=
38750 32597 22507 10246 20187 40139 52005 82100 333   20220=
38974 32998 73206 10272 20088 40118 52027 87070 333   20230=
38388 32998 00902 10280 20017 40156 52009 333   20136=
38656 32998 00702 10299 20040 40135 52004 333   20257=
82900 333 20124 93905=
40155 32560 12710 10254 20180 30069 40079 53002 81100 333 20198=
40180 31435 71510 10221 20191 30037 40084 52002 71042 87600 333 20195=
40199 32965 00412 10286 20130 30070 40073 52004 333 20248 51431 55124=
58730 11680 61802 10320 20219 40089 57025 69901 70060 82942
333 20217=
58731 32780 42004 10320 20219 40091 57021 81132 333 20210=
58754 32567 71403 10302 20251 40090 57020 8713/ 333 20240=
58911 32680 52003 10324 20220 40103 57020 85242 333 20211=
58343 11456 81404 10225 20222 40071 57026 60411 79196 889//
333 20219=
12215 36/// /9903 10149 20090 30035 40210 54000
333 10198 20130 70000=
57649 11680 71803 10311 20223 40033 57023 69901 70060 8684/
333 20231=
57776 31080 62009 10224 20182 40089 57013 70040 83242 333
20187 91123 91520=
57845 11670 72203 10254 20241 40070 57013 60011 78060 879//
333 20239=
57965 11580 21807 10317 20206 40073 57020 60011 70060 82202
333 20240=
58737 32680 60000 10324 20241 40092 57021 83142 333 20217=
58846 32660 61401 10303 20253 40087 57027 82132 333 20251=
58918 32680 61603 10326 20212 40101 57023 86242 333 20230=
59133 32580 21806 10288 20244 40105 57013 81102 333
20252=
57206 11580 81602 10239 20172 40009 57014 69901 70080 884//
333 20186=
57602 31857 73201 10290 20221 49986 57021 71000 87500 333
20223=
57713 32580 31808 10321 20185 49992 57021 83100 333 05103
20231=
54346 32665 23202 10277 20125 40125 57026 82500 333 20138=
47401 41370 60605 10100 20079 30106 40119 58011 70252 86500=
47412 41458 83406 10125 20107 30090 40121 58005 75052 886//=
47420 41/65 70307 10072 20052 30065 40112 52001 70252 8727/=
47426 41/70 71403 10118 20101 30063 40107 58007 70254 872//=
47582 41/60 62903 10175 20124 30125 40150 58009 70182 82202=
47590 42/80 41506 10232 20122 30068 40118 55005 83230=
47600 42565 60404 10194 20147 30139 40155 57004 86200=
47648 42975 71505 10218 20145 30101 40133 58008 80002=
47662 42960 71805 10256 20128 30079 40120 56013 82032=
47678 42570 72503 10237 20200 30046 40138 56008 81102=
47740 42960 70903 10200 20159 30103 40140 56015 86072=
47778 42960 82603 10241 20185 30051 40137 58010 8807/=
47807 41956 83403 10231 20178 30111 40128 58020 70522 8507/=
47827 42560 71702 10247 20198 30098 40134 56017 8177/=
47843 42960 80703 10214 20180 30092 40122 58024 8807/=
47898 42/65 71101 10234 20205 30099 40137 58012 81132=
47909 42/70 73602 10274 20228 30129 40137 56010 84272=
47918 42/81 31504 10304 20243 30114 40122 56012 83201=
47936 42/80 61604 10293 20235 30071 40131 56010 85202=
47945 41/70 61405 10288 20250 30113 40136 56018 70241 81102=
47971 42/82 72802 10284 20226 30145 40154 58007 81202=
47991 42/82 20904 10293 20231 30138 40148 56009 82201=
58013 82823=
10317 20230 32/// 55082 58000 70153=
81100 90545 333   10340 20230 31/// 55093 562// 58025 81800
=
81080=
85470 333 20137 32013 50154 55095 22405 70119 85632
87458 92437=
84270 333 20161 32016 50211 55033 21220 70024 84836
87360 92418=
20069=
11032 21121 70000=
70026 555 30320 40020=
10205 20125 70000 555 30217 40130=
10261 20107 79999 555 32631 40191=
11024 21073 79999 555 19999 29999=
92022=
92011=
58017 70172 85616 86458=
70200 83800 22200 06079 20100 319// 40501 5//// 85110=
22212 00254 20000 32200 40401 50000=
22271 00024 20805 329// 41216
333 80025=
22282 00249 20100 33122 40701 50901=
41598 11310 10200 2015/ 40210 56010 70200 81100
22223 00205 20302 313// 40604 80170=
41697 62824 10150 20144 40100 58006 70322 86400
22233 06163 1//05 20302 332// 40704=
11154 12316 13404 14844 15543 18003 19042 22055 23102 35046 50057
51000 52000 53000 70079 71066 72685 73130 74500 75129 76940 77000=
15549 18002 19013 22055 23025 35047 36071 50055 51250 52001 53101
70001 71000 72886 73130 74012 75424 76900 80010 05372 07234 10082
11114 12423 13405 14882 15549 18002 19015 22055 23024 35047 36071
50055 51250 52001 53101 70001 71000 72886 73134 74011 75425 76900
90198=
62120 02064 99564 10021 46596 ///// 1//// 20100 40080 52017 22200
80112=
10402=
62103 02064 99499 70029 46/99 /2013 1//// 2//// 4//// 5//// 22200
00119 10905 70024 555 05006 07195 10064 11078 13419 14930 17365
35089 36095 95580 05005 07168 10068 11076 12426 13419 15581 17355
35084 36103=
62301 02063 99523 70045 46/// /1906 1//// 2//// 40130 22200 00139
10603=
80077=
57806 32580 41805 10268 20180 40034 57011 84100 333// 20206=
53798 32960 73604 10252 20142 30020 40109 57007 8703/ 333//
20199=
51288 32780 72503 10233 20032 38281 57003 81402 333 00003
20107=
51334 11780 73601 10250 20092 40069 57014 69901 70060 81532
333 00252 20178=
51241 11680 70000 10145 20061 40099 57001 60091 70086 83432
333 00254 20095=
51346 11780 72503 10212 20080 40083 54000 69901 70080 874//
333 00457 20179=
52645 32680 62905 10111 21011 36805 57002 86300 333 00005
20008=
52418 32780 10702 10309 20044 38778 49991 57016 81102 3332/
00103 20153=
52955 32580 70702 10172 20033 36970 57011 86202 333 00203
20071=
52818 32675 10701 10194 21048 37238 57009 81100 333 00204
20077=
56029 11575 80000 10069 20039 36526 52003 60111 76166 8372/
333 00861 20059=
52633 11680 70401 10083 20031 36768 57002 69901 70060 878//
333 00101 21001=
53664 32970 81406 10224 20175 40082 57002 8807/ 333// 20179=
53853 11958 81102 10187 20151 40080 57001 60011 76060 8802/
333 20184=
54764 32962 20407 10214 20150 40123 57015 80002 333// 20174=
56144 11780 22003 10213 20072 36841 57018 69901 72500 82400
333 00351 20113=
54135 32680 62503 10307 20082 39904 40111 57034 86102 333//
20151=
47575 42/65 73005 10170 20117 30127 40131 56006 86601=
47585 42/75 20204 10161 20119 30060 40115 53001 82200=
47598 42/62 11702 10188 20116 30127 40133 56003 81200=
47602 42/75 13407 10183 20125 30131 40151 56009 81101=
47618 42/62 73003 10252 20117 39417 40088 56018 81201=
47624 42/80 21205 10283 20105 39977 40104 56011 82202=
47636 41958 82503 10279 20142 30063 40126 56013 70522 80007=
47655 42960 72705 10239 20135 30072 40125 56016 80002=
47750 42970 70206 10230 20151 30113 40138 56014 80002=
47755 41950 70103 10214 20174 30108 40131 58016 71022 82032=
47772 41958 82504 10272 20124 30039 40133 56012 70511 80007=
47800 41/56 71302 10212 20172 30111 40133 57016 71022 81132=
47815 41/56 70102 10231 20176 30117 40132 57014 71022 81132=
47817 42960 82204 10225 20191 30088 40129 57017 8807/=
47830 41/56 71004 10247 20202 30115 40132 56021 71011 8143/=
47837 42962 81302 10249 20204 30115 40136 57019 8807/=
47891 42962 80401 10260 20168 30118 40129 58020 82037=
47899 42960 82302 10221 20183 39926 40140 58009 8801/=
47927 42/80 51704 10318 20247 30078 40124 56010 85201=
51828 31950 03603 10236 20081 38580 40036 57004 70600 333//
00552 20172=
51076 32680 72906 10220 20086 39224 40045 57002 82462 333
00052 20147=
51243 11880 73605 10226 20053 39545 40057 52007 69901 70080
86402 333 00356 20189=
51431 32680 21404 10197 20093 39362 40111 57010 82900 333
00554 20119=
51463 32680 73606 10218 20062 39036 40067 52019 82102 333
00200 20167=
52203 32980 70000 10334 20078 39191 49996 57016 80002 333
00002 20149=
51053 11570 82707 10142 20122 40090 52025 69901 78080 879/2
333 00460 20133=
51379 32680 53205 10275 20093 40041 52004 82102 333 05204
20130=
52118 32780 31403 10252 20038 38220 57009 82102 333 00202
20095=
51330 32680 40903 10177 20031 40066 57007 84202 333 00000
20094=
51365 32970 72906 10260 20075 40051 52010 80002 333 00004
20133=
51477 32675 72707 10246 20101 40031 52010 81102 333 05105
20111=
51720 32580 12204 10256 20062 40027 57010 81102 333 00201
20140=
52101 32880 63604 10246 21006 38300 57004 82102 333 00103
20086=
51356 32770 73203 10220 20102 40082 52017 82462 333 00456
20151=
51567 11780 70703 10250 20099 40015 57008 69901 72580 83902
333 00000 20143=
59985 32580 21403 10319 20266 30072 40077 57007 82900 333//
20273=
56074 32580 72503 10151 20051 36667 57005 878// 333 00203
20074=
52681 11980 70404 10200 20106 38580 40041 52006 69901 70060
8703/ 333 00258 20160=
54563 32580 21103 10266 20137 40123 57022 82100 333 20130=
96315 35475 70306 10319 20222 40063 82842
333 82818 86080=
91577 21570 81906 10217 20169 40101 53014 69921 76022 8387/
333 5646/ 69927 82820 88465
555 10243 20189 60124=
91579 06/// /1202 10214 20211 40093 53003 60031
333 60037
555 10240 20198 60074=
91582 23458 81702 10215 20208 40094 53004 60011 8687/
333 56400 60017 85810 83630 87459
555 10234 20192 60224=
91583 26/// /2402 10228 20201 40097 53007
555 10244 20193 60194=
91587 06/// /1604 10205 20198 30053 40103 52007 60082
333 10218 20196 55/// 60027 70160=
91590 21562 81404 10209 20181 40105 53003 71522 8582/
333 83820 85640 88461
555 10227 20180 60114=
91592 21581 81706 10209 20181 40106 53003 71522 8687/
333 56479 85820 84636 87460
555 10224 20180 60154=
71915 11466 80315 11035 21058 30025 40107 58006 69901 77122
8157/ 333 10008 21036 42007 79999 90931 555 19999 29999 33524 40121=
71831 11669 80307 10069 20031 39878 40155 57018 60011 76182
885// 333 10157 20028 70010 90942=
68040 32960 00510 10105 20081 48570 52017 333 20055 555 10272 30106
60058=
91753 22370 51108 10274 20226 40110 53023 85800
333 81808 84816
555 10294 20250 60024=
91754 22475 20704 10263 20219 40113 53019 82200
333 82819
555 10293 20236 60024=
45011 42475 51313 10322 20257 40113 58011 85200
333 58016=
71936 11 77 42902 10085 20073 39970 40228 55007 69921 71582 81571
333 10131 21004 70002 90926 555 31817 40160=
71951 32980 11905 10148 20072 39934 40197 51014 80001 333 10238 20067
70000 555 31820 40040=
78894 36/// /0910 10256 20190 30118 40178 56017
333 10295 20256 58000=
67341 32958 03306 10170 20162 40221 52014
333 20160 50//0 55/// 555 10000=
63682 32580 10505 10230 20/// 38826 48/// 81301
333 20182 55094 59012 81820 81723
555 10210=
65306 32960 71808 10260 20228 39776 40101 85032
333 20251 58014 85363 83076=
65319 32960 7//// 10235 20220 39603 40115 80006
333 20232 58003 87276=
65330 32460 71602 10234 20215 39685 40121 8353/
333 20229 58018 83610 87361=
65335 11460 7//// 10220 20206 39865 40131 60124 76162 8557/
333 20215 58025 85613 87361=
65344 12458 73004 10245 20235 30107 40117 60122 8397/
333 20238 58024 81612 81926 87362 94962 95872=
63674 32570 71604 10218 20188 39053 48501 8255/
333 20189 55084 59008 82620 86362
555 10198=
63702 31940 61805 10200 20152 70644 80008
333 86280
555 10170=
63602 32970 20903 10250 20179 38622 80001
333 20177 59011 82080
555 10203=
85442 11565 53407 10153 20142 40208 52009 60021 70155 85500
333 56700 85625=
71892 11480 70202 10137 20100 30155 40160 50001 60021 72998 84892
333 10169 20096 70018 90926 555 33017 40011=
61968 32575 40908 10284 20204 40157 84800
333 02000 20211 55077 59013 83826 92448=
61970 36/// /1508 10272 20215 30167 40178
333 20252 59013=
61976 12470 41217 10273 20231 40179 69944 84200
333 02316 20241 55087 58000 84816 92448=
61980 32575 11012 10265 20178 40205 81200
333 01800 20189 50414 55061 58000 81825 92438=
67005 32580 31508 10285 20232 40159 83800
333 02500 20259 55025 59016 83823=
61996 32380 83023 10167 20151 40166 85832
333 01500 20153 50064 55021 59059 81708 86360 92458=
61998 12580 63119 10041 20003 39875 49910 50011 60064 83232
333 10052 20023 32002 55001 59048 70060 83823 85075 91143=
65338 32460 70000 10232 20217 39939 40129 8257/
333 20232 58017 82613 87461=
91945 06/// /2202 10218 20208 30127 40132 51012 60041 333 55000
60027 555 1//17 58033=
61627 32958 02406 10252 20204 30092 40114
333 01600 20252 50730 55/// 58025=
61641 32458 52602 10233 20213 30086 40119 85500
333 02100 20233 50804 55041 58011 85613=
61695 32460 61206 10240 20232 30118 40144 83572
333 02200 20231 50244 55/// 58035 83616 83363=
61666 33958 70000 10240 20237 30118 40128 8707/
333 01400 20195 50691 55/// 58028 87363=
61697 32958 70000 10246 20237 30129 40143 87070
333 02000 20245 50194 55/// 58035 87363=
61698 32958 70000 10250 20243 30122 40133 8437/
333 02400 20247 50/// 55/// 58034 84916 87363 94924 95834=
61699 11958 81408 10240 20200 39913 40098 60504 7006/ 8802/
333 02036 20260 50664 55/// 58003 88463=
83208 32970 01406 10190 20182 39439 40116 333 58007=
83768 32970 02204 10130 20100 39527 40174 53007=
83840 32270 81202 10108 20095 39164 40202 55001 886//=
83899 32670 12803 10110 20100 30211 40211 54000 81500=
83612 32970 00904 10150 20116 39521 40156 56005=
83716 32970 01806 10128 20081 39642 40158 56001=
83721 31956 01508 10120 20106 39428 40186 56004 71011=
83722 31962 00810 10144 20130 39468 40166 56003 71011=
83780 31450 70000 10135 10137 20117 39280 40185 58015
11022 86530=
83649 21456 82106 10230 20216 40175 58003 76062 8657/ 333
60021=
83577 21465 83103 10182 20169 40191 56005 71065 8557/ 333
60011=
82398 32470 21603 10252 20231 40119 82500 333 58003=
82579 32970 00000 10246 20236 40118 333 58016=
82993 21557 50304 10232 20230 40136 71061 83230 333
58017=
82193 32470 31402 10237 20237 40095 81501 333 58008=
82281 32970 00000 10254 20242 40107 333 58006=
82022 21470 71506 10248 20243 40123 72162 85531 333
58011 69951=
82824 32970 00000 10232 20220 40114 333 58008=
82917 32970 01903 10208 20208 40121 333 58009=
89022 47/96 71212 11295 21315 39851 49893 52016 73033=
63684 32970 60904 10214 20190 38806 48/// 80037
333 20170 59006 81360
555 10198=
71051 46/// /1718 11089 21089 30112 40223 58030 333 11055 21089 555
31722 40061=
61990 11358 70000 10240 20213 40203 60074 71581 87800
333 20194 58001 50220 94310=
61995 32475 31008 10230 20186 39718 83200
333 20183 58000 50300 94311=
61988 32580 31010 10264 20192 40198 83200
333 20211 58000 50560 94308=
61986 11475 41019 10262 20223 40176 60154 70181 84800
333 20224 58005 94311=
61974 11470 71411 10273 20231 40137 60334 70282 8634/
333 20233 59004 94314=
47407 42/65 63105 10167 20114 39972 40108 58005 86800=
47409 41/70 70203 10081 20062 30067 40119 51002 70252 876//=
47418 42/80 82107 10087 20067 30068 40113 51008 8257/=
47421 41/70 83102 10122 20111 30083 40129 58009 78082 882//=
47430 42/70 52613 10161 20073 30067 40118 58006 81250=
47570 42/82 23210 10238 20101 39882 40124 58013 82200=
47605 42/65 23108 10215 20147 30115 40153 56003 81231=
47663 42/60 81005 10251 20188 30102 40133 58009 8113/=
47675 42/75 71813 10234 20165 30035 40126 58016 82102=
47741 41959 81106 10219 20164 30107 40132 56016 70522 80007=
47746 42960 72808 10234 20118 30120 40138 56011 80008=
47887 41559 83402 10257 20171 30091 40129 58014 70522 81037=
40250 32970 00000 10272 20091 39311 40051 53015 333 20188 30015=
40265 32960 02604 10226 20156 39323 40082 54002 333 20150 30013=
40296 32965 00000 10315 20167 40113 52004 333 20256 30022=
40310 32960 00000 10238 20085 38907 48402 54000 333 20157 30013=
40255 32960 00000 10230 20110 39403 40086 54002 333 20186 30013=
40260 32960 01404 10284 20180 39323 40051 52004 333 20218 30020=
40270 32960 00000 10256 20081 39215 40065 52003 333 20020 30013=
40272 32960 00000 10222 20149 39274 40068 52006 333 20124 30012=
40340 31958 03612 10276 20197 40058 54000 70500 333 20253 30024=
71805 43/// /2710 10066 20039 30046 40074 53002=
40103 32965 02406 10260 20198 40083 53005 333
20176 30/// 50344 22857=
30372 42999 61301 10258 20046 40033 57017 80001=
30433 42999 61802 10257 20077 40039 57011 80001=
30554 42998 82504 10272 20056 40031 57016 81101=
30635 42699 62902 10229 20089 40032 57011 82131=
30673 42699 62204 10276 20073 40051 57018 82260=
30758 42999 32703 10294 20032 40047 57018 80001=
30802 42799 81801 10237 20053 38621 48426 53002 82231=
30823 42699 82402 10328 20071 40010 57021 82932=
30879 42999 01501 10264 20099 40084 57018=
30935 42699 51601 10283 20098 40050 58021 82101=
30949 42699 20000 10297 20040 40029 57020 82901=
30965 42999 52109 10277 20059 40079 57023 80002=
31300 42999 10903 10248 20045 40087 57018 80001=
31329 42699 60303 10158 20015 40085 53003 86900   333 91111=
31369 42598 51009 10152 20073 40083 57004 82502   333 91014 91114=
31416 42599 83604 10224 20088 40074 57002 85901=
31484 41599 60000 10184 20125 40069 58009 70282 85901=
31510 429// 13203 10272 20006 40088 57015 80001   333 91112=
31707 42599 83205 10228 20058 40084 57014 70298 85431=
31735 41597 72803 10159 20104 40058 57005 79598 87900 333
87926 91110=
30692 42699 12303 10279 20029 40070 58004 80004=
40718 32960 03302 10248 20165 30172 40141 53003 90550 333 30017
50321 70004=
40732 32965 03605 10258 20161 30143 40123 58003 90545 333
30014 50571 70000=
40754 32960 01202 10250 20112 38812 40076 52015 90555 333 30015
51641 70000=
40766 32960 01204 10261 20030 38656 40043 50001 90550 333 30011 5118170000 =
40800 32965 02603 10280 20024 38428 40026 51008 90550 333 30011
51311 70000=
40811 32960 03103 10358 20063 39991 40017 52010 90550 333 30020
52391 70000=
40841 32960 03203 10280 20030 38232 40012 52016 90550 333 30013
51321 70000=
40848 32960 00000 10304 20034 38474 49992 53006 90550 333 30015
51431 70000=
40875 31950 01802 10344 20200 30000 40012 52017 70500 90550
333 30019 50681 70000=
48300 32565 30000 10320 20229 39735 40031 83505
333 58001=
48327 01457 80000 10244 20240 39694 40048 60051 76162 8672/
333 58019 60057 70045=
48331 32565 60000 10327 20249 39809 40031 84846
333 58001 70041=
48356 31565 80000 10294 20245 39850 40042 71522 83566
333 58009 70321=
48381 32562 80000 10287 20244 39823 40041 85876
333 58003 70712=
48407 32560 71605 10296 20229 39905 40045 84146
333 59002 70165=
48456 01460 72204 10300 20252 30024 40041 69941 70262 83976
333 59010 69946 70040=
48480 01458 80000 10303 20247 30044 40048 60021 71062 8697/
333 59004 69977 70053=
48565 32560 72210 10312 20262 30058 40069 81146
333 59003 70217=
48569 01459 82104 10278 20237 30027 40067 69981 76062 86877
333 58006 69905 70057=
48583 01458 70000 10287 20249 30061 40067 69901 76062 83876
333 58008 69906 79999=
48303 11462 62405 10281 20236 39603 40038 69911 71522 84976
333 58013 70057=
48328 11560 70000 10277 20233 39768 40042 69921 70162 82576
333 58014 70018=
48351 01570 60000 10307 20244 39970 40042 60041 70162 84836
333 58009 69907 70301=
48354 01462 70000 10295 20245 39832 40031 69911 70262 84976
333 59004 69916 70412=
48376 32565 70000 10312 20229 39904 40046 83536
333 58007=
48379 11558 80000 10295 20245 39901 40031 60021 71022 84876
333 58008 70202=
48400 32562 80000 10302 20248 39998 40038 83546
333 59004=
48462 31559 62602 10324 20255 39985 40039 71022 83206
333 59006 70020=
48475 11564 72703 10323 20238 30027 40038 69901 70262 84236
333 59014 79999=
40729 32960 03002 10184 20066 38343 40107 50001 90545 333 30003
50591 70006=
40736 32960 03004 10262 20182 30156 40129 58001 90545 333
30019 50541 70000=
40743 32665 30306 10256 20067 39027 40096 51014 82530 90550
333 30019 51361 70000 82635=
40762 32665 10705 10240 20067 38533 40055 52005 81400 90550
333 30012 51781 70000 81640=
40768 32960 00000 10218 20073 38250 40078 52004 90551 333 30008 50841
70000=
40769 32960 00000 10230 20020 38291 40046 51006 90550 333 30011
51121 70000=
40785 32960 00000 10268 20083 39025 40073 52009 90550 333 30018
51101 70000=
40809 32970 00000 10278 20022 38477 40007 51009 90550 333
30017 51651 70000=
40821 31950 03302 10278 20058 38758 40047 51009 70500 90550 333 30020
51601 70000=
40831 31958 03105 10376 20093 30025 40033 52013 70500 90550 333 30024
52281 70000=
44277 32599 72005 10208 20103 37792 49986 58005 85505=
44292 32699 62307 10279 21025 38671 40038 58002 83202 333
91111=
44304 32999 31803 10294 21033 38951 40042 57015 82202=
44354 32599 41405 10288 20048 39065 40039 57015 82103=
44373 32599 71606 10247 20076 38495 40034 58010 82188=
91369 32474 80912 10283 20253 30071 40074 86281 333 56229 86415
70000 555 90206
91371 32474 30810 10289 20259 30085 40088 82111 333 56119 83815
70000 555 90606=
33902 32598 73406 10171 20110 40161 52007 86530 333 20148=
34712 32698 71404 10211 20186 40126 53002 82131 333 20183=
33088 32997 00802 10141 20067 40261 52004 333 20054 555 30005
30005 52003=
33614 32598 83506 10142 20095 40173 52008 885// 333
20135=
12418 32998 61802 10155 20092 30111 40223 58002 86030
333 10180 20109 31007 55122=
33177 32975 02401 10129 20089 40272 52005 333 20071=
33246 32997 20203 10159 20077 40211 57009 80001 333
20107=
33135 32998 10304 10155 20095 40223 52011 81030 333 20098=
28679 32799 33405 10147 20006 40167 52004 83100   333 20035=
28766 32599 63606 10148 20002 40179 54000 86200   333 20053=
28867 32599 23606 10150 20013 40184 52001 82100   333 20049=
28952 32698 13603 10164 20002 40201 58003 81100   333 20041=
28966 32698 50206 10130 20013 40170 52008 85100   333 20040 85896=
29807 32597 63606 10145 20056 40088 54000 86300   333 20076=
35108 32997 01201 10254 20124 40186 52005   333 20117=
35217 32998 00000 10252 20120 40192 52013   333 20115=
35229 32998 00501 10218 20093 40175 52005   333 20083=
35302 32998 03602 10249 20135 40187 52009   333 20162=
35406 32997 00000 10262 20124 40212 52008   333 20167=
35416 32997 02002 10247 20130   333 20139=
35426 32999 01401 10231 20080 40184 52010   333 20106=
35532 32998 00205 10214 20059 40187 52013   333 20117=
35796 12697 72610 10169 20036 40059 52012 69900 87200 333 20118=
36003 11498 83508 10101 20090 40060 52005 69980 78088 889//   333
20096=
36177 32697 71907 10206 20071 40009 54000 86201   333 20114=
36428 11598 80904 10149 20123 40076 51004 69930 72582 889//   333
20121 95000=
36535 11598 81306 10172 20133 40048 58001 60020 71798 889//   333
20094=
36639 12699 60902 10168 20112 40074 58008 60040 85530   333 20115=
36821 12698 62403 10194 20073 40110 52016 69900 86200 333 20137 86837=
36870 12697 83501 10164 20059 40107 53006 60070 8598/ 333 20109 85935=
38222 12599 52702 10208 20058 40109 52006 60010 86900   333 20105=
38341 12699 52603 10229 20041 40100 54000 69900 85500   333 20092=
38343 12798 22504 10182 20051 40103 52002 69900 82100   333 20080=
91503=
56768 11680 72002 10245 20153 38200 57012 69901 70080 879//
333 00253 20196=
56959 11780 30000 10315 20219 40032 57025 69991 70080 83100
333 00151 20227=
57504 32562 23602 10299 20194 49981 57016 82100 333 05151
20221=
44212 32699 70904 10251 20067 38986 40002 58005 82280=
44213 32699 21804 10253 20129 38687 49991 58007 85200=
44215 32998 63205 10203 20074 38331 49992 58002 80006=
44218 32998 63203 10254 20079 38499 49964 58017 85038=
44232 32699 72303 10300 20048 39021 40023 57009 84260=
44239 32699 71605 10289 20050 38726 49995 58012 83208 333
91010 91112=
44265 32699 70000 10265 20126 38759 40014 58008 81102=
44275 32698 61805 10199 20041 37724 49984 57011 86500=
44284 32599 71803 10171 20027 37870 40057 58009 87500=
44287 32599 72307 10230 20085 38115 40025 58005 86240=
44298 32899 21807 10263 20023 38698 40056 58015 82040=
44302 32999 22305 10308 21027 39058 40056 57020 82200=
44305 32599 62702 10286 20122 39034 40083 58003 86100=
44347 32698 60905 10268 20089 38673 40031 58010 70622 81108=
44352 32699 50000 10269 20048 38908 40080 57014 85200=
44358 32698 41604 10278 20128 39036 40071 57007 82104=
50442 32670 23203 10274 21014 40107 57023 82202 333 20036=
23914 11999 61802 10171 20132 40160 58001 60030 70192 86070   333
20138=
23921 32999 21502 10227 20086 40167 57006 81031   333 20043=
23955 42698 53304 10136 20025 40109 58004 85200=
23966 42597 63202 10141 20015 40082 54000 86209=
28255 32999 80000 10172 20062 40196 58004 80001   333 20035=
28440 32998 03501 10180 20015 40191 58001   333 20074=
28661 32699 63605 10161 20027 40195 58005 82101   333 20046=
28722 32998 00000 10232 20134 40183 52001   333 20116=
28748 32960 10000 10169 20023 40198 52004 80001   333 20056=
29231 42698 79902 10139 20038 40077 54000 83130=
29313 42698 60303 10132 20002 40096 52002 86200=
29612 42498 63604 10152 20061 40076 58011 85304=
29634 41457 80305 10105 20080 40057 58003 72582 883//   333 88912=
29838 41597 71804 10183 20128 40021 52004 70182 85401=
36061 41699 83401 10227 20114 40031 58009 70282 82532=
23909 12998 22102 10257 20139 40137 56005 69990 80001   333 20164=
28116 32998 31703 10240 20138 40166 58003 80001   333 20155=
28240 32999 03402 10191 20073 40183 57006 333 20025=
28419 32998 21702 10234 20130 40178 52003 82030   333 20080=
28621 32980 50000 10243 20135 40184 52003 83039   333 20154=
29023 42998 62401 10132 20002 40087 57001 86200=
29122 42799 23302 10121 20009 40098 51001 82800=
29328 42598 80204 10150 20065 40078 58004 84932=
29348 42597 80101 10103 20080 40082 52005 8257/=
29405 42798 20206 10147 21003 40108 58005 82200=
29418 42798 23305 10149 21010 40089 57003 82100=
29430 42498 80401 10099 20065 40071 54000 883//   333 88917=
29524 42584 73602 10149 20050 40071 57006 86501=
29605 42698 21805 10147 20023 40098 58006 82100=
29631 42497 80406 10116 20066 40063 54000 889//=
29706 42699 80307 10136 20066 40073 58003 86801=
29736 41498 80503 10150 20130 40094 52045 70282 8543/=
29937 41699 72005 10195 20109 40027 52003 70282 85230=
36034 41598 81906 10186 20102 40008 53001 78082 86901   333 83930=
28216 32999 01802 10230 20123 40166 52001   333 20157=
28321 32984 61801 10227 20156 40167 52001 86030   333 20163=
28451 32998 60501 10169 20017 40194 58004 80001   333 20032=
28541 32984 00202 10175 20030 40187 52002   333 20022=
28642 32997 33601 10185 20040 40204 56001 80001   333 20054=
28655 32978 33403 10161 20050 40200 58003 80002   333 20054=
28925 32999 00202 10229 20120 40184 50003   333 20097=
29557 41598 73301 10164 20126 40054 58004 70282 87300   333 85923=
29625 42599 80404 10122 20061 40061 57007 885//
333 88622=
29642 41360 80403 10116 20116 40061 54000 72582 883//   333 86709=
29846 41597 62202 10210 20123 40030 51001 70242 82531=
30469 42699 12702 10303 20017 40023 58044 81100=
30650 42999 32002 10279 20027 40039 57014 80001=
30781 42999 51603 10282 20029 40081 58042 80005=
30844 42699 22301 10311 20036 40020 57015 82200=
30925 42899 22101 10332 20082 40007 58009 82030   333 91118=
31371 42999 12702 10262 20048 40091 57022 80001=
31388 42699 60501 10225 20011 40089 58014 86100=
31478 41584 80902 10119 20036 40077 52004 70282 889//=
31532 41599 82903 10153 20106 40087 58006 78082 889//=
31754 42599 62301 10016 20045 40089 57009 86900=
62306 32560 63312 10240 20164 40113 53006
86800 333   20222=
62318 32560 23211 10242 20192 40105 51008
82100 333   20214=
62337 32960 02702 10244 20197 40089 50000
333   20168=
62366 31956 00102 10242 20191 40102 53002
70500 333   20203=
62393 32960 03510 10240 20100 40085 50002
333   20198=
62405 31956 01104 10300 20142 40059 52011
70500 333   20224=
62414 32960 00105 10298 20079 40067 53010
333   20256=
62417 32960 00202 10235 20176 40136 53010
333   20190=
62440 31530 42503 10230 20192 40096 53002
71000 84500 333   20184=
62463 32960 03321 10291 20115 40060 51007
333   20259=
62465 32960 03412 10282 20195 40066 51006
333   20253=
33990 32669 80401 10193 20164 40137 53010 8395/ 333 20177=
48310 01560 60000 10267 20232 39597 40040 60471 70196 83876
333 58021 60117 70491=
48325 32565 70000 10317 20220 39795 40030 82206
333 59008 79999=
48329 01560 80000 10260 20246 39713 40048 60051 72196 8597/
333 58017 60057 70120=
48357 01458 82102 10285 20257 39882 40047 60051 76066 84776
333 58003 69937 70703=
48380 32560 60000 10293 20245 39938 40031 83545
333 59011=
48383 01562 71103 10290 20242 39872 40037 60011 70166 84376
333 58007 60017 70133=
48403 01550 82202 10260 20234 39838 40048 69911 70262 85576
333 58008 69917 70859=
48405 32562 80000 10291 20242 39878 40038 85576
333 58003 70123=
48421 32562 60000 10325 20247 39974 40038 82246
333 59009 70023=
48425 32562 71803 10325 20239 30024 40034 82246
333 59006 70001=
48426 32565 80000 10316 20233 30023 40037 83876
333 59004 70072=
48430 01560 80000 10290 20247 30035 40043 69901 72122 83976
333 59002 69905 79999=
48450 32560 62202 10324 20236 30004 40036 82936
333 59010=
48465 01562 71502 10331 20252 30032 40036 69941 70296 84973
333 59014 69907 70004=
48550 01457 82608 10270 20247 30055 40062 60011 72162 83276
333 59007 60016 70046=
48552 01460 82406 10305 20240 30051 40058 69901 70262 85876
333 59003 69907 70018=
48568 01459 82304 10291 20231 30057 40065 69941 76062 8482/
333 58006 69907 70045=
26898 32598 60402 10118 20056 40211 52012 82531   333 20091=
26997 32967 33508 10119 20071 40203 53006 80001   333 20097=
27595 32997 21604 10248 20129 40172 52002 80001   333 20130=
27612 32597 83002 10105 20076 40212 52015 888//   333 20100=
27703 11497 83605 10104 20073 40205 52013 69902 70262 885//   333
20095 86715=
27707 32572 63603 10106 20073 40211 52008 82279   333 20087=
27719 11295 80103 10109 20095 40193 52012 60012 75152 886//   333
20106 88706=
27786 32997 32502 10259 20128 40167 50000 80004   333 10138=
27906 11496 83506 10111 20095 40194 52011 69902 72582 883//   333
20104 85710=
27928 11596 80301 10160 20155 40160 53011 60030 78082 8435/   333
20157=
27947 31697 70000 10192 20162 40152 53002 78022 85330   333 20166=
27962 32997 61904 10264 20106 40153 57003 82031   333 20134=
27983 32998 61602 10241 20147 40181 53007 80001   333 20132=
28711 32998 00000 10256 20135 40180 52004 333 20121=
28807 32997 41202 10242 20144 40187 53002 80001 333 20105=
34009 11356 80104 10110 20109 40165 52011 60042 78062 889//   333
20108=
34047 31566 81201 10199 20150 40149 53006 70382 8497/   333 20182=
34116 11497 80304 10167 20151 40150 53004 60072 70282 883//   333
20150 85914=
34123 11970 83601 10184 20160 40051 53002 60020 70282 8807/   333
20162=
34152 32999 61402 10252 20157 40150 52002 84031   333 20180=
34172 32970 61503 10232 20117 40172 52006 82031   333 20176=
34186 32998 71703 10258 20114 40178 52003 80001   333 20134=
34247 11464 80000 10193 20169 40147 52001 69960 70282 883//   333
20145 85913=
34336 11498 80000 10181 20168 40154 57003 60010 78082 8533/   333
20168=
34391 32997 20902 10292 20077 40172 52006 80002   333 20154=
35121 32998 00503 10245 20095 40182 52004   333 20123=
48315 32565 40000 10323 20249 39771 40032 82206
333 58001 70062=
48413 11562 80000 10295 20245 39962 40041 69921 70262 82536
333 58000 70002=
48416 01559 81602 10265 20251 39899 40046 60051 76162 8582/
333 58004 60057 70066=
48418 12563 80000 10305 20257 39979 40035 60091 84597
333 58000 70099=
48478 11558 82602 10310 20246 30043 40048 69901 71022 86576
333 59003 79999=
48501 01430 82410 10252 20242 30060 40068 60541 76166 885//
333 58011 60217 70690=
48561 01462 80000 10287 20248 30061 40065 60011 70262 8657/
333 59007 69927 70486=
48564 32560 52110 10318 20218 30061 40066 82236
333 59002 70065=
48570 01560 80000 10285 20242 30058 40065 60071 70262 83576
333 58002 69917 70139=
48580 01560 80000 10288 20237 30055 40062 69931 70262 84847
333 58004 69927 70086=
48601 11460 80908 10261 20236 30074 40078 60031 76196 84837 333
81710 83625 88276=
48615 31470 72503 10307 20237 30069 40075 70522 8317/ 333 83818
83364 88469=
48620 11362 83304 10246 20234 30072 40081 60031 79596 84947 333
82708 81917 83632 88276=
48647 31464 71705 10306 20241 30052 40077 70522 84942 333 81917
83818 87078=
48657 31465 72107 10310 20243 30053 40071 70522 82232 333 82819
83366 86078=
48665 32580 72507 10298 20247 30071 40081 83252 333 83823 86363=
96413 11580 70307 10308 20233 30038 40063 60031 70262 85241 333
85822 85080=
96421 32580 63406 10323 20220 30030 40065 84241 333 84825 84080=
96441 32480 63210 10312 20242 30064 40069 82241 333 82816 85080=
96449 32480 63007 10313 20242 30041 40061 83241 333 83816 86080=
96471 32480 63306 10329 20241 30061 40064 81832 333 81816 86080=
96481 32462 72503 10309 20235 30043 40065 8287/ 333 81817 87364=
96491 31470 73609 10312 20236 30057 40070 70522 82848 333 82817
83364 87277=
29813 42599 80206 10115 20057 40026 57005 8455/=
22113 32584 20201 10096 20055 40145 58001 82130   333 20066 91002=
22217 32999 01702 10136 20050 40151 58001   333 20064 91005=
22235 32684 63501 10148 20050 40139 58002 84101   333 20081 91002=
22349 32599 72001 10117 20082 40154 58007 81531   333 20059 91002=
22408 32599 61401 10129 20021 40172 58004 83530   333 20001=
22602 32998 21103 10119 20064 40166 54000 82030   333 20044=
22721 32699 21801 10140 20065 40184 57001 82101   333 20043=
22802 32980 01802 10128 20081 40202 54000   333 20037=
22820 32599 52601 10145 10074 40191 58001 82201   333 20076=
26059 32997 12402 10133 20076 40222 52003 81030   333 20036=
26063 32597 12401 10132 20077 40226 52005 81100 333 20099=
26094 32984 02903 10130 20077 40218 52006   333 20040=
26258 32970 23601 10145 20094 40231 53003 80001   333 20050=
26298 32997 23601 10125 20055 40218 52004 80009   333 20055=
26477 32970 00000 10154 20074 40228 52006   333 20085=
26585 32998 20000 10151 20086 40229 52004 80004   333 20070=
26702 32997 71602 10139 20067 40215 57011 87030 333 20077=
26781 32997 02302 10160 20088 40223 52004   333 20065=
27402 32997 63102 10143 20077 40211 56001 83039   333 20062=
21908 41598 83603 10053 20029 40130 54000 76166 8672/=
25551 11497 80705 10024 20022 40171 53002 60042 76176 882//   333
10034=
25563 11461 80312 10007 21004 40153 53003 69932 78088 889//   333
10015 91118=
25594 11465 80503 10026 20008 40179 54000 69902 76062 885//   333
10051 91109=
31054 42699 42701 10238 20024 40060 57009 85300=
31123 42599 51701 10215 20011 40088 58021 85900=
22028 32582 23201 10071 20067 40150 52003 82100   333 20060 42998
91001=
22106 12698 12701 10124 20053 40137 57003 60012 80100 333 20038
91002=
22127 32599 22701 10140 20034 40141 58005 82200   333 20075 91003=
22324 32599 32203 10128 20070 40154 58003 82201   333 20089 91005=
22621 32698 22701 10146 20030 40182 58001 81102   333 20058=
22831 32998 71801 10116 20081 40190 52001 82031   333 20027=
22892 32598 21806 10125 20076 40210 52002 82200   333 20076=
26275 32998 00601 10149 20064 40232 52006   333 20070=
26389 32966 23601 10140 20070 40220 52006 80001   333 20077=
26695 32997 80203 10124 20056 40230 52015 80007   333 20078=
26882 32970 20302 10144 20082 40231 52015 80009   333 20083=
38462 32699 30000 10195 20048 38743 48494 58007 82500   333 20062=
44210 32999 30000 10202 20011 38429 57009 82081=
44216 32699 61403 10268 20040 38869 49985 58007 84280=
44217 32698 62303 10157 20104 37855 40079 58001 82243=
44254 32998 22701 10285 20017 38990 40009 58015 82200=
44257 32998 33202 10296 20015 38926 40039 57022 83200=
44263 32998 70000 10205 20019 38002 49999 52012 87070=
44266 32699 42303 10205 20080 37758 49995 58003 81108=
44291 32598 61807 10300 20015 38704 40159 57010 84204 333
91113=
44317 32598 33202 10278 20064 38923 40068 58012 83200=
44325 32699 61805 10305 20169 38754 49974 58007 82150 333
91212=
44329 32598 60000 10201 20082 37747 49994 57004 86500=
44348 32697 51106 10266 20127 38673 40041 58003 83209=
44374 32599 71105 10227 20021 38240 40013 58001 83572=
44385 32999 61407 10277 20053 38848 40027 57018 80008=
44386 32999 71109 10291 20015 38998 40032 57002 82184 91212=
25621 42699 60000 10096 21078 40127 57003 85230=
25703 42799 61903 10163 20006 40109 57008 84330=
25913 42999 82605 10067 20012 40148 58003 84037=
25954 41599 83510 10064 20002 40075 52002 70282 889//   333 91013
91113=
31088 42599 71607 10053 20036 40124 57003 86550   333 86621=
31829 42998 72405 10090 20067 40112 56009 86042=
31873 42698 63506 10218 20062 40083 57015 83903=
31909 41599 61402 10089 20085 40104 57017 79598 86900=
31960 42599 31902 10177 20121 40121 57016 82109=
32053 42998 61208 10072 20032 40106 57017 80001   333 91012 91114=
32061 42599 62206 10110 20043 40108 57011 82289   333 91010 91112=
32098 42498 71504 10059 20040 40147 57013 85930   333 85710=
32150 42599 81701 10113 20068 40124 57014 885//   333 88628=
32165 41356 80703 10042 20040 40120 53002 71085 886//=
32215 42986 00902 10118 20043 40159 57005=
32389 41599 71606 10151 20051 40122 57010 70772 84530=
32583 42599 11406 10156 20043 40123 57014 81200=
32618 42598 63509 10049 20024 40110 52001 84201   333 91012 91114=
57608 31540 73404 10280 20218 49979 57016 71000 8114/ 333
20242=
48353 32565 60000 10306 20240 39753 40033 84235
333 59012 70254=
48375 32562 70000 10295 20240 39810 40031 84526
333 59002=
48378 01560 71803 10287 20245 39987 40039 60111 70166 86206
333 58005 60017 70793=
48431 11560 73202 10295 20193 39830 40038 60041 70162 84806
333 59001 70395=
48500 01560 82510 10297 20233 30044 40050 69971 70162 85577
333 59006 69927 70016=
48551 01557 80000 10273 20252 30063 40071 60051 76166 83577
333 58002 60057 70143=
48330 01560 72102 10300 20243 39853 40035 69941 76022 84576
333 58004 69905 70005=
48377 32562 80000 10305 20232 39878 40039 84536
333 58011=
48432 01550 80000 10245 20238 39882 40050 60071 76166 8657/
333 58006 60037 70254=
48455 32563 82403 10316 20235 30031 40035 84857
333 59014=
48477 32464 72510 10329 20243 30027 40041 83341
333 59015 79999=
48567 01440 80000 10273 20263 30048 40066 60151 76062 8587/
333 58006 60107 70150=
41710 32997 23107 102EEEE 10406 21076 49952 82030
333 56090 58011 82360=
41718 32996 02312 10350 20253 49983 333 59003=
41739 32997 02303 10330 20200 48442 333 59004=
41744 31996 32702 10355 201EEE 20712 48422 70500 83030
333 56090 59005 83360=
41749 31996 01809 10400 20248 49978 70500 333 58003=
38396 42997 10404 10261 20029 40165 52012 80001   333 20132=
41764 32996 02318 10360 20232 49994 333 5900=
41725 32997 01803 10370 20228 49980 333 59008=
41759 32597 83204 10320 20258 40070 83600 333 56900
58011 83720 85630=
48820 11598 73202 10292 20257 30061 40069 57016 60051 70298
878// 333 59024 84895 87697=
48826 11598 71404 10290 20276 39936 40063 56012 60101 70286
879// 333 58023 83895 84995=
48839 32598 71404 10324 20263 30007 40070 58011 81108 222//
2//01 333 58021 81895 86299=
48845 32598 70904 10301 20256 30039 40046 57012 82908 333
59006 81895 86299=
48848 32570 60906 10294 20260 30042 40050 58017 82908 333
58006 81895 81995 86299=
48855 32570 71407 10304 20260 30045 40053 57018 83808 333
58020 82895 87299=
48870 32498 71602 10310 20265 30054 40061 58015 879// 333
58029 82894 81995 86696=
48877 32598 60704 10301 20257 30053 40058 57019 84801 333
58019 82895=
48887 32570 71806 10284 20253 30059 40065 57018 8584/ 333
58021 83895 84399=
48900 32497 62705 10301 20260 30051 40061 57016 86200 333
58011 86894=
48914 11498 82502 10291 20238 30074 40076 57008 69921 70262
888// 333 58012 82894 88697=
48917 11496 82306 10260 20249 30077 40082 58005 60192 78182
8692/ 222// 00289 2//02 333 58018 82894 88495 88499=
48918 32470 73202 10290 20241 30064 40075 57014 8221/ 222//
00298 2//01 333 58012 81894 87499=
48920 32598 72701 10300 20255 30041 40041 57019 878// 222//
00297 20100 333 58001 82895 87696=
48803 32560 61405 10295 20246 39957 40066 58008 868// 333
58015 82895 84696=
48806 11570 71405 10276 20218 39313 40055 58012 60011 70362
879// 333 58010 82895 86996=
48808 11570 73203 10287 20250 39789 40063 57017 69911 71798
879// 333 58018 82895 86996=
48823 32498 71404 10306 20257 30056 40059 57011 879// 333
58017 85894 82895 86995=
48830 32570 61404 10307 20238 39770 40063 57020 85201 333
58015 85895=
48840 11598 61105 10302 20258 30059 40065 57020 60031 70282
862// 333 58019 86895=
48852 32570 60904 10328 20264 30029 40039 57022 82208 333
58010 82895 86299=
48802 32460 83602 10200 20190 38400 58005 889// 333 58012
83894 88995=
48810 11470 61801 10278 20240 39874 40073 57009 60081 70298
868// 333 58028 82894 86696=
48831 11470 61402 10298 20253 30025 40061 58006 69901 70262
868// 333 58019 82894 86697=
48838 32598 61403 10308 20268 30071 40077 57010 862// 333
58017 86895=
48846 32598 70907 10308 20257 30039 40042 57013 82208 333
59013 82895 86299=
48863 32598 41403 10310 20252 30046 40055 58011 82240 333
58029 82895 83399=
48866 32598 72302 10254 20215 39213 40071 57017 879// 333
58016 85896 82995=
48875 32570 71602 10290 20222 39536 40056 57016 872// 333
58009 87895=
48907 32598 72706 10283 20250 30073 40075 58006 878// 333
58006 83895 87696=
80403 32465 50905 10266 20235 30127 40146 81204 333 30///
56909 58010 81816 84075 1014=
80410 32460 51603 10211 20179 39455 40129 855// 333 30///
569// 58006 85613 1016=
80413 32960 00701 10221 20201 39630 40146 333 30/// 58008
1014=
80415 32960 00000 10259 20234 30090 40144 333 30/// 58007
1014=
80419 32360 61802 10221 20196 30089 40098 8352/ 333 30///
5699/ 58015 83610 83458 1009=
80421 32460 70807 10255 20224 30128 40148 82875 333 30///
56299 58003 82816 83458 1014=
80428 32460 73402 10247 20211 39918 40101 8392/ 333 5699/
58004 82617 84457 81917 1013=
80435 32960 33602 10245 20245 30054 40133 80003 333 30///
56009 58000 1013=
80438 32970 20703 10156 20097 38535 48532 80008 333 30///
56009 58014 1022=
80444 32360 80902 10245 20243 30059 40110 885// 333 30///
562// 59005 88610 1010=
80457 32460 20000 10242 20226 30042 40127 82500 333 31///
56900 59016 82613 1012=
80420 11451 80905 10255 20224 30110 40116 6998/ 76026 8622/
333 31/// 5629/ 58003 86813 1012=
80425 32960 00702 10258 20237 30091 40122 333 30//// 58008
1012=
80427 42460 23603 10240 20202 39882 40135 82500 333 30///
56900 59003 82620 1015=
80431 32560 80901 10225 20216 39629 40101 864// 333 30///
5699/ 58007 83620 86460 1013=
82400 22254 02272 20100 315// 40503 80252=
84203 22274 02257 20302 307// 40603 80218=
81200 22215 00300 20101 304// 40301 80275=
87270 22224 20505 80200=
84570 22213 02140 21003 327// 41204 80135=
56763 32680 71805 10313 20167 40006 57013 85202 333// 00351
20232=
51839 31920 92905 10281 20047 49995 52014 70700 89//2 333//
00300 20154=
55299 11780 72001 10052 20024 35896 52001 60011 78080 879//
333// 00457 20005=
56106 11680 80000 10102 20041 36247 52001 60041 70080 884//
333// 00655 20005=
55279 11580 60405 10052 20018 35750 57002 69901 72780 86900
333// 00300 20006=
55472 11680 61803 10072 20010 35780 54000 69941 71580 86900
333// 00351 20025=
55294 31780 70000 10078 20002 35759 57007 71700 879// 333
00302 20004=
56202 11680 72503 10114 21006 35890 57004 69911 70080 8493/
333// 00200 20027=
55228 32980 10000 10127 21164 36065 57006 80002 333 00301
20010=
55248 32780 33204 10121 21054 35948 57005 83100 333 00301
20001=
55437 32780 12203 10158 20001 36365 57010 81100 333 00202
20027=
56444 11780 40902 10176 20067 36814 57009 69921 70080 84200
333 00004 20087=
57731 32580 21406 10339 20210 40009 57023 82100 333 20251=
57916 11680 70000 10299 20249 40053 57016 69931 70080 87200
333 20239=
57922 11580 71803 10252 20204 40065 57014 60031 72160 872//
333 20209=
57932 11680 61405 10312 20223 40054 57022 69901 70080 85430
333 20250=
53782 32980 80703 10217 20093 40119 57011 80007 333// 20174=
20107=
51087 32680 70000 10270 20037 39144 40039 57001 81162 333
00101 20124=
51156 11770 73602 10116 20078 38652 40082 52012 69971 78080
87402 333 00157 20101=
51068 11670 73205 10211 20097 40073 52020 69901 78000 84902
333 00254 20143=
51232 11680 43206 10257 20038 40083 57008 69901 70060 81102
333 00352 20169=
58006 81895 81995 86299=
58020 82895 87299=
58021 83895 84399=
58011 86894=
64500 32460 82006 10256 20240 30095 40109 885//
333 02300 20255 50200 55020 58008 84610 88626=
64501 32360 42004 10252 20246 30099 40109 84530
333 02400 20250 50174 55049 59001 84608=
64503 31350 8//// 10230 20230 30078 40119 71022 885//
333 02200 20229 50054 58010 83608 88620=
64510 12358 7//// 10210 20210 3//// 40/// 69934 875//
333 0//19 20210 50084 55/// 5//// 87607=
64550 32360 8//// 10234 20228 39018 40119 885//
333 02300 20230 50034 55/// 58007 84607 88615=
64551 32460 8//// 10240 20233 30077 40106 885// 911//
333 0//00 20240 50054 55/// 59007 84611 88626=
64552 32465 8//// 10222 20217 39456 40100 885// 910//
333 0//00 20210 5//// 55/// 58000 85610 88616=
64556 31402 8//// 10212 20206 39536 40112 74444 885// 910//
333 0//00 20200 50114 55/// 58002 88610=
64565 11240 8//// 10210 20204 39436 40099 60034 71022 8557/ 903//
333 0//00 20204 50134 55/// 59006 85603 88460=
58010 82895 86299=
58016 85896 82995=
58009 87895=
91650 31599 20805 10276 2024/ 40105 53007 70200 82800
333 569// 82822=
91659 31599 21505 10256 2023/ 40102 53005 70200 82200
333 569// 81825=
91670 36/// /0909 10264 20233 40105=
91680 31598 61705 10265 20211 40107 58002 70301 84801
333 569/9 83828 83080=
91691 36/// /0703 10239 20217 40126=
91699 36/// /0710 10245 20207 40141=
63729 32480 61811 10245 20164 3//// 48/// 81932 90550
333 20104 50451 55902 55313 5//// 81819 81920 86359=
63756 32980 01814 10208 20105 38879 48514 90555
333 55314 59008=
63791 32580 70905 10208 20170 39180 48555 8523/
333 20162 50701 55111 55300 59013 85824 85358=
63832 32980 51010 10192 20128 38831 48514 90550
333 20160 5//11 55310 59015=
63844 32580 12210 10256 20214 30124 40164 81230
333 20212 50551 55106 55310 59007 81820=
63862 32480 31213 10185 20134 38928 48537 83500 90550
333 20136 55315 59015 83618=
63894 31580 12110 10240 20205 30111 40171 74000 81100 90550
333 20163 50241 55109 55310 59007 81820=
63962 32480 61510 10180 20090 39011 48561 82130 90550
333 20125 50451 55080 55300 58001 82817 86358=
64504 11460 8//// 10245 20242 30108 40123 60014 70262 889//
333 0//13 20245 50134 55/// 58009 85611 81915 88625 94943 95833=
64507 31/03 4//// 10213 20213 3//// 40/// 74542
333 0//00 20213 50044 55/// 5//// 89///=
64560 31330 6//// 10216 20214 39559 40095 71022 86500 908//
333 0//00 20215 50074 55/// 59008 83708 86615=
58004 82617 84457 81917 1013=
64387 32960 20000 10196 20138 38525 48520 80002
333 01300 10280 20160 50514 55098 59005 82080 1020.3=
68174 31920 02003 10062 20049 38853 48578 52013 70400
333 20035 555 10201 91026=
68242 32980 00408 10083 20023 38792 48570 52012
333 20050 91011 555 10235 91025=
68262 31902 00000 10046 20007 38780 48589 52011 70400
333 20023 91001 555 10213 91027=
68263 32970 00000 10067 21003 38549 48572 52011
333 20034 91004 555 10191 91026=
68350 36/// /0204 10070 20034 38721 48570 52013
333 20007 91008 555 10231 91025=
68368 31958 03107 10104 20002 38362 48563 52009 70400
333 20054 555 10186 91026=
68372 36/// /0000 10006 21021 38525 48587 52014
333 21032 91002 555 10174 91028=
68424 32982 13104 10036 21019 39257 48550 52014 81070
333 20015 91005 555 10275 91022=
68438 31974 13515 10104 21048 38861 48555 52008 70500 80002
333 20058 91017 555 10238 91022=
68442 32982 00000 10011 21020 38713 48555 50010
333 21035 555 10209 91025=
68461 32980 00000 10017 20005 38379 48572 52013
333 21030 91000 555 10172 91026=
68512 31082 11706 10083 20068 39072 48551 52012 74000 81600
333 20065 91007 555 10225 91023=
68588 32970 13403 10143 20098 30165 40182 51010 80001
333 20099 555 10236 91018=
68618 32280 82604 10087 20073 39100 48541 52010 886//
333 20043 91007 555 10225 91022=
68668 32980 10000 10119 21092 39333 48533 52009 80003
333 20056 555 10224 91019=
68714 11315 83406 10142 20139 30163 40200 52009 60014 76024 88600
333 20134 69945 91009 555 10195 20010 91020=
68752 36/// /2406 10125 2//// 39491 48520 52012
333 20099 91010 555 10233 91018=
68816 11458 73412 10154 20140 30134 40184 50011 60034 71566 87500
333 20142 555 10181 20034 91018=
68828 32670 50504 10125 20096 39949 40180 51012 84501
333 20095 555 10246 91018=
68842 32582 12509 10136 20115 30100 40174 52015 81500
333 20100 555 10238 91017=
68858 32482 22604 10136 20084 30025 40174 50015 81502
333 20105 555 10215 91017=
71079 11466 73104 10051 20038 39952 40227 50002 60031 72582 86860
333 10200 21026 70042 90936 555 32920 40190=
89050 42570 70710 11036 21068 40106 51002 87500 333 87622=
89512 32979 21336 11087 21178 49938 52033 82030 333 21100=
89592 42996 01530 11175 21202 49903 57001 73830 80000=
89606 41915 02024 11502 21548 36267 47722 57017 73830=
61972 32570 11514 10253 20192 40215 81100
333 02100 20222 55079 59015 81820 92438=
93004 36/// /3017 10151 20138 40055 52003=
93023 36/// /3006 10164 20134 40052 52007=
93196 16/// /3023 10155 20112 40042 52007 60021=
93334 16/// /3116 10073 20054 39044 52010 60011=
93404 16998 /3605 10104 20071 49962 52011 60051=
93498 36/// /3428 10133 20076 49926 57002=
93527 16/// ///25 10097 20071 49915 52015 60061=
93597 36/// /3520 10124 20086 49885 52004=
93615 16/// /1207 10075 20053 49861 52021 60121=
93678 36998 /2604 10114 20029 49871 52016=
93709 36/// /1403 10076 20054 49879 52027=
93831 16898 /1914 10054 20014 49930 52025 69921=
93896 11297 82222 10067 20051 49903 52016 60061 76188 887//
333 88705=
93947 16/// /1316 10024 21022 40021 52034 69921=
93994 36/// /2805 10203 20191 40139 52005=
68024 32960 00000 10065 20026 48559 52021 333 20040 555 10255 30106
60058=
68032 32960 00907 10087 20055 48551 52014 333 20064 555 10267 30107
60056=
68226 32960 00702 10069 21040 48563 52011 333 20045 555 10262 30100
60055=
68240 31960 00000 10050 20048 48574 52014 70400 333 20022 555 10234
30104=
63708 32980 00908 10215 20168 48505
333 20160 59003=
63714 31982 02105 10160 20089 48510 70200
333 20118 59014=
63740 31480 10605 10167 20102 48530 70200 81100
333 20130 59010 81817=
63820 32580 31910 10255 20224 40156 83200
333 20200 59014 83820=
71623 11769 81303 10172 20104 39802 40129 58026 69901 79511 8637/
333 10241 20152 79999 90910=
63612 31980 10908 10275 20156 40121 70200 80001
333 20240 59010 81078=
63619 31580 41606 10198 20128 48547 70111 84200
333 20177 59007 84821=
63624 31582 12108 10274 20180 40153 70200 81109
333 20239 59011 81828=
63641 32480 21738 10178 20108 81510
333 20145 81616=
63661 32980 20504 10176 20140 48533 80001
333 20107 59012 82079=
63671 32582 11710 10266 20180 81500
333 20214 81623=
63695 32980 01805 10172 20114
333 20095=
63723 32582 11916 10270 20177 40148 81100
333 20220 59012 81824=
63766 32482 10503 10196 20147 48534 81100
333 20134 59002 81819=
63793 32582 21808 10227 20159 40164 82200
333 20180 59013 82822=
61630 32960 42810 10296 20178 30099 40118 84080
333 02300 20170 50942 55073 58025 84363=
62309 32560 53006 10228 20179 40097 53007
85500 333   20198=
62325 32960 03006 10242 20197 40092 53010
333   20208=
62332 31557 62404 10233 20196 40099 52007
70520 86800 333   20222=
62387 32960 00109 10235 20138 40097 51010
333   20189=
62459 32960 03014 10250 20202 40050 53014
333   20225=
28049 32999 01604 10179 20000 40184 58017   333 20092=
28319 32899 22801 10231 20147 40173 52004 82050   333 20148=
28334 32999 23202 10211 20040 40178 54000 80001   333 20066=
28434 32999 21302 10213 20051 40183 54000 80001   333 20087=
28552 32964 83303 10165 20023 40199 52001 80001   333 20047=
29111 42699 73202 10111 20006 40117 54000 87500   333 87646=
29209 42598 53202 10137 20015 40108 58007 85200=
29602 42599 20306 10143 20072 40096 53003 81102=
29636 41497 80402 10104 20094 40060 54000 78082 883//=
29654 42599 82804 10189 20099 40032 58002 82971=
29712 42598 80109 10136 20056 40070 58010 8417/=
29724 41498 80304 10100 20077 40056 58004 78082 883//
333 88915=
29726 41497 80104 10095 20085 40051 57007 76186 8872/
333 85710=
29814 42599 80204 10115 20057 40067 58002 883//
333 86634=
29827 41597 80306 10117 20113 40029 58009 78082 889//=
29923 42599 51507 10180 20103 40008 54000 85302   333 85622=
29939 41598 81802 10199 20103 40039 52004 79598 8635/=
36021 41499 80505 10120 20100 40026 54000 70282 886//   333 88710=
36022 41597 83303 10139 20128 40012 58001 79598 86933   333 84932=
36038 42598 31906 10178 20115 40027 52003 83300=
36058 42699 82502 10216 20124 40028 57008 86902=
29068 41496 81802 10103 20086 40082 53018 75122 887//=
29274 41599 82601 10159 20098 40076 52011 70382 889//=
29363 41499 70000 10144 20114 40067 52009 72162 87500=
29456 41599 73202 10128 20113 40069 58001 70282 84901=
29467 41596 72401 10164 20112 40060 58002 71082 85934=
29477 42599 72903 10206 20095 40055 53003 85931=
29576 42698 71202 10242 20117 40034 58006 83201=
29587 42598 70902 10238 20095 40048 58003 82202=
30157 42999 61003 10304 20092 40010 57026 81031=
30320 42698 59901 10246 20109 40037 58003 82931=
30713 82202 10297 20074=
34560 32962 51306 10260 20093 40147 52004 80001 333 20176=
34824 32997 80601 10226 20145 40129 58006 80001   333 20178=
34858 32965 21203 10246 20109 40135 52003 80001   333 20168=
34866 32998 01602 10268 20128 40153 53004   333 20142=
34880 32997 00903 10262 20115 40161 52004   333 20141=
37018 32998 63051 10217 20166 40132 57001 80002   333 20155=
37054 32998 03201 10235 20197 40118 57002   333 20138=
37472 32999 00801 10230 20170 40116 57007   333 20192=
34240 32975 81501 10230 20107 40148 52007 83039 333 20194=
34357 32998 61203 10266 20117 40145 52003 80004 333 20174=
34363 32984 20803 10223 20090 40159 58002 80002 333 20176=
34545 32998 83503 10240 20127 40138 54000 81047   333 20148=
34579 32998 21803 10272 20074 40171 52017 80001   333 20154=
34655 32997 51502 10259 20122 40145 58002 85030 333 20131=
34759 32998 51406 10252 20082 40142 53003 80009   333 20136=
34838 11697 60502 10199 20186 40145 53013 60070 71802 83930   333
20188=
34929 32464 60000 10214 20178 40135 56001 86500   333 20162 86617=
34954 32998 01502 10256 20133 40130 52002   333 20173=
37145 32998 00901 10232 20152 40129 54000 333 20135=
37171 32798 72903 10208 20165 40125 54000 81531 333 20140=
37228 32999 00601 10210 20117 40108 58001 333 20123=
26167 32672 22003 10138 20058 40236 52002 82101   333 20058=
27857 32998 71201 10194 20144 40156 58010 87030   333 20153=
28909 32997 00000 10255 20142 40185 52004   333 20118=
37061 32998 11204 10251 20084 40133 58001 80001   333 20162=
21802 41295 83505 10001 20001 40163 52001 71052 886//   333 88703=
24125 42699 80106 10102 20046 40091 52009 8255/=
24143 42999 60503 10193 20030 40087 57012 86010=
24266 42599 33601 10172 20021 40089 57009 82201=
24329 41599 71101 10152 20065 40044 52007 70282 86930=
24343 42999 71202 10197 20038 40071 57013 80005=
24382 42798 83501 10111 20029 40126 53001 8697/=
24639 41599 81103 10164 20110 40023 58007 70282 83931=
24641 41598 81402 10200 20030 40037 57008 78082 8437/   333 91112=
24652 42999 81503 10187 20017 40078 57016 82032=
24656 42999 61802 10180 20032 40082 57012 80004=
24688 41799 70203 10106 20030 40071 57003 71582 84930=
24724 42599 82705 10205 20082 40011 52006 83201=
24738 41699 81703 10166 20114 40022 57002 70282 85531=
24768 42699 23003 10200 20027 40079 57012 82100=
24944 41599 80000 10220 20094 40024 57013 72582 8393/=
24951 42999 81801 10243 20017 40045 57021 82047=
24959 42599 31103 10208 20021 40072 57013 81101=
24962 42599 33202 10223 20000 40063 57015 82201=
24966 42699 23103 10222 20023 40062 57012 82100=
25400 42799 22102 10183 20017 40131 57009 82100=
30393 42999 61702 10219 21027 40055 57017 80001=
30493 42999 30000 10227 20092 40050 57019 80001=
31137 42699 51801 10194 20006 40080 57008 85200=
83928 84830 86359=
56691 32580 21807 10232 20148 37744 57009 82100 333 00151
20156=
57902 32580 22207 10271 20174 38580 40035 57019 82100 333
00102 20213=
21982 32580 82804 11021 21033 40260 53008 885//   333 10005 88620
91107=
25399 11256 80602 10002 21004 40223 52003 69992 75152 886//   333
10006 88706 91104=
24988 41498 80702 10105 20064 40117 57007 70282 86901=
25325 42999 70505 10125 21060 40168 57008 83046=
25378 11597 83308 10026 21023 40214 54000 69902 72682 8592/   333
10040 91114=
31174 42599 71803 10052 20020 40109 52008 86080=
31263 42699 61909 10206 20034 39571 40098 57007 86200=
31489 42599 73601 10195 20098 40065 58017 85902=
31866 42699 22205 10094 20073 40103 56015 82200=
31959 41397 80804 10082 20064 40092 57031 70262 886//   333 88707=
31989 42499 32203 10100 20085 40108 57021 83900=
32076 42598 81105 10033 20026 40138 58008 885//=
32408 42999 51607 10093 21012 40119 53006 85030=
32509 42999 22307 10127 20002 40117 57019 82030=
32594 42999 03204 10091 20041 40152 58003=
57707 32680 21406 10293 20168 38416 57013 82100 333 00001
20211=
57832 32580 31805 10298 20201 40041 57017 83100 333 20245=
41084 42960 00403 10320 21030 38825 48491 333 20230 59010
555 04410 50026=
40706 32960 01208 10216 20055 38643 40090 56010 90545 333 30012
51141 70000=
40745 32660 70507 10232 20086 39033 40108 52018 84370 90550
333 30017 51301 70000 81930 83635 85360=
40856 32960 03504 10314 21003 38587 49995 50007 90550L333 30022
52331 70000=
40703 32960 00000 10214 20114 38897 40089 50004 90550 333 30009
50441 70000=
40712 32960 00303 10222 20120 38673 40075 51006 90550 333 30009
50861 70000=
47058 42966 82501 10284 20156 30071 40114 57025 81032=
47008 42565 20000 10152 20103 30085 40137 58020 82600=
47014 42650 30000 10257 20157 39726 40093 57024 83500=
47016 41570 70904 10223 20064 39292 40123 57024 72598 87300=
47020 42565 32703 10281 20121 39769 40114 57031 83200=
47025 41/09 91801 10127 20118 30117 40145 58003 74444=
47035 42970 00503 10293 20153 30112 40120 57016=
47041 42765 21406 10195 20149 30104 40120 57008 82020=
47055 41956 10501 10173 20145 30095 40138 57012 71000 80001=
47069 42960 61804 10240 20176 30041 40134 57012 82032=
16622 32670 33310 10206 20113 30207 40213 51009 82130 333 20184
30/// 51120 55090 90730 91115 555 10000 30230 20000 89035
99081 30000 10232 20230 30238 40250 50252 40000 47689 44240
50000 50154=
16641 32970 01408 10228 20123 30157 40162 52013 333 20180 30/// 55134
90730 91114 555 10000 30230 20000 89043 99090 40000 47652 44238 50000
50168=
16716 32570 50116 10216 20103 30162 40180 52013 83850 333 20196 30///
55113 81825 83358 90730 91129 555 10000 30250 20000 89040 99087 40000
47660 44265 50000 50154=
16734 32560 32905 10220 20188 30093 40154 53013 83200
333 20186 30/// 55123 90730 91110 555 10000 30220 20000
89079 99094 40000 47605 44235 50000 50200=
16743 32460 40728 10204 20127 39959 40155 53012 82250 333 20190
30/// 82820 83358 90730 91146 555 10000 40190 20000 89063
99086 40000 47505 44235 50000 50160=
16749 32960 02804 10220 20195 30061 40074 54001 333 20208 30/// 55123
90730 91110 555 10000 30236 20000 89075 99089 40000 47582 44250 50000
50204=
16754 32565 63218 10214 20139 30104 40150 52013 86800 333 20194 30///
50780 55132 82818 86625 90730 91124 555 10000 30228 20000 89056 99088
40000 47616 44255 50000 50170=
44214 32698 62504 10196 20056 38207 49992 57010 81248=
44231 41598 61405 10254 20070 38644 49997 58011 71522 83368=
44259 32698 21801 10306 21038 39271 40074 57021 82200=
16643 32660 30513 10228 20101 30172 40175 52017 83500 333
20206 30/// 90730 91120 555 10000 30236 20000 89064 99090
40000 47665 44255 50000 50158=
16648 32660 20310 10216 20063 30110 40196 53011 82100 333 20154
30/// 51300 55126 90730 91114 555 10000 30226 20000 89033
99089 30000 10216 20218 30226 40232 50228 60198 40000 47617
44240 50000 50138=
16650 32570 20318 10202 20124 30187 40191 52011 82100
333 20178 30/// 55070 90728 555 10000 30202 20000 89068
99092 30000 20190 30210 40232 50246 60228 40000 47675
44245 50000 50158=
16684 32560 30215 10202 20120 30149 40174
52015 82230 333 20180 30/// 55092 90730
91123 555 10000 30202 20000 89054 99085
40000 47648 44260 50000 50156=
16614 32570 10106 10154 20068 39454 40225 51006 81200 333 20108 30///
55122 90730 91112=
16627 32560 1//// 10192 20133 30195 40199 52013 81100 333 20150 31///
55000 90730 911// 10000 30192 20000 89075 99094 30000 10172 20182
30190 4//// 50220 60200 40000 4767744220 50000 50158=
16667 32570 60312 10196 20137 30160 40166 52011 86800 333 20186 30///
55130 83820 84645 90730 91121 555 10000 30224 20000 89046 99078 30000
1//// 20232 30246 4//// 5//// 6//// 40000 47655 44240 50000 50162=
16675 32565 22710 10210 20086 30189 40208 53018 82100 333 20172
30/// 55080 90730 91114 555 10000 30244 20000 89036 99090 30000
10228 20232 30242 40248 50237 60205 40000 47678 44250 50000 50144=
16710 32564 60312 10116 20063 39414 40180 53014 85260 333 20108 31///
51050 55098 85815 86358 90730 91117 555 10000 30170 20000 89021 99072
30000 10218 20244 30222 40228 50220 60194 40000 47094 44240 50000
50090=
16723 32565 23422 10204 20114 30106 40114 53002 82200 333 20184
30/// 55127 90730 91142=
16738 32560 33626 10220 20138 39963 40154 52014 81130 333 20180
30/// 81820 83358 90730 91136=
16746 32460 63612 10204 20146 39985 40162 52009 82250 333 20198 30///
55121 82820 86640 90730 91114 555 10000 30234 20000 89033 99085
40000 47527 44265 50000 50170=
56793 32580 32006 10277 20151 38434 57018 83100 333 00103
20200=
57606 32580 51807 10307 20184 49989 57016 85100 333 20229=
57803 32580 51807 10284 20164 40000 57018 84230 333 20221=
57825 11580 22005 10281 20210 40044 57021 69911 70060 82100
333 20236=
57906 32680 51603 10309 20222 40045 57026 85100 333 20212=
28879 32697 33609 10137 20027 40168 52019 83200   333 20017=
34691 32998 01403 10282 20093 40173 5/003   333 20153=
35067 32598 4//// 10127 20015 40173 52011 84100=
35078 12699 20408 10129 20030 40146 52012 60010 82100   333 20060=
35188 11498 60206 10116 21034 40121 52013 69910 87100   333 20080=
35700 32998 01103 10272 20040 40167 58001   333 20181=
35746 32998 00405 10209 20002 40171 52011   333 20111=
35849 32998 00203 10224 20043 40175 52012   333 20140=
35953 32999 03611 10201 20029 40159 52014   333 20124 91016 91115=
35969 32599 232// 10196 20029 40144 52014 82200   333 20109=
36152 11598 73408 10135 20126 40014 52005 60170 72998 87900   333
20125=
38062 32999 02607 10205 20015   333 20125=
38069 32598 22905 10226 20034 82100   333 20114=
28978 32699 50309 10122 20023 40152 52007 85200=
35173 11696 53604 10111 20046 40152 52012 60120 70362 85200   333
20069=
44203 41599 62707 10191 20062 38342 40009 58012 78122 85960=
44207 32699 41607 10222 20058 38278 40006 58005 82281=
44230 32698 71801 10251 20050 38727 40042 58009 84483=
44241 32699 22004 10327 20062 39161 40016 58018 82100=
44256 32999 11604 10292 20132 39289 40056 58018 80001=
44294 32698 52304 10262 20058 38535 40025 58010 85200=
44313 32999 00000 10269 21009 39352 40107 57016=
44314 32698 22304 10286 21014 39117 40095 58017 82200=
44336 32999 61104 10273 20021 38649 40033 57023 80008=
44341 32999 61606 10263 20097 38587 40044 53007 83044=
44242 32698 61810 10343 20062 39210 40003 57013 82242 333
91214=
44243 32599 12008 10348 20043 39307 40030 58011 82204=
44286 32999 31805 10276 20041 38606 40029 57009 80008=
47003 42980 31406 10127 20112 30128 40132 58019 80002=
47005 41580 72002 10181 20089 38618 57007 70298 87300=
47028 42668 10000 10288 20150 30039 40125 57016 81200=
47031 42570 61804 10190 20120 86500=
47037 42970 60901 10286 20133 30003 40121 57019 86030=
47039 42560 33201 10294 20191 39950 40125 57012 83200=
47046 41550 80903 10154 20132 30123 40146 57005 71021 8353/=
47050 42965 02302 10258 20191 30064 40095 57037=
47052 42565 61401 10286 20126 39791 40100 57028 86500=
47060 42965 82304 10253 20175 30069 40124 57024 80001=
47061 42980 40501 10215 20159 30085 40126 57023 80003=
47065 42565 82503 10267 20177 30069 40120 58026 81201=
47067 42965 41802 10277 20142 30013 40124 57021 80002=
47068 42970 82708 10249 20161 30091 40123 57018 80002=
47070 42570 80000 10266 20179 30044 40123 57017 82202=
42071 31996 01404 10370 20208 49985 70600 333 58002=
42131 32996 00501 10410 20220 49979 333 58000=
42165 32996 02305 10398 20167 49984 333 59003=
42182 31995 00902 10346 20254 49992 70510 333 58005=
42189 31595 12702 10350 20219 40000 70500 81500 333 59002 81630=
42339 31994 42306 10354 20206 40004 70600 80001 333 58001 84075=
42369 32996 40204 10332 20253 40008 80001 333 58004 84070=
56066 36/// ///// 10140 21018 36619 4//// 57006
555 10020 2//// 3//// 40111 51001 60/// 7//// 80000
9//// ///// 1/020 2//00 30000=
23074 42998 00203 10031 20007 40158 58001=
23274 42998 30303 10111 20013 40124 52007 83030=
23383 42999 70906 10110 20021 40112 52011 87531=
23472 42599 60804 10129 20025 40100 52008 86500=
23678 42598 62704 10113 20050 40084 52007 86500=
23884 42570 80501 10109 20082 40066 52012 889//=
23891 42698 81701 10167 20097 40052 52011 889//=
24507 42598 83405 10090 20053 40106 52019 888//=
24817 42599 62202 10228 20110 40027 52001 86900=
24908 42579 61901 10247 20105 40030 54000 85930=
29263 41597 81102 10125 20095 40074 52012 78022 889//=
29282 42598 63301 10234 20094 40048 58002 86900=
29570 42599 73302 10211 20154 40040 58006 86901=
29698 41596 80501 10176 20166 40068 52008 78082 889//=
29862 42699 62002 10242 20132 40036 58002 82202=
30230 42698 83304 10234 20106 40045 52013 83531=
30309 42698 63403 10252 20045 40035 58006 82101=
30710 42960 81904 10283 20084 40002 57019 80001=
23973 41598 81601 10100 20077 40075 52013 70282 889//=
29253 42699 80000 10110 20046 40074 52008 885//=
29471 41598 72904 10169 20122 40069 52006 87900   333 87922=
29481 42599 41102 10243 20139 40042 58005 84200=
29553 41580 80000 10148 20130 40059 58002 70282 8292/=
29562 42698 60701 10166 20132 40056 5//// 86500=
29581 42698 71702 10242 20140 40051 54000 83131=
29594 41599 80000 10231 20139 40055 52004 72582 82967=
29653 41598 63601 10185 20107 40047 58003 70182 82201=
29675 42598 52302 10237 20110 40027 57009 85900=
29676 42699 61002 10240 20129 40032 57005 82203=
29759 42599 81301 10199 20053 40024 54000 86909=
29766 42699 71003 10251 20122 40037 58002 83101=
29864 42699 71001 10231 20113 40023 58004 84201   333 95001=
29869 42998 51201 10253 20097 40039 58002 80001=
29956 42999 73502 10223 20090 40033 58011 82574   333 95000=
30504 42598 73403 10235 20129 40039 54000 82232=
30603 42998 80201 10279 20123 40011 57007 80002=
30612 42599 31201 10230 20110 40029 57008 82102=
30622 42998 31002 10303 20125 49993 57019 81201=
30499 42684 31201 10257 20041 40058 57027 82101=
30695 42699 60000 10297 20092 40099 58015 80004=
31253 42699 23004 10208 20071 40099 57013 81101=
31295 42999 30903 10266 20038 40076 57021 81031=
31348 42598 83601 10165 20115 40094 53004 86907=
31418 42599 83402 10210 20111 40077 57007 86907=
31439 42999 42002 10187 20062 40079 57009 82031=
31442 42999 03405 10243 20017 40085 57013   333 91010 91111=
31445 42999 01006 10251 20059 40093 57015  333 91111=
31474 41599 70000 10163 20066 40067 57011 72572 87900=
31534 41597 73602 10194 20086 40081 57006 78082 87900=
31587 42699 23605 10249 20032 40095 57013 82100   333 91110=
31632 41598 83101 10117 20100 40073 53009 72988 869//=
31702 41597 80303 10158 20103 40084 58027 79882 889//=
31725 41498 80501 10161 20098 40058 57009 71798 883//=
31801 41597 83401 10152 20085 40075 53002 79798 889//=
30455 42699 31603 10254 20019 38765 48471 57019 81101=
30549 42699 41806 10247 20052 38644 48443 54000 84002=
30726 42999 10504 10112 20069 40060 58009 80001=
30731 42599 82901 10155 20074 40047 57007 82901=
30739 42699 61504 10316 20099 40021 57021 82202=
30745 42999 80103 10237 20098 40056 57011 80002=
30764 42999 31802 10288 20103 40039 57024 80003=
30811 42699 62701 10296 20133 49981 57018 83831=
30822 42998 72701 10116 20053 40063 58004 80002=
30824 42999 80502 10098 20036 40056 58015 82501=
30829 42999 32006 10337 20094 49987 57022 82031=
30846 42699 22502 10297 20009 40040 57017 81101=
30859 42999 83202 10296 20048 40055 57020 80001=
30862 42999 22205 10285 20048 40064 57020 80001=
30957 42699 33201 10206 20073 40040 57020 81202=
30975 42899 32906 10277 21007 40098 58020 81031=
31825 42699 71602 10149 20062 40086 56008 87900=
31845 41599 60602 10176 20135 40068 57008 71798 86300=
31878 41699 22805 10220 20107 40093 56021 72991 82300=
31915 42599 43404 10252 20058 40098 57017 82530=
31917 42599 62804 10254 20048 40111 57027 85930=
31921 42599 23103 10233 20129 40107 58012 82230=
31969 42998 01202 10161 20114 40115 57027=
31981 42699 23502 10233 20036 40086 58017 82200=
31987 42699 62004 10222 20123 40096 57025 86200=
32069 42699 42705 10090 20050 40115 58011 82501=
42309 32596 51402 10318 20234 40043 83430 333 58008=
42314 32596 30000 10322 20261 40040 82430 333 58001 82620=
42410 21496 70000 10296 20262 40041 70562 84630 333 58017
6990/ 81710 83620 87456=
42415 31596 70000 10300 20258 40035 70522 84330 333 58014
84620 81930 86360=
38262 42998 03202 10258 20092 40158 52009   333 20127=
21432 42998 01707 10008 21032 40184 57011=
21647 nil=
21824 41970 80305 10016 20002 40133 57006 70242 85075=
21921 42999 83502 20602 10150 20021 40100 57007 82035=
21931 nil=
21946 42984 21106 10071 21022 40189 57010 82030=
25123 42998 61106 10126 21054 40194 57003 80002=
61017 31958 50418 10300 20040 39675 40064 7071/ 80002
333 01600 20205 50974 55117 59020 85080=
61024 32960 20806 10280 20072 39530 40072 80002
333 01800 20264 52992 55092 59004 82080=
61036 32965 5//// 10286 20185 39858 40089 80002
333 02600 20285 51141 50744 55068 59014 85080=
61043 32960 42202 10284 20150 39649 40073 80001
333 02700 20282 51161 51014 55086 59012 84080=
61045 32960 7//// 10305 20002 39578 40052 80008
333 02500 20284 51541 51354 55000 59018 87280=
61049 32960 7//// 10292 20096 39762 40075 80008
333 02300 20278 51671 51314 55100 59001 87280=
61052 32962 32010 10380 20218 39842 40087 80002
333 02800 20278 50801 55100 59006 83080=
61075 32965 72206 10287 20219 39785 40083 80008
333 02300 20283 51151 50764 55075 59007 87280=
61080 32965 72804 10278 20210 39665 40070 81048
333 02600 20278 50921 55108 58003 81365 87280=
61090 32960 72810 10285 20186 39573 40062 81038
333 20285 51185 54150 55058 59016 81365 87280=
61096 32960 70000 10280 20161 39697 40063 80008
333 02600 20275 51351 51284 55063 59006 87280=
61099 32965 7//// 10266 20231 39/// 4//// 83042
333 02100 20264 50404 55062 5//// 83364 85080=
24856 42599 50502 10222 20073 40073 57006 82201=
30686 42999 22503 10296 20049 40072 57024 889//=
30777 42998 32302 10279 20030 40076 57021 80001=
30961 42999 62104 10285 20021 40068 58021 80004=
30978 42999 11502 10264 20041 40107 57016 80001=
31624 42599 80000 10195 20100 40066 57004 8692/=
31832 41599 22703 10183 20122 40078 57009 72581 82300=
24982 41599 71801 10083 20041 40115 58003 70282 87900=
31913 42799 73206 10226 20061 40092 57018 87900=
32121 42998 61005 10078 20041 40131 57008 86030   333 91111=
32128 42599 72901 10104 20064 40127 58001 87500=
62002 32960 10000 10182 20129 39482 48569 53009 80009 333 20175
51104
55124 81070=
62007 32460 30306 10225 20193 40178 52010 83600 333 20195 50264
55114
83718=
62008 32970 03104 10180 20071 39403 48558 51010 333 20175 51104=
62010 31557 30000 10185 20180 40181 51010 83300 333 20174 50574
55101 83620=
62012 31558 22902 10193 20185 40205 54000 71000 82500 333 20172
50294
82630=
62016 31558 60108 10210 20194 40173 53005 71021 86500 333 20198
50204
55107 86625=
62019 32560 50302 10208 20171 40163 53004 85500 333 20188 50254
55117
85625=
62053 31557 53610 10200 20176 40163 52008 71000 85800 333 20160
5XXXX
55115 85820=
62055 31958 00000 10195 20171 40152 51005 71000 333 20186 50504
55120
62056 32560 32812 10180 20155 39452 48533 56005 83500 333 20140 5059
4 55137 83620=
62062 32560 63210 10218 20175 40126 50006 86500 333 20182 50224
55125
86625=
62124 32960 00511 10231 20093 39648 40128 52014 333 20215 51954
55130
62131 32970 13210 10168 20160 39848 40153 53514 81030 333 20160
51554
55128 81363=
62161 32970 03604 10237 20097 40156 53XXX 333 20195 51114 55120=
62200 32960 00
CHECK
TEXT
NEW ENDING ADDED HECAYFYX
52634 36/// /0000 10083 20019 36760 4//// 57001
555 10010 2//// 30125 41111 51011 60/// 7//// 80000
9//// ///// 1/115 2//00 30000=
83718=
50204
55107 86625=
62056 32560 32812 10180 20155 39452 48533 56005 83500 333 20140 5059
4 55137 83620=
62131 32970 13210 10168 20160 39848 40153 53514 81030 333 20160
51554
55128 81363=
35925 32998 01103 10275 20065 40170 52003   333 20133=
38001 32997 00706 10281 20204 40150 52005   333 20216=
38196 32599 22905 10202 21002 40118 58015 82600   333 20096=
38198 32999 02906 10234 21009   333 20105=
38232 32998 01103 10288 20009 40163 51005   333 20180=
38328 32699 22803 10212 20029 40119 52006 82100   333 20105=
38334 32999 12606 10190 20061 40115 52003 81500   333 20089=
38439 32998 20203 10245 20015 40122 58001 80001   333 20147=
35497 11598 83202 10089 20074 40083 53030 60060 72582 889//   333
20091=
36859 12599 72903 10195 20106 40106 57004 60030 83970   333 20119=
38713 42698 63603 10221 20043 48510 53010 69900 81204
333 20107=
38933 32998 52702 10314 20128 40064 52002 82082 333
20172=
38954 32899 80000 10176 20115 48490 58013 83901 333
20091=
43003 21496 82903 10284 20256 40050 75052 8672/ 333 59002 6990/
82714 83618 88458=
98135 31575 31205 10311 20265 40107 58016 70544 83200 222//
20302
333 56299 83820=
98223 31570 22903 10340 20278 40073 57026 70544 81201
333 56999 81820=
98325 31462 53402 10323 20257 40067 58021 70544 82272 222//
20000
333 56999 82817 83079 98308=
98328 31463 61604 10260 20171 38508 40063 57007 74044 85201
333 56299 85813 84079=
98329 31475 60704 10328 20254 40073 5/030 70544 83262
333 56199 83818 84075=
98336 32481 60404 10320 20266 40085 57022 82231
333 56199 82818 85358=
98429 31559 40705 10327 20219 40076 57015 70544 83201
333 56999 83823 84080=
98431 11470 31004 10315 20268 40078 57015 60011 70598 81201
333 56999 81818=
98440 11475 70905 10316 20286 40085 57009 60061 72996 86938
333 56299 84916=
98444 11462 70402 10272 20259 40084 58012 60111 72998 85370
333 56999 84918=
98531 32480 30906 10346 20251 40059 57015 83200
333 56999 83818=
98536 31470 70904 10320 20252 40068 58017 70544 83268 222//
20000
333 56299 83818 85270=
98543 11470 81301 10320 20269 40073 58023 69901 78082 84907
333 56299 84915 88272=
98550 11458 70901 10282 20265 40074 57016 60601 70198 83968
222// 20101
333 56999 82915 87272=
98618 31475 70703 10315 20260 40065 58016 70544 82978
333 56999 81918 82819 84358 86273=
98630 32580 60402 10330 20277 40078 58012 82208 222// 2//01
333 56199 82820 86275=
98637 31475 60404 10325 20267 40064 57018 70544 82278
333 56999 82812 83358 86272=
98646 32460 70803 10320 20266 40088 57016 82902
333 56999 81918 86080=
57528 16/// /2000 10170 29756 37563 61430
555 1/137 2//00 30217 12100
11101 10100 10111 01110 1111/
/////
2//// 3//// 6//// ///// ///// 8//// 9//// ///// ///// //004
11101 11111 1011/
11111 110//=
23987 41499 80601 10100 20084 40074 52012 70282 889//=
98653 31470 51203 10320 20262 40075 58018 70544 82270
333 56299 82818 83358=
98741 31470 80402 10298 20262 40079 57014 71794 83977
333 56999 81917 82818 83458 88275=
98747 31470 30404 10320 20255 40051 57018 70544 83901
333 56999 82917=
98753 31468 51803 10325 20246 40055 57030 70544 83201
333 56999 83816 84079=
98755 11575 61402 10328 20275 40064 57025 69907 70384 81208
333 56999 81820 87278=
98836 31565 60902 10336 20253 40065 57014 70242 83201
333 56999 82820 84081=
62435 32960 03312 10288 20130 40084 53016
333   20225=
62455 32960 03312 10228 20191 40090 51004
333   20200=
43086 32597 33204 10364 20239 39843 40013 81802 333 59013=
43128 32597 52508 10320 20236 39435 40023 81532 333 59004 81620
84070=
43185 31596 73203 10302 20260 30017 40020 70296 81538 333
58009 81620 83360 85270=
43201 32497 62303 10266 20204 39338 40044 85802 333 56609 59003
84618=
43213 32597 82503 10298 20225 39725 40035 82437 333 59004=
43245 32597 62704 10326 20247 30002 40024 82531 333 59004=
43279 32997 82705 10350 20232 30013 40030 80007 333 59003
88270=
43295 32497 72906 10258 20199 39053 48471 85832 333 56699 59005
83612 83822=
43314 21497 83405 10254 20239 40082 70262 8381/ 333 59006 6001/=
43321 31496 62010 10308 20199 39612 40047 70522 82501 333
59005 82615 86070=
43369 32597 73205 10322 20267 40087 84470 333 59006 83620 87458=
43371 32597 73205 10310 20229 30004 40076 84370 333 56799 57972
59010 82620 81925 86465=
48008 32560 60000 10330 20258 40046 83931 333 56449 59006=
48042 21558 70401 10293 20248 40041 75055 84970 333 56440 58010=
48060 31556 53202 10280 20220 40021 70255 84930 333 56560 58017=
48062 /2560 61301 10307 20270 40036 83330 333 56390 58004=
48078 32558 41401 10317 20250 40042 83302 333 56409 59004=
48080 32562 82201 10320 20265 40025 83800 333 56590 59017=
48108 21495 81801 10270 20240 40068 75155 84827 333 5649/ 58008=
48010 32556 72201 10300 20253 40094 83170 333 56560 58018=
48019 32560 73201 10316 20248 40042 71722 84910 333 56460 59020=
48025 32458 53601 10308 20254 40046 85800 333 56600 58010=
48045 32453 70000 10238 20209 86301 333 56200=
48053 32456 71801 10320 20236 40036 84956 333 56559 58013=
48071 32566 63202 10312 20267 40035 83306 333 56709 59001=
48077 32461 62301 10315 20265 40046 84839 333 56499 58001=
48109 32597 61801 10292 20259 40044 84930 333 56590 59008=
23226 32572 73102 10198 20032 40140 57006 87500   333 20082 86724=
22845 12998 73402 10134 20070 40186 52005 60030 82031   333 20088=
22887 12570 82703 10215 20139 40137 52006 69900 82131   333 20149=
23205 11462 80504 10074 20058 40145 57014 60020 78182 8695/   333
20078 86912=
27037 32470 83405 10110 20084 40190 52013 889//   333 20095 86711=
27199 31998 02602 10260 20123 40157 52004 70291   333 20170=
27271 32997 72703 10226 20152 40148 52003 82032   333 20118=
27459 32998 63401 10224 20128 40159 52006 82081   333 20154=
27730 11358 80201 10127 20120 40175 52010 60070 76162 8872/   333
20126 86507=
22422 32480 23501 10126 20068 40151 56002 81101=
22954 11480 83304 10112 20080 40186 51010 69900 70282 8215/   333
20094=
27083 32599 41801 10277 20111 40133 57002 84200   333 20130=
27113 32997 70000 10135 20067 40202 51005 80001   333 20052=
27242 11465 82901 10120 20106 40183 52016 60100 70282 889//   333
20113 88714=
27329 12599 83202 10123 20093 40191 52007 60060 885//   333 20105
88629=
27355 32584 63202 10192 20151 40165 58006 83932   333 20155=
27373 32599 52102 10233 20143 40144 54000 81203   333 20157=
27665 32684 81701 10234 20138 40162 53009 81151   333 20175=
27823 11458 83502 10140 20132 40174 52010 60050 78082 883//   333
20150 88920=
28009 32998 01802 10258 20144 40151 54000   333 20125=
28411 32997 00000 10247 20117 40176 52004   333 20129=
22641 12584 82702 10124 20086 40172 54000 69900 82532   333 20074=
22854 12584 82802 10114 20085 40174 52010 60010 83831   333 20086=
27225 33582 83304 10130 20070 40198 52005 82201   333 20108=
27252 32484 72904 10193 20143 40157 52001 85250   333 20147 85819=
27369 32999 70602 10238 20119 40148 53004 80001   333 20166=
27393 32998 21602 10244 20128 40171 52001 80001   333 20167=
27479 32599 61002 10220 20121 40156 52008 82201   333 20186=
27532 11295 83404 10107 20102 40183 52009 69900 78082 8637/   333
20115 86706=
27648 32561 71301 10185 20147 40169 58004 8553/   333 20145=
27679 32980 21802 10213 20114 40166 52005 80001   333 20169=
28214 32999 03002 10246 20122 40173 52011   333 20130=
91212=
89664 11804 81113 11210 21230 39732 49772 52042 60041 73973 8807/
333 56/9/ 88358 90973 91527 93104=
91772 31498 40909 10257 20194 40121 70200 84800   333 562//=
91784 31598 60813 10244 20186 40136 70222 81106   333 562/9 81820
86278=
91792 31598 60000 10232 20190 40157 51002 70222 868//   333 569//
85822=
89009 41532 80311 11490 36973 53005 77672 8802/
333 88430=
37985 42998 01001 10273 20117 40136 54000=
89054 32260 82109 11038 21067 40096 58002 886//
333 78899 88705=
89056 32460 80318 11039 21062 40100 58009 885//
333 78899 88610=
89057 32460 80712 11030 21052 40105 57006 885//
333 72099 88612=
89058 32965 83614 11034 21068 30090 40105 57001 8802/=
89059 32560 80806 11050 21069 40117 57008 886//
333 72099 88720=
37575 42699 21802 10223 20127 40136 51013 82900 333   20174=
91413 11469 81108 10283 20254 30054 40073 57019 60061 70282 83372
333 56299 70086 555 90206=
91348 11474 81210 10270 20245 30029 40081 55003 69931 70282 85231
333 56399 70056 555 90206=
91203 11469 80912 10307 20253 30075 40080 57014 60011 70382 82978 333
56299 70066 82917 87368 87279 555 90206
91317 11469 81305 10264 20252 30064 40068 57019 60111 78082 84908 333
563/9 70485 84915 88279 555 90206
48004 32565 71301 10317 20248 86900 333 56500=
48037 32458 72301 10320 20248 40041 85970 333 56440 58012=
48097 31458 72402 10310 20254 40050 70522 83336 333 56499 59001=
91408 11474 61405 10303 20254 30036 40074 57015 69901 72581 84932
333 56399 70046 555 90206=
91376 32474 40813 10289 20244 30086 40090 53002 81101 333 562/9
70000 555 90206=
44288 32699 52008 10232 20067 38157 40024 58007 83240=
22550 11597 72602 10139 20097 40165 51002 60030 70262 83330
333 20093=
22768 11497 83002 10113 20093 40164 52012 60060 78022 889//
333 20104 86911=
44272 32698 82706 10241 20058 38161 49949 58006 86381=
44282 32699 73604 10222 20040 38273 40033 53007 83205=
44285 32699 62307 10255 20082 38300 40003 57009 82281=
44219 32998 42004 10275 20011 38530 49965 58011 80001=
44221 32699 50000 10230 20122 38512 40003 52002 82240=
44224 32698 72301 10204 20038 38004 49993 52002 86201=
44229 32599 72905 10189 20058 37900 40005 57011 84564=