ZCZC 000
SMCI10 BENJ 030000
AAXX 03001
53889 70010=
53972 70290=
53974 70080=
53978 70220=
53979 70200=
53982 70120=
53983 70140=
53984 70080=
53985 70070=
53986 70150=
53987 70300=
53988 70080=
53989 70110=
53990 70110=
53994 70180=
53995 70090=
53997 70170=
53998 70190=
54817 70030=
54903 70010=
57051 70260=
57056 70120=
57063 70420=
57065 70550=
57066 70490=
57067 70290=
57070 70420=
57071 70180=
57072 70160=
57073 70370=
57074 70630=
57075 70310=
57076 70140=
57077 70850=
57078 70700=
57079 70170=
57080 70140=
57081 70160=
57082 70180=
57083 70150=
57085 70150=
57086 70280=
57087 70390=
57088 70410=
57089 70410=
57090 70110=
57091 70090=
57093 70050=
57094 70260=
57095 70200=
57096 70160=
57098 70260=
57099 70280=
57156 70780=
57162 70670=
57169 70240=
57171 70520=
57173 70900=
57175 70370=
57176 70780=
57178 70590=
57179 70350=
57180 70360=
57181 70590=
57182 70570=
57183 70520=
57184 70720=
57185 70530=
57186 70410=
57187 70590=
57188 70540=
57189 70940=
57191 70190=
57192 70380=
57193 70390=
57194 70120=
57195 70520=
57196 70610=
57197 70990=
57198 70100=
57261 70430=
57271 70060=
57273 70570=
57274 70090=
57281 70940=
57285 71180=
57290 70600=
57292 71020=
57293 71170=
57294 70880=
57295 71190=
57296 71080=
57297 70380=
57298 70890=
57299 71140=
57396 70660=
58001 70250=
58004 70110=
58005 70180=
58006 70220=
58007 70290=
58008 70200=
58017 70250=
58100 71230=
58101 70240=
58104 70550=
58111 70530=
58205 70750=
58207 71030=
58208 70960=
58301 70940=
52740 16/// /3107 10071 29059 36884 60000
555 1/132 2//01 /////=
57265 11240 80405 10208 20205 39959 40065 52009 60101 79598
889// 333 00151 70115=
57378 32660 83406 10219 20204 40050 52008 885// 333 05152
79999=
57447 32760 80000 10243 20231 39521 40031 52006 885// 333
05103 79999=
57655 32580 62203 10280 20222 40058 52009 81140 333 00003=
57687 32975 11404 10287 20232 39990 40066 52013 81040 333//
05101=
57766 32680 12502 10270 20225 40078 52015 81142 333 00000=
58040 11460 80706 10170 20165 30077 40081 52008 60041 76066
887// 333 05252 70047=
58633 32980 72703 10275 20238 39975 40069 52011 85042 333
05303=
58659 31640 70000 10272 20254 30047 40080 52003 71000 875//
333 05301 70008=
58847 32962 22901 10297 20242 30000 40097 52007 80002 333
05202=
59134 32480 12703 10274 20246 39956 40114 52004 81140
333 05101=
59082 32570 12004 10278 20236 30034 40108 52014 81100 333
00000=
59211 31550 70401 10261 20248 39889 40089 52011 71000 8744/
333 00151 70046=
59265 31958 00000 10272 20235 39976 40108 52011 71000 333
00101 70025=
59287 32562 60000 10286 20251 30062 40111 52008 86200 333
00000 70020 =
59316 32480 22703 10280 20243 30102 40111 52005 82400 333
05151=
59431 32580 71403 10270 20241 39956 40099 52014 871// 333
00200 70098=
59644 32570 61407 10287 20253 30081 40096 52008 86101 333
00100=
59758 32475 11403 10282 20257 30073 40094 52007 81100 333//
00151 70036=
59023 32565 70902 10256 20236 39853 40093 52016 878// 333
00100 70034=
59293 32565 61401 10272 20239 30063 40110 52009 86840 333
00051=
59417 11450 80701 10254 20247 39941 40089 52005 69901 72160
885// 333 00151 70244=
59501 32580 30401 10295 20245 30102 40118 52007 83100 333
05100=
59663 32465 20902 10293 20251 30074 40101 52008 82200 333
00100=
59838 32580 20702 10294 20232 30077 40091 52013 81162 333//
00200 79999=
59948 11578 51102 10279 20258 30083 40091 52006 60051 72598
82202 333// 00151 70130=
59981 32580 41403 10291 20262 30083 40089 52006 84100 333//
00000 70032=
57562 32580 42205 10297 20221 40024 52010 81142 333 05101=
57583 32975 12504 10308 20221 40036 52008 80001 333 05102=
57894 32575 11802 10254 20188 40104 52016 81102 333 00002=
57957 32564 62003 10276 20230 39908 40096 52010 82840 333
00003 79999=
58345 31930 70902 10256 20245 40040 57005 71000 8707/ 333
05602 70353=
58543 32980 70000 10258 20244 40068 52006 85042 333 05302
70001=
58569 31957 72207 10253 20243 40064 52001 71000 8703/ 333
05402=
58646 31958 70000 10268 20235 40080 52005 71000 87042 333
05302=
58660 32770 72502 10260 20228 40074 52001 8254/ 333 05300
70023=
58834 32962 11401 10258 20235 40103 52014 81040 333 05201=
59046 32580 21802 10281 20236 40100 52011 81130 333 00100
70002=
59058 32570 70000 10258 20241 40105 52008 8784/ 333 00151
70085=
59072 32980 01102 10297 20228 40104 52013 333 00003 79999=
59087 32562 70000 10267 20246 40112 52012 87200 333 00001
70113=
59096 32665 10000 10263 20220 40110 52009 81100 333 00001=
59209 11356 80000 10218 20208 40095 52009 60021 78080 889//
333 00152 70051=
59254 32562 50401 10272 20249 40103 52012 83840 333 00101
70011=
59278 32575 60000 10282 20248 40107 52009 86140 333 00000=
59493 32580 21101 10286 20240 40105 52007 82100 333 00000=
59632 32575 70903 10286 20255 40094 52008 86202 333 00101=
59647 32580 21104 10283 20253 40092 52010 82102 333 00200=
59658 32468 21603 10292 20253 40103 52010 82200 333 00201
79999=
59673 32580 60000 10298 20259 40103 52006 86200 333 00001=
59845 32580 11403 10274 20232 40093 52015 81100 333// 00200
79999=
59855 11570 72001 10266 20255 40093 52011 60081 78000 872//
333// 00151 70107=
54511 31956 80501 10227 20148 30087 40125 52002 71000 8807/
333 05200=
58926 31758 10000 10260 20226 40110 52006 71000 81100 333
05202=
50468 32675 71402 10174 20076 39905 40100 57005 84502 333
05251=
50745 32964 12501 10235 20072 39938 40108 57002 80002 333
05300=
50953 32970 03403 10236 20108 39947 40116 57001 333 05306=
54337 32960 70702 10218 20140 30048 40130 52004 80002 333
05201=
54342 32960 20703 10197 20142 30071 40131 57001 80002 333
05351 70030=
54471 32960 70402 10227 20169 30115 40120 57001 80002 333
05403=
54497 32965 70205 10222 20122 30099 40113 57005 80002 333
05404=
54662 32960 20404 10227 20147 39999 40115 52003 80002 333
05407=
59456 32972 10402 10275 20238 40104 52008 80002 333 00151
79999=
58138 11460 80907 10200 20197 40032 57012 60821 76198 8772/
333 05553 71266=
58259 31530 81401 10228 20224 40062 52006 71000 885// 333
05400 70662=
58464 31950 70702 10256 20240 40053 52002 71000 86042 333
05502 70004=
58549 32965 72201 10271 20230 40064 52004 86042 333 05302
79999=
58665 31556 62002 10280 20255 40066 52001 71000 82440 333
05402 70001=
58667 31556 82702 10237 20237 40086 52004 71000 885// 333
05301 79999=
59995 62905 10283 20249 30073 40081 52012 85102 333XX 00000=
51468 16/// /3400 11003 29019 36582 60001
555 1/123 2//00 /////=
58472 31230 71102 10235 20226 39964 40058 57002 71040 81642
333 05401 70033=
58477 31430 71402 10261 20241 30013 40055 57003 71040 81142
333 05502 70001=
58666 31/00 92210 10234 20233 39983 40080 52001 74700 333
05300 91118 91522=
58760 31559 72202 10247 20240 40080 52003 71000 87102 333
05401 70001=
58921 32963 02901 10256 20214 39872 40105 52014 333 05200
79999=
58144 11256 80904 10190 20185 30028 40050 57013 60401 76396
8672/ 333 05454 70491=
58358 31902 81102 10239 20238 40046 57001 74640 8807/ 333
05600 70287=
59985 32580 11402 10294 20264 30079 40084 52008 81100 333//
00100=
45007 32580 20902 10305 20245 30095 40104 53007 82200
333  20277 59002 70000 82820 =
59117 32580 13201 10271 20230 30012 40113 52008 81100 333
05100=
52418 32980 30403 10159 20094 38807 40036 52002 82042 333
00251=
52889 32970 70000 10194 20117 38446 40047 52010 8703/ 333
00401 79999=
53845 11557 80401 10140 20137 39052 40131 52013 60021 76060
8672/ 333 00458 70306=
57127 11957 82001 10199 20190 39489 40068 52011 69901 71060
8802/ 333 00301 70015=
56046 32780 30000 10043 20017 36320 52012 82502 333 00451
31003=
52866 32965 00000 10116 20082 37705 52009 333 00301=
56080 32965 30000 10096 20069 37172 52005 80002 333 00400
30047 79999=
53915 11550 81402 10154 20149 38628 40099 52013 60011 76066
8272/ 333 00400 70196=
52652 32980 01602 10124 20101 38500 40116 52008 333 00451
70015=
52681 32980 12502 10133 20117 38609 40103 52011 81042 333
00453 79999=
52996 32980 13201 10120 20103 37570 52012 80002 333 00403=
57046 11/00 93601 10113 20111 37926 52013 69931 76064 333
00262 70194=
52645 32980 03602 10022 20005 36832 52008 333 00451 31011=
57006 32765 72501 10186 20156 40079 52014 875// 333 00303
70007=
53923 11465 80703 10128 20128 40111 52015 69971 76066 886//
333 00453 70185=
52797 32980 00000 10149 20117 38344 52010 333 00554 79999=
52986 32965 50000 10143 20125 38089 52009 81042 333 00400
70001=
50632 32980 20000 10174 20042 39283 40124 57006 80002 333//
05351 30008=
53463 32570 80402 10175 20118 38956 40128 52015 889// 333//
00254 70005=
54218 32980 70000 10207 20103 39483 40124 52003 80002 333//
05202=
50774 32965 00901 10157 20094 39827 40116 57012 333 05102
30050=
58238 11412 80902 10232 20228 30026 40035 52004 69951 78080
889// 333 05501 70774=
58562 32966 71804 10284 20238 40051 52001 86042 333 05503
79999=
58457 31520 71602 10266 20246 30000 40049 52003 71000 86402
333 05403 70003=
57279 11465 83603 10212 20200 40053 52014 69901 76000 8272/
333 00052 70080=
57355 11/04 90000 10235 20228 40033 52018 60021 76164 333
00001 70015=
57458 32670 71401 10239 20220 40035 52007 874// 333 05103
70002=
57461 32965 81604 10257 20223 39880 40031 52014 8807/ 333
05100=
57476 32965 60403 10255 20224 40041 52017 84041 333 05152=
57494 32975 72902 10301 20234 30009 40036 52014 8704/ 333
05102=
57554 32872 82703 10267 20217 40048 52010 885// 333 05104=
57574 32975 01804 10288 20232 40039 52009 333 05101=
57584 32975 12004 10292 20227 40053 52014 80001 333 05101=
57598 32980 42202 10290 20212 40065 52010 84030 333 05102=
57662 32970 11803 10289 20228 30003 40042 52009 80002 333
05101 79999=
57669 32680 12704 10287 20215 40048 52004 81142 333 05103=
57682 32980 02505 10300 20218 40069 52012 333// 05101=
57745 32579 62004 10265 20221 39759 40065 52012 81142 333
00000=
57774 32580 12006 10295 20225 40070 52016 81130 333// 05102=
57799 32978 11805 10284 20226 30003 40082 52017 80002 333
05100=
57845 32670 62006 10260 20218 40081 52013 86200 333 00101
70010=
57853 32680 20000 10260 20225 40079 52018 82100 333 00151
70001=
57866 32580 11804 10285 20224 39891 40086 52018 81100 333//
00001=
57965 32975 52004 10279 20225 40088 52013 85040 333// 00003
70014=
57972 32966 11405 10290 20207 39884 40094 52014 81040 333
00000=
58015 11458 80705 10194 20188 40068 52012 60151 76066 8772/
333 05152 70229=
58102 11659 80405 10195 20185 30014 40063 52014 60091 76066
885// 333 00053 70532=
58122 11470 80405 10186 20183 40060 52015 60521 76098 8772/
333 05154 71024=
58215 11550 80407 10207 20202 40045 52022 60261 79586 889//
333 05351 71076=
58314 32970 82704 10290 20213 39956 40039 52020 8807/ 333
05205 70045=
58321 11457 83203 10257 20241 40030 52011 69901 76060 887//
333 05503 70459=
58338 32964 71803 10269 20239 40033 57002 8704/ 333 05604
70123=
58437 31/00 92510 10162 20157 38153 52013 74740 333 05100
70001 91125 91520=
58506 32480 72204 10243 20178 40069 52014 82142 333// 05102
91119 91520=
58519 32978 71804 10282 20230 40069 52013 80002 333// 05201=
58527 32980 72203 10304 20218 39995 40066 52016 86042 333//
05204=
58606 32962 62504 10277 20235 30011 40063 52011 80002 333//
05201=
58626 32975 60000 10292 20241 40073 52009 80002 333// 05204=
58634 32963 72701 10270 20234 40072 52008 80002 333// 05302=
58813 32580 41802 10283 20225 40088 52015 83140 333// 05102=
58531 32575 72901 10264 20244 40060 52007 81142 333 05304=?
59102 32565 61603 10259 20221 40116 52012 86100 333 05101=
58236 11657 81104 10216 20210 40031 57002 60111 76060 885//
333 05500 70701=
58319 32562 71802 10269 20248 40034 52006 8357/ 333 05402
79999=
53513 11968 81102 10152 20130 38962 40121 52005 60021 76060
8802/ 333// 00354 70185=
58311 11567 83202 10251 20239 40037 52020 69901 70060 885//
333 05201 70435=
58326 32570 82004 10279 20220 40032 57003 8657/ 333 05505
70367=
58715 32980 51804 10283 20222 40085 52014 81042 333// 05201=
50548 32980 00000 10187 20070 40109 57002 333// 05403 30043=
50834 32980 02905 10174 20034 40127 57006 333// 05303 30046=
53480 32980 71601 10153 20106 40139 52009 80002 333// 00100=
53898 11962 80204 10203 20153 40113 52014 69901 70060 8802/
333// 00000 70001=
54527 31957 73602 10224 20176 40123 52005 71000 80002 333
05301=
54602 32762 83602 10201 20152 40131 52013 8552/ 333// 05152=
54725 32962 80403 10197 20167 40108 52009 86037 333// 05100=
54751 31362 71105 10141 20134 40116 52002 70040 81602 333//
05301=
54916 11960 40404 10229 20197 40085 52004 69901 70060 84030
333// 05101 70044=
58241 11356 80903 10203 20200 40063 52005 60741 79598 889// 333
05353 70899=
58343 31615 81105 10234 20230 40048 57002 71040 8757/ 333
05500 70493=
56146 32680 72704 10076 20054 36783 52009 874// 333 00452
70059=
56247 32880 70000 10163 20111 37430 52014 81440 333 00301=
56294 11956 70000 10236 20218 39478 40042 52015 69971 71060
8704/ 333 00302 70015=
56444 32780 12902 10071 20056 36836 52004 81100 333 00252
70002=
56462 32680 13404 10105 20080 37149 52010 81400 333 00200
79999=
56492 31956 00000 10258 20211 39650 40032 52013 71000 333
00203=
56571 32780 21602 10242 20145 38358 52015 82800 333 00301=
56651 32680 12701 10169 20127 37626 52006 81400 333// 00100=
56691 32480 72203 10174 20139 37768 52018 8764/ 333 00200=
56739 32575 70201 10187 20167 38324 52008 86440 333 00102=
56778 32570 71802 10194 20160 38101 52011 874// 333// 00101
79999=
56951 32675 70000 10193 20181 38476 52007 874// 333// 00151
70045=
56964 11475 80000 10217 20187 38665 40056 57001 69901 72500
889// 333// 00001 70041=
56985 11580 71403 10213 20178 38680 40078 52009 69901 70080
86402 333// 00151 79999=
57328 11712 80403 10220 20219 39641 40029 52020 60311 79598
889// 333 00301 70312=
57411 11930 80000 10230 20227 39682 40033 52016 60021 71098
8807/ 333 00203 70250=
57516 31930 80000 10261 20231 39730 40022 52014 71000 8807/
333 00203=
57816 32575 82206 10213 20180 38757 40071 52015 888// 333
00251=
57902 32580 72202 10208 20178 38605 40079 52018 875// 333
00151 70016=
57399 11960 82901 10272 20233 40045 52016 69901 76000 8807/
333 05102 79999=
57776 32080 42218 10205 20182 40080 52012 84142 333 05101
91128 91520=
57793 31556 12701 10265 20235 40086 52017 71000 81102 333//
05101=
56144 32580 70000 10095 20063 36908 52005 83442 333 00553
70010=
56152 32480 62702 10071 20053 36371 52010 82400 333 00402
31005 70013=
56167 32580 73203 10132 20080 37121 52015 87500 333 00403
70020=
56193 32564 70000 10211 20193 40052 52015 8244/ 333 00202
70071=
56196 32965 70000 10250 20205 40031 52015 8704/ 333 00302=
56257 11680 71602 10092 20039 36322 52009 69901 70080 875//
333 00201 79999=
56287 11880 82503 10222 20199 40050 52017 69951 72186 885//
333 00302 70008=
56357 32680 60201 10096 20026 36495 52010 82440 333 00201
30019=
56374 11080 70000 10131 20126 37432 52003 60071 70098 874//
333 00452 70071=
56385 31/01 93202 10112 20110 37030 52011 74640 333 00401
70004=
56586 32880 11602 10204 20136 38022 52014 81044 333// 00351=
56666 32780 61101 10261 20168 40027 52017 86400 333 00300=
56671 32780 71801 10197 20158 38195 52013 874// 333 00251=
56684 32580 62203 10182 20138 37884 52016 84102 333// 00251=
56748 32575 70000 10186 20168 38326 52012 83442 333// 00151=
56751 32578 21103 10189 20158 38007 52010 82100 333// 00151=
56763 32680 71403 10235 20193 40046 52013 86442 333 00252=
56768 32680 80000 10194 20170 38213 52011 884// 333// 00151
70072=
56786 32580 72002 10192 20160 38105 52011 874// 333// 00101=
56838 32670 70000 10224 20208 40058 52004 879// 333// 00100
70016=
56886 11475 70000 10189 20172 38260 52013 69931 70080 874//
333// 00100 70029=
56946 31440 80401 10207 20195 40072 52008 71000 886// 333//
00152 70048=
56954 11459 70000 10217 20205 40067 52004 69911 71080 8744/
333// 00001 70060=
56959 11575 80000 10235 20229 40051 52006 69991 70080 884//
333 00001 70065=
56966 11775 71402 10263 20215 40056 52012 69901 70080 86432
333// 00100 70006=
56969 11460 70000 10233 20226 40071 52003 60041 72598 874//
333 00101 70170=
56977 11580 70901 10221 20200 40070 52006 69971 72580 81142
333// 00001 70035=
56986 11/56 81606 10183 20177 40094 52010 60031 78088 887//
333// 00151 70070=
57237 11675 81602 10198 20187 40037 57011 60211 70098 889//
333 00201 70698=
57306 11958 81801 10220 20214 40037 52015 69961 71098 8807/
333 00303 70067=
57504 31856 81101 10258 20217 40026 52011 71000 885// 333
00203=
57602 31930 52902 10258 20215 40028 52012 71000 85040 333
00203=
57707 32680 20000 10233 20182 38449 52015 81130 333 00200=
57713 32980 22005 10263 20188 40026 52001 82040 333 00101=
57731 32980 41805 10283 20206 40044 52008 84030 333 00151=
57832 32580 21802 10263 20212 40064 52017 82800 333 00101=
57916 32676 52701 10257 20222 40081 52015 81581 333 00151
70054=
57922 11580 41806 10227 20189 40093 52017 69901 70060 83142
333 00101 70031=
57932 32678 60702 10258 20232 40081 52014 86800 333 00100
79999=
59007 32770 71402 10214 20173 40083 52011 875// 333// 00101=
58027 11340 80703 10180 20170 30024 40073 52019 60171 76066
8772/ 333 05152 70312=
58251 11658 80703 10203 20201 30052 40058 52004 60871 79598
889// 333 05353 70944=
58556 32967 70000 10262 20239 40062 52003 8704/ 333 05401
79999=
58944 32975 22505 10290 20203 40099 52003 80002 333 05202=
58725 31/09 90000 10229 20225 39854 40104 52010 74340 333
05200=
50527 32970 01602 10198 20052 39417 40106 52003 333// 05302=
50727 32980 10401 10156 20040 38982 40138 57007 80001 333//
05202 30016=
54843 32965 30902 10192 20160 30075 40101 52010 80002 333//
05202=
54909 11961 70404 10225 20207 30015 40075 52004 60011 70060
87030 333// 05151 70079=
58730 31760 81601 10236 20226 40098 52010 70040 8557/ 333
05201 79999=
58731 31230 70000 10233 20224 40096 52008 72840 876// 333
05200=
58754 31540 80000 10260 20243 40086 52005 71000 885// 333
05300 79999=
58911 32562 70000 10239 20223 40114 52010 875// 333 05100=
50136 32970 20402 10204 20095 39576 40070 57008 80002 333
05508 30031=
50353 32970 61604 10182 20067 39874 40082 57010 80002 333
05503=
50557 32970 03602 10205 20054 39826 40108 52001 333 05402=
50756 32970 01603 10213 20055 39834 40111 57007 333 05300=
50788 32970 00202 10176 20110 30028 40109 57003 333 00051
70007=
50949 32968 02503 10216 20149 39970 40129 57001 333 05201=
50963 32970 00000 10184 20113 39993 40122 54000 333 05204=
50978 32980 03203 10202 20081 39834 40111 52005 333 05203
70043=
54161 32970 00000 10218 20132 39854 40129 54000 333 05251=
54236 32968 10000 10219 20143 30037 40136 52004 80002 333
05151 70001=
54292 32980 00000 10189 20103 39914 40122 57009 333 05300=
54374 32968 00401 10163 20100 39757 40145 57004 333 05251=
58150 11250 80905 10192 20186 30060 40068 52005 60151 76064
8772/ 333 05352 70180=
58820 31930 10000 10237 20221 40099 52012 72840 81040 333
05201=
58265 11563 80403 10220 20217 30053 40064 52007 60111 70098
8352/ 333 05400 70946=
57206 32780 70000 10242 20180 40031 52015 8254/ 333 00204
79999=
57348 11760 82901 10212 20201 40044 52029 60091 79598 889//
333 00253 70087=
57426 11440 81402 10219 20213 40033 52024 60561 79598 889//
333 00353 70562=
52323 32980 03203 10138 20053 38224 52013 333 00454 79999=
56096 32780 23201 10216 20174 38883 40054 52014 81540 333
00302 70015=
57036 11560 80202 10169 20164 39644 40104 52019 60021 76166
8572/ 333 00654 70214=
56033 32680 73606 10036 21029 36097 52009 86502 333 00302
31029=
52754 32980 00000 10064 20001 36824 52005 333 00201 31021=
52713 32980 00000 10093 21047 36949 52006 333 00305 31035=
52533 32980 02202 10134 20108 38500 40104 52008 333 00100
30043 70004=
52436 32980 00903 10135 20096 38435 40069 52006 333 00254
79999=
52787 31980 03204 10069 20054 37048 52005 70040 333 00351
30012 79999=
56021 32580 61101 10031 20017 36147 52008 86802 333 00401
30004 70001=
57385 32562 83402 10241 20219 40032 52009 8657/ 333 05301
70175=
57545 32765 80000 10248 20235 40042 52011 8757/ 333 00001
79999=
57649 32972 20000 10251 20228 40059 52012 82040 333 00051
79999=
57671 32966 11802 10289 20234 40050 52016 80002 333 05102=
57872 32670 11803 10281 20230 40077 52017 81102 333 00000=
58402 32962 80701 10253 20242 40055 52009 8807/ 333 05201=
58407 32968 70000 10298 20236 40040 52011 8703/ 333 05202=
58608 32970 72004 10291 20232 40077 52021 81032 333// 05100=
54102 32980 12203 10192 20093 39031 40120 57001 80002 333//
05201=
53588 11970 80909 10070 20042 37817 52010 69901 76000 8802/
333 00051 79999=
54401 32962 70201 10198 20132 39327 40141 52008 8703/ 333//
00051=
54823 32960 70903 10224 20162 39900 40095 52011 8704/ 333
05100=
53564 11962 80000 10164 20139 39156 40119 52002 60021 76066
8802/ 333// 00256 70025=
53798 11760 83604 10209 20131 30028 40118 52013 69901 76060
885// 333// 05100 70002=
53787 11959 80201 10137 20121 40123 52010 60041 76060 8802/
333// 00055 70041=
58647 31759 70000 10235 20222 40093 52007 71000 8654/ 333
05300=
58737 31415 60000 10255 20239 40095 52011 72840 82602 333
05202=
58846 32960 01403 10279 20251 40086 52002 333 05302=
58918 32580 11404 10271 20224 40115 52011 81100 333 05101=
59126 32662 73102 10273 20231 40119 52007 87200 333 05100=
59133 32965 22505 10271 20244 40102 52005 81032 333 05101=
53772 11656 83601 10157 20142 39259 40141 52012 60041 78088
889// 333// 00154 30048 70040=
54423 32965 70000 10198 20153 39690 40130 54000 80002 333//
05301=
53673 11960 80401 10153 20138 40143 52010 60051 76066 8802/
333// 00155 70056=
58362 32960 81103 10243 20231 30051 40061 52004 8807/ 333 05400 70161=
53352 32680 72201 10147 20089 40112 52008 83502 333// 00254=
53593 32770 80000 10182 20104 40132 52008 8257/ 333// 00051=
53764 11970 83603 10137 20128 40131 52013 60081 76166 8802/
333// 00258 70098=
53863 11550 80205 10150 20143 40140 52015 60061 76160 8672/
333// 00254 70063=
53975 11930 83601 10153 20143 40124 52015 60081 76066 8802/
333// 00256 70285=
54405 32960 70901 10202 20144 40132 52006 8703/ 333// 05153=
54808 11965 73603 10207 20176 40089 52006 69901 70060 80002
333// 05100 70016=
54826 31/03 90709 10120 20117 38436 52006 74340 333// 05254
70022=
54836 32665 70404 10195 20125 40097 52012 83502 333// 05153=
54863 32962 70706 10181 20145 40106 52001 8703/ 333// 05301=
50246 32980 32003 10175 20059 40083 57008 80002 333 05505
30034=
50658 32975 01101 10201 20064 40101 57004 333 05351=
50844 32962 02703 10246 20117 40113 57001 333 05301=
50854 32970 02703 10251 20124 40112 57004 333 05304=
50888 32980 03603 10174 20103 40107 57004 333 05153 70009=
50968 32980 02204 10188 20122 40124 52007 333 05305=
50983 32970 03203 10175 20113 40105 52006 333 05251 70015=
54096 32970 12701 10190 20101 40106 54000 80002 333 05302
70005=
54259 31975 00000 10148 20113 40152 54000 72840 333 05253
70030=
54273 32965 00000 10174 20124 40137 52001 333 05251=
54324 32965 70402 10225 20135 40124 52005 80002 333 05201=
54346 32967 20903 10190 20129 40136 57001 80002 333 05301
79999=
58931 31180 52009 10176 20126 38374 52009 70040 81102 333 05100=
47401 11256 81202 10100 20099 30092 40105 58004 60042 78085
882// 333 20076=
47412 11/70 71202 10165 20123 30068 40098 58014 69902 72585
82231 333 20113=
47420 32/60 82902 10094 20075 30072 40119 55001 886// 333
20058=
47426 31/65 72602 10138 20108 30071 40115 58003 70242 84271
333 20086=
47582 32/65 62402 10169 20110 30102 40127 58007 85230 333
20113=
47590 32/65 21402 10210 20119 30064 40114 58009 81149 333
20148=
47600 32465 70404 10189 20144 30104 40120 58009 82232 333
20116=
47648 31/50 71703 10230 20196 30079 40111 58009 71022 878//
333 20197=
47662 31/50 83201 10231 20169 30067 40108 58009 70522 8427/
333 20213=
47678 11458 82305 10225 20210 30039 40132 51002 69902 71082
8372/ 333 20198=
47740 11465 70506 10190 20151 30070 40107 58017 69902 70282
82202 333 20149=
47778 11/58 80101 10220 20196 30031 40117 50005 69952 76162
8272/ 333 20212=
47807 11/60 80202 10208 20176 30062 40079 56012 60092 70262
8182/ 333 20189=
47827 11/30 80302 10227 20215 30037 40073 58010 61322 78262
8727/ 333 20210=
47843 11230 80503 10199 20184 30032 40062 55003 60572 78088
882// 333 20194=
47898 11250 80308 10180 20174 30072 40110 55001 60142 76566
8472/ 333 20176=
47909 32/82 62002 10298 20223 30098 40106 55000 85202 333
20251=
47918 11/80 22004 10296 20260 30106 40114 51007 69902 72581
82300 333 20276=
47936 32/80 61907 10278 20238 30056 40116 54000 86200 333
20253=
47945 32/70 71605 10278 20252 30102 40125 54000 82102 333
20245=
47971 32/80 71202 10264 20229 30139 40148 57006 85202 333
20233=
47991 11/82 71102 10297 20228 30140 40150 56006 69902 70280
81232 333 20265=
54493 32974 40000 10211 20116 40123 52002 80002 333 05303=
47575 32/65 10203 10167 20110 30113 40117 58006 81102 333
20124=
47585 32/70 31203 10179 20121 30063 40118 58015 83501 333
20109=
47598 32/60 70702 10217 20133 30109 40115 58010 872// 333
20152=
47602 32/80 13406 10173 20136 30101 40121 58009 81131 333
20120=
47618 31/56 73103 10197 20132 39411 40097 58016 70522 82132
333 20130=
47624 31958 73203 10230 20148 39976 40106 58016 70522 80008
333 20176=
47636 11/40 81603 10220 20158 30047 40111 58003 69902 70562
8257/ 333 20199=
47655 11/50 80203 10205 20171 30059 40113 58007 69902 76162
8272/ 333 20199=
47750 32/60 83501 10212 20168 30081 40107 56011 8801/ 333
20170=
47755 32960 70202 10219 20183 30074 40097 56011 8703/ 333
20184=
47772 11950 81802 10236 20174 30012 40107 58005 69902 72122
8802/ 333 20223=
47800 11/50 83302 10203 20175 30069 40091 56009 69902 72582
882// 333 20189=
47815 11/56 82003 10191 20174 30086 40101 56010 60212 76166
8172/ 333 20189=
47817 11358 80202 10200 20183 30019 40060 58019 60652 76386
8772/ 333 20194=
47830 11/50 80802 10194 20184 30073 40090 57010 60552 78188
882// 333 20194=
47837 11/60 82107 10239 20220 30062 40083 56010 60052 78088
8427/ 333 20226=
47891 11940 81202 10211 20177 30092 40104 58009 69902 76162
8802/ 333 20203=
47899 11/58 81102 10186 20162 39904 40121 50005 60022 76166
8272/ 333 20184=
47927 32/80 61906 10281 20247 30068 40114 50004 86201 333
20258=
50603 32980 71602 10211 20035 39459 40081 57002 80002 333//
05500=
54026 32980 00000 10244 20139 39819 40123 54000 333// 05102=
54027 32980 02701 10212 20101 39579 40127 57001 333// 05151=
53646 11962 81102 10130 20119 38947 40132 52005 60041 76066
8802/ 333 00358 70082=
57245 11606 80000 10205 20205 39726 40060 52009 60181 78094
8292/ 333 00100 71053=
56004 32980 03202 11010 21025 35897 52003 333 00451 70001=
52955 32980 11402 10083 20019 37005 52009 80002 333 00300
30006=
56029 32680 70000 10078 20053 36549 52010 875// 333 00401
70124=
52836 32980 00901 10112 21052 36937 52010 333 00302 30022=
57016 11565 80903 10170 20157 40106 52017 69911 70060 8172/
333 00500 70225=
52943 32680 70702 10080 21009 36841 52009 83502 333 00401
31016 79999=
56065 31/04 90000 10019 20017 36674 52010 74540 333 00454
31014=
58436 32978 72503 10289 20225 40047 52008 86042 333 00406
70019=
57993 32969 20000 10285 20229 39959 40100 52015 81042 333//
05101=
58203 11556 80705 10201 20196 30008 40052 52018 60441 76098
885// 333 05152 71121=
58221 11460 80204 10198 20193 30015 40049 52013 60851 76098
8772/ 333 05352 71240=
58424 32965 72205 10282 20236 30020 40042 52008 8707/ 333
05301 70015=
57251 11459 82901 10206 20200 40070 52019 60191 76198 8672/
333 00151 70875=
22282 00241 10801 20301 322// 40801 70004=
53478 32770 70701 10145 20108 40133 52007 875// 333// 00352=
53853 11956 80000 10133 20131 40123 52013 60091 76064 8802/
333// 00256 70108=
54852 31950 80403 10192 20148 40102 52002 71000 8807/ 333//
05300=
53068 11980 31803 10216 20094 39048 40103 52003 69901 70080
80002 333// 05103 79999=
53231 11970 80405 10128 20114 38462 57001 60081 76166 8802/
333// 00258 70198=
53276 32975 71806 10194 20111 38862 40119 52008 80002 333//
00000=
54753 32960 70404 10188 20149 30106 40112 52007 80002 333//
05252=
54857 31430 70000 10180 20163 30008 40097 52007 71000 8663/
333// 05302=
44210 32999 22305 10138 20015 38462 53022 82060 333 20110
555 30064=
44216 32599 72705 10183 20067 38889 40044 52023 85550 333
20174 555 30145=
44217 12698 22303 10070 20070 37878 40185 51004 69932 83873
333 20029 555 31021=
44229 32999 52901 10080 20051 37921 40122 53003 80008 333
20036 555 31012=
44254 32998 22703 10201 20025 38993 40070 54002 81052 333
20111 555 30075=
44257 32998 10000 10166 20045 38945 40103 52005 80001 333
20077 555 30050=
44263 32998 30000 10115 20025 38036 40112 52008 82074 333
20098 555 30070=
44291 32998 20901 10221 20021 38715 40171 51007 80003 20167=
44317 32998 22708 10218 20094 38921 40080 56002 80002 333
20155 555 30113=
44329 32998 00000 10148 20050 37741 40026 52003 333 20095
555 30030=
44338 32899 50000 10141 20077 38458 40109 52004 82048 333
20092 555 30071=
44374 32599 81809 10139 20064 38244 40073 53008 84503 333
20131 555 30109=
44385 31997 52708 10181 20115 38862 40081 53008 71022 83062
333 20160 555 30159=
53362 32680 71802 10154 20083 40125 52009 83532 333// 00252=
53664 11962 80000 10142 20140 40129 52002 60031 72166 8802/
333// 00256 70034=
53782 11559 80000 10168 20137 40134 52015 69991 76060 8372/
333// 00052 70012=
54623 32965 60703 10216 20165 40121 52003 82042 333 05202=
54705 32962 73404 10196 20147 40118 52014 8703/ 333// 05151=
54736 32562 60904 10194 20164 40110 52011 83430 333// 05201
79999=
54824 32960 70703 10232 20168 40095 52007 80002 333// 05202=
54936 11659 80404 10181 20166 40095 52010 69911 71060 885//
333// 05352 70007=
50564 32970 10702 10169 20084 40104 57007 81030 333 05254
30050=
54049 32970 00000 10205 20132 40137 52001 333 05253=
54115 32980 10000 10202 20089 40129 54000 80002 333// 05200=
54157 32970 00702 10211 20123 40142 52003 333 05151 70007=
54186 32970 02901 10190 20097 40128 57002 333 05201=
54377 32965 00901 10191 20120 40133 57005 333 05303 79999=
54386 32970 00000 10127 20074 40138 57009 333 05251 30045
70023=
56172 32480 80000 10123 20111 37376 52016 885// 333 00500
70030=
57633 32580 73401 10246 20208 39311 40042 52009 82142 333
00002=
53614 11662 80202 10143 20131 38874 40114 52006 69931 70060
8357/ 333 00454 70187=
53723 11963 80904 10129 20122 38627 40112 52008 69941 70060
8802/ 333 00358 70127=
52602 32980 20000 10078 21039 37297 52007 80002 333 00203
30012=
51886 32978 50000 10081 21030 37144 52002 80002 333 00302
30034 79999=
53705 11962 70703 10150 20137 40107 52009 69901 70060 8703/
333 00557 70038=
52737 32980 00000 10111 20028 37107 52009 333 00204 30030=
51087 32680 70000 10138 20120 39222 40137 52015 86902 333
00751 70034=
51156 11770 70000 10088 20037 38701 40148 52010 60031 70060
86502 333 00754 70042=
51232 32980 73206 10179 20074 40153 52030 85032 333 00601
79999=
54618 32962 70703 10195 20145 30097 40114 52009 8703/ 333//
05151=
54518 32962 80202 10215 20162 40127 52003 8807/ 333// 05200=
54539 32763 70402 10214 20167 30104 40118 52003 85532 333//
05301=
54436 32780 70000 10194 20149 40129 52003 875// 333// 05251=
54429 31950 70000 10209 20187 40119 52001 71000 8703/ 333//
05251=
54308 32970 80000 10175 20123 40142 52004 80007 333// 05201=
53959 11557 80402 10172 20162 39678 40114 52012 69991 76166
8772/ 333// 00556 70398=
54135 32980 03202 10228 20132 39925 40134 54000 333// 05151
79999=
53698 32661 83201 10206 20135 40136 52020 885// 333// 05151=
82460 22242 00195 20401 3//// 40804 5//// 80187=
82100 22200 02256 20202 3//// 4//// 5//// 80190=
80009 22253 00265 20504 309// 40705 80170=
56079 31/08 90000 10061 20057 36735 52016 74540 333 00552
30012 70018=
56173 32880 70901 10092 20075 36694 52009 87900 333 00400
70061=
56182 32380 70000 10115 20098 37221 52013 87500 333 00551
70101=
57259 11465 80000 10201 20196 40070 52023 60231 79598 8797/
333 00151 70233=
53083 32980 20000 10200 20061 40117 52002 80002 333// 05101=
53487 11960 70000 10183 20099 40123 52011 69901 70060 83032
333// 00152 79999=
54226 32980 30000 10213 20123 40133 52008 80002 333// 05100=
54311 32970 80000 10178 20107 40136 57003 80007 333// 05102=
54534 31956 70201 10219 20174 40119 52003 71000 8703/ 333//
05351=
54715 32970 80404 10184 20174 40109 52006 8807/ 333// 05152
79999=
54929 11930 81103 10183 20172 40092 52012 60031 76060 8802/
333// 05251 70056=
54945 11/05 90707 10160 20158 40101 52006 60021 74764 333//
05300 70019=
53195 32973 31805 10220 20104 40116 52010 80002 333// 05102=
54624 32965 70705 10211 20154 40124 52012 83032 333// 05200=
54774 11/08 90701 10142 20137 40114 52003 69901 74354 333//
05351 79999=
56066 36/// ///// 10022 20010 36659 4//// 52008
555 10050 2//// 3//// 40111 51001 60/// 7//// 80000
9//// ///// 1/020 2//00 30000=
44219 32698 20000 10179 20058 38549 40047 51018 87500 333
20169 555 30135=
44221 32599 80000 10150 20090 38521 40060 53017 85540 333
20112 555 30084=
44224 11698 72302 10132 21027 38016 40058 52019 70232 87500
333 20100 555 30090=
44242 32998 10000 10243 20062 39220 40041 52010 81040 333
20186 55/// 555 30160=
44243 32599 70000 10247 20103 39303 40044 53016 87500 333
20163 555 30137=
44286 32998 41609 10202 20043 38604 40058 56001 80006 333
20156 555 30090=
44348 32997 60907 10203 20102 38668 40076 54001 86060 333
20160 555 30121=
44386 32999 22705 10201 20094 38987 40076 52004 80003 333
20173 555 30155=
52818 32980 02501 10112 21043 37265 52008 333 00302 30020=
52908 32980 00000 11007 21029 35839 52002 333 00302 31047
79999=
56018 11680 70901 10059 20046 36249 52005 69921 70080 879//
333 00302 30049 70021=
50434 32980 00000 10149 20064 39284 40118 57009 333// 05304
31010=
50915 32980 02202 10240 20040 39183 40105 52002 333// 05206=
53149 32580 72203 10171 20116 38776 40104 52014 81102 333//
00251=
53192 32980 22201 10197 20073 38899 40130 52001 80002 333//
05201=
53336 32570 71802 10146 20118 38701 40113 52008 82902 333//
00356 70072=
53391 32980 61402 10158 20088 38527 40136 52002 80002 333//
00001=
53529 11571 81403 10118 20107 38600 40121 52004 69951 76060
8672/ 333// 00255 70121=
53543 11980 81404 10122 20097 38537 40135 52003 69971 76060
8802/ 333 00256 70008=
54012 32980 10902 10194 20091 39031 40131 52005 80002 333//
05203=
54208 32980 70000 10153 20099 38773 40145 52002 80002 333//
05100=
54776 31/03 93203 10121 20119 30057 40114 52001 74344 333//
05452=
52634 36/// /0000 10059 20004 36784 4//// 52006
555 10040 2//// 30125 41111 51011 60/// 7//// 80000
9//// ///// 1/117 2//00 30000=
57528 16/// /2000 10193 29756 37563 61430
555 1/135 2//00 30223 12100
11101 10100 10111 01110 1111/
/////
2//// 3//// 6//// ///// ///// 8//// 9//// ///// ///// //004
11101 11111 1011/
11111 110//=
45011 32475 61304 10289 20254 40110 52005 862// 333 20266
59002=
50442 32970 02702 10171 20061 40105 57008 333 05404=
47105 11540 81102 10183 20158 30088 40119 55009 69912 75054
8672/ 333 20156 30022 70001=
47108 31930 20501 10247 20172 39998 40100 56006 71011 80002
333 20185 30028=
47115 32550 60201 10180 20174 39860 40115 57005 71011 85520
333 20142 30026 92031=
47135 31609 80903 10211 20175 39820 40100 57002 74242 8352/
333 20171 30027=
47138 31956 83603 10184 20161 30115 40118 53002 71022 8552/
333 20172 30022 92023=
47159 31930 80704 10189 20170 30019 40099 55004 71022 8801/
333 20175 30020 92022=
47165 31958 81603 10220 20172 30042 40084 53003 71022 8801/
333 20184 31023 92022=
47184 11420 80904 10179 20169 30062 40089 57004 69972 75055
8672/ 333 20172 31020 70007 92022=
47008 32970 00000 10224 20130 30054 40104 52006 333 20138=
47014 32950 00000 10149 20123 39743 40123 52006 333 20106=
47016 32570 10000 10126 20068 39307 40142 58009 81100 333
20072=
47020 32965 00000 10177 20121 39786 40144 53001 333 20126=
47025 32960 01401 10155 20137 30096 40124 52003 333 20097=
47035 32970 00203 10226 20111 30112 40120 52002 333 20166=
47041 31560 80000 10169 20151 30099 40125 54000 71042 885//
333 20153=
47055 31956 03602 10174 20146 30086 40129 54000 71010 333
20142=
47058 32966 60000 10222 20159 30071 40115 57003 80001 333
20160=
47069 31956 80000 10203 20175 30011 40105 53002 71022 80002
333 20152=
23914 42999 20000 10156 20125 39865 40107 56001 82030=
23921 41582 70000 10140 20136 39990 40103 58020 70298 82931=
23955 11598 50702 10074 20045 30033 40093 54000 60042 70282
83871 333 20048 55101=
24641 11598 80201 10109 20090 39921 40053 52017 60012 78082
8535/ 333 20105 55029=
28440 42598 53101 10169 20120 39798 40125 57010 82206=
28748 42960 02701 10110 20058 39929 40159 57008=
29231 11497 89901 10100 20095 39969 40061 57006 60012 78582
8632/ 333 20089 55067=
29838 11596 81801 10116 20100 39813 40030 57002 60072 78182
883// 333 20116 55054=
30372 32999 81201 10163 20046 39235 40035 58015 82036 333
20051 55157=
30673 31998 80000 10135 20055 39357 40073 57007 70411 82036
333 30035 55145=
30823 32998 83201 10220 20112 39471 40046 52011 84032 333
20161 55132=
30935 32999 60801 10147 20086 39224 40096 52007 84041 333
2//// 55135=
30965 32999 73502 10213 20112 39334 40085 53004 82042 333
20150 55151=
31004 11999 83203 10172 20098 39266 40028 53006 69932 70282
84031 333 20122 55111=
31088 32498 81604 10038 20028 30122 40129 52002 886// 333
20026 55027 88710=
31168 31999 22302 10024 20014 30106 40117 54000 74040 80001
333 21004 55013=
31300 32999 71302 10205 20056 39807 40071 57012 80002 333
20080=
31329 31999 53401 10128 20043 39477 40105 58008 70241 80001
333 20016 55085=
31369 32698 61403 10137 20082 30026 40107 52008 82531 333
20050=
31371 32999 30502 10177 20100 39833 40077 57004 80001 333
20096 55148=
31388 32699 61803 10196 20077 39868 40108 58004 82502 333
20050 55132=
31416 32999 03602 10170 20092 30015 40100 58001 333 20084
55099=
31510 329// 20801 10158 20088 39946 40102 57005 82031 333
20103=
31707 32999 02201 10187 20117 30027 40112 52001 333 20096=
31735 31497 72902 10150 20133 30018 40101 52007 70242 84530
333 20068=
31873 12699 20202 10170 20100 39974 40092 51005 69910 81132
333 20104=
31909 11399 70903 10099 20081 30017 40092 54000 69960 70262
86530 333 20050 55056=
31960 31997 21901 10148 20106 39882 40104 58012 70240 80001
333 20083 55123=
32053 32698 71403 10052 20025 30076 40117 58008 83530 333
20028=
32061 12998 82903 10081 20061 30083 40120 54000 69900 8805/
333 20072=
32098 32698 81301 10074 20046 30117 40127 58008 82133 333
20046=
32150 32997 73603 10089 20053 30086 40115 57007 8705/ 333
20051=
32165 32499 81201 10087 20056 30058 40117 58009 889// 333
20040=
41697 63015 10182 20176 40135 52003 70122 85430
22232 04209 1//05 20302 330// 40604 80178=
58968 32660 72402 10284 20240 30097 40104 50003 875//=
58974 32960 02507 10282 20250 39992 40108 52006=
59358 32560 20502 10292 20270 30096 40107 50006 82200=
59559 32575 10704 10308 20243 30082 40109 51007 81100=
59792 32563 50704 10294 20267 30095 40100 52005 85200=
59997 31562 71801 10246 20231 30069 40083 51016 7//91 82220=
59158 32565 72501 10291 20246 30009 40106 50001 872//=
59562 32580 11901 10301 20237 30097 40108 51007 81100=
59567 32470 42501 10262 20234 39749 40117 51009 84200=
47003 32980 01403 10165 20136 30110 40114 54000 333 20113=
47005 32980 23601 10161 20041 38615 58004 82100 333 21002=
47028 32967 20000 10220 20131 30035 40123 57006 80001 333
20143=
47031 31/05 90000 10102 20100 74544 333 20078=
47037 32967 40901 10234 20132 30000 40116 58009 80002 333
20153=
47039 32960 10000 10204 20178 39946 40126 57026 80001 333
20150=
47046 31950 02302 10152 20141 30100 40123 57003 71042 333
20141=
47050 31956 30501 10207 20173 30075 40107 57016 71040 80002
333 20147=
47060 32960 30000 10213 20160 30057 40111 57007 80001 333
20163=
47061 31670 80502 10163 20148 30085 40127 57008 70342 885//
333 20146=
47065 32965 32501 10209 20168 30051 40112 57003 80001 333
20152=
47067 31960 63201 10213 20156 39994 40107 52001 71020 80002
333 20161=
47068 32970 00000 10215 20159 30077 40110 57007 333 20135=
47070 31960 80000 10221 20183 30029 40111 57004 71020 80002
333 20165=
47075 32980 00000 10214 20159 39710 40112 57002 333 20136=
98223 31565 10000 10305 20260 40086 51009 70544 81100 333
20260 56999 59013 81820=
98444 11462 70502 10274 20266 40092 52005 60124 78082 84308
333 20254 56999 59004 70117 84918 84270=
31137 11598 80000 10045 20033 39113 40105 53002 69922 78081
889// 333 21014=
31866 11398 80302 10074 20071 30096 40101 52000 69900 70252
886// 333 20063=
44207 32999 60000 10084 20058 38299 40129 50001 80001 333
20022 55///=
44212 32599 71804 10174 20080 38995 40042 52015 85580 333
20158 55129=
44214 12998 32703 10103 20032 38241 40099 53009 69902 82048
333 20097=
44218 32698 70000 10167 20058 38525 40031 52025 8557/ 333
20150=
44231 32999 70000 10141 20067 38653 40064 54000 87040 333
20112 55079=
44232 32999 60000 10154 20102 39028 40088 54002 86070 333
20109=
44239 32999 20000 10178 20088 38741 40052 54000 81049 333
20084=
44259 32998 53208 10238 20062 39251 40073 54000 80004 333
20185 55147=
44272 32698 61104 10174 20027 38175 40021 53010 82744 333
20168 55107=
44282 32999 20000 10139 20050 37276 40099 53002 80003 333
20080=
44284 32999 00000 10080 20029 37873 40136 52005 333 20051=
44285 32899 20000 10120 20074 38314 40107 52002 82040 333
20088=
44287 32899 20505 10143 20055 38121 40091 52004 82040 333
20108=
44288 32699 50000 10164 20036 38163 40073 52003 85500 333
20120=
44292 32898 20000 10208 20011 38683 40084 51010 82080 333
20178 55136=
44294 32998 40000 10196 20059 38561 40051 54000 82083 333
20055=
44298 31999 31603 10213 21007 38702 40080 54005 70500 80006
333 20145=
44304 32999 22704 10206 21005 38962 40085 52005 81070 333
20096=
44305 32999 22702 10213 20081 39029 40114 54000 80004 333
20143=
44314 32998 62709 10262 21024 39104 40084 54000 82062 333
20123=
44347 31997 71403 10181 20089 38672 40076 52006 70422 87070
333 20171=
44352 32999 10000 10227 20059 38913 40096 53005 80004 333
20157=
44354 31996 61302 10219 20085 39066 40075 53006 70522 82068
333 20182=
44358 11998 31604 10218 20157 39047 40105 53013 60022 70188
80004 333 20152=
44373 31598 82001 10187 20114 38497 40067 53007 70722 8557/
333 10167 55088=
28661 42999 51903 10109 20076 30038 40127 57021 83031=
28679 42699 79901 10092 20067 39960 40132 57011 86530=
28879 42997 72607 10105 20043 39872 40148 57009 87060=
28952 42998 00000 10090 20040 39986 40175 57010=
29023 11498 80402 10087 20056 39988 40080 57003 69932 70282
8693/ 333 20086 55126=
29122 32999 60201 10085 20056 30000 40072 57007 84031 333
20082=
29807 42997 22602 10064 20030 30015 40129 53002 82030=
30230 11599 80000 10161 20147 39764 40064 52004 60082 72598
85941 333 20145 55117=
30309 42998 10176 20115 38507 40062 50003 80001 333 20126=
30650 32999 80000 10134 20065 39033 40068 57009 81041 333
20077=
30710 42360 81301 10150 20124 39496 40080 50002 86504 333
20118 86609=
31532 11699 20000 10116 20097 39803 40126 53001 69900 72841
81205 333 20037 55053=
31829 11498 80304 10076 20067 30076 40107 54000 60020 70262
8667/ 333 20067=
31989 12499 11902 10092 20076 30046 40098 57003 69900 81600
333 20069=
35078 42998 32506 10070 21000 39805 40173 53002 83080=
35108 42997 10000 10137 20119 40189 52001 80001=
35188 42998 82701 10064 20041 39750 40173 53004 85031=
35229 42997 00000 10110 20080 39941 40205 52007=
35416 42997 20000 10132 20111 80001=
35671 41996 22402 10031 20015 39798 40224 58007 71000 80001=
35746 42998 10000 10134 20013 30140 40217 52012 80001=
35796 42598 70103 10094 20051 39749 40169 52021 81230=
36003 42998 62802 10078 20048 39971 40119 52014 84031=
36177 41597 62302 10110 20090 39884 40118 52016 70282 86300=
36428 41699 70302 10102 20081 39652 40128 52017 70282 82941
333 95000=
36859 42999 71804 10137 20081 39382 40121 57004 86058=
36870 41597 82801 10112 20068 39183 40154 53030 78082 889//
333 88929=
38198 42999 00000 10086 20025=
38341 42997 23101 10085 20023 39427 40194 52024 82040=
42369 31995 21102 10274 20260 49999 70511 82030 333 58007
82360=
42647 32596 72702 10300 20233 40022 83501 333 56609 58007
83620 85070=
42724 32596 50000 10270 20259 40029 82530 333 59001 82620
84360=
42737 32596 32503 10280 20249 40014 82501 333 59004 82615=
42809 31495 70000 10290 20268 40014 70522 83551 333 56499
58006 83618 85360 87070=
42909 32596 22903 10290 20265 40021 81302 333 58000 81930=
43003 21495 80000 10270 20256 40026 71352 8692/ 333 58041
6004/ 82714 83618 81925 88458=
43014 22596 70000 10232 20217 39389 40027 86870 333 58003
6004/ 84620 84825 86360=
43063 21596 60000 10236 20230 39413 40030 70296 83501 333
59003 6008/ 83628 85070=
43117 21596 83601 10240 20231 40025 75065 8677/ 333 59002
6001/=
43128 21596 73203 10230 20221 39426 40028 76096 84930 333
57962 59003 6029/ 81620 81930 85360=
43185 32596 50000 10268 20251 30001 40004 82530 333 59013
82620 83360=
43192 21596 70902 10254 20248 40036 75052 8572/ 333 59010
6994/=
43233 32396 72304 10222 20207 39232 40034 83631 333 56699
59003=
43245 32596 72701 10282 20242 39984 40006 84570 333 59007=
43279 21596 62904 10276 20229 39993 40010 70255 82436 333
59003 6990/ 82620 84360 86270=
43284 21496 70000 10240 20231 39934 40050 70265 83770 333
59003 6017/ 83710 83615 86458=
43295 22496 82703 10204 20192 39038 48448 85630 333 56690
58003 6005/ 82710 83615 85359=
43321 21396 72004 10214 20208 39601 40049 70522 83531 333
59012 6001/ 83615 85358 87070=
43371 21596 73203 10246 20228 39975 40048 82870 333 56790
59010 6998/ 81620 87465=
98328 31463 31603 10190 20178 38514 40080 51011 70544 82230
333 20172 56999 59007 82813 85359=
98543 12470 60802 10297 20263 40101 53011 69904 84201 333
20267 56299 58006 79999 84818 83075=
98630 32580 80000 10282 20266 40090 53020 82207 222// 20000
333 20274 56999 59003 82820 88275=
22550 42997 20000 10048 20046 30135 40145 58007 82030=
22583 42984 62902 10087 20070 30055 40133 53001 81072=
22768 42897 11902 10094 20073 30101 40156 58005 81080=
22845 42998 20000 10061 20040 30022 40177 52003 82060=
26063 41496 81804 10113 20099 30100 40107 58034 76362 885//
333 88612=
26298 42997 72502 10114 20040 39951 40176 57010 87070=
26477 41565 82104 10137 20076 30050 40174 57019 70282 885//
333 88628=
26702 41496 00000 10150 20139 30132 40157 57002 71082 87500
333 87611 11013=
26850 42965 22102 10139 20051 39947 40213 57006 82030=
26997 42960 03301 10099 20065 30010 40223 52003=
27595 42697 53104 10176 20131 30019 40154 54000 85500=
27612 429// 00000 10070 20064 30027 40220 52002=
27947 41697 83102 10146 20133 30018 40171 52004 70282 883//
333 86933=
27962 42997 60000 10166 20114 40160 53001 86030=
33008 42970 01902 10129 20068 30050 40226 57006=
34009 41596 60103 10118 20112 39897 40194 58002 71022 86400=
34172 42960 10198 20113 39978 40160 55001 84031=
34391 32997 11803 10166 20098 30140 40169 52002 80001=
37054 42997 62602 10150 20134 39753 40123 52001 86030=
44241 32999 71405 10241 20053 39172 40054 52009 84041 333
20217=
44341 32999 71402 10202 20051 38584 40076 53002 83042 333
20159=
44266 32598 72707 10101 20078 37775 40110 52013 85844 333
20097 555 30084=
44325 32999 20905 10226 20093 38775 40040 53007 82064 333
20181 55/// 555 30156=
44203 32699 50000 10096 20059 38360 40092 57005 81103 333
20020=
44213 32699 72207 10158 20125 38715 40056 52034 87500 333
20179=
44215 12698 63209 10126 20048 38344 40048 54013 69942 86500
333 20112=
44225 32698 70000 10106 20044 38240 40103 51007 83541 333
20070=
44230 32998 30000 10163 20080 38740 40095 53004 80004 333
20109=
44237 32999 41803 10132 20081 38449 40085 53002 81420 333
20070=
44256 32999 00000 10178 20097 39274 40070 54000 333 20089=
44265 12599 60000 10128 20126 38808 40132 53014 69952 83402
333 20126=
44275 32898 60000 10088 20032 37741 40110 51006 82043 333
20046=
44302 32999 22705 10216 20032 39066 40092 54002 82080 333
20125=
44313 32999 01403 10200 20081 39325 40093 57005 333 20091=
44336 32999 60000 10165 21005 38659 40101 54011 80007 333
20146=
23074 32998 03002 10024 20005 30148 40172 54000 333 20005
41001=
23711 42998 69901 10148 20139 39939 40103 57008 86030=
23804 41397 83001 10124 20107 39981 40124 54000 76186 885//
333 86709=
24143 32999 31603 10147 20059 30058 40105 52014 82070 333
20085=
24343 32999 60105 10139 20023 39977 40085 72016 86031 333
20114 55114=
24738 12999 20102 10150 20111 39888 40054 52011 60062 81031
333 20097 55026=
24951 12999 02704 10149 20097 39882 40022 52007 69902 333
20104=
24959 11498 83102 10145 20064 39913 40032 53001 69902 76165
8467/ 333 20119 55128 82717=
24966 32999 80401 10147 20064 39829 40030 57008 83037 333
20084 55166=
29313 32998 32401 10012 20004 39964 40082 57006 81031 333
21008 55147=
29612 32998 02902 10051 21017 39939 40086 53001 333 20047
55141=
29698 31998 51203 10115 20102 39587 40069 57007 70240 80002
333 20077 55056=
30758 32999 83301 10182 20078 39310 40064 57002 80001 333
20136 55146=
30949 32999 00000 10158 20064 39079 40093 52005 333 20085
55///=
35406 42997 00000 10166 20098 40213 52003=
38062 42999 02901 10115 20000=
38232 42998 00906 10203 21037 30096 40190 52009=
38457 42999 10902 10131 20002 39580 40151 52003 80002=
38507 42996 00906 10216 20081 30032 40129 57006=
38545 42998 00302 10145 20051 30004 40174 52010=
38656 42998 00502 10197 21009 30059 40164 52010=
38687 42996 03603 10160 21014 39924 40151 52006=
38880 429// 03001 10189 20034 39795 40160 52003=
38895 42997 00405 10183 20040 39887 40166 53011=
38927 32997 72444 10196 20009 39755 40114 52014 84030 333
00012=
38974 429// 03201 10170 20039 39135 40168 52008=
81200 22264 00283 20101 31108 40604 50403 6//// 80261 ICE /////=
54171 32980 12202 10204 20104 40141 52003 80001 333// 05202=
54285 32970 00000 10156 20096 40148 57002 333// 05252=
50948 32970 02702 10220 20134 40124 57003 333// 05300=
59626 32568 71804 10284 20253 40093 52010 87902 333// 00200
79999=
54094 32962 02002 10200 20104 39831 40112 57001 333 05303=
51133 11680 10202 10123 20077 39525 40149 52005 69921 70080
81402 333// 00552 70077=
50775 32665 10000 10205 20064 40115 52001 81102 333 05102
70010=
59849 11580 11603 10277 20232 40095 52013 69901 70080 81100
333// 00101 79999=
57522 31830 70000 10274 20235 40022 52017 71000 875// 333//
00301=
54335 32965 13602 10217 20134 40132 52002 80002 333 05201=
54266 32970 00401 10202 20111 40140 52002 333// 05200=
54276 32960 00000 10168 20102 40144 52003 333// 05151 30043=
54181 32968 10000 10160 20117 40141 57001 80002 333// 05301=
54195 32975 00000 10173 20085 40122 57011 333// 05302=
54041 32970 02903 10246 20122 40119 57004 333// 05202=
54063 32970 03204 10230 20135 40096 54000 333// 05306 70008=
59453 32565 71402 10271 20241 40103 52005 81102 333// 00151
70005=
54213 32980 00000 10229 20086 40121 52001 333// 05101=
54134 32976 01801 10212 20133 40131 52002 333// 05151=
51573 32970 60903 10252 20077 39992 40034 52021 80002 333//
00451 79999=
51828 31957 82902 10206 20095 38536 49983 57008 70600 8802/
333// 00002=
51709 32865 72902 10191 20044 38635 40009 52001 874// 333//
05203=
51716 32965 70403 10192 20074 38801 49993 57013 8706/ 333//
05202 70002=
51811 32962 72001 10172 20123 38694 40012 57005 86062 333//
05301=
54339 32962 20402 10244 20127 40128 52001 80002 333 05304=
54237 32965 20702 10223 20122 40136 52004 80002 333 05201=
54563 32962 41402 10223 20157 40118 52006 80002 333 05304=
54326 32970 70000 10218 20151 40119 54000 80002 333 05201=
59954 32570 50000 10280 20256 40092 52007 85200 333// 00151
79999=
51628 32970 30000 10131 20094 40037 57010 81062 333 00154=
78384 11560 80609 10281 20253 40154 69901 76062 8112/ 333 0/600
10310 20265 59008 81822 88460 90929=
91348 11461 81406 10250 20230 30068 40120 50003 60544 78082 8537/
333 20228 5623/ 58019 70544 555 90300=
104064 105062 104064 106064 105067 105067=
70200 81280 22245 00297 80261=
59242 32568 42001 10272 20239 40097 52011 81131 333// 00100
70067=
56151 32480 80000 10070 20052 36681 52013 886// 333 00551
30043 70009=
52876 32963 03201 10155 20107 38164 52010 333 00451=
52707 32980 12703 10089 20013 37299 52012 80002 333 00301
30011=
57608 31920 70000 10250 20222 40034 52010 71000 8704/ 333
00300=
53810 32965 70000 10152 20140 40098 52010 8703/ 333 00455
70020=
50514 32980 11102 10237 20009 40083 57002 80002 333// 05504=
50425 32980 10000 10184 20066 40118 57006 80002 333// 05403
30047=
53519 11662 81403 10136 20126 40117 52004 69971 76060 8372/
333 00457 70147=
53615 11665 81602 10147 20119 40110 52006 69921 70060 8352/
333 00457 70120=
59065 32575 61102 10284 20232 40104 52013 86800 333// 00002
79999=
59317 32570 23601 10291 20252 40108 52003 82100 333 05100=
57996 32661 12503 10275 20239 40099 52010 81100 333 05102=
59298 32568 20901 10284 20250 40106 52007 82200 333 00000
70014=
59271 32575 20201 10271 20236 40107 52010 82842 333 00001
79999=
80002 333// 05103 79999=
57947 32568 70000 10266 20237 40097 52011 878// 333// 00100
70024=
50758 32970 02502 10236 20069 40108 57005 333 05302=
50877 32980 13202 10178 20086 40119 52002 80001 333 05202=
50656 32980 02501 10212 20054 40109 57007 333 05201=
50853 32970 03202 10246 20056 40112 57010 333 05305=
50349 32970 32202 10137 20052 40098 57013 80002 333 05401
30047=
54365 32975 00000 10172 20122 40148 52011 333 05201 79999=
54454 31958 60000 10208 20155 40131 52005 71000 80002 333
05201=
81100 22261 02253 20201 30613 40703 50702 80230=
48820 11598 71401 10267 20251 30073 40081 52008 69902 70361
8694/ 333 01026 20261 3/025 58013 82895 86995=
48826 11597 61404 10284 20266 39951 40078 53010 69962 70382
862// 333 00028 20261 3/027 58017 86895=
48839 32598 21604 10296 20262 30020 40083 53008 81201 222//
2//01 333 00/// 20271 58016 81895=
48845 11498 61802 10263 20257 30062 40069 52010 60352 70282
868// 333 01028 20262 3/026 58019 82894 86697=
48848 12570 51804 10276 20257 30060 40068 52009 60022 85200
333 01028 20266 3/026 58014 85895=
48855 32570 72001 10272 20251 30066 40074 52008 86808 333
00029 20251 3/025 58016 83895 84697 87299=
48870 11498 50000 10270 20256 30075 40082 53010 60062 70381
85200 333 01028 20262 3/025 58017 82894 83995=
48877 32598 72701 10264 20244 30081 30086 52015 878// 333
01027 20257 3/026 58010 81895 87697=
48887 11565 72702 10250 20232 30080 40086 51010 60012 76062
8481/ 333 01026 20250 3/025 58013 81895 84697 86499=
48900 11496 60703 10246 20243 30073 40083 52008 60121 71062
868// 333 20237 58009 82894 86696=
48914 11598 70000 10259 20248 30074 40076 53003 69922 76062
878// 333 02026 20245 3/025 59002 81895 87696=
48917 11598 81805 10269 20240 30065 40070 52006 69982 70382
8522/ 222// 00277 2//02 333 01/// 20248 3//// 59006 85895
88499=
48918 11470 80000 10234 20230 30077 40088 53008 60172 70262
8172/ 222// 00278 20000 333 01025 20228 3/024 58007 81894
88499=
48920 32598 63403 10279 20252 30061 40061 52021 84908 222//
00290 20100 333 20272 58001 81895 81995 86299=
48803 11460 80000 10256 20249 39974 40085 52010 60032 72162
888// 333 01029 20246 3/025 58020 83894 88696=
48806 11470 70000 10231 20220 39330 40086 52009 69922 76062
878// 333 01025 20225 3/022 58011 85894 87696=
48808 31450 80000 10237 20235 39812 40090 52006 71011 888//
333 01026 20230 3/024 58016 83894 88696=
48823 11497 70903 10282 20272 30072 40075 52008 60022 78081
879// 333 01029 20264 3/025 58018 86894 86995=
48830 32570 73601 10258 20242 39793 40092 52011 86231 333
01030 20238 3/024 58014 86895=
48840 11498 61405 10276 20256 30076 40082 52011 60422 70282
86202 333 01027 20259 3/026 58020 84894 86895=
48852 32970 11402 10278 20244 30054 40064 52006 80001 333
01030 20242 3/024 58011 81099=
48802 11010 70000 10180 20180 88410 52010 60042 70262 877//
333 01020 20171 3/018 58001 87790=
48810 11470 62302 10251 20244 39896 40097 53014 60032 72562
862// 333 01026 20244 3/025 58023 82894 86895=
48831 11470 30000 10263 20256 30047 40084 52012 60172 70298
83800 333 01028 20246 3/025 58018 82894=
48838 32598 51402 10290 20260 30088 40094 52013 85200 333
00031 20280 3/027 58017 85895=
48846 11498 70000 10267 20251 30066 40069 52009 60052 70282
878// 333 01029 20256 3/026 58024 83894 85697=
48863 32998 00000 10270 20252 30066 40075 53002 333 00031
20254 3/026 58016=
48866 12598 80000 10209 20204 39236 40117 52011 69902 888//
333 01023 20203 3/020 58017 84895 88697=
48875 11670 40000 10226 20212 39554 40088 52009 60012 70261
82501 333 01025 20226 3/023 58010 87696=
48907 11497 82512 10243 20234 30075 40077 53007 60282 76062
85120 333 02/// 20235 3//// 58007 85894 88499=
48455 11563 81202 10266 20246 30037 40042 69934 70296 85876
333 20258 59005 70003=
48462 01558 80000 10254 20243 39998 40054 60024 71062 8782/
333 20247 58001 69917 70017=
48475 12562 80000 10266 20228 30027 40039 69904 83237
333 20257 59008 79999=
48477 32562 82002 10288 20246 30031 40045 83977
333 20272 59004=
48517 01560 70000 10242 20236 30045 40051 60254 72162 84876
333 20236 59004 60047 70253=
48567 01540 80000 10244 20241 30035 40053 60504 71062 83847
333 20231 59021 69957 70495=
48501 01420 80601 10240 20236 30057 40065 62174 76166 885//
333 20236 58009 60187 72165=
48564 01460 80000 10251 20242 30049 40054 60264 70262 83846
333 20251 59011 60097 70256=
96273 31556 80000 10240 20236 30065 70522 8557/
333 20/// 56009 58000 85620=
96607 01440 70000 10248 20239 30082 40096 54000 60094 76062 84521
333 20228 50270 55010 56000 59004 69907 84618 86459=
96737 01557 60000 10240 20234 30047 40097 57001 69994 70562 83271
333 20230 50240 55000 56000 57801 58002 69947 83820 80860=
96739 31530 70000 10241 20235 30026 40075 53008 71021 85571
333 20228 50120 55000 56000 58006 85620=
96755 31440 70000 10240 20234 30087 70522 82571
333 20224 56000 58005 82618 86462=
96791 01458 80000 10244 20235 30024 40084 52002 60214 76162 8592/
333 20235 50204 55010 56009 57901 58000 69907 81918 84618 806//=
96801 11456 80000 10224 20221 40094 60034 70522 8452/
333 10220 56009 59006 79999 84618 88460=
51777 31959 80000 10218 20122 39054 40010 57002 70600 80007
333 00306=
52101 11880 81103 10108 20076 38345 57012 60031 78080 889//
333 00451 70027=
51526 32975 60000 10152 20097 40063 52018 80002 333 00353
70005=
51495 11780 23415 10208 20071 40127 52003 69901 70080 81502
333 00352 79999 91129 91536=
52118 32780 22705 10135 20067 38259 52006 81102 333 00351
79999=
57962 59003 6029/ 81620 81930 85360=
58003 6005/ 82710 83615 85359=
59012 6001/ 83615 85358 87070=
20046=
47022 32975 00000 10141 20081 38834 58007 333 20041=
22113 42584 21903 10091 20036 30028 40089 57012 82100 333
91004=
22271 41505 21201 10017 20014 30115 40125 57003 74442 82501=
22522 41999 01801 10092 20071 30098 40107 57014 70281=
22820 42599 71604 10107 20023 39995 40129 57025 84332=
22887 42570 69901 10112 20098 30082 40150 58002 82531=
26781 42997 61002 10102 20064 39926 40214 58013 86030=
27037 42998 02202 10064 20048 30023 40183 58003=
33345 42974 03001 10129 20067 30032 40234 52002=
33393 42960 00000 10089 20073 39858 40248 58005=
33658 42997 02301 10105 20064 39954 40251 54000=
33791 42997 23506 10130 20097 30036 40185 54000 82030=
33837 42999 63304 10156 20082 30147 40197 54000 86030=
33946 42359 80204 10149 20139 39940 40153 56008 886// 333
88709=
34300 42497 83505 10136 20115 30008 40193 51002 885//=
34560 42962 31405 10190 20103 39992 40150 58003 83030=
34691 42998 20902 10151 20058 30184 40172 5/010 80002=
34866 42998 20902 10174 20176 40141 58006 82030=
34880 42997 71002 10182 20144 40156 57002 80001=
37472 42976 11203 10190 20167 30135 40112 52003 81030=
48327 11458 80000 10251 20235 39690 40043 60054 71522 86506
333 20245 58005 70048=
48331 01458 60000 10255 20244 39822 40050 60024 71066 83676
333 20234 58006 69957 70020=
48353 01556 80000 10244 20234 39764 40051 60364 71062 8687/
333 20240 59002 69956 70355=
48356 12462 60000 10258 20246 39864 40059 60104 82601 333
20250 58011 70095=
48375 01458 80000 10240 20239 39802 40028 60104 71066 85576
333 20239 59011 69917 70100=
48378 01458 80301 10256 20239 39986 40038 60114 76022 8657/
333 20247 59013 69905 70107=
48381 12560 71203 10254 20227 39831 40052 69954 82536 333
20251 58005 70005=
48407 12460 61402 10255 20237 39919 40060 60134 83246 333
20238 58006 70126=
48431 12460 80000 10247 20241 39835 40049 60294 886// 333
20239 59004 70293=
48432 11556 81501 10246 20237 39885 40053 60124 71022 8577/
333 20243 58000 70121=
48456 01560 81701 10245 20237 30024 40041 60044 70262 82877
333 20243 59006 60017 70037=
48480 01450 80000 10254 20245 30046 40050 60264 76166 8787/
333 20250 59004 60077 70260=
48500 01558 82602 10263 20218 30039 40045 69974 75062 8677/
333 20253 59009 69905 70007=
48008 32558 30000 10250 20233 40042 81407 333 20240 56909
59005=
48025 21340 82702 10254 20233 40034 70296 83870 333 20250
56780 58002=
48035 31450 70000 10224 20220 40030 71044 85960 333 20205
56190 59001=
48042 22557 50000 10265 20240 40032 83850 333 20256 56490
59004=
48053 32558 00000 10270 20240 40029 82956 333 20261 56459
59009=
48060 21440 80000 10230 20214 40037 70296 8497/ 333 20215
5656/ 58001=
48062 31459 80901 10266 20260 40024 71799 85970 333 20260
56290 58000=
48108 22596 81301 10250 20233 40051 84837 333 20230 56439
59010=
48112 21396 82704 10235 20233 40070 75365 8772/ 333 20226
5659/ 59006=
24329 32599 83403 10106 20061 39847 40129 52019 889// 333
20062 55003=
24382 32799 71202 10127 20027 39862 40094 58010 83130 333
20057 55000=
24507 32998 23502 10096 20040 39928 40152 52004 82030 333
20069=
24944 12999 52902 10179 20123 39781 40047 52005 69932 80001
333 20086 55071=
29594 32999 61303 10159 20117 39689 40044 57014 80001 333
20108 55106=
29634 11232 83606 10090 20086 39816 40026 56004 60052 78088
883// 333 20086 84703 84915=
29676 11599 82702 10155 20131 39628 40017 57003 69902 78022
889// 333 20134=
30054 31998 81102 10116 20106 39841 40066 53006 70241 85047
333 20080 55081=
30393 32699 39901 10174 20025 39078 40032 54000 81130 333
20111=
30433 11699 82002 10162 20097 39493 40041 52005 69902 70282
84931 333 20149 55138=
30469 31998 70000 10137 20036 39349 40050 58011 70411 83042
333 20028 55125=
30554 32998 80000 10122 20065 39044 40061 58012 82047 333
20050=
30603 31996 00401 10146 20109 39545 40074 54000 71044 333
20103=
30612 32999 21001 10152 20126 39584 40076 52005 80002 333
20126 55087=
30635 32599 81502 10156 20103 39530 40059 52001 82952 333
20132=
30664 32999 70000 10167 20071 39149 40056 58006 82042 333
10288 20057 55144=
30692 32998 70000 10160 20094 39600 40058 58007 80004 333
20040 55150=
30802 32799 82001 10087 20073 38651 48449 54000 81501 333
20026 55092=
30879 32999 20701 10174 20111 39390 40091 57005 80001 333
20081 55149=
30925 32899 82003 10249 20061 39162 40028 53006 83031 333
20199 55120=
35700 42998 00802 10208 20067 30194 40168 52002=
35925 429// 00000 10136 20068 30106 40213 52018=
36034 11598 82507 10105 20099 39830 40091 53039 60022 70282
889// 333 20098 85927=
36061 12599 81002 10107 20095 39685 40069 53007 60022 86501
333 20090 55053=
36982 42998 70401 11006 21090 36490 47029 58010 87030=
38353 41596 82902 10125 20056 39285 40157 52032 70282 889//=
38392 42997 00404 10172 20004 30102 40202 52016=
38613 42699 71802 10174 20076 39266 40125 52014 87900=
38696 32999 01603 10142 20009 39327 40158 53017 333 00005=
38750 42997 01101 10179 20164 30159 40132 58002=
55299 32780 10000 10029 20009 35911 52004 81400 333 00301
31007 70019=
55228 32780 20000 10033 21091 36047 52004 81142 333 05101
31045=
55591 32780 40000 10104 20050 36542 52016 82440 333 00203
30044=
55279 32880 12202 10034 20003 35765 52001 81400 333 00302
30006 79999=
55472 32580 20902 10043 20006 35785 52003 82400 333 00200
30011 70004=
56106 32780 60000 10072 20052 36264 52003 86400 333 00306
30043 70042=
55294 32780 11803 10012 21020 35785 52010 81400 333 00400
31014 70029=
55248 32780 10704 10022 21049 35936 57002 81140 333 05101
31034=
55437 32780 70000 10082 20025 36373 57802 55493 32680 70000
10060 20044 36068 52007 87500 333 00351 30037 79999=
55585 32780 10000 10081 20028 36416 52017 81100 333 00201
30042=
71900 46/// /3010 30043  53017=
63820 32480 20000 10224 20202 40121 81130
333 59014 81818=
40022 32565 31106 10232 20198 40066 58002 83500 222// 20000 333
83630=
40030 32970 02701 10208 20084 40023 58001=
40039 32970 03002 10230 20120 40008 56005=
40066 32570 52902 10198 20182 40057 56002 85500 333 85626=
40083 32970 00201 10164 20105 48424 55003=
83377 31697 30904 10216 20116 38890 40143 70542 83400 333
10274 58014=
89758 46/// /19// 11387 37079 4//// 5////=
89568 46/// /1432 11377 37421 4//// 5////=
89774 46/// /07// 11449 37115 4//// 5////=
71800 46/// /2718 30102  53013=
71403 36/// /1409 10092 20085 30082 40094 56024 333 10131 20086
70000=
89816 46/// ///// 11251 38264 4//// 5////=
94997 46/// ///// 10008 39803 49819 52015=
48601 11559 83502 10249 20232 30061 40065 60034 70522 82547 333
20245 50150 59015 82625 88276=
48615 11462 80000 10248 20235 30059 40065 69924 76062 8557/ 333
20240 50120 59009 82710 84620 88468=
48620 11368 80000 10231 20225 30061 40070 60034 71022 82647 333
20227 50140 59014 81708 88276=
48647 31464 70000 10250 20238 30041 40066 70522 81142 333 20247
50340 59016 81818 87078=
48657 12056 82302 10234 20228 30053 40071 60194 83535 333 20228
50380 59009 81700 85366 85076=
48665 31464 70901 10252 20240 30057 40067 70521 81951 333 20248
50300 59014 81917 87363=
96413 11256 80000 10238 20235 30067 40093 60394 76366 8652/ 333
20236 50400 58010 83703 85620 88465=
96421 11025 71501 10238 20232 30056 40092 60034 71062 87532 333
20235 50610 55094 58008 83701 84615 85365=
96441 11480 71602 10258 20239 30080 40085 69924 70162 82531 333
20248 50510 55097 59003 82616 86365=
96449 11470 71303 10257 20241 30057 40077 60014 70362 84963 333
20241 50430 59006 84814 81915 87365=
96471 11475 71204 10273 20240 30076 40079 69944 70522 82948 333
20248 50360 59011 81815 81917 87278=
96491 12472 61801 10276 20241 30067 40080 69904 82842 333 20242
50480 55085 59008 81817 86080=
48300 11459 ///00 10248 20239 39740 40043 60044 71010 83676
333 20232 58002 70036 =
48551 01440 80000 10238 20231 30049 40057 60124 76166 85877
333 20230 59006 60087 70118=
48565 01458 72406 10267 20251 30053 40064 60144 72162 82256
333 20250 59001 60037 70140=
48569 11458 80000 10240 20233 30018 40058 60024 71062 82276
333 20235 59015 70022=
48583 01457 80000 10249 20243 30051 40057 69984 76062 8487/
333 20244 59013 69987 70008=
22867 42989 00000 10067 20060 30054 40167 57002=
43157 21596 62501 10235 20222 39401 40028 70152 82531 333 59002
6992/=
43221 32596 60000 10290 20222 39995 40008 82431 333 58007=
41571 31696 60000 10231 20146 49987 70511 83530 333 56990 58006=
41594 216// 43603 10245 20179 49982 70500 82530 333 56990 58019
6009/=
41678 325// 73106 10261 20207 40003 4520/ 333 58036=
41700 326// 30000 10275 20216 49963 83500 333 58014=
41506 11696 73605 10183 20128 48462 60012 70264 84420 333 58021=
98336 11475 73601 10264 20256 40097 52009 60054 70562 82270
333 20234 56999 59002 70052 82818 87358
555 20052=
30537 32599 20000 10090 20029 39520 40057 58001 82900   333 20070
55///=
34363 42998 71302 10195 20113 30018 40158 53002 85031=
40250 32970 03304 10234 20078 39377 40010 54002=
40265 32960 02608 10160 20096 39310 40060 51002=
40296 32965 00000 10258 20158 40098 52009=
40310 32960 02924 10212 20104 38871 48445 58005=
40255 32960 02603 10168 20156 39386 40070 57004=
40270 32960 00000 10183 20048 39201 40049 57003=
40272 32960 03206 10146 20100 39260 40042 54001=
40340 31958 00000 10260 20162 40057 54070 70500=
62306 32560 33502 10224 20168 40119 56011 83500=
62318 32560 43213 10210 20164 40098 56010 84800=
62337 31956 02401 10200 20185 40075 56013 71000=
62366 32960 03404 10221 20176 40096 57007=
62393 32960 03508 10230 20146 40083 51002=
62405 32960 03308 10282 20117 40050 58002=
62414 32960 00304 10280 20022 40055 56003=
62417 32960 00508 10223 20163 40129 58003=
62440 32560 33010 10216 20186 40088 58008 83100=
62463 32960 03015 10274 20147 40047 58004=
62465 32960 03506 10260 20143 40048 56005=
47052 32965 00000 10199 20136 39802 40121 57006 333 20129=
97014 12562 40000 10274 20241 39980 40073 52006 60054 82231
333 20230 50790 55031 56000 57804 59008 82827 80860=
97048 11457 50702 10271 20242 30047 40071 52015 69944 71062 83232
333 20244 50460 55085 56400 57842 59014 81817 80860=
97072 12560 62202 10258 20228 30000 40102 51012 60044 70222 81531
333 20240 50570 55/// 56000 59014 81620 85361=
97146 11458 52702 10250 20236 40081 5//// 60144 70521 82531
333 20224 56000 57602 59011 82618 80659=
97180 12559 60000 10246 20224 30058 40076 50004 60031 81231
333 20228 5//// 55057 56000 59021 81820 84360=
97230 01420 81304 10244 20238 30077 40084 52009 60124 76262 86231
333 20250 50460 55029 56300 57801 59006 60127 86819 80858=
97260 11559 71402 10241 20216 30080 40087 52019 69904 70522 81571
333 20230 50150 55063 56000 59007 86620=
42492 21996 53602 10260 20246 40015 70522 80001 333 58017
6002/ 85075=
40356 32960 01306 10260 20020 39088 48450 333 59031 555 04410 59984=
40375 32960 00000 10250 20020 39201 40019 333 59009=
40405 32960 02502 10286 21030 39280 49959 333 58000=
40416 32960 04952 10300 20100 30957 40976 333 59003=
40439 32960 01703 10260 20210 30010 40022 333 59020=
40703 32960 00000 10164 20107 38897 40069 52006 92350 333=
40785 32960 00000 10242 20061 39010 40053 54000 92352 333 58002
92352 333=
41036 32960 02403 10229 20030 38518 48462 333
58002 555 04410 59996=
41136 32960 00000 10310 21060 39235 49992 333 58006=
41170 32970 03002 10327 20126 39982 49995 333 58009=
41196 32960 01302 10216 20128 39954 49993 333 58008=
41256 31456 43201 10304 20297 39979 49988 70500 84600
333 58007 84710 =
23205 41321 83605 10049 20037 30076 40091 53002 78082 889//   333
87707=
23219 41998 81702 10089 20085 39966 40067 54000 70298 8802/=
23418 42470 52402 10137 20117 30009 40079 57005 81601=
27271 41297 82902 10120 20114 30018 40168 52003 76186 8872/   333
87706 88518=
27707 42966 10000 10085 20056 39933 40223 52001 80001=
28711 42998 32403 39821 40175 57002 83010=
35121 42998 22102 10169 20090 30051 40190 52002 80001=
10338 31557 63502 10138 20130 30121 40192 51013 71111 865//
333 55300 86626=
16320 32960 03102 10203 20165 30187 40199 58002 92345=
16420 32998 00000 10210 20174 30134 40198 58003 92345=
16716 32565 10104 10198 20107 30178 40195 51007 81100 333
90730 91114=
16734 32565 53204 10202 20176 30122 40185 58004 82250 333
82820 85360 90730 91116=
16754 32565 13210 10200 20122 30106 40153 58005 81200 333
90730 91125=
17060 32660 40105 10160 20140 40179 58008 84200 333 84835=
17128 11670 70204 10110 20057 39035 40101 57014 60041 78088
85250 333 85840 86359=
17170 32970 00000 10116 20050 38329 48493 58001 333 10091=
17200 32970 02102 10140 20086 39101 40025 58009=
11518 32988 32004 10158 20106 39774 40201 53002 82041 333
55129 82365=
15420 32960 03201 10102 20082 30113 40223 57002 333 91002
91202=
96881 11450 70000 10250 20233 40094 69904 70522 84671
333 20200 56000 59004 79999 81718 83620=
96947 31457 40000 10212 20206 39497 70521 82531
333 20200 56000 59010 79999 82615=
24817 32999 70000 10150 20106 39740 40079 52003 84031 333
20098 55084=
21908 32599 83602 10010 21036 30105 40184 54000 86502 333
21014 55000=
24982 11497 71801 10062 20051 39634 40111 54000 69930 78082
87900 333 20040=
25325 32599 21803 10141 21060 39987 40139 57013 81102 333
20036 55150=
28255 42999 52803 10141 20121 39976 40099 57012 80001=
28642 42997 42706 10160 20097 40143 57008 83031=
29557 11698 81803 10134 20111 39791 40040 53003 60062 78082
883// 333 20131 55015 86643=
29822 11497 82703 10100 20094 39895 40049 53009 60092 76162
8802/ 333 20092 55000 88518=
29846 11597 61304 10126 20114 39686 40047 53003 60052 70282
83930 333 20115=
30777 32998 73603 10153 20073 39479 40082 58012 80002 333
20068 55151=
31174 31993 91803 10060 21005 30115 40126 54000 74741 333
21024 55095=
31263 32999 13501 10152 20058 39570 40107 57002 8805/ 333
20036=
31624 11999 01001 10156 20123 40110 58005 69930 72841 333
20050=
31832 11599 83402 10149 20118 30021 40101 58002 60020 70242
82202 333 20074=
31913 32999 03604 10186 20114 39997 40100 52009 333 20088=
36087 32599 60402 10157 20074 40109 52002 86900 333 20154
55110 95000=
36096 32699 83103 10204 20065 40009 53028 889// 333 20157
55114 95000=
36103 32699 70000 10072 20041 40074 57011 86902 333 20046
95000=
36231 11599 62801 10074 20050 39164 40131 52004 69942 70281
83401 333 20064=
36259 32699 61002 10073 20036 38178 48444 53006 82902 333
20046 55065=
36307 32799 71801 10175 20048 38838 48438 53032 86930 333
20146 86932 95000=
36974 42798 70902 10083 20061 37938 48477 53001 85350=
42101 32696 40901 10280 20226 49991 81530 333 58009 81635
83360=
42165 31994 01802 10326 20173 49969 70744 333 59009=
42182 31995 00000 10298 20250 49985 70500 333 58007=
42189 31695 60902 10282 20254 49999 70522 83531 333 58009
83630 85360 86070=
42701 21496 70000 10244 20224 39301 40012 70522 83531 333
58005 6023/ 83618 84360 86075=
42798 21495 60901 10272 20240 40010 70522 84430 333 58007
6001/ 83618 83825 86360=
43110 21596 60000 10250 20224 40040 70192 84570 333 58002
6009/ 84520 83456 85356=
43333 21496 82905 10248 20242 40017 76166 8542/ 333 59011
6021/ 84618 83820 88458=
44454 42456 60000 10196 20180 38614 48454 83830 333 58019=
83531 22225 00141 20504 317// 41006 80126=
97600 12460 71105 10280 20251 30089 40094 60034 83271
333 20214 5//// 55000 56200 57821 59006 83817 85459 80858=
97900 12468 71105 10266 20205 30090 40121 51008 60024 84820
333 20228 50130 55004 56200 57821 58001 83617 86460 80873=
48351 11562 80000 10261 20252 39965 40038 60064 70262 86876
333 20251 59009 70059=
48354 12460 71201 10262 20242 39846 40049 60014 85876
333 20250 58010 70011=
48377 01540 80000 10240 20233 39882 40048 60104 76162 84536
333 20236 58014 60106 70104=
48532 01550 80000 10240 20231 30036 40045 61624 76166 86876
333 20235 59013 60067 71624=
48460 12560 80000 10283 20240 30013 40044 60084 8657/
333 20259 59002 70081=
48580 11558 80000 10246 20237 30049 40056 69954 71062 85847
333 20244 59010 70005=
96509 01456 83603 10256 20250 30068 40075 50000 60254 76062 8527/
333 50620 55054 56009 57801 58007 60127 85815 87463 80860=
96633 11560 62705 10255 20247 30071 40079 52004 60014 70182 81430
333 20240 50000 55011 55508 50027 56000 59015 81620 86360=
96655 01457 83002 10238 20235 30080 40108 52008 60134 76166 86573
333 20228 50700 55090 56800 58012 60017 86612=
96685 31560 60000 10256 20232 30058 40084 52015 70511 83571
333 20245 5///0 55032 56000 58000 83620=
55598 32780 70000 10128 20050 36626 52014 878// 333 00202=
55690 11180 70000 10048 20031 36039 52010 69901 78080 8744/
333// 00201 30001 79999=
56312 32580 71401 10111 20089 37112 52007 874// 333 00030
70007=
55696 31480 73202 10084 20040 36392 52010 71500 878// 333
00301 79999=
10385 32872 10202 10174 20125 30119 40179 53012 81500 333
55300 81657=
10637 32982 10601 10179 20150 30050 40184 53001 81030 333
55300 81363=
16560 32975 03301 10186 20142 30191 40197 58008 92345=
17609 31456 62204 10199 20165 30042 40044 58006 71011 86500
333 82615 85618=
12330 32970 01903 10168 20117 30070 40175 55002=
12375 32980 21803 10132 20074 30076 40205 58006 80002=
12843 32972 01201 10125 20070 30070 40239 57001=
13272 32970 02002 10142 20105 30117 40236 58001=
42410 12596 30000 10264 20255 40035 70500 81530 333 58011
6990/ 81620 83360=
42634 32996 42305 10284 20250 40013 59003 84075=
42886 22496 71401 10292 20252 40009 84590 333 58008 6002/
84618 85360=
42895 32596 71601 10280 20260 40015 82230 333 58009 81620
86360=
42971 31596 60000 10282 20271 40013 70521 82531 333 58005
82620 85075=
43198 32496 60000 10220 20210 39218 40037 84631 333 56699
59005 83710 84615 85075=
43201 32397 72302 10220 20208 39322 40039 86602 333 56509
59004 85708 83615=
43213 21896 70000 10256 20223 39714 40028 70162 83038 333
58002 6002/=
43329 32596 72501 10266 20221 30007 40020 84231 333 58001=
43353 22496 50000 10238 20232 40061 83830 333 56190 59005
6011/ 82615 84359=
21802 12999 82505 10017 21021 30147 40170 57005 69902 8807/
333 21017 41996 55000=
23256 42999 03101 10083 20029 30129 40162 57002=
23274 32998 20402 10091 20023 30116 40153 53001 82030 333
20066 41998 55189=
23330 42998 81403 10109 20025 30112 40130 57004 84031=
23383 32699 60502 10062 20003 39825 40164 52007 82530 333
20003 41998 55099=
23472 32999 30503 10137 20050 30090 40135 52003 80001 333
20087 55164=
23552 42997 00301 10092 20038 30118 40151 54000=
23631 42999 71303 10126 20061 30080 40120 52004 80001=
23678 32598 70000 10104 20084 30050 40106 54000 87500 333
20097=
23849 42996 20605 10070 20034 40109 52005 82030=
23884 31559 80801 10093 20085 30021 40091 52002 71022 8652/
333 20089 55000=
23891 32598 73201 10140 20095 39783 40091 52005 84930 333
20097 55068=
23933 41997 20502 10094 20067 30060 40117 58001 70261 80001=
23966 11597 80000 10081 20073 39968 40089 57005 69902 78081
889// 333 20048 55092=
25400 32999 20502 10175 20036 30057 40108 57011 82030 333
20091 55189=
28275 42599 82801 10133 20059 30020 40078 57015 8435/=
28382 41998 70402 10097 20078 30010 40078 57027 70282 87070=
28493 42999 60000 10064 20048 39995 40085 57009 86030=
28573 41570 82403 10117 20062 30009 40108 57016 72522 8495/=
28698 42598 72401 10125 20038 39953 40099 57005 81930=
28722 42998 23401 10180 20119 30047 40170 58005 82030=
28786 42598 72902 10104 20043 39911 40121 57003 83370=
29253 11897 80201 10091 20071 39889 40053 57010 69902 76122
8802/ 333 20090=
29263 11597 81601 10104 20085 39958 40053 54000 69932 79522
8595/ 333 20088 55057=
29282 12598 70501 10138 20110 39908 40064 58005 69902 87900
333 20112 55143=
29430 11498 80201 10091 20091 39856 40023 57011 60072 78182
889// 333 20090 55000 88911=
35067 42998 1//// 10058 20024 39915 40185 53005 81030=
38763 42997 00906 10221 20025 30041 40141 52003=
38911 42998 03004 10162 20021 39845 40129 53019=
38987 429// 01801 10131 20336 39436 40162 53006=
20069 31/08 92411 10000 20000 30063 40076 51001 74542 333
21005 42032 55036 91114=
20087 11372 82507 10000 21005 30065 40075 52033 69942 70272
8667/ 333 21007 44045 55007 86709=
20292 32480 72613 10004 21010 30082 40101 52026 8653/ 333
21001 42/// 55000 86615 91115=
20674 11/02 90905 10002 21001 30099 40158 58007 69902 74542
333 21007 42029 55000=
20891 32997 72503 10036 20004 30142 40183 52003 87030 333
21017 41/// 55081=
21432 32998 82308 10025 21011 30085 40095 57010 85039 333
21022 42998 55240=
21647 32981 10903 11002 21022 30105 40133 57011 81030 333
21041 42028=
21824 31906 90305 11001 21001 30119 40128 53005 74740 333
21023 41998 55132=
21946 32984 51303 10112 20000 30069 40143 57009 82031 333
20019 55193=
21982 42282 82201 11037 21048 30280 40286 52001 886// 333
88704 91103=
25123 32998 82002 10101 21033 30138 40173 57009 80007 333
20044 55159=
25399 41498 80505 10000 21005 30247 40251 52011 70242 886//
333 86623 91106 93402=
25551 41497 80707 10036 20026 30162 40192 52002 76162 8672/=
25563 41480 80611 10054 20030 30112 40188 52009 78082 889//
333 91114=
25594 41463 80604 10044 20024 30192 40213 53013 76062 885//
333 91112=
25621 32699 21205 10112 21041 39325 40115 57005 82100 333
21042 55171=
25913 32699 82702 10065 20015 30008 40151 57001 84537 333
20026 55119=
25954 32699 80801 10070 21005 30127 40131 52003 81571 333
20018 55013 10022 30000=
32618 32598 53508 10050 20023 30110 40133 52007 85500 333
20032 55074 91012 91112=
96925 11463 70803 10273 20241 30078 40085 52009 60054 70362 84232
333 20252 50170 55077 56200 57820 59004 84817 80860=
96987 31450 80000 10250 20233 30029 40088 52004 71622 86518
333 20238 50251 55056 56000 59010 86617=
97300 32565 71908 10260 20209 30073 40105 52015 81231
333 20240 50340 55026 56500 57863 59001 81820 85359 80858=
97340 32570 31015 10250 20203 30097 40108 52007 81232
333 20226 50370 55062 56000 69008 81620 83360=
97372 31563 20910 10241 20180 39986 40115 52010 70511 81101
333 20220 50610 55076 56000 57800 59005 81820=
96595 01350 80000 10242 20239 30042 40091 60124 72162 86571
333 20/// 50530 55060 56009 58001 60127 86608=
96695 02556 70000 10246 20243 30075 40080 5//// 60094 84520
333 20240 50180 55015 56000 58006 60077 84620 84463=
96935 12458 51805 10270 20228 30075 40081 52008 69904 82531
333 20256 5///0 55062 56200 59009 82620=
97310 32568 70000 10262 20226 30080 40090 85221
333 20198 50360 55180 56000 57802 58000 85820 80830=
97320 32968 11305 10242 20216 30091 40108 80001
333 20203 50/// 55/// 56000 58000 81080=
97378 32570 30915 10242 20192 39952 49945 82101
333 20221 50/// 55098 56200 58003 82820=
65338 33960 50000 10250 20236 39928 40116 80002
333 59002 85076=
78792 32460 60000 10284 20244 30085 40100 52001 82204
333 020// 10317 20247 30/// 59020 82818 84080=
78793 31470 80000 10276 20243 30058 40089 56006 71522 82207
333 054// 10314 20236 30/// 57812 59020 82810 88280=
78795 32470 50000 10280 20250 39988 40088 57005 81501
333 0/0// 10304 20232 31/// 59019 70020 81610 83080=
71421 46/// ///// 10071 21011 39426 40123 56012=
71433 36/// /2814 10061 20061 30000 40232 5/009=
83264 329// 20000 10230 20218 39704 40119 80008 333 10343
58005=
83309 31991 00000 10224 20199 39802 40127 71040 333 10333
59020=
83358 32/// 90000 10226 20200 39732 40134 333 10304 58006=
83361 32995 01802 10248 20209 39954 40160 333 10311 59009=
83405 319// 01803 20205 39979 40114 71044 333 10310
59020=
71841 36/// /2707 10171 20024 39806 40197 5/003=
67027 32980 01006 10219 20169 30136 40157 57008
333 0//00=
67083 32470 31202 10129 20116 38793 48561 57007 83800
333 0//00 81817 83620=
62309 32960 03005 10204 20161 40099 57014=
62325 32560 33010 10210 20180 40082 56011 83200=
62332 32560 22908 10217 20183 40088 56009 82200=
62459 32960 03118 10242 20189 40028 56002=
48325 31210 80000 10242 20232 39798 40055 71022 886//
333 20234 58007=
48352 32562 70901 10264 20248 39861 40058 84576
333 20254 58011 70034=
48357 12562 60000 10270 20247 39898 40065 60094 83646
333 20238 58014 70089=
48383 01560 70902 10260 20246 39898 40054 60044 70162 84876
333 20250 58014 60037 70044=
48405 12561 40000 10260 20238 39888 40050 69994 82105
333 20248 58007 70009=
48425 01558 80000 10260 20249 30029 40039 60034 76162 8752/
333 20255 59004 69937 70026=
48426 01560 80000 10255 20247 30027 40039 60034 70262 85576
333 20249 59003 69997 70030=
48430 01556 80000 10245 20238 30035 40043 60424 76166 84576
333 20233 58002 60107 70423=
48450 32560 80000 10266 20232 30004 40037 85876
333 20264 59006=
48550 11558 80000 10267 20232 30046 40051 60234 71022 82576
333 20239 59008 70225=
48552 01456 80000 10245 20236 30043 40053 60124 76166 85836
333 20235 59010 69987 70116=
48568 01458 80000 10247 20231 30049 40056 60024 71062 83876
333 20243 59016 69905 70020=
98431 11470 51501 10289 20263 40092 51005 60064 70544 82230
333 20242 56999 59007 70060 82818 85360=
98536 31470 60803 10288 20264 40075 53005 70542 82260 222//
20000
333 20274 56299 59007 82818 84357
555 0////=
98646 11560 70902 10296 20262 40105 52013 69904 70282 84202
333 20260 56999 58003 70002 84820 86080
555 20002=
98741 11470 60000 10261 20246 40098 52020 60034 70544 82208
333 20220 56999 58001 70032 82817=
98747 31470 71901 10253 20230 40080 53014 70544 82408
333 20229 56999 58005 82618 87275=
98753 11465 70000 10280 20254 40084 51008 69904 70544 84278
333 20258 56999 58005 79999 84816 88359 86279=
48403 32560 80000 10254 20238 39841 40051 85576
333 20247 59001 70001=
48459 01560 80000 10253 20241 30039 40042 60044 72162 8657/
333 20247 58000 60025 70037=
96179 32460 70000 10242 20233 30035 40071 53001 85032
333 20190 50010 55/// 56000 57803 59006 85817 80850=
96195 11450 80000 10232 20229 30041 40076 53016 60034 74142 8252/
333 20228 55015 56009 59016 82613 88460=
96237 11458 80000 10242 20236 30030 40072 53003 60024 70522 83271
333 20238 50390 55006 56000 57802 58006 83818 80858=
96249 01458 80000 10234 20232 30023 40082 52014 60614 76166 86978
333 20231 5//// 55012 56000 57901 57801 58017 81917 85817 80981=
96253 32458 70000 10220 20217 30031 40052 52009 61144 83972
333 20206 50074 55023 55508 56087 56000 59003 81915 85080=
96581 11330 70000 10237 20234 30089 40095 52015 60124 70522 86970
333 20224 50450 55006 56200 57922 57822 58012 81912 86707 80980
80730=
96805 01559 70000 10248 20233 30064 40075 51005 60054 70166 83220
333 20247 50480 55044 56000 57801 59005 69937 83820 85460 80860=
96933 32460 81402 10275 20238 30077 40084 52006 8697/
333 20260 50601 55053 56209 57922 59016=
48303 01465 80000 10248 20239 39610 40051 60024 70262 8687/
333 20237 58004 69927 70020=
48328 01556 80000 10252 20241 39764 40038 60034 71062 85576
333 20245 58002 69947 70031=
48330 01560 80000 10248 20242 39858 40043 60124 72162 8557/
333 20245 58003 69915 70123=
48376 01556 80000 10260 20241 39902 40046 69924 76162 8652/
333 20258 58000 69926 70002=
48379 11450 80000 10255 20247 39901 40033 60054 71022 83776
333 20251 59008 70053=
48400 11562 80000 10252 20245 39998 40039 60774 70292 84836
333 20241 58000 70771=
41150 32962 02808 10312 20174 49990 333 58004=
41184 32960 01902 10248 20089 49999 333 58010=
41194 32960 01804 10261 20228 39979 49991 333 58009=
41217 31/06 92203 10267 20260 39964 49993 74300 333 58007=
41246 32960 02601 10292 20250 39980 49985
333 58009 =
41288 31358 32314 10280 20255 39985 40007 70500 83600 333 58011 83708=
41314 32960 01709 10280 20191 39514 40026 333
59009 =
43181 22597 40000 10272 20261 39981 40008 81502 333 59008 6995/=
91366 12574 10616 10297 20250 30083 40092 58012 60014 81100 333
20258 561// 59005 70013 555 90300=
16219 32980 00000 10146 20092 38220 48589 51001 92345=
83618 83825 86360=
29864 11999 20000 10102 20094 39449 40061 53001 60082 70181 80001
333 20086=
91165 32966 00705 10272 20194 30111 40162 58008 92353 333
10278 20211=
91285 12666 60705 10272 20206 30145 40159 58008 69901 92353
333 10283 20222=
91334 11474 81205 10313 20286 30090 40093 56005 60104 70282
82121 333 20250 56399 59003 70102=
91356 11574 80906 10294 20251 30087 40094 50003 60034 70282
85206 333 20256 562/9 59001 70033 85822 83080=
91376 12474 20708 10300 20247 30100 40103 58002 69954 82101
333 20247 562/7 59004 70005=
91408 11474 81004 10300 20255 30058 40096 52012 60084 70282
82838 333 20239 56222 58006 70076=
91413 12469 70904 10307 20253 30071 40090 52007 60074 82171
333 20222 56299 59004 70066=
98135 31480 61403 10295 20263 40109 53018 70544 85302 222//
20302 333 20266 56399 59009 81917 84819=
98232 31470 11801 10284 20256 40096 52011 70544 81200 222//
299// 333 20256 56999 59002 81818=
98329 31475 60702 10281 20245 40086 5/000 70544 82260 333
20250 56999 59020 82818 84358=
98325 31462 51801 10282 20239 40084 53006 70544 82272 222//
20000 333 20242 56999 59009 82817 83079 98308=
98429 31558 40902 10304 20236 40099 52037 70544 82230 333
20263 56999 58007 82825=
98440 12475 40903 10292 20270 40090 52006 60064 83201 333
20256 56299 59006 70061 83815 83079=
98653 11470 71601 10280 20260 40094 53009 69984 70584 82268
333 20244 56999 58009 70008 82818 85275=
98550 11460 70000 10276 20259 40089 53012 60094 72584 85972
222// 20101 333 20254 56999 58007 70092 82915 83818 85357=
98618 11475 72902 10260 20247 40081 53011 69924 70584 83968
333 20255 56999 58000 70002 81918 83919 83358 85273=
98637 31475 40302 10295 20249 40077 53008 70511 82201 333
20250 56999 59004 82812 83075=
98755 12575 4221/ 10273 20250 40090 52017 60024 81905 333
20245 56999 58004 70020 81920 84080=
98836 11560 80401 10248 20237 40084 52012 60087 76186 8227/
333 20248 56999 59002 70080 82820 88460=
83208 22264 00323 20302 307// 41304 80265 MASTER=
83630 85360 86070=
55493 32680 70000 10060 20044 36068 52007 87500 333 00351
30037 79999=
96033 11456 60000 10254 20239 30053 40059 52003 69914 70562 82936
333 20240 50164 55000 56000 57902 59014 81920 82617 80980=
78318 01564 40000 10249 20212 30175 40179 56009 69961 70598 81142
333 00999 10313 20222 31/// 59005 69967 70056 81820 83073=
78325 01560 70603 10266 20235 30122 40179 55000 60021 70596 82943
333 06999 10319 20231 31/// 57940 58000 69937 70022 81820 819//
87080=
78333 11/10 73503 10226 20223 30170 40176 5/010 60151 79598 879//
333 06999 10320 20202 31/// 57981 59008 70150 838// 849//=
78338 31557 70801 10280 20242 30164 40177 55003 70522 81272 333
01299 10316 20222 30/// 59013 70005 81822 86358 555 10901=
78349 31557 80103 10272 20236 30057 40168 55003 70522 8227/ 333
01999 10305 20223 31/// 59018 82820 87460 90444 91113 91504=
78360 01460 80411 10262 20214 30144 40155 55001 69901 71798 889//
333 06199 10318 20240 30/// 57981 59015 69905 79999 82817 86630
829// 92114 555 10404=
78369 31464 40506 10272 20242 30156 40168 53004 70511 81242 333
01999 10301 20267 30/// 59012 81818 92034=
64551 32460 8//// 10240 20237 30087 40116 885// 910//
333 0//00 58006 84610 88616=
64910 32460 42204 10246 20240 30092 40102 84500
333 0//00 59007 84616=
64507 32460 4//// 10235 20225 3//// 40/// 84500
333 0//00 5//// 84613=
87436 32980 60203 10094 20046 39274 40104 53007 82076
333 10174 20065=
62435 32960 00000 10238 20097 40067 58007=
62455 32960 03308 10228 20186 40078 54000=
38579 32999 02601 10106 20036 39760 40170 52008   333 00006   555
10006=
60630 32960 20917 10298 20013 40108 50001 80002
333 0//00 82075=
98748 31475 42201 10268 20/// 40084 52007 70544 82431 333
20242 56999 58007 82618 83358 84075=
43314 21596 80501 10240 20231 40058 72161 8482/ 333 58006
6018/=
43344 21496 52706 10260 20208 39929 40028 70522 83532 333
58000 6990/ 83615 83360=
56202 32580 70703 10048 20024 35920 52004 879// 333 00301
30019 70016=
83552 326// 20906 10237 20195 39962 40140 82030 333 10284
59022=
83565 32994 00000 10220 20163 39678 40155 333 10290 59000=
83623 32996 00000 10200 20144 39568 40152 53026 333 10276=
83676 32994 00902 10180 20139 39548 40187 52012 333 10260=
83704 3299/ 03602 10192 20115 39656 40071 55008 333 10239=
83726 32993 00904 10152 20110 39216 40202 53019 333 10254=
83773 314// 81406 10140 20110 39200 40002 53011 7//22 8851/
333 10219=
83821 32493 40000 10160 20154 30217 40222 51027 70222 84200
333 10204=
96749 31557 80903 10248 20247 30068 40081 53009 60011 71022 81521
333 20241 56000 58003 69927 81625 87460=
61701 32960 02907 10250 20231 40126
333 59014=
41883 32956 60000 10280 20260 30000 40020 86030 333 56090
59001 70000 86362=
98531 32470 60705 10302 20252 40069 53007 81432
333 20280 56999 59006 81618 84359=
98132 31470 41404 10291 20264 40133 53014 70544 84200
333 20250 56399 58011 84817=
98222 31575 21802 10297 20255 40097 53008 70544 81204
333 20264 56999 59004 81820=
98233 31570 31802 10270 20222 40103 53010 70544 83200
333 20230 56999 58008 83820
555 0////=
98334 11470 70000 10269 20249 39893 40096 53003 60044 70192
82270
333 20253 56999 59016 70040 82818 86358=
98427 12480 60000 10280 20254 40076 53008 60164 82270
333 20248 56999 59020 70163 83818 86358=
98428 11465 70000 10278 20265 40082 53010 60044 70542 82278
333 20245 56999 59010 79999 82820=
98430 31562 30000 10261 20242 40107 53008 70544 82230
333 20246 56999 59003 70074 82820=
98432 11570 30401 10277 20249 40100 52002 60134 70544 82201
333 20246 56999 58000 70166 82820=
98434 11475 20000 10281 20264 40096 50001 60324 70160 81201
333 20245 56199 59017 70322 81818
555 20043=
98435 11475 50403 10288 20248 40098 51002 60064 70542 82201
333 20234 56199 59007 70062 82818 83074=
98446 11465 70000 10268 20249 40096 52010 60474 71582 83908
333 20244 56999 58003 70468 81915 82818 87275=
98447 11475 60202 10268 20263 39828 40090 51008 60134 71582
86201
333 20/// 56199 59003 70126 86818
555 20020=
98538 11464 61202 10294 20263 40085 53010 60204 71584 84906
333 20264 56399 59009 70200 82911 82815 84072
555 20045=
98546 12575 50902 10275 20248 40096 52006 60114 82268
333 20237 56999 59005 70001 81820 85275=
98548 12480 40000 10286 20250 40090 52004 69994 82208
333 20240 56299 58000 70086 82815 83272 98312=
98553 11466 63201 10272 20256 40104 53010 60244 71584 84901
333 20224 56999 58000 70244 82915 85075
555 20002=
98558 11464 80000 10265 20241 40098 5/009 60124 72184 8497/
222// 20101
333 20265 56999 58009 70120 83915 88357
555 20120=
98642 11465 80000 10280 20243 40081 53009 69904 71582 8497/
333 20276 56199 59002 79999 84915 88358 98318
555 29999=
98644 11465 70000 10278 20265 40082 53010 60044 70542 82278
333 20245 56999 58000 70040 82818 84358 86272=
98648 31475 50701 10298 20257 40078 52010 70544 82232
333 20254 56299 58006 70008 84817 84272=
98752 11570 70000 10288 20251 40092 51012 60034 70542 82278
333 20236 56999 58004 70028 82820 87272=
98851 12475 40000 10278 20249 40084 52013 60034 81201
333 20242 56999 58008 70028 81818 84075
555 20028=
43369 21596 62705 10284 20254 40055 70262 83470 333 59006
6004/ 82620 84458=
70273 32866 63105 10133 20044 30175 40225 58008 92353 333 10139
20056 555 90300=
70326 32666 61709 10111 20006 30196 40218 58001 92352 333 10117
20056 555 90300=
72223 32966 02004 10283 20206 30109 40187 55005 92356 333 10333
20189 555 90300=
72235 32966 00000 10317 20183 30065 40181 55006 92354 333 10339
20189 555 90300=
72240 32966 02103 10294 20211 30167 40188 55005 92353 555 90300=
72251 32966 01406 10294 20228 30146 40164 55005 92351 333 10322
20233 555 90300=
72253 32766 61207 10306 20206 39871 40149 55007 92353 333 10344
20233 555 90300=
72261 15966 03203 10261 20217 39791 40147 56006 60011 92353 555
90300=
72280 32966 22705 10406 20172 30033 40103 56019 8/001 92356 333
91016 555 90300=
72389 32966 03603 10350 20044 30022 40138 58010 92356 333 10350
20167 555 90300=
72414 31864 62203 10270 20190 39810 795// 90003 555 90300=
72428 12966 63207 10256 20144 39869 40159 53017 69981 92351 333
10317 20206 91021 555 90300=
72438 32966 63606 10217 20122 39906 40194 51016 92355 555 90300=
51288 32280 13602 10101 20068 38330 52008 81602 333 00456
70017=
51463 32980 13402 10139 20084 39072 40129 52013 80002 333
00853 70051=
51053 32680 60000 10134 20100 40147 52026 83462 333 00951
70009=
51711 32980 60000 10098 20055 37981 57003 80002 333 00152
30038=
51076 11680 70000 10125 20093 39313 40160 52026 69921 78080
879/2 333 01056 70024=
51644 32980 20202 10160 20025 38853 40033 57003 80002 333
00201 70004=
51656 32980 71101 10128 20067 39028 40061 52016 84032 333
00461 30028 79999=
51765 32980 20000 10161 20107 39102 40033 52016 80002 333
00352=
52203 11780 70000 10197 20109 39241 40051 52022 69901 70098
85902 333 00402 79999=
51379 11980 10702 10126 20096 40138 52010 60011 70080 80002
333 00752 70043=
51467 32980 73603 10090 20005 38255 52006 80002 333 00453
30044 70064=
51542 32480 80000 10011 20002 37567 57001 885// 333 00354
31014 70077=
51730 32668 70202 10157 20069 40015 57007 84932 333 05155
70009=
51855 31950 73201 10187 20071 49995 57009 70600 80002 333
00303=
51243 32880 70202 10178 20056 39606 40125 52013 86402 333
00854 79999=
51431 32780 70401 10128 20102 39362 40119 57002 83402 333
05100=
51334 32980 60000 10138 20079 40140 52016 82032 333 00655
79999=
51818 31959 73201 10187 20081 40002 57001 70600 80002 333
05200=
51705 32780 72510 10126 21034 37795 52001 879// 333 05103
91119 91525=
51839 31/30 90000 10211 20070 49979 57005 70600 333 00306=
51931 31/35 90000 10214 20090 49983 57012 70600 333 00208=
10704 70023=
40007 11565 62603 10214 20116 40085 58003 69901 76061 83570
333 83630 84360=
40045 32970 00000 10250 20087 40027 57008=
40706 32960 00805 10200 20067 38636 40058 53001 92345=
40712 32960 00000 10160 20050 38663 40056 50004 92350=
40718 32960 00000 10212 20193 30155 40124 54000 92350=
40732 32960 02202 10190 20168 30137 40117 54000 92345=
40736 32960 00000 10212 20193 30150 40123 53003 92345=
40739 32965 00000 10186 20074 38673 40101 53003 92350=
87582 32960 03612 10144 20087 30173 40180 52011
333 10153 20106=
98324 31475 11405 10296 20252 40079 51007 70544 81401
333 20250 56999 59013 81618=
98751 31475 60000 10242 20216 39414 40084 52002 70544 83208
333 20196 56999 59009 83815 83275=
65528 32960 0//// 10258 20232 39641 40105
333 59009=
65536 32960 0//// 10252 20235 39697 40120
333 59001=
65555 32960 02006 10240 20226 39684 40098
333 59013=
65562 32458 8//// 10248 20242 885//
333 88613=
65578 31540 13603 10236 20233 30111 40121 71011 81500
333 59011 81620=
65592 32460 8//// 10250 20235 30103 40126 885//
333 59013 88613=
65599 11460 8//// 10233 20229 30049 40123 69921 70362 8627/
333 59010 86811 88360=
42479 31996 30906 10260 20215 40005 70500 80001 333 58014
83070=
41140 32960 00000 10300 20250 30002 40010 333 59006=
41140 32960 00000 10300 20250 30002 40010 333 59006=
58457 31520 71602 10266 20246 30000 40049 52003 71000 86402
333 05403 70003=
70174 32766 62104 10139 20044 39955 40198 58009 92353 333 10144
20061 555 90300=
72278 32966 22505 10389 20011 39730 40106 56019 92356 333 10394
20267 555 90300=
72327 32961 62702 10289 20183 39974 40184 53001 92353 333 10311
20189 555 90300=
72344 12966 40702 10239 20217 30030 40193 58004 60041 92353 333
10322 20211 555 90300=
72445 32966 03305 10217 20139 39902 40226 53001 92354 333 10250
20183 555 90300=
72465 32966 01708 10222 20056 38950 40218 56012 92356 333 10239
20078 91022 555 90300=
72503 31259 83006 10230 20180 30084 705// 90003 333 91019 96005
555 90300=
72518 12564 82703 10211 20200 39971 40078 55004 60201 92351 333
10289 20139 555 90300=
72528 32666 63109 10178 20100 39882 40140 53036 8/481 92354 333
91024 555 90300=
72572 35966 23606 10306 20050 38707 40121 56013 92356 333 10317
20106 555 90300=
72576 35966 04952 10289 21033 38303 40122 56020 92356 333 10289
20033 555 90300=
72578 32866 22803 10294 20006 38638 40138 56012 92356 333 10300
20022 555 90300=
72583 35966 02406 10306 20028 38688 40143 56004 92356 333 10317
20028 91019 555 90300=
72606 11959 01502 10161 20133 30024 40044 56021 69901 705// 92351
333 10233 20133 555 90300=
72693 12966 00304 10244 20128 30039 40174 56003 69901 92356 333
10244 20078 555 90300=
72278 32966 22505 10389 20011 39730 40106 56019 92356 333 10394
20267 555 90300=
72327 32961 62702 10289 20183 39974 40184 53001 92353 333 10311
20189 555 90300=
72344 12966 40702 10239 20217 30030 40193 58004 60041 92353 333
10322 20211 555 90300=
72445 32966 03305 10217 20139 39902 40226 53001 92354 333 10250
20183 555 90300=
72465 32966 01708 10222 20056 38950 40218 56012 92356 333 10239
20078 91022 555 90300=
72503 31259 83006 10230 20180 30084 705// 90003 333 91019 96005
555 90300=
72518 12564 82703 10211 20200 39971 40078 55004 60201 92351 333
10289 20139 555 90300=
72528 32666 63109 10178 20100 39882 40140 53036 8/481 92354 333
91024 555 90300=
72572 35966 23606 10306 20050 38707 40121 56013 92356 333 10317
20106 555 90300=
72576 35966 04952 10289 21033 38303 40122 56020 92356 333 10289
20033 555 90300=
72578 32866 22803 10294 20006 38638 40138 56012 92356 333 10300
20022 555 90300=
72583 35966 02406 10306 20028 38688 40143 56004 92356 333 10317
20028 91019 555 90300=
72606 11959 01502 10161 20133 30024 40044 56021 69901 705// 92351
333 10233 20133 555 90300=
72693 12966 00304 10244 20128 30039 40174 56003 69901 92356 333
10244 20078 555 90300=
85242 22235 00300=
38836 42599 80000 10164 20132 39220 40118 52008 84931 10014=
71043 11683 32908 10194 20032 30088 40180 56002 69901 71482
82170 333 10202 20074 79999 90930=
71078 32774 82603 10112 21036 39805 40247 57007 81177 333
10121 21024 70000=
71600 46956 01704 10100 20093 30117 40123 58004 333 10149
20073=
71624 32674 73112 10150 20075 39945 40153 52035 87501 333
10238 20118 70030=
71749 17964 02304 10153 20090 39987 40231 51001 69951 7//4/
333 10166 20066 70105=
71863 36864 31904 10163 20020 39550 40246 56010 333 10176
20014 70005=
71877 11683 71303 10145 20007 38941 40203 56005 69901 72522
84872 333 10167 20015 79999 90910=
71913 36964 00105 11021 21078 30211 40248 51001 333 11008
21056 70000=
71917 32474 12708 11056 21082 30071 40085 56007 81570 333
11044 21075=
71940 31882 60106 10192 20017 39404 40198 55001 71411 333
10215 20064 70000=
71957 17664 63205 10022 21018 30151 40239 51002 60031 7//4/
333 10024 21002 70050=
72206 32966 01305 10289 20178 30166 40175 55002 92356 333
10339 20183=
72208 32966 01904 10283 20200 30153 40167 53002 92356 333
10361 20200=
72211 32766 23304 10294 20222 30161 40175 55001 92353 333
10339 20222=
72231 32666 62006 10283 20222 30172 40185 56003 92353 333
10339 20228=
72248 32766 42202 10311 20206 30082 40176 55007 92356 333
10328 20228=
72250 32566 21307 10300 20228 30155 40161 55001 92356 333
10344 20250=
72259 32766 81404 10306 20189 39971 40170 56006 92353 333
10333 20239=
72265 32966 01203 10244 20178 39180 40150 56018 92353 333
10256=
72270 32966 60903 10317 20100 38820 40102 56019 92351 333
10333 20211=
72274 32866 43605 10372 20072 39227 40103 56019 92355 333
10378 20228=
72290 32966 02806 10206 20144 30165 40176 56010 92351 333
10217 20172=
72304 37948 02204 10233 20217 30152 40156 55006 710// 92351
333 10283 20200=
72326 32566 22603 10283 20194 39830 40178 55000 92353 333
10306 20189=
72353 11348 80506 10211 20206 39741 40201 50000 60171 761//
92353 333 96010=
72363 12266 80906 10178 20167 38968 40197 58013 60061 92353
333 10183 20161=
72365 31559 80510 10180 20140 38422 90010 333 91025=
72386 32966 02205 10372 20061 39359 40103 56015 92356 333
10383 20233 91019=
72405 31461 84952 10220 20190 30097 90008=
72440 12466 80203 10200 20172 39770 40221 51003 60071 92354=
72451 12566 60904 10200 20111 39322 40225 56012 69901 92356
333 10211 20156=
72532 32766 43304 10211 20111 39977 40221 53004 92354 333
10228 20172=
72537 32666 43208 10183 20089 39948 40185 53022 92354 333
10244 20183=
72597 32966 02905 10306 20022 39674 40143 58003 92356=
72654 32966 01202 10183 20067 39783 40253 56014 92355 333
10194 20067=
71082 36464 80202 11062 21080 30051 40091 56008 333 11051
21071 70000=
71120 32969 60703 10192 21001 39560 40209 56010 85270 333
10204 20064 70000=
71627 36664 62304 10215 20166 39981 40024 58003 333 10215
20128 70005=
71803 32780 72806 10131 20021 39919 40102 50014 81571 333
10183 20066 70038=
71811 32683 80000 10095 20061 30015 40082 56007 81571 333
10127 20046 70000=
71816 32774 42702 10085 21012 30017 40077 51009 81571 333
10112 20064 79999=
71821 17964 03605 10133 21011 39809 40151 53015 69951 7//4/
333 10143 20030 70020=
71836 17464 63205 10096 20084 30165 40176 53018 60011 7//4/
333 10153 20035 70010=
71867 32674 10503 10125 20026 39905 40238 56011 81501 333
10128 20062 70000=
71896 31989 33505 10224 21011 39366 40184 55000 71400 82270
333 10234 20014 70000=
71909 37559 31604 11007 21017 30018 40061 53008 745// 333
10009 21011 70000=
71915 11474 80308 11029 21061 30055 40138 53009 69901 77122
86508 333 11017 21044 42006 79999 90911=
71918 460// /3109 11085 39770 40191 53005 333 11066 21090=
71924 11358 82504 11108 21125 30041 40130 57017 69901 77142
885// 333 11079 21129 42023 79999 90962=
71925 32974 21605 11031 21052 30131 40167 58024 80006 333
11031 21090=
71926 11480 73406 11053 21085 30215 40239 53003 69901 77172
87500 333 11050 21080 42029 79999 90973=
71934 32874 63603 10191 20012 39955 40208 56009 84101 333
10203 20032 70000=
71938 32474 73505 10025 20006 30139 40169 53016 84570 333
10101 21047 70000=
71945 31783 82202 10193 20053 39722 40185 57015 71422 83271
333 10204 20034 70000=
72226 32966 00204 10322 20167 30104 40177 55004 92353 333
10350 20178=
72308 31959 02405 10306 20222 30124 40130 55004 705// 92351
333 10339 20211=
72334 32766 42102 10311 20172 30081 40180 55004 92353 333
10339 20217=
72374 35966 02708 10328 20006 38529 40126 56009 92356 333
10344 20156 91022=
72476 32966 03109 10328 20022 38540 40095 56015 92356 333
10344 20150=
72486 35966 02407 10278 21039 38113 40134 55009 92353 333
10283 20044=
72488 32966 02608 10294 21011 38675 40149 50000 92356 333
10306 20100=
72520 12664 63105 10211 20183 39714 40154 53007 60101 8/878
92351 333 10294 20194=
72547 32666 63605 10189 20100 39844 40235 53002 92355 333
10206 20133=
72562 32966 01204 10233 20061 39249 40228 56016 92356 333
10244 20044=
72645 32966 03304 10167 20078 39973 40230 53009 92356 333
10183 20111=
72662 32966 01607 10222 20111 39089 40199 56027 92355 333
10228 20011=
72681 32966 03605 10317 20017 39128 40108 57013 92356 333
10322 20111=
72764 32966 01704 10172 20067 39642 40246 58015 92352 333
10172 20022=
72773 32966 03106 10267 20028 39024 40130 55004 92356 333
10272 20033=
72793 32666 44953 10183 20061 30035 40200 51002 92356 333
10194 20100=
91317 12469 50903 10311 20282 30097 40101 52018 60174 82201=
91353 11574 60503 10300 20256 30084 40089 51014 60064 70282
84231=
70026 12566 83002 11022 21067 30266 40272 51008 69901 92353
333 11017 21028=
70231 12766 64952 10161 20033 30086 40213 58008 69931 92353
333 10167 20072=
70261 11766 62505 10156 20061 30034 40204 55004 69901 761//
92353 333 10178 20094=
70308 12461 61509 10067 20033 30063 40076 69901 92353 333
10072 20044=
70316 11332 81313 10067 20056 30105 40144 58003 60041 761//
92353 333 10067 20056 91031 96010=
70350 32666 81906 10111 20006 30209 40250 58003 92353 333
10117 20033=
70361 32566 62805 10128 20083 30222 40239 53001 92353 333
10133 20033 91015=
71081 36464 33403 11062 21079 30128 40139 53007 333 11041
21146 70000=
71090 36964 01904 11020 21069 30074 40108 51009 333 11008
21092 70000=
71145 32574 22702 10080 20008 39958 40253 56005 82500 333
10083 20003 70008=
71603 31148 81503 10118 20109 30024 40076 58016 71022 886//
333 10213 20078 70000=
71709 32680 80803 10100 20057 30083 40096 58014 8357/ 333
10186 20084 70000=
71825 32774 63503 10069 21022 39436 40097 57005 84501 333
10094 20012 79999=
72394 32966 03005 10167 20106 30101 40190 58004 92351 333
10189 20106=
78897 32562 31003 10268 20220 40176 53012 81202 333 01206
10312 20231 58002 70034 81820 83080=
43086 21596 60000 10280 20237 39837 40012 70522 84430 333
58006 6990/=
76225 01560 51602 10252 20154 38593 40088 55017 69926 75122
85900 92345 333 10326 20184 30/// 50570 54115 56700 58005
69926 70002 85916=
76342 31562 81401 10290 20205 39461 40132 52010 70022 8522/
92342 333 10317 20240 31/// 50710 5635/ 58033 70056 85820
83456=
76382 32480 70000 10308 20184 38882 40072 57013 81971 92354
333 10340 20200 30/// 50661 56444 58021 81910 85358 81070=
76458 32870 42903 10288 20226 30094 40104 57012 83036 92350
333 0/099 10315 20244 30/// 50580 57390 58013 70000 83362
81070=
76548 32475 20902 10296 20248 30118 40148 57013 81260 92359
333 00220 10315 20254 31/// 50580 58009 70558 81813 81358=
76556 01566 72702 10260 20236 39078 40068 57028 69951 70250
81210 92332 333 00850 10310 20205 30/// 50340 58009 69951
70035=
76644 32560 60902 10282 20224 30144 40154 52001 83920 92355
333 10368 20239 30/// 50154 5622/ 58010 70000 82920 81820
83458=
76680 01558 73602 10180 20162 37747 40052 55001 60021 76565
84830 92355 333 10252 20142 32/// 50341 56110 57861 59012
60027 70044 82624 83357=
78016 32464 32005 10239 20205 30165 40206 53003 83131 333
10274 20226 70000=
78397 32570 61208 10285 20266 30130 40146 82802 333 00209
10322 20253 59008 81822 85070=
78526 32566 81003 10270 20220 30156 90009=
78970 11465 70201 10249 20239 30117 40142 60181 78082 85842
333 02299 10313 20242 58001 82818 84640 87080 90916=
78988 32470 20907 10281 20243 30142 40151 52011 82100 333
10333 20274 58005 82817=
81405 01356 71001 10246 20237 40141 60051 76186 8687/ 333
10311 58013 60057 84808 83640 86360=
80022 01462 80105 10282 20251 30099 40101 69901 70522 81577
333 10320 56199 59007 81620 88270=
70133 32566 62903 10033 21006 30224 40228 58002 92353 333
10039 20011=
70398 32966 02903 10211 20056 30158 40202 58004 92353 333
10217 20072=
72203 32466 61106 10272 20217 30182 40189 55005 92353 333
10311 20228=
48004 31110 60000 10246 71021 86900 333 20254 56500=
48010 32550 30000 10260 20246 40035 82830 333 20235 56550 59008=
58002=
59001=
48037 32456 70000 10280 20268 40033 84870 333 20256 56119 58010=
48045 21257 83830 10184 20184 79596 889// 333 20184 56199=
96001 01430 82313 10236 20217 39932 40075 5//// 60394 76166 8552/
333 20200 50000 55035 56609 60207 85617=
91203 12469 70705 10301 20263 30089 40094 51007 60014 82339=
91490 31599 34951 10315 2025/ 40085 70200 83100 333 20255 562// =
91503 31480 40000 10300 20250 40102 57001 70511 81201
333 20231 56000 58003 81818 84080=
91507 11480 21801 10300 20243 40105 52006 60034 70500 82201
333 20240 56209 58007 82818=
91520 11480 20503 10315 20248 40098 58002 60034 70500 82208
333 20231 56209 59005 82818=
91527 11470 30501 10305 20250 4//// 5//// 60054 70510 81208
333 20244 56109 5//// 81817 83281=
91541 12480 60501 10285 20253 40102 57006 60094 81937
333 56899 58009 81818 81920 86280=
91554 02580 70203 10295 20245 40106 58003 81101
333 20210 568/9 58011 81825 87080=
91555 32570 63604 10287 20253 40104 58001 82231
333 20/// 56899 58013 82825 86080=
91565 01460 81707 10230 20224 40128 52004 60414 78088 8597/
333 20225 5639/ 58014 60141 83710 84818 81922 88460=
91570 16/// /1608 10249 20208 30131 40134 50004 69924
333 20196 58028=
91574 16/// /1914 10234 20167 30149 40155 50007 69924
333 20202 58020=
91577 12581 41703 10233 20177 40137 50005 60164 83830
333 20156 56460 58024 82826 83365=
91582 01458 82801 10202 20180 40126 50000 60104 72162 858//
333 20186 56600 58016 69947 82810 84630 87459=
91592 01665 72607 10216 20170 40125 50003 60274 78022 8683/
333 20155 56769 58006 69907 81833 86646=
91601 11599 21004 10320 2027/ 40087 69931 70208 82100 333 20250 562//

=
91610 31599 30906 10305 20253 40092 58009 70200 83100 333 20249 562//

=
91631 31599 40704 10306 20248 40103 70121 84200 92463 333 20280
562//=
91636 31499 40606 10299 20256 4//// 70122 82201 333 20252 561/9=
91643 31599 40907 10304 20252 40094 58010 70122 84200 333 20240 562//

8
4
8
2
0
=
91648 31599 20802 10304 20248 40105 58010 70212 82101 333 20274
562/9=
91650 31599 31204 10308 2024/ 40106 58001 70100 83800
333 20261 562// 83825=
91659 31699 21301 10300 2023/ 40112 54000 70300 82100
333 20246 569// 82830=
91680 31699 30000 10290 20226 40119 58002 70200 83800
333 20194 569// 81830 83650=
91683 11599 60305 10290 20210 40127 58005 69911 70282 86800
333 20205 561// 85823=
91691 36/// /0408 10284 20232 40122=
91699 36/// /0311 10262 20228 40139=
91753 32481 70906 10288 20237 40108 58015 872//
333 20260 58005 87818=
91754 32582 30904 10290 20223 40111 58009 83100
333 20253 58001 83820=
10215 20064 70000=
10361 20200=
10328 20228=
10203 20032 70000=
38713 42577 81803 10138 20000 48490 54000 8294/=
30811 31699 72201 10190 20135 39254 40056 52039 71422 85970   333
10300 91806 91130=
89014 46/// ///// 11145 21164 39300 4//// 52007
333 11145 21156=
53663 11580 83602 10142 20070 40116 52001 60021 78088 889//
333// 00155 70049=
11101 10100 10111 01110 1111/
/////
2//// 3//// 6//// ///// ///// 8//// 9//// ///// ///// //004
11101 11111 1011/
11111 110//=
86530 333 20050 55056=
29328 11498 83302 10083 20051 39925 40058 57005 69942 78082 889//
333 20084 55020 86913=
29348 11395 80000 10096 20092 39893 40031 57013 60042 75386 886//
333 20091 88708=
29405 32797 42501 10052 20035 39941 40083 57009 83530
333 20044 55159=
29937 11697 82304 10112 20100 39836 40043 54000 60042 72582 8693/
333 20112=
48077 32558 70000 10270 20240 40029 82970 333 20264 56990 59012=
56190 59001=
59004=
56290 58000=
11782 32980 02402 10097 20071 39915 40229 58005
333 55148=
12882 36/// /0601 10119 20088 30105 40238 58002=
15480 32960 03402 10170 20117 30190 40206 57005 333 92427=
16641 32960 00000 10176 20134 30177 40182 54000 333 90730 91104
555 40000 47666 44235 50000 50152=
17038 11665 70502 10184 20171 40127 57014 69901 70292 84250
333 84835 87360 92427=
52267 32980 71403 10178 20103 39051 40091 52009 80002 333//
00554=
55578 32880 71402 10105 20020 36397 52014 87500 333// 00204=
55664 32980 10000 10038 20002 36046 52009 80002 333// 00201
30004=
55773 32570 40000 10003 21005 36058 52006 81402 333// 00253
31035 70003=
56137 32780 30000 10078 20060 36854 52016 81440 333// 00653
70006=
86360=
41718 319// /0000 10295 20213 39869 49967 70600 8//// 333
58001=
40180 31559 41806 10216 20185 30026 40073 57003 71021 84500=
40362 32962 00805 10290 20050 39633 40014 333 59013=
40373 32960 00302 10290 21020 39610 49995 333 59009=
40430 32960 00000 10280 21030 39335 40009 333 58003=
40438 32960 00000 10320 21010 39359 40012 333 58008=
41024 32960 03002 10260 20200 39999 40018 333 59003=
41114 32960 01202 10220 20033 37950 48457 333 58000=
41128 32960 02502 10216 21110 38744 48458 333 59006=
58011 83708=
40743 32965 00903 10202 20034 39043 40118 53004 92350=
40745 32960 01402 10164 20056 39044 40129 53005 92350=
40754 32960 03303 10230 20116 38806 40071 51004 92355=
40766 32960 01202 10140 21052 38642 40032 57003 92350=
40769 32960 00000 10182 20021 38282 40041 58005 92350=
40809 32970 01102 10166 20046 38506 40057 51008 92350=
40841 32960 00303 10200 20000 38231 40005 54000 92350=
40848 32960 03002 10218 20014 38464 49981 56002 92350=
40856 32960 30310 10214 20016 38614 40031 51004 80002 92350
333 83070=
40875 31950 00203 10290 20276=
56116 32880 70000 10061 20052 36391 52009 875// 333// 00551
30038 70032=
10317 20206 91021 555 90300=

=
40394 32960 00000 10238 21010 38952 48462 333 59003 555 04410
59997=
40729 32960 00603 10134 20035 38341 40079 51002 92345 333=
40762 32965 00000 10166 20029 38558 40096 51003 92350 333=
40831 32960 03505 10302 20048 39987 49995 58014 92350 333=
41084 32960 00000 10262 21050 38798 48462 333 59002 555 04410
59991=
96011 11460 80201 10232 20223 30033 40056 5//// 60174 76062 8557/
333 20230 50010 55/// 56009 59006 85615=
94103 35/// /0920 10238 3//// 5////=
94120 46/// /1211 10178 20028 30120 40156=
94147 35/// /1319 10262 30104 40123 52006=
94151 35/// /2417 10241 30131 40151 52013=
94203 46/// /1206 10149 20013 30166 40177=
94207 35/// /0923 1//// 30139 40150 52007=
94212 46/// /0914 10139 20001 39703 40189=
94238 46/// /1118 10125 20021 39775 40213=
94268 46/// /1108 10193 20067 30142 40157=
94287 46/// /1613 10205 20079 30165 40174=
94290 35/// /1118 10219 30158 40165 52008=
94298 35/// /1216 10220 30157 40163 52010=
94299 46/// /1419 10228 20135 30142 40153=
94300 46/// /0709 10141 21007 30181 40191=
94302 46/// /1601 10101 20088 30182 40188=
94312 46/// /1113 10168 21007 30177 40187=
94326 46/// /0704 10091 20045 39612 40255=
94332 46/// /1209 10151 20010 39805 40203=
94346 46/// /1113 10145 20028 39994 40223=
94363 46/// /1413 10139 20045 39994 40219=
94367 46/// /1615 10158 20051 30160 40198=
94403 46/// /0511 10140 20026 30197 40239=
94430 46/// /1006 10101 21024 39631 40238=
94461 46/// /1106 10084 20001 39562 40260=
94510 46/// /1309 10124 20035 39875 40237=
94515 46/// /1805 10104 20048 39868 40231=
94578 46/// /2413 10170 20014 30188 40199=
94601 46/// /0610 10122 20096 30288 40305=
94610 46/// /0714 10104 20075 30251 40276=
94638 46/// /3106 10111 20109 30275 40308=
94653 46/// /3308 10112 20042 30259 40278=
94659 46/// /2103 10099 20035 30075 40277=
94672 46/// /0109 10101 20062 30245 40250=
94693 46/// /2805 10103 20087 30188 40252=
94776 46/// /2815 10113 20027 30197 40207=
94791 46/// /2512 10165 20013 30179 40186=
94802 46/// /3304 10085 20077 30224 40309=
94804 46/// /2221 10147 20122 30193 40232=
94821 46/// /3509 10102 20100 30120 40204=
94842 46/// /3413 10125 20074 30092 40193=
94865 46/// /3209 10119 20064 30187 40212=
94907 46/// /3210 10095 20048 30196 40206=
94910 46/// /3001 10033 20033 39971 40230=
94926 46/// /0000 10035 21005 39532 40223=
94975 46/// /3206 10056 20013 30136 40169=
94983 46/// /2107 10100 20050 30140 40165=
94995 46/// /2318 10175 20097 30098 40106=
94996 41365 42808 10181 20130 39923 40052 57007 78081 83930
333 20158=
41620 329// 00000 10230 20136 38407 4842/ 333 58007=
41710 329// 03105 10294 21009 39261 49992 333 58047=
41712 329// 00000 10285 20068 39071 48412 333 58018=
41715 319// 41302 10320 20218 39908 49970 70500 81031 333
56099 58005 81360 83070=
41744 329// 00000 10200 20099 48410 333 58006=
41756 329// 00000 10280 20254 39938 40002 333 58005=
41768 325// 42307 10300 20258 39972 49978 84600 333 56500
58001 84720=
28240 42999 30000 10126 20100 39814 40122 57009 83030=
28419 42997 30000 10122 20103 30031 40155 57004 82031=
31285 32999 62801 10135 20095 40116 57006 80002   333 21025=
31561 12698 80304 10173 20104 40098 57003 69910 82102   333 20114=
40100 32960 01802 10212 20170 40063 58008 900// 333 92437=
54646 33965 70705 10170 20142 40118 52007 87030 333 05201=
57037 11530 80000 10163 20153 40106 52020 60021 76060 8772/
333 00556 70308=
57405 32862 70000 10241 20223 40033 52014 875// 333 00203
70011=
56043 32980 10000 10044 20036 36516 52012 80002 333 00552
31030 79999=
56067 32680 70000 10060 20043 36587 52013 875// 333 00551
30015 70002=
54142 31970 00902 10198 20160 40148 52003 70040 333// 05153
70130=
54363 32965 00402 10171 20109 40139 57003 333// 05202=
50936 32970 02202 10260 20109 40112 57004 333// 05304=
54287 32170 60402 10033 21006 37409 52001 86100=
54284 32970 03201 10158 20082 40139 52005 333// 05151 30049=
54263 32978 20000 10180 20118 40140 52003 80002 333// 05200=
59446 32572 71802 10278 20245 40099 52010 82242 333// 00151
79999=
56093 32575 70000 10140 20115 37696 52012 87500 333 00402
70004=
52984 32965 22501 10150 20111 38060 52011 82040 333 00401=
53399 32970 70000 10138 20110 40144 52008 85032 333// 00053=
54449 31658 70701 10206 20163 40119 52007 71000 875// 333//
05301=
57144 11570 80000 10190 20187 40079 52021 69901 76000 8172/
333 00201 70426=
53738 11672 81801 10129 20117 40120 52012 60021 76060 885//
333 00457 70131=
53740 11663 81404 10127 20116 40131 52006 60021 70060 8552/
333 00357 70048=
54871 31/09 90703 10133 10131 40109 52001 74344 333// 05352=
59021 32575 60000 10243 20230 40092 52013 86100 333// 00251
70069=
59218 32572 71403 10232 20208 40095 52014 8714/ 333// 00200
70092=
56386 31940 70000 10248 20209 40036 52018 71000 8704/ 333
00302=
56565 32580 12701 10178 20117 37487 52009 81400 333 00101=
56475 32580 70000 10184 20169 38302 52014 874// 333 00501=
56485 32565 22202 10205 20178 40056 52014 81140 333 00500=
56459 32880 13402 10188 20104 37635 52012 81400 333 00201=
54351 32965 10901 10192 20139 40144 52001 80002 333// 05201
70072=
59228 11558 80000 10258 20249 40097 52010 60131 72998 888//
333 00151 70208=
56741 32580 60000 10190 20161 38184 52011 86200 333// 00151=
56533 32780 10000 10152 20142 38395 52014 81100 333// 00252
79999=
56548 32680 11101 10146 20109 37701 52010 81100 333// 00100=
56856 11463 80000 10213 20200 40079 52012 69901 78000 889//
333// 00151 70009=
56664 32580 10000 10243 20178 40033 52016 81402 333// 00201=
56543 32680 10000 10088 20051 36886 52009 81100 333// 00252
30019 79999=
56875 11662 80000 10193 20173 38350 52011 69911 78000 889//
333// 00100 70009=
53868 11940 80401 10168 20153 40124 52017 60051 76160 8802/
333// 00456 70268=
59478 32575 23402 10279 20249 40108 52010 82102 333 00052
70124=
59754 32473 61404 10282 20255 40094 52010 86100 333 00200
70061=
57034 11560 80000 10170 20167 40114 52019 60011 76066 8772/
333 00653 70126=
53754 11556 80000 10132 20130 40131 52012 60051 76066 8172/
333 00457 70118=
52674 32980 02904 10115 20078 38008 52010 333 00351 30036
79999=
57134 11680 70000 10176 20170 40043 52007 69901 72160 8553/
333 00202 70147=
57106 32461 70000 10185 20177 40076 52013 85630 333 00403
70020=
52446 32980 02001 10140 20108 40104 52010 333 00352 70007=
52842 32970 10000 10073 21044 37013 52010 80002 333 00300
31034=
52825 32980 02701 10115 21010 37274 52007 333 00205 30025=
52856 32980 20000 10114 20011 37231 52009 80002 333 00301
30007=
53821 11770 81603 10151 20132 40104 52009 69901 70060 885//
333 00352 70092=
52868 32980 00000 10141 20068 37764 52011 333 00351=
52657 32980 00901 10066 20021 37284 52006 333 00400 30015=
52974 32980 12202 10126 20068 37539 52010 80002 333 00401=
52661 32965 01602 10110 20082 38221 52011 333 00451 30048
79999=
57313 11956 80000 10220 20216 40035 52022 60031 71098 8807/
333 00302 70152=
85223 32584 42218 10154 20036 37470 47093 52022 81501
333 10236 56607 58007 81623 83070=
85201 32984 22510 10046 21094 36288 52020 80001
333 10122 56000 58021 82070=
60710 32962 00810 10207 20150 30091 40173 58009
333   55141=
60714 32960 00903 10190 20177 30187 40195 56006
333   55135=
60720 32456 50000 10188 20178 30163 40199 58003 85600
333   55087 85713=
60738 32960 01908 10150 20136 38977 48550 54000
333   55138=
60740 32958 00000 10204 20188 30194 40197 50002
333   55118=
60745 32960 00708 10204 20161 39819 40183 51002
333   55132=
60750 32560 31004 10212 20200 30158 40190 58005 83500
333   55136 22926 83620=
89054 32260 80316 11008 21027 49999 57020 886//
333 11008 21018 71199 88706=
89056 11360 80229 11006 21026 49990 57029 69904 70272 885//
333 00249 11005 21027 78899 88608=
89057 11356 80623 11015 21032 40001 57028 69904 74052 887//
333 11012 21026 71099 88707=
89058 11561 83622 11007 21034 39993 40008 57023 69901 77070 885//=
89059 11450 80511 11018 21023 40046 57019 69924 75652 885//
333 11018 21036 71199 88610=
89251 11560 80521 11008 21027 49980 57020 69901 73632 886//
333 11002=
48698 11459 70000 10265 20259 30045 40063 69964 71022 81838 333
20255 59009 70006 81612 87365=
60101 32960 00715 10211 20170 40144 50000=
60115 32458 33608 10193 20172 40165 58001 82102
333 82816=
60135 31430 82609 10202 20194 40145 50005 71010 886//
333 88710=
60150 32558 62004 10278 20128 39512 40128 50006 84902
333 83823 81933 83070=
60156 32358 43408 10198 20185 40147 58003 84600
333 84708=
60230 32960 01402 10270 20145 40131 58006=
60107 32458 70000 10194 20192 40167 57008 876//
333 87710 95380=
60141 32560 33214 10300 20078 39489 40121 50006 83900
333 83830 81940 95400 95800=
60185 32960 00207 10195 20174 40148 58006=
60210 11665 33205 10263 20093 39025 48570 53002 60011 70198 83500
333 83630=
60265 32670 20609 10266 20020 38941 48585 51016 82202
333 82840=
60318 32558 60808 10212 20192 40180 51006 86200
333 83710 85820=
78858 11476 70611 10264 20226 30119 40175 69951 70282 81202 333
10294 20244 58001 70008 81818 86078=
33815 42998 00501 10147 20067 30008 40223 52004 555   10011=
61901 36/// /1011 10179 20133 40190 5////=
61902 32584 51112 10254 20189 84801 333 59012 81825 83635=
88889 11240 80231 10072 20072 49917 57029 60051 76365 887// 333
88704 90710 91143 91043=
78958 01464 70809 10257 20240 30131 40141 60011 72582 86802 333 0/209
10309
20246 59003 70026 84816 85638=
42970 00620 11126 21206 39936 49963 56005 333
11099 21136=
63980 42482 61414 10268 20233 40090 83202 918//
333 59010 83818 84075 943// 91124=
60127 32960 00000 10254 20159 39579 40148 58003=
60191 31560 63404 10304 20121 40122 56011 72992 86900
333 85833 82940=
60195 21665 7//// 10205 20096 38575 48591 51033 71392 879//
333 85833 83940 95500=
81408 06/// /0502 10251 20235 40134 69901
333 10302 58005 69907=
68906 11498 33117 10119 20076 39994 40059 52006 60021 72500 83200
333 10148 20117 69925 91022 555 20020 91005=
78583 11460 70808 10265 20251 40137 60151 78098 83273 333
07225 10307 20240 59003 70210 83816 83458 87075=
76050 31959 02705 10210 20160 30152 40162 52020 705// 80000
92350 333   10210 20160 30///=
76113 32980 02504 10404 20188 39640 40093 5//// 92350 333
10422 20232 30/// 51110 58024 70000=
76118 32580 51803 10324 20097 38892 40083 57016 84301 92346
333   10352 20170 30/// 50720 56508 57982 58021 70160 82930
82830=
76122 31675 62701 10272 20064 38567 40109 52003 71591 8436/
92350 333   10330 20166 30/// 50860 5622/ 58040 70000 81935
83635=
76256 32580 12406 10340 20155 30087 40103 57030 81200 92345
333   10370 20230 30/// 51030 56300 58004 70000 81820=
76323 32568 80000 10257 20126 38282 40090 57012 88500 92350
333   10310 20165 30/// 56700 58020 70000 88510=
76373 01488 82103 10214 20152 38222 40121 52007 60107 75096
88900 92350 333   10316 20162 31/// 50850 56700 58029 60107
70104=
76405 32981 03302 10350 20144 30091 40111 57018 92346 333
10352 20164 30/// 50940 58013 70000=
76423 32570 80604 10256 20154 38171 40083 57006 8342/ 92350
333   10320 20143 30/// 58008 83640 85558=
76491 32956 10901 10324 20240 39746 40135 57010 81002 92340
333   10385 20230 30/// 50640 56009 58011 70000 81078=
76640 32558 40903 10318 20251 30130 40160 57010 83230 92340
333   0122/ 10355 20240 30/// 50660 58013 70139 83821=
76654 31461 22303 10311 20235 30104 40108 57001 70544 82900
92350 333   06800 10331 20258 30/// 56480 57982 58005 70000
81920=
76656 32570 51601 10290 20152 38500 40072 58013 83510 92350
333   10312 20155 30/// 50290 56190 59009 70000 83620=
76683 01665 63601 10165 20133 37823 40115 56003 60031 72996
84970 92340 333   10270 20118 31/// 50620 56880 58008 60036
70071=
76685 31570 71403 10220 20119 37870 40058 57007 70444 86406
92355 333   10260 20120 30/// 50080 569/9 58008 70000 86624
81268=
76687 11562 51602 10218 20190 38661 40142 57009 69901 70255
852// 92338 333   10265 20165 31/// 50520 563// 58001 70008
85824=
76726 31460 30000 10255 20163 38389 40066 55011 70544 82210
92350 333   10315 20163 31/// 50440 56760 58005 70000 82815
=
76737 01480 70000 10207 20188 38789 40142 55004 60095 76062
873// 92345 333   10259 20150 31/// 50340 562// 57992 58014
60095 70089 83710 83626 81926 90009 81302 91514=
76750 01560 70905 10285 20230 30120 40130 57008 69921 71581
84208 92350 333   05205 10326 20238 30/// 50510 59004 69906
70002=
76775 31565 30403 10244 20128 38508 40150 57008 70544 83400
92350 333   10300 20141 30/// 56900 59008 70000 81824 82624
=
76843 32565 23203 10270 20222 39522 40160 57008 82200 92346
333   019// 10325 20205 30/// 50500 59012 82830=
76220 32580 73604 10290 20128 38181 40097 57012 87500 92355
333   10324 20140 30/// 50590 56800 58004 70000 87627=
76243 32372 81803 10302 20218 39870 40146 57004 886// 92338
333   10356 20242 30/// 50660 563// 58035 70035 88708=
76305 32970 00401 10310 20203 30116 40126 57006 92350 333
10340 20230 30/// 50583 58041 70000 90801=
76499 31858 21402 10326 20209 30109 40139 56015 70544 82070
92340 333   0/3// 10370 20235 30/// 50980 58008 70000 82357
=
76585 32680 33601 10325 20272 39975 40125 55022 83200 92335
333   023// 10341 20233 30/// 56250 58007 70000 83837=
76593 32/70 30902 10288 20250 30143 40159 57005 82202 82340
333   022/9 10296 20242 30/// 50589 58008 70000 829// 81040
92022 21018 91509=
76662 11670 70000 10205 20163 38453 40084 57006 60031 75065
87500 92350 333   10307 20148 32/// 50630 56200 58014 70039
87633=
76675 01570 71801 10162 20118 37381 40075 56009 60041 71596
86360 92353 333   10224 20085 32/// 50170 56990 57961 59002
60047 70093 84926 82626 98470 90920=
76741 01458 63603 10298 20257 30109 40129 56021 69901 71644
868// 92330 333   001// 10308 20248 31/// 50540 58009 69905
84817=
76840 32558 10411 10200 20200 30068 40118 57014 81400 92350
333   0/100 10360 20275 30/// 58030 59019 70000 81628=
76848 32370 30501 10208 20148 38382 49999 56001 83200 92335
333   10250 20153 30/// 50480 56100 59006 83820=
76855 32580 52503 10290 20241 3//// 4//// 5//// 82250 92340
333   02990 10326 20266 31/// 50520 58/// 70000 82820 83358
92001=
76903 31675 32703 10308 20235 39977 40107 56007 70400 81535
92335 333   10352 20231 30/// 50490 56611 59009 70000 81633
=
91598 06/// /1324 10119 30082 40115 58003 60034
333 20116 58008 69947=
60715 32960 01210 10210 20187 30189 40194 55003
333   55127=
60725 32958 00406 10198 20175 30020 40186 52003
333   55114 22933 30172=
60735 32960 00000 10204 20156 30121 40201 54000
333   55133=
60760 32950 21119 10234 20150 30047 40155 52001 80002
333   55137 82070=
60765 32458 31108 10217 20189 30178 40184 58001 83200
333   55132 22956 83816=
60769 32456 20904 10215 20194 30172 40177 57007 82200
333   55135 23087 82816=
11036 32970 01503 10135 20115 39986 40213 56001=
11010 35/// /3501 10157 20140 39840 40207 52003=
11120 36/// /9902 10195 20136 39534 40208 52010=
11150 35/// /1902 10146 20126 39687 40213 52002=
11240 36/// /0000 10162 20133 39814 40220 57005=
11816 32970 00701 10128 20092 30066 40228 55001
333 55144 =
11826 32980 03502 10093 20079 30035 40235 53001
333 55145 =
11903 32960 00000 10086 20064 39869 40250 51002
333 55144 =
11934 32965 02602 10081 20062 39430 42856 51001
333 55147 =
11968 32980 00000 10097 20064 39962 40242 58001
333 55142 =
11841 32960 00000 10082 20068 39864 40241 52002
333 55150 =
11858 36/// /1303 10134 20093 30083 40232 57004
333 55147 =
11916 46/// /2004 10059 20008 38056 48555 57002 6///1 =
11927 35/63 /0000 10099 20073 39981 40242 52001
333 55137 =
11930 46/// /3303 10039 20011 37467 47172 57001 6///1
333 55136 =
11993 36/// /0000 10081 20056 30030 40248 54000
333 55140 =
11855 35/64 /0000 10099 20078 30071 40236 57002
333 55140 =
11867 35/61 /0000 10090 20078 39932 40249 52001
333 55137 =
11880 36/// /0000 10083 20075 30068 40240 54000
333 55137 =
11918 36/// /0000 10085 20060 39423 42853 57001 =
11933 36/// /0201 10050 20040 38713 48560 57002
333 55137 =
11938 36/// /0001 10071 20057 39196 42857 57001 =
11976 36/// /3501 10081 20067 39981 40246 52001
333 55132 =
11978 36/// /2401 10096 20075 30112 40242 54000
333 55147 =
12772 32980 02502 10145 20066 39958 40238 57002=
12822 32968 01401 10118 20079 30085 40228 57004=
12925 32970 00000 10090 20088 30060 40233 56002=
12942 32970 00901 10141 20072 39995 40238 54000=
12982 32970 00000 10104 20084 30136 40238 58002=
17601 32562 42706 10205 20176 40051 57004 84500 333 84626=
10004 46/60 ///05 10115 20104 30205 40205 52008
222// 00129
333 55300=
10015 31450 83405 10113 20104 30189 40199 52008 71022 876//
333 553// 87710=
10020 11572 73406 10103 20076 30162 40198 51010 69911 72162 875//
333 55/// 20975 55300 2//// 87623=
10035 31256 83104 10120 20108 30140 40198 52009 71022 875//
333 55/// 2//// 55300 84706 87515=
10055 32465 82909 10137 20128 30175 40185 52008 875//
333 55300 87616=
10147 32257 73003 10124 20113 30180 40198 53009 876//
333 55300 87606=
10162 36/57 /2502 10127 20115 30105 40187 51007
333 55300=
10184 32962 62503 10130 20115 30174 40181 53006 80006
333 55300 86273=
10224 32364 73603 10123 20116 30193 40199 53008 876//
333 55/// 22477 55300 87709=
10270 32975 10101 10161 20137 30133 40187 51014 81030
222// 06173
333 55300 81358=
10384 32882 10204 10179 20144 30120 40178 53013 81500
333 55300 81657=
10393 32980 00402 10177 20116 30053 40176 53007
333 55/// 22894 55300 20000 30000=
10400 32970 10301 10140 20121 30141 40190 51004 80001
333 55300 81080=
10438 36/// /0201 10168 20124 39919 40193 51007
333 55300=
10469 32980 53104 10176 20121 30023 40183 53007 85030
333 55300 85360=
10488 32975 11804 10191 20109 39909 40180 53001 80001
333 55/// 22850 55300 81074=
10548 32980 01702 10156 20111 39664 40192 53002
333 55300=
10685 32986 21903 10166 20100 39542 40192 56002 82030
333 553// 82360=
10738 11984 40000 10176 20131 39738 40192 50000 69901 70162 83031
333 55300 83360=
10763 32982 61103 10164 20120 39828 40200 53002 84071
333 55/// 22951 55300 20000 84363=
10788 31982 32003 10119 20113 39776 40204 55001 71311 80002
333 55300 83075=
10852 32980 40000 10135 20119 39646 40204 58002 82032
333 55300 82362 83073=
10946 32988 41302 10146 20092 39398 40208 58001 83031
333 55300 83364 96213=
10091 32465 62708 10129 20115 30125 40176 53003 85671
333 55/// 21838 55300 20000 30000 85710 86070 91113=
10113 32260 83404 10128 20127 30178 40197 51007 886//
333 55/// 21411 55300 87705=
10129 32470 72803 10134 20131 30185 40198 51007 876//
222// 20000
333 55300 87710=
10131 32258 83104 10131 20116 30184 40199 51011 876//
333 55300 87706=
10170 32460 83007 10139 20126 30167 40182 53007 886//
333 55/// 22003 55300 88712=
10253 36/50 /3402 10127 20127 30173 40195 51012
333 55300=
10280 16/59 /3202 10136 20121 30089 40185 51005 69901
333 55300=
10291 31820 73502 10138 20134 30116 40182 52007 71011 875//
333 55300 87657=
10305 36/// /0501 10135 20129 30168 40200 51005
333 55300=
10315 31956 10301 10129 20122 30134 40197 51005 71000 80001
333 55300 81075=
10348 32970 03601 10145 20124 30093 40198 52014
333 55/// 22960 55300=
10427 32980 13204 10146 20107 39216 48539 56001 80001
333 55300 81075=
10453 32881 12708 10141 20095 38901 48540 50000 81031
333 55300 81357=
10474 32984 03001 10175 20123 30055 40181 53009
333 55/// 22880 55300 20000=
10490 36/59 /2001 10148 20108 30060 40180 53005
333 55/// 22917 55300 20000=
10499 32972 21907 10192 20100 39901 40179 57002 82030
333 55300 82366=
10501 32965 40301 10175 20125 39946 40186 58001 80001
333 55300 84076=
10513 32681 31601 10165 20135 30068 40186 50002 83500
333 55300 83645=
10532 32972 01601 10173 20160 39959 40188 53005
333 55/// 22557 55300=
10544 32965 12305 10151 20090 39152 48547 57001 81030
333 55300 81361=
10554 32984 22801 10173 20105 39811 40186 53006 82030
333 55/// 22987 55300 20004 82363=
10577 32985 22204 10166 20111 39700 40188 53001 82040
333 55/// 23024 55300 20000 30000 82360=
10578 32988 32410 10143 20084 38846 48551 57004 82044
333 55/// 22972 55300 20000 30000 82358 91113=
10609 32980 01001 10170 20157 39861 40182 54000
333 55/// 22520 =
10655 31984 61302 10177 20123 39869 40186 52001 71311 85031
333 55/// 22932 55300 85362=
10688 32980 01301 10137 20095 39687 40201 58001
333 55300=
10708 32980 01601 10186 20171 39816 40188 58001
333 55300=
10729 32782 21001 10171 20141 30065 40183 50002 82500
333 55/// 22693 55300 82650=
10776 32970 00000 10133 20122 39771 40209 58001
333 55300=
10803 11983 11202 10209 20121 39848 40195 55000 69901 70281 81031
333 55/// 2//// 55300 81360 96480=
10836 32986 21103 10186 20117 39354 40187 56002 80002
333 55300 82075=
10929 32980 02801 10169 20147 39680 40198 50003
333 55/// 22890 55300=
10961 31/89 12607 10046 21167 37186 47175 58002 71341 81932
333 55300 816// 819// 81340=
10962 32788 31803 10184 20098 39101 48567 58001 81132
333 55300 81850=
11022 36/// /0303 10153 20083 39827 40207=
11028 36/// /1901 10132 20122 39872 40209=
11130 36/// /2001 10163 20154 39635 40205=
11157 32970 09901 10137 20117 39463 40214 51005=
11204 36/// /2301 10140 20136 39452 40220=
11231 36/// /3001 10146 20123 39672 40228 52003=
11464 32882 22608 10159 20100 39247 42835 54000 82030
333 55141 82357=
11487 32987 20402 10137 20122 39602 40211 54000 81041
333 55144 81363=
11603 32975 01703 10165 20089 39736 40201 54000
333 55146=
11659 32980 01005 10119 20085 39594 40225 57002
333 55147=
82704 85712 87618=
84630 86645=
11172 32975 00000 10138 20089 54000=
26038 41396 82203 10127 20121 30024 40068 57010 71062 88600   333
86707   555 11012=
26045 41497 82105 10130 20117 30072 40076 57022 70282 889//   333
91112   555 11013=
26115 41596 62206 10107 20101 30054 40068 57009 71042 86900   555
12010=
26141 41496 82207 10125 20119 40088 57022 76186 8872/   333 88710=
26247 42597 82002 10123 20091 30046 40125 57016 885//   555 11010=
57031 70086 87/// 92350=
57025 70086 87/// 92350=
15004 32970 01102 10102 20085 39915 40249 52003=
15020 32965 00000 10136 20079 30049 40243 54000=
15090 32960 02503 10117 20085 30110 40236 54000=
15108 32989 03608 10022 20022 38170 48586 58003 333 95100=
15120 32960 02301 10088 20062 39758 40254 50000=
15150 32960 00000 10128 20090 30015 40245 54000=
15200 32970 00000 10105 20071 30091 40233 58002=
15260 32965 00000 10085 20082 39726 40258 53003=
15280 31/05 83608 11016 21016 37568 47118 54000 74144 883// 333 41998
=
15292 32970 01402 10090 20064 39968 40261 52002=
15310 32970 03603 10159 20077 30133 40217 54000=
15346 32962 03202 10124 20077 39959 40244 54000=
15350 32960 03604 10145 20084 30109 40226 56001=
15360 32980 03608 10172 20121 30176 40187 54000 333 92428=
15410 32960 00000 10136 20132 30141 40236 58001=
15450 32960 21402 10160 20142 30006 40238 53002 81041=
15460 32960 03401 10118 20084 30195 40219 54000=
15470 32960 00000 10130 20111 30108 40233 54000=
26215 41796 72304 10116 20108 30084 40088 57009 71062 87500   333
87660   555 11011=
17219 32565 33522 10169 20085 40152 58003 83200
333 83830=
17022 11570 73606 10162 20136 40160 56010 60201 72582
85270 333 85832 87359 92448=
17050 32970 03603 10144 20116 40211 56004=
17096 32970 01206 10130 20054 38218 48471 55002 333 10047=
17124 11665 73411 10130 20088 39249 40139 56005 69911 70282 84250
333 84835 86360=
17195 32670 32402 10134 20100 38916 48462 58007 83100
333 83835 10059=
17240 32575 63304 10114 20084 38984 40104 58004 84250
333 84830 86360=
17244 11660 73514 10112 20091 38944 48456 56008 69971 78022 84250
333 84835 87359 10086=
17280 32970 02502 10188 20030 39296 40032 52004=
17350 32660 40204 10222 20207 40052 56002 82130 333 82835 84360=
17034 11670 70000 10168 20155 40118 58014 69941 70282
84270 333 84835 87459 92428=
17084 11670 60402 10124 20110 39234 40111 56012 60091
70299 84250 333 84835 86360=
17090 32965 40000 10126 20092 38660 48446 57006 84030
333 84360 10033=
17098 32970 00209 10098 20077 38215 48499 51003
333 10107=
17150 32660 40110 10148 20101 40177 57011 83130 333 83835 83360=
17160 11670 43610 10130 20106 38963 48461 57017 60011
70181 84200 333 84840 10075=
17184 32670 33610 10163 20117 40151 58004 83200 333
83838=
17190 11670 72705 10104 20086 39000 48480 56002 60011 70282 85250 333
85835 87359 10129=
17234 32970 00000 10183 20112 40116 51001=
17290 32970 03112 10194 20148 40102 58001 333 92438=
17370 32965 01802 10220 20143 40052 55006 333 92417=
17056 32970 03306 10143 20110 40192 57012 333 92418=
17115 32660 33610 10163 20087 40185 57004 83200 333 83835=
17248 32675 82204 10140 20119 38900 48443 57020 8422/
333 84840 88460 10030=
17292 32970 03406 10160 20086 39358 40080 51001=
17092 32670 22502 10150 20102 38794 48447 58001 82100
333 82840 10030=
17112 32670 30602 10160 20153 40207 54000 83200 333
83835 92418=
17116 32665 40901 10142 20121 40184 57006 82230
333 82835 84360=
17188 32670 63606 10120 20069 39089 40114 57003 86200
333 86837=
17202 32970 03205 10156 20050 39070 40041 56002=
17300 32565 33109 10212 20108 40053 57002 83230 333 83830=
17330 32970 33405 10222 20142 40040 56002 83030 333
83360=
17042 11670 70000 10198 20184 40122 57018 60011 70282
84270 333 84835 87460 92438=
17085 11670 72701 10151 20140 40101 57019 60091 70292
84270 333 84835 86360=
17100 32970 00000 10170 20075 39150 40109 52010=
17375 32975 03106 10226 20108 40047 56004 333 92428=
17074 11560 80000 10110 20092 39220 40134 58010 60091
76022 8422/ 333 84830 88458=
17203 32970 01803 10180 20083 38830 48512 54000 333
10082=
17205 32980 00000 10110 20079 38326 48496 57004 333 92418 10080=
17237 32670 83205 10166 20104 40116 51001 8552/ 333
85637 88459=
17250 32675 30606 10134 20111 38744 48453 57010 83200
333 83840 10046=
17255 32970 00000 10200 20176 39398 40024 58002=
17270 32970 00602 10230 20096 39420 40011 58007=
17600 32460 40305 10193 20162 30039 40055 57006 83802
333 83617=
33135 42997 03602 10116 20053 30055 40231 54000=
33317 42999 02701 10103 20055 39912 40247 54000=
33506 42997 00202 10128 20094 30010 40202 58005=
33587 42965 00000 10102 20073 39969 40230 58002=
33711 42960 02802 10102 20077 30003 40211 58003=
33910 42598 80504 10158 20142 30135 40153 57001 884//=
34519 41230 60104 10152 20149 39890 40155 52001 71011
86600 333 86704=
34601 42497 83506 10146 20128 40161 57009 885// 333 88610=
12205 31970 00000 10140 20135 30172 40180 52003 71100 =
12465 32970 01601 10136 20099 39974 40202 57004 =
12560 32998 02202 10131 20087 39885 40225 56004 =
12250 32998 01903 10177 20108 30085 40171 57007 =
12295 32965 21901 10127 20065 30024 40207 58006 80001=
12424 32999 01401 10128 20099 30045 40195 57003 =
12105 31940 02101 10115 20108 30134 40175 54000 71011 =
12135 11435 62002 10133 20131 30155 40158 57004 60021 71098 86200=
12195 32970 32106 10150 20100 39964 40185 55007 80002=
12235 32498 33203 10162 20132 39969 40173 51004 83500=
12270 32997 21903 10148 20094 30007 40185 57008 80001=
12300 32960 00202 10156 20129 30090 40178 51012 =
12360 32998 21902 10162 20100 30058 40188 57006 81031=
12385 32997 01803 10132 20069 30026 40213 55006 =
12400 32980 02103 10189 20106 39953 40179 51002 =
12435 32960 11603 10154 20114 30023 40191 58004 80001=
12495 32997 01601 10100 20071 39937 40228 58006 =
12510 32799 22509 10111 20068 38435 48549 57003 82034=
12520 32570 41602 10124 20097 39792 40219 51003 82530=
12570 32998 00000 10091 20067 39911 40228 57005 =
12595 32997 00000 10082 20076 39978 40239 57005 =
57029 70000 87/// 92345
555 772// 80793 0/007=
83700 86701 88702=
26242 41997 82004 10128 20099 30027 40110 57015 70282 82029   555
11011=
12160 32997 21502 10171 20131 30110 40161 54000 80001=
12230 32965 00201 10170 20135 30087 40174 51011 =
12399 32997 01501 10108 20095 30060 40227 55003 =
12418 32997 01902 10151 20115 30069 40181 57002 =
12469 32998 01602 10128 20075 39983 40211 56004 =
12540 32997 00000 10113 20087 39971 40220 56002 =
12566 32980 00000 10119 20085 39940 40226 57002 =
12625 32980 01601 10075 20059 39248 42856 57001 =
12690 32997 01602 10090 20068 39739 40248 57003 =
12115 31596 42303 10135 20116 30154 40167 54000
71011 84300=
12200 32965 02201 10131 20121 30173 40180 51002 =
12272 32670 21904 10181 20098 30009 40171 57009 81501=
12280 32965 52204 10159 20086 30022 40179 57009 80001=
12285 36/// /9902 10139 20111 30081 40194 57007 60031=
12345 32960 01703 10153 20115 30047 40188 56006 =
12415 32998 31903 10161 20107 30036 40184 56004 81036=
12455 32970 01804 10146 20087 39963 40203 58001 =
12497 32970 01802 10091 20075 30013 40233 57007 =
12500 32998 00000 10093 20082 39792 40207 56002 =
12530 32997 01702 10148 20083 30011 40206 58001 =
12580 32960 01001 10082 20070 39988 40234 57008 =
12585 32998 01702 10126 20083 39966 40229 57005 =
12650 32984 02105 10076 20013 38073 48564 58001 =
12660 32970 00000 10110 20093 39881 40237 51001 =
11406 32970 02401 10142 20107 39653 40204 51003
333 55128=
11457 32984 12202 10120 20096 38952 48560 56001 81040
333 55107 81358=
11520 32984 12103 10176 20100 39845 40200 51001 81030
333 55140 81360=
11636 32981 10502 10126 20078 39551 42843 56002 80002
333 55147 81073=
11679 32982 11302 10120 20077 39743 40225 54000 81040
333 55147 81363=
11723 32980 00503 10139 20091 39929 40222 55002
333 55148=
11766 32982 02206 10127 20053 39351 42845 57005
333 55147=
11774 32980 01702 10123 20079 39954 40223 57002
333 55141=
11787 32984 01909 10097 20036 38736 48557 57005
333 55140=
57008 76022 81298 22213 320// 40701=
84570 22223 20101 316// 40702 80071=
313066 313060 315063 315060 315060 313055=
50862 32970 01101 10186 20083 40121 57003 333 05206=
50742 32965 12903 10249 20064 40101 57003 80002 333 05303=
54606 32962 73603 10192 20162 40118 52010 8703/ 333// 05151=
51701 11580 70000 10000 21031 36635 57002 69901 70080 874//
333 00002 79999=
52378 32775 70904 10166 20128 40108 52014 879// 333// 00553
70010=
52495 11968 80904 10132 20123 38644 40103 52005 69941 70060
8802/ 333// 00358 70105=
52576 32980 00000 10125 20105 38467 52012 333// 00352 70030=
53602 32980 70000 10132 20116 38408 52002 8701/ 333// 00359
70004=
53502 11962 70000 10158 20145 40098 52010 60031 70060 86032
333// 00354 70068=
56188 32673 70000 10234 20196 40036 52011 81140 333 00302
70004=
56251 32780 20000 10099 20072 36984 52014 82400 333 00303
79999=
54154 31968 00402 10211 20130 40137 52006 700// 333// 05151
10273 20110 79999=
54156 31970 20901 10219 20137 40135 52003 700// 80002 333//
05101 10286 20125=
54164 31968 01601 10193 20118 40142 52001 700// 333// 05251
10270 20111=
55680 32880 11402 10064 20018 36268 52011 81400 333// 00200
30010=
55572 42780 50000 10080 20038 36276 52018 85400 333// 00204
30039=
55655 11476 72003 10072 20059 36505 52001 69931 70080 879//
333// 00201 70003=
55569 32780 10000 10099 20006 36254 52008 81140 333// 00200=
53882 11957 83603 10130 20127 40122 52009 60041 76160 8802/
333// 00156 70070=
56038 32580 72502 10041 20020 36163 52010 87962 333 00401
31011 70028=
59664 32475 61603 10292 20253 40103 52008 86200 333 00100
70001=
52447 32980 01803 10127 20120 40110 52002 333 00152 70002=
53929 11562 81603 10148 20141 40112 52017 60021 72166 8672/
333 00551 70419=
52895 32970 50000 10164 20123 40069 52011 85040 333 00452
79999=
56125 11675 80000 10075 20064 36574 52019 60051 76060 885//
333 00451 70071=
57232 11965 83601 10194 20192 40075 52016 69921 76060 8807/
333 00201 70370=
57432 11640 83604 10225 20219 40046 52048 60331 79596 889//
333 00553 70329=
56178 32580 70000 10161 20132 37669 52011 874// 333 00451
70069=
59303 32572 21802 10275 20230 40110 52004 82100 333 05151=
51365 32980 10000 10129 20114 40131 52015 80002 333 00953
70004=
51633 32680 30000 10086 20076 40091 52003 81432 333 00355
70111=
51346 32780 21103 10169 20046 40134 52011 82402 333 00853
79999=
57143 11656 82702 10171 20169 40095 52018 60011 76066 8272/
333 00251 70336=
52424 32980 10706 10172 20080 40036 57005 80002 333 00251=
56074 32980 40000 10077 20053 36710 52011 80002 333 00551
30016 70082=
53942 11958 83603 10132 20127 40119 52010 60011 76066 8802/
333 00456 70425=
53817 11775 70902 10146 20129 38219 52011 69901 70060 875//
333 00302 70044=
53903 32675 82902 10099 20084 38065 52010 885// 333 00452
70026=
53991 11956 83603 10200 20151 40102 69902 710// 8802/ 333//
10254 20195 70001=
10249 20195 70012=
53993 13965 73604 10202 20159 40093 69962 8703/ 333// 10281
20193 70007=
89642 42980 60000 11133 21192 39866 49922 53009 81035
333 11129 21165 81360 86068=
91925 12480 70912 10278 20230 30050 40108 56017 69924 85201
333 20250 56209 58010 85818 87075
555 11325=
91938 32575 72110 10275 20208 30124 40127 56016 878//
333 20240 56499 58024 83820 86650
555 11816=
91943 32575 41010 10300 20234 30119 40122 57019 82202
333 20266 56209 58018 82820 83073
555 11112=
91948 32580 60208 10253 20230 30052 40154 56019 82208
333 20236 56809 58006 83823 84276
555 10217=
91954 32580 82610 10232 20139 30124 40127 55003 84802
333 20185 56509 58047 84823 87080
555 12719=
91958 12575 73012 10222 20146 30090 40092 55002 69984 81282
333 20204 56777 58045 81830 86073 91135
555 13135=
78962 11459 71010 10248 20233 30136 40144 60171 71586 85872
333 02299 10309 20246 59002 83810 83630 86360 90916=
68994 11498 83510 10083 20066 30128 40155 57021 60031 76122 885//
333 10084 20047 60015 91013 555 20032 91015=
78388 31570 60711 10284 20249 40150 70522 86800 333
01200 10329 20244 58000 81822 86632=
60020 32970 03304 10201 20129 30138 40182 51007
333 924/7=
60030 32960 00222 10199 20157 30110 40165 52007
333 924/6=
61641 32458 32904 10228 20208 30093 40126 83500
333 0//00 58003 83613=
61679 32960 02810 10260 20220 30129 40137
333 0//00 59012=
81401 01460 51802 10243 20233 40143 60061 70098 85200
333 10313 58017 60067 85813=
76390 31456 80803 10214 20170 38244 40090 57001 70544 847//
92335 333   10283 20185 30/// 50380 565// 58007 79999 84625
84730=
76402 31958 03203 10334 20165 30064 40124 57005 70744 92345
333   10388 20142 30/// 50600 58017 70000=
76412 31766 22203 10326 20207 30091 40131 57002 70544 82040
92340 333   0\050 10360 20210 30/// 50880 59015 70000 82356
=
76471 32680 51207 10220 20095 37717 40071 57007 82203 92340
333   10269 20118 30/// 50340 56102 58012 70000 82840 83070
=
76519 11560 80402 10276 20125 38341 40068 57016 60053 71722
86306 92345 333   10334 20154 31/// 50320 56206 60081 70258
84605=
76539 31668 40806 10238 20153 38127 40053 57014 70544 81206
92348 333   10269 20135 30/// 50590 56205 58011 70000 81837
83070=
76665 11564 62501 10234 20122 37109 40080 57002 69901 71552
84920 92350 333   10282 22014 31/// 50300 56330 57932 58004
84920=
76723 32865 22203 10280 20206 30082 40112 57014 80006 92340
333   10298 20225 30/// 58009 80865 92301=
76393 32664 71205 10338 20204 39548 40112 55008 85403 92350
333   01305 10356 20228 30/// 50570 58019 70000 83644 82850
=
76612 31862 40000 10288 20161 38455 40070 57016 70544 82231
92355 333   10308 20165 31/// 50240 56222 59006 70000 82833
81358=
76658 31560 51412 10298 20194 39620 40152 54004 70540 83404
92347 333   0/807 10360 20213 30/// 50590 59005 70005 83622
81073=
76762 31580 31802 10256 20185 38752 40091 56009 70100 81207
92340 333   10302 20172 31/// 50110 56201 58005 70000 81830
82270=
91557 02475 72204 10271 20247 40114 54000 60034 85831
333 20236 56599 58010 60034 81715 85818 86640 83360=
91568 01375 82110 10224 20212 40123 51013 60404 72588 888//
333 20228 563// 58024 60404 84708 84818 88640
71923 16/// /0503 10042 20031 39791 40236 50001 60011 333 10042 21090
70012=
71103 36664 32002 10228 20016 39526 40175 50000 333 10230 20018
70010=
71115 17/// /1003 10159 20096 69941 7//4/ 333 10175 20071 70016=
71121 17964 01404 10202 21011 39380 40194 56007 69951 7//4/ 333
10212 20028 70005=
71127 46064 /0309 10177 21002 39489 40215 56012 333 10178 20037=
71143 36/// /3611 10154 20094 39912 40225 53002 333 10192 20070
70000=
71194 36/64 ///// 10102 20038 30106 40119 58005 333 10137 20074
70000=
71197 36864 3//// 10101 20016 30067 40116 56017 333 10141 20067
70005=
71450 36/// /1708 10177 20014 39514 40226 57009 333 10184 20030
70000=
71490 36/// /0000 11033 21046 39929 40245 58011 333 11031 21171
70000=
71725 17464 83611 10079 20060 39743 40155 53034 69951 7//4/ 333
10089 20066 70135=
71726 17/64 /3603 10058 20051 39580 40110 53027 60051 7//44 333
10071 20046 70150=
71727 11356 83604 10077 20073 39901 40095 53008 60041 78022
887// 333 10127 20037 70042 90937=
71728 11359 80105 10077 20072 39882 40100 51005 60031 76162 887//
333 10089 20028 70058 90957=
71730 11474 83310 10086 20063 39758 40177 51039 69901 70252
888// 333 10149 20084 70019 90930=
71738 32674 12004 10104 20047 39860 40211 53011 81100 333
10154 20067 70128=
71739 32674 53106 10134 20023 39818 40177 53012 81101 333 10135 20044
70090=
71799 11783 11305 10181 20078 30182 40205 51006 69901 70281
81171 333 10184 20110 70016 90960=
71801 32674 22310 10110 20024 39949 40119 51012 81504 333 10188 20059
70000=
71807 36/// /2112 10082 20046 30123 40139 53011 333 10128 20060
70000=
71808 36764 61603 10060 20036 30036 40082 51013 333 10103 20018
70010=
71809 32674 70000 10110 20027 30071 40098 57010 83571 333 10165 20068
70000=
71810 36/64 /0000 10082 20029 30021 40083 58011 333 10120 20062
70000=
71813 36964 02708 10084 20039 30065 40078 55007 333 10130 20015
70005=
71814 36/// /2407 10077 20048  333 10164 20060 70000=
71815 32674 80000 10098 20059 30074 40105 57013 81509 333
10104 20079 79999=
71865 36/64 /2607 10171 21010 39565 40240 58006 333 10194 20061
70000=
71866 36964 01709 10189 21016 39616 40224 56009 333 10210 20020
70005=
71868 17864 30509 10163 20066 39789 40226 53002 69951 7//4/ 333
10204 20019 70010=
71869 11874 73508 10191 20016 39699 40219 56008 69901 70281 85261
333 10201 20011 79999 90941=
71870 36664 3//// 10155 20060 39260 40221 56010 333 10163 20027
70000=
71871 32774 61105 10193 21030 39417 40212 58008 84101 333 10202 20039
70000=
71872 32783 80705 10187 20043 39348 40190 56008 85477 333 10203 20054
70000=
71874 36664 60615 10171 20030 39101 40179 56011 333 10197 20037
70005=
71876 32774 71804 10196 21013 39554 40210 57011 82202 333
10219 21006 70000=
71878 32774 69011 10164 21011 39144 40209 56002 86100 333 10193 20021
70000=
71879 36964 01407 10205 21038 39397 40187 56007 333 10215 20063
70000=
71880 32782 71203 10188 20040 39071 40153 58010 86101 333 10198 20060
79999=
71881 36964 00808 10190 21059 39106 40192 56004 333 10201 21016
70000=
71882 36864 31507 10190 20047 39637 40164 51018 333 10230 20055
70000=
71883 36/// /1103 10227 21044 39358 40161 58003 333 10231 20019
70000=
71887 31783 72610 10168 20079 39767 40182 53012 72922 83361
333 10189 20089 70014=
71891 17064 /1504 10197 20074 39916 40190 55000 69951 7//4/ 333
10202 20084 70010=
71892 32783 12205 10191 20079 30198 40203 50003 81170 333 10192 20108
70038=
71817 36764 81106 10058 21002 30061 40075 51018 333 10139 20028
70000=
71818 11574 81803 10062 20020 30047 40065 53008 69901 70262
885// 333 10098 20050 41997 79999 90941=
10143 20030 70020=
71822 17964 32903 10092 20078 39654 40123 53008 60021 7//4/ 333
10092 20043 70050=
71827 11266 83008 10027 21001 39911 40155 52002 69901 75882 88700
333 10085 21014 79999 90931=
71828 36664 82807 10034 21046 39476 40111 51003 333 10058 21001
70000=
71834 11674 32510 10162 20041 39776 40199 57004 69941 70181
82201 333 10163 20063 70138 90931=
71842 32774 12712 10178 20017 39751 40224 55003 81500 333 10185 20061
70140=
71845 32674 70211 10139 20050 39740 40209 52017 87500 333
10198 20062 70000=
71850 32874 22703 10182 21018 39740 40234 56007 81071 333 10188 20062
70020=
71852 36864 32905 10179 20060 39940 40232 56010 333 10211 20011
70000=
71854 32874 53004 10180 21002 39747 40213 57006 83055 333
10200 20055 70000=
71855 36964 00711 10200 20009 39851 40220 55007 333 10233 20013
70005=
71856 36964 02709 10196 20032 39942 40223 56009 333 10209 20007
70005=
71858 36/64 /1203 10095 20035 39975 40256 55002 333 10102 21009
70000=
71861 17864 31503 10174 20014 39527 40248 56008 69951 7//4/ 333
10186 20034 70005=
71862 32774 71306 10165 20036 39553 40252 56011 83401 333
10174 20008 70006=
71851 36/// /2503 10201 20011 39904 40236 56008 333 10205 20029
70000=
71873 36/64 /1606 10170 21017 39281 40226 56009 333 10172 20000
70000=
71875 17564 81202 10114 20061 38842 40219 53014 69951 7434/ 333
10163 20019 70005=
71073 36/// /3507 10171 21058 39812 40230 55006 333 10178 21037
70000=
71075 36/// /2708 10112 21026 39628 40228 56006 333 10124 21030
70000=
71096 460// /0000 11090 39388 40123 53007 333 11080 21111=
71702 36/// /1404 10163 20090 40067 333 10206 20099 70000=
10193 20082 70004=
71045 36/// /2405 10185 21018 39344 40192 58009 333 10185 20012
70000=
71050 36/64 /0906 10200 21016 39130 40192 50000 333 10200 20005
70000=
71068 32774 52903 10191 20017 39517 40200 58006 83271 333 10200 20062
70000=
71069 36964 32105 10191 21008 39502 40198 50000 333 10210 20021
70005=
71077 36/32 /0406 10138 20053 39710 40235 56013 333 10142 20047
70022=
71079 32874 63610 10123 21059 39963 40240 57007 81104 333 10126 20009
70034=
71083 32474 73418 11048 21084 30174 40212 52005 87500 333 11036 21076
70000=
71091 460// /3309 11061 39912  53003=
71092 46964 00906 11076 39457 40123 51007 333 11065 21123=
71093 460// /2206 11075 39620 40117 53005 333 11047 21105=
71094 460// /3615 11112 39181 40084 51004 333 11102 21141=
71095 36964 01903 11082 21103 30038 40110 51011 333 11044 21135
70000=
71101 36964 00502 10149 20085 30200 40208 50000 333 10161 20075
70000=
71104 32774 43305 10197 21021 39092 40184 51004 82271 333 10205 20027
70010=
71107 36/// /3208 10151 30103 40216 333 70002=
71108 11683 20000 10185 20084 30135 40205 50000 69981 70281 82200
333 10187 20091 70052 90941=
71109 32680 10305 10138 20108 30175 40201 50002 81100 333 10140 20063
70022=
71930 32874 21408 10202 21040 39270 40191 57006 82101 333 10210 20024
70000=
71931 36/64 /0305 10196 21007 39528 40204 56009 333 10203 20047
70000=
71932 17964 00307 10185 21009 39763 40215 56015 69951 7//4/ 333
10191 21015 70020=
71933 36964 02505 10190 21028 39933 40220 56012 333 10190 21033
70005=
71935 32674 20911 10121 20001 30003 40209 57013 81171 333 10160 20050
70000=
71936 32674 21809 10125 21060 39965 40222 57011 81571 333 10141 20045
70002=
71943 32774 73410 10150 20016 39385 40213 53008 86901 333 10202 20061
70000=
71944 36964 02302 10206 20004 39370 40187 58002 333 10222 20034=
71946 31774 82203 10205 20024 39968 40176 56014 71411 83271
333 10217 20082 70000=
71948 46964 02726 11006 30058 40170 53004 333 11006 21068=
71949 36/64 /1804 10157 20023 39350 40205 56013 333 10157 20068
70000=
71950 32882 32805 10240 21007 39556 40173 57010 83100 333 10251 20033
70000=
71951 32880 23010 10250 20042 39920 40182 58005 82101 333 10252 20082
70000=
71958 36964 30000 10197 21056 39245 40197 56009 333 10216 20004
70000=
71964 31786 60103 10173 21001 39353 40195 57006 71511 84271
333 10188 20040 70000=
71968 465// 83309 11006 30183 40247 53004 333 11001 21011=
71952 36/// /3104 10228 21007 39343 40183 58006 333 10236 21008
70000=
71967 36/// /1303 10167 20038 39245 40203 58011 333 10171 20033
70000=
71201 36/// ///// 10195 333 10207 20110 70090=
10161 21044 70002=
71397 11874 81803 10173 20103 30038 40071 56022 69901 70282
83072 333 10244 20094 79999 90931=
71398 36/64 /1501 10152 20106 30038 40086 56028 333 10222 20041
70000=
71400 36/64 /3004 10121 20029 40104 333 10204 20072 70007=
71410 36/64 /1507 10161 20092 30046 40074 56025 333 10214 20075
70000=
71411 36/00 /2106 10100 20089 30082 40092 56023 333 10133 20089
70000=
71412 46/// /1811 10101 20055 30072 40085 58021 333 10131 20095=
71441 36/// /3104 10203 20018 39937 40243 56008 333 10211 20038
70000=
71443 36/// /0413 10168 20053 39826 40234 55002 333 10212 20047
70000=
71474 17664 61806 10120 20037 38984 40210 51018 69951 7//4/ 333
10167 20049 70045=
71475 36/// /1405 10232 20057 30098 40190 54000 333 10233 20060
70072=
71601 11124 81203 10098 20098 30029 40091 56020 60011 71082
886// 333 10181 20097 70010 90921=
71893 32780 11507 10202 20085 30162 40193 50003 81100 333
10207 20084 70030=
71894 36/// ///// 10155 30202 40211 53002 333 10167 20072 70000=
71897 31974 02703 10155 20114 30172 40204 52008 710// 333 10166
20089
70000=
71898 36964 02707 10152 20101 30158 40201 51001 333 10164 20068
70000=
71899 32969 12906 10105 20087 30169 40219 51001 80002 333 10130
20065
70000=
71905 11474 72809 11002 21029 30152 40165 53003 69901 78522 87500
333 10012 21015 70004 90910=
71906 11474 63012 10041 21045 30034 40081 52005 69901 70182 85530
333 10059 20004 70022 90937=
71907 37564 82813 11015 21067 30095 40127 56002 745// 333 10011
21018 70005=
71910 36464 80112 11023 21051 30019 40083 53006 333 11004 21031
70000=
71911 46064 /2812 11072 30142 40199 50000 333 11070 21133=
71922 32874 10610 10129 21111 39779 40243 57013 81100 333 10135 20042
70002=
71928 36/64 /1409 10171 21018 39048 40201 54000 333 10180 20013
70000=
71607 36/// /1104 10125 20091 30026 40057 56025 333 10195 20066
70002=
71609 11774 82104 10149 20058 39933 40063 57025 69901 70282 885//
333 10221 20048 79999 90941=
71610 36564 62904 10187 20151 39745 40031 55002 333 10216 20078
70010=
71621 32674 12914 10155 20110 30014 40118 53031 81500 333
10238 20120 70138=
71623 32574 73212 10142 20089 39846 40176 56030 87800 333 10211 20141
70018=
71625 36564 83211 10136 20081 39952 40109 53046 333 10235 20136
70000=
71628 32680 62918 10188 20109 39932 40068 53031 83270 333
10245 20134 70016=
71630 11366 83207 10112 20102 39801 40139 53021 69901 76152
887// 333 10158 20111 70038 90914=
71700 32774 81604 10168 20101 30029 40054 56025 885// 333 10222 20053
70000=
71705 11974 81508 10177 20087 39978 40063 56021 69901 70282
8807/ 333 10219 20077 79999 90931=
71706 32974 81712 10156 20051 30019 40078 56021 8807/ 333 10200 20069
70000=
71707 32974 81708 10124 20016 30033 40108 58018 8807/ 333 10196 20054
70000=
71711 11566 81503 10097 20090 30035 40084 57008 60011 78882 885//
333 10166 20068 70014 90942=
71714 36/// /0710 10094 20092 39962 40052 56013 333 10123 20094
70012=
71715 17/02 /3608 10052 20050 39902 40082 55005 60011 7//4/ 333
10110 20052 70014=
71718 11666 80505 10074 20055 30021 40085 56009 60011 76122 8252/
333 10115 20059 70012 90942=
71719 36/// /0510 10076 20055 30082 40088 58010 333 10141 20037
70000=
71114 17964 02708 10175 20104 30156 40203 51008 60011 7//4/ 333
10176 20101 70010=
71119 36/// /1506 10182 21011 333 10206 20048 70000=
71122 36/64 /0804 10117 20016 38609 40207 51016 333 10160 21027
70000=
71123 31974 61407 10196 21012 39343 40199 58005 71411 83201
333 10211 20019 70000=
71125 31774 21103 10196 20026 39634 40213 57011 71500 82201
333 10202 20014 70000=
71129 32774 61510 10179 21015 39393 40215 57009 81122 333
10193 20019 70000=
71130 31774 80909 10168 20044 39772 40225 58013 71411 81284
333 10177 20019 70000=
71131 36/64 /1513 10136 20065 38968 40217 56009 333 10138 20024
70000=
71138 32974 62408 10189 21025 39631 40232 56008 82161 333
10210 20038 70000=
71140 32774 72504 10186 20032 39749 40247 57010 81101 333 10196 20010
70000=
71141 32674 23603 10121 20012 39969 40247 57008 82100 333
10121 20012 70008=
71148 36/// /2804 10180 20019 39684 40260 56008 333 10182 20017
70002=
71182 36964 03204 10038 21027 39564 40098 53003 333 10081 20014
70000=
71187 36864 31903 10082 20061 30059 40086 56010 333 10132 20038
70000=
71188 11774 80604 10091 20054 30048 40088 56010 69901 72122
8457/ 333 10174 20012 79999 90921=
71196 36864 3//// 10086 20028 30075 40111 53023 333 10173 20057
70000=
71200 36/// /2206 10140 20101 333 10178 20101 70002=
68040 42960 01202 10074 20043 48538 56002=
68032 42960 01607 10120 20044 48539 56008=
68240 42960 02503 10065 20038 48538 58003=
68054 42960 00000 10040 20000 48570 58003=
88963 32365 83615 11017 21037 30022 40051 57008 886//
333 11016 21041 56099 88709 92406 95010
555 64205 65100=
88968 32465 80910 11070 21086 30125 40141 54000 886//
333 11062 21075 56499 88712 92417 92851 94079
555 64150 65095 D/INV=
89034 32970 01627 11183 21239 39666 40002 52015
333 11136 21223
555 64097 65172=
89053 11205 83660 11006 21018 39965 49979 57049 69901 77073 887//
333 10000 21032 56899 88705 90220 90423 91176 92442 92800 92972
94070 95090
555 64195 65092=
89055 32360 83622 11044 21050 39791 40043 57009 886//
333 11020 21099 56199 88709 92722 92843 95190
555 10027 64220 65122=
78894 36/// /1008 10266 20216 30123 40183 53011
333 10300 20254 59003=
94150 46/// /1214 10247 20133 30076 40137=
94216 46/// /1217 10188 20012 30131 40182=
94317 46/// /1005 10095 20007 39616 40227=
94319 46/// /1308 10118 20026 39879 40222=
94374 46/// /1606 10169 20015 30192 40209=
94429 46/// /0000 10086 21002 39769 40251=
94462 46/// /1008 10096 20029 39682 40262=
94552 46/// /2304 10097 20028 39735 40218=
94584 46/// /1813 10169 20046 30081 40193=
94637 46/// /0000 10087 20077 39850 40293=
94647 46/// /3104 10102 20046 30161 40284=
94651 46/// /0105 10089 20055 30206 40285=
94703 46/// /1807 10107 20067 30123 4////=
94729 46/// /0000 10044 20023 39344 40219=
94767 46/// /3109 10135 20027 30197 40203=
94850 46/// /3216 10146 20106 30131 40177=
94954 46/// /3107 10148 20090 30062 40174=
94956 46/// /0209 10100 20061 30132 40158=
94968 46/// /2205 11003 21003 39965 40182=
95711 46/// /2003 10069 20059 39938 40252=
95719 46/// /1104 10071 20048 39889 40232=
96995 46/// /1009 10254 20228 39789 40083=
96996 41580 61313 10265 20222 30078 40082 56004 70211 82830
333 20255=
89564 41980 11232 11131 21198 39877 49898 52013 70200 81030
333 21138=
89571 41970 01307 11172 21226 39858 49888 57003 70100
333 21179=
89611 41980 13505 11097 21154 39839 49894 52029 702// 81020=
94934 35/// /2614 10120 30173 40197 52010=
94974 35/// /0317 10102 30129 40152 57011=
95288 35/// /1618 10219 30138 40153 52009=
95872 46/// /0107=
61697 32958 13204 10257 20235 30126 40140 80002
333 0//00 59003 81073
89002 41/92 90829 11139 21159 39831 49884 57012 73833
333 00835 11139 21196 92943=
85406 32960 01402 10178 20156 40166 55004
333 10226=
85418 32962 01708 10169 20114 40166 52012
333 10208=
85442 32980 01709 10152 20139 40192 52025
333 10196 =
85469 41460 71608 10204 20184 40213 53002 72582 87200
333 56400 87812=
85470 32970 02803 10142 20100 40189 52013
333 10235=
85488 32962 01103 10132 20114 40201 57009
333 10195=
85574 31958 20000 10130 20066 39649 40210 52006 70511 80001
333 10179 58052 56006 82075=
85585 11596 83625 10176 20157 40097 54002 60021 70262 885//
333 10180 56899 88625=
85586 32960 40000 10120 20094 40210 53005 80001
333 10184 56006 84075=
85629 31656 80502 10140 20093 40197 53007 70522 8451/
333 10168 56779 84635 88463=
85672 11330 83614 10130 20115 40166 50003 60041 76166 8572/
333   10130 56889 85707 88440=
85682 11330 80127 10135 20126 40128 54003 60451 76366 8552/
333 10135 56889 85707 88510=
85743 11250 83512 10125 20109 40076 52030 60291 76366 8572/
333 10133 56779 85706 88514=
85766 11220 82408 10120 20117 40057 52024 60341 76566 8672/
333 10120 56669 86704 88512=
85782 11458 83107 10104 20094 40046 52051 60271 76366 8352/
333 10128 56779 83610 88533=
85799 11660 80405 10092 20078 40028 52037 60281 72166 8452/
333 10119 56879 84640 88458=
85864 11580 49902 10038 20026 49972 52024 60011 70182 84200
333 10080 56600 84835=
85874 32580 23303 10006 21002 39347 49969 51023 82200
333 10067 56600 82833=
85892 32580 20000 10043 20004 49915 52025 82100
333 10095 56600 82825=
85934 32580 33225 10045 20028 49777 52072 83100
333   10097 56700 83820=
61415 32960 00219 10200 20167 30125 40130
333 0//00 58001=
61442 32957 32708 10215 20200 30099 40103 83080
333 0//00 58006 83363=
61499 31950 23204 10365 20051 39809 40051 705// 80001
333 0//00 59016 82073=
71135 36/64 /1508 10142 20034 39164 40244 56009 333 10154 20014
70000=
71966 46/// ///// 10183 333 10191 20046=
78906 11580 50707 10277 20193 30160 40165 69901 70281 85202
333 10320 20247 58007 85820 90930=
71473 36/// /1104 30175 51004 333 70008=
60351 32970 00000 10178 20173 40173 50001
333 95990=
60425 32960 01702 10262 20098 40158 53003
333 95990=
60444 32965 00608 10218 20043 39148 48571 51006
333 95990=
60468 32960 10303 10182 20118 39243 48550 58002 80002
333 0//00 81070 95990=
60581 32965 00808 10284 20089 40137 58001 =
11012 21026 71099 88707=
11018 21036 71199 88610=
71066 32774 11308 10191 21045 39790 40205 56012 81270 333 10192 21002
70000=
71076 46/// /2306 10145 21018 39840 40231 58005 333 10146 21019=
11423 32988 12503 10164 20094 39348 42838 57003 80001
333 55131 81070=
47101 31959 33201 10213 20161 30016 40104 57007 71011 80001 333
20164 30027=
47133 31920 80508 10223 20182 30018 40096 57006 69902 71022 8801/
333 20183 30025=
47168 31950 61102 10211 20159 30018 40094 53002 86030 333 20180
31027 92022=
47090 31550 80702 10164 20147 30105 40125 57004 69902 71022 8252/
333 20147 30021 92021=
47095 32962 23607 10219 20162 39927 40103 57005 80001 333 20158
30029=
47100 32962 51103 10180 20120 39166 40105 54002 80001 333 20104
31022=
47106 31620 80503 10163 20148 30079 40123 56006 71022 8452/ 333
20153 30021=
47112 31950 03603 10220 20179 30022 40101 57006 71000 333 20165
30024 92022=
47114 31958 20900 10226 20169 39926 40096 57010 71022 80001 333
20173 30034=
47119 31950 32301 10231 20170 30059 40098 57009 71022 80001 333
20177 30030=
47121 31958 31601 10209 20158 39832 40102 57007 71000 80001 333
20154 30031=
47129 31950 80505 10213 20159 30077 40105 57007 71022 80007 333
20140 30029=
47130 11950 83405 10164 20161 30065 40123 57004 72162 8802/ 333
20155 31020 92012=
47131 31950 83605 10211 20170 30030 40095 57008 71022 8802/ 333
20179 30027=
47136 32961 71405 10222 20154 39943 40105 57005 87010 333 20183
30027=
47140 31950 80907 10216 20175 30059 40094 57006 71022 8801/ 333
20175 31029 92011=
47143 31940 71107 10201 20164 30039 40105 56002 71022 80002 333
20182 30025=
47146 31630 80203 10224 20177 30029 40092 57006 71022 8802/ 333
20185 31026=
47152 31930 80903 10184 20152 30071 40110 57003 71022 8802/ 333
30021=
47155 32956 71604 10209 20167 30095 40099 57007 71022 80002 333
20179 31028 92011=
47156 31957 80208 10244 20167 30002 40085 57005 69902 71000 8801/
333 20194 30028=
47162 31650 83611 10212 20170 30058 40095 55003 71022 8352/ 333
31025 92024=
47170 31656 80903 10195 20170 30046 40086 53005 71022 8252/ 333
20177 30022 92021=
47185 11557 80206 10187 20178 39993 40075 50006 60012 76066 8572/
333 20172 31020 70017 92032=
47189 11565 80508 10220 20194 30018 40076 50004 60012 76066 8472/
333 20207 31022 70017 92023=
47192 31930 80503 10225 20173 30074 40099 57005 71022 80002 333
20170 31025=
61036 32965 5//// 10344 20164 39827 40054 80002 92345
333 59034 85080=
61043 31960 51804 10320 20184 39620 40041 700// 82032
333 59016 82365 84080=
61052 32960 72618 10340 20190 39829 40071 86072
333 59015 86464 83080=
61080 32965 72404 10314 20142 39630 40032 80008
333 59018 87280=
61090 32960 51406 10315 20160 39570 40056 80002 92345
333 58006 85080=
61096 32965 71808 10300 20195 39687 40050 80008 92349
333 58009 87280=
61099 31965 5//// 10312 20226 39/// 4//// 7132/ 81902 92345
333 5//// 81740 85080 94741 95811=
71805 43/// /2506 10075 20046 30106 40134 58004=
26229 42484 82007 10134 20115 30098 40105 57010 885//
333 88619 91113=
26313 42097 82404 10135 20119 30091 40097 57013 8807/
333 91111=
26314 42997 22108 10121 20109 30106 40110 57004 82030
333 91012 91112=
26324 42497 82303 10135 20122 40114 57009 889//   333 86715=
26348 41470 82103 10120 20117 39972 40144 57013 76162 8802/   333
88518 91111=
26406 41563 72306 10136 20122 30124 40133 57001 71792 85930
333 85922 91011 91112=
26422 41997 81905 10150 20135 30094 40125 57009 70282 8802/
333 91010 91111=
26446 41532 82405 10131 20102 39975 40163 55010 72998 889//   333
88920 91110=
26544 42562 81803 10149 20074 30022 40169 57009 883//   333 83930=
13376 32999 00000 10106 20086 39995 40257 54000=
13388 32998 00000 10114 20094 30002 40248 51002=
13462 32970 03605 10210 20053 30172 40215 52002=
61990 62990 63993 64990 71137 72190 73158 74087 75500=
36911 41697 80000 10111 20068 39221 40158 52022 78008 889//
555 11012=
38345 42999 32001 10061 20013 38803 48500 52021 83030 555
11005=
33177 42970 00000 10112 20088 30008 40243 57005=
33246 42963 03201 10086 20062 30072 40227 54000=
33275 42997 63602 10110 20085 39996 40215 54000 86030=
33301 42997 02401 10089 20067 39971 40249 57002=
33325 42997 03201 10098 20070 39970 40242
58002=
33377 42965 00202 10111 20085 30030 40222 52001 555 10009=
33415 42997 20000 10107 20082 39857 40252 54000 80001=
33429 42997 03303 10112 20056 39831 40251 58002=
33466 41959 03201 10102 20088 30041 40227 54000 71000=
33526 42960 00000 10078 20046 39910 40251 58008=
33562 42997 03002 10100 20073 39883 40240 54000=
33614 42968 03404 10138 20104 40199 54000=
33761 42973 03404 10121 20086 39994 40214 52004=
33889 42998 03204 10133 20071 30170 40206 52001=
33902 42599 63606 10162 20112 30112 40176 58002 82530=
33983 41997 63403 10166 20155 30090 40148 54000 86030=
34415 42997 80503 10160 20150 30084 40176 52003 8807/=
34523 42997 22601 10162 20151 30085 40158 57001 80004=
12120 11497 72407 10146 20124 30155 40162 57002 60011 70382 873//=
37549 41797 69902 10212 20136 39610 40148 53003 71322 84330=
91425 11474 80405 10250 20248 30092 40093 51005 60924 70282
882// 333   20239 56199 58005 70917 88818 555   90300
91434 32474 81401 10300 20255 30105 40108 51010 85230 333
20222 5633/ 58002 85818 83362 555   90300=
16059 31540 63004 10204 20174 39876 40213 55000 71021 86800
333 82828 84640=
16080 32958 00000 10207 20171 30090 40211=
16153 32997 00302 10234 20165 39955 40210 51002 92345 555 0////=
16105 32965 00000 10181 20159 30210 40216 55001=
16191 36/// /1601 10145 20128 30200 40218 58002=
16158 32962 02002 10160 20150 30199 40206 50000 92345 333 55300=
16261 32970 02807 10148 20115 30131 40203 54000 92345 333 55300
95090=
16429 32970 00000 10168 20155 30190 40202 50000 92345 333 55300=
26231 41397 82306 10137 20124 30091 40100 57009 70262 886//   333
88706 91112   555 12013=
16066 31325 43501 10163 20137 39967 40218
52003 71022 84010 333 84407=
16120 32962 03602 10225 20169 30199 40202 57008
333 97070 555 0200/=
16090 32965 03403 10180 20172 30133 40214 50002 92345=
16170 32965 01802 10225 20165 30152 40196 54004=
16405 32960 01404 10191 20159 30156 40196 56004
333 95400=
16460 32475 62803 10172 20167 30183 40203 55003 84040
333 84356=
16362 32960 00001 10169 20141 30182 40200 58000=
12488 32997 01803 10136 20102 30061 40213 57006 =
26554 42965 72304 10151 20050 30028 40186 57013 83031   555 11011=
26666 42960 71902 10141 20050 39992 40201 57009 85031   555 10013=
26863 42960 52302 10125 20085 39987 40218 58004 85030   555 11011=
26941 42960 02202 10134 20058 39994 40227 57001 555 11011=
26951 42965 51803 10127 20098 30033 40228 57005 83051   555 11011=
33019 42060 02101 10125 20068 30054 40225 58008 555 11010=
33036 42960 00000 10111 20059 39999 40227 54000   555 10008=
33041 42960 00000 10097 20085 30082 40237 54000   555 11010=
60035 83/19 85/26 88/39=
16008 41540 80000 10132 20132 38620 48578 51008 71086 884// 92345
333 88630=
16020 36/// /0000 10181 20169 39934 40218 53011=
16110 32965 00000 10206 20142 30187 40210 58007 92345 555 0////=
16134 32989 01906 10102 20005 37920 48583 58003 92340=
16149 32980 02202 10150 20139 30197 40213 56002 92345=
16230 32965 02101 10144 20124 30196 40209 56002=
16252 32970 02808 10170 20024 39295 42848 58004 92345=
16270 32960 01905 10149 20116 30161 40214 54002=
16325 32998 02707 10180 20125 30178 40192 54000 92345 333 98070
555 0100/=
16360 32997 00416 10186 20164 30055 40187 58002 92345 555 0////=
16480 32997 03304 10208 20140 30148 40209 58002 92345 333 55300
555 0////=
16520 32970 00102 10178 20169 30173 40200 56008=
16522 32998 03509 10188 20160 39970 40210 57009 92345 555 0////=
16539 32998 00903 10192 20175 30088 40200 58002 92345 555 0////=
16550 31696 23206 10200 20146 30018 40194 58003 71000 82200 92345
333 82835 555 0////=
41244 36/// /0000 10286 20085 39657 40009
333 0E031 58000  =
41262 36/// /1014 10299 20197 39804 49995
333 0E032 58000  =
41304 36/// /2104 10295 20139 39687 40004
333 0E029 59000  =
41312 36/// /2104 10285 20258 39974 40014
333 0E/// 59009  =
48097 31450 71301 10265 20246 40022 71052 84371 333 20255 56599
59022=
26645 42998 71602 10134 20053 39934 40187 57006 80002   555 10012=
26659 42560 62102 10147 20046 39998 40206 57009 86500   333 86623
555 10012=
26763 42965 60000 10113 20064 39994 40217 57005 86030   555 11010=
26832 42960 61902 10139 20067 30019 40208 57004 86030   555 11013=
26887 42966 02202 10084 20053 30026 40232 54000   555 31006=
26961 42960 22001 10081 20064 30038 40230 57004 82030   555 10///=
33027 42960 00000 10080 20062 30071 40237 58003   555 10008=
60360 32960 00602 10210 20191 40176 58003
333 0//00 95990=
60390 32457 20000 10171 20168 40165 58006 82800
333 82713 95990=
60402 32960 02404 10183 20172 40170 58008
333 95990=
60419 32970 00000 10174 20151 40157 58007
333 95990=
60475 32965 00810 10185 20162 39256 48557 56004
333 95990=
60490 32960 60000 10206 20195 40162 50002 82032
333 82360 85073 95990=
60525 32960 01228 10279 20085 40155 53011
333 0//00 55325 95990=
60531 32456 40000 10198 20177 40165 58001 82632
333 0//00 82710 83073 95990=
60566 32960 00606 10285 20128 40139 51007=
60571 11560 50808 10280 20088 39267 48574 58015 69931 70292
83280
333 0//55 83840 83360 95990=
60580 32960 00714 10297 20107 40125 54000=
60590  32665 61204 10315 20114 40118 51004 81232
333 0//00 81840 83361 83073
60611 32960 20408 10240 20030 40042 58003 82030
333 0//00 82360=
60656 32658 20807 10314 21037 40076 50001 81230
333 0//00 81846=
60670 32770 31011 10264 20059 39047 48521 58001 83200
333 0//00 83850 95990=
60680 32960 00207 10250 21023 38636 48505 58003
333 0//00 95990=
11414 32981 10000 10146 20100 39502 42836 55000 80001
333 55147 81070
555 374// 50149 60148 70143 80129=
11438 32982 00000 10153 20112 39814 40200 55000
333 55130
555 376//=
11502 36/// /0000 10172 20093 39754 40194 55000
333 55125
555 360// 50163 60168 70164 80137 90126=
11538 32984 01002 10151 20086 39617 40208 50000
333 55136
555 365// 50182 60185 70158 80136=
11643 36/// /9901 10092 20078 39276 42844 57002
333 55125
555 391// 50136 60141 70137=
11683 32983 11805 10127 20078 39363 42843 57002 81040
333 55140 81361
555 372//=
11693 32970 00702 10124 20083 39744 40226 57001
333 55141
555 376//=
11698 36/// /0603 10139 20075 39818 40218 55000
333 55143
555 365// 50174 60118 7//// 8//// 9////=
11710 36/// /9901 10131 20072 39618 40225 55000
333 55143
555 368// 50152 60153 70158 80138=
38149 32998 00104 10135 20051 30125 40199 52002   555 10013=
38262 32998 00503 10114 20027 30119 40200 52007   555 10010=
38264 35998 00502 10118 21027 30111 40202 52010   333 00007   555
10009=
38396 42996 00403 10139 20017 40199 52003   333 00007   555 10006=
38565 329// 00802 10127 20015 40163 58003   555 10007=
38583 42997 02502 10114 20038 39852 40168 52018   333 00009   555
10009=
38611 42997 73202 10180 20061 39568 40111 52021 88080   333 00014
555 10024=
38618 42699 82603 10210 21025 39448 40098 52016 8653/   333 00018
555 10018=
38683 42997 03607 10166 21054 39890 40157 52007   333 00013   555
10014=
38812 42997 01004 10176 20070 40126 53012   555 10017=
28766 42997 33202 10074 20051 39957 40142 57020 83070   555 10006=
28966 42998 30000 10044 20024 39891 40171 57009 83030   555 10002=
36535 41599 62702 10107 20071 39525 40124 53028 70188 86930   555
11010=
36639 42999 20000 10082 20074 39563 40144 51004 82030   555 11008=
36821 42598 70000 10114 20021 40162 52015 87900 333 87927 555 91110=
36864 41597 80000 10112 20058 40168 52036 78082 889//   555 91105=
38222 42597 80000 10128 20073 39628 40162 53042 889//   333 83089
555 10013=
38343 42698 50000 10085 20029 40184 52027 84900=
56793 32780 72004 10213 20167 38458 52013 875// 333 00100=
56994 11480 71402 10201 20186 40086 52006 69921 70080 874//
333 00100 70003=
57606 32580 21402 10254 20183 40027 52006 81142 333 00101=
57803 32580 22202 10234 20176 40039 52013 82130 333 00200=
57806 32580 72006 10204 20175 40069 52012 878// 333 00251=
57825 32580 61804 10246 20200 40073 52016 86840 333 00151
70001=
57906 32580 60000 10248 20219 40077 52012 86540 333 00100
79999=
40360 32960 03108 10210 20090 39488 40038 333 59006=
40437 32960 00000 10281 21010 39348 49996 333 58005=
41030 32960 00000 10310 20160 39742 40005 333 59020=
41112 32960 00000 10198 21073 37917 48460 333 59003 555 04410
59990=
40811 32960 03005 10286 20063 39970 49996 54000 92350 333=
33631 42997 01102 10124 20074 30096 40238 58001=
33924 42569 80206 10171 20130 30157 40169 58002 889// 333 88922=
34504 42397 80107 10141 20123 30004 40178 56004 886// 333
88708=
33663 42997 00000 10084 20067 30144 40239 54000=
60355 32960 00000 10210 20178 40172 58004
333 95990=
60445 42965 00404 10196 20101 39013 48548 58009
333 95990=
60555 32970 01208 10275 20085 40146 50002 =
60559 32960 01110 10261 20170 40151 51006=
60607 32960 30610 10320 2//// 40132 51007 80001
333 0//00 83075=
60620 32960 11309 10290 21020 40102 58002 80002
333 0//00 81075=
26825 42960 51802 10118 20070 30045 40208 57002 80002   555 10010=
38403 429// 00705 10154 20019 30055 40182 52020   555 10013=
38178 429// 03604 10114 21027 39916 40196 52011   555 10009=
12215 36/// /0000 10119 20107 30008 40184 52003=
47407 11/65 73102 10130 20104 39966 40104 58008 60022 72522 872//
333 20106=
47409 11/65 81203 10101 20079 30063 40115 56005 69902 70252 886//
333 20071=
47418 12/58 81805 10089 20074 30077 40122 51002 69902 886//
333 20077=
47421 32/65 71306 10144 20115 30056 40101 58007 8427/
333 20099=
47430 32/75 22704 10160 20082 30060 40111 58010 81249
333 20111=
47570 32962 63602 10190 20130 39871 40117 58015 86030
333 20121=
47605 32/60 70807 10207 20153 30071 40109 58011 82202
333 20170=
47675 11457 82005 10217 20185 30024 40116 58005 69902 76122 8212/
333 20191=
47741 31957 71205 10214 20176 30077 40102 56014 71022 81032
333 20177=
47746 32960 73306 10215 20171 30086 40104 58013 80002
333 20178=
47887 11/56 80901 10199 20173 30063 40102 58008 60032 76166 8172/
333 20193=
91324 11474 80904 10280 20248 30088 40090 60364 20262 8421/ 333
20233 56299 58000 84818 88463 555 90300
91339 11474 80405 10278 20248 30088 40094 60052 70282 8521/ 333
20233 56199 58000 85818 88462 555 90300=
40103 32560 02002 10204 20172 40062 57006=
80403 11465 60605 10272 20225 30134 40153 60021 70252 81220
333 10326 30/// 56990 58017 81816 85456 1015=
80407 32460 20204 10284 20198 30034 40109 82900 333 10335
30/// 56900 58008 82816 81916 1010=
80410 32460 70704 10232 20196 39446 40127 875// 333 10297
30/// 569// 59005 87616 1015=
80413 11460 63402 10250 20198 39620 40107 69901 72025 865//
333 10305 30/// 569// 58009 86616 1013=
80415 11560 30702 10254 20236 30088 40142 60011 70151 83500
333 10312 31/// 5690 58009 83620 1014=
80419 11360 63602 10234 20187 30092 40101 60041 70252 8353/
333 10293 30/// 5699/ 59007 83610 83458 1009=
80421 11460 80708 10242 20205 30115 40137 69991 70226 8387/
333 10308 32/// 5629/ 58001 83713 86457 1013=
80428 32960 00901 10270 20233 39911 40096 333 10310 30///
59005 1013=
80435 11360 80405 10242 20221 30052 40128 60171 70285 887//
333 10282 31/// 562// 58003 88710 1013=
80438 32458 70203 10197 20158 38523 48520 874// 333 10255
30/// 569// 59002 87613 1020=
80444 11360 80703 10247 20233 30062 40115 69901 70252 885//
333 10274 31/// 562// 58006 88610 1011=
80447 32960 00000 10266 20206 39667 40090 333 10326 30///
59002 1013=
80457 32460 80000 10260 20221 30029 40114 8352/ 333 10296
30/// 5699/ 58003 83610 86460 1011=
80420 11460 70705 10245 20239 30110 40116 60041 76056 878//
333 10304 31/// 562// 58001 87813 1012=
80425 11460 70502 10248 20237 30073 40104 60011 70352 8252/
333 10354 31/// 5699/ 59002 82613 85460 1010=
80427 31558 20204 10260 20193 39861 40116 70521 82500 333
10325 30/// 56900 58000 82620 1013=
80431 32560 40702 10267 20196 39602 40074 84500 333 10318
30/// 56900 59003 84620 1010=
80475 32560 20000 10226 20170 39754 40127 82700 333 10290
30/// 56900 59009 82717 1013=
22235 00280 20201 327/ 40604 5// 6/// 80260 /////=
41598 32912 10060 20015 40136 52015 70122 8213/
22254 00050 20503 331// 40703 80040=
15600 17157 35092 36041=
80063=
15605 19005 22235 23025 35058 36068 50055 51250 52001 53100 70001
71999 72904 73128 74012 75415 76900 80117 05372 07064 10049 11066
12393 13403 14680 15606 18002 19005 22235 23025 35058 36068 50055
51250 52001 53100 70001 71999 72904 73130 74011 75416 76900 80088=
62120 03004 99564 10021 46998 ///// 1//// 20008 40222 52007 22200
80058=
62103 03004 99499 70029 46/98 /1405 10122 20111 40183 57006 22200
00118 11103 70016 555 05006 07140 10026 11041 12422 13418 14929
15587 17169 35101 36063 05005 07154 10030 11042 12424 13419 14918
15590 17177 35100 36063=
62301 03003 99523 70045 46/// /2706 1//// 2//// 40171 22200 00143
10802=
15601 18005 19000 22235 23026 35092 36089 50045 51159 52004 53592
70001 71999 72354 73132 74012 75474 76900 80122 05422 07298 10023
11041 12446 13457 14846 15595 18007 19007 22235 23026 35092 36088
50045 51159 52004 53592 70001 71999 72354 73132 74012 75472 76900
80077=
80077=
15614 18001 19010 22235 23022 35656 36076 50054 51596 52012 53383
71999=
76061 848// 22264 0//// 20705(326// 40706 5//// 56/5//=
80001 22213 20505 3//// 80240=
22212 00248 20302 31800 40502 50000=
51186 32680 40000 10115 20093 40126 52011 81402 333 00553
70010=
51241 11780 70000 10104 20075 40156 52002 60031 72186 874//
333 00300 70122=
51330 11675 70000 10100 20051 40133 52011 69901 72100 8553/
333 00500 79999=
51437 32780 20702 10066 20037 38124 57004 82402 333 00152
30050=
51477 32980 13603 10108 20083 40127 52014 80002 333 00753
30050 70023=
51642 32775 70000 10148 20052 40034 54000 82402 333 00353
70001=
51720 32580 70000 10156 20080 40017 57012 82902 333 05100=
51356 32970 12201 10138 20083 40141 52018 80002 333 00955
79999=
59462 32565 11802 10273 20242 40107 52010 81100 333 00100
70015=
52765 32980 00000 10069 20038 37197 52012 333 00451 30012=
56034 32680 71401 10021 20003 35987 52009 86502 333 00401
31016 70001=
52633 32980 01102 10058 21011 36792 52006 333 00304 31022
79999=
56223 32680 62902 10074 20042 36576 52010 86500 333// 00552=
56331 32680 70000 10062 20021 36453 52004 878// 333// 00353
30035=
54764 31930 73602 10166 20145 40120 52006 71000 80002 333//
05253=
71717 11974 80409 10120 20063 30032 40072 56007 69951 70266
8807/ 333 10195 20060 70005 90925=
85930 12497 80310 10054 20032 49784 52041 60061 887//
333 10070 56199 88714=
85972 11396 80530 10082 20075 49620 52007 60011 75085 887//
333 10085 56199 88708=
84628 34940 21905 10178 20158 30122 40138 71044 80001
333   10226 56001 59019 82076
84501 31962 41404 10190 20167 30113 40154 70200 81630
333   10245 56900 58009 81706 83360=
84691 31960 00205 10200 20164 30112 40119 70202
333   10260 59018=
84686 31960 00000 10130 20047 36864 70200
333   10190 59006=
84782  31965 02404 10168 20139 39643 40178 70200
333    10229 59029=
84452 31960 01816 10200 20169 30098 40120 70200
333   10285 59025=
84390 31965 01814 10210 20180 30010 40112 70200
333   10315 59016=
84370 31660 80000 10250 20207 30070 40198 70222 885//
333   10295 560// 59015 88640=
84531 31960 21914 10189 20161 30109 40121 70310 80001
333   10237 56009 59017 82074=
84752 31962 00103 10104 21012 37547 70200
333   10198 59005=
84658 31460 80000 10180 20166 39873 40104 70222 8512/
333   10200 5699/ 58009 85813 83457=
84401 31970 01912 10250 20193 30050 40118 70200
333   10330 59043=
84515 31960 00000 10254 20234 39937 40112 702-2
333   10344 58007=
84377 21460 60000 10240 20220 30010 40116 70222 83530
333   10306 5600/ 58009 60011 83615 83360=
84564 31960 00610 10290 20148 38140 70200
333   10260 59008=
84455 31560 40000 10270 20214 39780 40132 70222 84200
333   10350 560// 58005 84830=
84735 31966 02410 10090 20009 36400 70200
333  10200 59002=
91579 16/// /2304 10225 20181 40126 50003 60154
333 20176=
91583 06/// /3502 10217 20181 40131 50003 60194
333 20161 58024 69927=
91587 06/// /2306 10203 20186 30080 40130 50001 60011
333 69927=
91590 11570 73406 10228 20173 40128 50002 60284 71522 8483/
333 20155 58014 82823 86360=
71261 36/// /3415 10111 20096 39929 40186 53031 333 10167 20111
70038=
71265 36664 32925 10160 20070 30054 40146 53038 333 10255 20121
70025=
89061 11/// /0736 11020 2//// 39885 49895 57045 69904 77172 92336
333 11001 21024 90999 91148=
89062 31699 73531 10004 21083 39881 49921 58009 73622 8357/
333 83640 86358 91045=
86330 32997 01305 10086 20055 40195 53012
333 10170 20058=
86460 32998 00305 10093 20065 40189 53003
333 10154 20063=
86500 32998 00000 10089 20055 40216 52015
333 10153 20031=
86560 32998 10308 10106 20067 40177 51011 80001
333 10168 20075=
86565 31997 00000 10060 20036 40211 53009 71000
333 10144 20060=
86580 32997 10308 10090 20054 40192 54005 80006
333 10140 20052=
61968 36/// /1308 10256 20208 30131 40136
333 59001=
61970 36/// /1708 10256 20227 30152 40163
333 58000=
61972 36/// /1606 10210 20176 30184 40199
333 59008=
61980 32565 11906 10186 20158 40186 81800
333 59001 81826 924/4=
67005 36/// /2006 10248 20232 40146
333 58001=
61996 11680 32516 10128 20096 40132 69921 72586 83500
333 59049 83633 91133 92438=
85432 32680 21011 10082 20020 37789 48488 52014 82200
333 10164 56000 82140=
10325 30/// 56900 58000 82620 1013=
64700 32965 32004 10269 20195 39735 40067 80002 92355
333 58008 83075=
64750 31962 70000 10260 20213 39675 40028 71322 81372 92355
333 0//00 59011 81950 87365 94944 95834=
64400 31540 60000 10220 20215 30099 40119 71011 86500
333 0//00 58004 86630=
64450 32958 02606 10230 20207 39749 40099
333 0//00 58005=
60155 31440 53406 10200 20187 40146 58001 71022 85600
333 85710=
91944 36/// /0306 10279 20233 30137 40143 56012 333 20259 58029=
91945 16/// /2404 10256 20221 30123 40128 56012 60044 333 20214
58021 555 1//12=
71631 36/64 /3213 10098 20075 39682 40173 51025 333 10182 20098
70066=
71632 36/64 /0105 10104 20087 39933 40163 53038 333 10149 20104
70004=
71633 32574 83008 10106 20080 39902 40169 53028 885// 333
10176 20106 70202=
71731 13/// /3616 10081 20061 39710 40154 52039 69901 333
10147 20081 70020=
71733 36564 83612 10113 20063 39955 40190 53038 333 10155 20108
70020=
71735 11474 33507 10112 20060 39872 40169 52026 69921 70161
83600 333 10112 20081 70148 90963=
71831 32674 43206 10142 20029 39908 40186 53008 81102 333
10150 20040 70052=
71832 36/64 /2205 10150 20043 39870 40191 56004 333 10159 20058
70168=
71430 36/64 /3020 10150 20112 30019 40114 53029 333 10187 20109
70086=
71431 36/// /2912 10158 20090 30039 40132 53034 333 10226 20119
70094=
71432 36/64 /3222 10143 20124 30057 40152 53041 333 10206 20119
70044=
71435 17/61 /3605 10150 20001  69921 7//4/ 333 10156 20054 70036=
71436 36/64 /3310 10119 20092 39794 40147 53023 333 10190 20119
70162=
71538 32774 53415 10187 20083 39959 40184 53024 81501 333
10257 20187 70004=
71846 36/64 /3006 10049 20016 39905 40218 51016 333 10166 20014
70000=
71434 36/// /0309 10024 21024 30150 40217 55000 333 10045 21015
70000=
71629 36564 82912 10143 20098 39899 40128 53020 333 10240 20120
70195=
82863 32695 20000 10262 20242 39912 40123 82200 333 10342 58009=
83064 32998 01801 10267 20200 39851 40120 333 10361 58011=
83228 32997 00000 10248 20209 39852 40134 333 10351 58002=
83235 32998 00902 10260 20171 39452 40114 333 10340 58002=
83332 32997 00902 10246 20120 39224 40123 333 10319 58010=
83368 32996 00000 10233 20170 39766 40134 333 10334 58003=
83374 32995 30504 10226 20157 39559 40129 80001 333 10329 58005=
83376 31997 40904 10181 20135 39291 40111 70541 80004 333 10317
58003=
83423 329// 00000 10234 20174 39318 40138 333 10319 58010=
83522 32997 00902 10201 20162 39295 333 10299 58007=
83526 32997 00000 10208 20158 39211 40150 333 10295 58009=
83766 32997 00000 10152 20131 39543 40211 51009 333 10///=
83767 32997 80902 10174 20125 39567 40206 51005 86051 333 10222=
83768 32970 31504 10160 20144 39543 40192 51015 80001 333
10228=
83783 32597 80903 10150 20125 39498 40188 53008 8272/ 333 10184=
83811 32597 83202 10126 20117 39284 40183 53001 885// 333 10194=
83813 32597 70000 10121 20103 39092 40195 53011 85520 333 10201=
83836 32997 80901 10130 20104 39204 40191 53011 80007 333 10181=
83840 32370 70907 10120 20110 39181 40208 51010 87600
333 10175=
83844 32597 81802 10166 20141 30211 40218 51009 8572/ 333 10207=
83872 31495 70000 10160 20140 30142 40225 53012 71022 87600
333 10206=
83881 31596 80000 10120 20112 39895 40209 51010 71021 887//
333 10184=
83883 31596 80502 10125 20092 39415 40207 53008 71022 8221/
333 10192=
83887 32997 20905 10092 20063 39134 40207 51008 80002 333 10170=
83899 32570 40000 10120 20115 30224 40224 52016 82501
333 10200=
83907 32997 70905 10129 20081 39880 40174 53003 87070 333 10172=
83912 31596 81404 10112 20075 39639 40202 54000 70522 885//
333 10166=
83914 31996 80506 10110 20055 39418 40223 53008 70522 80007
333 10165=
83919 32997 50000 10072 20045 39015 40228 53008 80004 333 10150=
83927 32997 00502 10100 20048 30088 40172 52013 333 10168=
83936 31996 00901 10098 20086 30058 40187 53006 71041 333 10168=
83948 32597 32702 10114 20097 30196 40235 51014 83200 333 10183=
83953 32997 00902 10084 20026 39816 40206 53019 333 10153=
83964 32997 00902 10089 20069 39714 40226 52010 333 10154=
83971 32970 01002 10120 20102 30226 40226 52023 333
10190=
83980 32997 00506 10092 20032 39920 40214 51011 333 10158=
83995 32997 00000 10106 20103 30219 40223 53010 333 10161=
83997 32997 00000 10090 20052 30179 40225 53010 333 10144=
83612 32970 00000 10220 20167 39520 40138 52020 333
10294=
83716 32970 01408 10185 20136 39652 53010 333 10262=
83722 31960 31014 10176 20112 39485 40184 51010 70500
80004 333 10230=
83827 21566 82402 10144 20134 39915 40210 51026 76062
81521 333 10188 60021=
89022 42999 01408 11268 21287 39914 49956 51007
333 11253 21316=
83349 32570 32503 10234 20231 40175 81101 333 58024=
81202 11465 70404 10256 20245 40135 69971 72582 85933
333 56229 58012 83812 81918 83625 85358=
81209 11465 70000 1//// 2//// 40152 60381 72598 84963
333 1//// 56299 58015 82810 81915 87080=
81225 11465 60000 10248 20239 40140 60031 70298 83933
333 10317 56299 58016 81812 81915 84080=
81251 11470 60000 10238 20229 40138 69921 71381 85933
333 10300 56299 58012 81918 84625=
82287 32995 00501 10243 20235 30061 40087 333 10315 59002=
82392 32996 03602 10246 20237 39997 40100 333 10328 59009=
82480 32695 20500 10266 20233 39924 40105 82100 333 10336 58001=
82493 32993 009// 10260 20242 30098 40112 333 10322 59009=
82579 32970 20000 10280 20234 40114 82030 333 10328 59005=
82583 32596 00903 10233 20181 39783 40121 333 10333 58002=
82586 32994 00000 10246 20219 39875 40114 333 10320 59004=
82678 329// 00000 10252 20234 39965 40123 333 10332 5////=
82683 32994 00000 10244 20199 39679 40131 333 10318 58000=
82686 32593 22302 10242 20223 39875 40122 82200 333 10310 59006=
82689 326// 31402 10250 20213 39852 40118 83030 333 10330 59002=
82780 32996 00000 10252 20213 39867 40119 333 10339 59008=
82784 32998 01406 10264 20180 39668 40134 333 10318 58006=
82789 32994 01406 10211 20189 39024 40136 333 10273 59001=
82791 32994 00912 10252 20182 39823 40108 333 10346 59001=
82795 32597 20507 10224 20190 39527 40145 82100 333 10289 58007=
82798 32596 31407 10278 20226 30146 40167 83400 333 10302 58014=
82882 32993 00906 10278 20206 39685 40101 333 10338 58001=
82893 32798 71405 10196 20193 39240 40142 87500 333 10261 58004=
82900 32595 31806 10265 20214 30145 40154 83100 333 10295 58016=
82975 32593 50000 10261 20189 39740 40134 81231 333 10336 58005=
82976 32594 02701 10228 20178 39536 40117 333 10326 58004=
82983 32595 00905 10280 20169 39722 40136 333 10332 58000=
82993 32570 11504 10240 20237 40150 81100 333 10292
58005=
82141 31697 40504 10278 20240 30114 40126 71311 84900 333
10310 29079 55115 58004=
58009=
82178 32/98 40000 10272 20256 30054 40097 83340 333 10294
29090 55/// 58020=
82181 32697 60504 10264 20180 82043 333 10296 29066 55069=
82184 32697 60000 10260 20248 30111 40129 86800 333 10313
29092 55052 58001=
82191 31596 73603 10269 20245 30112 40118 71322 83960 333
10323 29081 55098 58007=
82198 32995 0//// 10259 20233 30049 40100 333 10317 29083
55093 58006=
82246 32597 31402 10256 20242 39936 40134 83300 333 10293
29090 55033 58018=
82263 21498 53604 10268 20261 72165 85700 333 10336 29085
55097 60011=
82280 32998 0//// 10252 20219 30057 40115 333 10320 29077
55103 58004=
82281 32970 10268 20243 40122 333 10310 58003=
82353 32999 0//// 10263 20230 333 10322 29083 55079=
82361 31/96 62302 10268 20258 30087 40124 71392 86700 333
10335 29090 55083 59001=
82376 32993 03603 10262 20244 30068 40120 333 10327 29082
55102 58006=
82445 21596 30000 10254 20249 30087 40140 71365 82240 333
10324 29093 55060 58001 60171=
82562 32498 40000 10254 20235 30032 40143 845// 333 10322
29081 55078 58000=
82564 32597 51402 10275 20228 81200 333 10343 29092 55069=
82571 21997 02302 10240 20233 39930 40128 71396 333 10319
29084 55104 58000 60041=
82765 32998 00000 10263 20233 39898 40137 333 10339 29073
55094 58000=
82861 32999 03204 10276 20246 39918 40095 333 10350 29080
55077 58001=
82022 32570 50206 10250 20236 40122 81101 333 10270
58004=
82024 32096 03204 10250 20236 333 10274=
82042 32396 50000 10245 20244 86400 333 10296=
82106 32097 00000 10253 20238 39990 40088 333 10330
59002=
82113 32397 60000 10270 20250 82320 333 10311=
82212 32797 00000 10276 20235 30023 40087 333 10318
59005=
82240 32096 00000 10257 20244 30102 40136 333 10296
58003=
82317 32396 30000 10260 20251 81966 333 10319=
82326 31397 81402 10262 20233 30086 40148 71329 887//
333 10320 59001=
82331 32096 00000 10250 20231 30054 40136 333 10321
59001=
82336 32697 50000 10236 20228 8442/ 333 10284=
82410 32095 00000 10247 20238 333 10293=
82425 31495 80000 10254 20244 30079 40135 71390 887//
333 10312 58017=
82533 21595 80000 10240 20232 30063 40119 70366 886//
333 10310 58009 60121=
82610 32097 00000 10252 20242 333 10324=
82723 32396 70000 10252 20231 86600 333 10332=
82807 21396 83602 10234 20231 70266 887// 333 10317
60021=
82824
32570 60000 10270 20220 40108 81201 333 10342 58006=
82917 31450 72302 10218 20210 40121 71022 85501 333 10238 58019=
61995 41570 31404 10186 20173 39700 70281 83800
333 59004=
61988 41470 31504 10222 20181 40177 70180 83200
333 59005=
61986 42575 11217 10248 20192 40155 81100
333 58001=
61974 42470 31513 10253 20209 40114 82802
333 58001=
86011 32470 80505 10220 20170 40141 53009 8457/ 333
10252 84515 88457=
86033 32870 70000 10196 20158 40124 52013 87070 333 10254=
86068 21370 81808 10144 20136 40154 52020 71792 8791/ 333 10178
60011 86609 81933 88457=
86086 31460 71403 10154 20137 40164 52013 71322 333=
86097 21457 80508 10152 20133 40179 52002 76065 85521
333 10190 60021 85613=
86134 22470 70000 10156 20147 40165 52007 84510 333 10182
60051 84620 87457=
86192 21230 80000 10110 20097 40208 51012V
IYWTT WQRYP IPPPP QPQWP WPQPQ RPQIW TEPPY UYPWW IRTUX EEE QPQYP
YPPTQ IRYQR IIETUV
IYWYP WQWYP IPPPP QPQWI WPQQY RPQUT TWPWP UTQWW IIYXX EEE
QPQTR YPPRQ IIUPYV
IYWYI WWRUP IQIPW QPQEI WPQWE RXXXX TXXXX IYTUX EEE QPQIR YPPTQV
IYWIT NIL=
31484 11498 83201 10150 20128 39787 40101 58008 60200 72842 83500
333 20078=
43555 32480 62916 10284 20253 40069 82208 333 59016 82818 86278=
43577 21460 89904 10260 20246 40082 75886 8492/ 333 59009 6023/
82817 81918 88462=
83818 81919 88275=
43599 21465 82007 10264 20232 40086 70282 8322/ 333 59017 6029/
83818 88460=
11628 32960 00000 10135 20059 39590 40212 56001
333 55153
555 360//=
34712 42998 00203 10179 20169 30058 40140 53001=
33990 42977 32801 10158 20133 30062 40147 56007 83030=
33088 42997 00000 10084 20078 30052 40243 58002=
38647 429// 00802 10254 21025 30105 40145 52007 555   10022=
38774 429// 00000 10225 20084 39971 40155 52007 555   10021=
38799 42997 00202 10174 20025 39930 40153 52008 555   10014=
38806 42997 03602 10158 20021 39875 40126 53002 555   10009=
38886 429// 02202 10182 20148 39933 40151 52010 555   10212=
38915 42999 13403 10196 20067 39806 40114 53018 80001 555
10017=
28867 42998 03402 10092 20029 39906 40165 57013   555 10008=
29802 10069 42697 62701 10069 20033 39964 40102 53003 83131   555
10007=
35217 42997 00902 10142 20058 30160 40199 52003   555 10012=
35302 429// 00901 10178 20141 30176 40196 52004   555 10014=
35376 42998 20000 10051 20029 39771 40197 52007 81031   555 11004=
35426 42999 00000 10126 20097 39926 40206 53008   555 10011=
35497 42598 70000 10050 20025 39390 40170 54000 87900   555 11050=
35532 42998 00000 10170 20082 39742 40207 52006   555 10012=
36397 41697 80000 10092 20084 39607 40141 52027 78082 883//   555
12012=
38196 42998 02901 10087 20056 40188 52010=
38328 42999 11102 10062 20012 40184 53011 81030=
38334 42599 10903 10096 21005 39243 40178 52009 81500   555 10005=
38439 42998 03302 10122 20045 38849 40177 52019   555 10010=
40768 32960 00000 10118 20057 38241 40042 54000 92350 333=
96465 11480 70602 10283 20258 30048 40082 60024 72162 82942 333
20255 50530 55115 59005 82812 81914 87080=
96481 12462 60000 10277 20237 30057 40080 69904 82841 333 20234
50280 55055 59011 81817 85080=
23909 42698 80602 10160 20125 39877 40110 58002 81375=
28116 42698 61901 10150 20109 39907 40127 57005 83902=
28621 42977 00000 10198 20117 39946 40164 57003=
29418 32998 30000 10018 20002 39933 40089 53005 83030
333 20005 55151=
29524 12484 73403 10063 20024 39910 40066 57001 69992 82530   333
20058=
29605 32598 32603 10069 20031 39955 40092 57003 82530
333 20069 55157=
29631 11496 83304 10090 20088 39845 40021 57010 60062 78082 889//
333 20088=
29706 32799 62402 10064 20055 39951 40092 53003 82550
333 20031=
29736 11498 81503 10120 20107 39787 40022 57002 60052 78098 883//
333 20114=
28216 42999 00000 10170 21007 39858 40123 58022=
28321 42984 00000 10153 20146 39945 40138 57010=
28451 41598 52302 10133 20106 39963 40113 57010 72982 85300=
28537 42997 02503 10185 20132 40162 57004=
28541 42984 00000 10098 20086 39678 40152 57005=
28655 32575 72501 10143 20092 39926 40136 57016 85902=
28925 42999 20000 10130 20107 39975 40191 52001 82080=
29625 11598 83303 10091 20083 39890 40058 53004 60062 72582 889//
333 20090 88923=
29642 11460 81504 10119 20115 39727 40034 58003 60062 70298 86301
333 20117 84710=
29813 11999 32904 10059 20040 39883 40058 57011 60052 70281 82032
333 20059=
29915 12999 22902 10068 20050 39943 40096 52019 60022 80002   333
20062=
36020 60012   333 20097=
30781 31999 82201 10110 20070 39659 40101 58006 70422 80007   333
20014=
31478 12584 12801 10109 20058 39075 40101 57005 69940 81200   333
21009=
31754 31598 80000 10114 20058 40103 54000 69940 70264 885//   333
20063=
28978 42998 52904 10072 20023 39688 40166 57005 85030   555 10005=
35173 42996 73602 10045 20033 39823 40198 53012 87050   555 12004=
12600 32980 01806 10138 20078 39748 40221 57007 =
26898 42962 02901 10104 20038 39963 40225 52003=
27703 41982 00000 10049 20027 39972 40219 50001 71100=
27719 41997 00000 10068 20052 39970 40218 53004 71200=
27786 42997 52701 10163 20113 30017 40170 53005 85030=
27928 41596 70102 10117 21011 39993 40194 53003 71022 82550=
27983 42998 63302 10150 20117 30054 40178 53002 80001=
28807 42997 20000 10130 20111 30134 40183 53002 81031=
34047 42564 63102 10169 20151 39990 40163 58001 82950=
34123 42461 83603 10128 20121 30009 40187 52005 886//   333 88710=
34152 42995 63402 10174 20150 39960 40145 54000 86030=
34186 42980 81403 10161 20103 30046 40178 54000 80001=
34336 42597 53302 10165 20155 30066 40165 53003 82330=
22217 42999 03602 10052 20033 30053 40083 57010   333 91004=
22349 42599 50000 10059 20050 30118 40130 58008 85500=
22408 42699 30000 10069 20041 39946 40093 57019 82510=
22602 42573 81904 10096 20029 39866 40084 57021 889//=
22721 42999 60000 10066 20038 30028 40128 57016 80009=
22802 41579 71191 10070 20059 30079 40102 57036 70262 875//   333
87632=
26059 41497 82003 10114 20100 30073 40096 57022 70282 886//   333
88712 91111=
26094 42980 71803 10118 20061 30075 40148 57022 8705/=
26258 41468 81901 10108 20092 30079 40133 57018 70282 889//   333
88912=
26585 42997 30000 10122 20068 39940 40207 58005 83030=
27402 41997 30000 10067 20053 30022 40200 57006 71100 80001=
22028 42583 22106 10083 20036 30054 40090 57012 82500   333 91008
91111=
22106 42598 20000 10046 20018 30005 40083 57008 82500   333 91001=
22127 42599 20000 10070 20045 39905 40102 58011 81540=
22324 42699 10901 10081 20045 30057 40105 57012 81500   333 91002=
22621 42498 72102 10092 20050 39989 40126 57012 81532=
22831 42998 60000 10054 20045 30091 40051 57016 86030=
22892 41496 81708 10113 20105 30057 40072 57038 78182 883//   333
91114=
26275 41697 81502 10113 20095 30122 40151 57026 72582 885//   333
88643=
26389 42597 71801 10114 20058 39924 40181 57009 87500=
26695 42997 63601 10069 20049 39919 40225 58001 81031=
21921 32999 00104 10110 20013 40106 52001 333 20045 55225=
31123 11599 80000 10083 20068 38753 40058 56008 60012 72582 889//
333 10036=
25703 11599 71102 10111 20059 39857 40108 58009 69980 70282 87300
333 20073 55078 87926=
32215 32986 01102 10068 20045 40124 54000   333 20027=
32583 32999 71507 10155 20019 30095 40123 57004 80006   333 20049=
17210 32975 00901 10220 20051 39066 40021 58004=
27906 41996 02901 10075 20062 39982 40222 52002 71011=
51068 11680 72901 10141 20110 40155 52025 69931 78080 879/2
333 00952 70006=
28049 42599 73504 10163 20127 39951 40105 53001 85730=
28319 42499 22401 10161 20119 39993 40147 57003 82500=
28334 42999 20000 10153 20110 39849 40135 57005 82080=
28434 42999 03001 10168 20125 39906 40148 57003=
28552 42597 62602 10136 20102 30015 40121 57010 86300=
29111 32999 03601 10073 20041 30001 40086 57002   333 20055=
29209 32598 60000 10046 20026 39958 40081 57004 86900   333 20012=
29602 32599 72101 10063 20047 39951 40087 57003 87500
333 20043 87628=
29636 11296 81101 10113 20111 39812 40017 57008 69952 71082 886//
333 20106 88705=
29654 11599 71903 10105 20095 39457 40043 53001 60202 72582 86971
333 20104=
29712 32998 03104 10070 20025 39946 40084 53002
333 20050=
29724 11599 73003 10088 20073 39866 40063 53005 60012 70282 86330
333 20088=
29726 11497 83302 10095 20089 39880 40041 54000 60082 78082 883//
333 20093 88916=
29814 32599 32801 10070 20035 39960 40101 52013 83500
333 20067=
29827 11697 82804 10102 20090 39918 40070 53024 60132 72582 889//
333 20090=
29923 11498 83004 10098 20090 39789 53033 60122 78082 889//   333
20098 55041=
29939 11497 82904 10110 20094 39790 42062 53013 60022 78082 883//
333 20110 86918=
36021 12999 23103 10076 20056 39928 40103 52023 60032 82030   333
20071=
36022 11998 72705 10103 20086 39849 40098 52029 69952 70282 83071
333 20098=
36038 11598 82505 10094 20086 39685 40106 53033 60162 78182 889//
333 20093 55063 88920=
36058 32699 61603 10148 20061 39602 40088 53020 84902   333 20110
55040=
29363 11496 80504 10115 20095 40033 56001 60112 78198 889//   333
20103 91112=
29456 11599 72301 10121 20117 40034 53003 60152 70282 86901   333
20121=
29467 11494 82203 10123 20121 40035 57005 60182 71098 886//   333
20122=
29477 11597 71001 10140 20126 40028 53006 60032 78088 889//   333
20140=
29576 11598 82301 10146 20144 40027 57002 69952 70282 86907   333
20140=
29587 32598 72701 10164 20102 40020 57001 86941   333 20111=
29894 32598 31804 10087 20056 39029 40077 57006 82601   333 20044
55035=
30157 11697 83601 10108 20098 39810 40076 53018 69982 78182 8697/
333 20100=
30320 11598 83101 10165 20157 39694 40070 53005 60352 70282 85931
333 20156 55103=
30713 12498 82302 10145 20121 39473 40078 52006 69902 8805/   333
20127 88614=
34858 42962 00000 10170 20098 30030 40132 53002=
34240 42974 83102 10165 20134 30027 40157 52003 83032=
34357 42998 72802 10189 20130 30004 40155 52006 87030=
34545 42998 63301 10198 20152 30041 40146 51001 86060=
34579 42979 20702 10182 20114 30117 40157 57002 80002=
34655 32997 60000 10194 20110 30081 40136 58002 86030=
34759 42998 21601 10160 20118 30013 40139 58001 82030=
34929 41664 70304 10191 20178 30080 40119 58007 78092 87900   333
87933=
34954 42998 00000 10178 20107 39963 40122 54000=
37085 42996 30703 10205 20176 30150 40125 57003 80001=
37145 42998 00000 10162 20139 39960 40121 53002=
37171 42596 60602 10179 20164 40119 57001 86500 333 86620=
37228 42997 02002 10167 20151 39299 40089 58026=
23226 42970 81510 10136 20058 39884 40089 57005 8803/=
23701 41467 82802 10115 20107 39995 40119 54000 72598 889// 333 88918=
26167 41458 81715 10102 20094 30018 40127 57030 71086 885//   333
88711=
27857 41597 80000 10176 20168 30019 40174 54000 70282 8533/=
28909 42997 01702 10158 20118 30089 40185 54000=
37061 42980 60000 10160 20120 39965 40125 57002 80001=
24639 32599 83302 10134 20086 39916 40057 52011   333 20077 55039=
24652 32699 70903 10185 20023 39934 40046 53001 8253/   333 20148=
24656 32999 80804 10170 20048 39957 40052 57001 82032   333 20101=
24724 32999 13603 10148 20073 39585 40074 51011 81040   333 20112
55122=
24768 32999 70703 10154 20081 39827 40045 57006 85032   333 20094=
24923 32699 82101 10157 20139 39782 40064 52005 85931   333 20091
85943=
24962 32599 80802 10150 20048 39857 40029 57002 82571   333 20105
55162=
30493 42999 50000 10202 20199 39083 40025 57007 80004   333 20035
55143=
85245 22264 20504 305// 40405 5//// 80050=
87576 22274 00202 20604 313// 40804 80168=
10401 70005 333 91206 555 11056 22058=
51567 32780 70000 10130 20068 40075 52012 82402 333 00353
79999=
52313 32780 20908 10163 20023 38382 52004 81102 333 00251=
59321 32580 22702 10278 20241 40113 52004 82103 333 05100=
53893 /////=
63844 32470 22506 10226 20198 30094 40134 81250
333 59013 81816=
63894 32980 00000 10206 20197 30079 40139 92351
333 55300 59007=
91670 36/// /0610 10290 20247 40117=
82398 32570 21304 10270 20246 40126 82100
333 10320 59000=
82193 31570 60706 10269 20261 40108 71322 84201 333
10327 58006=
83721 31962 31316 10160 20126 39449 40205 53019 71000
81031 333 10237=
80028 31965 00408 10277 20256 30085 40102 70522
333 10311 59024=
80094 32465 53203 10210 20200 38814 81831
333 10251 56900 58002 81817=
80097 31565 23602 10278 20219 39759 40106 70510 82201
333 10328 562/0 57892 58007 82823=
80112 31470 60000 10174 20153 37907 70511 85801
333 10224 560/0 58008 85618=
80222 31565 60000 10140 20117 37524 70522 83055
333 10197 56/39 58000 83357 84070=
80315 31570 20000 10266 20220 39574 40060 70510 81201
333 10321 560/9 59002 81827=
80398 12460 50000 10250 20236 30017 70115 69911 83530
333 10274 5600/ 58015 83615=
82979 329// 01407 10280 20184 39681 40140 333 10334 58010=
82986 329// 01408 10253 20221 39838 40123 333 10324 59001=
83076 32592 33601 10227 20181 39613 40106 81130 333 10330 59003=
83090 326// 00906 10242 20201 39618 40137 333 10309 58054=
83096 326// 11803 10268 20220 30130 40137 81500 333 10294 59009=
83097 329// 0//// 10244 20230 30119 40142 333 10290 59013=
83179 32/// 90904 10270 20166 39674 40121 333 10347 58003=
83182 32993 01407 10224 20150 39317 40152 333 10304 58012=
83186 325// 51406 10246 20197 39572 40126 85200 333 10297 58009=
83190 325// 31404 10226 20207 39747 40164 83600 333 10304 58014=
83195 329// 005// 10229 20213 39912 40155 333 10296 58010=
83229 325// 11404 10253 20221 30107 40167 81200 333 10285 58021=
83236 32998 01801 10223 20199 39636 40132 333 10333 58008=
83242 327// 11802 10218 20188 30657 40143 81020 333 10292 58015=
83244 329// 01403 10242 20193 39855 40149 333 10323 58019=
83286 329// 0//// 10218 20165 39468 40122 333 10328 58009=
83288 325// 21801 10267 20144 39624 40134 82100 333 10345 58007=
83339 329// 01406 10232 20125 39179 40154 333 10296 58016=
83344 329// 00903 10197 20161 39169 40168 333 10267 58037=
83398 325// 20000 10230 20220 30161 40167 81140 333 10282 58030=
83408 329// 01405 10273 20088 39615 40106 333 10353 58015=
65306 31560 60000 10286 20242 39751 40072 61322 81902
333 58024 81620 81933 85076 94941 95831=
65319 33960 5//// 10262 20231 39583 40088 80002
333 59017 85076=
65330 32960 71802 10270 20211 39672 40104 83032
333 59004 83361 85076=
65335 33960 5//// 10252 20236 39873 40099 80002
333 59013 85076=
65344 32460 72410 10282 20248 30099 40109 84502
333 59002 84613 85076=
61998 32580 22723 10000 21058 39923 49959 51017 82800
333 58097 81820=
64600 31903 80000 10200 20200 39463 40103 7464/ 8477/
333 0//00 58023 84703 88365=
64601 31920 80000 10194 20189 38991 48504 7404/ 8802/
333 0//00 59002 88465=
64610 31660 52602 10226 20208 39556 40080 713// 81902
333 0//00 58007 81940 85080 94942 95832=
64650 32260 62202 10225 20218 39688 40097 81632
333 0//00 58010 81704 85365=
64656 31660 6//// 10236 20200 39542 40086 7179/ 82970
333 0//00 58008 82940 85364 94952 95832=
64660 31660 70000 10220 20211 39565 40084 7179/ 8197/
333 0//00 58001 81940 87365 94941 95831=
64661 11960 8//// 10210 20201 39435 40090 60091 72196 8807/
333 0//71 58010 88365=
83334 325// 21802 10224 20143 3//// 4//// 82100 333 10327 5////=
83383 329// 00000 10212 20168 3//// 4//// 333 10325 5////=
83384 329// 00000 10230 20168 39574 40158 333 10331 58014=
83386 32698 20904 10211 20158 39613 40164 81404 333 10341 58015=
83388 329// 00913 10248 20154 39456 40124 333 10326 58019=
83393 329// 00000 10196 20177 39459 40187 333 10273 58032=
83437 32997 02702 10214 20143 39427 40149 333 10318 58011=
83442 329// 00502 10234 20187 39823 40166 333 10326 58035=
83479 329// 00000 10220 20172 39364 40160 333 10308 58013=
83483 32996 01801 10207 20168 39568 40161 333 10317 58016=
83488 325// 61406 10203 20171 39155 40166 86200 333 10274 58022=
83492 325// 32702 10220 20201 39788 40174 83200 333 10294 58024=
83514 32597 21406 10220 20161 39466 40161 82130 333 10313 58006=
83538 216// 80903 10183 20162 38771 40196 76202 886//
333 10254 58012 60021=
83570 32995 00000 10212 20166 39386 40162 333 10298 58020=
83574 329// 21402 10210 20170 39559 40183 58015 82005 333 10286=
83577 329// 20000 10202 20160 39316 40175 80002 333 10294 58009=
83579 325// 21405 10206 20176 39036 40166 82100 333 10280 58016=
83587 32997 01403 10197 20158 39168 40178 333 10269 58024=
83592 325// 50000 10194 20181 39495 40184 83460 333 10/// 58041=
83595 329// 00903 10224 20194 30102 40188 333 10273 58032=
83642 328// 83602 10170 20164 39379 40164 52014 8802/ 333 10194=
83683 329// 00000 10162 20154 39192 40139 52020 333 10251=
83687 32996 00503 10176 20145 39165 40180 53006 333 10249=
83692 324// 80000 10156 20141 39164 40230 53007 887// 333 10210=
67843 42980 00000 10072 20050 38986 48536 333 58000=
68174 36/// /2004 10053 20028 38825 48551 52015
333 10206 20045 91006 555 91023=
68242 36/// /0208 10078 20005 38767 48545 52041
333 10224 20074 91008 555 91022=
68262 32960 00000 10051 20033 38754 48560 57005
333 10219 20051 91002 555 91024=
68263 31960 01904 10073 20024 38526 48549 57007 70400
333 10200 20054 91004 555 91024=
68350 36/// /0108 10086 20052 38695 48541 57006
333 10238 20085 91009 555 91022=
68368 31959 03105 10076 20020 38341 48544 57008 70400
555 91024=
68372 36/// /0000 11003 21030 38501 48563 57004
333 10188 21004 91003 555 91026=
68424 36/// /2604 10033 20010 39268 48550 52004
333 10197 20029 91005 555 91023=
68442 32/// /0000 11007 21043 38687 48530 54000
555 91022=
68461 36/// /0000 10006 21004 38358 48548 57002
333 10179 20000 91000 555 91024=
68512 32982 01206 10089 20074 39084 48557 57001
333 10143 20081 91012 555 91024=
68588 32470 72407 10187 20146 30184 40200 52009 875//
555 91020=
68618 16/// /0000 10084 20070 39125 48562 52005 60011
333 10146 20084 91000 555 20012 91025=
68714 16/// /0000 10131 20130 30207 40245 52997 60021
333 10170 20130 91004 555 20016 91024=
68752 36/// /3006 10089 2//// 39540 48556 52004
333 10186 20087 91007 555 91023=
68828 12/// /3006 10130 20117 30002 40234 51008 60043
555 91023=
68842 32982 02511 10141 20111 30145 40219 51012
555 91022=
68858 32/// /3005 10119 20095 30077 40227 50005
555 91022=
83378 32970 00000 10230 20138 38993 48557 333 10298
58011=
83780 31357 81208 10156 20129 39306 40209 51010 71011
885// 333 10206=
93004 16/// /3618 10164 20161 40012 57013 60024=
93023 36/// /3412 10182 20156 40026 57019=
93196 16/// /3315 10176 20145 40060 54000 60044=
93334 16/// /0307 10093 20068 39085 57013 60014=
93404 16998 /1303 10132 20096 40028 57010 60144=
93498 16/// /0205 10137 20093 40031 52005 69964=
93527 16/// ///10 10120 20114 40012 57006 60074=
93597 36/// /3203 10111 20075 40018 57006=
93615 16/// /0809 10114 20090 40012 52004 60124=
93678 16998 /9901 10093 20057 40018 57001 69924=
93709 36/// /1210 10080 20060 40009 52007=
93831 16998 /9901 10060 20009 40041 52005 69924=
93896 11499 72522 10055 20055 40003 52006 60084 70212 8357/
333 83619 87357=
93947 16/// /1317 10033 20005 40103 52007 60014=
93994 16/// /2804 10185 20174 40142 57011 60114=
63740 31980 00000 10127 20103 48513 70100
333 58000=
83248 32470 31206 10268 20230 40171 83200 333 10288 58017=
83582 329// 00000 10178 20178 39403 40178 53015 333 10282=
82693 32994 01410 10265 20188 39879 40133 333 10347 58001=
26882 42975 02602 10085 20056 39962 40234 54000=
24988 32498 81602 10042 20037 39875 40119 58003 886//   333 20020=
25378 42597 73608 10049 21001 30204 40237 54000 86950   333 91113=
31959 32498 60903 10092 20077 30049 40090 53008 86500   333 20064
55042=
32076 32598 83606 10028 20025 30110 40120 57005 885//   333 20001=
32594 32599 61806 10101 20015 30070 40105 57011 82502   333 20005
55156=
32408 32999 13404 10108 20002 30099 40131 53003 80001   333 21013
55138=
40155 31359 30000 10222 20183 30056 40066 57008 71000 83400=
40199 32965 03409 10281 20082 30060 40063 54000=
16622 32665 40000 10204 20131 30218 40223 51002 84500 333 90730
91104 555 40000 47698 44250 50000 50162=
16743 32960 00618 10192 20075 39985 40181 58002 333 90730
91128 555 40000 47523 44225 50000 50132=
16749 32560 23214 10216 20188 30057 40070 57009 81140 333
90730 91122 555 40000 47579 44250 50000 50198=
16643 32560 10000 10184 20154 30186 40192 58002 81200 333
90730 91107 555 40000 47677 44265 50000 50166=
16648 32860 20000 10164 20104 30115 40203 58003 82060 333 90730
91112 555 40000 47622 44250 50000 50132=
16650 32965 00312 10184 20119 30193 40197 54005
333 90721 555 40000 47679 44245 50000 50148=
16684 32960 00212 10194 20114 30155 40181
54000 333 90730 91119 555 40000 47653
44260 50000 50150=
16732 32962 03526 10188 20136 30138 40150 56003 333 90730 91140 555
40000 47637 44225 50000 50158=
16614 32970 00000 10136 20082 39453 40227 58003 333 90730 91108=
16627 32960 00306 10174 20112 30199 40203 58007 333 91112 555 40000
47683 44240 50000 50140=
16667 32970 00207 10182 20133 30173 40178 54000 333 90730 91124 555
40000 47664 44240 50000 50154=
16710 32564 43608 10090 20010 39432 40206 54000 84200 333 90730 91110
555 40000 47107 44240 50000 50056=
16723 32565 33416 10186 20092 30131 40140 54000 82230 333 82820 83359
90730 91128=
16738 32960 03626 10180 20093 39974 40167 54000 333 90730 91130=
16746 32560 10000 10180 20106 39997 40177 57003 81100 333
90730 91106 555 40000 47535 44250 50000 50140=
32509 32999 00204 10100 20046 30108 40141 53016   333 20028 55///=
34838 42997 80302 10179 20162 30042 40134 58001=
37031 41996 10000 10164 20156 39947 40135 52002 71011 80001=
38462 42999 00000 10051 20044 37746 48486 52005   555 11004=
38609 MPL=
34824 42596 20601 10200 20167 30134 40137 54000 82400=
35849 42998 00000 10095 20043 30134 40217 52006   555 10004=
35953 42999 00905 10082 21005 30095 40222 52010   555 10008=
35969 42999 236// 10074 20023 30045 40215 52008 80003   555 10007=
38069 42998 13201 10089 20062 80001=
42027 32696 53201 10152 20126 38365 48449 58008=
29570 11599 80000 10146 20137 39719 40040 53008 60082 70282 86907
333 20139=
29862 11699 61303 10142 20122 39755 40053 52005 60082 70282 82572
333 20132 55126=
23973 32599 83502 10089 20086 30030 40089 57005 8372/   333 20071=
29562 11598 82303 10126 20119 39646 40035 5//// 60102 70282 889//
333 20125 88923=
29581 32598 71203 10169 20139 39789 40025 57011 8497/   333 20148=
29653 11598 71804 10127 20114 39594 40045 52003 60202 70298 86331
333 20096=
29675 11598 80000 10149 20142 39486 40031 52006 60022 70298 889//
333 20110=
29759 11599 60000 10108 20092 39108 40071 53022 60102 72582 84930
333 20073=
29766 11599 72501 10142 20120 39732 40061 53013 60092 70298 87900
333 20140 55124=
29869 11698 70000 10144 20127 39720 40067 52007 60012 70282 85531
333 20139 95030=
29956 11/93 91901 10111 20105 39551 40079 52009 60082 74781   333
20103 55101 95090=
30504 31996 61201 10129 20122 39470 40073 57005 71041 80002   333
20096 55082=
30622 32998 81801 10197 20144 39467 40051 53021 82033   333 20151=
30499 32984 60401 10148 20076 39448 40053 57015 86030   333
20056=
31253 32599 80904 10163 20055 39604 40078 53015 80007   333 20107
55148=
31295 32999 70000 10172 20092 39642 40067 57004 80001 333 20097=
31348 32999 01701 10166 20084 39926 40106 57012   333 21007=
31418 32599 11601 10182 20084 39871 40105 57005 81100   333 20072=
31439 32599 31802 10135 20071 30061 40103 57004 81131   333 20055=
31442 32999 61703 10186 20064 39757 40081 57011 82031 333 20061=
31445 32999 61201 10157 20098 39866 40100 58001 82061 333 20046=
31474 32699 10000 10145 20056 39754 40106 58004 81100   333 20016=
31534 31999 00000 10114 20097 39853 40127 57002 72840   333 20045=
31587 32999 10000 10181 20086 39978 40114 58001 80001 333 20068=
31632 12698 23301 10156 20113 40101 58002 69960 82900   333 20076=
31702 12999 00000 10194 20117 39806 40103 58003 69970   333 20050=
31725 32998 80202 10179 20109 30039 40100 53007 84042   333 20094=
31801 11595 83601 10110 20092 39882 40098 52002 60020 76164 86502
333 20077=
30455 32999 82502 10170 20074 38846 48442 57011 82032   333 20068=
30542 32999 50000 10182 20073 39405 40041 53003 80001   333 20097=
30549 32699 80000 10127 20062 38630 48429 57004 82941   333 20087=
30669 32999 22701 10160 20140 39268 40066 58009 80007 33320   091
55510   241 30006 7000/=
30726 32998 11802 10194 20117 39536 40058 51005 80001   333 20066=
30731 32999 30000 10195 20103 39493 40043 58003 82031   333 20059=
30739 32699 80000 10184 20053 39301 40048 58005 82972   333 20012=
30745 32999 82002 10207 20095 39003 40041 57007 82082   333 20119
55140=
30764 32999 60000 10142 20086 39327 40064 57005 80001   333 20060=
30822 32998 32702 10174 20105 39543 40077 52008 80002   333 20092
55099=
30824 32999 01401 10159 20109 39536 40078 52001   333 20096=
30829 32999 80902 10202 20088 39427 40052 52018 8807/   333 20176=
30846 32999 80000 10190 20064 39239 40068 57003 80001   333 21111=
30859 32899 12404 10135 20062 39307 40086 54000 81030   333 20069=
30862 32999 22504 10196 20050 39381 40051 57012 80001   333 20125=
30957 32999 42102 10161 20073 39262 40088 53001 84030   333 20083=
30975 32999 01802 10186 20064 39510 40103 53018   333 20111=
31845 11598 60000 10154 20111 39939 40092 57001 60020 70242 86900
333 20085=
31878 12699 23102 10177 20131 39974 40088 58003 69960 82100   333
20106=
31915 12998 01902 10216 20102 39858 40100 53006 60010   333 20097=
31917 32999 23101 10213 20099 39977 40104 57013 82030   333 20121=
31921 12999 00406 10192 20124 30012 40103 52007 60012   333 20117=
31969 31998 12406 10200 20129 30058 40104 58010 70240 80003   333
20099=
31981 12999 02102 10178 20122 39864 40082 58007 60090   333 20099=
31987 12999 00701 10178 20112 39856 40097 57010 60020   333 20106=
32069 32598 80000 10078 20053 30114 40119 53003 885//   333 20075=
42415 31595 40000 10250 20241 40029 70510 83830 333 58005
82620 83825 83360=
24856 11598 70602 10126 20111 39900 40036 53003 60032 72162 87500
333 20116 55133=
30961 32899 31606 10210 20034 39354 40067 57004 82032   333 20158=
30971 32999 20000 10160 20078 39187 40094 57003 80002   333 20029=
30978 32699 01501 10205 20074 39469 40083 56008   333 20143=
31513 32599 61401 10172 20094 39894 40102 53001 83530   333 20090=
31939 12999 01401 10164 20119 39795 40096 57004 60050   333 20078=
32121 32999 81104 10088 20053 30094 40116 57001 8807/   333 20049=
32128 32599 71503 10099 20053 30055 40109 56002 87500   333 20077=
48570 11558 70000 10244 20235 30049 40055 60134 71022 83546
333 20230 59020 70129=
41998 55099=
23606 42662 82502 10147 20130 39933 40095 54000 8653/ 333 86636=
29756 11699 60000 10127 20098 40075 53011 60102 70282 86500   333
20120 55075=
29962 12599 71601 10116 20104 40074 53008 60042 82974   333 20107=
62402 03004 99548 10046 41/97 /0508 10108 20091 40262 51020 70088
8//// 22200 2//// 3//// 4//// 5//// 80099=
56227 32480 70000 10083 20074 37349 52009 8243/ 333 00453
70023=
56434 32680 40000 10123 20108 37697 52009 82102 333 00352=
56317 42680 70000 10098 20088 37157 52009 8113/ 333 00351
70010=
55681 42680 30000 10057 20013 35953 52013 83440 333 00302
30005=
56307 41780 72701 10132 20094 36876 52013 76000 875// 333
00202 79999=
80210 31463 43202 10228 20188 38646 70511 81231
333 10267 56780 57892 58011 81816 83070=
80214 31460 50000 10230 20214 70521 81604
333 10276 560/0 81712 85070=
80259 31460 60000 10254 20204 39025 70522 82870
333 10300 5610/ 59009 82817 84360=
87078 11470 80000 10128 20122 30003 40158 53003 69971 72992 885// 333
10157 20123=
87097 11558 83605 10143 20139 39890 40211 52029 60011
76062 8557/ 333 10170 20083 56009 85630 88360=
87155 31958 83404 10134 20108 30124 40187 52012 71022 8807/ 333
10160 20108 56079 88360=
87162 11570 81406 10130 20123 30102 40175 55001 60071 72996 8352/
333 10150 20122 56709 83625 88460=
87166 32968 70504 10144 20114 30105 40179 50003 87070 333 10161 20105
56000 87360=
87178 31965 80704 10150 20101 30041 40191 52013 70522 8807/ 333
10215 20081 56009 88360=
87270 32965 20704 10122 20080 30117 40181 52015 80001 333 10184 20099
56007 82070=
87289 32970 30000 10105 20074 30105 40190 57001 80006 333 10170
20052 56000 83270=
87374 32965 00504 10110 20090 30081 40176 52015 333 10170 20070=
87393 32970 00000 10112 20075 30137 40202 52024 333 10180 20062=
87395 32965 00000 10102 20077 30152 40195 52019 333 10164 20082=
87480 32965 00207 10130 20091 30134 40164 51007 333 10178 20086=
87534 32960 03610 10121 20090 39958 40123 52013 333 10175 20072=
87548 32962 00212 10106 20075 30036 40133 56001 333 10173 20081=
87593 32960 00212 10120 20088 30157 40184 52009 333 10146 20100=
87623 31965 70209 10104 20090 39864 40092 50001 71022 81016 333
10148 20083 56066 81464 87270=
87645 32965 00206 10081 20070 39932 40145 52008 333 10135 20043=
87715 32765 82910 10153 20053 39726 40046 52027 83576 333 10224
20054 56667 83656 86360=
87750 32865 83230 10127 20081 39990 40090 51013 84028 333 10146
20097 56077 84558 85270=
87765 11450 82705 10052 20048 39062 48361 52016 60211 76566 8802/
333 10069 20050 56069 88512=
82400 32470 41508 10266 20227 40141 84100 333 10290 58000=
82899 22570 21710 10276 20239 40149 82200 333 10305 58004 69901=
87016 31558 20000 10136 20115 39718 40138 52016 71022 82500
333 10185 20114 82620=
87022 32660 80000 10152 20116 39620 40144 50013 8657/ 333
10195 20095 86640=
87046 32565 60000 10090 20074 39123 48489 52015 83570 333 10135 20090
83630=
87047 32965 73402 10083 20067 38790 48498 52020 81036 333
10122 20083 56086 81360 87270=
87121 32665 41804 10116 20104 39620 40148 54002 84500 333 10140
20100 84640=
87217 31965 02705 10093 20065 39609 40117 52008 70400
333 10175 20062=
87222 32970 00526 10130 20079 39562 40095 51001 333 10211 20048=
87257 32965 00205 10122 20099 30053 40159 52015 333 10172 20090=
87311 32965 22305 10112 20048 39396 40101 52009 80005 333 10194 21006
56000
82280=
87320 32970 01110 10116 20070 39584 40122 52015 333 10174 20088=
87328 32980 00508 10130 20029 39461 40119 51017 333 10195 20090
95000=
87344 32965 03404 10104 20060 39577 40134 52019 333 10206 20084=
87349 32965 03608 10118 20088 39728 40129 52011 333 10184 20072=
87371 32962 00510 10150 20092 30150 40172 52015 333
10189 20102=
87416 32970 70000 10103 20063 39339 40097 54000 87070 333 10161
20083=
87418 32965 60000 10112 20082 39292 40109 53009 80001 333 10154
20046 56006 86080=
87448 32970 00000 10100 20057 39527 40107 53008 333 10202 20014=
87453 32970 13616 10116 20080 39608 40105 52005 80006
333 10188 20080 56008=
87467 32970 00504 10109 20087 30004 40142 52007 333 10182 20081=
87506 31665 73410 10166 21011 38513 48437 53019 70422 81476 333
10180 20001 81635 85360 95090=
11017 21028 555 90300=
70341 32662 62712 10100 20028 30223 40250 50000 92353 333 10117
20033 555 90300=
70194 32866 82707 10170 20010 30015 90015 555 90300=
72201 32966 01007 10283 20233 30175 40181 55005 92353 333 10311
20256 555 90300=
72202 32566 61109 10272 20228 30178 40182 56001 92356 333 10311
20244 555 90300=
72205 31658 21212 10278 20200 30147 40185 53002 704// 92353 333
10344 20183 555 90300=
72207 32966 01809 10294 20189 30151 40169 55002 92353 333 10361
20183 555 90300=
72212 35/// /2507 10300 20194 30157 40172 53000 92353 333 10356
20194 555 90300=
72214 32966 02007 10328 20183 30152 40172 55000 92353 333 10372
20172 555 90300=
72217 32966 23206 10333 20150 30040 40169 55002 92353 333 10367
20161 555 90300=
72218 32966 02706 10350 20144 30105 40155 53001 92353 333 10378
20150 555 90300=
72219 32766 22907 10289 20161 39821 40185 53001 92353 333 10322
20200 555 90300=
72234 32966 02603 10306 20189 30073 40182 55006 92353 333 10333
20172 555 90300=
72243 32666 41412 10300 20233 30132 40172 56010 92353 333 10333
20200 555 90300=
72254 35666 61809 10283 20211 39943 40158 55002 92353 333 10350
20228 555 90300=
72255 35966 01713 10294 20211 30130 40168 56007 92351 333 10333
20222 555 90300=
72256 32966 01204 10306 20206 39987 40163 56013 92353 333 10328
20228 555 90300=
72263 12966 01806 10244 20194 39501 40164 56017 60121 92353 555
90300=
72266 12666 21411 10222 20200 39547 40167 56015 60111 92353 555
90300=
72267 32466 60710 10220 20180 39068 90009 555 90300=
72295 32561 22512 10206 20161 30137 40174 56008 92350 333 10222
555 90300=
72310 32966 02808 10350 20122 30069 40149 53001 92356 333 10383
20194 555 90300=
72311 32961 02712 10300 20161 39894 40176 53003 92353 333 10339
20178 555 90300=
72314 32966 00000 10306 20189 39883 40151 55002 92351 333 10350
20172 555 90300=
72317 32662 42206 10294 20194 39834 40149 55003 92354 333 10333
20194 555 90300=
72324 32766 22704 10306 20183 39938 40180 53001 92353 333 10328
20172 555 90300=
72340 32761 63007 10300 20211 30092 40184 53001 92353 333 10333
20206 555 90300=
72351 12666 80207 10272 20217 39816 40178 58006 69901 8/377 92353
555 90300=
72356 11466 80309 10217 20200 39970 40209 58007 69981 761// 92353
555 90300=
72384 32966 03010 10344 20067 39959 40131 56012 92356 333 10344
20172 555 90300=
72401 32961 02208 10300 20228 30075 40136 53001 92354 333 10333
20194 555 90300=
72403 11958 61907 10239 20239 30018 40131 53010 60061 710// 92351
333 10328 20167 555 90300=
72407 31958 01805 10278 20211 30087 40110 50003 705// 92354 333
10322 20178 555 90300=
72408 31759 42409 10294 20206 30083 40105 56001 705// 92354 333
10333 20183 555 90300=
72411 32961 02809 10289 20167 39745 40156 53007 92354 333 10322
20178 555 90300=
72412 35761 42406 10239 20161 39311 40170 50002 92351 333 10267
20156 555 90300=
72421 11558 83512 10256 20211 39858 40168 53003 69931 705// 92351
333 10311 20206 555 90300=
72422 12564 62906 10244 20189 39828 40179 52008 69901 92354 333
10311 20189 555 90300=
72429 12966 43314 10222 20111 39826 40183 53018 69931 92352 555
90300=
72432 12666 63408 10272 20194 30048 53001 69931 92354 555 90300=
72434 32966 83406 10233 20156 30010 40208 53003 92353 333 10250
20211 555 90300=
72446 32966 63607 10217 20128 39864 40232 56008 92353 333 10228
20150 555 90300=
72450 32966 60609 10217 20111 39749 40224 56013 92356 333 10228
20156 555 90300=
72456 32966 00305 10222 20122 39914 40233 56011 92356 333 10233
20156 555 90300=
72458 35966 00808 10244 20061 39701 40228 56016 92355 333 10250
20128 555 90300=
72464 31766 81019 10220 20140 38589 763// 90007 555 90300=
72492 32966 03211 10306 20094 30146 40154 56007 92356 333 10322
20122 555 90300=
72508 12561 81303 10200 20200 30006 40077 50017 60411 92351 333
10322 20144 555 90300=
72509 11456 81907 10189 20189 30080 40086 50024 60121 710// 92354
333 10311 20189 96010 555 90300=
72515 11959 22512 10211 20178 39538 40105 50002 69931 705// 92356
333 10272 20133 555 90300=
72519 12666 62915 10206 20122 39957 40101 53019 60051 92354 555
90300=
72524 32964 43410 10183 20117 39903 40183 53032 92351 333 10278
20183 91016 555 90300=
72530 32766 60609 10161 20100 39984 40227 53017 92356 333 10211
20161 555 90300=
72533 32966 23313 10167 20094 39912 40211 51023 92354 333 10244
20161 555 90300=
72546 32966 23510 10217 20089 39885 40236 56004 92354 333 10228
20128 555 90300=
72552 32966 00808 10222 20072 39579 40243 56014 92356 333 10233
20067 555 90300=
72556 35966 00403 10211 20072 39689 40246 56013 92354 333 10222
20072 555 90300=
72557 32966 09905 10217 20078 39849 40251 57010 92355 333 10222
20083 555 90300=
72564 32966 01619 10228 20094 38168 40173 56012 92356 333 10233
20044 91023 555 90300=
72565 32866 61709 10239 20067 38365 40152 58015 92353 333 10250
20072 555 90300=
72569 32966 01113 10272 20028 38376 40139 56019 92355 333 10283
20017 555 90300=
72591 32966 01812 10322 20011 30027 40148 56008 92355 333 10322
20133 555 90300=
72594 32961 52709 10149 20081 30193 40193 58003 80001 333 10164
20091 85075=
72617 32866 62205 10228 20122 39920 40043 53007 92354 333 10261
20133 555 90300=
72635 32666 63311 10150 20072 39927 40219 53017 92356 333 10183
20150 555 90300=
72636 32666 23311 10161 20078 39988 40221 53010 92355 333 10183
20139 555 90300=
72637 32666 63312 10161 20089 39920 40197 53023 92353 333 10206
20161 91020 555 90300=
72638 35566 83212 10100 20050 39799 40220 53019 92355 333 10150
20100 555 90300=
72640 32666 60805 10150 20106 39974 40228 51013 8/800 92352 333
10183 20139 555 90300=
72641 32766 23505 10178 20089 39918 40231 53005 92353 333 10194
20133 555 90300=
72644 32966 03409 10161 20078 39772 40253 53004 92354 333 10178
20089 555 90300=
72651 32966 09904 10189 20072 39734 40252 56010 92356 333 10194
20067 555 90300=
72659 32966 09904 10183 20044 39782 40256 56009 92356 333 10183
20061 555 90300=
72666 32966 00405 10239 20106 38798 40161 56021 92356 333 10244
20006 555 90300=
72677 32966 20909 10239 20050 38922 40152 56019 92356 333 10239
20039 555 90300=
72683 35966 02412 10283 21011 38725 40142 56008 92353 333 10283
20028 555 90300=
72688 32966 03310 10256 20089 39608 40143 55001 92356 333 10256
20094 555 90300=
72694 32966 00308 10250 20044 30102 40174 58003 92356 333 10250
20089 555 90300=
72698 32866 43109 10239 21011 30171 40180 58003 92355 333 10239
20111 555 90300=
72712 12664 89904 10117 20106 39822 40050 58024 60011 92354 333
10139 20061 555 90300=
72745 12766 63505 10144 20061 39727 40252 53004 69901 92355 333
10156 20061 555 90300=
72747 35966 03204 10172 20050 39807 40244 56007 92355 333 10183
555 90300=
72753 32966 01803 10178 20039 39922 40258 55002 92353 333 10178
20061 555 90300=
72767 32966 01211 10178 20039 39545 40236 56017 92352 333 10183
21010 555 90300=
72768 32966 01012 10189 20061 39382 40206 56015 92356 333 10189
20033 555 90300=
72772 32966 00309 10256 20011 38790 40137 56021 92356 333 10261
20033 555 90300=
72776 32766 60511 10211 20089 38877 40146 56019 92356 333 10217
20017 555 90300=
72777 35966 00916 10189 21011 39250 40174 56015 92356 333 10206
20033 91023 555 90300=
72779 17966 40000 10222 20044 39106 40146 55002 69901 791// 92356
333 10233 20033 555 90300=
72781 32966 02909 10272 20000 39748 40136 53003 92356 333 10278
20067 555 90300=
72785 32766 82413 10206 20050 39317 40149 51004 92356 333 10211
20100 555 90300=
72306 32766 42405 10306 20200 39993 40147 55005 92351 333 10367
20183 555 90300=
72315 32762 83413 10261 20161 39430 40180 53005 92354 333 10300
20167 555 90300=
72402 37959 02008 10256 20206 30125 40127 55002 704// 92354 333
10322 20183 555 90300=
72406 12561 62306 10239 20222 30062 40118 53008 60061 92354 333
10333 20194 555 90300=
72423 11759 62906 10244 20211 39997 40171 50004 69901 705// 92356
333 10322 20217 555 90300=
72425 31412 82608 10210 20180 39875 710// 90011 333 96010 555
90300=
72504 11832 63236 10233 20189 30085 40090 53004 69901 718// 92354
333 10289 20167 91046 91879 96018 555 90300=
72507 11548 82403 10200 20194 30075 40099 53021 60091 710// 92351
333 10300 20194 96010 555 90300=
72513 12966 02204 10194 20183 39770 40103 50019 60021 92354 333
10311 20139 555 90300=
72521 12666 63313 10211 20111 39723 40161 53033 69901 8/378 92351
333 10289 20206 91019 555 90300=
72529 12766 43211 10183 20111 39927 40126 53036 69901 92354 333
10267 20144 91017 555 90300=
72535 32566 23412 10161 20083 39944 40225 53015 92354 555 90300=
72536 32966 03212 10194 20111 39940 40187 51026 92352 333 10267
20189 91017 555 90300=
72544 32966 03609 10206 20106 30009 40224 53000 92355 333 10228
20150 555 90300=
72592 32966 01810 10322 20033 39969 40146 58006 92356 333 10322
20133 91014 555 90300=
72605 15966 09905 10211 20189 39936 40061 52003 60021 92351 333
10306 20128 555 90300=
72783 32966 03007 10250 20083 39633 40143 57000 92356 333 10250
20122 555 90300=
72784 32974 21910 10277 20060 39859 40122 57007 80001 333 10281
20127 555 90300=
72791 35966 02908 10178 20117 30187 40196 50000 92356 333 10189
555 90300=
11001 21024=
87803 11440 80506 10011 20010 39074 49981 52015 60241 76266 8372/
333 10119 20005 56009 83712 88540=
87828 32980 82716 10170 20071 39932 49983 52021 84016 333 10200
20102 56000 84460 85270=
87852 32984 03205 10027 21007 39433 49939 52015 333 10084 20022=
87860 32580 62916 10110 20013 39890 49945 52040 81576 333 10163
20105 56666 81630 83360=
87896 32980 22927 10091 21001 39822 49918 52032 80008 333 10127
20091 56007 82270=
87903 32580 31806 10040 21035 39594 49856 52039 81470 333 10093
20038 56550 81630=
87909 32980 02710 10060 21002 39818 49892 52040 333 10143 20057=
87925 32980 02917 10052 21033 39798 49822 52048 333 10115 20042=
87938 11470 42922 10078 21013 39604 49671 52032 60101 75075
82720 333 10090 20050 56770 82715 83550=
71472 36/// /3312 10105 30194 40212 58004 333 10105 20075 70000=
83649 32570 62105 10242 20205 40210 52022 82530 333 10251=
61223 32960 32006 10323 20150 39778 40064 82042
333 0//00 59020 82365=
61226 31956 02210 10365 20114 39777 40056 70600
333 59042=
61230 32960 32814 10352 20164 39818 40076 80002
333 0//00 59009 83075=
61240 31930 52808 10385 20090 30747 40049 70611 85070
333 59030 85362=
61257 32960 20000 10340 20189 30044 40096 80002
333 0//00 59019 82075=
61265 31770 62208 10328 20170 3//// 4//// 71792 81970
333 0//00 5//// 81950 85465 94941 95831=
61277 42970 00000 10320 20184 39781 40084
333 59001=
61291 31965 63204 10288 20208 39684 40094 71399 81042 930//
333 0//00 59014 81630 83362 81940 94947 95837=
61293 31970 32202 10310 20200 39682 40082 70191 83040
333 0//00 59011 83365=
61296 32970 60000 10280 20206 30716 40098 80002
333 0//00 58000 86075=
61297 32970 52204 10282 20215 3//// 4//// 80002
333 0//00 5//// 85075=
67765 42984 00000 10080 20069 38710 48549 333 59003=
67775 41765 10606 10112 20080 38544 48547 70500 81500 333 59008
81656=
67853 42980 00000 10081 20054 38985 48548 333 59006=
67881 41970 10000 10085 20072 38623 48546 70500 81030 333 59009
81360=
67975 42975 00000 10055 20050 38976 48553 333 59014=
67983 41950 01302 10112 20099 38950 48563 70500 333 59011=
91517 31475 10704 10313 20247 40087 52002 71500 81935
333 20230 56200 58009 81817 81918=
94210 35/// /0916 10232 30152 40157 52011=
94289 35/// /1216 10221 30148 40157 52008=
94307 35/// /0923 10204 30142 40182 52005=
94379 35/// /1410 10197 30169 40178 52010=
97028 12565 30000 10270 20241 30053 40060 51019 69974 82411
333 20235 50480 55022 56000 57603 59013 82620 80660=
97086 11459 72005 10263 20232 30062 40085 51011 60204 71522 83270
333 20240 50150 55002 56000 57000 59008 83618 86460=
97192 11465 70000 10254 20239 30044 40108 52010 60024 70510 82270
333 20236 56200 57824 59010 82817 86558 80850=
97270 31456 70000 10250 20226 30087 40092 51006 70522 86820
333 20230 50140 55054 56000 57800 59006 82813 84613 87460=
97748 11460 81615 10272 20252 30094 40110 5//// 60914 71560 85972
333 20194 56450 55000 56300 57930 82914 83815 86358 80956 80850=
67761 42984 00000 10130 20100 39589 48545 333 58001=
67781 41770 70902 10137 20100 38813 48549 70522 875// 333 59004
87650=
67964 42975 01403 10088 20052 38705 48543 333 59014=
96525 11440 80000 10242 20236 30074 40081 60234 76162 8342/
333 20240 50560 55041 56009 59001 83610 88457=
96535 01405 82104 10231 20228 30085 40105 5//// 60794 76366 8472/
333 20225 50220 55008 56409 57840 58018 84813 88460=
96559 31330 70000 10240 20237 30046 40083 55009 70522 86770
333 20226 50770 55073 56300 57730 58009 86707 85462 80724=
97016 12562 72502 10284 20240 30070 40072 52009 60134 83242
333 20238 50290 55000 56000 57801 59009 83820 80860=
97126 12460 70000 10253 20228 30002 40060 51014 60184 82950
333 20210 50260 55032 56000 57902 59012 81915 85360 80980=
97182 32561 50403 10273 20226 40077 52013 82239
333 20243 50330 55067 56000 57802 59022 82820 83360 80875=
97240 31461 80000 10248 20230 30070 40090 52011 70522 83272
333 20238 50320 55015 56000 57801 59008 83816 80860=
97700 01458 72204 10251 20242 40/// 60114 72162 85221
333 20243 5//// 55000 56300 57232 60077 85817 84459 80860=
97722 01430 80903 10246 20240 30088 40103 5//// 60984 79596 8692/
333 20238 50070 55000 56209 57920 59014 60297 82915 84616 88456=
97790 01457 81603 10258 20237 30057 40077 5//// 60464 76062 8587/
333 20217 50080 55001 56009 57833 59004 60037 81816 84617 80858=
91701 31499 30811 10306 2026/ 40059 70100 82260 333 20265 5629/ =
27199 42998 82802 10156 20132 40144 53001 8807/=
27459 41398 83302 10122 20117 39995 40184 53005 76186 8872/   333
88708=
27730 42960 50000 10106 20098 30011 40201 54000 82031=
22165 41424 31601 10019 20015 30061 40122 57006 71011 83100=
22837 42899 80000 10080 20038 30091 40159 58018 81047=
22954 42966 20000 10072 20045 39931 40177 57002 82040=
23412 41296 82703 10144 20138 39983 40075 57006 71022 885// 333 86705=
23803 41599 80000 10146 20133 39940 40111 57008 70282 8696/ 333 86928=
27066 42598 82702 10115 20098 39999 40171 54000 888//=
27083 41499 83302 10119 20105 39929 40144 52003 70298 8872/   333
88716=
27113 42997 20000 10039 20032 30043 40189 57001 80001=
27242 41907 00000 10080 20076 30063 40189 54000 74641=
27329 42979 10000 10055 20048 30079 40204 52001 80001=
27355 42584 52702 10103 20097 30027 40187 58002 85900=
27373 41499 83102 10143 20130 39954 40162 51001 70282 886//=
27665 41497 82801 10164 20152 39916 40173 57001 78082 889//   333
86713=
27823 42999 83401 10099 20089 39957 40210 54000 83031=
28009 42998 80000 10132 20121 39926 40128 58005 86036=
28411 42997 62202 10161 20106 39959 40146 57007 85031=
22365 42480 22302 10057 20045 30102 40129 58005 82200=
22438 42980 32003 10094 20046 30104 40125 57005 83030=
22641 42984 00000 10098 20056 30118 40133 58011=
22695 42983 83202 10102 20092 39944 40134 53005 8802/=
22854 42584 20000 10067 20049 39882 40166 54000 82500=
22996 41560 83103 10126 20111 39946 40128 58003 78082 885// 333 86921=
27051 41840 30000 10063 20052 30014 40179 54000 71111 82031=
27225 43996 21902 10092 20038 30067 40195 54000 80002=
27252 41950 23202 10087 20085 30003 40185 53003 71061 82040=
27369 41470 82904 10125 20115 30035 40168 52002 76086 8872/   333
88714=
27393 42598 82504 10182 20109 39998 40157 52003 84431=
27479 41484 81502 10174 20153 30036 40152 58005 78082 85931   333
85917=
27532 41996 02801 10076 20067 39993 40204 53002 71011=
27648 41497 73202 10116 20112 30031 40194 54000 72582 8740/=
27679 42970 63463 10176 20076 39957 40169 53009 86070=
32010 32697 71505 10094 20055 40128 53007 83530   333 20020=
29068 32698 83601 10079 20070 40067 56009 885//   333 20051=
24908 12981 20802 10164 20110 39771 40074 52005 69902 80001   333
273 55122=
41859 32450 30901 10269 20260 39995 40035 82430 333 56990 58009 70024
84615 83362=
41891 31930 40000 10262 20252 40030 71042 82042 333 56099 58002 70310
82365 83080=
41907 32356 70000 10270 20260 30010 40028 85620 333 56990 58011 70000
81710 83825 87460=
41923 32340 50000 10286 20275 30016 40026 83951 333 56999 58003 82710
83825 81930 85080=
41936 31930 20000 10278 20270 40022 71000 82330 333 56090 58013 70000
82362=
41943 32450 70000 10270 20260 30034 40043 84520 333 56990 58011 70000
84615 85458=
41950 32440 80000 10278 20270 30013 40017 8582/ 333 56999 58005 70000
83616 88460=
41978 11328 80502 10254 20250 40025 60134 79196 8532/ 333 56499 58006
70166 85707 81928 88458=
41992 31450 70000 10272 20260 30009 40013 70522 84370 333 56990 59012
70000 83616 87458 81930=
29553 11560 80000 10125 20125 39689 40029 53003 60192 78098 86970
333 20118 55011=
29471 11497 80000 10140 20132 39813 40024 53005 60042 78098 889//
333 20139 88911 91117=
29481 32599 62401 10158 20144 39808 40027 57006 84330   333 20121=
29274 11580 81604 10119 20085 40070 58007 69932 72992 889//   333
20083 91112=
91182 32666 20411 10300 20183 30146 40151 58010 92353 333 10306
20239 555 90300=
91190 32766 20418 10283 20189 30131 40161 58008 92354 333 10289
20194 555 90300=
91212 32466 21012 10289 20239 30028 40128 51008 92354 333 10294
20272 555 90300=
91765 11574 31015 10288 20216 30119 40122 56019 69904 70262 83400
333 20256 562// 58002 555 90300=
42123 21595 80506 10258 20241 49997 71022 8452/ 333 58024 6016/ 84630
88460 =
17140 11565 60604 10104 20095 38662 48459 57010 60151
70298 86200 333 86830 10072=
42103 32696 61403 10279 20219 49988  82531 333 58008 82645 84362=
43311 32596 22709 10286 20226 40047 82800 333 59001 82620=
43360 31596 50000 10268 20224 39878 40025 82130 333 59001=
43053 32996 42004 10294 20272 40009 82031 333 58007=
48310 01550 80000 10248 20238 39596 40042 60594 76062 85876
333 20244 58005 69937 70589=
48329 01560 80000 10257 20247 39703 40038 60054 70262 85876
333 20253 58000 69926 70053=
48380 01560 70000 10255 20248 39930 40043 60074 70162 84876
333 20248 59003 60056 70066=
48421 11557 80000 10247 20240 39935 40048 60314 71062 83536
333 20238 59015 70308=
48465 12561 81903 10270 20235 30034 40039 60324 84973
333 20257 59004 70318=
48566 12560 82510 10275 20242 30050 40058 60044 83877
333 20250 59021 70043=
23929 42998 50000 10130 20011 40103 57002 82031=
28383 41698 81101 10089 20078 40086 57018 78082 889//   333 88940=
28465 42981 82404 10133 20051 40103 57025 82031=
28586 42599 72501 10101 20058 40098 57021 87500   333 87627=
28588 41959 83202 10120 20034 40108 57009 76162 8802/=
28688 42598 72702 10125 20027 40117 57007 83530=
28696 42999 72404 10091 20032 40100 57006 87070=
28791 42999 82503 10114 20032 40118 57003 86041=
29367 11230 82701 10112 20109 39809 58026 60232 78182 889//   333
20112 88904=
30117 32960 89902 10203 20106 39605 40061 51006 80002   333 20134
55086=
23426 42589 81503 10125 20067 30096 40119 57002 82231=
23625 41599 61503 10154 20102 30055 40086 57090 72998 87900=
28076 41997 00503 10094 20011 30038 40107 53003 70281=
28367 42596 62703 10117 20050 39980 40102 57029 83401=
28481 42999 80000 10114 20058 30001 40096 57023 82075=
28491 41959 82802 10099 20058 39979 40084 57012 76162 8802/=
28593 42984 31802 10067 20041 39988 40083 57010 83080=
28598 42998 82701 10100 20055 30002 40100 57011 8805/=
28797 42597 83202 10114 20032 40119 54000 86301   333 86924=
28799 42998 72801 10093 20046 39968 40107 52001 87030=
23662 42999 23202 10064 20011 30090 40131 57001 80001=
23788 31/93 90000 10071 20067 30025 40101 52005 74542   333 20048=
23986 31998 70000 10087 20081 40087 56003 70242 80001   333 20060=
29149 11596 80701 11098 20088 39938 40064 57012 69952 71082 889//
333 20095 55002=
29203   333 20044=
29745 60032   333 20120=
48315 01558 60000 10255 20239 39788 40056 60264 71066 85856
333 20246 58006 69947 70259=
48413 31956 20000 10257 20243 39963 40041 71000 80001
333 20250 59004=
48416 12561 81404 10260 20238 39909 40056 60064 83576
333 20238 58006 70061=
48418 01530 80000 10250 20246 39984 40040 60204 71062 8752/
333 20249 59012 69987 70198=
48461 32562 82409 10278 20237 39972 40041 85576
333 20275 59009=
48478 11559 82407 10280 20252 30038 40043 69924 71022 84546
333 20275 59011 70002=
40001 32970 00901 10250 20065 40020 50000=
40080 32965 02008 10183 20091 39360 40025 54000=
40095 32970 00401 10172 20152 39452 40052 53001=
60511 32565 20000 10219 20053 39086 48560 51002 82200
333 82826 95990=
60549 32557 50000 10230 20098 38906 48558 57023 82280
333 0//00 83830 83360 95990=
43150 32596 60000 10292 20267 39927 40000 83531 333 59008 83620
85075=
59022=
71802 36/// ///// 10087 20046 40127 333 70000=
71826 36/// /2710 11017 21032 30049 40078 53008 333 10007 21023
70007=
62600 32970 00206 10280 20110 39849 40056 333 59004=
62640 31965 03122 10310 20030 39676 40023 70700 333 59032=
62641 32970 00306 10270 20160 39979 40042 333 58008=
62650 32970 03605 10285 20050 39794 40060 333 59005=
62660 31968 03406 10290 20010 39/// 4//// 70600 333 5////=
62680 31968 03405 10320 20070 39644 40026 70600 333 59004=
62721 32970 73208 10330 20075 39603 40026 80007 333 56009
59014 87275=
62733 32970 72305 10315 20160 39538 40038 80007 333 56009
59022 87275=
62751 32970 72504 10304 20136 39602 40049 82047 333 56099
58009 82365 87275=
62752 32970 71805 10300 20176 39376 40030 80007 333 56009
59004 87275=
62760 32970 71407 10268 20190 39266 40061 80007 333 56009
58016 87275=
62762 32970 72703 10300 20190 39561 40021 82047 333 56029
58003 82365 87275=
62770 32970 72506 10250 20210 39412 40049 87070 333 56090
58004 87365=
62771 32970 73205 10290 20180 39619 40042 80007 333 56009
59003 87275=
62781 11770 72204 10255 20182 39465 40082 76022 333 69902
83570 56990 58001 83650 87365=
62790 32970 71410 10250 20200 39378 40095 87070 333 56090
58020 87365=
62795 22970 32970 72205 10290 20170 39543 40032 80007 333
56009 58003 87275=
62805 32970 71802 10280 20190 39492 40010 80007 333 56009
59019 87275=
41749 319// 31806 KQCPUPCQHIV UKOFBGMOYO UPTPP IPPPQ EEE
56009 58033 83070=
65445 32465 70000 10240 20228 40131 8553/
333 58002 85612 87362=
65472 32970 02703 10255 20234 40128
333 59009=
65469 32968 20000 10243 20236 40124 82030
333 59008 82364=
41759 329// 00000 10280 20259 30005 40010 333 59004=
28214 42999 42604 10163 20111 39941 40141 57002 80001=
96837 11559 71102 10256 20229 30072 40075 52002 60104 70562 83572
333 20246 50970 55059 56000 57600 59003 83622 86260=
30521 11698 83001 10254 20155 39523 49995 56003 69932 79598
86901 333 10315 86933=
37985 42996 01601 10165 20138 30139 40125 54000 555   10017=
31054 32599 80000 10100 20041 39791 40044 57020 8251/   333 20031
55146=
24688 11699 73402 10096 20019 39226 40082 57002 69900 78082
86901 333 20016 30101 55048=
89050 31470 80426 11005 21030 49994 58033 70272 885// 333
88616=
89512 42977 61344 11106 21241 39792 49944 57025 85031=
89592 31970 71226 11142 21163 49879 57005 73731 87010=
89606 31956 02010 11518 21551 36309 47674 52007 70230 333
21537 96110 96510=
63791 32480 60000 10178 20145 39161 48528 865//
333 55300 59005 86618=
31825 32699 71801 10113 20076 39902 40090 58005 87500   333 20061=
58016 87275=
54587 32978 10902 10235 20172 40073 57004 80001 333// 05460=
97430 12460 60000 10280 20251 30053 40082 58008 60038 83232
333 20238 50360 55052 56000 57800 59005 83818 80860=
71185 36964 02012 10088 20025 30060 40083 55004 333 10098 20044
70060=
42309 32596 21801 10328 20267 40034 81130 333 20253 59013=
78946 15/// /0904 10258 60401 90000 222// 00275 555 06827
16887=
63723 32982 01703 10238 20191 40125
333 59006=
42071 31995 00000 10252 20183 49987 70500 333 58001=
42131 32996 00000 10294 20186 49983 333 58011=
42328 32996 02306 10276 20253 49990 333 58000=
20667 42998 70901 10006 21014 30128 40136 58018 87030 333   91104=
20744 42498 82202 10022 20017 30100 40118 57015 885// 333   88613
91108=
23022 41194 80605 10002 21001 30025 40085 58032 78084 887// 333
87703 91109=
23032 41562 80706 10029 20016 30066 40098 57016 78082 883//
333   88925 91108=
42840 21596 71802 10278 20264 40039 79522 85931 333 58013
6990/ 83618 81930 85360=
43189 32596 30000 10274 20230 39998 40007 81502 333 59005=
63705 32560 70000 10214 20214 38840 48495 8497/
333 58003 83620 81922 85360
555 10///=
63799 31580 51809 10256 20221 40111 70122 84240
333 59014 84822=
63726 32960 00000 10177 20113 38136 48494 80000
333 58006
555 10115=
42542 32996 22305 10310 20225 39437 49991 82020 333 59001 82458=
37735 42998 20000 10189 20189 39775 40134 52006 82060 555   10019=
96839 11556 71102 10257 20235 30077 40162 52011 60054 70562 84576
333 20242 55601 56000 59003 84623=
67009 11560 71214 10237 20219 30023 40142 56009 69951 760// 878//
333 0///1 86820
555 83640=
67095 32475 52406 10206 20187 30186 40193 56013 85800
333 0//00 82817 84633=
67117 33680 10000 10180 20136 30156 40165 54001 81530
333 0//00 81630
555 81360=
67137 33260 40402 10148 20145 38960 48556 56008 84500
333 0//00 81705 84617=
67143 33580 12804 10184 20171 30203 40210 57005 81800
333 0//00 81820 924/8
555 81640=
67157 31570 73006 10175 20160 30201 40208 57003 715// 875//
333 0//00 87630=
67161 33980 00000 10184 20161 30169 40178 58001
333 0//00=
67197 11460 70808 10209 20198 30209 40219 57005 69921 71562 878//
333 0//12 82817 87633=
96751 32556 72102 10194 20181 39024 78920 85520
333 20184 50470 55012 56200 59006 79999 85620=
96797 11458 80000 10239 20234 30073 40076 55004 60494 73162 8697/
333 20237 50260 55000 56009 57942 81917 80981 85818 80880=
63708 31580 10000 10210 20173 48480 70200 81100
333 58005 81820=
61976 32465 31317 10248 20213 40160 83200
333 58004 83813 924/7=
67131 33981 01002 10169 20162 30171 40176 56002
333 0//00=
64500 32460 82204 10258 20236 30096 40110 885//
333 0//00 58003 83610 88626=
63619 31982 30000 10193 20153 48512 70300 83030
333 59003 83359=
15614 31998 00000 10095 20074 39540 40242 54000 70200=
BSHI  03081 99310 11224 42961 70706 10226 40060 5//// 82041 00226
20901=
32389 32999 20702 10147 20038 30095 40130 58014 80001 333
20032 55115=
89573 32970 00927 11158 21243 39859 49882 57002=
15502 31998 00000 10122 20106 40234 51002 70200=
15525 31997 11404 10118 20106 40242 58004 70300 80001=
15549 31998 03601 10122 20080 40231 58003 70200=
15552 31998 03608 10150 20094 40197 57005 70100 555 92015 92418=
15615 31/91 90504 11040 21044 37179 47125 58003 74944 555 92711=
15625 31960 21402 10134 20099 40236 51003 70210 82030 555 95490=
15627 31/90 90510 10004 20004 37672 47117 58004 74544 555 95190=
15640 31698 23409 10169 20084 40225 52006 70300 82500 555 95000=
15655 31598 73205 10168 20100 40200 57005 70222 87500 222// 332//
4//01 555 92025 92428=
15712 31998 00000 10152 20067 40223 51009 70200 555 95000=
15730 31698 43605 10146 20163 40221 58011 70311 82550 555 95000=
42435 32996 02302 10286 20218 40010 333 59018=
61832 32665 42706 10280 20252 40126 71300 83330
333 59009 83616 81923 92361 95477=
62387 32960 03608 10227 20143 40086 50000=
24125 12499 83402 10016 20011 39902 40175 52008 69902 886//
333 20006 55004 88717=
71051 46/// ///// 11035 21035 30014 40123 53003 333 11017
21101=