ZCZC 000
SMCI10 BENJ 210000
AAXX 21001
70200 84360 22283 02038 20602 32500 4//// 5//// 6//// 80040=
54266 32962 00000 10057 21016 40343 52010 333// 01156 31042=
54094 32962 02503 10060 21045 30017 40318 52009 333 01355=
54335 32980 00202 10098 21029 40337 52012 333 01255 30015=
59317 11560 80902 10264 20241 40112 52014 60091 78080 889//
333 01002 70971=
55598 32780 10000 10095 20057 36654 52011 81100 333 00251=
57584 32962 80204 10218 20171 40181 52014 8807/ 333// 00202
70001=
57245 32765 81102 10185 20144 39881 40223 52011 885// 333
00351=
50873 32970 02704 10068 21045 40288 52009 333 00901 31037=
58730 11980 70000 10242 20208 40163 52011 69901 70060 87040
333 00300 70041=
54623 32970 10912 10184 20110 40304 52027 80002 333 00802=
57713 11661 81401 10200 20175 40155 52010 69901 72100 885//
333// 00252 79999=
57803 31656 70401 10188 20161 40154 52004 71000 875// 333//
00251=
54337 32980 00703 10127 21044 30259 40345 52015 333 01254
30049=
57996 11770 70702 10253 20228 40130 52017 69921 70060 875//
333 00301 70013=
53480 32980 00000 10087 20007 40286 52007 333// 00351 31004=
50442 32970 22702 10002 21077 40307 57005 80002 333 00551=
57972 11440 83602 10190 20185 39936 40154 52017 60021 76066
887// 333// 00355 70104=
54041 32970 13203 10075 21023 40345 52005 80002 333// 00952=
54142 32970 00000 10073 21019 40339 52011 333// 01254 31037=
54285 32970 00000 10035 21044 40348 52015 333// 01154=
54374 32965 00000 10059 21034 39936 40345 52017 333// 01052
31001=
54063 32970 02702 10069 21027 40308 52005 333// 01051 31048=
54186 32970 02904 10057 21058 40329 52011 333// 01258 31032=
54386 32970 01801 10050 21071 40313 52020 333// 00700 31047=
53673 32980 70000 10109 20073 40281 52014 80002 333// 00303=
53478 32970 00000 10059 20018 40286 52004 333// 00300 31001=
53664 31958 30201 10090 20054 40252 52002 71000 83030 333//
00100=
54843 31920 72702 10144 20140 30245 40272 52016 71000 80002
333// 00451=
58543 32980 80403 10218 20161 40206 52018 8807/ 333 00400=
58660 32580 73402 10235 20183 40189 52014 878// 333 00300=
58752 32668 60402 10249 20176 30133 40177 52016 82540 333
00400 70066=
58457 32565 70205 10224 20179 30158 40208 52013 878// 333
00300=
57016 11930 80902 10116 20109 40244 52002 69981 76160 8802/
333 05101 70148=
54476 32962 03606 10112 20040 40321 52019 333 01056=
54135 32980 02502 10085 21037 30126 40348 52004 333// 01153
31026=
56080 11670 80000 10084 20075 37199 52006 69901 76060 885//
333// 00001 70008=
59072 11670 83202 10231 20205 40120 52017 69901 78080 884//
333 00253 70016=
59298 11459 80402 10239 20233 40113 52026 60321 79598 889//
333 00453 71132=
59462 11662 82503 10237 20230 40083 52010 60351 78080 884//
333 00052 70355=
59664 32468 73403 10264 20230 40086 52011 879// 333 00100
70052=
51431 32780 20000 10022 20017 39490 40287 57004 81402 333//
00557 31010 70077=
57872 11760 80403 10203 20176 40156 52012 69941 70060 885//
333// 00354 70078=
53646 32962 60000 10094 20086 39038 40249 52004 86030 333
05102=
59845 31958 02002 10252 20243 40090 52016 71000 333// 00100=
59855 32570 53401 10254 20243 40085 52013 81102 333// 00151
70005=
59644 32560 73604 10270 20234 30069 40084 52011 878// 333//
00151 70005=
59453 32562 80202 10254 20218 40089 52006 888// 333// 00100
79999=
59254 11556 80000 10260 20240 40091 52007 69901 71080 888//
333// 00101 70095=
59065 11463 82502 10223 20202 40105 52012 69931 76086 885//
333// 00153 70003=
59058 11660 82904 10243 20194 40104 52008 69901 76000 888//
333// 00101 79999=
59228 31950 20000 10246 20231 40108 52014 71000 82040 333//
00152=
59647 31960 13605 10271 20235 40085 52011 70090 81040 333//
00151=
59023 32565 70202 10268 20185 39876 40115 52011 878// 333//
00101=
59632 32963 23403 10265 20214 40094 52011 82042 333// 00100=
59209 11357 50000 10204 20196 40126 52009 60051 71080 85900
333// 00100 70046=
53543 32980 11103 10127 20031 38618 40230 52002 80002 333//
00102=
51628 11780 83601 10156 20053 40140 52005 69901 72580 889//
333// 00451 79999=
53915 11457 81102 10086 20080 38714 40242 52005 60081 76166
8572/ 333// 05151 70254=
54471 32960 00406 10111 20005 30308 40325 52014 333 01157=
53782 32960 53601 10107 20083 40301 52021 80002 333// 00651=
58933 11560 80701 10195 20187 40168 52010 69961 70060 885//
333 00351 70127=
58918 32370 43402 10230 20217 40139 52013 82642 333 00452
70051=
58820 32664 70702 10241 20210 40149 52010 8654/ 333 00451=
59133 32665 60409 10262 20225 40122 52007 86530 333 00351=
58944 11464 70207 10257 20230 40141 52013 69901 70060 875//
333 00452 70003=
58921 11660 71801 10248 20226 39907 40143 52011 69901 72100
875// 333 00400 79999=
58847 11678 70203 10255 20212 30056 40155 52016 69911 70080
87400 333 00453 70024=
78711 11570 81004 10234 20220 30096 40111 55006 60201 72196 8492/
333 06299 10294 20215 32/// 58015 70037 82620 82928 88457=
78724 01578 72702 10258 20238 30020 40077 53002 69981 72052 83220
333 02200 10298 20254 30/// 58012 69987 70008 83828 84358=
16597 32362 70908 10226 20225 30071 40155 57006 86601 333 86706 85075
=
57020 70042 886// 22233 00033 20403 80042=
232078 229085 220077 215069=
83332 22274 20302 313// 40602 80230=
54351 32970 00703 10093 21030 40344 52010 333// 01252 30019=
57649 11440 81402 10197 20186 40186 52011 60021 76060 8677/
333// 00354 70016=
52652 32980 00000 10106 20091 38498 40121 52008 333// 05302=
59134 32477 60203 10261 20219 39974 40134 52012 86100 333
00402 71429=
58027 11958 80402 10179 20144 30207 40257 52014 69931 72160
8807/ 333 00452 70003=
50963 32980 02205 10040 21016 30185 40325 52009 333 01052
79999=
50888 32980 03209 10073 21041 40273 52007 333 00703 31017=
50788 32970 02907 10063 21003 30180 40266 52008 333 00700
31012=
50775 32968 02503 10059 21058 40286 52004 333 00801 31032=
50853 32970 02702 10055 21045 40332 52006 333 00951 31044=
50745 32966 42702 10051 21060 30144 40330 52005 80002 333
00751=
54096 32970 02903 10041 21091 40304 52005 333 01055 31037
79999=
50564 32970 02504 10057 21075 40283 57003 333 00704=
50877 32980 02503 10045 21037 40309 52012 333 00951 31032
79999=
50656 32976 03201 10028 21056 40314 54000 333 00700=
50854 32970 00000 10045 21016 40333 52009 333 00852=
50658 32980 12201 10031 21052 40311 57002 80002 333 00651=
50968 32980 02005 10038 21008 40337 52011 333 01255 31041=
50468 32975 03203 10059 21093 30074 40282 57001 333 00703
31047=
50349 32970 72203 11005 21064 40299 57007 81032 333 00400=
50844 32962 12703 10043 21052 40337 52005 80002 333 00753
31024=
56096 11470 80000 10140 20133 38964 40178 52002 60061 76066
885// 333// 05151 70076=
59954 32567 23202 10261 20242 40088 52011 82202 333// 00100=
51133 32680 23601 10054 20038 39641 40286 54000 82400 333//
00752 30009 70035=
59417 31556 80000 10244 20232 39955 40104 52007 71000 888//
333// 00251 70011=
57602 31956 10000 10209 20198 40149 52007 71000 81040 333
00451=
53845 11562 80402 10109 20098 39148 40251 52007 60101 76166
8772/ 333 00000 70107=
53463 32980 00000 10132 20021 39054 40262 52007 333// 00202
30026=
51828 31957 62704 10149 20072 38645 40133 52014 70600 84032
333// 00752=
57780 11440 83602 10191 20185 40173 52016 60021 76060 8772/
333// 00354 70158=
51709 32870 70000 10143 20094 38736 40154 52004 874// 333//
00653 79999=
51811 32862 82201 10134 20096 38798 40159 54000 8296/ 333//
00751 79999=
51818 32863 72701 10128 20081 40156 52006 83502 333// 00853=
51839 31930 02507 10175 20036 40086 52009 70700 333// 00509=
58549 32762 71102 10227 20189 40195 52015 8754/ 333 00301
79999=
59126 32565 70000 10242 20215 40141 52011 874// 333 00400
70465=
50758 32970 02501 10056 21064 40344 54000 333 00701=
50353 32970 12501 10042 21074 30048 40271 57002 80002 333
00702=
50953 32966 01101 10074 21010 30146 40329 52004 333 01051
31030=
50862 32970 01801 10019 21050 40328 52009 333 01054=
50557 32970 02503 10022 21042 30005 40309 57002 333 00651=
59849 32580 22701 10237 20222 40096 52014 82100 333// 00151=
58608 31557 70704 10242 20204 40168 52015 71000 81130 333//
00300 79999=
57793 11660 80901 10223 20197 40169 52016 60021 70060 885//
333// 00351 70018=
59211 31556 70000 10247 20230 39914 40115 52008 71000 87540
333// 00002 70045=
59046 32970 73404 10257 20189 40117 52010 8703/ 333// 00251=
59265 11425 80000 10220 20217 39950 40084 52005 60211 76060
885// 333// 00053 70259=
59037 32562 73402 10264 20212 39907 40104 52008 8114/ 333//
00151=
59242 11758 70401 10251 20214 40108 52010 69901 72160 875//
333// 00100 79999=
59446 32865 70402 10262 20208 40090 52009 8553/ 333// 00101=
59021 31958 10000 10212 20200 40127 52007 71000 81040 333//
00151=
57522 32961 00000 10232 20194 40153 52013 333 00351=
54602 31956 23603 10150 20128 40300 52031 71000 80002 333//
00702=
57806 32563 70202 10176 20145 40142 57001 875// 333// 00252
70020=
57825 32668 80404 10193 20164 40164 52011 885// 333// 00252=
57902 32463 70402 10183 20159 38650 40142 52007 875// 333//
00300 70034=
57916 31550 70000 10218 20203 40135 52007 71000 875// 333//
00252=
57922 32662 73605 10195 20168 40144 52008 875// 333// 00151=
56492 31758 80000 10209 20194 39763 40157 52013 71000 885//
333 00300 70001=
59087 11560 80902 10240 20228 40111 52020 60211 78080 889//
333 00252 70291=
59493 11458 80402 10250 20238 40101 52020 60301 79598 889//
333 00454 70621=
59082 11668 80000 10252 20238 30044 40118 52020 69901 78000
884// 333 00201 70014=
59316 32968 60703 10278 20235 30105 40114 52009 81042 333
01103 70297=
53446 32968 01402 10124 20050 40252 52003 333// 00102=
57127 32965 80902 10167 20150 39612 40205 52010 8807/ 333
00100 79999=
56386 11420 80000 10198 20193 40156 52008 69901 76060 887//
333 00300 70016=
56571 32670 80000 10188 20179 38426 52008 888// 333 00201
70059=
57306 32965 80000 10196 20174 40161 52012 8802/ 333 00201=
57156 32762 82702 10174 20150 40240 52014 885// 333// 00201=
58562 32565 70403 10248 20178 40197 52012 8214/ 333 00302
79999=
58633 31958 80904 10218 20193 30093 40190 52014 71000 8807/
333 00301 70025=
58647 32668 70703 10229 20180 40181 52014 875// 333 00400
79999=
58665 32575 73604 10244 20189 40184 52014 8114/ 333 00300=
58666 32475 73613 10244 20190 30078 40176 52017 8684/ 333
00401 91118 91536=
58477 32480 73604 10238 20181 30148 40191 52014 8214/ 333
00351=
58556 11570 80204 10214 20190 40202 52014 69901 78000 884//
333 00351 70001=
58646 32665 70000 10227 20198 40192 52017 875// 333 00451
70010=
58569 32480 60206 10234 20190 40183 52012 82130 333 00200
79999=
59758 32468 71602 10273 20243 30064 40085 52010 82102 333//
00151=
54736 32962 60704 10199 20132 40281 52015 82032 333// 00504=
56444 11465 80901 10111 20098 36856 52009 69911 78080 884//
333// 00202 70001=
56533 32470 70000 10189 20181 38411 52011 874// 333// 00201
79999=
56543 11680 71602 10106 20093 36901 52009 69901 70080 874//
333// 00200 70044=
56548 11450 80000 10153 20150 37720 52008 60011 72580 884//
333// 00202 70126=
56586 11460 80000 10160 20151 38081 52007 69911 70060 885//
333// 00352 70020=
56651 11470 70000 10142 20137 37658 52007 69961 72580 879//
333// 00351 70125=
56664 11575 83601 10194 20188 40135 52012 69911 72580 884//
333// 00300 70112=
56684 11570 70000 10159 20143 37924 52002 69931 70080 874//
333// 00251 70013=
56739 11470 80000 10177 20171 38345 52010 69991 78080 889//
333// 00100 70009=
56748 11580 70000 10174 20162 38353 52010 60181 70080 874//
333// 00251 70302=
56751 11675 72902 10159 20156 38041 52009 60061 78080 879//
333// 00352 70185=
56763 11580 80000 10208 20202 40103 52013 69991 70080 884//
333// 00400 70090=
56768 11670 70000 10172 20161 38248 52011 60031 78098 879//
333// 00352 70066=
56778 11558 80902 10170 20148 38131 52006 60021 71080 884//
333// 00300 70113=
56786 11550 70000 10159 20143 38139 52005 69911 71080 86440
333// 00251 70040=
56838 32565 82701 10220 20207 40095 52010 884// 333// 00100=
56856 11470 70000 10192 20181 40122 52010 60091 79598 879//
333// 00352 70110=
56875 11665 80000 10185 20165 38380 52006 69941 78080 884//
333// 00201 70018=
56886 11560 73603 10172 20156 38313 52005 69901 70080 874//
333// 00300 70051=
56951 11470 83601 10182 20173 38505 52010 60051 78098 889//
333// 00251 70052=
56954 11359 70000 10213 20206 40106 52011 69921 71080 874//
333// 00100 70042=
56959 11775 70000 10222 20213 40099 52014 60031 79180 879//
333// 00151 70080=
56964 11458 82002 10194 20186 38707 40113 52017 60091 78180
889// 333// 00251 70243=
56966 11575 80000 10234 20219 40102 52012 60101 78098 889//
333// 00453 70151=
56969 32465 70000 10226 20219 40103 52015 875// 333// 00101
70033=
56977 11450 80201 10201 20192 40119 52015 60101 78198 884//
333// 00200 70105=
56985 32575 70000 10202 20176 38710 40118 52010 874// 333//
00351 70137=
56986 11162 70000 10180 20175 40124 52010 60031 70080 87400
333// 00100 70047=
56946 11565 80000 10199 20193 40106 52011 60351 78098 889//
333// 00251 70457=
58424 32664 80208 10220 20175 30177 40200 52020 885// 333//
00300 79999=
58221 31958 70403 10195 20149 30207 40242 52011 71000 8704/
333// 00451=
58326 11560 80203 10198 20165 40226 52015 60021 76000 885//
333// 00452 70016=
58236 32966 70401 10203 20163 40231 52011 8704/ 333// 00351
70003=
58203 32965 70407 10197 20145 30194 40239 52017 8707/ 333//
00451=
58531 11970 80000 10214 20186 40193 52014 69901 70060 8807/
333// 00300 70001=
58122 32970 80403 10191 20135 40245 52011 8807/ 333// 00451=
58102 32965 80404 10186 20130 30199 40249 52015 8807/ 333//
00401=
58437 31/00 90905 10125 20125 38230 52010 74544 333// 00252
70002=
58314 11962 80703 10198 20177 30143 40229 52019 69951 76060
8807/ 333// 00451 70005=
58436 32965 83603 10212 20173 40215 52014 8807/ 333// 00451=
58215 32960 70706 10197 20162 40240 52014 8707/ 333// 00451=
58319 32562 83605 10210 20169 40215 52019 885// 333// 00300
79999=
58338 32665 80404 10209 20164 40220 52017 8657/ 333// 00400=
58519 32970 73603 10234 20190 40172 52011 8707/ 333// 00351=
58606 11760 70202 10227 20194 30117 40170 52015 69921 70060
875// 333// 00300 70002=
57993 32562 70701 10248 20227 39977 40137 52015 8784/ 333//
00300 70156=
58527 11658 80403 10214 20192 30102 40175 52012 69901 76060
8757/ 333// 00452 70008=
58506 11/00 90709 10143 20143 40200 52009 69911 74564 333//
00251 70001=
57313 32965 70000 10207 20183 40159 52015 8704/ 333// 00351=
57608 31920 70000 10213 20201 40148 54000 71000 8704/ 333
00352=
56287 11430 80000 10190 20185 40165 52009 60011 76060 885//
333 00200 70136=
59431 31550 40000 10241 20231 39958 40103 52010 71000 82840
333// 00151 70027=
57957 11565 80205 10221 20185 39939 40131 52013 69901 72160
888// 333// 00254 79999=
54157 32968 10000 10091 21016 40344 52010 80002 333// 01255
31021=
57662 32862 83603 10206 20159 30153 40194 52014 885// 333//
00351 70036=
54454 32980 20203 10139 20022 40346 52018 80002 333 01252=
59981 32580 60000 10278 20261 30079 40085 52013 81102 333//
00151=
59478 11563 80902 10246 20236 40094 52020 60081 78080 889//
333 00254 70100=
59754 32965 40402 10264 20241 40083 52012 81042 333 00100
70268=
53898 11950 80404 10159 20152 40282 52015 69931 76060 8802/
333// 00402 70067=
57181 31958 80203 10174 20128 40254 52007 71000 8807/ 333//
00301=
57290 31958 80401 10169 20154 40238 52009 71000 8807/ 333//
00202=
57297 32960 83605 10185 20149 30092 40228 52011 8807/ 333//
00202=
52889 32967 81102 10137 20103 38496 40148 54000 8807/ 333
05100=
59501 11520 80404 10241 20240 30104 40120 52017 62141 79598
889// 333 00653 73079=
59456 11568 73201 10261 20221 40086 52014 69901 78080 874//
333 00100 70019=
59096 11461 82701 10235 20219 40128 52017 60051 78080 884//
333 00452 70058=
59293 11560 80000 10239 20230 30074 40122 52018 60151 78098
8717/ 333 00553 70206=
59663 11665 80701 10262 20231 30061 40088 52016 69921 72580
884// 333 00251 70002=
59658 32660 70202 10273 20235 40085 52011 875// 333 00101=
59117 32680 40000 10261 20215 30023 40126 52016 81402 333
00501 70038=
59287 11458 80904 10242 20235 30053 40103 52023 60651 78088
889// 333 00254 70779=
50978 32980 02905 10063 21052 30002 40297 52010 333 01052
31042 70001=
50983 32670 13204 10056 21008 40274 52007 81100 333 00701
31030 70014=
50950 32970 02501 10058 21026 40332 52005 333 00953=
50742 32965 22703 10043 21060 40322 52001 80002 333 00651
31031=
50756 32970 02702 10056 21093 30020 40319 52001 333 00801=
53923 11580 81802 10083 20081 40243 52005 60211 76166 8772/
333// 05101 70415=
58737 32980 13601 10248 20221 40158 52010 81040 333 00400
70009=
58731 32570 73601 10230 20193 40172 52012 8114/ 333 00300
70002=
59321 11580 60409 10266 20233 40121 52010 69901 70080 81142
333 00602 70144=
58846 11565 80000 10240 20221 40165 52014 69911 70080 8747/
333 00452 70226=
58725 32980 61403 10262 20207 39903 40154 52012 86040 333
00400 70072=
53588 32980 60909 10054 21067 37899 52001 80002 333 00353=
57504 31950 80401 10210 20190 40147 52010 71000 8807/ 333
00401=
50527 32970 21803 10001 21049 39576 40330 57002 80002 333//
00251 31031=
54511 32680 21605 10163 20048 30269 40308 52033 81102 333
00903=
56666 11465 80000 10193 20187 40126 52011 60201 79598 889//
333 00300 70461=
56475 11480 70000 10172 20167 38358 52008 60031 72588 874//
333 00351 70071=
57405 32965 70000 10207 20188 40156 52011 8703/ 333 00452=
56565 11480 70000 10132 20126 37534 52008 69931 72580 874//
333 00300 70016=
56485 11463 80000 10176 20171 40152 52003 69991 76066 8672/
333 00351 70191=
56479 11256 80000 10150 20145 37973 52002 69911 76080 887//
333 00251 70052=
56671 11680 83601 10170 20162 38234 52011 60021 72580 884//
333 00201 70122=
56294 11457 80000 10194 20186 39582 40169 52012 60051 76066
8277/ 333 00300 70241=
57411 31850 70000 10205 20188 39799 40156 52015 71000 83502
333 00452=
56196 11870 82901 10190 20179 40162 52009 69901 70060 885//
333 00200 70281=
56188 11550 80000 10185 20182 40161 52008 60081 76066 885//
333 00351 70212=
54208 32980 00000 10076 20011 38875 40306 52007 333// 00403
31009=
53195 32980 00908 10082 21055 40279 52002 333// 00455 30031=
53192 32980 00203 10058 21089 39009 40315 54000 333// 00500
31029=
54012 32980 01101 10009 21069 39153 40339 57004 333// 00655=
50915 32980 00000 10011 21128 39338 40349 57001 333// 00657=
54339 32965 00702 10098 21016 40306 52014 333 01260=
58362 32975 60204 10232 20183 30198 40208 52011 84031 333//
00300=
54776 32980 13616 10205 20147 30206 40261 52025 80002 333//
00651 79999 91121 91532=
57144 32670 80000 10153 20143 40228 52007 8157/ 333 00101=
57034 11556 80701 10128 20123 40244 52004 69901 71060 8772/
333 05100 70069=
57232 32980 80903 10171 20137 40223 52009 8807/ 333 00200
79999=
53738 11470 81601 10104 20098 40237 52003 60131 76066 8672/
333 05101 70130=
57106 11461 80000 10133 20129 40207 52003 60031 76060 8672/
333 05101 70108=
57134 32780 80000 10146 20134 40215 52008 8657/ 333 00251
79999=
53929 11562 81403 10088 20086 40248 52005 60081 76166 8772/
333 05101 70311=
53149 32980 00702 10132 21036 38868 40239 52003 333// 00201
30047=
53231 32962 01615 10140 20003 38529 54000 333// 05305 91123
91516=
53336 32980 01401 10117 20019 38794 40237 54000 333// 00002
30020=
53068 32980 00707 10056 21095 39162 40276 54000 333// 00453
30027=
53529 32980 20903 10096 20055 38691 40237 52004 82030 333//
00004=
53276 32980 00000 10104 21004 38957 40257 52003 333// 00201
30028=
53352 32980 01601 10090 21007 40255 52003 333// 00103 30033=
53362 32980 01402 10109 21025 40259 52003 333// 00203 30016=
53083 32980 00704 10058 21114 40308 57002 333// 00554 31016=
53391 32980 00000 10102 21010 38616 40273 52006 333// 00353
31005=
59948 32578 60201 10271 20250 30079 40087 52013 81142 333//
00100=
59838 32962 21401 10269 20255 30071 40085 52010 80002 333//
00151=
54363 32970 00202 10068 21059 40333 52013 333// 00900 31003=
50949 32965 02702 10063 21012 30163 40335 52008 333// 00953
31016=
50948 32970 02702 10075 21016 40340 52011 333// 00952=
54287 32970 01810 11087 21155 37430 52017 333// 00258 91128
91532=
54171 32980 00000 10047 21023 40342 52007 333// 01360=
54292 32980 02504 10075 21049 30101 40320 52011 333// 01251
31018=
54195 32975 03202 10059 21024 40321 52014 333// 01253 31041=
54263 32980 00000 10047 21016 40341 52006 333// 01155=
54276 32960 00000 10032 21038 40340 52009 333// 01153 31047=
54181 32968 01401 10049 21001 40342 52007 333// 01355 31041=
54273 32970 00000 10045 21009 40343 52010 333// 01254=
54284 32970 00202 10036 21096 40331 52015 333// 01058=
54161 32970 02702 10073 21029 30047 40343 52009 333// 01253
31030=
54049 32970 02902 10072 20012 40349 52011 333// 01152 31029=
52765 32980 00000 10032 20026 37230 52006 333 00051 30004=
56029 32680 70000 10042 20036 36566 52006 875// 333 00353
30000 70003=
52955 32980 00000 10042 20038 37030 52004 333 00101 30016
70034=
50246 32980 52203 10007 21072 40283 57007 80002 333 00401=
50774 32960 02703 10038 21062 39998 40306 52003 333 00801
31044=
53882 11963 81402 10095 20079 40281 52006 60031 76066 8802/
333// 00301 70157=
53487 32962 03601 10095 20029 40275 52010 333// 00301 30034=
53564 32961 10000 10114 20081 39262 40259 52004 81030 333//
00102=
53868 11562 83202 10124 20101 40268 52010 60031 76066 8772/
333// 00201 70045=
53863 11956 83601 10115 20088 40274 52010 69901 76000 8807/
333// 00301 79999=
53772 32962 63602 10119 20064 39379 40289 52014 82042 333//
00401 30048=
53663 32980 41801 10133 21043 40253 54000 81032 333// 00107
30026=
53959 11562 80702 10141 20132 39803 40251 52008 60041 76060
8772/ 333// 00002 70208=
53787 32980 70000 10089 20069 40283 52012 86032 333// 00300=
53764 32970 70401 10104 20085 40263 52007 8703/ 333// 00151=
59985 32580 70000 10273 20264 30076 40081 52006 81102 333//
00101=
56691 11361 80904 10141 20123 37819 52006 69911 76060 887//
333// 00251 70001=
57832 11465 80703 10174 20164 40173 52016 69931 76060 887//
333// 00253 70006=
57906 31457 71401 10212 20197 40133 52006 71000 87500 333//
00252=
57932 11564 80000 10223 20197 40143 52012 69901 76060 885//
333// 00251 79999=
50603 32980 02504 10059 21091 39634 40309 57015 333// 00002
31033=
50425 32980 20000 11013 21044 40333 57005 80002 333// 00252=
50548 32980 10000 11011 21074 40325 57004 80002 333// 00654=
50632 32980 70000 10025 21070 39429 40332 57002 82032 333//
00501=
50514 32980 21809 10071 21081 40301 57013 81032 333// 05107
31038=
50434 32980 70701 11031 21079 39432 40345 57008 82032 333//
00301=
54102 32980 00000 10044 21050 39150 40310 57004 333// 00552
31003=
58358 32965 80202 10219 20170 40214 52012 8807/ 333 00300=
58259 32968 70404 10224 20173 40220 52011 8704/ 333 00300=
54527 32965 00406 10189 20112 40297 52026 333 00705=
58667 32675 73607 10230 20184 40173 52017 87500 333 00451=
58472 32480 70215 10235 20183 30092 40187 52008 8684/ 333
00200 91117 91502=
58760 32570 23607 10242 20180 40170 52020 81102 333 00300
70007=
56459 11780 70000 10146 20136 37686 52010 69901 70060 878//
333 00300 70002=
56193 11457 80000 10152 20150 40185 52009 60171 76066 8272/
333 00251 70319=
58141 11960 83603 10184 20160 30224 40241 52013 69901 76000
8807/ 333 00351 79999=
58343 32662 70205 10215 20169 40222 52007 8553/ 333 00300
79999=
58241 32974 73603 10211 20176 40234 52010 86042 333 00451
79999=
58238 32964 70404 10208 20160 30217 40226 52012 8704/ 333
00300=
58040 32960 60203 10191 20119 30248 40252 52014 81042 333
00451=
58345 11966 70202 10212 20174 40226 52013 69901 70060 8707/
333 00300 79999=
54774 32980 10410 10203 20103 40270 52017 80002 333// 00600=
54662 32975 20209 10163 21016 30173 40292 52020 80002 333
00855=
58311 11965 80703 10192 20137 40228 52019 69931 76066 8807/
333// 00452 70003=
54401 32961 03201 10134 20061 39447 40285 52018 333// 00402=
57476 11962 83603 10187 20145 40210 52017 69901 72160 8807/
333 00351 70038=
59626 31556 13602 10260 20229 40092 52017 71000 81140 333//
00100=
57606 31559 80403 10196 20166 40156 52008 71000 885// 333//
00252=
57731 32575 70202 10232 20168 40160 52009 878// 333// 00251=
54534 32975 01103 10164 21001 40314 52024 333// 00904=
59271 11456 80402 10239 20229 40085 52020 60491 78188 889//
333 00000 70512=
59673 32566 70402 10266 20245 40087 52013 879// 333 00252
79999=
50136 32970 61103 11026 21069 39734 40279 57013 80002 333
05152=
58150 32965 80204 10226 20146 30227 40235 52016 8807/ 333
00351=
58138 32960 70204 10201 20169 40236 52012 87040 333 00300=
58251 32968 53602 10214 20171 30223 40229 52012 85040 333
00351=
58265 32580 50206 10237 20154 30206 40218 52011 82440 333
00300=
55591 32680 10000 10086 20046 36572 52014 81400 333 00153
30050=
55585 32780 10000 10076 20026 36442 52010 81100 333 00101
30010=
55493 32780 10000 10023 20013 36091 52009 81400 333 00151
31007 79999=
53513 32970 01602 10124 20053 39052 40230 52003 333// 00001=
56034 32680 30000 11041 21049 36000 52004 82542 333 00355
31042=
52825 32980 01103 10072 20039 37269 54000 333 00053 30011
79999=
56067 32480 70000 10075 20064 36598 57001 875// 333 00100
70049=
52866 32970 10000 10092 20079 37737 52005 80002 333 05100=
52754 32580 13604 10039 20014 36856 52005 81102 333 00151
31003=
58626 32968 60904 10237 20180 40166 52015 86040 333// 00300
70003=
59102 32566 60000 10243 20210 40132 52016 81101 333// 00400
70023=
58813 32965 60402 10241 20219 40152 52014 86060 333// 00351
70025=
57894 11/03 90401 10190 20190 40165 52013 60021 74784 333//
00351 70306=
57799 32662 73405 10232 20211 30070 40151 52016 875// 333//
00300 70019=
57947 11565 80404 10235 20187 40132 52014 69901 72160 888//
333// 00251 79999=
54916 32660 80402 10174 20146 40276 52016 885// 333// 00400
79999=
54823 31940 70904 10162 20128 30078 40281 52014 71000 80002
333 00401 70013=
54909 11360 80403 10160 20155 30203 40265 52012 60041 76060
8272/ 333// 00401 70037=
54715 31909 60403 10146 20132 40278 52014 74244 80002 333//
00500=
54808 11958 80404 10153 20141 40268 52011 69911 71060 8802/
333 00402 70058=
54836 31940 70000 10153 20128 40280 52013 71000 80002 333
00401 70034=
54863 32975 70410 10206 20110 40259 52020 80002 333// 00404
79999=
54753 32970 10406 10203 20103 30273 40279 52023 80002 333//
00600=
54824 31930 70000 10152 20141 40282 52006 71000 80002 333//
00400 70007=
54725 31918 70403 10157 20147 40286 52019 72840 8703/ 333//
00500=
58834 11462 72701 10244 20224 40153 52012 69961 70060 86540
333 00451 70032=
53502 32970 00706 10132 20078 40192 54000 333// 05202=
52495 32970 00909 10115 20052 38713 40187 57004 333// 05304=
52267 32980 01104 10136 20035 39107 40161 52010 333// 05201=
52576 32780 21413 10098 20083 38476 52004 81402 333// 05300
91123 91514=
53602 32680 23601 10110 20074 38465 54000 82500 333// 05101=
59631 31958 13604 10258 20216 40089 52011 71000 80002 333//
00101=
58911 32575 70403 10261 20215 40138 52011 86542 333 00401
70002=
58754 32568 70000 10245 20213 40174 52015 8753/ 333 00351
70022=
58931 11/00 90913 10160 20160 38379 52009 60051 74564 333
00401 70122 91120 91509=
54936 32960 70404 10158 20131 40266 52010 80002 333// 00400=
54852 32965 60206 10202 20130 40264 52014 80002 333// 00404
79999=
53399 32980 01607 10120 20024 40277 52008 333// 00404 30004=
52378 32980 20904 10115 20033 40174 52007 80002 333// 05202=
54871 32980 10407 10218 20114 40259 52022 80002 333// 00503
79999=
57051 11558 80902 10143 20129 40264 52008 60051 76066 8772/
333// 00102 70138=
57067 31957 80000 10139 20121 39579 40248 52002 71000 8807/
333// 00103 79999=
57091 11956 80403 10156 20151 40262 52010 60011 76066 8802/
333// 00302 70015=
57193 32962 80403 10176 20145 40248 52011 8807/ 333// 00302=
58208 11765 70904 10204 20161 40233 52021 69921 72160 8254/
333// 00451 70002=
58005 11960 80403 10163 20147 40253 52010 69901 76060 8802/
333// 00401 79999=
54945 32960 70407 10197 20155 40257 52012 80002 333// 00302=
53519 32770 71403 10111 20090 40230 52004 8253/ 333 05103=
53614 32865 80401 10127 20109 38962 40221 52004 8247/ 333
05103=
53615 32770 70903 10114 20089 40225 52005 82502 333 05102=
53705 11670 80702 10118 20102 40201 52001 69901 72160 8552/
333 05100 79999=
53723 11965 81103 10100 20096 38711 40226 52001 60011 76060
8802/ 333 05102 70013=
53806 11770 81603 10073 20065 38176 52003 69921 70060 885//
333 05151 70002=
53810 11975 81405 10107 20086 40203 57001 69911 72166 8802/
333 05151 70001=
53817 11565 81402 10073 20061 38286 52006 69971 76066 8572/
333 05151 70030=
53903 11680 80902 10080 20076 38112 52004 60031 76066 8372/
333 05151 70027=
54497 32970 00206 10124 21047 30283 40298 52015 333 00953=
58926 11640 40901 10232 20224 40143 52011 69911 71060 84500
333 00400 70207=
57328 32860 70702 10214 20160 39762 40155 52013 875// 333
00351=
58464 32962 73402 10221 20191 40208 52012 85042 333 00300=
58467 32968 70405 10241 20194 40199 52016 8703/ 333 00300=
57143 11958 80000 10136 20129 40245 52008 69901 71060 8802/
333 00102 70002=
53942 11/02 90000 10095 20095 40255 52006 60121 76164 333
00001 70226=
53740 11965 81101 10112 20101 40245 52002 69901 76000 8802/
333 00003 79999=
57037 11930 82501 10115 20113 40248 52007 60011 76066 8802/
333 00001 70206=
57036 11958 80000 10131 20122 39769 40244 52005 69901 71060
8807/ 333 05101 70104=
57046 11/00 92702 10084 20082 38012 52006 60021 74564 333
00103 70059=
52418 32965 70702 10129 20096 38847 40102 52013 85042 333
00202=
52424 32980 10905 10140 20084 40116 52024 80002 333 00202=
53821 11468 81401 10101 20097 40223 57003 60131 76066 8372/
333 05100 70142=
56093 11980 80000 10097 20090 37737 52006 60031 70060 8802/
333 00000 70134=
52674 11762 80000 10091 20087 38026 57002 69921 70060 885//
333 05101 70009=
52546 32965 70000 10094 20088 40119 52011 80002 333 05201=
56074 11980 10000 10053 20040 36730 52007 69901 70080 80002
333 00152 30014 70180=
57006 11559 80000 10093 20089 40224 52004 60101 76166 8772/
333 05100 70150=
54236 32975 03601 10076 21011 30242 40347 52012 333 01257
30013=
54237 32970 00903 10110 21030 40346 52010 333 01255 31008=
54324 32970 00402 10112 21012 40344 52013 333 01153 30043=
54326 32980 00000 10111 20012 40327 52013 333 01054=
58402 32965 80403 10229 20180 40198 52012 8807/ 333 00300
79999=
59218 31958 03202 10218 20206 40119 52010 71000 333// 00151
70014=
56146 11280 70000 10108 20095 36796 52005 60011 72580 84802
333 00103 70017=
56247 11580 70000 10121 20113 37488 52003 60171 72588 8247/
333 00451 70209=
56462 11280 80000 10119 20111 37193 52008 69901 70080 884//
333 00201 79999=
56167 11580 70000 10122 20105 37143 52007 69971 70080 874//
333 00101 70026=
56257 11480 80000 10070 20063 36352 52003 60011 76060 885//
333 00200 70015=
56152 11480 71102 10069 20058 36388 52005 60011 70080 875//
333 00200 70027=
56357 32580 70401 10084 20072 36520 52005 874// 333 00200
70001=
56038 32680 10000 11014 21025 36180 52006 81402 333 00255
31022=
56251 11280 81402 10109 20104 37013 52011 60031 78080 889//
333 00101 70029=
56374 32480 80000 10121 20118 37477 52005 884// 333 00251
79999=
56144 32780 70000 10079 20064 36933 52008 875// 333 00252
79999=
54618 31958 70401 10142 20135 30266 40284 52021 72840 8703/
333// 00651=
54518 32960 00703 10168 20126 40301 52023 333// 00704=
57866 11415 80203 10185 20183 39960 40163 52016 60021 76066
887// 333// 00456 70032=
58407 32965 83601 10234 20162 40190 52013 8807/ 333 00351=
51701 32580 60901 11039 21077 36685 54000 86400 333// 00300
70004 92502=
51705 32780 72503 10089 21053 37864 52005 86962 333// 00452=
51716 11962 70000 10146 20103 38899 40136 52002 69901 70080
82062 333// 00654 79999=
51931 31958 72502 10155 20066 40119 52025 70600 80002 333//
00607=
57494 32960 83601 10219 20160 30169 40197 52017 8807/ 333
00301 79999=
54259 32980 00000 10056 21014 40342 52009 333 01154 31018=
54333 32970 00401 10100 21020 40341 52013 333 01354 30020=
54342 32965 00704 10108 21033 30277 40338 52011 333 01253
30035=
54493 32974 00902 10111 21081 40313 52020 333 01052 30005=
54584 32970 00208 10142 21062 40292 52020 333 00951=
54365 32975 03402 10085 21044 40335 52018 333 01001 30025=
54486 32966 00203 10133 21062 40316 52013 333 01002 10265
20073 30038=
59278 11450 81105 10238 20232 40088 52032 60291 78088 889//
333 00154 70344=
57447 11967 80404 10218 20170 39662 40180 52011 69911 76060
8807/ 333 00351 70001=
54254 32970 00402 10079 20018 40346 52013 333 01257 31001=
57265 31740 80702 10191 20128 30127 40235 52014 70500 885//
333 00300=
57483 32965 83604 10199 20155 30164 40206 52015 8807/ 333
00351 79999=
58715 32978 73202 10226 20197 40156 52016 8704/ 333// 00351
70003=
57071 11950 80403 10139 20134 40266 52013 60041 72166 8802/
333// 00300 70048=
57077 31957 80902 10128 20112 40257 52008 71000 8802/ 333//
00202 79999=
57083 11456 80601 10153 20143 30138 40273 52012 69981 76060
8372/ 333// 00300 70008=
57178 11858 80703 10182 20125 30086 40241 52009 69901 71060
8557/ 333// 00200 79999=
57516 31720 22701 10237 20213 39849 40145 52012 71000 82500
333 00451=
57426 31759 70401 10224 20192 40153 52012 71000 87500 333
00251=
57432 32970 70000 10263 20189 40149 52010 8703/ 333 00202=
57348 11765 81403 10215 20151 40173 52011 69901 76000 885//
333 00352 79999=
57633 11462 83602 10189 20160 39433 40187 52011 69901 72160
887// 333 00352 79999=
51656 32980 50905 10211 21006 39073 40097 52004 80002 333//
00200=
51777 32970 00704 10166 20034 39123 40107 52022 333// 00703=
52118 32980 72508 10073 20020 38316 52005 81032 333// 00203=
52313 32980 70410 10117 20011 38422 52017 86032 333// 00203=
51437 32780 70000 10002 21011 38215 57005 86502 333// 00655
31012 70141=
50936 32970 02901 10076 21066 40341 52004 333// 00951 31049=
54377 32980 00703 10107 21062 40334 52022 333// 01000 30035=
57399 32960 83603 10219 20172 40201 52013 8807/ 333 00351=
58321 11462 81103 10190 20160 40231 52018 60031 76060 887//
333// 00453 70025=
58015 11962 80202 10170 20151 40257 52010 69901 76060 8807/
333// 00400 79999=
51076 32980 03401 10014 20006 39411 40298 52002 333 00958
31033 70014=
51087 32470 83201 10047 20045 39328 40288 52006 886// 333
00953 30041 70027=
51156 32780 20000 10005 21019 38805 40315 52004 82500 333
00857 31020 70044=
51243 32880 72702 10081 20030 39739 40282 52009 85402 333
01057 70010=
51463 32762 73603 10068 20064 39193 40293 57001 86502 333
01054 70030=
52203 32980 20402 10182 20034 39291 40122 52011 82032 333
00301=
51068 32680 20000 10044 20035 40296 54000 81402 333 01056
31011 70033=
51346 32780 61601 10074 20059 40291 52002 82402 333 01056
30046 70046=
51356 32768 70000 10099 20089 40289 52002 86462 333 01000
70025=
52533 32965 62902 10082 20080 38517 40150 52018 82042 333//
05101 30035=
56385 11/00 91603 10094 20094 37075 52009 60011 74564 333
00251 70047=
57237 32965 83404 10177 20138 40195 52010 8807/ 333 00251=
57206 11770 80000 10182 20150 40165 52010 69901 72160 885//
333 00102 70037=
54606 31/01 90402 10132 20132 40283 52019 74340 333// 00651=
53698 32961 60000 10157 20122 40288 52031 80002 333// 00600=
54563 32975 03603 10148 21033 40300 52022 333 00954=
54579 32980 00910 10158 20094 40292 52019 333 00954 91117
91509=
56079 11480 81802 10084 20077 36753 52006 60021 76066 885//
333 00101 70065=
56182 11780 80000 10115 20100 37258 52014 69971 76060 885//
333 00101 70007=
56173 11880 70000 10076 20063 36716 52008 60041 70080 87900
333 00251 70208=
56172 11480 83203 10129 20123 37398 52019 60021 76060 885//
333 00201 70050=
56178 11880 80000 10158 20136 37707 52007 69901 72580 889//
333 00200 79999=
57896 11456 80000 10223 20215 40151 52017 69911 71060 885//
333// 00351 70014=
58634 31658 70405 10230 20181 40180 52015 71000 8254/ 333//
00351 70010=
56793 31557 83601 10189 20161 38511 52011 71000 885// 333//
00300 70036=
57816 32562 70405 10182 20156 38806 40142 52005 878// 333//
00251=
57776 11/00 93608 10138 20138 40170 52013 60051 76064 333//
00251 70178=
57845 11462 80203 10188 20177 40154 52014 60021 76060 887//
333// 00351 70018=
57745 11756 80402 10186 20176 39857 40174 52009 60011 76060
885// 333// 00354 70012=
91631 31498 60710 10310 20254 4//// 71522 82355 333
20258 56199=
91636 11498 89902 10260 20250 4//// 60051 71628 8237/ 333
20245 5619/=
91643 11498 80409 10282 20247 40095 58010 60041 71428 82276 333
20246 56199 82818 84461 88280=
85201 31470 71111 10060 20032 36289 52020 71321 82933
333 10134 56000 58006 81617 81920 87073=
85223 32584 82610 10183 20064 37480 47110 52020 83526
333 10275 56000 58006 83630 85458 86070=
78663 21458 81404 10218 20217 39411 40094 51007 70289 888// 333 003//
10284 20202 32/// 59005 60222 70222 86813=
89054 32560 33015 11013 21018 49745 52015 83500 333 11001
21013 77700 83617=
89056 31760 33118 11010 21014 49767 50012 70132 83030 333
10000 21010 77070 83356=
89057 11460 83414 11004 21012 49760 52008 69911 70272 885//
333 10004 21004 78899 88615=
89058 11360 73420 11008 21015 49766 57017 69901 70070 8263/=
89059 11420 80315 11004 21007 49759 57007 60001 71072 886//
333 10002 21006 71099 88717=
89251 11156 63422 11004 21016 49740 54000 69942 71011 86630
333 10012=
89664 32561 70000 11206 21254 39773 49818 50000 87327
333 11168 21275 56555 83625 84457 87262=
78897 32570 50000 10272 20234 40143 53012 82202
333 022/8 10327 2//// 59004 70002 82823 84076=
88963 11320 83624 11011 21015 39724 49752 57021 60081 77173 886//
333 10002 21011 56899 88707 90092 90290 92425 92803 92912 95090
96036
555 19752 64120 65180=
88968 32465 63210 11050 21064 39967 49982 57012 86600
333 11015 21050 86710 92870 94070
555 19981 64123 65195 D/INV=
89034 32970 00000 11185 21242 39538 49866 52025
333 11093 21209
555 64128 65202=
89053 11958 12725 10000 21011 39753 49766 51007 69901 72273 81070
333 10014 21040 56060 81360 90113 90213 91138 92426 92800 95003
96010
555 64148 65133=
89055 31102 83647 11022 21025 39466 49706 57029 73932 886//
333 11016 21022 56899 88702 92836 92993 96010
555 19694 53658 64120 65090=
89066 31208 80526 1//// 21052 39590 49599 57005 73833 8377/
333 10032 21030 56009 83705 88360 90463 90563 91145 91505 92873
92942 95060
555 50545 64093 65202=
81405 32460 21102 10254 20231 40119 81202
333 10318 58001 81818=
48698 31464 71304 10281 20245 30088 40106 70522 81232 333
20252 59002 81816 87080=
60101 32458 60703 10213 20182 40151 50000 84502
333 84616 84070=
60115 11450 81612 10191 20175 40149 50008 60041 72998 889//
333 84813 85823 81930=
60135 32958 00000 10173 20156 40147 58002=
60155 32956 00000 10195 20171 40143 58001=
60156 32356 22802 10192 20146 40155 52002 82600
333 82710=
60230 32960 02408 10200 20132 40149 51006=
76050 31957 02605 10220 20140 30112 40122 56014 705// 80000
92350 333   10220 20180 30///=
76256 32980 03003 10338 20247 30065 40078 57023 92350 333
10385 20256 30/// 50970 58024 70000=
76405 32680 21803 10362 20251 30064 40085 57014 82360 92345
333   03330 10375 20247 30/// 50960 58010 70000 81933 81456
=
76525 31570 62010 10178 20057 37487 40093 5//// 71522 83505
92345 333   10226 20115 30/// 565/5 58007 70000 83631 82931
=
76612 32862 42902 10255 20171 38441 40053 57005 82230 92350
333   10300 20170 30/// 50300 56110 58008 70000 82833 82358
=
76654 31558 31604 10300 20273 30081 40085 56007 70544 82902
92350 333   069/3 10324 20253 30/// 50530 57911 59002 79999
81920=
76687 32564 61802 10228 20191 38660 40155 57007 85401 92340
333   10250 20120 30/// 50310 565/6 58009 70000 85623 81072
=
76737 01480 40000 10220 20179 38768 40119 56005 60101 70162
81134 92342 333   10272 20132 31/// 50380 56229 57897 58011
60107 70103 81817 91300=
76750 01560 70904 10267 20244 30112 40122 52005 60261 70196
82272 92350 333   02126 10332 20245 32/// 50390 59003 60117
70273 82820 83557 91115=
76843 32565 72902 10279 20215 39497 40132 57013 81244 92345
333   0//99 10327 20214 30/// 50500 59015 70000 81830 83360
83072=
76845 32460 70901 10151 20122 37933 40127 56005 87700 92340
333   10204 20080 30/// 50310 56200 59012 70000 87710=
76848 32470 80505 10179 20149 38362 40099 55004 86570 92340
333   10215 20148 30/// 50310 56190 59021 700000 86613=
60107 32560 53002 10220 20203 40145 53005 85800
333 81816 84626 95300=
60191 32662 12002 10210 20124 40137 50006 81230
333 81830=
60195 12960 0//// 10159 20124 38509 48524 52003 60011=
60210 32960 03612 10259 20150 38955 48502 53007=
60220 32558 10804 10165 20142 40167 51010 81500
333 81626=
60265 32965 02806 10235 20097 38874 48516 50008=
76305 32970 00000 10348 20237 30074 40081 57015 92345 333
10365 20276 30/// 58012 70000=
76499 31558 50000 10283 20227 30101 40122 52005 70544 82220
92345 333   0439/ 10324 20236 31/// 50280 58016 79999 82821
83457=
76640 32256 60902 10304 20286 30111 40123 55005 83366 92340
333   0122/ 10340 20248 30/// 50241 58018 70000 83806 83356
=
76741 31460 83602 10298 20253 30088 40120 52008 70444 822/6
92350 333   028/9 10322 20260 30/// 50830 58015 70000 82820
82280=
78958 31568 50407 10275 20236 30118 40128 70622 83201
333 0/209 10320 20264 58002 83820 84080
61901 36/// /1211 10157 20119 40200 5////=
61902 32582 11110 10226 20183 40164 81100 333 58000 81828=
88889 32982 13015 10045 21003 39907 49992 52016 80002 92350 333
10102 81075=
89009 41459 80705 11604 36735 53005 71022 886//
333 11603 21699 88710=
64210 32459 60000 10245 20181 29067 39773 40124 86500
333 58004 86618 =
61641 32960 32402 10265 20251 30088 40121 80002
333 0//00 59005 83073=
91843 31598 61214 10230 20150 40215 55008 70211 8614/ 333 20201 5639/
86825=
89004 36/// /1512 11228 21260 38788 49882 52005
333 11191 21234 91014 555 90973=
89532 42/70 71505 11180 21206 39764 49791 55002
8707/ 333 11157 21190 92940=
91570 36/// /1108 10288 20203 30148 40151 50001
333 20223 59003=
91574 36/// /1412 10250 20129 30169 40175 57001
333 20211 58001=
91598 36/// /1212 30124
333 59007=
78717 01356 80803 10193 20180 38923 40099 53012 60051 72165 8752/
333 10235 20190 32/// 56899 59018 60057 70082 83706 84620 88460=
76122 01578 53202 10278 20079 38550 40086 57003 69901 71551
81923 92340 333   10316 20138 30/// 50550 56699 58022 69901
79999=
76220 12580 80901 10198 20152 38153 40153 52001 60011 88400
92340 333   10300 20122 30/// 50230 56900 58005 70008 88627
=
76225 32560 83601 10296 20127 38581 40067 57017 83900 92345
333   10334 20190 30/// 50600 56500 58019 79999 83918 83620
82722=
76243 32474 21402 10346 20250 39862 40141 57008 82200 92337
333   10380 20252 30/// 50510 56300 58013 70000 82815=
76258 32580 22208 10366 20217 30042 40083 57014 81101 92330
333   00505 10404 20236 30/// 50810 58016 70000 81827 81075
=
76323 32770 30402 10296 20106 38283 40111 57015 82401 92340
333   10315 20160 30/// 56101 58007 79999 82250 81068=
76342 31562 50202 10320 20184 39427 40096 57005 70210 83230
92330 333   10346 20240 30/// 50810 56330 58014 70000 83820
83357=
76373 32488 50902 10288 20159 38194 40034 57008 84102 92338
333   10324 20104 30/// 50480 56202 58009 70000 84810 81070
=
76577 01570 50000 10206 20188 38032 40068 57006 60061 70266
85200 92340 333   10280 20136 32/// 50130 56100 58007 60067
70194=
76647 32360 81103 10258 20230 30094 40125 52010 8533/ 92350
333   031// 10335 20233 31/// 50331 58000 70003 83910 82810
83358=
76680 31565 33604 10233 20022 37732 40012 55001 70440 82230
92355 333   10260 20129 30/// 50691 56670 57861 59015 70000
82827=
76683 32668 41602 10226 20099 37820 40086 56003 84200 92345
333   10273 20084 30/// 50550 56100 58003 70000 81950 82845
81650=
76698 32560 61201 10293 20249 30115 40126 52008 85205 92350
333   0230/ 10342 20236 31/// 50490 59006 70042 85820=
76775 31565 20404 10235 20137 38494 40081 52000 70544 81101
92330 333   10300 20130 30/// 50500 56909 58004 70000 81824
=
76805 32570 53004 10304 20250 30078 40083 57008 82203 92350
333   00602 10330 20236 30/// 50530 57864 59017 70000 82824
83068=
76903 12682 70000 10305 20253 39989 40122 57022 69901 81430
92335 333   0/210 10318 20237 30/// 50150 59034 79999 81633
86358=
68994 11497 52023 10027 21041 39935 49962 57018 60031 72322 85500
333 10060 20021 91045 555 20026 90996=
89642 42984 61706 11191 21280 39792 49849 51011 80006
333 11174 21212 86273=
76113 32980 02802 10390 20222 39633 40085 57045 92340 333
10422 20206 30/// 50680 58017 70000=
76118 32580 40000 10340 20143 38869 49940 57013 84200 92346
333   10364 20182 30/// 50630 56800 57892 58007 70000 84830
=
76412 31566 32202 10328 20262 30069 40112 57011 70544 83200
92345 333   01300 10355 20220 30/// 50630 58006 70000 83821
=
76548 32475 61203 10298 20259 30094 40124 57004 82274 92351
333   10328 20272 30/// 50780 56225 58016 82813 82357 82067
=
76585 32680 10000 10326 20248 39954 40104 56021 81200 92350
333   022// 10335 20219 30/// 50340 59017 70336 81837=
76675 31570 60501 10176 20100 37370 40039 56002 70544 83334
92350 333   10240 20084 30/// 50390 56119 59006 70000 81926
82826=
76726 31460 51901 10250 20117 38381 40063 55009 70544 84210
92345 333   10273 20116 31/// 50440 56190 59002 70073 84817
=
76855 32580 12503 10300 20271 30034 40058 57012 81200 92340
333   01900 10335 20247 30/// 50590 59010 70000 81820 92001
=
68240 42660 61205 10167 20099 48503 53001 71322 81970=
78714 11564 80306 10230 20212 39679 40114 53006 69926 70255 8422/
333 02199 10250 20216 31/// 58004 70215 84820 88458=
68032 42960 01405 10187 21041 48494 51006=
68040 41660 40715 10209 20075 48490 58007 76022 81980=
17601 31940 00000 10220 20209 30048 40077 58006 74000 92350=
11816 32960 20603 10122 20101 39999 40160 57014 80001
333 55085 82070=
11826 35/79 /1205 10152 20102 39971 40165 57015
333 55076=
11903 32760 70403 10116 20097 39814 40189 57009 87500
333 55057 87650=
11934 32982 02502 10047 20035 39386 42815 56008
333 55087=
11968 32784 10101 10093 20087 39922 40201 57008 81100
333 55101 81850=
11841 37/34 /0000 10065 20058 39812 40189 57011 72000
333 55069=
11858 36/// /1204 10147 20107 30020 40167 57013=
11916 46/// /1810 10025 20024 38002 48504 57009 6///1
333 55001=
11927 36/// /0402 10122 20113 39932 40189 57011
333 55051=
11930 46/// /1903 11023 21065 37404 47091 57009 6///1
333 55112=
11993 36/// /0000 10074 20055 39991 40208 57006
333 55072=
11855 35/81 /0905 10143 20111 30007 40169 57013
333 55080=
11867 35/75 /0503 10124 20096 39865 40176 57013
333 55073=
11880 36/// /2501 10109 20106 30014 40184 57010
333 55062=
11918 36/// /0803 10045 20035 39380 42808 57008
333 55111=
11933 36/// /3202 10047 20034 38669 48518 57007
333 55025=
11938 36/// /2201 10081 20070 39145 42811 57010
333 55028=
11976 36/// /0000 10070 20062 39944 40209 57005
333 55079=
11978 36/// /1701 10079 20078 30070 40200 57007
333 55044=
12772 32970 01202 10115 20094 39917 40199 57009=
12822 32964 21202 10122 20104 30024 40166 56013 81042=
12843 32680 73601 10132 20099 30015 40182 57009 8654/ 333 86643=
12882 32970 00603 10093 20076 30061 40195 57014=
12925 32958 00000 10069 20044 30001 40174 57008=
12942 32975 00601 10119 20088 39937 40181 57007=
12982 32958 10000 10092 20084 30083 40185 56010 80002=
11036 32975 39902 10116 20108 39922 40149 57014 80002 333 83076=
11010 37/59 /2703 10091 20088 39784 40159 57009=
11120 36972 /2702 10095 20082 39469 40164 57004=
11150 35782 /1502 10085 20067 39633 40168 57004=
11240 36/59 /9901 10099 20095 39743 40156 57012=
10004 46/60 /0413 10151 20112 30092 40092 53003
222// 00157
333 55300 91121 91216=
10015 01369 80211 10131 20115 30066 40076 55000 69931 70286 875//
333 31/// 55300 69907 86708 86650 91115 91213=
10020 01565 80308 10118 20107 30050 40085 56008 69951 76166 885//
333 31/// 55/// 20558 55300 69957 88625 91115=
10035 01350 80305 10117 20113 30010 40068 56004 60211 76366 877//
333 3//// 55300 60167 87706=
10055 01550 81302 10123 20121 30062 40072 58001 69941 72162 875//
333 31/// 55300 69907 87623=
10147 01240 82005 10119 20109 30048 40066 52004 60021 71082 876//
333 32/// 55300 69917 86705 87709=
10162 16/47 /1903 10116 20108 39995 40076 53002 69901
333 55300=
10184 11465 61603 10118 20117 30086 40093 55000 60021 70361 83150
333 31/// 55300 83810 86360=
10224 11235 72303 10113 20104 30067 40073 53002 69931 71082 876//
333 31/// 20298 55300 87705=
10270 32570 61903 10120 20111 30041 40095 53001 82550
222// 06144
333 31/// 55300 82630 85358=
10338 11560 72004 10118 20095 30009 40080 54000 69901 70282 8653/
333 31/// 55300 82625 86644=
10361 32768 71703 10112 20095 39995 40097 50000 81578
333 31/// 55300 81650 86359 87273=
10384 01970 51804 10125 20109 30045 40104 55000 60031 70186 85500
333 31/// 55300 69907 85658=
10393 32962 71803 10118 20100 39992 40117 55001 8707/
333 31/// 55/// 20494 30439 55300 20001 30001 84358 87463=
10400 11360 82406 10120 20106 30052 40101 52004 69921 70298 875//
333 31/// 55300 69927 83709 87613=
10438 46/60 /1904 10108 20105 39827 40104 53001 8////
333 3//// 55300 83/13 86/18 87/39=
10469 01872 71703 10120 20106 39944 40106 58003 69921 72162 875//
333 31/// 55300 69927 87657=
10488 01775 81605 10116 20110 39851 40128 58001 60041 76162 8652/
333 32/// 55/// 20494 55300 60047 86650 88463=
10548 01258 82003 10101 20099 39584 40118 55000 60011 72162 886//
333 32/// 55000 20279 55300 20006 60017 88703=
10637 01570 61904 10119 20113 39994 40130 53006 69981 70162 86530
333 32/// 55300 69957 84624 85656 96463=
10685 41465 82005 10098 20088 39465 40129 55000 60021 76062 8572/
333 31/// 553// 85710 88460 96265=
10738 01680 52102 10103 20099 39693 40157 51005 60031 70162 85500
333 32/// 55300 69987 82640 84656=
10763 01457 82103 10112 20104 39767 40144 53002 60051 76366 878//
333 32/// 55/// 20182 55300 20000 60017 81810 83820 87640=
10788 01565 81301 10115 20106 39726 40151 56004 60021 72162 875//
333 32/// 55300 60027 82620 87635 96263=
10852 01765 81804 10105 20095 39599 40161 56001 60081 76396 885//
333 32/// 55300 60077 88656 96265=
10946 01458 81702 10092 20087 39352 40175 53015 60011 78186 885//
333 31/// 55300 60017 83710 87620 96481 96461 96460 96413=
10091 01262 81806 10128 20120 30046 40097 55000 60021 70382 878//
333 32/// 55/// 20536 30517 4//// 55300 20000 30000 69907 83806
86620 91113=
10113 01462 80406 10132 20115 30060 40079 55001 60071 72186 888//
333 32/// 55/// 20298 55300 60067 83814 88640=
10129 01658 70101 10124 20112 30056 40069 53001 69901 72162 875//
222// 20000
333 31/// 55300 69907 87636=
10131 11256 80106 10126 20112 30053 40067 55001 69901 71062 876//
333 31/// 55300 87705=
10170 11758 81503 10116 20107 30066 40080 55000 69911 70262 885//
333 31/// 55/// 20401 55300 88656=
10253 36/60 /1803 10117 20110 30064 40085 53001 87///
333 3//// 55300 81/22 87/36 88/59=
10280 16/59 /1705 10114 20110 39999 40095 53001 69901 8////
333 3//// 55300 83/46 87/56 88/59=
10291 01865 51603 10113 20108 30038 40104 55000 60041 70198 81578
333 32/// 55300 69907 81657 84276=
10305 06/// /2601 10115 20109 30051 40082 53001 69901
333 3//// 55300 69907=
10315 11256 72302 10114 20104 30018 40081 52001 69901 71082 875//
333 32/// 55300 83706 87635 96480=
10385 01775 61804 10123 20100 30045 40105 55000 69901 72182 84530
333 31/// 55300 69907 84656 85358=
10427 01/01 92408 10071 20071 39106 48422 55002 60041 75886
333 32/// 55300 60027 91114 96041 96281 96481=
10453 11/90 92314 10054 20053 38780 48417 50000 69941 74564
333 32/// 55300 91122 91216 96461=
10474 01680 72104 10130 20104 39979 40105 53001 69911 70281 8357/
333 31/// 55/// 20647 55300 20000 69907 83647 87358=
10490 36/59 /1705 10121 20104 39997 40117 57001 8////
333 3//// 55/// 20634 55300 20018 81/50 83/56 87/57=
10499 01660 81704 10119 20112 39847 40130 58001 60021 72162 8252/
333 31/// 55/// 20623 30561 55300 60027 82636 88557 91114=
10501 01340 82505 10115 20098 39867 40111 51004 69921 71082 878//
333 31/// 55300 69917 85809 87656=
10513 32470 62605 10121 20098 39993 40112 53003 86800
333 31/// 55300 83815 86657=
10532 11670 62204 10112 20109 39883 40115 53002 60011 70382 82531
333 31/// 55/// 20350 55300 82638 85361=
10544 11/00 92608 10072 20072 39057 48445 53001 60011 76064
333 31/// 55300 89/00 91114 96045=
10554 01580 82005 10113 20098 39727 40107 58001 60021 70262 878//
333 31/// 55/// 20571 55300 20012 69907 82823 83633 87657=
10577 01662 82105 10106 20096 39630 40125 58003 60021 76362 875//
333 32/// 55/// 20547 30486 55300 20006 30001 60027 83643 87650=
10578 01/00 92310 10052 20050 38750 48452 58003 60091 75864
333 32/// 55/// 20328 30301 55300 20005 30002 60087 91120 91215
96045 96265 96263 96261 96465 96463 96461 96460 96447=
10609 11365 62104 10104 20095 39819 40145 53005 69901 70262 86800
333 31/// 20447 55300 81808 86633=
10655 01575 82306 10110 20101 39806 40129 55000 69961 72166 8557/
333 31/// 55/// 20638 55300 69967 83630 83640 85359=
10688 01465 81803 10104 20099 39619 40136 55003 60031 86162 875//
333 32/// 55300 60017 87616=
10708 01259 82505 10106 20105 39764 40145 51004 60031 70262 878//
333 31/// 55/// 20251 55300 69907 82705 85808 87620=
10729 11560 81804 10117 20108 30018 40138 53003 60031 72162 885//
333 31/// 55/// 20349 55300 69947 88626=
10776 01562 81902 10113 20109 39725 40164 55001 60021 76362 875//
333 32/// 55300 60027 82626 83642 86650=
10803 06/59 /2103 10129 20107 39809 40164 50005 60021 8////
333 3//// 55300 69907 81/16 85/57 88/60=
10836 01/56 82606 10082 20078 39291 40152 53005 60061 72864 887//
333 31/// 55300 60017 88704 91113 96010 96262 96241 96463 96461
96460=
10929 01465 62303 10111 20107 39639 40166 50003 60091 72198 8657/
333 31/// 55/// 20724 55300 60077 82717 85645 96495=
10961 11/82 62510 11031 21032 37081 47053 58003 69911 74174 81572
333 3//// 49150 55300 816// 83315 84065 91118 91212=
10962 11275 82808 10079 20060 39038 48489 53004 60011 76162 885//
333 31/// 55300 69987 82703 88620 91113=
54826 32980 70910 10077
20032 38558 52014 81032 333//
00451 70064=
15280 32998 00000 10028 20025 37562 47118 57005=
15350 32997 00403 10158 20127 30091 40207 57006=
15360 32997 00506 10200 20149 30186 40197 58007 333 92427=
15460 32997 00502 10164 20133 30170 40192 57005=
15480 32997 03607 10183 20183 30186 40201 58005 333 92437=
15004 02997 01402 10081 20073 39883 40220 57006 69921 333 69927
555 60002=
15020 32997 00000 10130 20130 30037 40230 54000=
15090 32597 71101 10146 20119 30092 40215 57008 85508=
15108 32297 72304 10061 20061 38160 48570 58010 87500 333 95150
444 46176=
15120 32998 02102 10100 20088 39715 40208 57009=
15150 32997 40000 10140 20140 39996 40222 54000 84030=
15200 32998 01101 10095 20082 30044 40187 57012=
15260 32597 33400 10116 20108 39669 40197 57012 83300=
15292 32997 00000 10102 20102 39928 40221 58008=
15310 32997 13601 10146 20129 30133 40217 58005 81040=
15346 32997 50000 10180 20164 39921 40199 58003 85070=
15410 32997 00000 10143 20102 30098 40191 57004=
15420 3//// /0602 10156 20141 30074 40182 57015 333 91003 91203=
15450 32997 20506 10166 20166 39963 40194 50001 82040=
15470 32997 00503 10170 20170 30069 40191 57008=
17600 32965 00605 10200 20110 30062 40078 57007=
17609 32360 53103 10209 20169 30077 40079 50001 85600
333 85708=
54587 32980 00713 10159
20025 40219 52004 333//
00654 91122 91540=
11423 01140 82406 10080 20080 39276 42771 58003 60081 76162
887//
333 55002 60025 88702 91011=
11464 11/01 92212 10080 20079 39170 42766 57007 60031 76364
333 55000 89/00 91017 91120=
11487 11682 82401 10107 20091 39541 40153 57003 69951 76162
8252/
333 55017 82633 88556=
11518 11682 81904 10116 20103 39713 40144 58005 69971 76086 8257/
333 55022 82646 86357 88462=
11603 01462 81304 10109 20101 39669 40143 58006 60011 72162
8557/
333 55006 69905 85617 88358=
11659 32465 51105 10102 20091 39529 40159 57012 85500
333 55040 85612=
11782 32970 09901 10084 20076 39862 40176 57007
333 55098=
41170 31950 00702 10295 20277 30041 40054 71000 333 59003=
11101 17/// /0902 10114 20106 39662 40180 60041 7404/=
11022 36/// /0405 10114 20100 39772 40155=
11028 36/// /1701 10083 20080 39812 40154=
11130 36/// /0000 10079 20076 39587 40173=
11157 32968 02502 10069 20059 39402 40165 56005=
11204 36/// /3001 10103 20087 39399 40175=
11231 36/72 /2801 10080 20072 39609 40176 57013=
33317 41999 01202 10105 20082 39903 40237 58006 70181=
33345 42975 70000 10117 20055 30059 40262 57003 80004=
33506 42997 60901 10108 20061 30078 40274 53001 86030=
33587 42965 60000 10096 20068 39978 40240 57005 80001=
33631 42997 02701 10086 20076 30061 40204
57005=
33658 41997 81102 10120 20094 39935 40230 52006 70282 8807/=
33711 42960 70803 10128 20040 30042 40249 53001 87030=
33837 42999 00505 10168 20086 30163 40214 57005=
33910 42998 00912 10152 20098 30185 40203 57006 333 91120=
33946 42959 00704 10135 20075 40184 56005=
34300 42997 09902 10090 20055 30088 40278 57006=
34504 42997 00605 10108 20043 30073 40249 57008=
34519 42960 00705 10096 20025 39982 40256 57002=
34601 42997 00805 10124 20056 40245 55007=
26038 42997 01203 10105 20066 30197 40243 58001   555 10008=
26058 42998 01102 10084 20055 40276 57002=
26115 42598 51303 10136 20115 30204 40218 58002 83502   555 11012=
26135 42397 81103 10113 20073 30167 40246 58006 886//   333 88709
555 10010=
26141 42997 01403 10087 20058 40265 58001=
26231 41597 71303 10134 20086 30232 40241 57003 70282 87500   333
87625   555 11013=
26242 42997 11303 10105 20049 30177 40263 57001 80001   555 10008=
26247 42997 51501 10125 20066 30174 40254 58001 85070   555 10010=
83630 86656=
57001 70000 88/// 92350=
57004 70000 80/// 92351=
17170 32970 00000 10124 20020 38333 48491 57001=
17050 32970 03502 10188 20172 40178 58002=
17060 32960 00509 10219 20188 40165 58005=
17096 32970 00000 10032 21032 38242 48496 51002=
17124 32965 02608 10166 20141 39265 40130 56004=
17128 32970 30000 10156 20069 39077 40108 58006 83030 333 83360=
17195 32970 00105 10100 21030 38975 48526 56002=
17200 32970 02403 10172 20023 39165 40088 52003=
17219 32965 03516 10230 20150 40123 57008=
17240 32975 00000 10145 20038 39018 40099 58004=
17244 32970 03611 10181 21007 38989 48525 56001=
17280 32970 03207 10192 21015 39311 40046 54000=
17350 32960 00106 10196 20183 40083 57004=
17084 32970 00403 10142 20098 39272 40129 54000=
17160 32970 02003 10174 20092 39030 48535 54000=
17210 32975 01102 10212 20081 39093 40051 53003=
17034 32670 31302 10204 20147 40164 54000 83200 333
83835 92428=
17098 32970 00606 10050 20034 38230 48523 54000=
17150 32960 03508 10207 20114 40147 57006=
17184 32970 03407 10220 20174 40127 57006=
17190 32970 03603 10160 20099 39021 48520 58003 555
10108=
17234 32970 00000 10217 20154 40104 58003=
17260 32970 00000 10358 20058 39291 40048 54000=
17290 32970 00000 10268 20185 40101 58009 333
92408=
17370 32665 22301 10260 20202 40084 57003 82200
333 82835 92417=
17116 32965 00000 10177 20143 40160 58004=
17202 32970 00000 10138 21032 39118 40096 52005=
17330 32970 03202 10220 20180 40087 54000=
17024 32970 02110 10188 20158 40165 57007 333 92438=
17056 32970 30205 10212 20194 40174 58010 83030 333
83360 92428=
17092 32970 00803 10130 20096 38855 48514 53003=
17112 32970 00506 10216 20188 40159 57007 333
92418=
17115 32660 30413 10220 20160 40156 57010 83100 333 83835=
17248 32975 01401 10128 20048 38968 48510 54000=
17300 32970 03406 10230 20185 40076 58006=
17205 32980 00000 10120 20067 38330 48496 54000 333 92418=
17100 32970 02903 10134 20059 39192 40146 52009=
17140 32965 01103 10146 20074 38719 48518 57004=
17203 32970 03103 10178 20009 38878 48559 54000=
17237 32970 02905 10230 20145 40115 51001=
17250 32975 00404 10143 20019 38806 48514 57004=
17255 32970 00000 10210 20157 39438 40060 51010=
17270 32970 03303 10230 20096 39450 40043 54000=
17375 32975 01501 10220 20120 40074 58003 333
92408=
71805 43/// /2210 10123 20099 30288 40316 53004=
11406 01459 89902 10116 20108 39563 40136 55002 60061 76186
8657/
333 55001 60025 86610 88358=
11457 01280 82504 10073 20062 38876 48482 56006 69921 72186
8367/
333 55011 69915 83704 88458=
11636 32965 00702 10103 20094 39485 42783 57015
333 55024=
11679 32960 31303 10122 20101 39679 40155 57010 83030
333 55047 83360=
11723 32965 20803 10116 20093 39867 40160 57014 82030
333 55035 82359=
11766 32565 71904 10100 20084 39295 42794 57010 87500
333 55053 87626=
11774 32975 11301 10126 20094 39897 40165 57012 81031
333 55094 81360=
11787 32982 11613 10067 20066 38676 48497 57011 80001
333 55077 81070=
26313 42997 01804 10118 20096 30213 40220 57004 333 91111=
26348 42999 81102 10107 20059 30087 40261 52003 8802/=
26406 41959 01102 10118 20110 30193 40199 57004 71000=
26416 42465 81404 10114 20099 30078 40216 57008 885// 333 88715=
26422 42497 81704 10126 20099 30210 40231 57002 885// 333 88613=
26544 42961 61202 10117 20068 30107 40258 58002 86030=
36982 429// 50000 10101 21118 36570 47155 54000 85050=
38345 42998 00000 11003 21021 38862 48548 57002 555 10103=
38353 429// 00000 10048 21012 39378 40285 53002=
12465 31958 61101 10105 20096 39942 40172 57005 71011 8603/=
12560 31998 30000 10088 20084 39842 40186 57004 71111 81032=
51581 16/// /1601 11043 29090 35650 69931
555 1/128 2//00 /////=
12120 11497 61203 10131 20117 30129 40136 57008 69981 70182 863//=
12250 32597 51602 10130 20099 30070 40157 55002 85500=
12330 32660 51602 10130 20107 30034 40140 58001 83530=
12375 32970 01103 10098 20092 30055 40185 57008 =
12424 11980 81602 10129 20106 30001 40151 57005 69901 72122 8807/=
12105 11997 71402 10130 20116 30081 40122 56003 69971 70186 8703/=
12135 32497 71606 10143 20124 30148 40151 57008 872//
333 91113=
12195 31558 31202 10111 20102 39985 40210 58003 71011 83500=
12235 11497 51603 10127 20104 39934 40140 56004 60021 70182 85500=
12270 31940 31403 10111 20094 39998 40178 57006 71011 80008=
12300 31956 71801 10109 20100 30035 40124 56001 71011 80008=
12360 32997 41403 10114 20094 30039 40171 57006 80008=
12385 31996 01203 10110 20101 30012 40200 55001 71000 =
12400 32565 71902 10117 20106 39904 40135 57003 875//=
12435 31556 71602 10128 20105 39988 40157 58002 71022 8455/=
12495 32997 01102 10098 20087 39907 40197 57006 =
12510 11/90 90106 10042 20042 38348 48467 57006 60011 74586=
12520 11680 71505 10128 20099 39728 40152 57010 69901 70181 83578=
12570 31996 00401 10078 20070 39871 40188 57004 74000 =
48004 21460 70000 10249 20249 70265 87900 333 20200 56590=
48008 32556 50000 10248 20233 40091 83937 333 20230 56550 58008=
48010 21110 80000 10245 20245 40080 74444 85600 333 20214 56400
58008=
48019 21450 70000 10245 20240 40089 84730 333 20240 56440 58003=
48025 32440 52701 10249 20242 40082 83830 333 20244 56440 59019=
48035 31456 80000 10227 20214 40052 75055 8597/ 333 20220 56289
58000=
48037 22457 30000 10270 20256 40064 84562 333 20266 56499 58009=
48042 21556 70000 10270 20256 40078 70366 84970 333 20260 56440
58013=
48045 32158 70000 10187 20175 87700 333 20185 56300=
48048 32558 30000 10262 20246 40081 82831 333 20232 56409 58000=
48053 32450 81801 10270 20256 40074 8575/ 333 20261 56499 58006=
48062 32454 60501 10260 20260 40062 74244 84830 333 20250 56990
59004=
48077 32558 80000 10262 20246 40080 84970 333 20260 56490 58009=
48094 32456 40000 10250 20243 40078 70322 82970 333 20195 56690
59002=
48096 31450 71405 10260 20246 40084 71022 84930 333 20235 56990
58007=
48097 21457 80000 10255 20248 40099 70522 8597/ 333 20233 5659/
58015=
48108 22595 82201 10235 20235 40096 84467 333 20181 56599 59001=
48112 32598 80901 10250 20235 40092 82816 333 20244 56599 59008=
16734 32570 13608 10234 20123 30080 40142 57011 81100 333 90730 91110
555 40000 47599 44260 50000 50170=
16641 32460 42803 10204 20139 30147 40153 57013 82250 333 82818 84358
90730 91106 555 40000 47643 44232 50000 50166=
16682 32960 0//// 10184 20157 30131 40150 58009 333
90730 911// 555 40000 47639 44280 50000 50164=
16716 32560 10000 10224 20162 30127 40145 56006 81040 555 40000 47629
44230 50000 50186=
16749 32960 02310 10250 20190 30077 40090 56004 333 90730 91115 555
40000 47593 44240 50000 50214=
16754 32965 00000 10216 20153 30086 40131 57012 333 90730 91105 555
40000 47603 44255 50000 50178=
16650 32960 00410 10226 20185 30145 40149 58006
333 90730 91114 555 40000 47645 44265 50000 50200=
16746 31250 20000 10218 20203 39960 40137 58010 71000 82600 333
90730 91106 555 40000 47511 44275 50000 50208 70000 77Y// 7/Y//=
16627 32560 30000 10210 20178 30160 40164 51004 82200 333 90730 91108
555 40000 47654 44245 50000 50190=
16667 32965 00000 10224 20186 30131 40137 56005 333 90730 91106 555
40000 47636 44270 50000 50200=
81100 22224 00190 2//// 3//// 80155=
82493 22244 00298 21001 3////=
80210=
85442 22223 00228 20505 325// 4//// 5//// 6//// 80228 ICE /////=
55690 31/06 90000 10027 20023 36056 52007 74740 333 00251
30025 79999=
55681 42680 70000 10040 20021 35968 52006 875// 333 00151
30005=
56307 42880 70000 10112 20097 36908 52011 8544/ 333 00200=
55696 11580 70000 10078 20053 36409 52007 69901 72160 85840
333 00202 79999=
57461 11958 82701 10199 20180 30058 40216 52009 60021 71060
8807/ 333 00452 70020=
59294 11561 83604 10236 20229 30075 40119 52025 60431 79598
889// 333 00353 70730=
57965 11459 80203 10202 20189 40146 52016 60021 76060 885//
333// 00355 70025=
57671 32962 83604 10200 20162 40182 52017 8802/ 333// 00300
70003=
57874 11750 82702 10185 20180 40160 52014 60011 76066 885//
333// 00456 70131=
57766 11459 83602 10190 20176 40171 52014 69961 76060 885//
333// 00355 70006=
57562 11465 83605 10197 20159 40200 52013 69901 72100 885//
333// 00352 70004=
57687 11330 83202 10192 20177 30097 40176 52016 69941 76060
8772/ 333// 00352 70023=
57655 11458 80702 10205 20164 40183 52009 69901 76000 8272/
333// 00353 79999=
57682 11962 80000 10222 20189 40167 52011 69901 70060 8807/
333// 00351 70141=
57669 11750 80901 10188 20178 40196 52013 69911 76060 8557/
333// 00353 70036=
57574 32962 83604 10196 20161 40188 52014 8807/ 333// 00300
70009=
57774 11440 80203 10186 20176 40166 52014 60021 76060 887//
333// 00354 70027=
57853 11430 80000 10182 20176 40173 52011 60061 76066 887//
333// 00355 70083=
57554 32664 80404 10207 20158 40194 52006 885// 333// 00351
79999=
54436 32980 00202 10144 20003 40330 52018 333// 00903=
54311 32975 10000 10065 20012 40332 52007 81030 333// 00700
30023=
53963 11556 83603 10120 20113 40264 52007 60051 76066 8272/
333// 00100 70121=
57458 11660 83404 10176 20158 40209 52011 69901 70060 885//
333 00352 70003=
56125 32780 70000 10058 20047 36590 52008 87500 333 00252
30032 70001=
52974 32670 70000 10102 20095 37569 52004 875// 333 00000
70051=
52876 32962 80000 10125 20109 38203 57002 8801/ 333 05201=
56033 31908 00000 11006 21008 36108 52007 74600 333 00255
31025 79999=
52707 32980 30000 10057 20008 37258 52004 80002 333 05254
31018=
53975 11956 82501 10116 20109 40275 52012 60061 76066 8802/
333 00301 70176=
54751 32970 00407 10201 20116 40282 52027 333// 00700=
52996 11/00 91402 10049 20049 37608 52003 60011 76054 333
05151 70024=
52446 32880 70705 10127 20084 40137 52012 87500 333 05202=
52787 31/01 91805 10042 20042 37070 52002 74544 333 05101
30047=
54405 32960 00904 10164 20092 40287 52020 333// 00605=
53798 31950 20000 10154 20143 30192 40285 52024 71040 82030
333// 00601=
54449 32965 40708 10157 21007 40327 52021 80002 333// 01100=
57378 11958 83405 10172 20148 40221 52010 60031 76060 8807/
333 00351 70026=
56741 11/70 82201 10172 20167 38206 52013 60371 76064 8272/
333// 00201 70401=
59007 32665 70702 10195 20167 40130 52010 8653/ 333// 00201=
57251 11958 82201 10177 20170 40235 52009 69901 76000 8807/
333 00202 70001=
51467 32980 50000 10075 20007 38300 52003 80002 333// 00553=
51526 32980 10000 10119 20025 40146 52011 80002 333// 00402=
51542 32575 80000 11010 21031 37628 57001 885// 333// 00653
31018 70003=
51567 32780 20000 10095 20065 40140 52010 81402 333// 00351=
51642 32765 70000 10184 20048 40111 52012 86402 333// 00403=
53986 11920 80702 10154 20149 40267 52010 60061 76160 8802/
333// 00301 70066=
57089 31656 80406 10168 20144 40253 52012 71000 885// 333//
00301=
56021 32580 30000 10006 20000 36161 52003 81142 333 00300
31010 70001=
56043 31/05 90000 10002 20000 36533 52003 74740 333 00256
30010 70012=
56004 32980 00901 10000 21015 35896 57002 333 00152 31030
79999=
53593 32980 12003 10140 20042 40275 52012 81030 333// 00403
30044=
59303 11562 73602 10246 20216 40125 52014 69901 70080 874//
333 00551 70108=
57259 32963 80904 10171 20120 40233 52013 8807/ 333 00201=
57279 11961 80203 10178 20145 40232 52011 69901 76060 8807/
333 00300 79999=
52681 32980 70904 10109 20084 38651 40170 52004 87032 333
05100=
52679 11660 80902 10109 20098 38475 57002 69901 75000 886//
333 05201 79999=
52984 11962 70000 10116 20113 38101 57002 69901 70060 80002
333 05101 70001=
52661 32980 01102 10110 20082 38221 52002 333 05202=
52983 32970 70000 10104 20089 38143 52004 8703/ 333 05151=
52447 32970 10000 10080 20076 40155 52019 80002 333 05100
30047=
52895 32980 81604 10134 20100 40157 54000 8803/ 333 05200=
52986 32780 70000 10113 20093 38143 52001 875// 333 00000=
52436 32970 81103 10099 20088 38474 40141 52028 83037 333
00103=
51804 11580 80902 10038 20008 37038 52007 69901 70080 889//
333// 00300 30030 79999=
51711 32980 82502 10081 20016 38038 52002 8802/ 333 00300
70030=
57545 32762 80000 10209 20171 40177 52011 8757/ 333 00300=
53754 32961 81401 10126 20122 40250 52007 8807/ 333 00102=
52856 32780 30201 10076 20067 37262 52007 83500 333 00101
30032 79999=
52908 32680 10000 11006 21021 35841 52002 81500 333 00151
31023 79999=
52836 32980 01103 10091 20027 36934 54000 333 00101 30013=
56018 32480 21802 10020 20008 36260 52007 81602 333 00252
30003=
56046 31/02 90000 10007 20007 36343 52006 74700 333 00256
31011 70002=
52833 32980 03602 10087 20061 37126 52001 333 00002 30031
70003=
52868 32775 70000 10111 20099 37805 52003 875// 333 00001
79999=
57707 31459 81102 10169 20138 38525 52006 71000 885// 333//
00352 79999=
59640 11965 63601 10267 20231 30074 40085 52010 69902 7008/
86032 333// 00151 10340 20264 79999 555// 50295 70017 80290=
57355 11762 80704 10182 20169 40200 52019 69961 72160 8557/
333 00455 70006=
54346 32970 00405 10108 21064 40320 52004 333 01000 30040=
54455 32975 00402 10136 21010 40331 52018 333 01253=
53853 11961 80000 10101 20099 40260 52009 60021 76066 8802/
333// 00101 70023=
57385 11460 80204 10186 20164 40213 52013 60011 76060 8657/
333 00352 70011=
57598 32762 70201 10231 20179 40180 52012 8553/ 333// 00300
70015=
54705 31/04 90702 10131 20129 40284 52019 74344 333// 00552=
52323 32980 73408 10066 20017 38263 52008 83042 333 00101
30042=
57583 32963 80202 10233 20161 40191 52014 8807/ 333 00301=
51288 11565 70201 10009 20004 38412 54000 69901 70060 875//
333 00759 31004 70003=
51573 31/30 90000 10198 20088 30110 40151 52023 70600 333
00652=
51644 11670 83603 10186 20033 38927 40116 52014 69901 78000
889// 333 00451 79999=
51379 32770 82902 10087 20060 40279 57002 884// 333 01001
79999=
51730 32770 60000 10123 20097 40129 52010 82542 333 00552=
51477 32675 73210 10075 21002 40255 52001 84502 333 00601
91119 91529=
51633 11670 70000 10104 20085 40151 52008 69901 72580 86962
333 00553 79999=
56312 11480 80000 10120 20113 37129 52004 60021 70080 884//
333// 00201 70035=
56227 31578 60000 10110 20100 37364 52005 71400 86900 333
00200 70003=
56434 11480 72201 10158 20142 37711 52013 69911 70060 878//
333// 00200 70001=
56317 41475 70000 10114 20097 37180 52003 70080 874// 333
00201 70015=
55664 32980 10000 11004 21022 36075 52010 80001 333// 00151=
55572 42780 10000 10053 20018 36300 52013 81100 333// 00201
30011=
55578 32980 00000 10057 20028 36422 52010 333// 00201 30029=
55680 32980 00000 10050 20015 36294 52011 333// 00201 30010=
55773 32670 70000 11014 21018 36075 52002 87400 333// 00254
31025 70015=
55655 32980 20000 10031 20015 36534 52003 80002 333// 00102
31005=
55569 32980 02003 10061 21047 36287 52010 333// 00200 30011=
54308 32680 70000 10074 20025 40320 52019 875// 333// 00600
30040=
54624 32963 20909 10209 20106 40294 52022 80002 333// 00606=
52797 32980 70000 10110 20092 38381 52004 8704/ 333 05101=
50838 32980 20000 10047 21049 40343 52006 80001 333// 00852
31040=
54857 31950 83604 10182 20140 30169 40259 52011 71000 80007
333// 00400 70002=
51765 32980 31803 10130 20055 39173 40122 52020 81032 333//
00555=
51495 32680 73623 10138 20031 40243 52005 81102 333// 00453
91136 91536=
52101 32780 72906 10063 20023 38421 57005 86902 333// 00501=
51855 32970 00000 10112 20071 40112 52008 333// 00603=
56994 11462 70000 10191 20176 40118 52008 60051 70080 874//
333// 00251 70151=
56137 32480 60000 10069 20060 36877 52012 86500 333// 00353
30048 79999=
56116 32680 20000 10059 20046 36409 52008 82400 333// 00251
30027 79999=
56223 11680 50000 10060 20045 36595 52011 69911 70060 85500
333// 00353 70005=
56331 11580 40000 10064 20055 36473 57002 60011 70080 82402
333// 00102 70141=
54429 32970 70000 10159 20074 40311 52020 87032 333// 00901=
52818 32980 01102 10083 21008 37232 57001 333 05254 31018=
52943 32680 70000 10068 20068 36867 52008 85502 333 00201
30020 70052=
52713 32980 13402 10051 21029 36935 57003 80002 333 05100
31003=
56151 32480 70000 10053 20045 36700 52010 81602 333 00353
30040 70090=
50618 32980 11803 10022 21058 40339 57005 80002 333// 00251
31032=
50639 32980 20000 10028 21083 40331 57002 80002 333// 00653=
52737 32980 00903 10100 20013 37115 57001 333 00100 30043=
52602 32980 60000 10090 21021 37271 52002 81042 333 05105
30043=
56065 31970 80000 10048 20046 36692 52006 72840 80007 333
00151 30020 70053=
52645 32980 00000 11005 21012 36859 52007 333 00100 31010
79999=
52633 32980 01601 10017 20000 36811 52005 333 00102 31008=
52657 32980 01401 10036 20019 37310 52003 333 00000 31006
79999=
54423 32680 73401 10115 20055 39864 40328 52015 875// 333//
00804=
51186 32980 30000 10043 20024 40265 52005 80002 333 00755
31005 70036=
51232 32780 40000 10096 20052 40302 52006 81532 333 00951
70034=
51053 32980 01601 10033 20018 40297 52001 333 01055 31013
79999=
51720 11580 72203 10155 20074 40135 52002 69901 78080 879//
333 00600 79999=
51059 32980 11804 10028 21017 40302 54000 80002 333 00856
31018 79999=
54539 32975 00907 10169 20043 30299 40313 52020 333// 00903=
91925 32580 31008 10283 20208 30059 40118 56016 83200
333 20220 56200 58008 83828
555 11023=
91938 31587 41914 10284 20222 30146 40149 56015 71511 82232
333 20222 56399 58012 82820 83080
555 12016=
91943 12575 31310 10290 20227 30132 40135 56018 69944 83800
333 20257 56300 59002 83820
555 11316=
91944 36/// /0610 10277 20226 30144 40150 56013
333 20251 59002
555 1//16=
91948 12580 70206 10237 20216 30054 40156 56015 60154 86851
333 20210 56199 59020 85820
555 10417=
91954 12581 21910 10218 20121 30196 40200 58013 69944 81201
333 20174 56405 58013 81820
555 12323=
91958 32580 33017 10196 20116 30164 40166 56022 83800
333 20117 56600 59034 82823
555 13035=
60020 32570 30000 10236 20215 30133 40177 50003 83500
333 924/7=
60030 32560 20000 10233 20181 30113 40167 51002 82500
333 924/6=
13585 42697 80000 10166 20076 39404 40171 57011 885//=
13598 42998 00000 10073 20062 48518 51003=
71865 36/64 /29// 10136 20078 39480 40149 53010 333 10150 20099
70222=
71866 36964 03112 10161 20044 39547 40148 53007 333 10179 20111
70030=
71867 11374 72810 10110 20100 39770 40097 51019 60031 76186
87600 333 10174 20107 70036 90916=
71868 36564 82608 10125 20085 39690 40121 53014 333 10134 20103
70140=
71869 32674 43206 10152 20055 39624 40138 52006 82230 333 10153 20099
79999=
71870 36964 03308 10156 20013 39215 40170 51001 333 10175 20065
70015=
71872 32783 82402 10186 20025 39315 40156 56009 83572 333 10209 20036
70000=
71874 36964 33411 10181 20028 39081 40161 55001 333 10196 21008
70000=
71876 32774 53312 10159 20035 39499 40150 53005 83501 333
10178 20100 70012=
71877 32686 72208 10143 20038 38913 40171 54000 81171 333
10162 20028 79999=
71878 32774 70000 10157 20006 39104 40163 56005 81171 333 10172 20035
70000=
71879 17764 32606 10146 20018 39363 40158 55001 69951 7//4/ 333
10161 20030 70005=
71881 36964 62403 10131 20006 39075 40165 56005 333 10144 21020
70000=
71882 37964 01404 10119 20102 39664 40195 56003 743// 333 10130
20076 70000=
71887 11683 71012 10153 20080 39745 40159 57026 69901 70262 86570
333 10161 20099 7999 90952=
71889 11874 80309 10159 20089 39755 40166 58012 69901 70282 8807/
333 10174 20101 79999 90921=
71891 17964 3//// 10179 20060 39876 40148 56019 69951 7//4/ 333
10184 20117 70005=
71892 32683 82604 10157 20118 30154 40159 57016 8117/ 333 10171 20118
70002=
71397 32974 81706 10155 20091 30242 40276 53005 83702 333
10229 20030 70000=
71398 36/64 /1403 10135 20099 30240 40290 50003 333 10212 20003
70000=
71410 36/64 /1710 10158 20092 30251 40279 53002 333 10205 20042
70000=
71411 36/64 /1410 10156 20101 30277 40287 56004 333 10194 20075
70000=
71412 36/// ///16 10166 20137 30264 40277 56003 333 10172 20125
70000=
71430 17/64 /2011 10192 20192 30027 40121 53013 69921 7//4/ 333
10212 20186 70006=
71431 36/// /2411 10198 20164 30027 40119 51009 333 10213 20189
70056=
71432 36/64 /2205 10190 20145 30025 40119 51011 333 10225 20189
70034=
71435 36/// /0903 10107 20066 39567 40155 333 10184 20031 70000=
71436 36/// /1807 10159 20130 39753 40102 51012 333 10198 20158
70084=
71441 17/// /0803 10150 20147 39812 40113 50000 60031 7//4/ 333
10152 20115 70106=
71443 36/64 /2806 10135 20082 39727 40130 51024 333 10180 20116
70140=
71538 32974 52611 10192 20080 39898 40123 51011 85070 333
10215 20161 70000=
71600 36564 31410 10154 20114 30294 40300 53002 333 10170 20062
70000=
71601 32574 61504 10148 20099 30226 40289 55001 82101 333
10192 20077 70000=
71930 32774 21503 10154 20008 39231 40153 56005 82170 333 10166 20010
70000=
71931 36/64 /2506 10151 20041 39475 40150 56005 333 10151 20049
70000=
71932 17664 80000 10122 20056 39692 40140 55003 69951 7//4/ 333
10135 20070 70080=
71933 17464 80805 10064 20054 39860 40147 53005 60061 7//4/ 333
10070 20057 70060=
71934 11358 80502 10050 20044 39898 40153 52004 60081 76166
885// 333 10063 20049 70191 90983=
71935 11366 81005 10064 20045 39946 40152 53004 69931 76166
887// 333 10074 20048 70026 90983=
71936 32674 70903 10083 20002 39902 40169 55000 82571 333 10086 20017
70000=
71938 11574 70910 10016 21025 30211 40240 51002 69901 70287
87500 333 10025 21001 79999 90955=
71940 32782 42606 10162 20007 39351 40146 56008 82101 333 10166 20008
70000=
71943 32774 30605 10136 20027 39319 40144 57010 81501 333 10142 21005
70000=
71944 36764 31405 10124 20041 39330 40150 58014 333 10141 20025
70000=
71946 11574 81201 10082 20050 39948 40159 58001 69901 70265
885// 333 10083 20040 70018 90953=
71948 46964 01021 10019 30079 40191 58007 333 10021 21004=
71950 32780 81903 10145 20046 39487 40105 57028 8457/ 333 10154 20038
79999=
71957 179// 01412 10093 20003 30025 40112 56010 69951 7//4/ 333
10101 21039 70010=
71958 36664 32802 10107 20047 39182 40107 56015 333 10114 20007
70020=
71964 32686 71512 10116 20020 39254 40094 58017 82231 333 10119 20030
70000=
71968 469// 01015 10065 30033 40096 56010 333 10068 21055=
71893 32580 81805 10154 20100 30121 40152 57022 81571 333
10166 20110 70026=
71896 11789 61106 10143 20048 39326 40145 58023 69901 70182 83571
333 10159 20026 79999 90940=
71897 11462 80913 10114 20112 30071 40102 57026 60081 763// 8682/
333
10124 20108 70136 90999=
71898 17561 62102 10111 20103 30037 40080 58032 60041 7434/ 333
10123 20101 70120=
71899 11366 80712 10112 20108 39999 40048 57034 60051 76162 885//
333
10115 20089 70080 90926=
71905 32574 10409 10059 20015 30208 40221 51007 81571 333 10094 20059
70008=
71909 17664 60416 10034 21005 30027 40069 51038 60021 7//4/ 333
10044 20020 70070=
71910 36364 82814 10008 21011 30078 40142 51018 333 10054 20007
70050=
71911 46664 33605 11049 30099 40155 51015 333 11033 21053=
71912 32974 70908 10105 20050 39947 40128 57023 80007 333
10125 20033 70024=
71913 17464 80916 10043 20036 30121 40157 58030 69951 7434/ 333
10069 20037 70005=
71915 32674 82807 10016 21031 30074 40156 57005 88500 333
10029 21004 70000=
71917 32586 11304 11132 21150 30219 40233 53004 81570 333
11110 21141 79999=
71922 11574 73007 10097 20066 39674 40134 52011 69901 70285 87500
333 10098 20069 70342 90936=
71924 31466 40428 11072 21090 30115 40204 53007 73611 81641
333 11031 21076 70006=
71925 11469 73510 10004 21022 30180 40216 53016 69901 70287
87500 333 10009 21044 79999 90926=
71926 11580 43209 11005 21071 30165 40188 53006 69901 70187
84500 333 10047 21018 79999 90965=
71928 36/64 /0000 10132 20012 39015 40165 56003 333 10136 20020
70000=
71603 32974 81205 10143 20123 30215 40268 51001 83071 333
10200 20060 70000=
71607 36/// /2301 10145 20097 30237 40269 53001 333 10189 20034
70000=
71609 32974 71802 10122 20086 30139 40273 53001 80001 333 10186 20087
70000=
71610 36564 31207 10156 20128 39897 40187 58004 333 10193 20099
70005=
71621 32974 21703 10179 20165 30015 40118 53010 82070 333
10231 20172 70110=
71623 11774 82806 10183 20099 39788 40116 52013 69901 70282 885//
333 10200 20164 70178 90930=
71624 11769 82209 10186 20119 39904 40110 51008 60011 70182
8157/ 333 10220 20169 70118 90926=
71625 17961 01406 10187 20167 39945 40101 53007 69951 7//4/ 333
10217 20159 70070=
71627 17648 81612 10182 20172 30099 40142 50000 60041 7//4/ 333
10205 20170 70050=
71628 11562 81607 10181 20170 39989 40126 53002 69961 72182
8757/ 333 10190 20150 70120 90926=
71630 11566 81606 10158 20150 39766 40100 52009 69961 78082
8757/ 333 10202 20156 70194 90946=
71631 17/64 /2212 10133 20133 39615 40103 51010 60021 7//4/ 333
10161 20133 70090=
71633 11416 81710 10147 20140 39812 40076 50003 60021 76152
885// 333 10175 20146 70074 90936=
71700 32974 81907 10147 20094 30239 40264 53005 86071 333 10208 20039
70000=
71706 32974 71506 10150 20090 30216 40276 53002 82042 333 10198 21002
70000=
71707 32974 41905 10110 20075 30224 40301 53005 80001 333 10194 20020
70000=
71709 32974 71707 10141 20087 30265 40278 55003 85072 333 10167 20057
70000=
71711 32774 80000 10115 20097 30192 40242 58002 82576 333 10132 20027
70000=
71714 17/// /0607 10141 20140 30103 40194 55000 60051 7//4/ 333
10162 20110 70050=
71715 17/64 /1901 10140 20120 30026 40207 53001 69981 7//4/ 333
10158 20080 70008=
71718 11874 81616 10145 20101 30144 40209 58012 69921 70262 8807/
333 10160 20069 70008 90935=
71719 36/// /1707 10150 20125 30245 40251 55003 333 10184 20033
70000=
71816 11774 82506 10150 20055 30142 40202 52006 69901 72511
8657/ 333 10190 20040 79999 90910=
71817 36964 02412 10110 20045 30201 40215 51006 333 10184 20032
70000=
71818 32574 32208 10118 20042 30173 40191 52005 82501 333
10183 20064 70000=
71821 17233 81104 10153 20150 39774 40111 51005 60061 7434/ 333
10155 20113 70230=
71822 17164 81405 10128 20121 39676 40142 50003 60061 7//4/ 333
10128 20096 70150=
71825 11256 80603 10077 20077 39550 40217 55002 60021 76186 887//
333 10101 20016 70024 90973=
71827 32974 50405 10084 20039 39952 40194 53004 81071 333 10122 20026
70000=
71828 36764 33205 10044 21007 39578 40214 51015 333 10119 20044
70000=
71831 11356 80212 10101 20101 39837 40112 51007 60061 76166
887// 333 10124 20101 70130 90983=
71832 46/64 /0210 10123 20080 39818 40137 51004 333 10137 20100=
71834 32774 60405 10125 20051 39736 40158 52009 82571 333
10164 20068 70000=
71836 36564 80210 10118 20079 30130 40141 50000 333 10146 20069
70005=
71842 32974 40907 10154 20075 39676 40146 56001 82071 333 10200 20057
70000=
71845 32674 21106 10144 20056 39698 40165 50002 81501 333
10181 20064 70000=
71850 32574 61204 10170 20111 39642 40126 55003 81571 333 10202 20101
70000=
71852 173// 61705 10154 20134 39828 40115 53007 69951 7//4/ 333
10180 20118 70005=
71854 32674 71204 10153 20095 39672 40135 50000 81472 333
10194 20084 70000=
71855 36664 32712 10158 20105 39744 40110 53017 333 10205 20097
70000=
71856 36964 31908 10159 20140 39833 40110 51007 333 10191 20120
70000=
71858 17/16 /2810 10139 20126 39822 40095 53003 69981 7//4/ 333
10179 20130 70008=
71861 16564 62913 10139 20066 39435 40149 51014 69951 333 10168
20102 70010=
71862 11574 73117 10149 20074 39471 40161 50008 69901 70166
86201 333 10155 20095 79999 90960=
71863 36664 33110 10154 20067 39468 40154 53002 333 10170 20103
70000=
71043 32583 31314 10112 20032 30029 40121 58010 81570 333 10114 21016
70000=
71045 36/// /1804 10090 20034 39272 40123 56019 333 10093 20000
70000=
71051 46/// /1419 11002 21017 30098 40212 56010 333 10002 21037=
71066 32574 72904 10077 20027 39737 40153 50000 86570 333 10080 20037
70034=
71068 32674 22809 10143 20024 39460 40144 56004 82100 333 10152 20014
70015=
71069 36964 03208 10139 20066 39450 40146 58006 333 10142 20009
70000=
71076 46/// /0000 10039 20035 39773 40164 51005 333 10053 20000=
71077 17/64 /3009 10106 20058 39620  51004 69941 7//4/=
71078 11256 83004 10062 20053 39654 40090 57006 60081 76166
885// 333 10063 20036 70348 90983=
71081 36864 63206 11018 21055 30108 40119 53006 333 11004 21018
70010=
71082 36064 80000 11120 21129 30195 40236 51002 333 11103 21206
70000=
71083 32574 52910 10024 21026 30141 40178 57006 84501 333 10045 20006
79999=
71090 36464 33005 11005 21021 30113 40147 51007 333 10022 21005
70005=
71091 460// /1111 10010 39924 40129 51006 333 10027 21002=
71092 46964 00909 11031 39488 40147 53007 333 11017 21034=
71093 460// /0911 11015 39642 40133 53006 333 11013 21028=
71094 46308 80506 11038 39218 40109 51002 333 11036 21052=
71095 36964 00606 11006 21042 30073 40144 53006 333 10022 21017
70005=
71101 17224 81233 10116 20112 30008 40016 56052 60141 74344 333
10122 20096 70150=
71104 32674 71311 10127 20033 39052 40145 58021 81402 333 10139 20062
70004=
71108 11983 70000 10167 20109 30089 40159 57014 69941 70282 86071
333 10174 20104 70004=
71109 32780 81207 10141 20100 30093 40119 56023 8657/ 333 10155 20092
70008=
71725 17122 81905 10163 20157 39699 40103 53008 60021 7434/ 333
10170 20130 70225=
71726 17/64 /1301 10140 20133 39621 40146 51002 60021 7//4/ 333
10142 20111 70094=
71727 11458 80917 10120 20111 39983 40178 56007 60051 76166
885// 333 10122 20091 70100 90983=
71730 11474 81606 10146 20140 39662 40073 52005 60021 72165
885// 333 10164 20146 70332 90927=
71731 11574 71810 10155 20142 39652 40090 53006 69981 72552
85571 333 10173 20151 70270 90926=
71733 36261 80903 10159 20158 39810 40040 51004 333 10184 20159
70050=
71735 11369 61206 10155 20150 39788 40079 51010 60021 72586
85530 333 10181 20140 70020 90917=
71738 11464 83610 10115 20108 39747 40092 51008 69961 76162
887// 333 10139 20114 70230 90962=
71739 11256 80313 10135 20132 39723 40076 51003 69981 75865 887//
333 10140 20129 70178 90983=
71749 36764 80904 10172 20064 39893 40134 53005 333 10209 20079
70000=
71799 11583 71006 10165 20096 30132 40155 58017 69901 70262
81170 333 10175 20080 79999 90951=
71800 36/64 /2614 10066 20056 30278 40311 53006 333 10150 20041
70000=
71801 32974 02506 10098 20065 30135 40309 51003 333 10159 20042 70000
=
71802 36/// ///// 10086 20071 30249 40309 53004 333 70000=
71803 32980 52106 10112 20068 30100 40287 51005 81041 333
10175 20046 70000=
71807 36/// /2614 10119 20097 30300 40316 50002 333 10131 20066
70000=
71808 36964 02508 10103 20080 30203 40249 51012 333 10134 20030
70000=
71809 32974 32974 10099 20065 30261 40288 52007 80001 333 10182 21007
70000=
71810 36/64 /0000 10117 20096 30175 40238 50002 333 10164 20038
70000=
71813 36964 01804 10118 20093 30243 40256 51003 333 10167 21016
70005=
71814 36/// /2308 10114 20089 30254 40264 53003 333 10135 21012
70000=
71815 32574 71807 10130 20090 30263 40295 53001 83541 333
10160 20046 70000=
71114 17964 60000 10167 20117 30107 40154 56024 69951 7//4/ 333
10169 20103 70005=
71120 32774 22908 10154 20026 39502 40148 53001 82201 333
10161 20068 70162=
71122 36/64 /2505 10095 20028 38591 40187 56003 333 10105 21016
70002=
71123 31774 72903 10147 20032 39308 40166 55002 71411 81132
333 10168 20007 70000=
71125 32674 12910 10142 20051 39570 40146 53005 81101 333
10157 20076 79999=
71129 32774 63206 10161 20020 39348 40164 55000 84801 333
10174 20057 70026=
71130 32574 83113 10132 20057 39681 40129 52012 885// 333
10146 20098 70000=
71131 36/64 /2705 10153 20035 38936 40174 56007 333 10158 20033
70006=
71135 46/64 /3110 10157 21008 39113 40180 51002 333 10170 20080=
71138 11574 33007 10136 20089 39543 40139 51010 69901 70161
82570 333 10147 20087 70132 90960=
71140 11774 62808 10157 20106 39635 40125 52015 60011 70382 82501
333 10198 20106 70018 90920=
71141 32774 81912 10179 20119 39812 40082 57008 885// 333
10205 20103 70000=
71145 32674 61310 10159 20105 39837 40124 56011 82474 333
10187 20090 70000=
71148 36/// /3103 10154 20108 39566 40132 53006 333 10184 20121
70010=
71182 17564 62103 10083 20079 39680 40216 50001 69951 74344 333
10122 20040 70005=
71185 36964 02114 10123 20079 30244 40268 54000 333 10147 20068
70000=
71187 17664 60710 10094 20086 30191 40218 56009 60011 7434/ 333
10105 20016 70015=
71188 11874 82705 10143 20104 30209 40250 53003 69941 78022
8807/ 333 10201 21014 70004 90921=
71196 36964 02218 10127 20082 30253 40290 51003 333 10171 20086
70000=
71200 36/// /1601 10138 20114 333 10175 20099 70000=
45007 11457 81305 10258 20243 30087 40096 53022 60252
78098 888//  333  20255 58031 70327 82812 83820 86656 =
71851 36/// /2402 10166 20143 39785 40112 51006 333 10183 20099
70034=
71873 36/64 /0901 10156 20010 39236 40176 56004 333 10157 20016
70000=
71875 36964 03411 10143 20019 38803 40174 55003 333 10173 20000
70005=
71075 17/// /0704 10031 20031 39517 40117 56003 60041 7//4/ 333
10038 20024 70222=
71096 460// /0000 11040 39413 40140 51007 333 11022 21040=
71952 36/// /1402 10136 20053 39275 40116 56026 333 10142 20000
70000=
71434 36/// /0905 10072 30147 40213 53002 333 10129 20000 70000=
71826 36/// /1504 10036 21035 30062 40091 51017 333 10052 20019
70000=
71846 36/64 /0706 10118 20061 39870 40179 50002 333 10148 20053
70000=
10152 20001 70016=
10143 20078 70050=
71194 36/64 ///// 10100 20082 30290 40305 51003 333 10168 20058
70000=
71197 36964 01103 10112 20079 30255 40304 50001 333 10151 20050
70000=
71450 36/// /3112 10166 20023 39454 40159 51009 333 10179 20105
70008=
71475 36/// /2103 10186 20105 30059 40151 56019 333 10196 20104
70002=
71629 17964 02103 10162 20128 39888 40116 53011 69951 7//4/ 333
10225 20155 70120=
76382 32480 23601 10326 20150 38858 40040 57014 82100 90000
333   10340 20220 30/// 50921 56300 58013 70000 82814=
76390 01520 81103 10178 20155 38221 40087 57001 60031 75355
886// 92355 333   10246 20132 31/// 50190 568// 58007 69977
70031 88720=
76402 31958 00000 10364 20206 30035 40089 57012 70544 92346
333   10418 20189 30/// 58005=
76423 32584 30503 10278 20053 38152 40060 55006 83100 92345
333   10310 20120 30/// 50480 56200 58013 70000 83824=
76458 32570 13004 10308 20252 30073 40084 55011 81900 92345
333   0/100 10333 20240 30/// 57914 59002 70149 81923=
76491 32856 71101 10271 20240 39742 40142 57004 87050 92347
333   0/030 10298 20217 31/// 50360 58015 70917 87358=
76519 12560 40000 10280 20133 38337 40069 57009 60049 82305
92345 333   10314 20156 30/// 50450 57206 58006 70042 82925
82072=
76539 31565 60906 10225 20145 38111 40039 57003 70544 81966
92333 333   10275 20103 30/// 50550 56556 58007 70000 81934
84070=
76644 01560 70201 10240 20229 30116 40128 57006 60051 70252
83202 92355 333   012/9 10346 20232 32/// 50120 58004 60051
70048=
76656 01575 21501 10240 20183 38484 40061 57006 69941 70260
81410 92348 333   10300 20156 31/// 50490 56330 58000 69946
70004=
76665 31468 61504 10225 20159 38096 40049 57012 70211 82326
92345 333   10283 20146 30/// 50480 56333 57932 59008 70004
82918=
76840 32560 80505 10324 20219 30052 40106 54000 8322/ 92350
333   001// 10370 20215 30/// 50470 59013 70000 83830 85459
=
71717 11874 82004 10155 20070 30215 40256 51003 69901 76022
87071 333 10213 20017 79999 90910=
71732 36/// /1704 10165 20152 333 10189 20156 70196=
71107 17/// /1631 10122 20122 39911 40021 56051 60131 7//4/ 333
10122 20108 70174=
71115 17/// /0903 10124 20102 39598 40171 58013 69941 7//4/ 333
10132 20090=
71121 17764 32903 10144 20044 39345 40161 55002 69951 7//4/ 333
10156 20023 70010=
71143 16/// /3208 10165 20147 39794 40101 53011 60021 333 10167 20139
70126=
71261 17/// /2319 10150 20150 39844 40098 51009 60011 7//4/ 333
10173 20148 70050=
71265 17664 62212 10183 20153 30020 40111 51009 60011 7//4/ 333
10202 20172 70295=
11020 21055 79999=
71201 36/// ///// 10166 333 10178 20118 70002=
65352 32960 70000 10220 20215 39969 40147 80002
333 58013 87076=
65361 32460 70000 10236 20227 39702 40142 8195/
333 58003 81913 87362 94942 95832=
65387 32460 72602 10242 20229 30124 40141 83242
333 58001 83810 84360 87073=
76393 01245 80802 10235 20221 39545 40118 57004 60031 70455
885// 92355 333   013// 10285 20226 31/// 50500 58016 69967
70034=
76471 32680 20206 10238 20107 37701 40034 57002 82400 92345
333   10265 20142 30/// 50650 56100 58000 70000 82634=
76556 01470 60302 10224 20205 39079 40068 52003 60201 75192
82410 92331 333   0/740 10310 20190 32/// 50640 58008 60207
70212=
76593 32370 70502 10272 20236 30117 40133 57005 84570 92350
333   0311/ 10320 20240 30/// 50510 58009 70000 84620 83330
92011=
94120 46/// /3105 10299 20202 30095 40135=
94122 46/// /3303 10282 20218 30127 40136=
94150 46/// /1212 10275 20202 30077 40138=
94203 46/// /2608 10250 20212 30130 40141=
94212 46/// /0403 10261 20187 39657 40132=
94216 46/// /0306 10292 20189 30078 40128=
94238 46/// /0908 10270 20026 39724 40151=
94268 46/// /0911 10284 20153 30134 40146=
94287 46/// /1612 10258 20186 30167 40176=
94294 46/// /0716 10274 20144 30186 40196=
94296 35/// /1321 10249 30143 40153 52005=
94298 35/// /1319 10236 30162 40168 52001=
94299 46/// /1422 10260 20209 30145 40156=
94300 46/// /2010 10204 20157 30132 40142=
94302 46/// /1912 10210 20155 30139 40145=
94312 46/// /2608 10234 20190 30131 40141=
94317 46/// /2505 10236 20081 39536 40129=
94319 46/// /3106 10265 20133 39795 40130=
94326 46/// /3403 10275 20053 39548 40174=
94332 46/// /0710 10292 20082 39780 40170=
94346 46/// /0211 10268 20105 39969 40193=
94363 46/// /0808 10230 20140 39988 40210=
94367 46/// /1512 10237 20183 30160 40198=
94374 46/// /1206 10244 20145 30194 40211=
94393 35/// /1017 10218 30166 40176 52002=
94403 46/// /0000 10162 20152 30088 40130=
94429 46/// /0506 10204 20078 39649 40121=
94430 46/// /0903 10222 20083 39523 40114=
94461 46/// /3615 10234 20114 39465 40143=
94462 46/// /0907 10195 20156 39595 40158=
94510 46/// /3506 10251 20088 39851 40206=
94515 46/// /0105 10226 20130 39861 40218=
94552 46/// /0806 10209 20091 39753 40230=
94578 46/// /0907 10228 20111 30220 40231=
94584 46/// /1817 10214 20170 30106 40217=
94601 46/// /2910 10161 20117 30094 40111=
94610 46/// /0506 10159 20084 30094 40118=
94637 46/// /1205 10138 20092 39701 40133=
94638 46/// /0310 10142 20118 30107 40139=
94647 46/// /0710 10153 20143 30043 40164=
94651 46/// /0710 10200 20135 30097 40175=
94653 46/// /0709 10183 20128 30170 40189=
94659 46/// /1111 10234 20062 39989 40187=
94672 46/// /0000 10195 20108 30209 40214=
94693 46/// /1309 10193 20097 30162 40225=
94703 46/// /0609 10258 20059 30093 4////=
94710 46/// /0805 10215 20070 39979 40238=
94729 46/// /0000 10155 20109 39391 40264=
94750 46/// /3106 10185 20123 30128 4////=
94767 46/// /1609 10191 20146 30248 40254=
94776 46/// /1405 10221 20140 30243 40253=
94791 46/// /1507 10204 20136 30237 40244=
94802 46/// /0000 10122 20097 30035 40118=
94804 46/// /0919 10159 20132 30172 40211=
94842 46/// /1309 10122 20057 30162 40263=
94850 46/// /2108 10125 20043 30218 40265=
94865 46/// /0904 10124 20083 30236 40261=
94893 46/// /2410 10116 20065 30137 40255=
94907 46/// /1403 10137 20100 30244 40254=
94910 46/// /0610 10184 20112 39995 40253=
94926 46/// /3302 10157 20087 39583 40271=
94954 46/// /2414 10119 20031 30151 40264=
94956 46/// /3408 10111 20036 30229 40256=
94968 46/// /3410 10126 20040 30024 40241=
94975 46/// /3107 10117 20000 30201 40235=
94983 46/// /3114 10146 20057 30203 40228=
94995 46/// /0911 10195 20102 30242 40250=
94996 46/// /0917 10191 20123 30100 40232=
94998 46/// /3236 10052 20031 39716 49726=
95719 46/// /0912 10201 20121 39905 40245=
96995 46/// /1412 10231 20205 39840 40136=
96996 41580 31010 10253 20216 30132 40136 53014 70200 81208=
89564 41982 70000 11210 21248 39778 49799 57009 70122 8701/
333 21216=
89571 41684 10708 11248 21308 39760 49789 55002 70200 81578
333 21274=
89611 41970 70922 11169 21209 39736 49791 57020 73832 8702/
333 21187=
94974 35/// /2906 10121 30230 40254 52006=
95288 35/// /1420 10247 30144 40159 52014=
95872 46/// /1503=
61990 42470 23005 10157 20145 40168 82800
333 58002=
61995 42570 11206 10162 20146 39674 81200
333 58001=
61988 41458 71504 10211 20197 40145 78082 87800
333 59001=
61986 41465 71721 10230 20207 40128 71582 8684/
333 58000=
61974 42570 11701 10231 20215 40113 81202
333 59006=
64600 33960 80406 10200 20197 39459 40099 86070
333 0//00 59015 86365=
64601 33960 20204 10180 20171 39004 48515 82030
333 0//00 59008 82365=
64605 33960 20000 10185 20181 39379 40116 82030
333 0//00 58001 82365=
64650 32960 00000 10210 20204 39697 40106
333 59005=
64655 33960 0//// 10198 20195 39458 40097
333 0//00 59011=
64659 11660 80806 10200 20200 39389 40093 60561 7959/ 8192/
333 0//71 58012 81940 88464 94942 95872=
67765 42975 00903 10131 20076 38667 48507 333 59006=
67775 41970 00706 10141 20086 38519 48523 333 58005=
67853 42980 00711 10198 20069 38917 48489 333 59004=
67861 42975 01008 10185 20038 38730 48511 333 58001=
67881 41970 00601 10110 20085 38596 48521 70500 333 59002=
67975 42975 30901 10130 20074 38947 48527 80002 333 59010 83080=
67977 42980 01201 10174 20146 39696 48560 333 58010=
67983 41230 80909 10132 20121 38917 48531 74011 886// 333 58007
88703=
78988 32470 31011 10275 20241 30114 40123 52021 83100
333 10318 20265 58007 83818=
78990 32475 10811 10286 20245 30123 40130 52024 81100
333 10326 20277 58012 81818=
78982 32580 10815 10283 20242 30112 40117 53016 81201
333 10319 20274 58003 70006 81820=
89002 42496 82105 11249 21276 39802 49855 52016 886//
333 11218 21294=
67843 42975 00902 10219 20093 38916 48477 333 58001=
78970 31462 70000 10257 20236 30105 40130 70522 85202
333 02209 10308 20226 59002 81816 85818 86080=
78962 31465 71003 10266 20238 30123 40131 70522 82802
333 02209 10313 20245 59001 82817 87078=
78397 32565 71214 10299 20220 30110 40126 81808 333 01200
10330 20266 59001 81820 87270=
78388 31565 60906 10295 20247 40131 71322 84902 333 06909 10326 20240
59001 81820 83922 85070=
78705 01164 81802 10253 20241 30072 40088 56002 60021 72065 84267
333 02249 10298 20234 31/// 59020 69927 70150 81707 83824 88270
85406 32560 52203 10159 20111 40162 53020 85500
333 10185 56000 85630=
85418 32562 51908 10156 20124 40161 52019 85500
333 10181 56000 85628=
85432 32980 22609 10126 21063 37767 48453 53014 82030
333 10210 56000 82361=
85469 42465 81006 10220 20180 40215 54000 85801
333 56406 83815 85080=
85470 32960 02712 10120 20088 40157 52018
333 10213=
85488 32465 83304 10126 20102 40170 53011 885//
333 10139 56099 88615=
85574 32960 61506 10162 20084 40155 52014 80006
333 10230 56006 86275=
85586 32960 73604 10119 20103 40177 52010 81031
333 10177 56066 81365 86075=
85682 32562 82606 10113 20084 40172 53012 8111/
333 10166 56559 81830 88457=
85743 32970 21402 10091 20060 40157 55004 80009
333 10177 56006 82175 =
85782 32965 80000 10090 20076 40154 57015 84037
333 10150 56077 84360 88270=
85799 32960 61805 10080 20055 40170 57006 80001
333 10140 56007 86070=
85864 32580 63307 10068 20020 40138 52009 83204
333 10092 56606 83830 83070 =
85874 32680 62915 10052 20002 39508 40128 52021 84201
333 10093 56606 84833 83070=
85934 11480 53019 10030 20005 49942 52031 60011 70282 83230
333 10077 56770 83816 83359=
78948 32580 50612 10283 20235 30124 40132 70222 82201
333   02205 10321 20274 58002 82822 85078=
78906 32580 30000 10273 20215 30130 40135
81202 333   10320 20248 59002 81820 83072=
86330 32997 11208 10211 20146 40146 52014 80002
333 10290 20174=
86360 32997 21407 10196 20128 40154 52016 80005
333 10282 20160=
86460 32998 20000 10172 20152 40164 51012 80005
333 10252 20163=
86500 32998 31005 10175 20142 40176 53013 81041
333 10258 20129=
86560 32997 40808 10177 20136 40171 52015 80006
333 10246 20177=
86565 32997 70000 10162 20133 40189 52016 83016
333 10255 20162=
86580 32897 71005 10178 20128 40173 57004 87056
333 10258 20175=
64458 32960 30000 10209 20206 39706 40098 80002
333 0//00 58002 83080=
86011 31670 70000 10328 20129 40073 53013 71392 81970
333 10394 81940 87457=
86033 31965 40000 10322 20177 40059 52013 70511 84070 333 10384=
86065 32770 71404 10318 20159 40065 53011 87070 333 10360=
86068 21570 82108 10314 20143 40045 52025 71399 8791/
333 10314 69901 86620 81940 88458=
86086 31940 60000 10302 20171 40078 54000 70521 80006 333 10382=
86097 31950 70918 10238 20138 40116 52015 70522 84075 333 10330=
86134 31565 70913 10274 20154 40090 52033 70522 85570
333 10374 85630 87454=
86192 21470 80912 10208 20162 40088 53014 71398 889//
333 10284 60021 88613 81930=
86210 32270 80506 10222 20149 40138 52021 886// 333 10262 88704=
86218 21270 80913 10214 20176 40122 52013 71799 8597/
333 10310 60041 85627 81940=
86233 31565 80904 10238 20141 40113 52027 70500 885// 333 10290
88620=
86248 32970 70000 10242 20155 40132 53017 87070 333 10294=
86255 32970 61402 10244 20172 40116 53005 86070 333 10300=
86260 21470 80000 10230 20198 40121 52008 72192 885//
333 10310 60021 88613=
86268 31570 70000 10240 20158 40129 52020 71322 81360 333 10298=
86285 31860 70000 10214 20136 40130 51006 70522 87070 333 10290=
86297 32770 70505 10244 20153 40118 52012 87070 333 10314=
71894 36/// /1513 10134 20115 30142 40151 56018 333 10157 20104
70000=
71906 11974 02708 10058 21027 30138 40188 52021 69901 70188
333 10101 20048 70046 90951=
71907 36564 32606 10047 20031 30190 40222 51010 333 10096 20046
70005=
71945 32583 20000 10100 20038 39682 40149 57009 81170 333 10108 21005
70000=
71966 36/// ///// 10119 21047 333 10127 20037 70000=
71473 36/// /2003 10154 20129 30126 40156 58016 333 10176 20118
70000=
71871 32774 32910 10149 20020 39366 40159 54000 81101 333 10163 20062
70030=
71880 31882 83507 10129 20050 39096 40187 53005 70214 88070
333 10146 20059 70000=
71883 17/// /0000 10100 20087 39375 40189 56008 69921 7//4/ 333
10107 20032 70032=
71728 11566 81202 10142 20139 39943 40160 58004 60031 76066 83520
333 10142 20102 70082 90983=
71811 11474 80803 10084 20072 30168 40237 58004 60021 76122 8177/
333 10134 20011 70022 90952=
71705 32974 81710 10159 20078 30178 40265 53001 83072 333
10223 20039 70000=
91753 12580 31014 10294 20236 40111 58012 60184 83202
333 20230 59001 83820=
91754 12581 71010 10289 20240 40117 57008 60044 85206
333 20242 58000 85820 87275=
91577 32682 21808 10248 20192 40155 58007 82800
333 20175 56200 59011 81833=
91579 36/// /1110 10254 20183 40155 58004
333 20199=
91582 32670 31110 10252 20174 40155 58006 83200
333 20152 56300 59009 83833=
91583 32570 20706 10258 20185 40158 58006 82200
333 20191 59011 82828=
91587 16/// /1108 10249 20197 30113 40162 58006 69921=
91590 12680 22708 10276 20177 40157 58013 69924 82200
333 20129 56000 59012 82833=
91592 32581 11610 10245 20193 40161 58009 81200
333 20172 56300 59013 81823=
65338 31460 60000 10234 20222 39950 40140 713// 82902
333 58004 82613 81930 84076 94941 95831=
91945 31465 72206 10267 20198 30147 40152 56018 71522 878//
555 12214=
51468 16/// /0900 11044 29086 36605 60001
555 1/122 2//00 /////=
47101 32678 63402 10189 20121 30139 40229 52013 86500 333 20117
3/022=
47105 11556 80511 10172 20111 30213 40244 52037 60182 76062 8652/
333 20156 31018 70184=
47108 32970 00703 10216 20090 30117 40218 52010 333 20165 30028=
47115 32565 60513 10158 20120 39950 40209 52025 86100 333 20158
31016 70017 92055=
47133 32965 03603 10198 20138 30132 40211 52014 333 20161 30023=
47138 11975 03406 10219 20157 30196 40200 52009 60072 70062 333
20184 31025 70074 92033=
47159 12565 60510 10212 20170 30110 40190 52013 69982 83530 333
20195 31023 70008 92011=
47165 32970 40510 10229 20135 30150 40193 52011 84040 333 20188
30024 92022=
47168 32565 30515 10230 20145 30112 40188 52013 82130 333 20220
30025 92022=
47184 32570 60000 10227 20149 30159 40186 52006 82530 333 20197
30025 92022=
12160 32598 41304 10131 20100 30108 40160 57008 84500
333 91109=
12230 11958 32002 10128 20114 30047 40135 53001 69941 71061 81032=
12399 31596 81603 10125 20118 30044 40210 57005 71011 885//=
12418 11996 62003 10140 20104 30030 40142 57005 69901 71061 86050=
12469 31996 51503 10101 20090 39948 40177 58005 71011 82058=
12488 31920 00000 10073 20073 30035 40190 58004 71000 =
12540 31996 31402 10109 20092 39924 40173 56007 71011 83030=
12566 31957 00301 10091 20079 39897 40186 56004 71011 =
12625 32975 00000 10040 20034 39200 42813 58010 =
12690 32997 01101 10075 20069 39701 40211 58008 =
12115 11497 61503 10134 20118 30113 40126 56007 69951 70182 86200=
12200 11456 31602 10123 20120 30098 40105 53001 69981 71061 83500=
12272 32960 01304 10113 20100 30013 40179 57008 =
12280 32460 51403 10111 20106 30035 40195 55003 85500=
12345 31956 51503 10125 20107 30020 40162 56002 71022 85030=
12415 32998 81604 10149 20097 39995 40143 57006 8803/=
12455 32560 61603 10123 20096 39923 40164 56006 83506=
12497 31358 81504 10129 20124 39991 40207 57006 71011 886//=
12500 11656 71002 10114 20092 39737 40146 56007 69901 71082 875//=
12530 32997 71402 10119 20099 39968 40164 56007 82038=
12580 32965 01803 10086 20058 39951 40196 58005 =
12585 32997 01202 10100 20087 39928 40193 57005=
12600 32970 10702 10116 20078 39702 40177 55002 80002=
12650 31/84 41909 10016 20013 38015 48515 57009 70141 84501=
12660 32960 00000 10093 20087 39839 40196 57007 =
47090 11562 80514 10169 20105 30240 40261 52043 69952 72166 8552/
333 20156 31016 70005 92064=
47095 32678 50209 10175 20121 30051 40233 52012 85500 333 20099
30020=
47100 11000 80505 10113 20110 39270 40241 52022 60422 76564 8672/
333 20096 33012 70428=
47106 11568 80529 10170 20127 30191 40235 52028 60022 76062 8672/
333 20147 31016 70021=
47112 32973 00201 10210 20094 30142 40221 52014 333 20163 30021
92022=
47114 32675 13601 10190 20120 30044 40219 52011 81500 333 20119
31024 70000=
47119 32968 00500 10217 20090 30179 40218 52013 333 20132 30025=
47121 31/06 92301 10135 20131 39947 40227 51012 74342 333 20125
30022=
47129 32975 00207 10226 20111 30186 40216 52005 333 20127 30027
70000=
47130 11665 80215 10189 20148 30161 40219 51020 60022 76066 8652/
333 20167 31018 70039 92044=
47131 32962 00206 10188 20135 30144 40211 58012 333 20145 30028=
47135 32970 00703 10222 20154 39923 40204 52010 333 20157 31033=
47136 12963 02702 10190 20137 30042 40207 52009 69912 333 20143
31026 70013=
47140 32965 00512 10223 20118 30173 40208 52013 333 20185 30031
92122=
47143 12565 20000 10228 20171 30136 40202 52011 60082 82500 333
20196 31025 70169=
47146 31959 03605 10221 20144 30144 40208 52013 71000 333 20173
30032=
47152 12662 73601 10209 20160 30159 40198 52013 60052 87500 333
20184 31025 70047=
47155 32970 33407 10229 20141 30191 40195 52011 69902 83030 333
20208 30027 92011=
47156 32970 20510 10232 20137 30111 40196 52012 82031 333 20184
30028=
47162 32970 20206 10231 20153 30154 40191 51009 82030 333 20206
30026 92022=
47170 32665 70205 10207 20136 30152 40191 52014 85530 333 20164
30023 92023=
47185 32975 20510 10227 20162 30091 40173 52003 82030 333 20198
30034 92034=
47189 32670 40709 10267 20168 30110 40168 52008 82501 333 20215
30022 92011=
47192 32667 10203 10240 20170 30173 40198 52012 81500 333 20200
30026=
17038 32670 41809 10215 20144 40157 57004 84200
333 84835 92428=
48601 11558 70000 10250 20238 30101 40104 69904 70522 81242
333 20242 50430 59008 81820 87078=
48615 12570 72204 10240 20230 30098 40104 69904 81132
333 20235 50511 58001 81820 83365 87074=
48620 11475 60000 10242 20232 30097 40106 69924 70522 82942
333 20236 50430 59005 81916 86078=
48647 11040 73602 10250 20233 30081 40106 69964 70522 83942
333 20234 50560 59008 81700 81917 87078=
48657 11058 70000 10248 20239 30094 40112 69924 81541
333 20244 50500 58004 81700 86078=
48665 31062 70000 10243 20239 30096 40106 82942
333 20240 50520 59005 82700 81917 86078=
96413 11058 71304 10236 20230 30088 40114 60034 83571
333 20230 50350 59003 81701 83624 86365=
96421 12275 71207 10245 20229 30097 40133 60034 8457/
333 20230 50290 55063 58005 81705 83618 87365=
96441 11275 71206 10239 20227 30118 40123 60094 70162 83531
333 20230 50390 55093 58006 81705 83616 85365=
96449 11370 71204 10241 20231 30098 40119 60134 72162 8487/
333 20231 50480 58009 81708 83812 87365=
96465 12480 72107 10270 20231 30077 40111 60064 81842
333 20252 50550 55099 58006 81813 87080=
96471 11475 71103 10264 20237 30108 40111 60054 82948
333 20232 50420 58007 81815 81917 87278=
96481 11462 69901 10261 20230 30087 40110 69994 70162 82841
333 20231 50580 55110 58007 81817 86080=
96491 31770 72102 10264 20238 30096 40109 70522 83842
333 20234 50530 55100 59006 82816 87078=
83708 85640=
16059 31858 73203 10128 20082 39840 40184 58003 71022 87070
333 87358=
16080 32660 70301 10168 20133 30057 40179 56006 84530
333 84640 84358=
16153 32998 02608 10164 20081 39928 40189 50000 92345 555 0////=
16105 32958 43002 10162 20131 30172 40178 57010 84040
333 84358=
16191 36/// /2204 10136 20131 30162 40180 56004=
16158 32565 30904 10140 20118 30177 40185 58002 83100 92345 333
83820=
16242 32965 03601 10123 20107 30179 40182 55002 555 0////=
16310 32898 33609 10204 20134 39930 40145 57007 83030 92345 333
83358 555 0////=
16261 32775 72202 10164 20123 30094 40166 57017 83530 92345 333
55300 83650 86360 95090=
16560 32168 33203 10178 20173 30160 40167 58005 81630 92345 333
81703 83358=
10348 01760 81902 10118 20106 39982 40087 54000 69931 72186 885//
333 31/// 55/// 20430 55300 69927 88650=
15502 31998 00000 10138 20112 40187 58002 70200=
15525 31996 70000 10186 20165 40188 58007 71022 87050=
15535 31997 00502 10173 20160 40186 58005 70200=
15549 31598 61101 10178 20165 40190 58002 70311 86400=
15552 31998 00505 10198 20182 40183 58002 70111 555 92024 92428=
15614 31998 61402 10152 20085 39498 40185 58008 70311 86050 555 95000
=
15615 31999 62008 10031 20023 37188 47142 57010 70341 85021 555 95100
=
15627 31/91 92306 10065 20065 37682 47144 58011 74144 555 95199=
15640 31998 00000 10192 20144 40179 54000 70200=
15655 31598 60000 10210 20188 40177 58010 70211 86500 222// 307//
4//02 555 92036 92438=
15730 11698 60000 10200 20172 40177 58004 69921 70182 86300 555 82633
95000=
16066 32860 63603 10127 20127 39937 40187
52005 86060 333 86358=
16084 32870 32703 10126 20118 30017 40183 58006 83030 92345 333
83358=
16120 32770 40408 10188 20130 30179 40182 57006 84030
333 84356 97080 555 0313/=
16090 32760 63504 10154 20151 30100 40181 58002 86050 92345 333
86356=
16170 32760 21203 10168 20125 30133 40178 50000 82030
333 82356=
16206 32470 30209 10138 20120 30172 40180 58001 82130 92345 333
82817=
16289 32560 53302 10167 20147 30085 40170 58007 82130 333 82830
84457
=
16405 32560 61505 10229 20208 30125 40165 50011 83530
333 83225 83458=
16460 32470 32701 10202 20200 30144 40164 57014 83100
333 83635=
16362 32560 60708 10214 20167 30133 40150 55009 83230
333 83820 84359=
16008 32570 31707 10066 20035 38543 48502 58008 83200 92345 333
83820=
16020 36/// /0301 10141 20105 39893 40180 55002=
16110 32898 50602 10150 20112 30172 40176 58010 85030 92345 333
85358 555 0////=
16149 32968 01902 10138 20139 30162 40177 57005 92345=
16230 31457 42102 10145 20133 30166 40179 56005 71022 84670
333 81715 83630=
16252 32560 50000 10142 20104 39261 42817 57011 82530 92345 333
82625 83359=
16270 12560 62101 10169 20159 30118 40170 56012 69921 86220
333 86830 85458=
16325 32597 73004 10196 20179 30155 40169 56008 83530 92345 333
83630 85358 98065 555 0100/=
16360 32597 30511 10212 20170 30028 40159 55012 83500 92345 333
83620 555 0////=
16480 32997 20808 10234 20206 30105 40165 58010 80001 92345 555
0////=
16520 32970 00402 10154 20152 30148 40176 58003=
16522 32998 00302 10178 20146 39937 40176 58003 92342 555 0////=
16539 32998 00906 10198 20184 30065 40177 58002 92345 555 0////=
16550 32998 00303 10194 20164 39991 40167 58002 92345 555 0////=
16061 31858 30000 10126 20111 39353 42802 58004 71022 83060 92345
333 83358=
16114 31858 50000 10134 20131 39540 42818 58003 71022 85070 92345
333 85357=
16022 31/09 92311 10012 21002 37873 48510 57006 74544 92345 333
41003 89/03 92855=
16033 32560 70000 10092 20069 38803 48515 58002 87500 92345 333
87630=
16088 32760 50403 10149 20127 30069 40185 58004 85500 92345 333
85650=
16098 31856 70000 10122 20115 30129 40179 57011 71011 87030 92345
333 87358=
16108 36/// /0000 10112 20105 30158 40179 56011=
26045 42998 01704 10112 20079 30258 40262 52001   555 10010=
26554 42960 80801 10072 20059 30113 40277 57002 80001   555 11007=
26666 42960 31504 10106 20041 30077 40291 57002 80001   555 10008=
26850 42960 71502 10114 20056 39989 40259 57001 8703/   555 11010=
26863 42960 71102 10081 20045 30050 40287 56003 84032 555 11007=
26941 42960 71704 10118 20085 30010 40243 54000 87070   555 11011=
26951 41960 00801 10101 20067 30060 40257 57003 70261   555 11008=
33008 41556 71503 10133 20122 30035 40211 57005 71011 87500
555 11012=
33019 42560 81202 10121 20099 30062 40233 58002 70282 875//   333
87632   555 12012=
33036 42960 60602 10113 20050 30033 40261 57004 86030   555 10010=
40100 32558 51101 10253 20208 40080 58007 85200 900//
333 85826 924/7=
40102 36/// /0404 10151 20053 39087 48485 56006 900//=
40103 32560 60000 10234 20213 40086 58006 86100
333 86824  555  10285=
26645 42997 70902 10113 20076 39993 40249 57001 8707/   555 11010=
26659 42597 51401 10098 20051 30069 40282 53001 82502   555 10010=
26763 42960 01403 10078 20046 30061 40289 57002   555 10005=
26825 42960 01303 10100 20094 30052 40215 58006   555 11010=
26832 42960 71102 10108 20081 30049 40239 57003 8707/   555 12011=
26887 42962 00302 10058 20044 30091 40299 56003   555 10006=
26961 42960 61202 10107 20053 30078 40269 57003 86030   555 10///=
33261 42998 00901 10097 20043 30104 40286 58004=
33301 41597 81104 10124 20105 39954 40231 58006 70282
8837/ 333 84631=
33325 42997 69901 10099 20086 39976 40248 57008 86030=
33377 42978 00801 10118 20058 30075 40267 58007 555 10010=
33415 42997 29901 10097 20082 39827 40222 58008 82030=
33429 42997 30903 10101 20093 39815 40236 57005 83030=
33466 42989 80902 10123 20056 30063 40248 57004 86027=
33526 41456 81003 10136 20127 39878 40210 57008 71022 885//
333 88611=
33562 42997 60903 10094 20067 39885 40242 57005 86030=
33614 42970 61002 10111 20058 40254 54000 83031=
33761 42980 00402 10117 20034 30016 40236=
33889 42998 03603 10136 20086 30166 40202 58003=
33902 42997 00000 10127 20062 30154 40219 55000=
33983 42997 00806 10168 20086 30130 40188 58009=
34523 42997 00000 10062 20043 30191 40268 54000=
34712 42998 00905 10146 20041 30147 40231 57003=
43555 22478 52511 10274 20239 40105 82202 333 58007 6990/
82818 83078=
43577 22476 42710 10272 20240 40114 81202 333 58006 6990/
81818 84078=
83818 86362=
37549 42697 80503 10144 20079 39689 40246 58001 8802/=
40356 32960 03106 10210 21020 39124 48471 333 59021 555 04410
50035=
40361 32960 03507 10250 21040 39307 40022 333 59030=
40375 32960 03208 10220 20090 39228 40051 333 59013=
40394 32662 32106 10278 20030 38971 48483 83400 333 59029 83640
555 04410 50015=
40400 32960 03604 10256 20240 30025 40052 333 59005=
40405 32960 00000 10336 20070 39326 40006 333 59030=
40416 32960 00000 10270 20240 30015 40034 333 59001=
40420 32960 00000 10252 20070 39849 40044 333 59006=
40430 32960 40000 10310 20100 39354 40027 84500 333 59013 84645=
40437 32960 00000 10280 21030 39387 40042 333 59016=
40438 32960 01808 10310 20000 39391 40049 333 59017=
41024 32960 20000 10300 20260 30032 40051 82030 333 59004 82360=
41030 12660 40000 10300 20220 39778 40043 6992/ 82430 333 59010
82640=
41036 32960 32102 10240 20110 38533 48483 83040 333 59008 83359 555
04410 50025=
41112 32960 00000 10170 20111 37938 48492 333 59004 555 04410
50046=
41114 42960 01503 10186 20017 37970 48485 333 59005 555 04410
50024=
41128 32960 00000 10210 21020 38780 48495 333 58003
555 04410 50052=
41140 32660 00704 10310 20240 30043 40051 333 59009=
41244 36/// /0610 10284 20096 39739 40093
333 0E030 58016=
41246 31658 10000 10278 20244 30061 40066 70500 81500
333 58007 81630=
41256 32960 00000 10278 20236 30052 40061
333 59004=
41258 36/// /1102 10295 20260 30051 40057
333 0E/// 59000=
41304 36/// /1008 10204 20200 39754 40072
333 0E022 59001=
41312 36/// /2604 10245 20217 30039 40079
333 0E/// 59007=
41314 32960 01713 10219 20188 39575 40090 333
59005=
41316 32560 10000 10247 20218 30052 40078 81500
333 59008 81625=
11414 01460 80000 10094 20092 39428 42766 57004 60021 76162
8757/
333 55006 69945 85613 86633
555 399// 50119 60122 70124 80127=
11438 11562 82201 10115 20091 39757 40146 57003 69951 76162 887//
333 55005 88723
555 385//=
11502 06/// /1804 10106 20104 39691 40139 58003 60031
333 55003 69995
555 399// 50122 60124 70129 80132 90140=
11538 11675 80302 10114 20091 39556 40151 57008 69901 70262
885//
333 55036 88633
555 11701 386// 50127 60128 70128 80135=
11628 32460 82201 10117 20102 39526 40148 57010 886//
333 55060 88719
555 391//=
11643 06/// /9901 10090 20077 39203 42778 57008 69991
333 55001 69905
555 12108 392// 50103 60104 70102=
11683 36/// /1606 10101 20091 39300 42786 57011
333 55037
555 11506 393//=
11693 32968 00000 10096 20085 39681 40158 57015
333 55017
555 11107 393// 50116 60119 70128 80133 90142=
11698 36/// /9902 10100 20081 39753 40156 57013
333 55037
555 388// 50121 60128 70127 80137 90144=
11710 36/// /1303 10103 20087 39557 40166 57012
333 55053
555 390// 50120 60128 70127 80124=
60390 32950 30000 10200 20194 40157 56003 83200
333 82720 95990=
60402 32560 10000 10209 20195 40151 54000 81202
333 81820 95990=
60490 32460 50000 10210 20199 40147 52005 85630
333 82713 85630 95990=
60525 32958 00000 10288 20174  40117 51009
333 0//00 95990 =
60566 32960 00000 10265 20162 40113 50003
333 0//00=
60571 32962 02008 10275 20043 39213 48519 51003
333 0//00 95990=
60590 32960 00000 10258 20079 40101 51004
333 0//00=
60611 32960 00000 10289 20011 40108 50002=
60630 32960 23305 10294 20066 40110 50000 82030
333 0//00 82362=
60656 32960 02923 10230 20107 40112 50013=
60670 32960 0//15 10280 21033 39082 48560 58004
333 95990=
60680 31940 30404 10247 20068 38681 48550 58006 70621 83030
333 83362 95990=
16738 32960 03206 10224 20196 39958 40147 56002 333 90730 91110 555
40000 47506 44255 50000 50206=
41883 32550 30000 10264 20250 30045 40065 83500 333 56900
58008 70000 83620=
41891 32450 30904 10238 20230 30047 40081 82530 333 56290
58017 70010 82615=
41907 31956 20000 10260 20250 30053 40071 70500 82030 333
56090 58015 70002 82360=
41923 32340 80000 10258 20250 30069 40079 8662/ 333 56499
58021 70000 83709 84616 88457=
41978 31433 60302 10258 20240 40075 70522 83530 333 56990
58010 7//// 83615 85360=
38954 428// 30000 10087 20061 37954 48520 58003 83900 555
10008=
65528 32960 6//// 10220 20217 39665 40135 83032
333 58008 83360 85076=
65536 32960 0//// 10226 20218 39707 40135
333 58000=
65548 32960 0//// 10209 20206 39756 40140
333 5////=
65557 32458 50000 10218 20212 39903 40142 85500
333 58002 85611=
65562 32960 0//// 10236 20218 3//// 4////
333 5////=
65578 36/// /1903 10234 20221 30141 40150 50000
333 59009=
65592 32458 1//// 10245 20223 30124 40147 81500
333 58002 81613=
65599 32960 0//// 10224 20218 30066 40140
333 58001=
11520 01680 82601 10120 20102 39787 40146 58003 69901 76061 8457/
333 55029 69905 84643 84357 88460=
60445 32960 10000 10190 20160 38998 48528 54000  80002
333 81073 95990=
60511 32560 60000 10188 20172 39062 48525 51003 82270
333 0//00 82826 85459 95990=
60555 32960 10904 10270 20206 40102 50001 80002
333   0//00 81073 =
60559 32960 31215 10270 20194 40097 51002 80002
333 0//00 83073=
60607 32960 02107 10290 20016 40089 51004
333 0//00=
60640 32960 31505 10311 20022 40094 51002 83030
333 83360=
28679 415// 83102 10071 20064 30037 40211 52007 71022 8595/   555
11007=
28766 41996 43401 10079 20070 30031 40215 52010 71000 84050   555
10007=
28966 425// 73206 10086 20067 39934 40209 52002 87500   333 87695
555 11006=
35108 42997 00000 10061 20042 40282 54000=
35217 42997 03602 10065 21005   555 10003=
35229 42997 00000 10032 20014 39992 40265 52007   555 10003=
35302 429// 00000 10070 20038 40280 54000   555 10007=
35394 41497 82602 10070 20045 39547 40207 54000 70262 886//   333
85715   555 11007=
35406 42997 00000 10067 20000   555 10006=
35416 42997 00000 10098 20025   555 10006=
35426 42999 02701 10051 20004 39974 40263 52004   555 10003=
35497 41598 80000 10065 20051 39448 40228 54000 70282 889//   555
11///=
35532 42998 00000 10060 21003 39773 40258 52001   555 10004=
35671 42998 21902 10041 21011 39840 40267 52001 82030   555 10001=
35700 42998 00101 10077 20025 30279 40252 57003   555 10005=
35796 42997 03502 10032 21040 39836 40268 53003   555 10001=
36859 42999 20802 10045 20020 39525 40303 54000 81041   333 91110
555 12002=
38222 42997 00000 10066 20027 39618 40271 54000   555 11005=
38341 42997 01801 10040 21019 39493 40279 53002   555 14100=
38343 42997 00000 10010 21029=
33393 42460 51404 10134 20119 39822 40204 85500 333 85617=
33924 42972 01006 10136 20097 30189 40201 57001=
33135 42997 50502 10096 20061 30094 40273 57003 80001=
33663 42997 30000 10120 20109 30132 40227 57006 83030=
40155 32560 30000 10226 20210 30076 40086 58004 83400=
40180 32960 01303 10215 20188 30032 40079 52008=
40199 32970 00201 10249 20157 30076 40079 57003=
47401 11/80 72907 10107 20004 30131 40144 56002 60072 70282 872//
333 20095=
47412 11/65 73215 10132 20085 30125 40156 53004 69902 78082 8727/
333 20125=
47420 31/04 92606 10133 20125 30078 40124 56005 74711
333 20124=
47426 11/80 72708 10177 20128 30093 40136 56006 69902 70282 8123/
333 20124=
47582 11/84 71304 10170 20133 30139 40164 53001 69902 72562 8287/
333 20152=
47590 32/82 83304 10192 20125 30110 40161 53010 8227/
333 20165=
47600 11680 82003 10157 20137 30163 40180 50007 60022 72182 8257/
333 20151=
47648 31/80 80313 10196 20183 30116 40148 53001 70262 882//
333 20189=
47662 11/35 80606 10205 20175 30104 40146 55000 69902 76162 885//
333 20196=
47678 31/56 72402 10252 20213 30051 40143 53006 71011 81132
333 20203=
47740 11170 83103 10178 20168 30149 40186 53003 60032 78082 8127/
333 20174=
47778 32/62 70205 10248 20192 30048 40133 55001 8227/
333 20222=
47807 11560 63610 10247 20179 30150 40167 53009 69902 70282 84232
333 20234=
47827 31/59 13604 10267 20205 30102 40137 58004 71000 81131
333 20223=
47843 32/70 10211 10251 20176 30126 40156 53002 81100
333 20223=
47898 11/57 83203 10222 20205 30109 40147 53007 60192 76382 8272/
333 20220=
47909 11/75 63503 10279 20221 30124 40132 50002 60032 70282 82272
333 20246=
47918 11/80 70513 10287 20231 30098 40106 53006 69902 70280 83202
333 20262=
47936 11/80 60409 10278 20232 30061 40121 53001 69952 70281 82232
333 20243=
47945 11/40 81713 10236 20227 30104 40127 53011 60362 78182 8737/
333 20232=
47971 11/70 70606 10272 20245 30132 40141 51003 69902 72511 84202
333 20253=
47991 11/80 70818 10297 20242 30128 40138 50005 60022 70281 83202
333 20258=
47407 11/60 72505 10124 20092 30000 40139 56008 60022 78082 872//
333 20072=
47409 11/75 73101 10126 20105 30079 40130 56005 69902 78022 872//
333 20107=
47418 31/65 52605 10145 20107 30082 40129 58002 70242 81232
333 20090=
47421 11/70 83009 10111 20058 30125 40171 53011 60022 78081 882//
333 20111=
47430 11/81 72816 10151 20064 30112 40164 53012 69902 70382 81278
333 20124=
47570 11/70 73103 10181 20132 39915 40163 51006 69902 72582 81272
333 20169=
47575 11/70 72809 10182 20115 30162 40166 53008 69902 72582 82260
333 20128=
47585 11/80 82202 10176 20147 30100 40155 51003 69902 70282 8257/
333 20153=
47598 11/65 80104 10187 20161 30149 40155 53005 60012 76065 8787/
333 20180=
47602 11/80 81305 10174 20143 30155 40175 50005 60012 72522 8287/
333 20161=
47605 11/60 80414 10181 20154 30139 40178 53012 69902 76122 8552/
333 20181=
47618 11/60 83407 10167 20116 39460 40157 52004 69902 72162 885//
333 20154=
47624 11/30 72403 10207 20175 30016 40147 53002 69902 72122 8657/
333 20189=
47636 32965 73507 10235 20137 30079 40143 55000 8707/
333 20200=
47655 11/58 60603 10243 20206 30082 40135 56003 60032 71082 82230
333 20211=
47663 32/60 31103 10253 20182 30104 40135 57004 81032
333 20204=
47675 11460 80101 10223 20204 30051 40143 53001 69902 78022 882//
333 20205=
47741 11/75 81403 10192 20136 30161 40187 53018 69902 78082 8427/
333 20189=
47746 11/60 80111 10188 20166 30166 40184 53016 60072 78022 8727/
333 20180=
47750 32/65 81402 10200 20170 30145 40171 53006 882//
333 20175=
47755 11/75 80412 10206 20166 30157 40181 53019 69902 72522 882//
333 20200=
47772 32/75 80206 10229 20160 30059 40154 53006 8117/
333 20213=
47800 32/80 83508 10236 20149 30158 40180 53010 8327/
333 20214=
47815 31/57 83310 10251 20192 30137 40152 53004 70522 8227/
333 20229=
47817 32/70 60108 10253 20185 30110 40150 53001 81132
333 20229=
47830 32/60 12703 10257 20205 30120 40137 50001 81101
333 20223=
47837 32/65 23103 10280 20200 30117 40138 53001 81231
333 20235=
47887 32/60 70902 10235 20177 30110 40149 53007 8127/
333 20211=
47891 32/70 80705 10238 20145 30149 40160 53011 8117/
333 20216=
47899 11/65 60407 10237 20202 39930 40143 53002 69902 70281 81139
333 20225=
47927 11/75 50611 10275 20227 30062 40108 53008 69902 72580 82231
333 20253=
12295 32460 71103 10126 20119 30025 40208 57004 875//=
33177 42562 81601 10136 20123 39981 40214 58005 889//=
33246 42967 00801 10100 20070 30120 40274 56001 09200=
33990 42672 13001 10174 20122 30094 40179 57005 81500=
34415 42997 00000 10058 20034 30180 40278 58003=
33275 42997 00302 10085 20061 30058 40280 57006=
33088 42597 81301 10124 20081 30049 40237 58011 885//=
30028=
30372 32999 80000 11038 21075 39352 40227 57015 80007   333 21086
55116=
30554 32998 70000 11048 21058 39154 40255 57013 83031   333 21078=
30635 32999 51506 10051 20007 39599 40154 57025 80001   333 20045=
30673 32999 60000 11052 21077 39499 40281 57015 80006   333 21082
55112=
30758 32999 23601 10000 21024 39426 40242 57012 80001   333 21021
55102=
30823 32999 81304 10042 21023 39553 40174 57011 80002   333 20035
55106=
30879 32999 20000 11022 21044 39537 40305 57009 80001   333 21061
55113=
30935 31/93 90000 10004 21007 39301 40229 57009 74741   333 21015
55111=
30949 32999 00000 10008 21021 39187 40275 57002   333 21022 55107=
30965 32999 72006 10060 21075 39459 40267 57020 82032   333 21053
55114=
31168 32999 60503 10079 21067 30138 40149 58007 80005   333 20002
55086=
31300 32999 00000 11005 21054 39956 40245 58006  333  21055=
31329 31999 82701 11037 21048 39554 40228 52004 70241 886//   333
21044 55007=
31369 11598 83202 10049 20004 30070 40155 52014 60040 70282
82532 333 20020=
31416 11699 73602 10035 21022 30105 40196 51003 69940 82571   333
2//// 55000=
31484 32699 72702 10030 21028 39865 40197 51000 82502   333 21038=
31510 329// 02701 10056 21064 30105 40269 54000   333 20012=
31735 32997 02403 10048 21021 30126 40213 52004 333 21025=
38149 32998 00402 10092 20040 30180 40256 58004   555 10004=
38178 429// 00000 10112 20041 39969 40251 57002   555 10005=
38262 329// 00000 10054 21001 30178 40260 54000   555 10002=
38264 35998 00000 10070 20013 30166 40260 54000   333 00002   555
10004=
38396 42997 00301 10068 20032 40264 57002   333 00001   555 10003=
38413 429// 01102 10098 20064 39907 40258 54000   555 10005=
38457 42999 00901 10073 20009 39654 40241 52002   555 10003=
38462 42997 00000 10020 21056 38829 48559 58001   555 14105=
38565 329// 00000 10044 20008 40236 58006   555 10100=
38579 329// 02601 10064 20005 39821 40241 57002   333 00001   555
10001=
38583 42997 02701 10039 20005 29916 40242 53002   333 00101   555
10030=
38611 42997 03502 10093 20021 39674 40241 58002   333 00008   555
10007=
38618 429// 01401 10083 20041 39544 40230 52001   333 00005   555
10005=
38683 42997 03603 10072 20006 39952 40229 57004   333 00004   555
10005=
38696 329// 01102 10083 21022 39373 40223 57002   333 00005   555
10005=
38812 42997 01003 10064 20020 40219 57001   555 10003=
38927 32997 00000 10082 20004 39841 40218 54000   333 52003   555
10005=
22282 04174 20200 300// 400// 8////=
41697 53317 10190 20142 40144 52005 70222 8551/ 92345
22283 00200 20201 331// 40502 80160=
41598 61314 10160 20160 40125 57035 70301 866// 92355
22253 00170 20404 313// 40403 80160=
84200 22215 00263 2//// 3//// 4//// 5//// 6//// 80230 ICE /////=
83242 22200 00283 20504 307// 40806 5//// 6//// 80311 ICE /////=
80091=
80084=
62120 21004 99564 10021 46997 /0706 10124 20109 40177 52001 22200
80116=
62103 21004 99499 70029 46/97 /3406 10156 20122 40185 52010 22200
00165 10901 70006 555 05111 07335 10030 11045 12456 13465 14714
15588 17077 18002 19010 35089 36022 70001 72013 73147 74019 75471
76401 80090 05112 07270 10043 11050 12456 13465 14802 15588 17077
18002 19010 35088 36022 70001 72014 73147 74019 75467 76406 80144=
62301 21003 99523 70045 46/// /0209 10145 20145 40185 22200 00159
10401=
22271 04215=
54929 32970 70402 10187 20121 40266 52019 8703/ 333 00400
79999=
54764 32980 10408 10211 20078 40281 52023 80002 333// 00603=
51886 32980 61102 10076 20000 37126 52003 86030 333 05103
30040=
55299 32780 10202 10014 21005 35924 52008 81400 333 00251
31016=
55472 32980 00000 10009 21045 35808 52009 333 00201=
56106 32780 20000 10038 20028 36284 52010 82400 333 00200
30007 70002=
55279 32880 13201 10033 21052 35771 52009 81400 333// 00103
31022=
55294 32780 50706 10019 21028 35791 52008 82130 333 00200
30002 79999=
56202 32480 70704 10044 20017 35947 52012 874// 333 00201
31013 70004=
51334 32980 71601 10051 20042 40291 52008 80002 333 01058
30010 70058=
51241 32780 61602 10041 20009 40298 57003 86500 333 00554
31008 70025=
51330 32575 30000 10039 20030 40290 52005 83500 333 00854
30030 70045=
51365 31757 70000 10062 20058 40289 57002 71040 84532 333
01152 30043 70003=
51367 32780 61601 10061 20054 40279 52001 81532 333 01156
30038 70009=
84202 333 20253=
10401=
61980 32565 11606 10186 20132 40165 81800
333 58002 81821 924/7=
78792 32560 50000 10262 20240 30078 40093 52009 82201
333 020// 10300 20226 30/// 59015 82820 83080=
78795 32470 30000 10240 20230 30009 40109 52011 830//
333 030// 10305 20210 31/// 59006 70029 83820=
64700 32960 20000 10229 20216 39764 40100 800002 92355
333 0//00 58002 82075=
64750 32560 60000 10225 20218 39713 40122 81532 92355
333 0//00 58012 81620 84365 85075=
71967 36/// /1209 10103 333 10112 21009 70000=
91554 31210 10275 20232 40117 58009 60024 70282 83800 333
20225 563// 58001 60024 83820=
91557 02582 41210 10270 20218 40135 58013 69984 84200 333
20200 563// 59008 69984 84825=
91565 32580 61805 10262 20237 40152 58012 86800 333
20180 563/9 59009 86825=
91568 32582 31012 10256 20217 40148 58008 83200 333
20195 563// 59014 83820=
71079 11574 82107 10138 20129 39814 40086 55008 60111 78062 885//
333 10163 20048 70112 90915=
84628 34456 31904 10149 20131 30120 40136 71044 836//
333   10187 564// 59003 83711=
84455 31965 00000 10270 20227 39805 40157 70200
333   10345 59015 =
84686 31960 02704 10140 20060 36870 70200
333   10217 58000=
84501 31462 61508 10160 20143 30108 40149 70300 8363/
333   10184 5600/ 58005 83716 83360=
84752 31962 03402 101I WQPTI EUTET UPWPP
333   10215 58016=
84691 31960 03504 10170 20142 30114 40121 70204
333   10220 59001=
84452 31960 01715 10170 20128 30102 40134 70200
333   10235=
84370 31960 62704 10210 20180 30070 40099 70222 8603/
333   10265 5609/ 58001 86360=
84782 31565 32104 10140 20102 39645 40185 70200 835//
333   10203 565// 59010 83630=
84735 21662 72108 10080 20046 36433 71762 879//
333   10214 569// 58003 60041 83937 84656=
84515 31960 00000 10275 20233 39899 40074 70100
333   10355 59009=
84564 31960 00608 10220 20163 38140 70200
333   10280 59005=
84377 34160 53603 10260 20233 39980 40084 70222 82220
333   10331 5600/ 59010 82815 83462=
84401 31960 01813 10220 20176 30114 40183 70200
333   10291 58027=
78720 11450 70000 10207 20187 39008 40104 55009 69911 75455 8522/
333 02100 10235 20189 31/// 58002 70068 85824 87458=
61085 32960 70000 10243 20216 39/// 4//// 80008
333 5//// 87280=
61091 32960 72202 10235 20210 39668 40114 81046
333 58002 81364 87280=
83377 31997 00906 10211 20080 38882 40137 70544 333 10267
29046 55102 59004=
83378
32970 01304 10231 20083 38984 48545 333 10287 59005=
89022 41998 20709 11321 21356 39824 49865 52035 71000 80008
333 11253 21325 82265=
83264 32/// 90000 10264 20212 3//// 4//// 80000 333 10364
5////=
83309 31992 03203 10266 20222 39731 40111 70541 80000 333
10364 58003=
83358 329// 00000 10221 20203 39699 40099 80000 333 10348
58013=
83361 32695 40902 10288 20194 39923 40124 83204 333 10362
59005=
83362 31560 63504 10298 20191 40102 70522 82104 333
10378 58007=
83405 319// 03603 10302 20229 39954 40085 70544 80000 333
10373 59005=
83768 32970 51702 10180 20130 39528 40181 53011 80001 333
10220=
83840 32270 31204 10108 20100 39181 40221 51012 83600
333 10178=
83899 32470 50110 10194 20180 30205 40211 50013
85500 333 10234=
83971 32970 01108 10188 2//// 30168 40173 51013 333
10293=
83612 32570 50000 10240 20173 39483 40092 51016 82231
333 10360=
83721 21567 71209 10171 20129 39438 40172 53011 70562
83520 333 10272 69901=
83722 31960 41514 10189 20133 39464 40154 50006 70522
84030 333 10284=
83780 21857 60705 10167 20127 39298 40190 53003 70565
86050  333  10243 69931=
83827 32970 71007 10240 20145 39860 40133 53011 83031
333 10293=
83550 325// 3//// 10206 20166 30177 40207 70301 83200
333 10273 29073 55071 59009=
83695 216// 80000 10200 20170 30090 40231 5//// 70225
885// 333 10249 69911 29081 55023=
83698  32/// 81404 10200 20174 30215 40229 50313 887//
333 10234 29081 55///=
83718  325// 8//// 10176 20145 39648 40237 52212 70222
88700 333 10212 29078 55009=
83738 32/// 80507 10204 20124 39678 40184 52010 885//
333 10264 29054 55086=
83248 21440 71510 10236 20225 40185 71662 86830 333 10258 59007
60041=
83349 21450 72310 10204 20194 40198 76062 85830 333 10240
59005 60071=
83497 32570 21308 10215 20184 40205 82200 333 10260 58000=
33815 42998 00502 10132 20065 30006 40222 56002 555   10010=
82287 32794 00508 10257 20221 30064 40090 333 10336 29070 55101
58002=
82392 32996 03603 10268 20178 30012 40114 333 10362 29049 55099
59003=
82400 32570 21508 10252 20209 40141 82100 333 10290 59009=
82480 32995 03606 10272 20210 39928 40109 333 10357 29058 55079
59002=
59001=
82579 32970 02601 10294 20197 40101 333 10351 59006=
82583 32996 00904 10278 20137 39776 40110 333 10348 29041 55089
59008=
82599 32570 31303 10249 20204 40146 83200 333 10299 59005=
82678 32992 01402 10304 20171 39971 40127 333 10359 29046 55105
59012=
82683 32594 21402 10276 20169 39666 40115 81100 333 10342 29047 55092
59005=
82780 32996 01403 10286 20108 39886 40137 333 10348 29032 55098
59005=
82789 32994 01406 10220 20154 39018 40126 333 10271 29064 55095
59005=
82791 32995 01412 10283 20144 39846 40130 333 10352 29040 55107
59007=
82795 32594 60907 10220 20186 39546 40166 86200 333 10291 29070 55086
59003=
82879 32992 01406 10274 20161 39862 40127 333 10332 29048 55102
59007=
82882 32993 01806 10270 20175 39716 40133 333 10320 29056 55105
59005=
82886 32694 31410 10267 20192 39761 40143 82200 333 10323 29057 55098
59008=
82893 32793 0//// 10182 20172 39240 40148 333 10253 29087 55087
59007=
82899 32570 31611 10262 20205 40156 83200 333 10296 58001=
82900 32595 61808 10256 20213 30142 40151 86200 333 10289 29071 55091
58002=
82976 32994 80916 10280 20153 39550 40122 333 10330 29048 55106
59008=
82983 32995 00908 10254 20178 39722 40139 333 10292 29063 55089
59014=
82993 32570 30000 10240 20230 40157 83200 333 10300
59001=
82193 21560 60504 10266 20260 40108 71061 84230 333 10328
59009 60021=
82022 32970 50000 10256 20233 40110 80001 333 10280
58002=
82917 32570 60000 10271 20223 40092 83230 333 10361 59001=
68906 12498 63304 10041 20008 30283 40349 52004 69921 84520
222// 00093 20000 333 10089 20032 91005 555 20002 91034=
82141 32797 43606 10279 20248 30107 40119 84040 333 10314
29076 55091 59014=
82145 32994 00000 10250 20225 30071 40113 333 10323 29077
55073 58001=
82178 32/97 40502 10264 20254 30040 40083 83220 333 10323
29089 55064 59004=
82184 21698 60000 10250 20238 30088 40106 70269 86500 333
10323 29088 55062 58010 60041=
82191 31595 50503 10264 20239 30093 40099 71311 82970 333
10324 29080 55073 59011=
82198 32995 01406 10256 20229 30059 40111 333 10323 29074
55083 59007=
82246 32/96 41402 10260 20246 39915 40113 84600 333 10315
29088 55062 59010=
82263 21597 13202 10268 20258 30100 40128 70154 81100 333
10336 29087 55079 59023 69921=
82280 32997 0//// 10252 20244 30051 40109 333 10320 29082
55080 59002=
82353 32698 00000 10281 20240 39983 40067 333 10342 29073
55061 59083=
82361 32996 03202 10272 20256 30070 40107 333 10334 29086
55055 59014=
82376 32997 00504 10264 20223 30058 40110 333 10338 29073
55083 59009=
82445 31594 50000 10257 20251 30084 40137 71322 82520 333
10299 29096 55017 58001=
82460 32995 01401 10282 20240 30076 40106 333 10358 29067
55078 59011=
82562 32995 00000 10290 20220 39985 40094 333 10/// 29068
55071 59015=
82861 31998 03204 10291 20232 39895 40063 70444 333 10360
29072 55060 59012=
40265 31920 00000 10176 20172 39330 40095 58006 74440=
40296 32965 00000 10280 20225 40118 54002=
40310 32960 00000 10186 20062 38907 48477 57009=
40255 32960 40000 10200 20188 39407 40088 54001 84100 333 84830=
40260 32960 02208 10214 20132 39323 40056 58003=
40270 32960 00000 10210 20150 39217 40067 57008=
40272 32960 00000 10144 20144 39277 40074 57008=
40340 32960 00000 10252 20210 40068 54000=
40706 32962 30906 10122 20044 38668 40142 57007 81032 92345 333
81359 83069=
40718 11556 81404 10162 20159 30244 40213 56004 60021 76162
8662X 92350 333 84720 83625 88557=
40732 11558 82802 10164 20151 30230 40210 57004 60041 72166
8472X 92345 333 84720 88458=
40745 32960 01302 10050 21088 39082 40223 56001 92350 333=
40754 11560 80202 10178 20056 38847 40145 58001 69901 72582 8431X
92355 333 82935 82640 88459=
40766 32660 21402 10167 20044 38663 40054 51002 82400 92350
333 82640=
40800 32960 00000 10150 21029 38458 40091 53005 92350 333=
40811 32960 00000 10262 20135 30022 40048 52005 92350 333=
40841 32960 30000 10126 20088 38259 40097 58005 83400 92350 333
83640=
40848 32960 00000 10200 20068 38504 40045 53003 92350 333=
40875 31925 03603 10284 20244 30053 40065 53002 70500 92350 333=
38403 429// 00902 10089 21033 30151 40282 54000   555 10008=
36974 427// 40000 10020 21027 38017 48568 54000 84900
555 10002=
44231 32699 82304 10162 21030 38685 40089 56011 8283/ 333
20103 55113 555 30048=
44259 32998 02507 10074 21054 39414 40300 57010 333 20033
555 30007=
44288 32999 20000 10076 21007 38223 40208 57011 80008 333
20034 555 31010=
44292 32997 00000 10096 21027 38764 40235 56006 333 20079
55104 555 30016=
44304 32999 12703 10075 21022 39079 40274 57006 80002 333
20023 555 31005=
44354 32999 00000 10110 21012 39144 40193 53010 333 20070
555 30033=
44373 31999 01406 10075 20004 38578 40230 57006 70500 333
20061 55117 555 30051=
44203 32599 72003 10113 21022 38355 40086 57014 85810 333
20062 555 31005=
44207 32999 71805 10046 21008 38299 40150 57010 86074 333
21001 55/// 555 31014=
44212 32999 33204 10080 21025 39119 40211 52036 83030 333
20078 91214 55062 555 30055=
44213 12698 73607 10092 20027 38790 40184 52024 69902 70262
87500 333 20090 555 30056=
44215 32998 53209 10050 21052 38428 40210 52016 85040 333
20043 91212 555 30015=
44225 32998 30000 10019 21042 38264 40188 58007 82041 333
20015 555 31002=
44230 32998 63602 10052 21026 38774 40188 57013 83088 333
20045 555 30012=
44232 32999 60000 10051 20049 39093 40196 57003 86070 333
20026 555 30016=
44237 32999 32303 10084 21009 38488 40165 57006 82043 333
20062 555 30031=
44239 32999 60000 10070 20011 38796 40181 58005 86070 333
20025 555 31003=
44241 32999 01404 10163 20038 39258 40178 57004 333 20138
555 30115=
44256 32999 21808 10072 21002 39400 40237 58017 80002 333
20032 555 30006=
44272 32998 32303 10120 21064 38221 40106 52001 83040 333
20011 55107 555 30005=
44275 32898 60000 10057 21041 37773 40178 57002 86080 333
20049 555 31004=
44282 32699 60000 10050 21056 38318 40213 57007 84203 333
20026 555 31030=
44284 32899 30000 10069 21020 37911 40196 54000 83040 333
20015 555 31016=
44285 32799 21607 10101 20002 38361 40182 57009 81041 333
10079 555 30029=
44287 32599 60000 10030 21054 38176 40252 54000 82542 333
20023 555 30012=
44298 32999 01604 10066 21039 38797 40271 54003 333 20039
555 30017=
44302 32999 12703 10075 20017 39185 40255 58004 80002 333
20016 555 31008=
44313 32999 20000 11014 21056 39506 40362 58007 80001 333
21064 555 31076=
44347 32999 01407 10115 21044 38761 40213 58005 333 20102
555 30075=
44358 32998 00000 10101 21014 39130 40243 52007 333 20054
555 30012=
43413 32498 5//// 10278 20237 3//// 4//// 81106 333 5//// 81818
83280=
43421 32998 12302 10245 20227 39988 40090 80001 333 59007 70017
81080=
43424 32468 41801 10254 20239 30085 40089 84130 333 59016 70028
84818=
43436 32497 20000 10249 20245 30078 40081 82100 333 58011 70005
82816=
43450 21466 60000 10242 20233 30080 40088 70182 83231 333 59009
69927 70069 83816 83080=
43467 22459 2//// 10/// 20/// 30086 40091 82201 333 59005 6////
7//// 82817=
43473 22498 62702 10144 20134 38132 48500 86200 333 58003 70012
86808=
43497 32476 42304 10268 20211 30077 40095 83201 333 58004 83820
84080=
40703 32960 00000 10106 20054 38927 40142 51002 92350 333=
40712 32960 00000 10118 20067 38696 40112 54000 92350 333=
40729 32960 20000 10098 20060 38367 40142 53001 82030 92350 333
82359=
40736 12560 81802 10176 20148 30232 40205 58003 69921 8432/
92350 333 81925 83630 88459=
40739 32965 00000 10120 20010 38693 40168 51002 92350 333=
40743 32965 00905 10110 21072 39077 40188 50003 92350 333=
40762 32960 00000 10070 21127 38580 40173 58004 92350 333=
40768 12660 32803 10090 2271 38270 40112 54000 60041 83100 92350
333 83840=
40769 32660 40000 10136 20012 38318 40117 54000 84400 92350 333
84640=
40785 32962 30000 10182 20058 39057 40430 58007 83030 90250 333
83360=
40809 32970 00000 10104 21057 38530 40131 54000 92350 333=
40821 32660 33004 10172 21020 38794 40115 55000 83400 92350 333
83635=
23914 42998 80000 10078 20074 30013 40266 58003 8807/=
23921 42984 52701 10036 20031 30112 40230 58004 80001=
23955 11379 82903 10063 20059 30061 40121 54000 69982 78082 889//
333 20064 55002 86707=
23966 11496 82401 10074 20070 39976 40097 54000 60042 78082 889//
333 20073 55000=
28440 42597 23503 10089 20048 39909 40250 52007 80005=
28661 42960 60000 10049 20049 30141 40233 52008 86030=
28722 41958 00000 10068 20064 30144 40274 54000 71011=
28748 42964 30000 10090 20077 30011 40245 53006 83030=
29231 11397 82402 10060 20058 30029 40123 57001 60042 78082 883//
333 20059 55034 83709=
29313 11597 82202 10046 20039 30026 40146 53004 69902 8791/   333
20034 55062=
29612 32998 02002 10013 20013 30026 40176 52003
333 20013 55065=
29634 32257 81903 10044 20044 39966 40183 52005 883//
20037 85704 83916=
29838 11597 81802 10055 20032 39989 40217 52008 69902 76062 885//
333 20053 55048 88527=
36061 11699 80000 10058 20044 39843 40242 51002 60062 70282 86931
333 20047 55000=
16710 32960 00000 10134 20016 39419 40178 57010 333 90730
91105 555 40000 47094 44220 50000 50082=
23909 41994 42302 10067 20065 30029 40274 58004 71000 84040=
28116 42997 02801 10059 20052 30056 40286 53005=
28621 42998 40000 10092 20080 30050 40278 52011 84030=
29023 11496 82702 10072 20072 30017 40110 53009 60042 75185 887//
333 20072 55000=
29122 11397 82503 10076 20071 30048 40120 54000 60042 78082 8635/
333 20071 84709=
29328 32698 82103 10024 20022 30016 40153 54000 82541   333 20020
55060=
29348 11397 82301 10060 20053 30014 40155 52001 60062 70282 8467/
333 20060=
29405 31496 82601 10037 20032 30021 40165 52004 71011 883//
333 20011 55028 88910=
29418 32998 32401 10023 20020 30007 40164 53006 82031
333 20002 55082=
29430 12298 81801 10060 20058 39990 40161 58001 60022 886//   333
20059 55073 88705=
29524 32498 82401 10017 20014 30006 40167 52003 889//   333 20002=
29605 31/93 92301 10027 20027 30030 40170 52001 74741
333 21009 55031=
29631 31996 21803 10041 20034 39997 40179 53016 71011 82080
333 20040=
29706 11598 81501 10059 20050 30033 40175 58001 69902 78022 87301
333 20050=
29736 11498 82002 10055 20050 39953 40198 52006 60012 70282 885//
333 20015 88617=
29937 32597 72102 10051 20036 30005 40221 52004 69902 10282 87400
333 20072 87622=
36034 32997 82305 10078 20051 39951 40218 58002 8805/   333 20045=
36096 11699 62902 10084 20043 40190 52026 60022 70282 86900   333
20081 55034 95000=
28216 42898 70000 10078 20070 30005 40283 52002 87010=
28321 42999 23401 10101 20090 30080 40279 54000 82030=
28428 42465 71802 10066 20062 30087 40269 52002 87500=
28451 42597 60000 10070 20070 30077 40234 52007 82530=
28537 42997 03601 10064 20060 39856 40269 52007=
28541 42984 70000 10060 20056 39768 40253 53015 87030=
28615 41930 00000 10043 20043 30125 40281 52004 71000=
28642 41420 82903 10080 20074 40245 53004 71021 8355/=
29557 12598 82603 10071 20036 39920 40178 52003 69932 883//
333 20063 55064=
29625 11993 01902 10008 20008 30006 40182 52003 69942 74441
333 20000=
29642 11560 82305 10046 20041 39868 40189 52003 60032 78082 8537/
333 20046 85927=
29813 12999 81702 10052 20052 39982 40181 54000 69902 8805/
333 20029=
29822 11597 80000 10050 20050 30035 40195 52006 60072 70282 889//
333 21048 55026 88921=
29846 11597 82104 10036 20029 39834 40214 51004 69962 70282 8395/
333 20036=
29915 32499 82102 10073 20067 30019 40174 53001 8693/   333 20055
86911=
36020 60012   333 20045=
30692 32999 80000 11044 21052 39766 40248 57008 80001   333 21103
55095=
28925 42997 60000 10064 20055 30054 40277 54000 86030=
38392 42997 00303 10068 20029 30155 40258 57008 555   10006=
38507 42996 00804 10138 20019 30133 40234 54000 555   10011=
38545 42998 03301 10068 20038 30062 40238 57004 555   10004=
38687 42996 03202 10045 21003 39991 40230 57007 555   10003=
38750 42597 82705 10204 20181 30239 40212 53005 885// 555
10019=
38763 42997 00902 10110 21041 30109 40214 53002 555   10008=
38880 42997 00000 10083 20006 39977 40233 52004 555   10007=
38974 429// 02302 10083 21071 39897 40232 57001 555   10007=
38895 42997 00101 10078 20015 39951 40245 57004 555   10007=
38987 429// 02103 10055 21089 39490 40242 53001 555   10002=
38911 42997 00901 10077 21012 39926 40222 54000 555   10005=
38647 429// 00702 10121 21094 30175 40217 56001 555   10010=
38774 429// 00000 10101 20021 30051 40247 53001 555   10006=
38799 42997 00000 10030 21085 39991 40228 58008 555   10002=
38915 42997 00000 10083 21022 39896 40220 56002 555   10004=
38806 42997 00000 10042 20022 39963 40228 57002 555   10102=
38388 42998 00000 10047 21008 30177 40249 53007 555   18004=
38656 42998 00501 10101 21030 30129 40239 57005 555   10008=
12205 32960 41605 10120 20116 30104 40112 53001 84030=
40439 32960 20000 10304 20290 30045 40057 82030 333 58009 82360=
33791 42997 00605 10127 20032 30090 40241 57005=
30385 32999 80000 11030 21067 39678 40211 57023 80002   333 21073
55081=
30469 32999 70000 11063 21063 39491 40259 57013 80001   333 21094
55109=
30650 32999 80000 11023 21035 39133 40246 57018 80001   333 21039=
30781 32999 30000 11029 21056 39821 40296 57018 80001   333 21083=
30844 32999 00905 10004 21019 39263 40227 57007   333 21009=
30925 32999 82104 10156 21009 39233 40136 57008 80001   333 20071
55110=
31371 32999 20000 10028 21057 30005 40267 58007 80001   333 21052
55097=
31388 32999 60000 11004 21074 39972 40244 52003 80001   333 21044
55023=
31478 32584 23601 11004 21092 40196 52002 82200   333 21028=
31594 32999 03201 10003 21041 30098 40269 54000   333 21051=
31655 32599 32002 10044 20002 30163 40210 52009 82550   333 20000=
16648 32960 00000 10176 20092 30066 40154 56003 333 90730 91104
555 40000 47586 44255 50000 50132=
16643 32960 00000 10208 20191 30154 40160 58013 333
90730 91111 555 40000 47652 44260 50000 50198=
16684 32460 20000 10206 20197 30109 40133 58008
80001 333 90730 91104 555 40000 47618 44260
50000 50200=
48300 11458 60000 10247 20241 39787 40092 69924 71011 84676
333 20211 58005 70002=
48327 32562 60000 10241 20226 39731 40086 83636
333 20238 58010=
48331 31530 80000 10240 20233 39863 40094 74642 817//
333 20230 58018 79999=
48353 31/02 90000 10237 20224 39803 40093 74700
333 20230 58021=
48356 11559 30000 10257 20245 39892 40088 60024 71021 81141
333 20251 58010 70015=
48375 31557 70000 10243 20231 39853 40079 71022 84947
333 20240 58004=
48378 31560 60000 10266 20249 30025 40077 70392 83976
333 20245 58009=
48381 11558 80000 10250 20244 39863 40085 60014 71021 85576
333 20240 58013 70010=
48407 11457 80906 10257 20245 39945 40086 60014 71092 83976
333 20251 58010 70014=
48456 11560 72307 10251 20245 30067 40082 69944 71062 82846
333 20245 58001 79994=
48480 11457 60000 10258 20248 30074 40078 69904 71022 84376
333 20251 59001 79999=
48500 32562 50000 10254 20226 30075 40080 81202
333 20248 59005=
48551 11558 60000 10238 20231 30090 40098 60044 71022 81106
333 20232 59001 70042=
48565 12560 60000 10265 20245 30080 40084 69954 82246
333 20239 59006 70005=
48569 12560 50000 10237 20230 30063 40103 69924 81241
333 20231 58002 70002=
48583 11560 40000 10238 20225 30098 40103 60014 71021 82106
333 20224 58000 70014=
48303 01460 60000 10249 20240 39654 40095 69994 70162 86756
333 20240 58008 69986 70009=
48328 11520 50000 10247 20238 39810 40087 60064 71091 82506
333 20244 58008 70056=
48330 11450 70000 10244 20237 39902 40089 60074 71021 87700
333 20239 58012 70071=
48351 32563 60000 10255 20240 30006 40079 83131
333 20251 58008=
48354 32560 60000 10255 20239 39879 40081 82546
333 20245 58021=
48376 12562 60000 10252 20236 39943 40087 69904 83536
333 20239 58011 79999=
48377 12562 60000 10240 20225 39918 40083 69934 82536
333 20238 58003 70003=
48379 01560 80000 10249 20237 39935 40068 69924 72192 83876
333 20247 58009 69926 70002=
48400 31560 80000 10262 20252 30037 40078 70392 85576
333 20258 58007=
48432 11558 70000 10252 20238 39917 40084 69984 71021 82946
333 20246 58001 70008=
48455 12563 60000 10259 20246 30074 40079 60194 82146
333 20251 58004 70187=
48462 32560 80000 10267 20247 30028 40083 8557/
333 20257 58001=
48475 32562 70000 10256 20225 30071 40083 81236
333 20253 58003=
48477 11562 73303 10260 20240 30062 40080 60074 70398 82346
333 20240 58000 70071=
48517 32960 60000 10250 20229 30086 40091 81046
333 20242 59004=
48532 11558 60000 10240 20233 30091 40100 60024 71022 83546
333 20240 58001 70024=
30664 32999 80000 11046 21057 39566 40263 57018 80002   333 21063
55114=
26898 41959 00000 10073 20038 30039 40307 57003 71000=
26997 41957 00901 10067 20051 30091 40311 57001 71000=
27595 42996 30000 10098 20092 30151 40292 52003 83030=
27612 419// 00000 10088 20084 30118 40309 57004 71000=
27703 41963 00000 10035 20030 30075 40327 56001 71100=
27707 42961 00000 10061 20045 30026 40321 57001=
27719 42997 00000 10043 20031 30080 40335 53006=
27786 42997 50000 10078 20062 30138 40298 56001 80004=
27906 41942 00000 10066 20048 30074 40318 57002 71000=
27928 41950 00000 10056 20044 30107 40216 54000 71000=
27947 42997 00000 10052 20045 30154 40315 58005=
27962 42997 40000 10060 20044 40308 54000 84030=
27983 42668 60000 10104 20081 30170 40297 57002 83530=
28506 42997 00000 10068 20061 40289 52003=
28711 42997 32902 10068 20064 39917 40289 52003 80001=
28807 42997 03402 10045 20040 30239 40291 53002=
34009 42997 00602 10090 20050 30002 40305 58006=
34123 42975 00301 10089 20056 30126 40308 57002=
34152 42980 53601 10092 20073 30106 40300 57008 85030=
34172 42960 59902 10112 20058 30100 40291 58001 83031=
34186 42978 00503 10084 20058 30153 40290 52001=
34247 41960 00000 10052 20038 30181 40296 58003 71000=
34336 42997 00202 10073 20048 30189 40293 57001=
34391 32997 00502 10058 20034 30250 40281 58002=
35121 42975 52802 10069 20049 30129 40275 52003 85030=
22113 42584 72405 10133 20106 30106 40167 57003 87500   333 91009
91110=
22217 42562 70000 10109 20105 30171 40201 53001 87500   333 87625
91001=
22349 41550 72505 10106 20098 30178 40189 57024 71022 87500   333
91007=
22408 42984 32101 10106 20097 30098 40245 57003 80001=
22602 42976 12301 10114 20085 30040 40260 54000 81030=
22721 42998 02902 10078 20070 30182 40283 52002=
22802 41909 00000 10074 20071 30272 40295 53001 74440=
22820 42984 02403 10124 20062 30158 40293 53001=
26059 42997 01302 10080 20046 30261 40285 54000=
26063 42997 20000 10095 20081 30285 40293 57001 80001=
26094 41956 00601 10046 20044 30233 40310 54000 71000=
26258 42970 01501 10088 20062 30218 40273 54000=
26298 41995 00000 10056 20054 30080 40312 53001 71000=
26477 42962 01501 10057 20048 30159 40288 57003=
26702 41996 01302 10108 20098 30153 40179 57005 71000=
26781 42997 01101 10058 20039 30013 40307 57002=
27402 41997 00000 10061 20056 30133 40314 54000 71000=
21824 11570 82008 10014 21003 30015 40023 58003 69902 70272
8595/ 333 20007 43002 55002 85921=
21946 11225 82105 11011 21015 39958 40034 57007 60020 77372
8572/ 333 21060 47021 55000 85704=
25123 32698 20102 10028 21038 30057 40088 52001 81101 333
21040 55040=
25173 41/92 93304 11027 21030 30095 40100 54000 74540   333 91106=
25248 11997 80000 11008 21012 39644 40080 58003 60012 77172 8802/
333 21045=
25551 41597 80703 10054 20045 39994 40023 58001 76162 8472/=
25563 42599 73202 10053 21008 39956 40031 54000 87900=
25594 42598 70209 10063 20007 39940 49960 57012 87500   333 91111=
22028 42580 62708 10135 20111 30122 40157 57030 83940
333   91009 91110=
22106 42580 72602 10143 20123 30099 40175 57002 87900 333
85923 91004=
22127 42581 72604 10153 20114 39979 40172 57009 87500   333 87630
91006 91111=
22324 42684 72604 10128 20117 30159 40207 57005 85630   333 91007=
22831 42998 00000 10034 20029 30236 40296 53002=
22892 42998 01404 10124 20068 30260 40276 58003=
26275 42998 00000 10029 20021 30271 40302 53002=
26389 41996 01401 10045 20035 30051 40319 52003 71000=
26695 41996 00000 10026 20021 30012 40327 54000 71000=
26882 42984 01102 10060 20034 30033 40310 57002=
61036 32965 7//// 10280 20239 39887 40121 80008
333 58005 87280=
61043 31765 32204 10274 20231 39662 40093 7131/ 81902
333 59008 81950 83080 94941 95811=
61045 32962 7//// 10260 20216 39613 40096 82078
333 58004 82364 86280=
61049 32960 72406 10261 20211 39772 40097 80008
333 59003 87280=
61052 32965 32204 10276 20245 39872 40120 80002
333 0//00 58006 83080=
61080 32960 72604 1(0265 20222 39678 40089 80008
333 59010 87280=
61096 31965 72604 10230 20208 39717 40112 7009/ 82048
333 59009 82365 87280=
48310 31557 60000 10238 20234 39638 40088 71020 83836
333 20229 58017=
48325 11230 80000 10237 20227 39849 40092 60214 71022 886//
333 20226 58005 70208=
48329 31559 70000 10248 20238 39750 40086 71022 85805
333 20240 58009=
48357 12960 30000 10262 20251 39922 40091 60034 80005
333 20251 58011 70032=
48380 12560 60000 10252 20246 39989 40083 60064 83546
333 20250 58004 70058=
48383 31550 60000 10261 20255 39922 40079 71021 83536
333 20254 58005=
48403 01562 80000 10230 20223 39875 40087 60724 70262 83546
333 20226 58012 60047 70718=
48405 01556 80000 10247 20237 39921 40084 60234 76096 8657/
333 20245 58013 60027 70230=
48421 11556 70000 10245 20238 30002 40117 69944 71022 83536
333 20230 58000 70004=
48425 32560 60000 10264 20244 30067 40077 83546
333 20260 58005=
48426 32562 70000 10260 20238 30062 40075 83576
333 20259 58005=
48430 11557 60000 10255 20239 30071 40079 60024 71022 82546
333 20245 58004 70024=
48450 12562 50000 10245 20233 30042 40075 60274 82836
333 20244 59003 70272=
48459 11562 50000 10257 20240 30088 40091 60024 70196 81106
333 20252 58016 70021=
48465 32561 63102 10260 20232 30073 40078 82846
333 20254 59001=
48550 32562 50000 10270 20241 30093 40098 82106
333 20258 58001=
48552 12562 60000 10232 20224 30083 40090 60404 81146
333 20223 59005 70399=
48566 12563 40000 10247 20247 30094 40102 60064 82845
333 20238 58000 70060=
48568 32458 60000 10250 20229 30098 40107 81236
333 20245 59001=
48315 11550 80000 10237 20230 39827 40098 69904 71022 84876
333 20232 58020 79999=
48413 01556 80000 10240 20231 30005 40083 60174 76262 83576
333 20238 58014 60175 70169=
48416 11560 60000 10261 20252 39934 40081 60774 70361 83536
333 20230 58005 70771=
48418 11540 80000 10255 20248 30020 40076 69914 71022 8752/
333 20246 58010 70001=
48460 11560 70000 10260 20249 30056 40087 60024 70296 81146
333 20251 58006 70021=
48461 11560 80000 10241 20240 30007 40077 60164 70296 85576
333 20235 59001 70162=
48478 32960 6//// 10250 20235 30073 40078 80006
333 20250 59004=
48501 12560 30602 10256 20247 30074 40082 69914 82201
333 20247 59007 70001=
48561 31458 60000 10244 20238 30094 40098 71010 81146
333 20238 59008=
48564 32560 60000 10250 20235 30090 40095 81206
333 20247 59002=
48570 11557 30000 10244 20234 30090 40098 60074 71000 81205
333 20232 59008 70066 =
48580 32562 60000 10240 20228 30091 40098 81106
333 20230 58001=
30802 32799 80000 10006 20006 39641 48435 57020 82531   333 21004
55089=
25703 11698 73601 10004 21048 39837 40098 57001 69920 70287 86330
333 21034 55003=
25913 32999 02601 10065 21049 39959 40101 58001   333 21011 55064=
25954 32999 03208 10056 21064 30045 40049 52001   333 21010 55071=
31088 32599 23303 10057 21049 30097 40104 52002 82501   333 20008
55102=
31829 32599 23007 10083 21057 30127 40158 50000 81540   333 20011=
31873 32599 22903 10040 20000 30130 40256 51018 82100   333 21013=
31909 32699 23011 10077 21041 30126 40202 58006 82100   333 20008
55065 91016 91119=
31960 32999 03611 10068 21080 30052 40285 53012   333 20056 55103
91016 91117=
32053 11397 83202 10066 20052 30056 40097 52004 60030 70282 8767/
333 20032 86707=
32061 11497 83309 10058 20042 30077 40114 58002 60090 78182 889//
333 20042 91015 91115=
32098 32998 32702 10090 21005 30111 40121 58004 82240   333 21017=
32150 12699 63502 10080 20025 30106 40135 53001 60020 86500   333
20046=
32165 32599 80101 10154 20117 30066 40124 56010 85949   333 20141=
32215 12678 63602 10104 20074 40135 58001 69900 86900   333 20063=
32389 32999 63001 10093 20015 30049 40084 58001 82031   333 20005
55112=
32583 32598 32102 10092 20051 30079 40108 58002 82501   333 20039=
32618 32598 32307 10098 20073 30066 40089 58003 81119   333 20075
55095=
28879 429// 82802 10079 20068 39928 40208 53006 8807/   555 11006=
29802 414// 62101 10055 20050 30039 40179 54000 70282 83931   555
11005=
29807 42597 62401 10076 20053 30062 40177 58002 85530   555 12006=
35067 425// 72902 10088 20086 39949 40217 54000 87500   555 11007=
35078 41/05 92902 10076 20076 39851 40220 52003 74764   555 11007=
35085 415// 82902 10059 20057 39746 40216 52002 78082 889//   333
88926   555 12005=
35188 413// 82802 10065 20063 39795 40219 52003 71022 886//   555
11007=
35376 41597 82301 10083 20077 39801 40221 54000 76162 887//   555
10108=
36003 41597 82301 10061 20052 30049 40200 52005 70382 889//   555
11006=
36152 415// 80904 10074 20056 30029 40214 57002 76166 8802/   555
11007=
36208 42599 70000 10032 20011 39290 40267 58008 85340   555 12003=
36397 42698 61804 10054 20014 39702 40255 53005 86300   555 11004=
36428 42699 60401 10038 20026 39779 40273 54000 86500   333 89500
555 11003=
36535 42599 80000 11046 21053 39666 40313 54000 889//   555 11006=
36639 42599 70000 10054 20040 39690 40289 54000 83532   555 11005=
36821 42998 00000 10055 20020 40270 54000 555 91106=
36864 42984 00000 10014 21008 40290 57003   555 91107=
36870 429// 21502 10058 20007 39273 40275 53002 80001
555 11001 91105=
38196 42998 03201 10091 21012 40259 58003=
38198 429// 00202 10064 21014   555 10002=
38328 429// 00901 10044 21039 40250 56004=
38334 42998 01203 10083 21027 39308 40255 57005   555 10003=
38439 42998 03603 10080 20002 39908 40242 54000   555 10004=
28978 41598 82703 10073 20067 39733 40214 53004 70282 889//   555
11006=
28984 423// 80000 10057 20048 39731 40210 52004 889//   555 12006=
35173 41594 80000 10062 20060 39842 40215 58001 71001 886//   555
11006=
28049 429// 53303 10065 20049 30077 40239 52007 85050=
28319 42498 80000 10088 20077 30117 40279 52003 885//=
28334 42998 80000 10073 20048 39961 40260 52002 88050=
28434 429// 60000 10087 20056 30015 40267 51003 86030=
28552 42598 82501 10082 20080 30122 40232 52003 86300=
28825 41696 70000 10092 20075 30108 40277 53007 71082 87500   333
87646=
29111 11497 82803 10066 20064 30055 40141 53004 60012 78082 889//
333 20066=
29209 11598 72301 10071 20064 30033 40155 53006 60012 70282 87900
333 20049=
29551 12597 60000 10046 20041 39994 40167 52005 69902 84301
333 20038=
29602 32998 02401 10008 21003 30038 40178 52007
333 20001=
29636 11597 71802 10052 20045 39970 40183 52004 69912 78082 87300
333 20041=
29654 11298 82501 10038 20033 39591 40191 52001 60032 58082 889//
333 20038 86706=
29712 11996 20000 10013 20010 30038 40180 53004 69902 71000 82070
333 20008=
29724 12597 82002 10042 20037 39984 40188 52002 69992 82339   333
20036=
29726 12498 82302 10061 20054 30030 40195 52007 69932 8637/
333 20059 86919=
29814 11599 30000 10039 20029 30042 40186 54000 69912 70281 83500
333 20038=
29827 12697 81302 10060 20046 30046 40203 52001 69982 889//   333
20056=
29923 11599 81902 10048 20038 39937 40206 52005 69942 70281 889//
333 20048 55057 88622=
29939 11597 81301 10057 20041 39954 40235 52007 69932 78081 8635/
333 20040=
35026 41996 00000 10041 20027 39652 40286 53005 71000=
35037 42980 03302 10053 20041 39849 40268 52004=
36021 116// 82202 10063 20054 30024 40200 53001 60012 70882 885//
333 20061 88643=
36022 12697 81502 10053 20029 39954 40211 58004 69902 885//   333
20030 88642=
36038 32498 81703 10064 20030 39803 40235 53003 885//   333 20061
55037 88619=
36058 11396 80000 10049 20047 39752 40265 52007 60032 70282 889//
333 95075 95879 20043 55000=
29467 11597 72306 10070 20040 40167 53005 60012 70482 86901   333
20070=
29894 11696 83401 20042 39071 40135 53048 60022 78182 889//   333
20061 55000=
30157 32998 21602 10009 21037 39896 40176 57023 80001   333 21006=
30439=
30537 32999 83403 10074 20021 39590 40144 57031 80004   333 21012
55085=
30713 32698 82301 10027 20009 39463 40095 57030 83572   333 20012=
30815 32998 62307 10138 21044 38497 48440 56013 80001   333 20045
55097=
44216 32599 33609 10112 21019 38983 40175 52038 84040 333
20110 91112 555 30093=
44219 31698 71806 10120 20015 38618 40164 53020 71522 87500
333 20120 555 30106=
44221 11599 62702 10065 20033 38580 40184 53036 60012 72162
86500 333 20039 555 30033=
44224 11596 80000 10030 20013 38071 40203 53025 60022 76166
8652/ 333 20030 555 30045=
44229 32999 60000 10053 21034 37947 40157 57006 83078 333
20050 555 31007=
44242 32998 61803 10142 20009 39305 40158 56007 83042 333
20045 55/// 555 30040=
44243 32999 30000 10064 20041 39396 40205 57008 80004 333
20020 555 30004=
44254 32998 12005 10089 21038 39089 40226 56012 80004 333
21041 555 30005=
44257 32998 02307 10088 21027 39044 40251 56003 333 20020
555 30005=
44266 31598 72306 10038 20009 37818 40220 54000 71522 86840
333 20030 555 30004=
44291 32998 00000 10098 21019 38801 40269 58003 333 20040=
44325 31997 70904 10141 20084 38845 40157 54000 70721 86080
333 20137 55/// 555 30100=
44329 32898 21404 10065 20026 37830 40226 56001 82040 333
20061 555 30030=
44338 32999 20000 10139 20046 38522 40181 57002 80008 333
20113 555 30054=
44348 32997 02905 10136 20052 38755 40213 52011 333 20089
555 30026=
44374 32999 11407 10109 20004 38306 40180 56005 80001 333
20107 555 30060=
44385 32999 00903 10099 21017 38969 40243 54000 333 20087
555 30069=
44386 32999 00000 10117 21043 39090 40221 52020 333 20093
555 30046=
61090 32965 52804 10250 20189 39602 40101 81042
333 58004 81364 85080=
38001 42997 00201 10145 20109 30291 40262 57007   555 10010=
38232 42998 03403 10100 21013 30160 40258 53003   555 10007=
35925 429// 00000 10070 20015 30151 40161 58001   555 10005=
48820 11598 12702 10267 20245 30090 40098 53009 69902 70282 81100
333 00027 20264 3/026 58017 81895=
48826 31596 83407 10258 20255 39957 40086 53013 71022 8322/ 333
00028 20252 3/026 58010 83895 88499=
48839 32497 73608 10283 20255 30019 40083 52008 878// 222// 2//02
333 00/// 20280 58009 82894 87696=
48845 31496 70000 10268 20261 30080 40087 52002 71022 878// 333
00028 20265 3/026 58013 83894 87697=
48848 31770 73202 10266 20255 30084 40092 53014 70292 82548 333
00029 20254 3/026 58017 82697 87299=
48855 32770 72501 10260 20243 30076 40084 52009 83508 333 00027
20251 3/025 58013 83697 87299=
48870 32998 60000 10271 20242 30080 40087 53015 80008 333 00031
20257 3/025 58008 86299=
48877 32598 70000 10272 20236 30078 40083 52015 82808 333 00030
20251 3/025 58006 81895 87299=
48887 32970 60000 10264 20250 30080 40086 53010 80008 333 00029
20260 3/026 58003 86299=
48900 32497 32102 10283 20266 30077 40087 52005 82101 333 20261
58000 82894 83099=
48914 32598 73201 10282 20251 30088 40090 53004 81208 333 00029
20266 3/025 59003 81895 87299=
48917 32598 73601 10275 20248 30082 40087 52008 84308 222// 00294
2//01 333 00/// 20265 3//// 59005 82895 83995 86299=
48918 32470 72903 10290 20246 30084 40095 52009 83808 222// 00289
2//01 333 00030 20276 3/027 59003 81894 87299=
48920 12598 62506 10277 20245 30080 40080 52011 60012 82208 222//
00294 20201 333 20257 58003 82895 86299=
48803 11460 80000 10233 20227 39998 40110 53008 60082 70198 884//
333 01024 20231 3/024 58010 83894 88696=
48808 31/05 90000 10231 20228 39829 40108 52010 74541 333 00026
20227 3/024 58015=
48823 31997 73403 10261 20244 30080 40083 53012 71011 80008 333
00026 20261 3/025 58011 87299=
48830 31940 00000 10238 20232 39804 40105 52013 71041 333 00026
20227 3/023 58017=
48840 31996 03202 10265 20258 30083 40089 52007 71000 333 00028
20260 3/027 58010=
48852 32970 70000 10259 20245 30073 40083 53008 83038 333 01028
20241 3/025 58013 83399 87299=
48916 11598 72302 10271 20248 30052 40099 53011 69912 72582 83208
333 01/// 20264 3//// 59004 83895 87299=
48919 11497 82310 10280 20243 30079 40101 52010 69922 78082 889//
22200 2//04 333 20260 59001 82894 88995=
82100 22213 20402 30000 4//// 5//// 80220=
83831 22214 20101 345// 40501 80150=
48802 11460 80000 10216 20151 38430 52001 69922 70298 888// 333
01019 20957 3/014 58015 85894 88696=
48810 31/05 90000 10232 20231 39901 40103 53008 74541 333 01026
20231 3/025 58010=
48831 31440 83201 10253 20242 30051 40088 53012 71022 888// 333
01026 20250 3/024 58010 82894 88697=
48838 32597 60501 10264 20238 30083 40089 52008 82208 333 00028
20248 3/025 58012 82895 86299=
48846 32998 72701 10264 20251 30081 40084 52004 80008 333 00028
20259 3/026 58008 87299=
48863 32498 73201 10260 20241 30073 40084 53007 84808 333 00028
20253 3/026 58007 82894 83696 87299=
48866 31596 70901 10222 20220 39241 40115 53010 71022 873// 333
00024 20213 3/021 58004 87895 82995=
48875 11470 70902 10226 20222 39572 40106 53019 60142 70398 878//
333 01024 20215 3/021 58009 86894 84895=
48907 32598 72705 10290 20253 30085 40087 53007 84208 333 00029
20280 3/027 59003 84895 87299=
10402 70008 333 91210 555 11088 22093 32354 41010 60019 099084
100085 101085 102082 101081 100078=
54027 32980 00000 10056 21045 39763 40351 52002 333// 00954
31027=
54134 32970 00000 10094 21011 40351 52005 333// 01052 31028=
54026 32980 10000 10069 21068 30022 40349 52003 80002 333//
00954 31031=
54115 32980 00000 10052 21026 40343 57001 333// 00855 31024=
50727 32980 10000 11028 21083 39122 40376 57005 80001 333//
00553=
54226 32980 00000 10093 21011 40345 52009 333// 01056 31020=
50834 32980 32703 11024 21075 40365 54000 80002 333// 00756=
54213 32980 00000 10070 21044 40346 52001 333// 00954 31007=
55228 32980 00000 11012 21134 36088 52012 333 00201=
55248 32980 01101 11021 21131 35972 52010 333 00103=
55437 32780 10202 10028 21020 36414 52007 81100 333 00200
31014=
54218 32970 00000 10073 21006 39660 40342 52011 333// 00953
31005=
65319 33960 50000 10213 20202 39625 40140 80002
333 58016 85076=
65330 11460 70000 10232 20220 39660 40138 60011 70196 83502
333 0//53 58009 83610 85076=
65344 32460 72208 10254 20231 30128 40138 84502
333 58004 84612 85076=
61996 32581 71602 10091 20022 40252 875//
333 58043 87626 92438=
61998 11456 83249 10065 20053 39824 49859 56078 60091 76062 875//
333 59299 87610 91164=
64450 32358 82802 10240 20190 39765 40117 885//
333 0//00 58003 88623=
85585 32597 80000 10128 20099 40182 54002 8583/
333 10158 56779 82825 83630 83 LLANA=
67341 32580 50000 10192 20167 40198 57009 85500=
83552 313// 80904 10316 20223 39915 40086 70544 885// 333 10286
29/// 55082 59004=
83565 32/94 60504 10284 20157 39646 40108 89/// 333 10344 29047
55095 59008=
83618 3159/ 63208 10262 20183 39775 40146 5//// 71300 86300 333
10353 29069 55///=
83623 32996 01408 10274 20102 39547 40111 53006 333 10330 29037
55///=
83676 32994 20504 10236 20144 39538 40193 52009 80001 333 10310
29052 55///=
83704 32/96 90910 10230 20153 39718 40122 53012 88/// 333 10308
29056 55043=
83716 32997 41412 10214 20125 39640 40131 52010 84070 333 10296
29050 55062=
83726 31593 61810 10190 20116 39219 40191 51025 70544 86030 333
10274 29053 55093=
83773 21497 81409 10156 20129 39187 40071 54000 70055 887// 333
10230 29078 55/// 69901=
80001 32570 80301 10274 20259 30105 40106 81277
333 08100 10301 20249 56100 57872 58014 81823 88270=
80002 11570 80000 10262 20243 69961 70292 82107
333 01090 10306 20256 56090 82822 88270=
80022 31465 63502 10282 20244 30078 40080 70522 83401
333 10304 565/0 59021 83815 83070=
80028 31460 30202 10277 20273 30068 40085 70511 83600
333 10328 569// 59014 83715=
80094 31440 20000 10202 20192 38797 74021 81801
333 10255 59010 81810=
80097 32570 50000 10279 20220 39738 40084 83841
333 10331 56000 58005 83825=
80214 31560 20000 10234 20193 70522 81502
333 10282 560/0 81620=
80222 31560 83501 10117 20111 37514 70522 82836
333 10189 56999 59001 82620 86070=
80259 31560 63404 10254 20188 39006 70521 81506
333 10307 567/9 59041 81620 85070=
80315 32968 00000 10290 20195 39556 40040
333 10351 56009=
80398 01460 82302 10238 20224 30007 40102 60011 71596 8677/
333 10312 5699/ 58011 79947 86810 86357=
67237 32570 72106 10204 20181 40155 8750/
333 58000=
82586 32994 03608 10280 20169 39856 40092 333 10350 29046 55088
59003=
82686 32593 41402 10290 20111 39866 40110 84200 333 10358 29033 55105
59003=
82689 32694 20906 10318 20135 39852 40111 82030 333 10354 29033 55102
59003=
82571 32797 22702 10281 20222 39917 40113 82030 333 10350
29064 55079 59010=
67027 32680 30000 10238 20214 30106 40127 57003 83500
333 0//00 83640=
67083 32470 71207 10155 20112 38766 48562 58010 878//
333 0//00 81816 87620=
67095 32475 50000 10190 20175 30161 40167 56012 85800
333 0//00 82817 84633=
89050 21356 63322 11012 21015 49776 53011 71073 86600
333   60022 91123=
89512 42982 61410 11169 21258 39660 49813 58002 82041=
89592 31998 51424 11235 21309 49782 52001 73631 82031=
89606 42998 32607 11746 21769 36060 47836 56002 80001
333 21757=
67023 33582 11404 10192 20172 30146 40152 58010 81800
333 0//00 81820
555 81640=
63791 32480 60000 10150 20133 39141 48504 86500
333 55300 58000 86618=
83334 32995 01804 10222 20104 3//// 4////
333 10316 29044 55097 5////=
83383 32995 00000 10238 20148 3//// 4////
333 10320 29052 55108 5////=
83384 329// 00000 10240 20120 39564 40143
333 10329 29044 55107 59008=
83386 32995 00000 10215 20123 39610 40160
333 10317 29048 55110 59020=
83388 32996 00917 10234 20118 39458 40134
333 10302 29044 55110 59025=
83393 32995 01403 10200 20137 39458 40192
333 10265 29061 55104 59017=
83437 32997 00902 10212 20081 39438 40161
333 10295 29038 55110 59018=
83442 32995 01404 10230 20129 39823 40168
333 10301 29048 55083 59017=
83479 329// 00000 10218 20152 39360 40157
333 10297 29056 55107 58000=
83483 32996 00908 10246 20108 39564 40148
333 10308 29042 55099 59016=
83488 329// 01402 10158 20124 39165 40183
333 10239 29067 55102 59013=
83492 32596 50903 10214 20153 39820 40210 85200
333 10286 29067 55082 58000=
83514 32997 00902 10242 20137 39450 40140
333 10326 29047 55103 59009=
83538 329// 01403 10143 20106 38772 40205
333 10222 29065 55110 59011=
83543 32/91 90904 10230 20146 30049 4////
333 10276 59005 29061 55040=
83570 32595 20904 10212 20104 39399 40177 81101
333 10288 59015 29044 55101=
83574 329// 01402 10248 20130 39531 40147 59013
333 10341 29042 55107=
83577 329// 10504 10211 20103 39305 40160 80002
333 10313 29043 55109 59002=
83579 32996 00906 10190 20123 39019 40150
333 10270 29058 55108 59005=
83582 329// 00000 10150 20126 39403 40178 53015
333 10268 29065 55106=
83587 32997 00504 10184 20122 39171 40192
333 10237 29059 55090 59008=
83592 325// 60904 10190 20145 39506 40201 83240
333 10226 29075 55032 59012=
83595 329// 00904 10210 20172 30124 40210
333 10279 29075 55032 59015=
83642 32992 03601 10170 20150 39420 40209 51014
333 10234 29077 55034=
83683 329// 02302 10182 20093 39202 40176 51010
333 10278 29054 55089=
83687 32996 00908 10184 20112 39162 40176 53012
333 10261 29060 55107=
83692 32497 80906 10149 20137 39152 40219 51006 8536/
333 10212 29087 55026=
82693 32994 01411 10268 20161 39878 40133 333 10350 29046 55097
59009=
82024 32496 21820 10251 20234 30010 40092 828// 333 10288
29090 55003 58016=
82042 32397 60000 10333 20224 3//// 4//// 86400 333 10360
29096 55000 5////=
82113 21397 60000 10234 20217 3//// 4//// 70354 86300 333
10321 29017 5//// 69921=
82212 21498 80000 10246 20237 30047 40110 76022 887// 333
10344 29092 55054 58023 60031=
82240 32994 60000 10268 20246 30092 40126 80008 333 10310
29080 55088 58000=
82317 21396 80000 10224 20219 3//// 4//// 70296 885// 333
10330 29096 55049 5//// 60041=
82326 31697 20000 10257 20236 3//// 4//// 71322 80020 333
10302 29085 55026 5////=
82331 31696 60000 10270 20241 30038 40120 71392 83320 333
10321 29080 55039 59016=
82336 32697 60000 10264 20244 3//// 4//// 8447/ 333 10335
29082 55046 5////=
82410 21495 81402 10235 20222 3//// 4//// 70386 8657/ 333
10349 29086 55055 5//// 60051=
82425 32995 00000 10230 20222 30071 40128 333 10274 29096
55000 58008=
82533 31395 60000 10268 20265 30043 40099 71322 86300 333
10321 29095 55017 59012=
82610 32595 80000 10241 20219 3//// 4//// 887// 333 10364
29069 55050 5////=
82704 32897 20000 10296 20272 39839 40032 82010 333 10343
29086 55079 59012=
82723 32/95 90000 10236 20226 30036 40118 333 10350 29086
55035 58010=
82807 32992 00000 10282 20244 3//// 4//// 333 10339 29068
55083=
93023 36/// /2604 10153 20090 40260 57007=
93196 36/// /2920 10153 20089 40202 57006=
93305 41498 83024 10145 20117 40221 57006 70222 884//=
93334 36/// /2809 10089 20057 39261 52001=
93404 36498 /3019 10140 20108 40208 57001=
93498 36/// /3127 10171 20093 40151 52032=
93527 36/// /2818 10155 20127 40191 57012=
93597 36/// /2023 10147 20084 40163 52028=
93615 16/// /2505 10143 20133 40178 57003 60074=
93678 36697 /2417 10097 20075 40196 52052=
93709 16/// /0206 10145 20056 40169 52003 60304=
93831 16998 /2705 10132 20020 40157 57001 60034=
93896 11698 52624 10116 20027 40158 51004 69974 70522 8540/
333 85630=
93947 16/// /2926 10078 20024 49967 57012 60024=
93994 36/// /0908 10195 20139 40243 57007=
68174 36/// /0512 10132 20089 38792 48520 57018
333 10227 20121 91016 555 91019=
68242 17/// /0310 10139 20107 38744 48519 52031 60081 7606/
333 10192 20139 60025 91013 555 20076 91019=
68262 32560 70000 10152 20077 38738 48546 57006 83570
333 10201 20149 91006 555 91023=
68263 32570 50706 10121 20072 38512 48535 57011 82550
333 10179 20121 91011 555 91022=
68350 36/// /0708 10152 20131 38664 48506 57027
333 10192 20148 91018 555 91019=
68368 31859 31010 10103 20088 38326 48527 57014 70522 83082
555 91022=
68372 36/// /1004 10073 20072 38477 48539 57008
333 10232 20073 91008 555 91023=
68424 36/// /1506 10126 20102 39209 48507 57015
333 10239 20120 91007 555 91017=
68438 17/// /0000 10138 20138 38843 48531 52012 60021 7216/
333 10186 20138 69925 91003 555 20018 91020=
68442 12/// /1008 10140 20095 38676 48528 57009 69963
555 91021=
68461 36/// /1006 10115 20099 38356 48548 57013
333 10233 20106 91009 555 91024=
68512 32982 00000 10156 20131 39032 48518 57010
333 10230 20149 91004 555 91018=
68588 32470 72603 10202 20179 30183 40199 57007 875//
555 91020=
68618 36/// /0410 10165 20092 39070 48524 57011
333 10257 20138 91015 555 91019=
68668 36/// /0000 10161 20148 39335 48537 5////
333 10219 20159 91004 555 91020=
68714 36/// /1904 10136 20128 30127 40164 57011
333 10207 20134 91007 555 91016=
68752 36/// /0000 10152 2//// 39530 48553 57006
333 10173 20146 91003 555 91022=
68816 32575 11518 10156 20119 30112 40162 57016 81500
555 91016=
68828 11/// /1603 10149 20145 39981 40211 58005 60013 7//60
555 91021=
68842 32560 72405 10162 20150 30133 40207 58009 875//
555 91020=
68858 320// /2503 10176 20169 30063 40210 57009 82550
555 91021=
11015 21050 86710 92870 94070=
71400 36/64 ///// 10058 20028 30157 40288 53009 333 10200 21035
70016=
71472 17/// /0913 10142 39980 49997 56061 69921 7//4/ 333 10142
20101 70020=
82784 32995 01405 10272 20142 39664 40128 333 10338 29043 55104
59003=
64851 32460 70000 10210 20202 39625 40101 84032
333 59020 85362 87080=
64860 329700 60000 10220 20219 39845 40114 83032
333 0//00 59011 83362 86080=
64870 32460 70000 10168 20165 38911 48506 83502
333 59010 83616 87080=
64910 11440 81404 10244 20238 30108 40118 60311 79596 889//
333 0//74 59014 88613 81916 94945 95875=
71702 36/// ///// 10159 20099 30242 40268 53001 333 10201 20087
70000=
63740 32470 60000 10157 20139 48501 865//
333 59003 86617=
63723 32582 11718 10241 20195 40110 81500
333 59005 81623=
82863 31995 00000 10277 20240 39882 40090 71040 333 10361 29064
55098 59017=
83064 31995 01804 10288 20189 39826 40091 70541 333 10366 29048
55097 59012=
83228 32/97 90000 10270 20196 39832 40110 333 10357 29050 55101
59007=
83235 32998 00000 10260 20141 39446 40109 333 10338 29046 55///
59008=
83368 31796 50000 10272 20182 39743 40101 70544 83034 333 10358
29058 55022 58008=
83374 32997 00906 10263 20178 39559 40125 333 10349 29049 55///
59011=
83376 32998 00910 10239 20124 39284 40092 333 10325 29047 55098
59012=
83423 32998 01402 10262 20130 39311 40125 333 10325 29048 55///
59003=
83470 32698 83206 10247 20161 3//// 4//// 8552/ 333 10/// 29052
55043 5////=
83522 31997 00902 10230 20132 39290 40142 70544 333 10303 29051
55110 59004=
83526 32997 00903 10230 20104 39204 40140 333 10294 29042 55106
58009=
82281 32470 20607 10278 20242 40113 82500 333 10326 59006=
89758 46/// /20// 11463 36883 4//// 5////=
89568 46/// /15// 11490 37163 4//// 5////=
89774 46/// /07// 11532 36909 4//// 5////=
83766 32597 60000 10176 20135 39532 40188 53001 86500
333 10224 29071 55026=
83767 21596 80502 10200 20125 39544 40171 54000 70552 8651/
333 10246 29060 55032 69911=
83783 32597 80910 10184 20156 39487 40162 53005 8452/
333 10216 29087 55011=
83811 32997 01402 10138 20125 39275 40173 54000
333 10200 29086 55011=
83813 32697 80000 10120 20117 39090 40203 53008 887//
333 10151 29096 55000=
83836 32997 00000 10111 20104 39196 40181 51003
333 10158 29091 55005=
83844 32597 30000 10172 20164 30200 40207 52012 82260
333 10232 29087 55102=
83872 31595 50000 10176 20156 30136 40218 53014 71021 85400
333 10267 29084 55052=
83881 32997 20503 10240 20120 39860 40157 51003 80004
333 10296 29052 55037=
83883 31996 30502 10202 20111 39388 40163 52008 70511 80004
333 10260 29054 55071=
83887 32997 00906 10149 20100 39131 40188 52013
333 10239 29067 55087=
83907 32997 00904 10234 20149 39878 40159 51006
333 10294 29055 55078=
83912 32997 00000 10210 20158 39643 40181 54000
333 10280 29069 55096=
83914 32997 00508 10192 20115 39396 40170 52006
333 10258 29061 55089=
83919 32997 40502 10150 20110 39012 40200 51013 80004
333 10230 29070 55070=
83936 32997 01402 10220 20180 30043 40166 52010
333 10296 29073 55092=
83948 32597 00508 10185 20176 30147 40185 51014
333 10228 29087 55///=
83953 32997 01803 10191 20106 39792 40173 52010
333 10302 29064 55098=
83964 32997 00000 10191 20160 39691 40182 52010
333 10270 29071 55095=
83980 32997 01802 10202 20160 39892 40172 53017
333 10268 29070 55103=
83995 32997 00902 10166 20163 30184 40187 53010
333 10231 29092 55074=
83997 32397 41404 10146 20144 30178 40222 51011 84600
333 10235 29083 55093=
78866 32584 10806 10274 20232 30147 40151 52009 81102 333 10335
20260 59005 81822=
45011 11440 80000 10258 20248 40096 52014 60082 79598 8697/
333 20248  58023=
33041 42960 70801 10099 20058 30126 40282 57001 8707/   555 10009=
42101 32996 00000 10220 20211 40075 333 58024=
42131 32996 00000 10258 20210 40067 333 58018=
42182 31995 02501 10232 20185 40073 70500 333 58020=
42328 32996 02003 10244 20228 40073 333 58022=
42348  31596 30000 10254 20185 40073 70500 83530 333 58016 83630=
42361 32997 20000 10240 20210 40071 82030 333 58018 82360=
42369 31995 00000 10236 20221 40064 71000 333 58025 =
21908 11599 61701 10089 21000 39961 40049 56002 69942 70272 8623/
333 20017 55002=
34560 42997 00704 10112 20071 30116 40279 57006=
34824 42997 00903 10140 20045 30200 40206 57007=
34858 41959 00000 10072 20040 30139 40246 57003 71000=
34880 41996 01401 10054 20047 40263 57005 71000=
37018 42998 70503 10177 20117 30109 40157 57004 87030=
37054 42998 01103 10092 20071 39844 40225 57007=
37472 42975 01305 10169 20088 30247 40225 57011=
34240 42962 80000 10075 20053 30165 40301 54000 86031=
34357 42998 00000 10084 20053 30134 40293 57001=
34363 42998 03101 10124 20034 30138 40283 57003=
34545 42998 00501 10092 20032 30161 40272 57003=
34579 42979 00102 10114 20048 30228 40270 53002=
34759 42998 01501 10052 20017 30131 40264 57005=
34838 42997 30902 10135 20027 30126 40220 57004 80001=
34929 42964 00607 10143 20071 30137 40178 57006=
34954 42998 01301 10130 20073 30060 40229 57011=
37031 42997 00904 10124 20058 30012 40203 57006=
37085 32996 00501 10119 20085 30273 40247 57005=
37145 42998 00901 10104 20090 30061 40227=
37171 42998 00704 10168 20142 40154 58005=
37228 42597 80000 10097 20086 39391 40211 57009 885//=
27857 42997 00000 10052 20047 30149 40113 57002=
28909 42999 00000 10061 20058 30183 40283 54000=
37061 42970 00902 10114 20074 30072 40237 57007=
21802 12499 82102 10028 20015 30004 40027 57003 69942 885//   333
20016 55000 88613=
24125 11296 82602 10030 20027 39794 40063 58011 69962 75165 886//
333 20029 55000 88703=
24329 32599 80000 10015 20004 40087 57003 8553/   333 20011 55000=
24343 12399 81802 10008 20005 39955 40070 57010 69932 886//   333
20005 55000 88708=
24382 12999 80801 11006 21055 39843 40087 57004 80006   333 21057
47007 55065=
24639 11699 82303 10046 21031 39948 40095 57006 69902 70262 8255/
333 21044 55002=
24641 11499 82503 10049 21007 39943 40080 57009 60012 70282 883//
333 20050 55004 86914=
24652 11330 81006 10002 20002 39972 40091 57012 60032 78582 883//
333 20000 43001 86707 88919=
24688 11699 83201 11043 21094 39244 40149 58004 69900 77071 885//
333 21097 55000=
24724 11499 82406 10039 20027 39595 40105 57004 69902 70382 86531
333 20036 55049 86612=
24738 32999 82002 10040 21040 39937 40113 57010 84031   333 20020
55006=
24768 11496 81902 10006 20003 39901 40129 57011 69942 77172 8802/
333 21056 43001=
24923 32799 82304 10038 21031 39842 40139 57012 86501   333 20031
86650=
24944 32599 72303 10018 21026 39864 40147 57017 82930   333 21001
55022=
24951 12699 82701 10041 21005 39993 40140 57017 69902 8252/   333
20023=
24959 11498 82502 10026 20016 39986 40111 57016 60012 76176 8577/
333 20012 55107 85717=
24962 11498 82302 10009 20009 39961 40143 57011 69922 78182 883//
333 21045 55075 88918=
24966 32598 82403 10002 21035 39939 40152 57006 8697/   333 21022
55002 86922=
25400 31698 81802 10008 21019 30044 40098 57003 78582 8693/   333
21042 47014 55000 86933=
30054 32598 72701 10003 21008 39918 40154 57028 86936   333 21015
55097=
30393 32999 82205 11010 21089 39189 40223 57019 83031   333 21047=
30493 32999 50000 11036 21068 39198 40246 58014 80002   333 21119
44005 55031=
31004 12999 82102 10027 21035 39366 40180 57020 69902 82037   333
21009 42005 55072=
33027 42465 71302 10117 20071 30088 40254 57002 875//   333 87617
555 11011=
47058 32966 03404 10160 20048 30210 40256 52009 333 20126=
47008 32970 00203 10117 21086 30250 40303 52017 333 20087=
47014 32950 00000 10049 20006 39877 40278 52045 333 20011=
47016 32970 00000 10061 21064 39451 40319 52025 333 21003=
47020 32965 00000 10100 21030 39953 40314 52020 333 20080=
47025 32970 00505 10132 20013 30237 40265 52022 333 20117=
47035 32970 00206 10127 21009 30301 40309 52024 333 20106=
47041 32970 00501 10161 20080 30240 40267 52022 333 20120=
47055 11465 80907 10143 20105 30234 40278 52030 60162 76186
8802/ 333 20125=
47069 32960 01402 10204 20113 30126 40221 52006 333 20166=
38062 42997 00000 10068 21015   555 10003=
35969 429// 00000 10032 21022 30096 40270 53008   555 10002=
43466 32498 30000 10246 20237 30085 40093 83100 333 59006 70145
83818=
35746 42998 00000 10076 20048 30171 40250 54000   555 10005=
35953 429// 00000 10079 21002 30133 40260 54000   555 10005=
44214 12998 00000 10015 21036 38319 40256 52011 69942 333
20013 555 31021=
44277 32699 62705 10068 20040 37850 40186 52002 70710 82554
333 20064 55/// 555 30027=
35849 42998 00000 10051 20017 30166 40251 54000   555 10002=
38069 429// 00000 10038 20004=
40856 32960 00000 10154 20000 39644 40111 56002 92350 333=
42809 21495 70000 10276 20268 40068 70522 82508 333 58017 6002/
82615 87270=
42895 22996 30000 10264 20238 40064 82031 333 58009 6001/ 82360
83075=
42971 31595 22302 10260 20246 40070 70500 81101 333 58008 81825=
28952 425// 73401 10093 20082 30049 40239 52001 87900   555 1/009=
24988 32999 23103 10036 21057 30864 40107 58004 80001   333 21050=
31174 32999 33405 10054 21039 30161 40172 58003 81501   333 21033
55000=
31263 32999 20000 11014 21066 39670 40248 52014 80002   333 21110=
31866 32699 12607 10079 21122 30160 40165 58012 81200   333 21034=
31959 32599 32903 10080 21019 30179 40221 52005 83200   333 21003
55093=
31989 32599 12403 10097 21044 30195 40248 51009 81100   333 20036=
32027 11598 83410 10062 20033 30111 40119 52006 60170 72512 889//
333 20051 88923 91014 91117=
32076 32998 22802 10088 20019 30084 40094 58012 82200   333 21018=
32408 32999 73503 10091 21009 30047 40084 58002 80001   333 21012
55100=
32509 32699 31802 10081 20045 30049 40082 58004 81021   333 20011
55083=
32594 12498 72110 10099 20074 30092 40127 53002 69980 87300   333
20073 55/// 91012 91114=
28867 42598 60000 10036 20004 39950 40216 53001 86500   555 11003=
44314 32998 01402 10048 21073 39248 40330 57009 333 21023
555 31041=
44336 32999 01802 10103 21064 38732 40215 58011 333 20083
555 30060=
44341 32999 00502 10079 21022 38673 40251 58011 333 20056
555 30005=
42559 22997 30000 10244 20199 40072 80002 333 58019 6990/
83070=
42667 32996 30000 10226 20196 39500 40084 83030 333 58010
83360=
42754 32596 30000 10218 20191 39452 40086 81530 333 58011
81620 83360=
42779 32996 30000 10222 20172 39395 40087 83030 333 58016
83360=
42867 32596 23602 10230 20218 40081 81530 333 58012 81625=
42874 22996 30000 10240 20228 40073 81031 333 58010 6991/
81360 83075=
42934 32996 00000 10244 20211 40079 333 58012=
43041 32596 60000 10222 20213 39474 40089 82532 333 58009
82625 83360 86070=
47003 32980 03206 10099 21022 30291 40295 52011 333 20076=
47005 32980 00202 11004 21071 38712 52022 333 21054=
47022 32975 03206 10038 21071 38937 52013 333 21005=
47028 32972 00703 10123 20013 30210 40302 52012 333 20098=
47037 32970 03401 10138 20061 30161 40279 52014 333 20105=
47039 32960 03603 10139 20064 30108 40295 52027 333 20087=
47050 32965 00506 10140 20029 30226 40259 52013 333 20115=
47052 32565 20000 10083 20064 39931 40269 52012 82500 333 20048=
47060 32960 00209 10149 20131 30195 40252 52010 333 20149=
47065 32965 03603 10162 20045 30178 40241 52007 333 20140=
47067 32965 03203 10161 20076 30118 40234 52017 333 20101=
47068 32970 00504 10177 20036 30211 40245 52014 333 20123=
47070 32975 01401 10192 20100 30144 40228 52009 333 20140=
47075 32580 60704 10171 20105 39827 40240 52017 86500 333 20091=
44210 32999 03202 10040 21068 38542 53010 333 20037 555
31020=
44217 12998 00000 11019 21064 37900 40296 52005 60012 333
21021 555 31041=
44263 12999 30000 10031 21069 38106 40264 52009 69982 83040
333 20029 555 31006=
23226 41460 82303 10023 20021 39934 40149 57019 76162 885//
333 88611=
23606 42960 52402 10088 20080 30057 40225 57013 85030=
23074 41295 82804 10032 20030 30008 40032 57003 71042 886//
333 20032 88706=
23274 11297 72103 10055 20048 30009 40027 57007 69992 76162 877//
333 20050 55000 85703=
23383 32599 60000 10020 20012 39712 40052 57012 86900   333 20020
55000=
23472 32498 83003 10051 20049 30018 40065 57012 889//   333 20050
55014=
23678 11410 80000 10059 20059 30004 40061 57014 69932 74455 886//
333 20059=
23884 12570 81901 10062 20055 30013 40084 57006 69902 889//   333
20060 55000=
23891 12496 71801 10060 20049 39788 40106 57006 69972 87900   333
20060 55000 95050=
24507 11496 81101 10045 20035 39855 40082 57014 69942 71022 885//
333 20044 55000 88616=
24908 32681 80000 10009 20001 39805 40126 57016 8652/   333 21002
55037 86640=
29263 11597 81801 10038 20033 30039 40137 57004 69902 72511 8595/
333 20006 55038=
29282 12598 80000 10051 20044 39969 40133 57004 69932 889//   333
20051 55041=
29570 11598 72102 10067 20053 39836 40171 52017 69992 72582 87900
333 20064=
29698 11597 83103 10078 20071 39626 40117 53017 60052 78082 889//
333 20078 55025=
30230 32599 80000 10012 20007 39806 40126 57028 85546   333 21002
55060=
30521 32998 80000 10014 20011 39582 40101 57037 80001   333 20005
55041=
23973 11597 81805 10057 20050 30034 40094 57013 60012 76122 8582/
333 20057=
23975 12598 80000 10060 20060 4//// 889//   333 20056 55000=
23987 11395 71203 10047 20042 30036 40107 57007 69982 71022 87900
333 20047 55002=
29253 11599 80000 10045 20045 39964 40133 57027 60022 70282 889//
333 20000=
29471 11597 82801 10060 20051 39941 40162 53009 69902 78082 8692/
333 20056=
29481 11597 82902 10069 20058 39915 40144 54000 69902 76126 8472/
333 20058=
29553 11571 52501 10062 20033 39811 40165 53002 69942 70281 85900
333 20060 55062=
29562 11598 62403 10058 20046 39764 40169 52005 60012 70262 86900
333 20057=
29581 11597 82502 10082 20078 39902 40148 58002 60052 78182 8592/
333 20063=
29594 11597 82903 10086 20082 39767 40134 53006 60122 78182 8692/
333 20083 55039=
29653 11598 52302 10035 20025 39716 40190 53005 69962 70182 82201
333 20026=
29676 11696 82702 10076 20076 39756 40162 52011 60142 76166 885//
333 20074=
29766 11599 71802 10071 20055 39861 40204 52020 62042 70282 87900
333 20065 55006=
29869 11998 30000 10052 20045 39868 40233 52018 60132 70161 83030
333 20051=
30504 32998 10050 20045 39473 40095 53004 8805/   333 20043 55036=
30603 32998 83208 10050 20045 39526 40073 56012 87050   333 20050=
30612 32999 10060 20044 39564 40073 57035 82037 20050 55059=
30622 32998 80000 11001 21010 39480 40110 57041 80003   333 21003=
23701 41905 02401 10062 20060 30123 40251 56007 74641=
43003 21495 70000 10248 20239 40077 70595 86830 333 58003 6014/
84618 85360=
43014 32996 30000 10214 20205 39441 40087 80001 333 83075=
43063 21596 30000 10212 20209 39459 40083 70252 82730 333
56690 58006 6014/ 81720 83356=
43128 21496 70000 10226 20217 39480 40085 70596 85730 333
56590 58012 6994/ 82710 83615 85360=
43185 21996 20000 10262 20251 30068 40071 70500 81031 333
58005 6001/ 81360=
43201 62703 10220 20205 39363 40082 70265 83670 333 56690 58002
6008/ 82708 83358 85460=
43213 21596 80000 10230 20215 39760 40078 75065 8457/ 333
58001 6003/=
43237 21495 80000 10234 20216 39700 40093 75096 8472/ 333
5669/ 58000 6035/ 83715 88460=
43245 31596 43202 10270 20241 30053 40075 71311 83330 333
57950 58005=
43279 32596 62502 10264 20244 30063 40080 81531 333 58009
81620 84360=
43295 22496 52902 10208 20190 39078 48486 82531 333 56699 58001
6991/ 82618 83075=
43314 21596 71402 10250 20238 40092 72162 82470 333 58008 6007/=
43321 21496 50000 10234 20222 39641 40087 70522 81531 333 58004
6001/ 81615 84360=
43329 32596 40000 10264 20238 30065 40078 82401 333 58000=
43344 31596 42302 10262 20233 39982 40081 70511 82502 333 58001
82620 83075=
43371 21596 30000 10244 20238 30019 40092 70262 82430 333 58002
6004/ 81620=
43599 21480 72508 10272 20237 40115 70282 82208 333 59002
6008/ 82818 87276=
29862 11598 22105 10055 20055 39894 40208 52006 60022 70281 82509
333 20055 55007=
29675 11598 70000 10060 20056 40200 52024 60032 72582 87900   333
20033=
29759 11599 72701 10028 20015 39204 40208 52003 60072 78082 86901
333 20027=
29864 11599 33401 10034 20011 39573 40210 52007 60012 70282 82901
333 20034=
29956 11698 72102 10041 20029 39689 40241 52003 60022 70282 87900
333 20038 55006 87937 95050=
30499 32998 82303 11046 21085 39599 40262 57013 80001   333 21086=
30683 32999 60000 11042 21084 40278 52004 80001   333 21080=
30695 32999 53201 11026 21067 39927 40265 58013 80005   333 21085=
31253 32599 20000 11004 21049 39782 40237 53003 86501   333 21054
55086=
31295 32999 01801 11023 21052 39800 40266 57007 333 21058=
31348 32999 80000 10022 21046 30012 40203 50001 80007   333 21062=
31418 12999 83201 10028 20001 39952 40202 51001 69910 80002   333
11020=
31439 31498 83608 10040 20020 30107 40150 52014 60020 70282 889//
333 20030 88919 91112=
31442 32999 03303 10021 21043 39904 40253 58001   333 21058=
31587 32999 02702 10025 21053 30141 40287 52010   333 21032=
31713 32999 02902 10065 21022 30138 40237 52003   333 21022=
31801 10007 21029 40218 52004 83500   333 21034=
30455 32699 81702 11016 21050 38934 48491 58018 82552   333 21066=
30542 32999 80000 11014 21054 39513 40206 57064 80006   333 21060=
30549 32899 40000 11064 21064 38707 48491 57012 82081   333 21080=
30669 32699 30000 11028 21035 39397 40268 58020 80001 33321   045
55514   105 34106 7000/=
30726 32999 80403 10076 20045 39576 40124 57027 81031   333 20064=
30731 32999 51502 10071 21014 39551 40132 57022 82032   333 20041=
30739 32999 20403 10005 21018 39406 40215 57016 80002   333 21016=
30741 32998 00000 10034 21007 38714 48485 58055   333 21021=
30745 32999 60502 10008 21012 39095 40226 57016 80002   333 21020
55109=
30764 32999 80000 11034 21048 39454 40253 57018 82043   333 21064=
30811 31997 00000 10006 20006 39274 40138 57011 74000   333 21006
55069=
30822 32497 72802 10075 20062 39558 40113 57019 82642   333 20048=
30824 32495 81102 10079 20070 39546 40105 57020 887//   333 20001=
30829 31/01 93301 10022 20022 39509 40183 57009 74740   333 20006=
30838 42998 20000 11006 21018 39242 40213 57025 80002   333 21023=
30846 32999 00000 10126 21005 39345 40247 56007   333 21021=
30859 32999 51401 10048 21022 39424 40235 57014 80001   333 20020=
30862 32999 63301 10033 21021 39521 40243 57018 86030   333 21019=
30957 32999 02301 10023 20001 39364 40244 57010   333 21015=
30967 32699 22104 10050 21065 39463 40209 57024 81502   333 21002=
30975 32999 20702 11020 21040 39670 40219 57008 80001   333 21059=
31825 32599 72902 10058 21052 39970 40172 58004 87900   333 21035=
31845 13599 80000 10024 21003 30082 40245 52019 69952 883//   333
21010=
31878 32699 13104 10047 21026 30151 40274 52016 81200   333 21029=
31915 32999 03304 10080 21054 30024 40283 52007   333 21019=
31917 32999 02704 10083 21060 30173 40308 52018   333 21006=
31921 32999 03402 10072 20048 30198 40293 51019   333 20022=
31969 32998 01706 10086 21050 30253 40302 52008   333 20061=
31981 32699 53002 10051 21039 30034 40267 50009 85200   333 21027=
31987 32699 23606 10073 21094 30007 40262 51010 82100   333 20036=
32069 11498 73210 10076 20061 30116 40121 57002 60060 78082 87900
333 20030 91013 91116=
42111  32996  00502  10200  20158  39328  40090
333   58030=
42123 32996 00000 10220 20182 40077 333 58025=
42435 32996 03601 10256 20236 40090 333 58021=
42479 31994 00000 10256 20244 40066 71000 333 58018 =
24856 11499 82404 10031 20026 39977 40127 57012 69952 70262 886//
333 20009 55101 88719=
30686 32998 60000 11025 21050 39904 40278 57010 80001   333 21084=
30777 32999 20000 10000 21048 39621 40270 57020 80002   333 21048
55106=
30961 32999 21407 10041 21038 39482 40251 57016 80008=
30971 32999 20000 10052 21049 39315 40274 57016 80001   333 21090=
30978 32999 12002 10009 21017 39638 40317 57012 80001   333 21009=
31513 32999 02702 10027 21050 30029 40252 58006   333 21030=
31832 32599 13004 10044 21020 30162 40247 52012 81500   333 21017=
24982 32999 00401 10018 21040 39627 40112 58004   333 21094=
31913 12999 03204 10068 21032 30165 40274 52013 69902   333 21001=
31939 32699 71001 10027 21003 39958 40282 52013 86530   333 21029=
32121 32599 22806 10097 21014 30014 40136 53001 82900   333 20070=
32128 11598 73503 10075 20004 30082 40136 53003 69970 78081 87300
333 20066=
42103 32996 00000 10226 20195 40065 333 58020=
43221 31596 62303 10270 20219 30060 40073 71322 83932 333
57941 58008=
43311 22596 80000 10262 20242 40082 8387/ 333 58005 6006/ 82620
86460=
43360 32997 40000 10254 20227 39933 40081 82031 333 58003=
43053 32596 30000 10288 20274 40070 82501 333 58008=
17022 32970 01305 10182 20163 40168 57009 333
92428=
40001 32970 00000 10248 20054 40034 58003=
40007 32970 00000 10202 20158 40046 53003=
40045 32970 00000 10216 20072 40058 53001=
40061 32970 03003 10238 20172 40039 56005=
40080 32970 02102 10180 20153 39394 40063 56003=
40095 32970 20000 10190 20175 39467 40069 58005 82500 333 82630=
62306 32560 32704 10233 20200 40120 56010
83500=
62318 32960 03312 10264 20219 40100 57006=
62337 31950 01602 10199 20187 40084 58008
71000=
62366 32560 43202 10252 20221 40100 57004
84200=
62393 32960 03110 10226 20126 40096 54000=
62405 32960 01504 10244 20120 40071 58010=
62414 32960 03410 10266 20087 40065 58007=
62417 32960 00301 10268 20150 40110 58006=
62440 32560 22406 10240 20220 40092 58007
82500=
62463 32960 02915 10272 20132 40058 58005=
26167 41956 00000 10041 20041 30184 40298 53001 71000=
24817 32599 72001 10027 21015 39761 40117 57017 81435   333 20027
55089=
98223 11460 70902 10261 20241 40095 53011 60044 70544 81906
333 20237 56999 58005 70038 81919 86280=
98232 31470 52202 10260 20247 40071 53004 70544 81271 222//
299//
333 20240 56999 59002 81818 83075=
98325 11460 41801 10264 20245 40083 53007 69994 70544 82272
222//
333 20244 56999 58001 70009 82817 98308=
98329 11472 50401 10257 20241 40095 52008 60834 70544 82262
333 20230 56999 58005 70828 82818
555 00015=
98336 31475 70000 10264 20245 40083 52010 70544 81201
333 20216 56999 59004 81820 87275=
98429 11558 72201 10277 20239 40100 52021 6///4 70544 83830
333 20250 56999 58002 7//// 83823 86360=
98431 31470 80000 10265 20237 40085 51011 70544 82237
333 20256 56999 58002 82818 88275=
98440 11465 82201 10256 20248 40089 53023 69924 70584 81207
333 20250 56999 58007 70002 81815 88278
555 29999=
98444 12468 72203 10274 20248 40093 53006 69924 82238
333 20250 56999 58007 70002 82818 86270=
98531 31475 70000 10270 20249 40095 53006 70544 83270
333 20262 56999 58009 83818 86359=
98536 11468 81902 10258 20236 40100 53008 60184 70584 8387/
222// 20000
333 20250 56499 58011 70179 83818 88357
555 0//// 20144=
98543 12470 52501 10271 20243 40096 53012 60084 82201
333 20250 56999 59004 70086 82818 84075=
98550 11460 53201 10277 20245 40085 53008 60104 70544 81208
222// 20101
333 20248 56999 58001 70106 81818 84272=
28255 42970 82703 10068 20068 30102 40229 52002 86031=
98618 12580 83401 10247 20238 40103 53008 60084 82207
333 20230 56999 58001 70008 82820 84358 88274
555 0////=
98630 11465 80000 10264 20254 40105 53019 60134 78188 84261
222// 20000
333 20250 56999 58004 70134 84818 88458
555 20102=
98637 11475 70000 10270 20250 40117 53010 60024 70522 82270
333 20250 56999 58008 70016 82812 86358=
98741 31470 31802 10267 20252 40101 52023 70544 82202
333 20220 56999 58007 82818=
98747 11470 72101 10242 20214 40106 52001 60034 70544 81201
333 20214 56999 58005 70031 81818=
98755 31570 22701 10264 20237 40105 53014 70520 82201
333 20228 56999 59001 81820=
98836 11565 20000 10278 20238 40114 52016 60024 70180 81201
333 20240 56999 58008 70018 81820
555 20008=
41530 316// 20000 10215 20160 40084 70500 81530 333 56990
58017=
41624 329// 00506 102?0 20196 39870 40065 333 58033=
41640 319// 00000 10253 20202 39824 40065 70500 333 58027=
41660 319// 00000 10128 20028 48502 70600 333 58033=
41768 319// 00000 10250 20228 30056 40063 70500 333 58013=
41780 325// 52304 10270 20241 30043 40070 85600 333 56900
58006 85720=
22522 42975 02702 10131 20109 30223 40232 57005=
22550 42970 01802 10123 20102 30235 40245 57009=
22583 42598 22502 10124 20094 30141 40219 57010 82500=
22768 42997 01803 10099 20086 30223 40278 57003=
22845 42998 01801 10057 20048 30141 40298 57002=
22887 41958 29901 10065 20053 30206 40275 71000 80001=
23205 42384 82405 10109 20099 30108 40122 57033 886//   333 88708=
23418 41470 82203 10103 20089 30116 40188 57018 70282
886// 333 88710=
23711 42970 82403 10098 20088 30065 40235 57015 8803/=
23804 42997 32001 10079 20068 30117 40263 57006 83030=
27037 41998 02401 10034 20034 30149 40312 58001 71100=
27199 42997 00000 10086 20082 40281 57002=
27271 42997 30000 10055 20048 30146 40302 56001 83030=
27459 41941 00000 10095 20081 30112 40305 57001 71011=
27730 41957 00000 10067 20060 30119 40313 58005 71000=
22165 41957 72304 10092 20088 30084 40144 56002 71011 87030=
22676 41857 70000 10064 20060 30171 40249 57007 71011 87010=
22837 42965 00000 10052 20050 30236 40307 53002=
22954 42965 00000 10079 20064 30053 40301 57002=
23405 42980 39902 10094 20088 30089 40186 57024 80001=
23412 42680 52102 10089 20086 30079 40174 57027 82530=
23803 42977 00000 10040 20033 30100 40280 52003=
27066 42998 01701 10062 20053 30125 40303 54000=
27083 41956 00000 10065 20058 30064 40286 54000 71000=
27113 41/92 90000 10046 20046 30164 40311 58003 74541=
27242 42996 00000 10042 20037 30186 40316 54000=
27329 42962 80000 10077 20073 30189 40315 57002 8801/=
27373 42999 03001 10089 20074 30079 40295 58002=
27665 42997 22801 10096 20065 30043 40311 57001 82030=
28009 42996 80000 10077 20073 30073 40281 58001 8803/=
28411 42997 30000 10053 20044 30093 40291 52007 80001=
22438 42971 01808 10098 20085 30207 40228 57006=
22563 42997 01302 10117 20095 30190 40227 57005=
22854 42984 02001 10058 20046 30008 40296 56001=
22867 42980 00000 10050 20041 30180 40295 57001=
22996 41996 01502 10078 20076 30094 40282 57004 71000=
27051 42960 00000 10046 20046 30136 40305 57001=
27225 41996 01301 10071 20058 30183 40314 57003 71000=
27252 41996 23201 10059 20054 30121 40307 54000 71011 80001=
27369 42998 00000 10087 20068 30168 40304 54000=
27393 42996 00000 10080 20058 30131 40299 52001=
27479 42999 02601 10117 20092 30163 40293 53001=
27532 41996 00000 10092 20080 30098 40308 58006 71000 83051=
28214 42999 80000 10083 20078 30082 40291 52001 8805/=
42379 31595 10901 10270 20244 40064 70500 81500 333 58024 81625=
42452 32996 00000 10278 20195 40072 333 58016=
42475 31995 00000 10254 20224 40064 70500 333 58020=
48806 31/05 90000 10216 20216 39356 40117 52015 74542 333 00024
20215 3/022 58019=
53889 70110=
53972 70080=
53974 70120=
53978 70070=
53979 70070=
53982 70060=
53983 70050=
53984 70070=
53985 70110=
53987 70110=
53988 70070=
53989 70090=
53991 70090=
53992 70110=
53993 70080=
53994 70080=
53995 70080=
53997 70080=
53998 70040=
54817 70040=
54900 70080=
54901 70060=
54902 70060=
54903 70040=
57056 70110=
57063 70100=
57065 70020=
57070 70070=
57072 70040=
57076 70030=
57079 70060=
57080 70040=
57081 70030=
57093 70020=
57396 70010=
58004 70010=
47031 42970 03403 10055 21044 39029 52008 333 20005=
47046 32969 00504 10164 20040 30247 40270 52041 333 20128=
47061 11560 80504 10153 20104 30227 40270 52044 60052 76066
8802/ 333 20151=
62309 32960 02807 10250 20222 40098 58013=
62325 32960 03205 10255 20226 40097 58008=
62387 32960 03506 10212 20166 40100 51001=
62459 32960 00000 10236 20162 40056 58003=
89062 41597 80920 11017 21026 39539 49579 57018 77272 885// 333
10003 21019 88620=
82098 32/97 50502 10282 20233 30085 40102 8376/ 333 10332
29070 55094 59002=
82106 21497 63204 10254 20238 39983 40081 70366 84220 333
10351 29034 55074 59007 69941=
70133 12466 80914 10106 20067 30000 40007 58016 69951 92353 333
20033 555 92100=
70273 32766 41613 10144 20061 39982 40030 58018 92353 333 20094
91021 555 92100=
70308 12466 82614 10094 20072 39803 49813 58005 69901 92353 333
10100 20072 91019 555 92100=
70326 32666 81016 10117 20061 39881 49900 58032 92352 333 20061
91023 555 92100=
70361 12566 81210 10111 20078 30073 40090 58016 69931 92353 333
10111 20089 91014 555 92100=
70398 11664 81107 10117 20094 30047 40090 56026 60021 761// 92353
333 20111 555 92100=
78325 31530 40905 10276 20239 30080 40137 55000 70490 82202 333
01909 10316 20237 30/// 59001 82820=
78333 31/10 41401 10271 20237 30137 40143 53017 71300 83963 333
06999 10314 20212 30/// 57932 59005 70019 818// 829//=
78338 31/58 20000 10267 20231 30132 40145 53003 71300 81962 333
06999 10308 20223 30/// 57944 59009 819//=
78349 31556 50000 10250 20228 30034 40145 53015 71792 83963 333
06999 10313 20215 31/// 50194 57951 59017 70029 81820 82923=
78360 31568 80501 10288 20233 30123 40135 53007 71392 82907 333
06909 10329 20249 30/// 57988 59004 81820 882// 819// 92011=
78369 31464 73402 10278 20233 30130 40142 53012 71392 83963 333
06999 10314 20251 30/// 57930 58004 82818 85070 819// 92002=
72201 32566 20805 10283 20217 30141 40149 53005 92353 333 10311
20261 555 92100=
72202 32666 40909 10278 20200 30144 40150 53004 92356 333 10317
20239 555 92100=
72203 32966 41109 10272 20217 30145 40152 53002 92353 333 10311
20228 555 92100=
72205 12666 60000 10256 20228 30117 40152 53006 69901 92353 333
10317 20217 555 92100=
72206 32966 01106 10261 20239 30135 40145 53003 92356 333 10311
20217 555 92100=
72207 32966 01706 10256 20233 30130 40147 53004 92353 333 10306
20200 555 92100=
72208 32966 21507 10244 20228 30133 40148 50001 92356 333 10294
20183 555 92100=
72211 32966 63105 10272 20222 30137 40153 53007 92353 333 10306
20228 555 92100=
72212 35/// /0000 10256 20228 30136 40150 53005 92353 333 10311
20200 555 92100=
72214 32966 81904 10267 20222 30128 40147 53003 92353 333 10317
20194 555 92100=
72217 12966 41404 10233 20211 30014 40142 53003 60031 92353 333
10317 20194 555 92100=
72218 32966 00000 10244 20206 30084 40136 53005 92353 333 10311
20189 555 92100=
72219 32966 43108 10244 20167 39785 40152 52007 92353 333 10294
20200 555 92100=
72223 32966 03305 10256 20217 30075 40153 53002 92356 333 10311
20211 555 92100=
72226 32966 03206 10250 20233 30081 40152 51006 92353 333 10311
20194 555 92100=
72231 32566 63606 10294 20222 30141 40155 53006 92353 333 10322
20217 555 92100=
72234 32966 03604 10228 20189 30056 40167 53004 92353 333 20211
555 92100=
72235 32966 00000 10228 20194 30051 40168 51006 92354 333 10289
20200 555 92100=
72240 32666 60123 10250 20206 30143 40162 53010 92353 333 10339
20233 91032 555 92100=
72243 32766 60707 10317 20228 30099 40137 55004 92353 333 10344
20239 555 92100=
72248 12966 61005 10222 20206 30055 40149 55039 60031 92356 333
10272 20194 555 92100=
72250 32566 21311 10294 20250 30128 40133 53002 92356 333 10344
20256 555 92100=
72251 32966 01313 10294 20239 30116 40133 55000 92351 333 10333
20250 555 92100=
72253 32766 41512 10311 20211 39845 40119 55005 92353 333 10328
20239 555 92100=
72254 35966 01307 10317 20217 39907 40116 56007 92353 333 10350
20244 555 92100=
72255 15966 00000 10278 20250 30110 40145 53004 60071 92351 333
10344 20239 555 92100=
72256 32966 01008 10289 20200 39950 40127 56017 92351 333 20228
555 92100=
72259 12966 61207 10256 20200 39948 40146 55005 69931 92356 333
10278 20217 555 92100=
72261 35966 01411 10339 20172 39745 40098 56007 92353 333 10350
20256 555 92100=
72263 32966 01805 10322 20150 39446 40102 55008 92353 333 10356
20228 555 92100=
72265 32966 01910 10317 20161 39133 40090 55002 92353 333 10350
20200 555 92100=
72266 32966 01513 10322 20167 39493 40103 55006 92352 333 10350
20233 555 92100=
72267 12966 61316 10250 20139 39015 40099 53010 69901 92353 333
10356 20194 555 92100=
72270 32866 63208 10333 20044 38802 40082 55009 92351 333 10350
20217 555 92100=
72274 32966 29903 10361 20067 39211 40089 56014 92355 333 10378
20211 555 92100=
72278 32966 22505 10394 20078 39701 40075 56017 92356 333 10400
20272 555 92100=
72280 32966 /2005 10400 20111 39999 40070 57020 92356 333 10400
20256 555 92100=
72290 32462 23011 10206 20172 30131 40140 56010 92351 333 10217
20183 555 92100=
72295 31458 62510 10183 20150 30103 40140 56013 705// 92350 333
10217 20167 555 92100=
70194 32966 00105 10110 21010 39895 57017 92355 333 10110 21019
555 92100=
72304 15564 61711 10244 20217 30165 40170 51005 69951 92351 333
10267 20233 555 92100=
72308 12466 61606 10217 20206 30158 40166 53002 60021 92351 333
10233 20200 555 92100=
72311 32966 03005 10250 20183 39861 40148 53009 92353 333 10300
20172 555 92100=
72312 31748 20000 10217 20200 39812 40145 53005 710// 92355 333
10261 20178 555 92100=
72314 31559 60106 10228 20217 39877 40149 53008 710// 92351 333
10267 20183 555 92100=
72317 11658 60000 10217 20194 39834 40156 51005 69951 710// 92354
333 10233 20178 555 92100=
72324 32966 03204 10206 20167 39922 40167 53005 92353 333 10267
20200 555 92100=
72326 32666 22904 10217 20144 39810 40159 53006 92353 333 10250
20183 555 92100=
72327 32966 63603 10233 20133 39961 40171 53004 92353 333 10261
20156 555 92100=
72334 32966 82104 10233 20150 30068 40169 58001 92353 333 10278
20167 555 92100=
72340 32961 82203 10220 20170 30072 40168 92353 555 92100=
72344 32966 01105 10228 20172 39980 40145 56019 92353 333 10250
20150 555 92100=
72351 32766 61318 10272 20178 39763 40124 55005 8/971 92352 333
10317 20200 555 92100=
72353 32666 61612 10222 20178 39666 40125 55008 92352 333 10256
20161 555 92100=
72356 32966 41810 10233 20178 39900 40137 55000 92353 333 10250
20178 555 92100=
72363 32966 02906 10322 20050 38889 40085 55011 92353 333 10350
20172 555 92100=
72365 32966 42912 10294 21011 38393 40113 56007 92356 333 10311
20172 555 92100=
72374 35961 43418 10283 20011 38529 40137 55005 92356 333 10306
20150 91030 555 92100=
72384 32966 03009 10344 20106 39929 40099 56015 92354 333 10344
20178 555 92100=
72386 35966 00710 10367 20094 39343 40090 56018 92356 333 10372
20217 555 92100=
72389 32866 23112 10356 20106 39985 40101 56017 92356 333 10361
20183 555 92100=
72394 32966 03109 10167 20128 30064 40153 56006 92351 333 10200
20122 555 92100=
72401 32766 81406 10217 20200 30099 40161 53001 92354 333 10256
20178 555 92100=
72403 11258 89905 10211 20200 30035 40151 56003 69931 710// 92351
333 10233 20172 96010 555 92100=
72407 12866 61809 10211 20183 30152 40176 53001 69901 92354 333
10239 20194 555 92100=
72408 12466 81706 10206 20200 30151 40173 53000 60071 92354 333
10228 20194 555 92100=
72411 11759 62803 10194 20189 39745 40162 51009 60151 710// 92354
333 10233 20172 555 92100=
72412 17948 01003 10144 20144 39295 40170 53005 69901 710// 92351
333 10183 20144 555 92100=
72414 32766 20000 10183 20172 39810 40161 53007 92354 333 10233
20172 555 92100=
72421 12966 21903 10183 20144 39838 40156 50002 69901 92351 333
10228 20128 555 92100=
72422 32966 00000 10206 20139 39811 40168 50002 92354 333 10233
20156 555 92100=
72428 32666 42308 10211 20133 39853 40146 50006 92351 333 10233
20144 555 92100=
72432 32966 02003 10206 20150 30021 40161 55002 92354 333 10256
20122 555 92100=
72434 12766 61706 10233 20172 39920 40122 58018 60021 92353 333
10283 20133 555 92100=
72438 32966 21906 10200 20144 39856 40147 56004 92355 333 10233
20117 555 92100=
72440 32966 02009 10228 20150 39688 40138 56012 92354 333 10267
20122 555 92100=
72445 32966 01809 10239 20139 39790 40109 58020 92354 333 10278
20117 555 92100=
72446 32666 62208 10233 20200 39746 40107 50001 92353 333 10283
20133 555 92100=
72450 32766 61909 10244 20206 39651 40122 55004 92356 333 10278
20167 555 92100=
72451 32966 00314 10267 20150 39237 40127 53009 92356 333 10311
20161 555 92100=
72456 11666 22208 10267 20211 39795 40109 55000 69931 795// 92356
333 10289 20156 91016 555 92100=
72464 32966 00811 10283 20022 38563 40126 53000 92354 333 10311
20083 555 92100=
72465 32966 00810 10239 20111 38901 40151 52003 92356 333 10267
20139 555 92100=
72476 32966 02907 10294 21017 38552 40126 56008 92356 333 10306
20117 555 92100=
72486 35966 02209 10272 21078 38111 40135 56006 92353 333 91015
555 92100=
72488 32866 42810 10317 20056 38651 40116 56012 92356 333 10322
20122 91019 555 92100=
72492 32966 03109 10322 20111 30105 40114 56016 92356 333 10328
20133 555 92100=
72494 32366 22819 10167 20128 30136 40141 56012 92356 333 10194
20133 555 92100=
72503 11458 81813 10217 20206 30158 40170 56007 60071 761// 92351
333 10233 20189 96010 555 92100=
72508 12666 81508 10200 20189 30114 40184 56002 60021 92351 333
10233 20150 555 92100=
72509 11466 81406 10183 20172 30206 40213 56000 69931 761// 92354
333 10200 20139 555 92100=
72515 11456 81505 10167 20161 39584 40157 51007 60061 761// 92356
333 10172 20144 96010 555 92100=
72518 11461 81610 10178 20167 30065 40171 50002 60041 763// 92351
333 10222 20172 555 92100=
72519 12966 81403 10189 20172 39987 40132 51003 60021 92354 333
10228 20178 555 92100=
72520 32766 42204 10183 20133 39714 40160 53012 8/460 92351 333
10222 20167 555 92100=
72524 32766 42106 10194 20117 39860 40140 53010 92351 333 10228
20150 555 92100=
72528 32666 62409 10194 20122 39869 40125 53013 8/460 92354 333
10233 20178 555 92100=
72530 32966 41903 10178 20139 39878 40122 58006 92356 333 10228
20117 555 92100=
72532 32966 01909 10211 20172 39868 40109 58020 92354 333 10239
20117 555 92100=
72533 32766 42504 10156 20128 39846 40145 52001 92354 333 10233
20128 555 92100=
72537 32966 22709 10183 20094 39885 40125 51012 92354 333 10217
20161 555 92100=
72546 32764 62905 10222 20194 39751 40094 56009 92354 333 10239
20144 555 92100=
72547 11359 81605 10183 20167 39720 40107 56013 60061 761// 92355
333 10222 20094 96010 555 92100=
72552 32966 03610 10222 20122 39492 40147 51010 92353 333 10267
20156 555 92100=
72556 35966 03506 10217 20133 39591 40140 51007 92354 333 10261
20117 555 92100=
72557 32966 03309 10222 20122 39741 40136 51010 92354 333 10261
20117 555 92100=
72562 32966 00305 10222 20083 39193 40163 53006 92356 333 10244
20100 555 92100=
72564 32966 01509 10206 20039 38154 40156 55001 92356 333 10228
20083 555 92100=
72565 32966 40913 10256 20033 38353 40129 55001 92353 333 10278
20122 555 92100=
72569 32966 01705 10206 20033 38390 40164 56006 92353 333 10222
20044 555 92100=
72572 32966 23609 10283 20006 38725 40138 56009 92356 333 10289
20122 555 92100=
72576 35966 01006 10228 20006 38318 40140 56007 92356 333 10233
20100 555 92100=
72578 32966 02708 10261 21033 38656 40154 56013 92356 333 10267
20078 555 92100=
72583 35966 02514 10317 20017 38676 40124 56012 92356 333 10333
20067 555 92100=
72591 35966 01609 10333 20094 39987 40108 56014 92354 333 10344
20167 555 92100=
72594 37159 83405 10111 20100 30144 40172 58004 710// 92353 333
10139 20061 555 92100=
72597 32966 02910 10317 21006 39651 40120 56016 92356 555 92100=
72606 11666 81406 10167 20139 30214 40233 55002 69901 761// 92351
333 10189 20117 555 92100=
72617 11659 81603 10183 20161 30041 40164 53002 69931 761// 92354
333 10228 20167 96010 555 92100=
72635 12666 42305 10156 20111 39834 40124 50004 69901 92356 333
10189 20144 555 92100=
72636 32766 22006 10156 20128 39889 40118 55000 92355 333 10194
20144 555 92100=
72637 12566 82609 10167 20122 39844 40121 51010 69901 92353 333
10183 20150 555 92100=
72638 15366 82912 10139 20128 39681 40094 51014 60021 92355 333
10150 20139 555 92100=
72640 32866 62303 10194 20100 39867 40116 57001 8/071 92352 333
10222 20133 555 92100=
72641 32966 40000 10167 20122 39802 40112 58007 92353 333 10217
20106 555 92100=
72644 11640 63404 10161 20150 39642 40118 55011 60041 710// 92354
333 10194 20072 555 92100=
72645 32966 02405 10144 20122 39854 40108 51008 92356 333 10233
20122 555 92100=
72651 32966 03404 10194 20133 39620 40129 51006 92356 333 10233
20128 555 92100=
72654 32966 03511 10200 20094 39678 40140 53009 92355 333 10244
20139 555 92100=
72658 11420 83509 10161 20156 39809 40113 55007 60031 763// 92353
333 10194 20106 96010 555 92100=
72659 32766 63209 10178 20089 39675 40141 51013 92356 333 10222
20117 555 92100=
72662 32966 00110 10200 20022 39073 40176 53001 92353 333 10222
20106 555 92100=
72666 35966 01004 10194 20056 38807 40170 58010 92353 333 10211
20061 555 92100=
72677 32966 20000 10206 21006 38928 40156 56012 92356 333 10211
20078 555 92100=
72681 32966 09903 10294 21033 39144 40126 56018 92356 333 10300
20100 555 92100=
72683 35966 02706 10278 21056 38722 40136 56016 92353 333 10289
20028 555 92100=
72688 32966 02805 10261 20033 39592 40124 56005 92356 333 10267
20072 555 92100=
72693 32966 00000 10256 20044 30015 40151 56010 92354 333 10261
20056 555 92100=
72694 32966 00000 10256 20056 30072 40146 56011 92356 333 10256
20078 555 92100=
72698 32966 60103 10244 20044 30140 40148 56012 92355 333 10244
20100 555 92100=
72712 35966 81707 10150 20072 30005 40237 53001 92354 333 10167
20067 555 92100=
72745 32966 00805 10139 20106 39613 40132 53004 92355 333 10194
20061 555 92100=
72747 35966 00000 10161 20117 39692 40127 56004 92355 333 10211
20033 555 92100=
72753 15466 81907 10144 20139 39800 40130 53004 60041 92353 333
10167 20128 555 92100=
72764 32766 83111 10172 20100 39555 40148 53000 92352 333 10183
20133 555 92100=
72767 32966 03412 10183 20067 39478 40158 53001 92352 333 10200
20094 555 92100=
72768 32966 03506 10183 20006 39347 40167 58007 92356 333 10206
20067 555 92100=
72772 32966 01109 10233 21011 38805 40153 56016 92353 333 10239
20072 555 92100=
72773 32966 00000 10239 21011 39036 40145 57017 92356 333 10244
20033 555 92100=
72776 32966 00000 10211 21011 38880 40146 56015 92356 333 10217
20033 555 92100=
72777 35966 02106 10206 20000 39238 40155 56011 92355 333 10211
20067 555 92100=
72779 35966 01510 10211 20006 39106 40150 56013 92355 333 10222
20000 555 92100=
72781 32966 00000 10250 20050 39738 40126 56013 92356 333 10256
20056 555 92100=
72793 32966 60000 10189 20067 39995 40157 57008 92356 333 10189
20094 555 92100=
72797 35966 02404 10144 20089 30088 40164 56010 92353 333 10167
20072 555 92100=
72306 31666 60906 10228 20183 39996 40154 51003 795// 92351 333
10272 20200 555 92100=
72315 12762 83409 10194 20167 39405 40158 53003 60061 92354 333
10239 20167 555 92100=
72402 15866 21806 10200 20200 30169 40168 55005 60031 92354 333
10244 20200 555 92100=
72405 12564 81710 10222 20206 30135 40157 55001 69901 92351 333
10228 20194 555 92100=
72406 11466 81607 10206 20200 30099 40155 55002 60021 761// 92354
333 10211 20183 555 92100=
72423 32966 22505 10211 20133 39984 40160 55000 92356 333 10250
20150 555 92100=
72425 32966 00000 10206 20133 39859 40158 53006 92351 333 10244
20178 555 92100=
72429 32966 22305 10178 20122 39797 40154 50003 92354 333 10228
20128 555 92100=
72504 11566 81810 10222 20194 30173 40180 55005 60061 761// 92354
333 10239 20200 555 92100=
72507 11566 81407 10194 20183 30187 40209 56001 69901 761// 92351
333 10222 20167 555 92100=
72513 11556 80000 10178 20172 39819 40154 53003 60051 761// 92354
333 10200 20178 96010 555 92100=
72521 32766 42207 10172 20117 39703 40144 52008 8/170 92351 333
10222 20144 555 92100=
72529 12666 42403 10172 20150 39930 40129 53017 69951 8/500 92354
333 10228 20172 555 92100=
72535 32966 02203 10167 20117 39858 40139 56000 92354 333 10222
20122 555 92100=
72536 32966 02708 10189 20072 39884 40131 51010 92352 333 10239
20161 555 92100=
72544 11666 61906 10211 20178 39889 40102 58012 69901 761// 92355
333 10244 20106 555 92100=
72592 32966 01808 10339 20094 39926 40102 56016 92356 333 10344
20172 555 92100=
72605 17864 81506 10161 20156 30083 40212 50000 69951 761// 92351
333 10200 20144 555 92100=
72783 32966 00000 10278 20006 39613 40121 56020 92356 333 10278
20100 555 92100=
72791 35966 02209 10167 20111 30157 40165 55001 92355 333 10183
20061 555 92100=
87078 32960 81109 10280 20164 39938 40086 52023 8807/ 333 10350
20206=
87097 32970 80504 10223 20157 39833 40142 52012 83077 333 10277
20185 56088 83360 88275=
10325 20200=
87155 31756 81107 10244 20154 30062 40123 53013 71792 82926 333
10308 20194 56566 57952 82950 84560 86270=
87162 31540 80510 10259 20149 30015 40085 55001 70592 8387/ 333
10306 20198 56709 83630 88460=
87166 31565 81105 10238 20156 30050 40123 52012 71792 8297/ 333
10310 20190 56579 57958 81630 81956 88360=
87178 31960 41102 10244 20146 39988 40132 52013 70422 80007
333 10314 20204 56006 84270=
87270 31960 11407 10200 20146 30072 40134 52007 70500
80001 333 10298 20182 56007 81070=
87289 31960 60000 10205 20146 30052 40134 52005 70511 80006
333 10285 20136 64165 65050=
87374 31960 21602 10194 20111 30066 40159 52017 70500 80008
333 10290 20156 56009 82270=
87393 32970 00000 10211 20151 30084 40147 52011 333 10289 20172=
87395 32965 00000 10212 20133 30113 40157 52015 333 10272 20169=
87480 31959 70703 10205 20140 30138 40168 52017 70522 80006
333 10278 20150 56005 87270=
87497 32965 50000 10210 20138 30141 40166 52023 80006 333 10274
20164 56006 85270=
87534 32960 51604 10131 20079 30019 40183 52025 80006 333 10237
20131 56006 85270=
87548 31950 30000 10182 20148 30077 40173 53020 71021 80006 333
10249 20152 56006 83270=
87563 32565 81404 10182 20174 30136 40180 53011 887// 333 10232
20155 56199 88710=
87576 31950 70504 10190 20142 30156 40180 52020 70422 80008
333 10256 20180 56007 87270=
87582 32960 71107 10186 20141 30176 40183 52021 80007
333 10225 20151 56006 87270=
87593 32960 71406 10158 20141 30154 40182 52019 80008 333 10252
20158 56006 87270=
87623 32980 21102 10114 20022 39966 40195 52012 80001
333 10216 20114 56006 82070=
87645 32965 01408 10106 20054 39990 40200 52027 333 10212 20106=
87692 32960 01810 10112 20064 30197 40222 52025 333 10190 20112=
87715 32970 00000 10149 21045 39845 40167 52003
333 10211 20056=
87750 32965 00510 10086 20053 30109 40210 52015 333 10189 20086=
87765 32980 30902 10057 21010 39194 48476 57005 80004 333 10131 20020
56006
83070=
87016 31956 81804 10248 20115 39679 40085 52028 70522 80006
333 10324 20177=
87022 32960 40000 10262 20107 39576 40075 52035 80007 333
10334 20248=
87046 31960 62902 10212 20117 39102 48493 52031 70522
84075 333 10299 20188 56099 84360 82270=
87047 31660 70508 10216 20080 38789 48506 53035 70622 83570
333 19273 20136 56370 83635 87360=
87121 31950 82704 10250 20108 39610 40118 52024 70421
8807/ 333 10304 20162 56069 88360=
87129 32665 73603 10260 20123 39874 40103 52017 84570 333 10338
20163 56990 84635 83360=
87217 31960 42309 10260 20042 39622 40105 52025 70600 84060 333
10325 2//// 56040 84360=
87222 31960 00506 10266 20067 39577 40082 52023 70500 333 10336
20224=
87257 31958 00902 10190 20105 30035 40138 52017 70400 333 10320
20182=
87311 32965 41605 10176 20029 39481 40165 52017 84070 333
10243 20150 56000 84360=
87320 32960 01404 10233 20100 39592 40111 52023 333 10313 20182=
87328 31965 31803 10200 20075 39490 40128 53012 70510 80006 333 10300
20169 95090=
87344 31960 21805 10210 20097 39624 40165 52036 70521 80006 333
10295 20166 56009 82270=
87349 32970 01805 10198 20087 39778 40170 53029 333 10283 20156=
87371 32962 00000 10210 20178 30141 40162 52021 333
10294 20180=
87416 32965 20000 10161 20053 39417 40163 53007 82050 333 10230
20125=
87418 32965 00000 10173 20053 39361 40160 52012 333 10230 20114=
87436 31960 40924 10175 20050 39341 40147 52012 70411 80006 333
10235 20155=
87453 31965 71604 10162 20095 39690 40180 52022 70522 83076 333 10232
20155 56999=
87467 31956 50000 10205 20130 30022 40156 52021 70500 80006 333 10283
20137=
87506 32970 50506 10117 20008 38606 48527 53017 82046 333 10188 20044
56099 57301 82360 83270 95095=
87509 32970 51404 10144 20048 39323 40187 52010 82078 333 10207
20078 82360=
82979 32993 01404 10255 20175 39690 40153 333 10322 29054 55103
59004=
82986 32995 01415 10248 20183 39863 40149 333 10327 29061 55070
59007=
83090  32594 81406 10214 20191 39643 40170 886// 333 10281 29080
55039 59005=
83096 21593 80904 10239 20217 30164 40171 76066 885// 333 10278
29082 55076 58005 69961=
83097 32995 01402 10233 20204 30138 40161 333 10300 29074 55071
58006=
83179 32994 00908 10266 20144 39683 40130 333 10349 29043 55108
58000=
83182 32595 30908 10208 20156 39320 40158 82250 333 10280 29060
55091 59010=
83186 21596 81408 10205 20189 39625 40169 76565 887// 333 10259
29079 55015 59005 60021=
83190 213// 81405 10202 20197 39761 40185 70255 8572/ 333 10255
29086 55019 59010 69941=
83195 32997 01802 10211 20195 39930 40168 333 10268 29084 55048
59011=
83229 214// 71406 10230 20211 30120 40180 72162 83850 333 10254
29090 55010 59009 60101=
83236 31897 21805 10269 20109 39619 40105 70504 82060 333 10348
29039 55108 59011=
83244 32494 80907 10228 20186 39887 40173 333 10272 29070 55013
59010=
83286 32995 01402 10252 20099 39475 40124 333 10318 29040 55103
59009=
83288 32995 01403 10253 20175 39630 40142 333 10333 29053 55105
59015=
83339 32995 00913 10209 20122 39176 40158 333 10263 29055 55109
59019=
83344 32397 71410 10178 20154 39209 40188 87700 333 10222 29079
55045 59013=
83398 21594 82304 10206 20196 30197 40203 70252 8572/ 333 10262
29086 55048 59009 69931=
83408 32994 00906 10237 20108 39623 40126 333 10324 29042 55108
59023=
87791 32980 20504 10087 21001 30188 40197 52008 80002
333 10166 20087 56006 82070=
87803 32980 42703 10042 21024 39214 40149 57004 84070 333 10115
20042 56060 84360=
87828 32980 50210 10118 21042 30101 40153 52011 83076
333 10195 20105 56000 83360=
87852 32984 33608 10054 21008 39578 40091 52013 80006 333 1////
20054 56000 83270=
87860 32980 82922 10149 21054 30036 40091 50007 83076 333 10180
20092 56066 83360 85270=
87896 32980 02918 10114 20003 39969 40065 53015 333 10179 20065=
87909 32980 42518 10113 20011 39960 40034 52017 82076 333 10167
20077 56000 82359 83070=
87925 32980 22724 10086 20019 39941 49964 52023 82070 333 10152
20036 56000 82360=
87938 31670 52316 10048 20004 39796 49865 52025 71521
82476 333 10098 20042 56555 82645 83557=
61223 32960 32204 10289 20205 39835 40129 81042
333 0//00 58008 81365=
61226 32960 10000 10320 20185 39831 40118 81040
333 58004 81365=
61233 32960 32202 10255 20230 3//// 4////  81042
333 0//00 5//// 81365 82075=
61240 32960 52806 10295 20216 39797 40114 84072
333 0//00 58000 84365 83075=
61257 32970 00000 10264 20256 30079 40132
333 0//00 59016=
61265 32965 00000 10278 20223 3//// 4////
333 0//00 5////=
61270 12965 70000 10272 20226 39744 40117 60071 87070
333 0//26 59019 87465=
61291 32560 51402 10235 20228 39721 40130 82540 930//
333 0//00 58016 82630 84362=
61293 31970 30000 10240 20225 39722 40132 70190 83040
333 0//00 58016 83365=
61296 32970 50000 10245 20228 39739 40128 83072
333 0//00 58015 83365 83075=
94151 35/// /1009 10285 30125 40145 52015=
94290 35/// /1318 10244 30163 40170 52005=
94129 35/// /1703 10296 30109 40132 52007=
94289 35/// /1319 10247 30154 40163 52009=
94307 35/// /2709 10247 30110 40150 52014=
94371 35/// /1316 10228 30182 40188 52003=
94379 35/// /1313 10221 30181 40190 57003=
96011 31402 80000 10228 20225 30072 40095 5//// 70522 8457/
333 20196 50490 55065 56009 59001 84615=
96109 11940 40000 10232 20220 30064 40103 53020 69904 70511 81032
333 20227 70580 55000 56000 58000 81362 84082=
96145 12468 50000 10248 20236 30088 40092 5//// 60284 81170
333 20224 50750 55018 56500 57/// 59004 81817 85360=
96163 32560 50000 10238 20233 30095 40101 52010 81531
333 20233 55052 56000 59015 81620=
96179 32460 70000 10268 20244 30064 40100 52012 83208
333 20206 50540 55066 56400 57843 59002 83817 80860=
96221 31920 40000 10241 20231 30101 40116 52008 71021 82032
333 20226 50420 55062 56099 59002 82362=
96237 32460 70000 10257 20239 30060 40102 51013 84232
333 20240 50220 55033 56000 57801 59005 84817 80858=
96295 11440 72005 10220 20218 30024 40128 51014 69954 70521 83508
333 20216 50480 55069 55008 10784 56500 59005 83625=
96509 01457 80000 10250 20241 30094 40101 52006 60494 76196 8522/
333 20240 50800 55093 56009 58002 69967 85815 88461=
96581 11456 70000 10240 20234 30106 40113 56002 60024 70522 85170
333 20226 50290 55050 56200 57822 59005 85810 80850=
96633 11457 72608 10264 20245 30098 40107 52011 60024 70521 84971
333 20252 50150 55004 55508 50490 56400 57901 59004 81917 80980=
96645 11420 80000 10238 20233 30085 40116 52017 60034 71022 86532
333 20229 50500 55024 56000 59002 86613=
96655 31/07 93602 10247 20232 30098 40126 52007 70444
333 20241 50280 55000 56999 58001 80907=
96749 21550 71902 10246 20238 30094 40107 51010 69914 71022 82511
333 20232 56000 59002 60017 82625 86462=
96933 32960 12902 10255 20227 30110 40117 56002 80011
333 20246 50691 55100 56000 59010 81080=
97014 12562 30000 10274 20229 30011 40104 52006 60324 81171
333 20214 50281 55006 56000 57804 59005 81830 80854=
97028 12565 40000 10260 20218 30091 40097 52008 60104 82411
333 20222 50420 55050 56000 59007 82620=
97048 12560 10000 10262 20231 30079 40103 53025 60024 81501
333 20226 50340 55024 56000 59008 81617=
97072 11560 11502 10258 20219 30033 40135 52013 69994 70521 81101
333 20229 50340 55/// 56000 57804 81820 80859=
97086 12562 72005 10282 20213 30091 40114 51001 69964 83271
333 20249 50500 55052 56000 57000 59005 83620 85360=
97120 31460 60403 10270 20231 30075 40108 51012 70521 82831
333 20249 50680 55105 56000 57804 59007 81818 84360 80860=
97180 31558 10000 10283 20225 30092 40110 52015 70510 81100
333 20222 5//// 55109 56000 58000 81820=
97192 31464 10105 10274 20226 30070 40135 52003 70500 81500
333 20230 55092 56200 59001 81617=
97230 32460 51104 10266 20243 30113 40119 52004 83231
333 20250 50730 55099 57801 59001 83818 80856=
97260 32565 31305 10268 20218 30107 40114 53005 81501
333 20222 50850 55104 56000 58002 81620=
97270 31458 20000 10238 20211 30126 40130 51019 70500 82201
333 20228 50153 55095 56000 57802 58004 82815=
97300 32565 12406 10280 20218 30099 40132 52013 81101
333 20246 50360 55096 56000 58011 81820=
97340 32970 40000 10257 20209 30122 40133 51014 80002
333 20228 50660 55099 56000 58001 84080=
97372 32563 10908 10282 20220 30006 40135 51014 81101
333 20237 55090 56000 57800 58002 81820=
97430 01456 72904 10248 20239 30082 40111 60034 72122 84972
333 20236 50370 55105 56700 57971 59002 60037 81915 87460 80980=
97502 12462 51905 10272 20246 30116 40122 52019 60044 81401
333 20248 55032 56000 57802 59009 84815 80858=
97560 12467 50000 10287 20248 30095 40110 51011 69904 82242
333 20230 5///0 55025 56000 57804 59002 82818 85080 80860=
97580 12465 30000 10296 20244 30111 40119 54000 60024 83201
333 20222 55/// 56000 57801 59021 83815 80860=
97600 32562 51303 10278 20231 30118 40123 50/// 81231
333 20200 50/// 55082 56000 57804 59003 81820 84080 80860=
97686 32459 40000 10182 20151 38375 40106 53001 83842
333 20132 50460 55062 56000 59019 82810 80859=
97690 11462 50000 10278 20240 30001 40102 52007 60024 70522 83842
333 20228 55000 56000 57802 59007 82816 84080 80856=
97724 11457 70000 10245 20242 30088 40103 50/// 60544 72162 85870
333 20231 50701 55094 56300 57833 59001 83818 80842=
97748 11460 81704 10286 20258 30117 40123 50/// 60014 70522 84942
333 20111 50510 55069 56400 57941 58005 81917 83819 86358 80956=
97760 11462 70000 10261 20236 30106 40116 52007 60284 72162 84822
333 20234 55065 56000 57801 58000 83816 84460 86080=
97796 11460 61405 10268 20229 30088 40126 52013 60034 70522 84932
333 20222 55095 56000 57901 58006 81916 83817 80980=
97876 12360 60903 10262 20232 30096 40128 51014 60034 85130
333 20234 55060 56000 58003 85808=
97900 11565 70607 10264 20231 30107 40138 51006 60074 70262 81270
333 20230 50650 55095 56300 57835 58004 81820 80830 87460=
97980 32470 51308 10296 20216 30106 40109 52009 84842
333 20238 50680 55039 56000 59002 82817 83620=
96001 32560 70000 10256 20229 39962 40106 5//// 84232 20220 50680
55080 56600 57862 59006 84820 80860=
96171 31420 70000 10220 20217 30084 40109 52026 71022 85522
333 20208 50720 55042 56000 58003 85613=
96273 31557 60000 10240 20231 30100 71522 83518
333 20236 56000 59504 83620 83462=
96505 11430 70000 10202 20195 39081 48090 60174 71042 86621
333 20194 55/// 56000 58004 88710=
96525 12960 70000 10202 20233 30102 40108 69954 80009
333 20238 50470 55077 56000 58000 85180=
96529 31450 70000 10238 20233 30102 40126 51015 71022 84131
333 20230 55078 56000 58002 84818=
96557 11410 80000 10237 20233 30074 40110 60044 70444 8322/
333 20228 5///0 55013 56609 57861 58004 85814 80857 88460=
96595 11260 80000 10226 20223 30073 40120 60104 72842 886//
333 20222 50560 55080 56099 58004 88704=
96695 12557 50000 10232 20228 30104 40109 69974 83211
333 20228 50460 55040 56000 57803 59005 82820 80858=
96737 31556 70000 10233 20227 30078 40127 52007 70522 84571
333 20222 50390 55056 56000 59005 84620=
96739 11910 30000 10233 20229 30062 40111 52012 69901 71021 80002
333 20221 50350 55065 56000 59002 83080=
96755 31450 50000 10242 20221 39918 40118 52004 70521 81521
333 20216 56000 57600 58003 81618 80462=
96801 31450 70000 10230 20215 39761 40198 70522 83531
333 20210 56000 57600 59005 83618 80660=
96845 31430 40000 10250 20237 39985 40110 70511 82501
333 20230 55096 56000 59002 82618=
96857 31440 60000 10216 20210 40110 70522 84802
333 20210 56300 58006 83618 84080=
96881 32960 31812 10260 20209 40134 80001
333 20240 56000 58003 83080=
96925 32465 41105 10281 20231 30111 40118 52014 83201
333 20270 50720 55097 56200 57820 59004 83817 80860=
96935 32940 30000 10255 20222 30108 40114 52009 80001
333 20237 55092 56000 59005 83080=
96947 31456 50000 10216 20194 39534 40149 52009 70521 83531
333 20204 56000 58000 83615=
96987 12460 70000 10260 20227 30066 40125 52015 60064 83518
333 20240 50421 55096 56000 59003 83618=
97008 12962 10504 10283 20230 30082 40129 52003 60034 81031
333 2//// 5//// 55000 56000 58004 81360=
97016 12564 32202 10284 20222 30101 40103 52015 69904 82141
333 50420 55024 56000 57802 59008 82820 80860=
97126 12559 30000 10254 20224 30026 40084 51007 60014 81531
333 20205 50510 55078 56000 58002 81620=
97182 32560 13102 10281 20219 30110 52024 81100
333 20244 50650 55105 56000 57803 59003 81820 80875=
97240 31458 21106 20264 20228 30103 40123 52010 70510 81101
333 20240 50450 55057 56000 58001 81817=
97310 32568 10000 10278 20234 30106 40117 81101
333 20224 55092 56000 59002 81820=
97320 31565 20000 10270 20238 30113 40131 70500 81101
333 20206 55098 56000 58000 81820=
97460 11458 40603 10270 20231 30088 40097 69954 70561 82832
333 20221 50220 55031 56500 57854 59005 82819 80857=
97630 11468 61803 10256 20235 39967 4//// 52015 60224 70262 83973
333 20220 50402 55030 56000 57901 58008 81914 83815 85362 80977=
97682 12462 61804 10268 20247 40100 52009 60224 82842
333 20225 55028 56000 57804 58003 82817 86361=
97722 12460 60000 10268 20241 30120 40134 50/// 60044 85936
333 20230 50430 55069 56300 57931 57832 58003 81918 83819 80980
80858=
97780 12465 40000 10183 20147 4//// 60064 82821
333 20131 55022 56000 82816 85062=
97790 11458 71506 10272 20246 30085 40106 50/// 69974 70522 84872
333 20215 50450 55059 56300 57833 58001 82818 84458 80858=
83927 32997 01402 10238 20199 30072 40153 52013
333 10280 29073 55099=
10124 20074 70150=
71900 36/// /3005 10112 30169 40182 51017 333 10162 20070 70000=
82595 32/90 /1116 10260 20218 40149 8//// 222// 02/// 2//// 333 10270
59002=
31561 12998 63605 10062 21023 40192 50000 69950 86030 333
20024=
32010 11597 73505 10068 20035 40112 52010 60030 70282 83930   333
20037 91110=
62420 32960 00304 10246 20177 40111 58007=
62432 32960 03006 10268 20106 40097 58002=
62435 32960 03501 10246 20138 40079 58004=
62455 32960 03405 10254 20186 40089 54000=
42724 21594 50000 10234 20228 40089 71000 83501 333 58023 6013/
83620 85075=
43333 22496 80000 10244 20238 40093 82441 333 58006 6036/ 81618
86360=
48431 11959 70000 10250 20235 39867 40081 60024 71022 84076
333 20245 58007 70016=
48352 01562 70000 10252 20243 39896 40094 60034 72162 85546
333 20245 58025 60037 70030=
41571 315// 20000 10228 20183 40085 70500 81530 333 56990
58023=
41594 00000 70250 20220 40062 70500 333 58031=
91165 12566 20415 10289 20200 30108 40159 58016 69931 92353 333
10300 20250 555 92100=
91182 32666 20515 10306 20189 30139 40145 58018 92353 333 10317
20256 91020 555 92100=
91190 32966 00620 10289 20206 30118 40147 56019 92354 333 10300
20228 91024 555 92100=
91212 12966 00603 10261 20239 30005 40087 58016 60021 92354 555
92100=
91285 31332 83206 10230 20220 30145 761// 90007 333 96010 555
92100=
91334 12474 82305 10311 20250 30097 40100 50007 69904 82271 333
20244 56552 59001 555 92100=
91348 11474 89906 10299 20243 30061 40113 50002 60024 70282 81171
333 20222 56199 58007 70023 555 92100=
91356 11466 81404 10277 20256 30098 40105 50003 60024 70282 86276
333 20244 56299 58003 70023 86813 555 92100=
91366 11466 80606 10285 20234 30102 40105 51003 69904 72522 8582/
333 20273 56212 58003 555 92100=
91376 32474 81007 10300 20248 30095 40098 58008 82808 333 20256
562/9 58007 555 92100=
91408 11474 52507 10300 20242 30064 40102 51012 69904 70282 83171
333 20261 56531 59005 555 92100=
91413 11469 83207 10291 20257 30081 40100 51012 60044 71682 83371
333 20233 56599 58000 70036 555 92100=
91765 32474 81019 10297 20242 30120 40124 57015 85101 333 20273
562/9 59001 555 92100=
10317 20217 555 92100=
10261 20178 555 92100=
91245 32566 20912 10310 20240 30127 92350 555 92100=
91353 32474 30405 10300 20248 30098 40099 51005 60014 70282 83200
333 20233 561// 58005 70013 83818 555 92100 91434 11474 81003
10294 20265 30115 40118 51012 60044 78082 882// 333 20200 56299
58005 70036 88817 555 92100 91353 11474 60105 10289 20251 30098
40103 51007 60214 70282 85230 333 20211 5688/ 59006 70213 85818
555 92100=
20069 11773 73103 11025 21044 39930 49943 57003 69932 70273
8703/ 333 21002 43000 55000=
20087 11211 71402 11008 21012 39903 49913 55000 69902 71022
876// 333 21017 55000 86704 93438=
20292 11308 72705 10003 20003 39927 49945 53002 69942 74674
875// 333 21039 42/// 55014 86707=
20674 12384 63204 10009 21048 39968 40026 58001 69932 86720
333 20009 55001 91112=
20744 41498 83305 10033 20015 30068 40086 57021 70282 8525/
333 85819 91109=
20891 42697 72104 10042 20032 39964 49988 57007 69902 70282
82531 333 20042 55000=
23022 41497 82203 10028 20023 30051 40110 58027 78081 8695/
333 86915 91104=
23032 41468 62104 10036 20018 30074 40106 58030 70282 86900
333 86917 91109=
23330 42597 70503 10049 20002 30130 40148 57006 86430=
23631 42698 73201 10066 20019 30142 40182 57004 86550   333 86634=
23849 42596 82804 10067 20056 40136 57006 8552/   333 85620=
28275 42999 22801 10042 20040 30147 40207 52004 80002=
28493 41599 73202 10080 20076 30078 40167 52006 70282 84970   333
84921=
28698 41219 80000 10070 20065 30027 40178 52005 71062 886//   333
88703=
28383 42984 72702 10053 20051 40188 52007 87070=
28586 41598 83201 10075 20068 40180 52006 70282 889//   333 88926=
28588 41584 60502 10075 20075 40190 52006 70282 86900=
28688 41568 83203 10078 20070 40192 52007 72582 8632/   333 86928=
28696 41295 82401 10037 20037 40182 53005 71042 886//   333 88706=
28791 41956 80000 10075 20073 40186 52003 71022 8802/=
29367 11484 89904 10056 20049 39942 40163 57003 69972 70282 84987
333 20040=
29789 11596 80000 10033 20028 39015 40165 52021 60092 78082 889//
333 20030 55004=
30117 11650 80000 10047 20037 39634 40116 57016 69982 78082 8592/
333 20042 55009 85933=
30253 32698 50902 11014 21025 39842 40194 57015 82330   333 21029=
23426 42984 83201 10052 20027 30143 40166 57011 8807/=
23625 42998 80000 10063 20054 30159 40199 57011=
28367 42999 32901 10061 20052 30100 40226 52005 83030=
28382 42698 83203 10066 20055 30121 40189 52005 885//   333 88640=
28491 41479 70101 10069 20062 30069 40176 52011 70262 87500   333
87611=
28593 41458 82801 10073 20062 30077 40173 52005 75151 886//   333
88711=
28598 41580 83202 10071 20062 30074 40173 52003 70282 889//   333
88922=
28786 42599 83202 10072 20065 30033 40186 52003 82502=
28797 41497 82801 10069 20069 30033 40186 53002 72582 86301   333
84917=
28799 41/93 90000 10054 20052 30040 40182 52002 74542=
23788 11597 81801 10074 20070 30000 40076 57003 60032 78086 889//
333 20066=
23986 32399 81702 10039 20032 40124 57006 883//   333 20036 85707
88917 95000=
29149 12598 52502 10033 20033 30006 40136 57003 69942 85500   333
20026 55035=
29203 69992   333 20061=
29745 32598 82001 10051 20044 39925 40203 53005 889//
333 20046 55023=
36103 11699 81801 10057 20036 40172 53048 69942 72582 889//   333
20012 95000=
36231 12599 80000 10030 20001 39262 40254 52012 69942 8452/   333
20030=
36259 32599 21801 11030 21033 38267 48543 58019 82900   333 21034
55004=
36307 11595 80902 10094 20077 38922 48501 51019 60032 76162 8802/
333 20092 88530 95090=
21931 11563 82504 10006 20001 30009 40039 57007 60032 77172
887// 333 21005 47012 55019=
23929 42999 82601 10072 20061 40213 54000 85031=
23867 41599 73202 10067 20058 30041 40110 53002 70262 87500=
23734 42570 73301 10064 20060 30098 40186 52001 87500=
31632 32999 50000 10014 21024 40223 58006 80001   333 21094=
30433 32699 80202 10053 21047 39580 40157 57036 83531   333 20024
55108=
60360 32560 22204 10235 20209 40134 53002 81202
333  0//00 81830 95990=
60419 32970 00000 10195 20171 40135 50002
333 0//00 95990=
60475 42960 21006 10199 20193 39228 48532 51002 80002
333 82073 95990=
60531 11558 82210 10208 20200 40153 50013 60021 76066 8523/
333 82710 83026 85360 95990=
60580 32960 03108 10285 20176 40091 51011=
17070 32565 60701 10170 20146 39314 40134 55005 86200 333 86833=
31754 11598 63203 10017 21027 39716 40212 52006 69980 70282 86900
333 21058=
31624 32999 02602 10040 21012 40229 52001   333 21043=
60355 32660 50000 10242 20224 40135 54000 85200
333 85833 95990=
60549 31550 70418 10180 20159 38874 48520 50007 69983 71790 869//
333 0//63 82926 83830 95990=
60620 32960 02010 10286 21003 40092 50002
333 0//00=
31474 32699 33201 10020 21027 39745 40218 58002 82102   333 21062=
42027 32696 70000 10110 20099 38434 48520 83550 333 58016=
42165 32696 30000  10250 20158 40072 83500 333 58023 83640 =