ZCZC 000
SMCI10 BENJ 310600
AAXX 31061
58562 11660 81802 10221 20210 40067 57006 60301 72588 8644/
333 20206=
58457 11530 72001 10254 20211 30014 40063 57012 69911 71080
8116/ 333 20211=
58238 31556 12201 10271 20191 30046 40055 57010 71000 81100
333 20192=
52740 16/// /1502 10171 29027 36840 60000
555 1/133 2//00 /////=
57957 11464 81803 10283 20246 39877 40066 57016 69921 78080
889// 333 20234=
59082 32580 52005 10328 20237 39992 40065 57018 81142 333
20265=
59117 32580 22703 10349 20223 39964 40064 57027 82100 333
20248=
59211 11575 73402 10302 20250 39843 40041 57026 69901 79500
86961 333 20255=
59265 32680 62202 10333 20238 39929 40060 57026 81201 333
20251=
59287 11563 71603 10307 20254 30030 40079 57015 69961 79500
879// 333XX 20253 =
59316 32478 62505 10337 20244 30068 40077 57017 85202 333
20257=
59431 32580 71603 10319 20243 39915 40057 57027 84242 333
20245=
59644 32580 61603 10319 20243 30047 40062 57021 82902 333//
20267=
59023 11462 80000 10247 20224 39824 40064 57015 60051 79598
889// 333 20236=
59293 32575 51804 10339 20229 30020 40066 57022 85202 333
20259=
59417 32580 30403 10330 20255 39910 40056 57025 83240 333
20250=
59501 32580 12005 10310 20257 30077 40093 57016 81202 333
20264=
59663 32480 31405 10314 20243 30044 40071 57017 82940 333
20263=
59838 32580 63610 10319 20252 30044 40058 57025 86962 333//
20259=
59948 11575 70902 10318 20257 30049 40057 57016 60011 78080
86242 333// 20264=
59758 11480 71402 10273 20242 30048 40069 57012 60181 72998
879// 333// 20257=
58040 32660 41402 10222 20176 30047 40051 57009 84500 333
20157=
58144 31959 01802 10252 20187 30036 40058 57006 71000 333
20165=
58633 11470 82702 10234 20225 39969 40064 57005 60441 72598
884// 333 20216=
58659 11550 81804 10257 20244 30020 40053 57007 60181 79540
889// 333 20228=
58847 32672 71107 10344 20252 39953 40049 57016 82202 333
20245=
57355 32980 03201 10294 20164 40047 57032 333 20161=
57458 32980 03405 10311 20142 40036 57029 333 05212 20134=
57476 11962 01102 10264 20218 40053 57020 69901 70054 333
20179=
57562 32580 10702 10306 20217 40033 57023 81100 333 20176=
57662 32980 01803 10302 20195 30010 40050 57017 333 20179=
57669 32680 12704 10307 20205 40050 57017 81100 333// 20178=
57671 31966 01403 10279 20219 40051 57019 70040 333// 20182=
57682 31680 21801 10293 20208 40062 57022 70040 82100 333
20176=
57745 32574 21401 10280 20214 39750 40061 57024 81102 333
20191=
57766 11675 72203 10297 20223 40061 57021 69941 70080 81142
333 20209=
57845 11670 72004 10276 20221 40064 57017 69911 70060 82142
333 20192=
57894 11575 70000 10250 20226 40076 57013 69951 72580 8724/
333 20215=
58015 32975 01804 10324 20158 40021 57018 333 20172=
58102 32980 01806 10316 20169 39975 40023 57014 333 20169=
58122 32980 01803 10309 20172 40042 57011 333 20160=
58221 32964 02205 10298 20161 30026 40060 57011 333 20175=
58314 32975 02201 10301 20195 39964 40047 57009 333 20170=
58321 31660 21406 10267 20199 40057 57005 70040 82100 333
20180=
58424 32965 22005 10256 20195 30040 40063 57013 82040 333
20197=
58437 31/05 91602 10169 20157 38142 57001 74340 333 20142=
58531 11680 70000 10264 20226 40058 57005 69901 70060 878//
333 20220=
58608 11960 42202 10267 20221 40061 57019 60131 70098 84030
333 20219=
59046 32580 71603 10313 20244 40056 57022 84231 333 20271=
59058 32680 71802 10317 20234 40061 57022 82202 333 20248=
59072 32580 72501 10348 20236 40061 57017 82442 333 20254=
59087 32565 72203 10324 20244 40069 57018 86102 333 20261=
59096 32678 51603 10335 20218 40063 57023 85100 333 20253=
59209 11575 71802 10281 20212 40048 57013 69901 70080 878//
333 20229=
59254 32580 62003 10324 20239 40057 57023 83202 333 20271=
59278 32680 20903 10334 20236 40062 57026 82102 333 20253=
59456 32580 42903 10345 20236 40059 57028 82202 333 20244=
59493 11580 52204 10335 20231 40078 57008 69901 70080 85100
333 20274=
59632 32580 41802 10322 20243 40060 57025 82142 333 20260=
59647 32580 61802 10309 20263 40062 57023 82942 333// 20271=
59673 11580 62203 10305 20258 40078 57013 69901 70080 86200
333 20256=
59845 11580 70404 10284 20256 40058 57023 60031 70080 879//
333// 20240=
59855 32580 70904 10319 20253 40062 57010 86102 333// 20258=
58543 11680 73201 10245 20230 40065 57002 69971 70060 8684/
333 20217=
58556 11560 81601 10220 20214 40069 57008 60231 78088 884//
333 20204=
58569 11465 80402 10221 20218 40073 52002 60091 76194 8677/
333 20210=
58646 11558 80000 10243 20234 40065 57008 60061 79598 889//
333 20240=
58660 11560 80901 10255 20230 40060 57002 60011 78098 885//
333 20231=
58834 32678 72202 10341 20222 40050 57020 82102 333 20234=
50468 32575 11603 10223 20047 39875 40073 57016 81102 333
20037=
50745 32966 71403 10274 20049 39872 40042 57019 80002 333
20143=
50953 32680 71402 10245 20146 39872 40042 57010 82102 333
20154=
54337 11960 01805 10208 20146 39944 40026 57017 69901 70060
333 20147=
54342 31656 72903 10236 20123 39974 40034 57013 70400 875//
333 20159=
54471 32760 72005 10207 20128 30028 40033 57014 875// 333
20150=
54497 32580 12506 1X?38 20142 30024 40038 57016 81102 333
20123=
54662 11560 71804 10154 20129 39934 40052 57016 69901 70098
85230 333 20127=
51468 16/// /1800 10040 29051 36556 60151
555 1/140 2//02 /////=
58138 32960 01603 10276 20202 40053 57010 333 20184=
58259 32961 72503 10266 20196 40064 57006 80002 333 20192=
58343 31550 32503 10265 20184 40063 57004 71000 83200 333
20188=
58464 11962 71803 10235 20208 40065 57009 69931 70060 80002
333 20200=
58549 11660 80401 10232 20226 40065 57009 60461 79188 889//
333 20225=
58665 11570 80905 10250 20230 40062 52001 60081 78098 884//
333 20227=
58667 31959 70904 10260 20232 40057 57017 71000 8707/ 333
20225=
53513 32670 60702 10260 21064 38913 40042 57003 81102 333//
00351 20168=
53772 32660 41803 10317 20062 39145 49992 57020 82102 333//
20146=
54511 11550 81801 10244 20181 39975 40013 57021 69901 78000
889// 333 20175=
54823 32961 02207 10316 20158 39824 40016 57014 333 20188=
58944 32580 52207 10301 20241 40073 57007 81102 333 20256=
58358 31550 21602 10256 20200 40062 57009 71000 82100 333
20203=
58265 32970 43604 10227 20191 30051 40062 54000 80002 333
20196=
58472 11240 82704 10213 20201 39974 40068 57002 69921 71086
87607 333 20184=
58477 11462 83403 10210 20202 30018 40061 57007 60221 78088
887// 333 20201=
58725 11680 72201 10269 20238 39822 40071 57004 60011 70098
879// 333 20227=
58760 31562 71804 10276 20239 40056 57004 71700 82932 333
20225=
58921 32680 63202 10341 20227 39826 40057 57016 84102 333
20232=
58203 32970 01404 10304 20177 39998 40041 57013 333 20161=
58326 32570 61403 10276 20210 40060 57006 86100 333 20192=
58215 32968 01604 10298 20171 40056 57005 333 20142=
58338 32565 22702 10277 20220 40062 57006 82100 333 20197=
58311 32980 01603 10282 20199 40053 57008 333 20186=
58236 31965 01805 10278 20184 40053 57008 70040 333 20170=
58319 32562 71804 10251 20212 40060 57007 87500 333 20186=
52889 32580 70902 10297 20040 38385 49965 57024 81102 333
05300 20145=
52418 32980 80903 10285 20024 38773 49982 57022 80007 333
00153 20156=
57127 32960 00403 10289 20179 39459 40027 57027 333 20173=
56033 32580 73207 10070 21021 36052 57002 83902 333 05352
20002=
56080 32580 73402 10206 20027 37116 57027 81102 333 05404
20024=
52533 32980 70904 10260 21001 38451 40009 57019 80002 333
00100 20134=
53915 32680 61102 10317 20072 38545 49965 57027 81102 333
05301 20106=
52652 32975 62702 10272 20052 38433 49996 57019 80002 333
00000 20105=
56096 32978 01104 10312 20125 38807 49951 57043 333 05501
20188=
52996 32480 71804 10211 20080 37532 57010 81142 333 05201
20120=
52787 32780 73606 10153 21060 37026 57009 85502 333 05100
20067=
57006 32975 12701 10299 20128 49979 57021 80002 333 05301
20156=
59658 32475 71104 10320 20250 40069 57019 87902 333 20274=
53463 32580 23206 10253 20025 38872 40029 54000 82100 333//
00400 20137=
57083 31958 01505 10369 20148 39871 49996 57025 70500 333//
20180=
58666 31457 80405 10230 20223 39974 40072 57003 71000 888//
333 20216=
58362 32962 70403 10237 20197 30055 40065 57006 8703/ 333
20203=
59134 32575 21604 10318 20248 39922 40079 57017 82202
333 20239=
58345 32560 43202 10281 20196 40062 57007 84100 333 20199=
58820 11663 73602 10278 20243 40062 57006 69901 71798 8294/
333 20215=
45007 11575 51305 10317 20237 30068 40077 58016 69991
72582 82230  333  58003 82825 83359 =
53480 32680 43407 10207 20034 40039 57002 84100 333// 20120=
53673 32660 72202 10315 20043 49991 57017 87100 333// 20157=
53787 32580 83204 10320 21021 49985 57015 84107 333// 20143=
53898 32962 01602 10308 20204 40016 57021 333// 20186=
54527 32965 00903 10255 20183 40022 57016 333 20183=
54725 32565 12203 10292 20169 40019 57013 81100 333// 70148=
54751 32965 21107 10190 20138 40050 57005 80002 333// 20146=
54916 32562 11805 10271 20173 40036 57010 81100 333// 20149=
58208 32978 02203 10304 20179 40045 57009 333// 20166=
56294 32566 51804 10295 20176 39474 40037 57031 85200 333
05202 20193=
56492 32962 01403 10294 20181 39652 40037 57024 333 05305
20181=
56571 32775 72002 10276 20135 38357 57022 8114/ 333 05307
20165=
56651 32680 41402 10220 20126 37614 57020 84202 333// 00152
20122=
56778 32575 70000 10222 20166 38081 57020 8524/ 333// 00153
20158=
56951 32780 30204 10275 20158 38457 57026 83400 333// 05101
20192=
57328 31962 02201 10276 20188 39660 40050 57026 70040 333
20164=
57411 32961 00702 10289 20180 39696 40047 57030 333 20170=
57516 31960 00901 10286 20197 39750 40046 57028 70040 333
05304 20178=
57816 31565 61803 10273 20201 38732 40047 57020 70040 86102
333// 05107 20138=
58027 31970 01604 10302 20180 39989 40037 57017 70040 333
20164=
58150 32565 72004 10225 20174 30053 40061 57007 875// 333
20172=
58251 32964 00000 10244 20183 30056 40062 57006 333 20183=
58926 32780 32504 10350 20216 40063 57017 83100 333 20225=
58241 31957 02502 10263 20194 40065 57007 70500 333 20195=
58730 11670 70401 10266 20237 40062 57013 60081 70098 879//
333 20236=
58731 11775 73601 10248 20237 40071 57007 60011 70098 874//
333 20226=
58911 11680 61403 10318 20231 40066 57017 69901 71780 86942 333
20220=
58931 31380 51402 10228 20187 38358 57002 70040 85200 333
20167=
50527 32570 32204 10250 20053 39342 40036 57014 83200 333//
20088=
53564 32680 62702 10303 20025 39065 40004 57018 86100 333//
00300 20128=
53959 32980 02202 10386 20099 39564 49976 57024 333// 20200=
54102 32680 50406 10207 20082 38920 40016 52003 85200 333//
20109=
54843 32970 01408 10241 20167 30008 40034 57013 333// 20130=
54909 32974 02004 10329 20171 39954 40013 57015 333// 20176=
50136 32670 23208 10213 21003 39552 40054 57003 82200 333
20081=
50353 32570 41405 10236 20030 39847 40058 57018 84130 333
20037=
50557 32970 61403 10249 20045 39783 40066 57012 80002 333
20090=
50756 32670 61402 10251 20033 39774 40052 57014 81102 333
20107=
50788 32965 20706 10219 20042 30005 40086 57012 80002 333
20104=
50949 11665 73402 10197 20155 39886 40046 57008 60021 70060
82502 333 20158=
50963 32970 70408 10238 20071 39922 40050 57014 80002 333
20153=
50978 32980 20905 10233 20053 39785 40061 57014 80001 333
20132=
54161 32570 62204 10248 20108 39759 40032 57011 86800 333
20164=
54236 11675 71405 10243 20111 39928 40026 57011 69901 70060
85502 333 20154=
54292 32580 70704 10223 20045 39842 40050 54000 81102 333
20118=
54374 32675 61602 10232 20118 39640 40022 57021 82102 333
20140=
56193 31659 20905 10293 20162 40016 57032 71000 81102 333
05100 20162=
56196 32663 31102 10270 20181 40047 57024 83100 333 05101
20203=
56287 32565 10000 10300 20210 40036 57027 81140 333 05303
20194=
56385 32/80 21603 10148 20057 37026 57016 82142 333 05201
20080=
56666 32680 20902 10318 20166 40003 57031 82200 333 00153
20206=
56671 11780 72003 10251 20162 38179 57018 69901 70080 87200
333 00101 20179=
56684 32580 62704 10245 20135 37871 57014 83130 333 05105
20154=
56751 32680 31104 10249 20148 37987 57024 82202 333// 00000
20163=
56786 32580 61603 10220 20159 38083 57016 83940 333 00154
20159=
56886 11680 62004 10230 20171 38235 57019 69901 70080 82242
333 00153 20175=
56977 32580 31101 10273 20202 40048 57024 83102 333// 00051
20198=
57206 31758 70000 10250 20177 40047 57020 71000 8354/ 333
20209=
57348 32970 00901 10264 20180 40056 57023 333 20168=
57426 31980 00201 10263 20187 40056 57022 70040 333 05306
20144=
57602 32965 00401 10278 20185 40045 57021 333 20187=
57713 31964 01402 10276 20155 40051 57026 70040 333 05105
20142=
57251 32980 00903 10339 20178 49999 57041 333 20165=
57378 11964 01603 10252 20200 40057 57017 69901 70060 333
20187=
57399 32565 21803 10255 20190 40072 57011 82100 333 20190=
57545 31965 02001 10281 20189 40052 57024 70040 333 20160=
57598 32580 12201 10302 20192 40054 57021 81100 333// 20191=
57687 32680 21402 10292 20220 39980 40057 57020 82100 333//
20188=
57774 11568 70000 10294 20229 40057 57019 69951 70060 8114/
333// 20201=
57866 11580 71602 10299 20248 39865 40061 57018 69901 70080
878// 333// 20227=
57965 11575 71806 10302 20232 40056 57017 69901 71798 83940
333// 20251=
58506 31/70 12701 10201 20151 40076 57007 70040 81100 333//
20151=
58519 11575 72701 10257 20215 40070 57012 69921 70060 8214/
333// 20200=
58606 11567 60000 10276 20230 30014 40067 57010 69921 70060
86100 333// 20207=
58626 11465 83202 10243 20234 40068 57015 60341 70098 887//
333// 20224=
58634 11461 82502 10242 20229 40065 57012 60501 70098 8747/
333// 20210=
58715 11580 70000 10256 20228 40065 57019 60111 70098 8117/
333// 20230=
58813 11562 73606 10284 20247 40052 57007 69991 79500 8696/
333// 20254=
59102 32580 41802 10326 20219 40066 57020 84200 333// 20238=
52436 32980 71406 10253 20017 38393 49997 57016 81032 333
00152 20124=
57046 32971 31605 10237 21001 37912 57008 80002 333 00004
20182=
57016 32970 10904 10353 20121 49964 57027 80001 333 20194=
56021 11480 83201 10049 20010 36113 57001 69901 78080 889//
333 05256 21023=
56065 32680 71802 10188 20024 36613 57025 82208 333 05506
21015=
56018 32680 70000 10107 20028 36200 57017 83202 333 05352
20009=
53923 32980 71804 10300 20017 49977 57016 80002 333 20164=
52323 32680 72202 10247 20020 38177 57014 83102 333 05104
20150=
53646 32980 72201 10295 20008 38866 40008 57010 82132 333
00251 20129=
53845 32970 01103 10338 20007 38960 49985 57018 333 00101
20165=
57245 32980 02202 10309 20174 39704 40032 57028 333 05206
20174=
57036 32966 30703 10360 20109 39540 49979 57027 80002 333
20196=
52836 32780 80902 10146 20024 36886 57016 8652/ 333 05352
20100=
52866 32980 80000 10205 20062 37660 57014 8803/ 333 05201
20057=
52754 32575 81605 10147 21027 36792 57014 81107 333 05302
20032=
50632 32580 41103 10220 20026 39216 40062 57013 81102 333//
20034=
50548 32980 22003 10250 20018 40059 57015 81032 333// 20050=
58647 11666 80000 10271 20248 40060 57008 60041 76098 885//
333 20236=
58737 31670 73605 10323 20244 40051 57014 71700 86942 333
20231=
58846 32668 70903 10321 20248 40043 57019 81102 333 20234=
58918 32680 61402 10322 20224 40073 57019 86202 333 20245=
59126 32680 61302 10357 20219 40071 57023 82202 333 20246=
59133 32561 41807 10273 20252 40071 57016 81132 333 20246=
53352 32580 53405 10223 20025 40044 57002 85100 333// 20104=
53764 32570 73205 10304 20073 40013 57008 82408 333// 20140=
53863 32562 73601 10312 20139 49989 57020 85102 333// 20149=
53975 32562 61603 10355 20099 49977 57025 83102 333// 20178=
54808 32970 71804 10301 20214 40012 57014 80002 333// 20173=
54826 32960 02508 10178 20129 38399 57005 333// 20142 91117
91520=
54836 31662 22204 10287 20127 40033 57009 70040 82100 333
20131=
54863 32580 82204 10179 20143 40066 52003 885// 333// 20137=
57071 32975 02202 10383 20083 49979 57026 333// 20192=
50246 11580 82704 10162 20074 40080 57005 69921 78080 889//
333 21001=
50658 32980 70702 10249 20007 40050 57012 80002 333 20114=
50844 32665 70904 10251 20038 40039 57008 83132 333 20159=
50854 32570 82202 10225 20139 40045 57005 888// 333 20117=
50888 32680 20205 10227 20047 40072 57014 81130 333 20070=
50968 32580 50703 10240 20117 40047 57008 81102 333 20135=
50983 32670 20403 10235 20069 40072 57010 81130 333 20099=
54096 32570 70705 10221 20078 40056 57009 81131 333 20090=
54259 32580 60902 10243 20078 40039 57019 82102 333 20127=
54273 11680 72001 10200 20133 40041 57012 60051 70060 875//
333 20145=
54324 32765 51406 10280 20119 49997 57022 85100 333 20164=
54346 32665 83201 10242 20096 40034 57012 885// 333 20131=
54493 32574 62702 10242 20104 40031 57016 86200 333 20127=
47401 42/89 70805 10157 20067 30100 40113 50001 81232=
47412 42/70 81605 10231 20088 30046 40076 53004 85077=
47420 42/70 81209 10115 20064 30079 40125 58007 85232=
47426 42/75 81204 10201 20068 30038 40080 57016 81272=
47582 42/84 81303 10231 20118 30022 40046 56002 8157/=
47590 41/56 81302 10182 20155 30014 40065 55008 76022 8752/=
47600 41357 81601 10173 20156 30029 40045 58013 76166 8672/=
47648 41/60 82105 10210 20180 30029 40061 58016 76162 8322/=
47662 41/60 82204 10238 20153 30012 40053 56012 72562 8627/=
47678 41465 82005 10206 20194 39971 40064 58021 78022 8727/=
47740 41260 81502 10173 20160 39989 40026 55010 72166 8772/=
47778 41/58 80404 10191 20179 39944 40031 56021 76166 8672/=
47807 41/25 83301 10214 20200 30009 40026 56002 78088 882//=
47827 41560 82407 10264 20233 30001 40036 58013 78082 882//=
47843 41457 83302 10210 20189 39999 40029 55000 78188 882//=
47898 41275 80701 10213 20210 39990 40028 56018 78082 882//=
47909 41/82 61904 10305 20229 30070 40078 58010 70282 86202=
47918 42/75 22005 10310 20254 30082 40090 58011 81201=
47936 42/65 52208 10289 20251 30039 40099 58006 83201=
47945 41/70 71904 10287 20259 30086 40109 57003 70242 82208=
47971 42/80 61803 10269 20242 30113 40122 58006 82202=
47991 42/80 71205 10282 20242 30135 40145 56003 81272=
56586 32680 12001 10253 20115 38017 57023 81140 333// 05306
20090=
56748 32580 51102 10264 20150 38305 57025 82202 333 05102
20160=
56763 32680 22701 10298 20191 40021 57030 82202 333 00152
20209=
56768 32680 61802 10252 20147 38189 57023 86900 333 00051
20177=
56838 32675 22501 10294 20197 40046 57029 82200 333 05102
20208=
56946 32680 40202 10294 20181 40025 57027 82202 333// 05100
20196=
56954 32580 50702 10305 20180 40031 57026 84902 333// 05100
20199=
56959 32780 30902 10316 20224 40027 57032 82102 333 00000
20215=
56966 11680 62201 10293 20230 40034 57033 60031 70098 82232
333 00255 20225=
56969 32580 21101 10304 20215 40051 57026 82101 333// 00051
20222=
56986 11280 71403 10237 20198 40053 57012 60061 70098 84942
333 00000 20191=
57237 32980 02203 10298 20113 40040 57025 333 20163=
57306 32665 11802 10278 20180 40050 57028 81100 333// 20188=
57504 32962 01101 10304 20171 40034 57030 333 05305 20190=
59007 31580 71103 10274 20184 40033 57023 71700 879// 333
20199=
58436 32675 21604 10283 20220 40058 57013 82102 333 20204=
50603 32680 21802 10264 20024 39406 40032 57015 82102 333//
20110=
57259 32980 00000 10306 20159 40029 57032 333 20151=
57279 11967 01104 10258 20197 40056 57012 69901 70060 333
20168=
57447 32980 00702 10286 20175 39539 40053 57028 333 20173=
57574 32575 12202 10284 20216 40052 57015 81100 333 20178=
57584 32575 12503 10265 20206 40060 57021 81100 333 20176=
57649 32680 11101 10293 20199 40054 57027 81100 333 20206=
57655 32575 12203 10294 20194 40058 57027 81100 333 20183=
57776 31/00 92205 10202 20202 40086 57005 74740 333 20156=
57799 11580 72902 10304 20251 39979 40058 57017 69921 70098
8594/ 333 20249=
57853 32675 70902 10291 20229 40058 57020 81142 333 20207=
57872 32960 71801 10268 20236 40062 57016 8704/ 333 20205=
57972 11459 82701 10266 20237 39862 40074 57004 60131 79598
889// 333 20242=
58407 32962 00000 10260 20187 40064 57013 333 20187=
53705 32980 70405 10315 20041 49986 57021 80002 333 05101
20131=
52737 32680 70701 10195 21019 37057 57015 81102 333 05404
20104=
52681 32980 70403 10286 21018 38554 49993 57017 80002 333
00001 20157=
53614 32780 73602 10288 20046 38813 40004 57015 81102 333
00151 20162=
53723 32980 70402 10304 21014 38571 49999 57010 80002 333
00001 20130=
52713 32680 73203 10188 21113 36887 57012 82102 333 05401
20066=
52955 32580 73203 10197 21023 36951 57012 82102 333 05402
20041=
56046 32580 82504 10142 21006 36268 57019 81107 333 05404
21001=
52602 32680 83210 10187 21083 37250 57004 82907 333 05252
20079=
56029 32680 82504 10167 21017 36485 57018 889// 333 05502
20009=
50727 11580 72501 10169 20029 38919 40069 57003 69901 70060
85502 333// 20091=
53588 32480 62208 10175 21007 37755 57003 85102 333 20090=
54218 11765 83206 10173 20118 39380 40028 52010 60131 79598
889// 333// 20151=
50834 32580 70703 10220 20005 40055 57006 87502 333// 20099=
54602 32965 81402 10297 20192 40008 57016 80007 333// 20203=
53798 32960 70402 10300 20189 39921 40009 57014 83032 333//
20192=
54423 32662 73203 10218 20147 39582 40023 57012 87902 333//
20152=
54308 11670 72001 10205 20146 40010 57011 60011 78098 87900
333// 20148=
53593 32780 62906 10284 21033 40003 57006 86200 333// 20157=
54026 11580 70204 10177 20139 39735 40042 52002 60011 72598
83902 333// 20159=
54027 32680 70207 10193 20114 39481 40035 57001 84902 333//
20151=
54618 32961 51803 10292 20173 39994 40011 57018 80002 333//
20169=
54436 32670 82203 10201 20140 40033 57015 885// 333// 20134=
47575 42/60 80305 10188 20128 30046 40050 56018 8161/=
47585 42/70 80301 10192 20125 30005 40059 56015 8157/=
47598 41/18 81901 10180 20165 30060 40066 56012 76364 8772/=
47602 41/70 82203 10173 20142 30034 40054 58013 76122 8807/=
47618 41/30 82503 10147 20134 39360 40056 57013 76162 8572/=
47624 41/15 83402 10190 20177 39926 40057 56010 76162 8572/=
47636 41/30 80402 10181 20170 39984 40049 56019 78162 882//=
47655 41/56 80603 10182 20169 30001 40055 58022 76062 8472/=
47750 41462 82602 10185 20173 30007 40033 56015 76362 8672/=
47755 41258 80202 10187 20180 30002 40025 53001 76162 8772/=
47772 41/50 80103 10194 20179 39937 40032 55008 76362 8672/=
47800 41160 80701 10184 20172 30008 40030 58006 70262 8672/=
47815 41/15 82101 10197 20185 30008 40023 58006 78182 882//=
47817 41340 81902 10214 20202 39986 40026 58002 78088 882//=
47830 41/65 82407 10283 20221 39999 40015 58020 72582 8627/=
47837 42/65 72309 10268 20226 30026 40047 58013 8723/=
47891 41/50 82002 10190 20175 30018 40030 58003 76362 8672/=
47899 41/01 92809 10191 20186 39812 40026 58017 76164=
47927 42/70 72206 10303 20258 30048 40094 58009 85201=
44216 32699 30000 10267 20071 38872 49985 57024 81104=
44219 32698 21804 10254 20008 38540 49998 57014 81104=
44221 32699 20000 10219 20062 38523 40020 58024 82200=
44224 32698 30000 10190 21030 38016 40003 50019 83200=
44229 32699 22703 10170 21038 37906 40035 58010 82200=
44242 32698 61805 10273 20089 39198 40011 57022 86900=
44243 32999 60000 10266 20104 39294 40028 57016 85204=
44266 32699 71405 10197 20043 37754 49982 58011 85106=
44291 32598 72705 10206 20043 38679 40131 58011 84252=
44325 32999 70000 10271 20130 38756 49999 57017 84087=
44338 32699 20000 10221 20073 38433 40026 57007 82100=
44374 32599 60000 10219 21005 38216 49995 58008 85202=
44385 32699 51405 10230 20027 38839 40037 57008 85200=
53478 32575 23405 10238 20024 40025 57008 82100 333// 20094=
53853 32973 73203 10343 21015 49986 57013 80002 333// 20160=
54518 32560 21603 10288 20168 40018 57019 82100 333// 20201=
54852 32570 71603 10196 20147 40051 57005 874// 333// 20141=
57089 32964 02005 10353 20155 40010 57020 333// 20183=
59985 11575 71104 10303 20274 30032 40037 57025 60071 72598
82942 333// 20255=
53068 32780 63605 10244 20009 38973 40035 57004 82102 333//
00701 20129=
53231 32680 60205 10231 21064 38431 57008 81102 333// 00202
20102=
53276 32680 22908 10216 21013 38778 40039 57006 81132 333//
20111=
54135 32780 71105 10229 20132 39821 40029 57001 85402 333//
20165=
54539 32570 41603 10210 20148 30023 40037 57015 82102 333//
20145=
54753 32962 03602 10222 20150 30035 40041 57013 333// 20133=
54857 32465 71605 10164 20147 39967 40056 57001 876// 333//
20135=
57067 32975 22005 10357 20095 39374 40000 57022 80002 333//
20161=
57178 31950 02204 10286 20197 39883 40033 57019 70540 333//
20176=
57297 32965 01805 10271 20203 39912 40045 57011 333// 20173=
50564 32970 71401 10230 20039 40067 57016 80002 333 20016=
54049 32770 71603 10207 20143 40050 52001 875// 333 20155=
54115 11678 70000 10194 20082 40026 57003 69901 70080 86902
333// 20115=
54157 32568 72904 10233 20120 40037 57008 82202 333 20161=
54377 32570 30402 10241 20131 40033 57021 82230 333 20154=
54386 31570 62706 10225 20092 49999 57017 71700 86900 333
20120=
57461 31970 01104 10311 20192 39889 40042 57015 70040 333
20170=
57494 32670 60000 10257 20194 30034 40062 57011 86100 333
20185=
57554 31980 00401 10287 20207 40056 57027 70040 333// 20176=
57993 32670 72702 10337 20228 39915 40055 57020 82102 333//
20262=
51886 31775 82704 10179 21079 37102 57016 71400 82907 333
00053 20069=
56146 32780 31601 10202 20055 36724 57032 82902 333 05503
20028=
56172 32680 42701 10261 20064 37300 57048 82102 333 05504
20043=
56247 32880 72702 10265 20067 37378 57044 86142 333 05401
20095=
56444 32780 60904 10168 20057 36816 57016 86200 333 00051
20066=
56462 32680 51607 10233 20044 37117 57033 85200 333 05204
20078=
56691 32580 61802 10236 20135 37752 57016 86242 333 05104
20113=
56739 32577 72501 10251 20147 38316 57019 87940 333 05104
20161=
56964 32580 62701 10274 20184 38654 40034 57021 85260 333//
00051 20203=
56985 31575 71403 10224 20180 38657 40052 57010 72990 84963
333 00156 20216=
57633 31580 11102 10278 20161 39311 40054 57021 70040 81100
333 05107 20145=
53698 32963 61603 10296 20191 40002 57021 80002 333// 20198=
54405 32673 32705 10300 20040 49992 57023 83400 333// 20154=
53362 32580 53205 10188 20015 40054 57002 85100 333// 20080=
53664 32675 23206 10297 20061 40009 57012 82100 333// 20137=
53782 32570 72904 10334 20027 49980 57019 86102 333// 20172=
54429 31950 80000 10206 20154 40029 57016 71000 8807/ 333//
20166=
54623 32960 01408 10212 20163 40029 57011 333 20190=
54705 32960 71802 10310 20197 40023 57007 80002 333// 20188=
54736 32962 50904 10258 20153 40029 57012 80002 333// 20158=
54824 32962 02007 10310 20149 40017 57010 333// 20165=
54936 32660 21804 10232 20178 40049 57011 82100 333// 20132=
57077 32978 21604 10343 20063 40011 57006 80002 333// 20140=
57091 32962 01804 10330 20186 40008 57023 333// 20175=
57156 32980 01804 10347 20157 40018 57019 333// 20174=
57181 32968 01808 10356 20163 40006 57017 333// 20161=
54186 32570 70902 10230 20108 40038 57011 83202 333// 20117=
56144 32680 20000 10186 21004 36893 57021 82100 333 00103
20045=
56152 32780 72006 10164 21014 36325 57022 83102 333 05404
21017=
56167 32780 51606 10235 20048 37068 57036 83102 333 05302
20041=
56257 11680 51605 10152 20019 36301 57023 69901 72580 84102
333 05201 20035=
56357 31680 51104 10147 20038 36472 57019 71500 85900 333
05152 20057=
56374 32680 41107 10212 20095 37399 57028 84400 333// 05204
20100=
57707 32976 01403 10272 20135 38439 57021 333 05203 20109=
57832 31580 61602 10287 20175 40052 57022 70040 82802 333
20178=
57916 32680 70000 10283 20226 40058 57019 878// 333 20205=
57922 11580 81802 10239 20199 40063 57018 60011 70060 888//
333 20181=
57932 11680 63201 10303 20233 40052 57026 69931 70060 83832
333 20213=
50774 32670 20903 10240 20079 39769 40057 57016 81101 333
20047=
54094 32565 50403 10275 20092 39750 40028 57015 83102 333
20130=
82100 22261 00294 20202 3//// 4//// 5//// 6//// 80261 ICE=
84570 22224 00174 20404 314// 40904 80185=
87596 22225 00150 2//// 3//// 4//// 5//// 6//// 80070 ICE=
10803 70015
333 91209=
50442 32670 21805 10255 20019 40047 57017 82102 333 20037=
84200 22264 00250 20203 331// 40203 5//// 6//// 80210 ICE=
86220 22234 00234 20402 31700 40602 50201 6//// 80230 ICE=
82400 22223 00158 20403 31506 40604 50503 80125=
57731 32980 01802 10293 20171 40062 57023 333 20177=
44210 32699 60000 10210 20025 38424 57019 82241=
44217 32698 52702 10173 20095 37850 40058 57019 82344=
44263 32698 30000 10200 21014 37993 49986 58015 81104=
44286 32698 83401 10233 20035 38588 40026 57009 83200=
44329 32598 42704 10178 20055 37740 40000 58005 82240=
59981 11580 71403 10276 20258 30044 40050 57018 60061 72580
84902 333 20259=
53083 11675 73404 10182 20082 40033 54000 60021 72980 85902
333// 00754 20101=
53487 32575 63207 10265 21037 40009 57006 86102 333// 20127=
54226 11680 71102 10202 20151 40014 57006 60021 71798 87900
333// 20151=
54311 11560 83406 10135 20098 40043 52009 60081 79600 889//
333// 20121 93909=
54534 32580 41103 10227 20156 40029 57016 81102 333// 20163=
54587 32578 72503 10178 20139 40022 57003 8653/ 333// 20127=
54715 32965 62205 10290 20187 40020 57014 80002 333// 20170=
54929 32962 02204 10268 20181 40042 57014 333// 20160=
54945 32580 71602 10171 20149 40067 57003 875// 333// 20145=
57193 32978 02004 10331 20184 40019 57015 333// 20160=
57290 32962 01805 10315 20204 40027 57010 333// 20163=
53195 32680 53204 10220 20070 40016 57007 83202 333// 20118=
54624 32966 01106 10276 20162 40024 57014 333// 20159=
54774 32570 70403 10172 20139 40054 52001 874// 333// 20137=
58005 32965 02005 10333 20166 40022 57018 333// 20168=
56066 36/// ///// 10187 21077 36599 4//// 57017
555 10020 2//// 3//// 40111 51001 60/// 7//// 80000
9//// ///// 1/020 2//00 30000=
57265 32961 01805 10290 20207 39925 40029 57019 333 20180=
57583 32575 13202 10280 20202 40060 57016 81100 333 20184=
57793 11580 72501 10269 20209 40070 57015 69931 76060 8114/
333// 20208=
52818 32975 72502 10220 21047 37209 57015 80002 333 05100
20120=
56004 11680 70202 10062 20019 35851 57006 69901 72587 86902
333 05353 21002=
52908 11580 70702 10042 21010 35792 57009 69901 70070 86902
333 05254 21015=
58754 32570 71404 10320 20244 40044 57017 82102 333 20220=
52634 36/// /0000 10150 21107 36732 4//// 57017
555 10020 2//// 30125 41111 51011 60/// 7//// 80000
9//// ///// 1/115 2//00 30000=
50434 32580 72201 10224 20020 39209 40051 57011 879// 333//
21010=
50915 32580 70205 10218 20054 39096 40032 57002 83202 333//
20131=
53149 32580 23403 10223 21001 38717 40049 57003 82100 333//
00600 20124=
53192 11580 70404 10204 20057 38788 40027 57002 69961 72580
86902 333// 20116=
53336 32980 33604 10229 21013 38648 40035 57002 80002 333//
00400 20140=
53391 32580 73206 10185 20050 38434 40034 57003 83102 333//
00452 20089=
53529 32680 53404 10274 21027 38544 40011 57012 82102 333//
00101 20143=
53543 32680 23206 10245 21046 38475 40029 57005 81102 333
20136=
54012 31580 70202 10186 20099 38926 40036 57002 70090 86902
333// 20104=
54208 11580 62706 10146 20096 38654 40033 52002 60051 72598
85902 333// 20079 93908=
54776 31580 71803 10153 20135 30011 40068 52009 70040 8644/
333// 20124=
57528 16/// /2000 10130 29756 37563 61430
555 1/145 2//09 30201 12100
11101 10101 10110 10110 1111/
/////
2//// 3//// 6//// ///// ///// 8//// 9//// ///// ///// //004
11101 11111 1011/
11111 110//=
56079 32780 72003 10192 20016 36688 57024 82102 333 05407
21010=
56173 32680 72005 10197 20008 36648 57024 82108 333 05407
21010=
56182 32680 61403 10248 20013 37160 57042 83102 333 05406
20025=
45011 42475 61606 10316 20260 40088 57012 83231 333 58003=
54401 32680 63403 10268 20057 39207 40009 57011 86200 333//
20151=
57385 32660 51404 10235 20188 40057 57014 85500 333 20183=
47105 32562 73403 10209 20112 39996 40026 58002 83530=
47108 32562 22505 10251 20121 39930 40029 58009 82500=
47115 42560 72303 10200 20173 39765 40017 57006 84510 333
92042=
47135 32667 42904 10251 20138 39742 40015 58005 84500=
47138 32662 81103 10236 20154 30016 40020 57006 8351/ 333
92022=
47159 41558 81804 10200 20166 39946 40025 57007 71022 8252/
333 92022=
47165 32968 33605 10218 20134 39998 40041 58001 80001 333
92022=
47184 42660 80202 10174 20151 30021 40048 52001 8452/ 333
92022=
47008 42970 50508 10164 20073 39993 40044 54000 80009=
47016 42570 73202 10231 20088 39195 40015 57017 84530=
47020 42565 83202 10229 20144 39685 40034 58021 82204=
47035 42970 52305 10251 20131 30030 40038 57016 82101=
47041 42970 51104 10223 20125 30002 40027 54000 80002=
47055 42965 00504 10200 20133 39991 40033 52004=
47058 42966 72304 10215 20123 39994 40038 57021 82031=
47069 42565 23602 10239 20124 39953 40045 58002 82200=
23914 32999 20701 10185 20048 40174 51001 80002 333 20106=
23921 32999 73403 10152 20004 40184 58005 80001 333 20033=
23955 42998 63405 10110 20046 40015 51005 84079=
24641 42599 23503 10157 21007 40092 58004 81101=
28440 32998 50104 10149 20023 40151 54000 80006 333 20093=
28748 32960 00207 10160 20078 40123 58001 333 20075=
29231 41497 71902 10141 20117 49934 52003 78082 87300=
29838 42597 72003 10223 20078 4997/ 57003 86532=
30372 42699 60304 10135 21012 40105 51001 83801=
30673 42699 63610 10168 21025 40069 52005 86200=
30823 42699 60507 10218 21017 40074 57010 85930=
30935 42699 52401 10239 20009 40049 57017 82241=
30965 42699 73409 10232 20038 40031 58010 81102=
31004 41599 82905 10110 20046 40053 52006 78022 85907=
31088 42599 71805 10069 20033 40073 57001 82346=
31137 42699 70000 10145 21005 40052 57013 87500=
31300 41599 60302 10156 20086 40071 57009 70281 84930=
31329 42699 32803 10203 21027 40057 58020 82102=
31369 42998 81005 10130 20045 40142 52003 80002 333 91010
91110=
31371 42599 80000 10197 20092 40063 57008 8597/=
31388 42699 30000 10213 20061 40078 58017 82500=
31416 42999 72002 10197 20036 40107 57011 80001=
31510 429// 01802 10231 20048 40067 57015=
31594 42698 31802 10200 20073 40083 57014 83200=
31707 42599 10903 10207 20078 40088 57015 81100=
31735 42597 70405 10189 20063 40098 57009 82101=
31866 42999 10507 10087 20056 40125 52003 81080=
31873 42999 10502 10233 20100 40060 57010 80009=
31909 42999 21604 10137 20036 40103 50002 82030=
31960 42599 61904 10160 20076 40061 58002 82535=
32053 41598 30502 10105 20059 40139 53006 82501=
32061 42599 73603 10064 20048 40145 51010 86940=
32098 42598 81906 10057 20033 40144 52011 82943=
32150 42599 73402 10138 20058 40126 53010 86302=
32165 42599 81301 10102 20032 40141 52006 82141=
47005 42560 80000 10159 20058 38519 54000 882//=
47028 42666 33201 10264 20175 39949 40035 57009 83205=
47031 42570 81801 10164 20099 885//=
47046 42969 11402 10196 20080 30010 40031 58001 81030=
47050 42565 52306 10200 20162 30001 40033 57012 85500=
47060 42563 62703 10191 20141 30001 40056 57006 86100=
47061 42680 31602 10205 20131 39989 40030 52005 83500=
47065 42565 13206 10214 20146 30012 40073 52007 81100=
47067 42565 42503 10239 20141 39917 40028 57011 84500=
47068 42970 13202 10235 20131 30011 40043 57014 80002=
47070 42570 63202 10235 20156 39959 40040 57006 86500=
47075 42575 22303 10215 20131 39633 40031 57008 82500=
98429 31560 31506 10338 20219 40074 57024 70222 83200 333
56999 83823=
98444 11468 30401 10328 20266 40077 57020 69901 70282 83202
333 56999 83818 83070=
98630 32580 50402 10306 20264 40075 58016 81201 222// 2//01
333 56199 81820 84075=
58527 32575 72202 10258 20210 39991 40064 57009 878// 333//
20211=
59995 11480 72206 10292 20246 30052 40060 57021 60021 70080
83912 333// 20234=
44207 32699 53606 10176 20015 38278 40044 57011 83201=
44212 32699 43604 10139 20053 39000 40017 57019 82202=
44214 32698 70000 10203 20059 38203 49980 57017 83240=
44231 32999 20000 10211 20023 38664 40040 57012 80004=
44232 32699 22705 10255 20030 39024 40037 57012 82040=
44239 32699 62903 10218 20048 38721 40015 58010 83460=
44241 32999 20000 10264 20088 39152 40026 58014 83040=
44259 32698 40303 10258 21027 39216 40035 58007 84200=
44272 32698 20000 10203 20052 38168 49987 58020 82210=
44277 32999 32699 50000 10187 20070 37790 40003 58012 82504=
44282 32699 60000 10206 20000 38251 40015 57011 86200=
44284 32699 20000 10173 20017 37883 40032 51007 82100=
44285 32699 60000 10202 20055 38289 40029 58011 86300=
44287 32599 11806 10190 20061 38091 40016 58013 86240=
44288 32699 60903 10201 20045 38137 40020 57007 86200=
44292 32699 73202 10207 20015 38642 40037 56010 82206=
44294 32698 60000 10198 20007 38518 40040 58003 86200=
44298 31699 70000 10218 20015 38648 40017 58012 71511 87200=
44314 32698 60704 10238 20040 39045 40024 57001 86200=
44341 32599 70000 10205 20041 38552 40035 58010 83204=
44347 32699 30000 10219 20082 38648 40033 58004 83200=
44373 32599 22903 10228 20006 38478 40020 58004 82140=
28661 32999 53506 10159 20065 40104 52001 80001 333 20083=
28679 32699 83204 10136 20086 40059 52004 889// 333 20109=
28879 11397 83303 10109 20090 40054 52007 69930 70252 886//
333 20096 88708=
28952 32598 63604 10155 20062 40110 53004 85801 333 20089=
29023 41396 80403 10100 20094 49967 52001 75152 889//=
29122 41496 83602 10112 20103 49962 53011 78082 883// 333
85910=
29807 11597 83203 10153 20102 49999 52006 69900 70262 885//
333 20131=
30230 42499 80604 10218 21025 40100 57022 85202=
30309 42998 71606 10193 20004 40056 57016 80001=
30385 42599 82702 10217 20057 40078 52001 85902=
30650 42699 23202 10184 20004 40089 57008 81101=
30710 41960 81906 10186 20025 40088 57010 70162 82031=
30844 42999 50901 10205 20013 40063 58018 85030=
31532 41599 30000 10206 20002 40086 57018 70241 81201=
31829 42397 80311 10066 20055 40132 53011 886//=
31989 42999 91404 10133 20030 40073 58001 89080=
35078 12497 83408 10110 20085 40052 52008 69910 887// 333
20082 88819=
35108 32997 13202 10230 20070 40151 57002 80001 333 20111=
35188 11498 83404 10132 20088 40028 52010 69930 70282 889//
333 20112=
35229 32798 60602 10202 20113 40109 53003 82101 333 20011=
35416 32997 23602 10226 20074 80001 333 20140=
35671 32698 53306 10187 20070 40050 53024 85200 333 20087=
35746 32698 71003 10216 20105 40085 54000 83230 333 20144=
35796 12697 12608 10207 20070 40027 52011 60020 81100 333
20146=
36003 31598 72501 10165 20115 49998 58001 70242 84930 333
20105=
36177 11697 50000 10236 20118 49984 57014 69910 70298 82101
333 20117=
36428 32699 70806 10232 20107 40013 58005 83930 333 20147
95000=
36859 32699 72903 10271 20084 40040 57004 83945 333 20149=
36870 11597 83202 10248 20056 40041 58009 69900 79598 889//
333 20168 88930=
38198 32999 80302 10246 20038 333 20108=
38341 12698 23503 10226 20124 40052 54000 69970 82400 333
20121=
44304 32599 71105 10248 21009 38912 40016 57004 86202=
44354 32599 70204 10241 20099 39013 40001 56006 86202=
44305 31598 60509 10240 20107 38954 40013 54000 75200 86200=
44352 41699 60705 10196 20073 38837 40030 54000 72581 86200=
44358 32798 52603 10147 20117 38973 40004 57006 85200=
98223 31565 12902 10332 20276 40084 58011 70544 81900 333
56999 81920=
98325 31462 21803 10344 20274 40073 58007 70544 81201 222//
20000 333 56999 81817 98308=
98328 31461 51803 10248 20201 38508 40063 58013 74044 85300
333 56399 82912 84813=
98440 32480 30903 10314 20278 40088 58019 82230 333 56299
82816=
98543 32475 51402 10338 20265 40071 58030 82201 333 56999
82818 84075=
98550 11460 60000 10300 20247 40070 57021 60011 72594 84961
222// 20101 333 56999 82915=
98618 31475 60903 10319 20264 40071 58019 70544 84901 333
56999 83918 82819 84075=
98637 31475 60203 10325 20267 40059 57028 70544 83202 333
56999 83812 85075=
98755 11575 60000 10294 20266 40068 57019 60021 70382 82907
333 56999 82920 88278=
98836 31565 72902 10304 20249 40067 57026 71794 85970 333
56999 85920 87362=
44254 32998 60503 10231 20027 38956 40025 58008 86200=
44257 32598 63203 10224 20019 38889 40029 58007 86300=
44317 11598 70406 10205 20106 38843 40058 52003 72222 87260=
44348 32997 80000 10182 20081 38648 40064 54003 8807/=
44386 32699 30000 10229 20045 38959 40031 58006 85200=
22550 12997 01003 10221 20169 40093 58003 69960 333 20159=
22583 32984 00902 10265 20134 40121 58010 333 20140=
22768 32997 01803 10258 20151 40117 58002 333 20185=
22845 32998 72401 10216 20152 40108 52006 80001 333 20157=
26063 11597 82902 10115 20107 40119 53007 60062 78082 889//
333 20115=
26298 11596 71401 10166 20143 40092 54000 69932 71022 87500
333 20152=
26477 11565 73201 10119 20095 40122 52009 60082 70182 87300
333 20101 87924=
26702 11996 00000 10127 20104 40139 52004 60082 71000 333
20042=
26850 32465 53102 10128 20086 40145 52009 82630 333 20088=
26997 11457 81504 10159 20152 40110 53015 60072 78082 889//
333 20134 87913=
27595 32997 20000 10229 20111 40167 54000 333 20135=
27612 32997 21202 10252 20155 40110 58003 80004 333 20164=
27947 32997 01605 10233 20129 40150 52004 333 20160=
27962 32997 40000 10230 20098 40154 54000 80001 333 20125=
33008 32970 60000 10137 20059 40159 52001 82031 333 20057=
34009 11568 71604 10198 20137 40097 53007 69902 70298 86501
333 20138=
34172 32970 60000 10222 20102 40168 51002 80001 333 20153=
34247 32975 21402 10243 20048 40138 58003 80001 333 20125=
34391 32997 20203 10193 20135 40152 58003 80001 333 20117=
37018 31588 83001 10195 20172 40113 52013 72588 8295/ 333
20173=
37054 32998 50704 10217 20156 40101 52003 85030 333 20145=
48803 32570 31403 10325 20249 39932 40041 57029 83200 333
59006 83895=
48806 11570 70000 10289 20228 39306 40048 57021 69921 70362
879// 333 58003 81895 83995 87696=
48808 11460 60206 10279 20234 39775 40048 57021 60041 76086
869// 333 59007 81894 82995 86696=
48823 32598 61804 10324 20254 30043 40046 57022 85201 333
59008 85895=
48830 41560 71104 10316 20229 39761 40052 57020 69901 78022
872// 333 58003 87895=
48840 32598 61203 10314 20244 30040 40046 57027 82208 333
58000 82895 84299=
48852 32570 83602 10300 20253 30036 40046 57019 888// 333
59005 86895 88697=
48916 11597 82703 10250 20235 30040 40090 58006 60201 76198
889// 333 59015 84995 88696 555 20240=
48802 32360 63601 10222 20200 38389 57012 862// 333 59001
84893=
48810 11460 81401 10274 20253 39858 40057 57016 60051 889//
333 59004 84894 88995=
48831 11470 60000 10258 20248 30015 40052 58015 60151 72198
868// 333 58002 82894 86697 555 20248=
48838 32598 51402 10316 20261 30054 40060 57023 82201 333
59001 82895 83099=
48846 32598 70904 10314 20264 30045 40048 57020 82208 333
58002 82895 87299=
48863 11497 83202 10263 20247 30028 40037 58018 60041 76062
8682/ 333 59017 84895 86696 88499 555 20255=
48866 11497 82703 10213 20213 39201 40071 57016 60091 76166
8672/ 333 59006 86894 88499=
48875 11460 82702 10232 20219 39534 40065 57015 60041 76162
888// 333 59004 83894 88696=
48907 11497 82010 10251 20245 30074 40076 58004 60281 78182
8619/ 333 58014 86895 88499=
48820 32598 71801 10317 20255 30045 40053 57021 84208 333
58001 84895 87299=
48826 31061 32598 61404 10323 20286 39921 40046 58021 862//
333 59003 86895=
48839 32498 70203 10295 20267 39992 40055 58022 83108 222//
2//01 333 59003 83894 85299=
48845 32598 70502 10317 20258 30040 40047 57020 85808 333
58001 83895 83299=
48848 32570 70504 10306 20263 30046 40054 57016 81208 333
58004 81895 87299=
48855 11560 83403 10281 20247 30039 40047 57020 60041 72196
888// 333 59009 83895 88696=
48870 11495 82501 10245 20233 30020 40027 58014 60221 76566
8672/ 333 59024 86894 88499=
48877 41498 73401 10278 2025 30040 40045 57023 69991 70262
8581/ 333 59016 83894 87499=
48887 11432 82903 10256 20244 30058 40064 55010 60071 76562
8272/ 333 59004 82894 88499=
48900 41496 82404 10277 20255 30055 40065 57015 78082 8542/
333 58013 84894 86499=
48914 11497 83202 10259 20245 30074 40076 58018 60121 76166
888// 333 58003 83894 88697 555 20234=
48917 11598 82306 10285 20255 30066 40071 57014 60031 70382
889// 222// 00303 2//01 333 58004 87895 84995=
48918 11470 73207 10274 20236 30062 40073 58023 60101 70262
8211/ 222// 00283 2//02 333 58005 82894 87499 91116 91532=
48920 32598 72305 10295 20261 30036 40036 57020 879// 222//
00296 20302 333 58005 84895 82995 87696=
82240 22234 02220 20302 313// 40302 5//// 6//// 80135=
86500 22213 02190 20802 328// 41204 80170=
48480 31457 82103 10307 20262 30047 40051 71022 86576
333 59004=
48500 32565 52603 10332 20239 30047 40053 82805
333 59002=
48551 11560 80000 10288 20236 30074 40082 69941 70266 83577
333 58013 70012=
48565 11560 72603 10307 20248 30067 40078 69901 70262 82267
333 59008 70544=
48569 01462 82402 10283 20255 30031 40071 69991 70262 83856
333 59006 69927 70022=
48583 32562 62703 10316 20225 30059 40065 82246
333 58000=
48325 31565 40000 10336 20232 39794 40028 71710 83903
333 59009=
48352 32565 60000 10328 20255 39849 40043 84943
333 59005=
48357 32563 70000 10325 20252 39886 40049 82146
333 58002=
48383 32562 60000 10324 20261 39886 40040 84306
333 58002 70033=
48403 32560 82301 10307 20245 39845 40051 84876
333 59001 70418=
48405 32561 61901 10312 20253 39891 40050 83256
333 58003 70068=
48425 31557 63603 10340 20262 30033 40043 71522 85206
333 59005 70007=
48426 32565 60000 10329 20252 30029 40042 83226
333 59007 70097=
48430 32562 62602 10339 20240 30034 40042 83246
333 59013=
48450 32560 60000 10337 20242 30009 40041 83946
333 59011 70040=
48459 01557 81203 10271 20238 30051 40054 60021 79522 889//
333 59003 60025 70015=
48550 32560 82704 10303 20241 30071 40078 81146
333 58008 70005=
48552 32460 80000 10302 20234 30064 40070 86237
333 58003=
48568 32460 72202 10296 20238 30064 40073 84876
333 59003 70024=
96995 46/// /1407 10266 20214 39799 40092=
96996 41462 71209 10250 20231 30105 40109 57018 78011 878//=
51087 32980 72902 10270 20013 39137 40029 57015 80002 333
05302 20111=
51156 11770 73605 10178 20073 38636 40041 57006 69961 72980
86902 333 05255 20132=
51068 32680 71401 10281 20070 40030 57008 81302 333 05402
20134=
51232 32680 73207 10323 20054 40028 57016 81902 333 05404
20193=
52313 32780 73207 10263 21023 38355 57008 81102 333 00001
20150=
56038 32680 72206 10136 21033 36105 57015 82402 333 05403
21028=
55591 32780 62703 10193 20009 36516 57019 86200 333 05402
20109=
54171 11575 70000 10236 20133 40038 57014 69901 70080 82202
333// 20164=
54237 11670 41404 10258 20123 40015 57016 69901 70060 84100
333 20165=
54335 11965 71807 10229 20141 40029 57010 69901 70060 8703/
333 20140=
54339 32960 62502 10242 20144 40041 57004 86030 333 20156=
54351 32765 72903 10243 20109 40038 57016 875// 333// 20116=
54365 32573 62702 10246 20131 40040 57014 86500 333 20152=
54454 11470 81605 10182 20144 40042 57007 69901 70060 8672/
333 20145=
54563 11575 71804 10193 20130 40044 57019 69901 78000 84232
333 20126=
51711 32680 62503 10192 20014 37966 57012 83102 333 05102
20112=
52118 11680 80403 10202 21005 38218 57011 69901 78000 889//
333// 05151 20123=
91520=
51818 31857 73203 10246 20059 40023 57007 70600 84502 333//
00253 20173=
52378 32980 70403 10311 21022 40006 57013 80002 333// 00102
20153=
53502 32680 60402 10299 21030 40012 57013 81102 333// 00100
20151=
51542 32680 42004 10122 20012 37543 57006 83102 333// 05307
20029=
50425 32580 52702 10257 20044 40040 57022 82130 333// 20091=
54134 11670 73602 10238 20108 40018 57001 69901 70080 85902
333// 20157=
54142 11670 71604 10211 20132 40040 54000 69901 70060 875//
333// 20156=
54284 32570 72902 10178 20127 40042 57010 879// 333// 20113=
54363 11570 73403 10216 20121 40034 57018 69901 70060 82232
333// 20152=
48303 32565 20000 10317 20246 39601 40031 82901
333 59003 70272=
48328 32562 60000 10332 20244 39759 40027 85835
333 59017=
48330 32562 60000 10330 20260 39853 40034 84806
333 59013 70040=
48351 31558 70000 10334 20259 39971 40042 71022 85846
333 59004=
48354 01560 62203 10278 20230 39842 40043 69951 76022 83963
333 59003 69955 70005=
48376 32564 60000 10324 20252 39889 40026 84836
333 59020 70005=
48377 32562 60000 10320 20241 39874 40027 83235
333 59016 70012=
48379 32560 72102 10335 20237 39904 40033 82973
333 59001=
48400 32560 70000 10327 20255 30004 40043 84236
333 59007 79999=
48432 32560 80000 10305 20253 39885 40050 82206
333 59001 70151=
48455 01550 81302 10275 20258 30048 40053 60141 79592 84976
333 59002 60145 70135=
48462 31558 50000 10330 20260 39992 40046 71021 82206
333 59007=
48475 32562 71003 10310 20241 30041 40052 83246
333 59005=
48477 31462 72104 10309 20255 30045 40059 71722 82978
333 59001=
48517 01558 82808 10275 20231 30070 40075 69901 76022 8487/
333 58011 69905 70002=
48532 01440 80000 10247 20237 30070 40079 60681 76196 8672/
333 58005 60287 71067=
48567 01458 80000 10275 20257 30056 40073 60111 71062 83857
333 59011 69917 70125=
48460 01560 82705 10288 20248 30026 40057 60011 71796 85976
333 59004 60016 70013=
48501 11560 80000 10294 20244 30056 40064 60041 70262 82577
333 58000 70234=
48564 32560 82803 10310 20240 30071 40076 83276
333 59007 70193=
63791 32580 31305 10197 20152 39187 48559 83200
333 20108 50551 55085 55310 58003 83824=
63844 32480 22012 10254 20212 30129 40169 82230
333 20208 50601 55108 55310 58003 82818=
63862 32480 11216 10185 20130 38932 48538 81501 90554
333 20145 55312 59004 81616=
63894 32580 11908 10241 20203 30110 40170 81100 90850
333 20178 50701 55105 55310 58001 58001 81820=
63932 32582 10000 10130 20094 38325 48522 81500 90550
333 20050 5//// 55/// 553// 59011 81620=
63962 32970 00907 10184 20130 38993 48545 90555
333 20100 50301 55109 55310 59012=
63971 32982 01910 10231 20211 30041 40172 90550
333 20181 553// 58004=
59001 82895 83099=
58002 82895 87299=
91650 31599 30806 10269 2023/ 40091 53003 70111 82101
333 569/9 82822=
91659 31599 51406 10245 2019/ 40093 53005 70301 85800
333 569// 83825=
91670 36/// /0806 10250 20207 40092=
91680 31699 22704 10247 20186 40093 57002 70100 82800
333 569// 82830=
91691 36/// /1105 10246 20198 40106=
91697 36/// /0905 10242 20186 40108=
91699 36/// /1011 10234 20183 40116=
83208 32970 01504 10176 20150 39430 40106 333 58020=
96315 35475 73207 10326 20235 40069 82963
333 81917 86080=
68174 31980 02204 10096 20020 38825 48555 52014 70500
333 20031 91004 555 10220 91023=
68242 32980 01206 10070 21047 38783 48566 52012
333 20015 91006 555 10212 91024=
68262 31950 00000 10055 21003 38765 48575 52016 70400
333 20021 91001 555 10226 91026=
68263 31968 01604 10079 21042 38537 48561 52016 70400
333 20039 91005 555 10203 91025=
68350 36/// /0204 10034 21004 38716 48566 52014
333 21007 91006 555 10216 91024=
68368 32984 00000 10014 20021 38562 48496 52009
333 21053 555 10194 91017=
68372 36/// /0000 10003 21034 38514 48576 52018
333 21032 91001 555 10177 91027=
68424 32982 10000 10025 21034 39266 48556 52015 80004
333 20002 91002 555 10230 91023=
68438 31974 20000 10001 21034 38886 48574 52015 70500 80002
333 21032 91001 555 10206 91025=
68442 32982 00000 11003 21011 38717 48557 51014
333 21050 555 10184 91025=
68461 32980 10000 10023 20017 38372 48566 52019 80002
333 21022 91000 555 10166 91026=
68512 32982 50112 10105 21029 39060 48544 52009 80006
333 20082 91013 555 10167 91021=
68588 31958 23204 10154 20102 30193 40210 51026 70400 80002
333 20118 555 10261 91021=
68618 31980 60704 10036 20027 39104 48540 52009 70244 80008
333 20027 91005 555 10157 91023=
68668 32980 20000 10069 20047 39374 48553 52015 80005
333 20034 555 10241 91024=
68714 11450 83606 10131 20130 30168 40206 52008 60044 74044 885//
333 20128 91009 555 10150 20038 91020=
68816 11430 80415 10139 20132 30153 40204 52014 60084 76166 887//
333 20138 555 10171 20082 91020=
68828 11570 73505 10122 20109 39983 40215 52015 60124 70162 86501
333 20120 555 10162 20122 91021=
68842 11460 62709 10134 20115 30138 40213 52020 69944 70166 85570
333 20130 555 10189 20004 91021=
68858 31582 52806 10162 20110 30070 40218 52022 71522 83550
333 20136 555 10230 91022=
58001 84895 87299=
58004 81895 87299=
64500 12465 81808 10255 20240 30087 40101 60204 889//
333 02200 20254 51310 55071 59001 84610 88630 81920 94942 95832=
64501 32460 81806 10255 20233 30104 40114 888//
333 02400 20254 50174 55073 58007 83810 88626 94902 95832=
64503 11250 8//// 10230 20230 30078 40119 60024 76062 889//
333 02151 20230 50094 58005 84703 81923 88630 94944 95834=
64550 32460 8//// 10240 20225 39017 40118 885//
333 02000 20240 50044 55/// 58014 84606 88613=
64551 31350 8//// 10238 20232 30082 40111 71022 885// 908//
333 0//00 20232 50094 55/// 58029 84608 88613=
64552 32458 8//// 10230 20223 39434 40084 885// 910//
333 0//00 20210 5//// 55/// 88612 88610=
64556 31/01 9//// 10222 20219 39524 40089 74744
333 0//00 20200 50164 55/// 59005 89///=
64565 12460 6//// 10216 20201 39458 40088 69924 83530 910//
333 0//00 20208 50154 55/// 59007 83610 86360=
61997 16/// /3120 10061 20034 39782 49957 69944
333 20067 55005 58117=
68994 11597 62917 10027 21034 39881 49908 52011 60074 78722 85720
222// 00112 20000 30000 40000
333 20019 69925 91030
555 10065 20067 90990=
88963 32965 02506 10000 21098 30132 40162 57004 333 92407 95000=
88968 32965 01416 11078 21113 30024 40040 57023 333 92437 92851
D/INV=
89053 32962 00000 11025 21061 30178 40192 57008 333 92407 92840
95090=
89055 32860 42025 11044 21076 39915 40166 57008 84070 333 56050
84358 92843 95190=
89066 32970 20000 11095 21120 30224 40232 57024 80005 333 56009
82270 92417 92840 95000=
65545 12360 72202 10230 20223 39688 40104 60034 87500
333 20220 58009 84706 85613=
65560 31458 8//// 10220 20220 39792 40101 885//
333 20205 58005 88613=
65563 31303 82206 10226 20223 39861 40099 74641 886//
333 20202 58009 88706=
65585 11460 7//// 10252 20242 60054 79596 87900
333 20250 5//// 87913 95332=
65594 32458 80000 10260 20253 3//// 4//// 8527/
333 20245 85813 88360=
93004 36/// /0118 10152 20122 40045 57021=
93023 36/// /3606 10166 20133 40054 57021=
93196 16/// /3106 10146 20136 40078 57018 60281=
93334 36/// /0207 10082 20049 39109 57014=
93404 36998 /9901 10100 20073 40037 57018=
93498 36/// /3408 10135 20096 40033 57019=
93527 36/// /3316 10150 20131 40009 57025=
93597 36/// /3418 10131 20100 49995 57030=
93615 16/// /0714 10109 20102 49964 57021 60141=
93678 36998 /0605 10136 20044 49954 57026=
93709 16/// /0905 10101 20092 49928 57020 60171=
93831 16697 /3507 10064 20040 49918 57023 60041=
93896 31998 73607 10106 20077 49913 58021 70522 8709/
333 87358=
93947 36/// /0913 10045 20032 49949 57004=
93994 36/// /0508 10188 20129 40163 52011=
64600 32965 30000 10214 20207 39459 40103 81032
333 02000 20200 58007 81365 83080=
64601 12970 21602 10210 20179 39001 48511 69994 80002
333 01859 20192 59001 82080=
64610 32970 20000 10220 20208 39581 40094 82030
333 02000 20205 59004 82365=
64650 12370 71802 10226 20220 39692 40104 60194 8263/
333 02169 20215 55090 58004 82708 87365=
64655 11/08 9//// 10202 20202 39465 40110 60064 74342
333 02019 20170 58012 89/00=
64656 32260 6//// 10224 20215 39548 40100 84632
333 02000 20205 59003 84705 85365=
64659 11970 70806 10210 20195 39371 40085 60134 70362 83032
333 01925 20187 59020 83365 87080=
64660 11/03 90000 10202 20202 39573 40101 60024 74344
333 02059 20195 58001 89/00=
64661 12370 6//// 10226 20208 39439 40098 60084 82630
333 01959 20165 58006 82706 86365=
63820 12580 32110 10245 20219 40159 69904 83230
333 20196 59001 83821=
63624 31582 72314 10270 20193 40157 70222 872//
333 20243 59005 87828=
63671 32582 41808 10260 20166 81550
333 20230 81622 84359=
63799 31580 60000 10266 20223 40151 70300 862//
333 20238 58002 86822=
63726 11901 90000 10130 20130 38154 48511 60024 74544 89///
333 20109 55011 59001 89///
555 10130=
63602 32570 71404 10222 20162 38631 8155/
333 20173 58000 81620 87362
555 10182=
63658 32480 70905 10217 20185 48513 81006
333 20187 55048 59006 81518 87250
555 10109=
63682 12584 71607 10236 20/// 38831 48/// 60014 82933
333 20188 59009 81820 81925 87363
555 10208=
63756 31582 31709 10213 20142 38883 48517 69904 81131 90550
333 0//19 20171 55315 59004 81820 83076=
63729 11480 73005 10198 20174 3//// 48/// 60054 71792 8397/ 90550
333 0//59 20165 50201 55000 55300 83618 81921 87361=
63733 32582 60906 10216 20163 38881 48520 81930 90550
333 20165 50461 55055 55300 58001 81920 86360=
62306 32560 43108 10231 20174 40135 51006
74500 333 20210=
62318 32960 03408 10258 20180 40115 53012
333 20232=
62337 32960 03402 10256 20185 40104 51015
333 20188=
62366 32960 00410 10254 20159 40114 53010
333 20217=
62393 32960 03408 10250 20155 40100 52010
333 20221=
62405 31958 02805 10308 20153 40072 52006
70500 333 20250=
62414 32960 03612 10314 20072 40077 51016
333 20276=
62417 32960 00102 10224 20172 40153 53008
333 20197=
62440 32960 00307 10254 20183 40116 52008
333 20198=
62463 32960 03417 10320 20129 40060 51010
333 20279=
62465 32960 00206 10313 20202 40060 51012
333 20287=
24125 42999 21101 10113 21025 40081 57007 80001=
24143 42599 82303 10067 20056 40052 52007 882//=
24266 41699 70203 10130 20102 40008 57009 72582 83930=
24329 42699 62703 10183 21012 40066 57009 83101=
24343 42599 83005 10108 20030 40067 52004 885//   333 88627=
24382 42698 72403 10123 20011 40079 58017 85931=
24639 42999 62603 10191 20038 40097 58012 80001=
24652 42699 83107 10130 20053 40057 52006 82107   333 91011 91113=
24656 42599 62805 10150 20085 40041 57001 82931=
24688 41599 81201 10108 20070 40051 54000 70298 85931=
24724 42999 82706 10191 21139 40081 58013 80004   333 91110=
24738 42999 32902 10194 21002 40099 58013 80001=
24768 42599 72703 10207 20045 40027 58007 85402=
24923 42999 12303 10214 20038 40104 57015 80001=
24944 42999 23604 10185 21012 40081 54000 80002   333 91111=
24951 41599 72504 10115 20102 40066 51002 70262 82570=
24959 41599 80102 10164 20077 40039 53008 70298 85931   333 91112=
24962 42599 82504 10199 20046 40033 58005 85331   333 91114=
24966 42699 82902 10200 20017 40038 57005 84931=
25400 42799 23404 10094 20004 40137 57003 82200=
30054 42598 21203 10194 20013 40115 57022 81101=
30393 41557 82203 10077 20034 40070 57001 78182 86901   333 86921=
30493 41699 80000 10074 20074 40079 52001 72052 86502=
15502 31998 00000 10166 20116 40160 53010 70200 333 20100 50202 55075
555 31006=
15525 31998 00000 10166 20100 40165 53002 70111 333 20107 50522 555
30007=
15549 31598 70901 10149 20098 40172 53006 70122 87600 333 20136 555
30014=
15552 11599 60502 10170 20107 40152 53020 69962 70322 83540 222//
00180 2//00 333 20146 50362 55076 555 31013 92014 92418=
15614 31698 30701 10136 20080 39476 40157 54000 70300 81191 333 20073
50312 55097 555 30000 95000=
15615 31/91 92906 11001 21005 37149 47095 53008 74140 333 21011 42999
55009 555 95199=
15625 31960 22703 10168 20007 40159 52010 70300 82030 333 20130 555
95400=
15627 31998 22706 10042 21044 37635 47089 53004 70200 82031 333 20025
55000 444 38186 555 31/// 95155=
15640 31998 20000 10173 20119 40158 52010 70200 82030 333 20155 55055
555 95000=
15655 31998 23404 10190 20110 40164 52010 70211 80001 222// 00188
20000 333 20165 555 30/// 92014 92418=
15712 31698 13602 10178 20098 40167 53011 70200 81100 333 20132 50772
55112 555 31010 95000=
15730 31597 70000 10151 20139 40169 52014 71011 86401 333 20111 50362
55036 555 31012 95012=
41640 31995 02303 10309 20183 40022 70500
333 58022=
41675 31996 01804 10355 20202 40006 70500
333 58017=
41712 31996 00000 10385 20125 48468 70500
333 58013=
41715 31996 01304 10362 20232 49990 70500
333 59006=
41756 32697 21805 10315 20236 40043 82200
333 56900 58001 82834=
41764 31995 02324 10350 20220 40019 70700
333 59010=
41768 32596 32318 10350 20237 40027 83600
333 56500 59008 83072=
41780 32697 52312 10330 20238 4045 85500
333 56900 59005 85630 =
24988 41699 71301 10214 20056 40042 53004 72992 83201=
25325 42599 30203 10100 21067 40119 57006 83200=
25378 12998 31704 10026 21060 40186 53002 69902 83080   333 10037=
31174 42999 82101 10105 20015 40136 58009 80007=
31263 42599 81603 10175 20117 39634 40084 57009 8696/=
31489 42699 62903 10179 20056 40114 57005 86200=
31959 42999 60905 10136 20048 40088 58004 80004=
32076 42598 80202 10032 20027 40154 51011 865//=
32509 42699 82004 10068 20045 49969 57008 885//=
32594 41397 82904 10037 20024 40028 52027 70382 886//   333 91110=
41571 31696 131100  EEE 13110 10339 20127 40005 705// 81400
333 56900 58012=
41594 32997 03105 10320 20191 40015
333 58027=
41710 32997 20000 10378 20163 49973 82030
333 56090 58005 82360=
41718 32997 02308 10345 20231 49997
333 59002=
41739 31996 02303 10300 20214 48450 70500
333 59001=
41744 32997 02308 10340 20148 48432
333 59004=
41749 31996 01814 10380 20240 49992 70500
333 59016=
50742 32965 60905 10258 20017 40047 57014 80002 333 20122=
50853 32570 50904 10255 20105 40047 57012 81102 333 20132=
54041 11770 81402 10203 20138 40035 57006 69901 70060 8352/
333 20159=
54063 32870 62205 10250 20122 40011 57005 84102 333 20152=
54326 32775 71403 10268 20128 49992 57021 87202 333 20158=
56251 32680 31102 10241 20050 36923 57043 83100 333 05402
20030=
56459 32780 71602 10215 20100 37628 57024 84240 333 00052
20116=
56548 32680 63403 10248 20126 37676 57021 86202 333 00003
20132=
56664 32580 30902 10306 20149 40015 57033 82202 333 00151
20199=
56793 32580 61801 10265 20177 38432 57022 86240 333 00003
20174=
56856 11680 51801 10298 20177 40024 57027 69901 70080 85900
333 05101 20193=
57405 32970 01402 10290 20197 40045 57029 333 20182=
57606 31566 12702 10272 20178 40055 57023 70040 81100 333
20135=
57803 32565 20000 10263 20179 40049 57018 81102 333 20138=
57806 32570 71803 10246 20177 40055 57012 878// 333 20170=
57825 31974 62202 10279 20194 40055 57026 70040 81042 333
20172=
57906 11462 82201 10254 20219 40066 57013 60021 76060 885//
333 20193=
38954 42999 63304 10181 20105 48370 58017 69910 83903 333
20123=
38933 32698 13601 10314 20139 40032 58009 81100 333 20164=
38713 12699 70201 10229 20094 48480 58001 60030 86930 333
20150=
40848 32960 00000 10292 20016 38484 40006 51010 90550 333
30013 51127 70000=
40856 32960 03604 10340 20106 38587 49987 51002 90550 333P30017
51411 70000=
40875 31550 41505 10332 20260 30029 40041 51015 70510 84400
90550 333 30026 50621 70000=
44256 32999 30205 10224 20092 39256 40045 58001 82082=
44275 32998 10000 10182 21009 37713 49986 57008 80003=
44313 32699 60903 10238 20048 39262 40018 58004 82182=
65528 32958 7//// 10215 20207 39621 40086 87030
333 20202 58007 87360=
65536 11460 7//// 10221 20201 39685 40108 60184 70396 87900
333 29187 58026 87813 81920 95331=
65548 12960 40000 10214 20208 39723 40112 69954 80002
333 20209 58001 84080=
65557 12258 80000 10233 20218 39870 40109 60164 885//
333 20220 58003 84706 88610=
65562 32458 7//// 10240 20237 3//// 4//// 87500
333 20216 5//// 87613=
65578 11460 61905 10270 20256 30087 40096 60064 79596 86900
333 20270 58005 81916 86620 95372=
65592 11456 7//// 10265 20247 30079 40102 60104 71791 87900
333 20236 58004 87613 81923 95334=
65599 11460 8//// 10252 20242 30023 40097 60024 71796 8596/
333 20250 58008 85913 88360 95331=
50349 11670 73407 10173 20070 40086 52014 69901 78080 879//
333 20008=
50514 32580 52704 10260 21027 40041 57009 85100 333// 20060=
50656 32975 61103 10233 20051 40061 57013 80002 333 20088=
50758 32570 21105 10256 20052 40049 57014 81102 333 20121=
50775 32568 10906 10202 20057 40088 57016 81100 333 20100=
50862 32670 30901 10250 20088 40051 57010 83100 333 20117=
50877 32980 80404 10246 20067 40059 57016 80007 333 20125=
54195 32575 71605 10214 20057 40052 54000 81102 333 20099=
54213 32680 70403 10213 20085 40018 57004 875// 333// 20122=
54285 32570 73203 10232 20081 40030 57019 872// 333 20095=
28766 11997 83602 10135 20095 40076 52007 69950 70182 8807/   333
20091=
28867 32598 63606 10128 20058 40080 54000 86500   333 20088=
28966 11598 83406 10120 20090 40072 52005 69900 70262 885//   333
20088 88695=
29802 32597 82701 10159 20109 49993 52006 887//   333 20122=
34691 32698 00903 10247 20070 40147 5/002   333 20126=
35067 31597 8//// 10110 20097 40083 52012 76162 885//=
35217 32998 53603 10223 20085 40144 52003 80001   333 20110=
35302 32998 13602 10214 20118 40152 52007 80001   333 20119=
35376 12598 60202 10165 20109 40033 52008 60060 85360   333 20120=
35406 32997 00000 10246 20115 40170 54000   333 20138=
35426 32999 63202 10181 20098 40111 54000 80005   333 20098=
35497 11598 72504 10155 20089 40007 52006 69980 70282 87900   333
20091=
35532 32998 83207 10197 20103 40096 52001 80007   333 20132=
35700 32998 00901 10243 20077 40131 52006   333 20135=
35849 32698 20701 10228 20110 40094 52002 82100   333 20127=
35925 32698 30703 10256 20082 40111 54000 83200   333 20140=
35953 32999 53606 10213 20100 40090 52007 85030   333 20110=
35969 32599 629// 10218 20100 40078 53003 86200   333 20080=
36152 32598 63404 10200 20111 49980 57028 85362   333 20114=
36397 31699 72012 10267 20062 49980 58020 71795 87300   333 20152
91116=
36535 32599 81404 10242 20110 40001 58010 85931   333 20125=
36639 11599 72503 10239 20111 40030 54000 69940 70282 86530   333
20144=
36821 32598 62503 10245 20125 40048 52004 83932 333 20190=
36864 32599 32006 10256 20032 40033 58002 83900   333 20162=
38001 32998 60708 10265 20201 40116 54000 80002   333 20208=
38062 32799 32004 10222 20023 83100   333 20118=
38069 32598 22709 10241 20076 82100   333 20095=
38196 32998 02002 10207 20027 40063 53004   333 20110=
38222 12698 20000 10212 20104 40073 53018 69960 82900   333 20159=
38232 32998 70903 10286 20011 40105 58003 84082   333 20117=
38328 32999 23003 10228 20098 40066 52007 82030   333 20148=
38334 32597 42805 10222 20136 40060 52006 85900   333 20139=
38343 32998 52701 10225 20084 40042 58006 86200   333 20126=
38439 32598 23401 10243 20109 40083 52007 82201   333 20169=
41506 31796 71809 10272 20116 48436 74044 85820
333 58015=
41508 32697 31803 10264 20139 48478 83200
333 58000=
41523 32697 20502 10310 20175 48479 81401
333 58000=
41536 32697 51803 10267 20117 48475 85400
333 56900 58008 85840=
41573 32697 21305 10239 20088 48440
82400   333 58001=
41678 31996 0000 10375 20191 40018 70600
333 59013=
4169732996 01302 10383 20246 49975
333 59006=
41700 32997 02309 10345 20208 49998
333 58008=
41725 32997 01307 10365 20221 49990
333 59018=
41759 31996 32302 10325 20242 40046 70500 83500
333 56900 58002 83630=
41785 32597 52314 10345 20247 40033 85600
333 56500 59009 85730=
59321 32580 22005 10297 20255 40084 57014 81102 333 20252=
38462 42699 70000 10145 20095 38723 48458 53009 70288 85950   333
20078=
38178 42998 02904 10251 20030 40078 52003   333 20147=
16622 32670 53003 10214 20139 30146 40151 52013 81139 333 20170
30/// 50880 55123 81835 84168 90730 91107 555 10000 30214
20000 89026 99072 30000 10254 20254 30260 40268 50252 40000
47645 44260 50000 50170=
16641 32970 00000 10210 20181 30133 40138 52007 333 20184 30/// 55135
90730 91105 555 10000 30256 20000 89043 99092 40000 47633 44235 50000
50192=
16682 31440 10000 10210 20188 30128 40146 55004 7100/ 81600
333 20172 30/// 50850 55127 90730 91104 555 10000 30236 20000 89059
99096 30000 10228 20230 30238 40252 50242 60222 40000 47633 44250
50000 50196 70000 77Y// 7/Y//=
16716 32960 00000 10234 20166 30117 40134 53007 333 20190 30/// 55128
90730 91106 555 10000 30240 20000 89053 99084 40000 47625 44260 50000
50192 70000 77/// 7/I//=
16734 32565 12910 10212 20193 30074 40136 53005 81200 333 20194 30///
55112 90730 91112 555 10000 30214 20000 89080 99096 40000 47590 44230
50000 50200=
16749 32960 02508 10238 20198 30096 40109 52009 333 20216 30/// 55122
90730 91110 555 10000 30238 20000 89076 99091 40000 47609 44255 50000
50212=
16754 32965 01004 10228 20174 30083 40128 52005 333 20168 30/// 50780
55130 90730 91108 555 10000 30228 20000 89054 99085 40000 47600 44250
50000 50194=
42071 32996 21803 10356 20165 40011 80001 333 58009=
42131 32996 02302 10384 20200 40017 333 58010=
42165 31996 02318 10370 20193 40006 70740 333 59007 =
42182 31695 52008 10344 20200 40018 70521 82530 333 58006 82640
84360=
42189 21696 61403 10294 20227 40034 70596 83521 333 58011 6990/ 82635
83460 86070=
42260 31996 11110 10330 20209 40033 71032  81030 333 58021=
42339 31696 52309 10356 20205 40035 70720 85400 333 56600 58002
83635 83840=
42369 21596 70909 10278 20209 40034 75022 84330 333 58013 6990/
84625 81930 86360 =
42379 21596 73203 10278 20231 40053 70362 86520 333 56699 58017 6001/
86625 87458=
16643 32560 20704 10228 20194 30141 40145 53001 82200 333
20192 30/// 90730 91106 555 10000 30228 20000 89068 99096
40000 47641 44250 50000 50206=
16648 32960 00704 10236 20133 30045 40130 53003 333 20170 30///
50930 55131 90730 91108 555 10000 30258 20000 89028 99070
30000 10220 20222 30230 40232 50224 60244 40000 47570 44255
50000 50176=
16650 32970 20310 10220 20168 30141 40145 53010 82030
333 20168 30/// 55110 90716 555 10000 30220 20000 89053
99092 30000 20232 30234 40250 50248 60222 40000 47641 44255
50000 50188=
16684 32960 10000 10220 20160 30101 40126
52011 81030 333 20182 30/// 55102 90730
91104 555 10000 30228 20000 89048 99085
40000 47612 44255 50000 50184=
16732 32965 03404 10226 20185 30119 40131 53008 222// 00192 333 20186
30/// 55133 90730 91107 555 10000 30230 20000 89053 99073 40000 47623
44230 50000 50200=
16614 32970 00000 10160 20114 39400 40164 53009 333 20108 30/// 55127
90730 91107=
16627 32960 0//// 10214 20105 30150 40154 51003 333 20140 30/// 55069
90730 911// 555 10000 30230 20000 89055 99087 30000 10198 20200 30202
4//// 50222 60198 40000 47646 44245 50000 50154=
16667 32962 00303 10228 20187 30133 40138 52013 333 20194 30/// 55136
90730 91107 555 10000 30244 20000 89044 99089 30000 1//// 20240 30248
4//// 5//// 6//// 40000 47635 44250 50000 50202=
16675 32565 10000 10218 20159 30120 40141 51011 333 20176 30///
55108 90730 91105 555 10000 30254 20000 89033 99071 30000 10228
20234 30244 40248 50232 60202 40000 47626 44240 50000 50182=
16710 32964 00000 10090 20010 39379 40149 51001 333 20052 31/// 50200
55112 90730 91103 555 10000 30180 20000 89046 99058 30000 10194 20244
30196 40206 50208 60196 40000 47062 44200 50000 50056=
16723 32965 03612 10250 20131 30118 40126 53012 333 20180 30/// 55131
90730 91120=
16738 32960 00606 10254 20132 39941 40128 51007 333 20180 30///=
16746 32960 01106 10224 20176 39954 40130 52010 333 20180 30/// 55120
90730 91108 555 10000 30236 20000 89040 99084 40000 47504 44260 50000 5
0194=
53942 32560 12003 10328 20031 49982 57018 81100 333 20170=
52424 32980 80904 10278 20010 49985 57024 81047 333 00153
20161=
48001 32560 40000 10244 20223 40030 83950 333 56660 59010=
48008 32560 51801 10300 20239 40064 82130 333 56550 59002=
48042 32558 21801 10340 20257 40040 82800 333 56900 59001=
48060 31556 40000 10252 20220 40021 71722 83930 333 56560 59005=
48062 /2563 42303 10310 20270 40045 82330 333 56490 59018=
48078 32558 41801 10317 20256 40049 83331 333 56449 59003=
48080 32562 72201 10325 20265 40045 84870 333 56590 59018=
48108 21495 82301 10265 20256 40072 79599 8492/ 333 56549 58001=
48010 32556 71801 10295 20253 40056 83772 333 56566 58007=
48019 32562 43201 10328 20248 40040 82715 333 56770 59017=
48025 32562 53601 10320 20236 40045 83831 333 56466 59003=
48045 32561 20000 10283 20233 83200 333 56900=
48053 32556 41802 10330 20244 40036 83801 333 564/9 59008=
48071 32566 83602 10315 20265 40046 83836 333 567099 59023=
48077 32460 62301 10310 20267 40063 84930 333 56490 59005=
48109 32597 53201 10306 20239 40065 83951 333 56599 59001=
48300 32565 20000 10340 20247 39733 40027 82533
333 59010 70017=
48327 32565 50000 10323 20244 39684 40028 84905
333 59011=
48331 32565 40000 10335 20251 39812 40035 82903
333 59012=
48353 32565 50000 10316 20251 39765 40045 84303
333 59004 70005=
48356 32562 60000 10319 20256 39854 40045 82146
333 59004 70020=
48375 32562 60102 10324 20253 39810 40030 84946
333 59008=
48378 32560 62201 10336 20247 39991 40042 83846
333 59004=
48381 32562 82401 10315 20247 39833 40050 82176
333 58008=
48407 32560 72803 10307 20244 39909 40048 85446
333 59001 70049=
48431 32562 70102 10325 20253 39838 40045 85806
333 58000 70069=
48456 32560 62605 10343 20246 30027 40044 84876
333 59017 79999=
61024 32960 30810 10298 20071 39519 40058 80002
333 02100 20290 52921 55103 59001 83080=
61036 32965 6//// 10305 20194 39833 40061 81048 90545
333 03000 20301 51311 51024 55109 59008 81364 86280=
61043 32970 52004 10290 20165 39640 40062 80001 90545
333 02800 20296 51931 51344 55108 58004 85080=
61045 32962 7//// 10304 20181 39587 40061 80008 90548
333 02100 20279 51791 51104 55115 58006 87280=
61049 32960 7//// 10251 20152 39762 40078 80008 90545
333 02000 20240 51321 50804 55115 59005 87280=
61052 32960 62208 10290 20175 39829 40072 85072
333 02800 20288 51421 55112 58006 85364 83080=
61075 32965 62004 10280 20187 39772 40069 80008 90547
333 02700 20217 50951 50854 55100 58002 86280=
61080 32965 72604 10285 20186 39646 40049 80008
333 02600 20282 51281 55111 59004 87280=
61090 32960 50000 10286 20162 39577 40066 80002
333 20280 51411 51514 55113 58003 85080=
61096 12970 72202 10274 20220 39698 40066 69904 80008 90545
333 02419 20257 50981 50754 55093 59008 87280=
61099 12965 7//// 10246 20207 39/// 4//// 60034 87072 90545
333 02416 20232 50914 55100 87464=
23074 42498 80307 10016 21012 40138 52004 8657/ 333 86614
91113=
23274 42498 70106 10035 20000 40104 57005 875//   333 87618=
23472 42998 73206 10097 21007 40053 57010 80001=
23891 42598 81601 10172 20074 49999 57014 87907=
24507 42998 81602 10197 20004 40017 57025 8807/=
24908 42579 71505 10187 21019 40067 57014 85930   333 91113=
29263 41599 61704 10202 20120 49984 57011 70282 86930=
29282 41595 80505 10156 20127 40028 54000 78122 889//=
29570 41599 62405 10223 20103 40003 57012 70282 83201=
29698 42998 81203 10238 20106 40027 57021 80002=
29862 42598 61201 10228 21127 40019 58012 82932=
23987 42499 71204 10137 20117 49969 57006 87900=
29253 42599 71402 10183 20048 49959 57012 83931=
29471 41699 61404 10206 20121 40008 58013 70281 85201=
29481 41599 21803 10183 21147 40022 58013 70281 82300=
29553 42978 62305 10218 20112 49987 57007 86200=
29562 41598 32103 10206 20084 40001 5//// 70281 83300=
29581 41698 79901 10204 20128 40031 58016 70282 83430=
29594 42999 80903 10224 20118 40026 58016 80001=
29653 42598 32703 10224 20085 49995 58008 83200=
29675 42598 32001 10230 20093 40000 57011 83200=
29676 41699 61202 10210 20112 40023 58006 70282 82201=
29759 42599 62702 10205 20064 49993 58006 84904=
29766 42999 11602 10229 20122 40024 57010 80002=
29869 42699 70902 10240 20107 40034 58004 82940=
29956 42699 50302 10235 20114 40002 57020 83202   333 95000=
30504 42598 71905 10217 20089 40043 57016 81132=
30603 42998 50705 10198 20109 40071 57010 80002=
30612 41599 60906 10134 20090 40103 57008 70282 83230=
30622 42698 61704 10165 20029 40100 53003 83930=
30703 42598 20902 10203 20131 40058 57014 81301=
30499 41584 73302 10145 20027 40062 58009 70282 87900=
31253 41598 83401 10103 20085 40088 56001 76161 8271/=
31348 42999 81601 10201 20011 40103 57025 80007=
31418 42999 80501 10190 20045 40103 57021 80002=
31439 42599 41503 10130 20048 40137 58005 82101=
31474 42599 33201 10203 20033 40074 57017 81101=
31534 42699 50000 10201 20067 40083 57012 85100=
31632 42698 82602 10197 20046 40087 57011 85201=
31702 42599 39902 10208 20043 40074 58015 83200=
31725 42499 60000 10200 20062 40099 57006 83502=
31801 42598 53203 10204 20036 40076 57011 82202=
30455 42699 22904 10152 21025 38885 48476 58009 82100=
30549 42999 52502 10157 20003 38670 48473 58008 85150=
30726 42699 80504 10060 20029 40130 57005 8685/=
30731 42599 83103 10096 20030 40116 57001 81952=
30739 42699 71802 10193 21005 40087 58007 85502=
30745 42999 83306 10145 20029 40108 58008 80002=
30764 42699 20204 10188 20013 40065 58008 82100=
30811 42799 21001 10230 20098 40042 57023 82200=
30822 41999 70000 10099 20034 40116 58009 70282 84032=
30824 42699 50705 10095 20038 40118 58010 83533=
30829 42999 30504 10243 20045 40047 58017 82081=
30846 42999 13503 10206 21064 40072 58002 80001=
30859 42999 13404 10221 21014 40054 57002 80001=
30862 42799 13404 10206 21012 40062 58002 81100=
30957 42999 20405 10222 21012 40048 58006 80002=
31825 42699 81803 10173 20056 40098 55000 83201=
31845 42999 01001 10235 20067 40050 57015=
31878 42699 21802 10258 20078 40044 58011 81281=
31915 42998 00904 10238 20106 40037 58008=
31917 42999 80703 10237 20081 40053 57005 83032=
31921 42999 20108 10200 20145 40056 58012 80009=
31969 42698 50706 10153 20051 40069 52001 84203   333 91012 91113=
31981 42599 80402 10260 20110 40013 57011 81341=
31987 42599 81905 10230 20021 40043 58001 82205=
32069 41499 72702 10054 20037 40141 51005 70282 82630=
42314 32596 72105 10290 20244 40042 83330 333 59022 82620
81925 87360=
42410 32596 40505 10304 20251 40033 82430 333 59020 81620
83360=
42492 21496 72704 10278 20246 40047 70596 84530 333 58008 6990/ 84618
86360=
42591 21496 70000 10264 20219 40053 70262 85330 333 58025 6990/ 84616
81930 86360=
42724 32596 51803 10322 20258 40040 85400 333 59007 83620
82825=
42798 31596 40503 10364 20229 40016 70521 82101 333 58003 82825 83075
=
42809 31595 31803 10350 20258 40026 70521 83400 333 59004 81620=
42886 32596 53202 10378 20211 40019 81530 333 59010 81620 81360 =
42895 32596 51803 10344 20279 40019 85200 333 59003 84620 =
42971 32596 22005 10380 20248 40022 82100 333 59019 82825 =
43333 31496 72509 10272 20240 40061 70162 83471 333 56599 59021
82618 83820 86360=
29756 42699 82404 10230 20070 40011 57011 85201=
29864 42599 71303 10218 20121 40006 57010 86942   333 95001=
29962 42599 50403 10236 20132 40006 58021 82304=
24856 41599 83204 10175 20078 40044 52003 70282 83339=
30686 42698 62402 10215 20052 40075 52006 85902=
30777 42699 53304 10212 21025 40056 58004 82101=
30961 42699 23205 10206 21036 40057 58001 81201=
30978 42699 62002 10250 20071 40015 58010 86300   333 86927=
31624 42599 50000 10208 20068 40091 57015 82101=
31832 42999 62704 10227 20086 40072 57011 80002=
24982 42599 32808 10202 20002 40023 56005 82201=
31913 42999 00902 10215 20127 40056 58011=
32121 42698 83405 10081 20045 40138 54000 82232=
32128 42599 73302 10099 20058 40129 51004 83531=
31442 42599 21503 10216 20041 40054 57022 82100 333 91110=
31587 42999 11403 10217 20058 40077 57013 80001=
23678 41960 83202 10097 20082 49998 57017 76162 8802/=
23884 41565 81001 10114 20110 49969 57008 76162 8352/=
23973 41597 81703 10106 20104 49975 57003 72082 889//=
98135 31475 21605 10315 20273 40084 58014 70544 82200 222//
20401
333 56399 82819=
98232 31475 30403 10348 20249 40073 57020 70544 83200 222//
299//
333 56299 83819=
98336 32581 21802 10324 20286 40082 57013 82200
333 56499 82820=
98431 31470 41001 10318 20260 40082 58017 70594 82230
333 56999 82818 84360=
98646 32560 50401 10318 20238 40095 57014 82201
333 56999 82820 84080=
98653 31470 51203 10328 20266 40072 57021 70564 82201
333 56999 82818=
98747 31470 63604 10310 20247 40056 57021 70544 82902
333 56999 81917 86075=
98753 31468 70703 10331 20240 40052 57028 71744 85931
333 56999 84915 85079=
43003 32596 62306 10314 20258 40074 86800 333 59016 82620 83825=
43063 32597 52908 10300 20207 39460 40067 85800 333 59009
82628 83830=
43110 31498 62304 10300 20246 40089 70162 85730 333 59009 81710
83620 85822=
43117 32597 72702 10306 20236 40066 82402 333 59006=
43192 21596 52703 10302 20263 40091 72522 83430 333 59011 6001/=
40001 32970 32402 10284 20082 40047 51004 83030 333 20195 30///
83360=
40007 32970 02206 10250 20125 40050 52005 333 20166 30///=
40045 32970 23302 10298 20118 40067 53005 82030 333 20224 30///
82360=
40061 32970 12704 10252 20097 40056 53003 81050 333 20186 30///
81360=
40080 32965 00701 10264 20072 39395 40062 52011 333 20170 30///=
40095 32970 00404 10266 20062 39467 40064 53011 333 20198 30///=
40009 32970 02503 10259 20133 40048 51005 333 20161 30///=
40016 32570 22706 10288 20106 40063 52014 82100 333 20218 30///
82830=
40022 32565 21601 10242 20190 40100 55000 82200 222// 20000 333 20206
30/// 82830=
40030 32970 02802 10270 20108 40064 53010 333 20182 30///=
40039 32970 02806 10268 20094 40057 52007 333 20212 30///=
40066 32970 03201 10254 20121 40089 53013 333 20210 30///=
40072 32970 00000 10295 20092 40075 51011 333 20222 30///=
40083 32570 00101 10214 20037 48460 51003 333 20135 30///=
11101 10101 10110 10110 1111/
/////
2//// 3//// 6//// ///// ///// 8//// 9//// ///// ///// //004
11101 11111 1011/
11111 110//=
43086 31596 33203 10350 20242 39871 40042 70511 81832 333 59017=
43128 22496 63210 10316 20229 39465 40051 70296 83530 333 56690
59013 6990/ 83615 84360=
43150 32597 42703 10326 20282 39951 40024 81131 333 59021 81825=
43185 21496 72304 10296 20251 30045 40048 70296 8357/ 333
59005 6991/ 83618 85458=
43189 32597 42303 10382 20220 30018 40027 82802 333 59017=
43201 32497 63208 10302 20182 39365 40063 83831 333
56799 59007 82618 83822 85358=
43213 32597 72705 10325 20207 39754 40062 81438 333 59006=
43245 32597 70504 10304 20250 30051 40073 84570 333 58008=
43279 32597 73604 10342 20205 30045 40062 83571 333 58005 83620
85360=
43295 31497 72705 10264 20192 39079 48498 70255 82732 333
56799 59003 81710 83358 85080=
43314 32597 42906 10312 20262 40091 82201 333 59017=
43321 31496 71604 10316 20219 39639 40073 70522 82431 333
59009 82615 85358 85070=
43329 32597 82703 10340 20242 30048 40061 82499 333 59006=
43353 32496 62909 10310 20254 40100 83931 333 56799 57932 57972
81616 81925 85359=
43369 32597 62703 10324 20269 40103 84430 333 59008 84620 83360=
43371 21496 83203 10280 20263 30025 40097 76062 333 59002
60/3/ 80712 83615 86460=
56178 32780 23201 10283 20085 37606 57054 82102 333 05302
20116=
31295 41599 71701 10180 20128 40061 58003 70282 82331=
44203 32699 10000 10162 20048 38368 40065 57011 81100=
44213 32999 30000 10249 20073 38695 40002 57012 83050=
44215 32998 60000 10219 20055 38325 49967 58018 80001=
44225 32698 23602 10191 20042 38029 40036 57013 82100=
44230 32698 22004 10236 20036 38730 40046 58002 82100=
44237 32699 51805 10206 20084 38434 40013 57008 85200=
44302 32599 60503 10235 20015 39020 40031 54000 84204=
44336 32699 20202 10232 20006 38624 40018 58023 82200=
23711 32998 69901 10189 20051 40173 58006 80001 333 20047=
23804 32999 41601 10236 20115 40155 58005 80001 333 20104=
29313 41398 83204 10115 20105 39972 51018 70282 889// 333
85709=
29612 41598 72803 10150 20115 49981 52008 70242 87300=
30758 42699 23605 10192 21030 40084 58003 81201=
30949 42699 72102 10233 20040 40024 57007 83950=
38388 32998 00000 10306 20040 40108 56001 333 20200=
38413 42998 03204 10263 20029 40095 52005 333 20184=
38457 11597 62501 10256 20127 40068 52003 69902 70288 83440
333 20178=
38507 32998 41805 10308 20041 40081 58001 83031 333 20165=
38545 32998 03504 10270 20132 40097 52011 333 20160=
38656 32998 01102 10322 20032 40089 52002 333 20234=
38687 32997 23405 10299 20094 40073 52005 80001 333 20157=
38880 32999 00902 10308 20038 40089 52004 333 20229=
38895 32997 50501 10314 20161 40078 52004 85070 333 20218=
38927 32997 22301 10334 20202 40046 53001 82030 333 20171=
38974 32998 22502 10338 20151 40058 58004 82080=
20046 11471 61410 11059 21074 40196 57012 69900 73773 86500
333 21062 86618 91114=
20087 41478 20303 11058 21076 40239 54000 70131 82100=
20292 41457 70311 11035 21043 40202 52006 73832 875// 387615 91115=
20667 32497 60702 11036 21065 40264 52002 86500 333   21054 91105=
20674 42472 70410 11023 21052 40213 52006 875// 333 87610
91114=
20744 32998 81017 11009 21041 40135 57013 8805/ 333   21013 91129=
23022 12597 71207 10022 21015 40225 58003 69900 84101 333   21036
91110=
23032 12463 83402 11020 21032 40241 58002 69910 885// 333   21036
88619 91105 80010=
29328 41598 72403 10142 20122 49949 52012 72582 87900   333 84922=
29348 41597 72703 10166 20130 49960 57001 78082 87900   333 84926=
29405 41497 83304 10127 20090 49994 52012 72582 883//
333 88915=
29937 41597 72202 10189 20114 58014 78082 87900=
96011 32560 80000 10310 20211 30053 40075 56001 85532
333 56000 85620=
96109 31462 60000 10300 20236 30026 40065 57025 70242 81147
333 56000 57805 81816 84280 80823=
96145 01466 81406 10281 20241 30066 40071 58021 60441 72196 8482/
333 56409 57/// 60057 83616 88460=
96163 32568 72303 10291 20236 30072 40079 57033 81121
333 56000 57804 81820 85464 80827=
96237 32465 81603 10310 20246 30025 40067 56014 83271
333 56000 57801 83818 80858=
96509 32560 30303 10324 20220 30059 40066 57013 82131
333 56000 82820=
96739 32560 70000 10308 20228 30018 40067 56019 83232
333 56000 57801 83820 80858=
22113 32584 52103 10130 20056 40078 52005 81139 333 20102
41998 91006=
22820 12465 70502 10139 21021 40097 58002 69902 86530 333
20119=
22887 32970 01602 10258 20136 40140 57003 333 55170=
26781 11395 83402 10117 20113 40119 52011 60112 78182 889//
333 20117 87708=
27037 32973 11404 10239 20147 40115 57004 80001 333 20149=
33345 11597 83103 10126 20106 40127 52012 69952 70282 8265/
333 20117=
33393 32997 60000 10118 20090 40157 58005 84031 333 20039=
33658 32997 53403 10116 20090 40173 53006 80001 333 20073=
33791 31597 83504 10185 20143 40096 52012 71792 8595/ 333
20164 85918=
33837 11998 22702 10171 20117 40119 52007 60012 70282 82030
333 20155=
33946 32497 62006 10212 20153 40095 51005 83202 333 20132=
34300 11597 81104 10172 20140 40111 52004 60012 78098 883//
333 20171=
34560 32962 01105 10236 20065 40148 51004 333 20135=
34866 32998 20902 10241 20118 40137 51001 80001 333 20141=
34880 32997 21303 10257 20090 40142 52005 82001 333 20122=
37472 32998 60801 10205 20169 40098 52008 83031 333 20168=
59004=
58968 32565 72709 10324 20257 30060 40067 57012 875//=
58974 32565 62011 10289 20259 39964 40080 57012 86500=
59358 32568 22409 10342 20266 30075 40086 58015 81101=
59559 32570 32708 10329 20255 30056 40083 57016 83500=
59792 32563 31605 10318 20273 30086 40090 57007 82230=
59997 12565 72209 10314 20282 30049 40063 58017 60031 83220=
59158 32565 52407 10341 20258 39984 40079 57016 85200=
59562 32581 11906 10322 20248 30036 40047 57022 81100=
59567 32270 22521 10278 20251 39716 40081 57014 82100=
29634 41457 82205 10142 20129 49977 52007 78082 8635/ 333
84940=
30433 42999 60701 10190 20036 40109 57013 82041=
30469 42699 55402 10186 21022 40072 52002 84201=
30554 42698 63203 10177 20011 40083 58010 85201=
30635 42899 60604 10185 20048 40096 57011 82081=
30692 42599 53202 10180 20058 40041 58003 85900=
30802 42799 41201 10206 20017 38627 48435 57013 84200=
30879 42699 81101 10174 20092 40048 58002 85930=
30925 42699 61604 10250 20085 40022 58013 83130=
36034 41599 80000 10166 20119 40008 58009 72582 8695/ 333
83930=
36061 42699 33501 10252 20143 49993 57020 81201=
36982 42598 72007 11007 21022 36490 47029 54000 86552=
38353 42698 31902 10241 20145 40031 58007 83100 333 20169=
38392 32998 00705 10264 20055 40107 52002 333 20160=
38613 12999 72101 10253 20106 40098 54000 69990 80002 333
20145=
38696 12599 61602 10283 20081 40041 54000 69902 83270 333
20194=
38750 32997 02705 10245 20177 40083 58014 333 20198=
84593 22253 00230 20404 325// 40606 5//// 6//// 80135=
81100 22234 00250 20601 318// 41003 5//// 80160=
10385 32774 20201 10119 20087 30079 40140 53014 81531 333
10145 20071 30005 55044 55310 70007 81650=
10637 11365 70202 10101 20083 30014 40151 53026 60062 72162
878// 333 10110 20092 31009 55011 55300 70075 81808 83642
86656 96260 96463=
16560 32566 33304 10188 20168 30182 40188 56001 81101 90545
333 20178 30017 55124 23022 55300 81820=
17609 32980 00801 10264 20136 30089 40091 53009 333 20202
50741 55036 79999=
12330 11660 80302 10096 20077 30037 40144 53007 60022 76082
8557/ 333 10122 20079 32006 55079 70031=
12375 32870 59901 10120 20067 30017 40146 57003 82532 333
10126 20045 31003 55094 70046=
12843 32975 71402 10119 20063 39970 40138 58002 8707/ 333
20088 55124=
13272 32980 51205 10178 20098 30027 40143 55004 85030 333
20092 30004 55035 85360=