ZCZC 000
SMCI10 BENJ 280000
AAXX 28001
52740 16/// /3103 10039 29075 36882 60000
333 1/134 2//01 /////=
58040 32965 23201 10203 20141 30120 40124 52016 80002 333
00602 79999=
58362 31958 32501 10223 20197 30108 40118 52015 71000 83030
333 00602=
58633 31650 70906 10235 20176 30021 40116 52015 71000 875//
333 00651=
58847 11565 82703 10240 20222 30010 40108 52020 69911 70098
885// 333 00453 70003=
59082 11530 80000 10254 20244 30014 40088 52016 60051 72998
889// 333 00353 70077=
59117 31757 70401 10258 20235 39998 40100 52016 71000 874//
333 00351 70011=
59211 11430 80000 10241 20234 39876 40078 52014 60011 72186
885// 333 00201 70026=
59265 11740 70901 10270 20250 39947 40080 52016 69921 71060
8754/ 333 00300 70056=
59287 32462 61602 10278 20260 30044 40094 52013 83242 333XX
00251 70383 =
59316 11575 72202 10283 20259 30088 40097 52017 69911 70080
82202 333 00251 70001=
59431 11456 81101 10256 20249 39931 40075 52010 69911 71080
888// 333 00300 70055=
59644 32460 71402 10280 20269 30059 40074 52018 879// 333//
00351=
59758 32478 71804 10283 20265 30054 40074 52015 81142 333//
00200=
59023 11357 80000 10233 20227 39838 40080 52015 60041 76066
887// 333 00200 70047=
59293 32563 72003 10275 20251 30044 40091 52014 83140 333
00251 70055=
59417 11565 80000 10254 20245 39928 40076 52015 69991 70080
888// 333 00452 70052=
59501 32570 42202 10284 20265 30088 40104 52015 82242 333
00200 79999=
59663 11465 71404 10284 20266 30056 40083 52015 69911 70080
87202 333 00300 70048=
59838 32980 71801 10296 20239 30060 40074 52019 80002 333//
00251=
59948 32580 71401 10290 20269 30074 40082 52017 86202 333//
00200=
59981 11580 71804 10294 20266 30081 40087 52015 69901 70080
81202 333// 00200 79999=
59985 32580 71803 10293 20272 30076 40081 52015 82102 333//
00251=
59995 32480 62005 10293 20243 30082 40090 52015 82202 333//
00000 66660 29404 42209=
58144 32962 52701 10207 20152 30107 40129 52012 85040 333
00602=
57957 11430 83401 10228 20221 39900 40091 52017 60041 76086
885// 333 00201 70135=
50468 32675 50000 10202 20031 39777 49968 57013 82532 333
05803 30048=
50745 32665 12503 10219 20028 39846 40015 57008 81100 333
05604 30042=
50953 32970 50000 10168 20092 39860 40032 57005 80002 333
05400=
54337 32970 03403 10226 20060 39991 40073 52011 333 05106
79999=
54342 32960 02003 10192 20090 30002 40062 52012 333 00003=
54471 32960 02901 10203 20090 30058 40063 52009 333 00006
70006=
54497 11970 12504 10202 20098 30025 40039 52010 69921 70060
80002 333 00200 70002=
54662 32968 03206 10199 20125 39961 40078 52012 333 00404
70010=
58345 31950 73601 10226 20192 40128 52019 71000 8704/ 333
00403=
58543 32970 01402 10233 20174 40124 52015 333 00651=
58569 31958 70000 10223 20197 40123 52019 71000 8703/ 333
00600 70018=
58646 11660 81402 10231 20195 40123 52020 69901 76000 885//
333 00652 70045=
58660 31658 80000 10221 20201 40126 52017 71000 885// 333
00754 70017=
58834 11462 82901 10251 20234 40107 52015 69921 72160 8657/
333 00400 70025=
58926 11620 80000 10240 20227 40110 52013 69901 76000 885//
333 00351 70037=
59046 11462 80000 10244 20238 40082 52017 60081 72598 889//
333 00201 70119=
59058 11440 80000 10233 20230 40088 52019 60761 79598 889//
333 00300 72204=
59072 11562 82202 10245 20239 40090 52019 60151 78080 889//
333 00301 70282=
59087 11559 70401 10252 20245 40091 52014 69921 71098 879//
333 00352 70127=
59096 32562 70000 10253 20239 40090 52008 874// 333 00252
70029=
59209 11358 80000 10215 20203 40074 52009 69991 78080 889//
333 00101 70010=
59254 11560 80000 10254 20245 40077 52017 69901 71798 889//
333 00202 70326=
59278 31723 70402 10271 20258 40086 52015 72840 8644/ 333
00251 70054=
59456 32573 60000 10280 20252 40081 52018 82402 333 00302
70001=
59493 32564 71801 10287 20256 40091 52014 82142 333 00200
70059=
59632 32566 70901 10276 20258 40070 52014 81142 333 00300=
59647 11570 71401 10280 20265 40074 52017 69901 72500 86942
333// 00300 79999=
59658 32465 71403 10282 20267 40077 52013 8624/ 333 00200=
59673 11476 71604 10285 20261 40089 52016 69901 78000 86202
333 00200 79999=
59845 32970 71402 10276 20246 40074 52020 80002 333// 00251
70020=
59855 32575 71802 10286 20272 40073 52017 81102 333// 00200=
58138 32960 70901 10197 20160 40132 52016 8704/ 333 00600=
58259 32975 70203 10212 20152 40128 52016 8704/ 333
00702=
58343 32662 70405 10209 20139 40130 52022 875// 333 00602=
58358 31935 02902 10229 20198 40121 52015 71000 333 00502=
58464 31930 22702 10231 20194 40123 52019 71000 82040 333
00601=
58549 11560 80702 10229 20182 40122 52018 69901 76000 885//
333 00652 79999=
58665 11630 83201 10218 20204 40121 52020 69901 72160 885//
333 00854 70317=
58667 11530 80202 10207 20201 40130 52018 69911 72160 885//
333 00754 70561=
53513 32975 10000 10158 21019 38971 40120 52007 80002 333//
05303=
53772 31958 70000 10161 20088 39269 40148 52013 70400 80002
333// 00201=
54511 32970 13402 10241 20064 30076 40114 52018 80002 333
00109 79999=
54823 32978 72204 10234 20047 39927 40125 52008 80002 333
00405 79999=
51468 16/// /2100 11033 29054 36561 60001
555 1/124 2//00 /////=
58265 32980 70202 10211 20160 30110 40122 52014 83042 333
00702 79999=
58472 32962 72003 10217 20187 30024 40119 52014 8704/ 333
00601=
58477 31945 01802 10217 20185 30080 40123 52018 71000 333
00600 79999=
58666 31658 80702 10209 20197 30030 40129 52020 71000 885//
333 00852 70303=
58760 11456 83603 10213 20201 40123 52023 69911 76060 885//
333 00753 70173=
58556 31956 00000 10217 20185 40127 52020 71000 333
00700=
58562 32960 02202 10227 20178 40122 52015 333 00600 70001=
58457 31920 00000 10235 20186 30072 40121 52017 71000 333
00652=
58562 32960 02202 10227 20178 40122 52015 333 00600 70001=
58457 31920 00000 10235 20186 30072 40121 52017 71000 333
00652=
58221 31958 80402 10191 20159 30106 40140 52015 71000 8807/
333 00651=
58314 32962 80402 10213 20174 30049 40134 52018 8807/ 333
00501=
58311 32967 70702 10210 20168 40131 52013 8707/ 333 00400=
58215 31958 80403 10198 20151 40133 52014 71000 8807/ 333
00500=
58424 32961 73605 10232 20185 30095 40118 52013 8707/ 333
00401=
58437 32970 30703 10142 20096 38171 52007 83040 333 00403=
58531 32970 01102 10222 20188 40116 52013 333 00500=
58236 32960 80902 10206 20170 40127 52019 8807/ 333 00600=
58436 32968 70000 10205 20178 40133 52020 8704/ 333 00551=
58319 31958 73402 10221 20185 40120 52012 71000 8707/ 333
00401=
58321 32960 73602 10209 20170 40127 52012 8704/ 333 00401=
58015 32965 72902 10194 20139 40132 52018 8704/ 333 00651=
58102 32965 70000 10197 20140 30085 40134 52017 8707/ 333
00651=
58122 32975 71102 10196 20148 40138 52020 8704/ 333 00600=
58203 31958 83402 10189 20161 30092 40136 52011 71000 885//
333 00552=
58338 31956 70000 10220 20197 40124 52015 71000 80002 333
00401=
333 00502=
58725 11658 80000 10229 20220 39862 40113 52016 69901 76060
885// 333 00451 70002=
58238 31940 70000 10220 20189 30117 40126 52018 71000 8704/
333 00502=
58457 31920 00000 10235 20186 30072 40121 52017 71000 333
00652=
59134 32568 70000 10256 20230 39949 40108 52015 87142
333 00251 70008=
58321 32960 73602 10209 20170 40127 52012 8704/ 333 00401=
58562 32960 02202 10227 20178 40122 52015 333 00600 70001=
58251 32970 53401 10211 20147 30124 40130 52019 85040 333
00703 79999=
57251 11462 80000 10163 20153 40164 52025 60131 76166 8572/
333 00656 70135=
57279 11965 83601 10210 20136 40135 52012 69901 70060 8807/
333 00452 79999=
57355 11568 81103 10195 20144 40127 52016 69901 70060 8387/
333 00453 79999=
57378 32964 83404 10212 20150 40128 52012 8807/ 333 00351=
57385 32970 83603 10216 20127 40117 52006 8807/ 333 00351=
57399 32960 83602 10218 20173 40122 52013 8807/ 333 00451=
57447 11958 80000 10185 20177 39595 40120 52006 60021 71060
8802/ 333 00353 70042=
57458 11670 80000 10181 20144 40134 52019 69901 70060 8257/
333 00453 79999=
57461 11465 82903 10220 20159 39971 40126 52017 69901 72160
8177/ 333 00452 79999=
57476 32962 80404 10233 20154 40120 52016 8807/ 333 00351=
57494 32962 70202 10229 20176 30083 40111 52008 8704/ 333
00351=
57545 11759 81402 10212 20155 40109 52014 69901 72160 8757/
333 00351 70003=
57554 11863 80000 10209 20156 40127 52023 69901 70060 885//
333 00452 79999=
57562 11865 83602 10233 20163 40110 52016 69901 76060 885//
333// 00400 79999=
57584 31956 80404 10240 20205 40107 52009 71000 8807/ 333
00351=
57598 31958 00000 10231 20204 40109 52008 71000 333 00202=
57655 32962 80402 10239 20161 40108 52016 8807/ 333 00300=
57662 32860 80203 10237 20175 30069 40109 52016 885// 333
00351 70001=
57669 31730 80901 10222 20210 40111 52020 71000 8657/ 333//
00301=
57682 32960 70402 10245 20217 40099 52006 8704/ 333// 00203=
57745 11856 80701 10212 20204 39784 40097 52011 60081 76060
8802/ 333 00251 70081=
57766 11450 80000 10233 20223 40096 52010 60021 72160 885//
333// 00101 70017=
57774 32960 83602 10243 20219 40091 52009 8807/ 333// 00102
79999=
57776 31/00 90906 10165 20165 40106 52009 74740 333 00200
70008=
57799 11756 80000 10234 20227 30018 40099 52009 69901 76000
885// 333 00300 70008=
57853 11415 80000 10214 20208 40096 52008 60071 76060 8772/
333// 00101 70071=
57866 11440 80901 10232 20229 39892 40091 52013 60081 76066
885// 333// 00101 70077=
57894 11314 80000 10193 20191 40118 52009 60091 76064 887//
333 00351 70268=
57965 11759 82201 10230 20226 40087 52014 60221 76098 885//
333// 00101 70486=
58527 32960 00201 10237 20178 30032 40105 52011 333// 00451 =
58608 31950 50901 10252 20211 40109 52017 71000 85030 333
00401=
58634 32660 70403 10234 20184 40110 52018 875// 333 00551
79999=
59102 11635 80000 10234 20228 40105 52016 69911 72864 885//
333 00151 70057=
333 00351 70003=
50632 32980 02706 10175 21045 39175 40008 57008 333// 05602
31019=
53463 32980 00702 10164 20069 38962 40144 52009 333// 00006
30047=
45007 11368 72102 10291 20251 30084 40093 53018 60052
70182 84232  333  20272 58020 70045 81709 83820 86080 =
50548 32980 10000 10153 20024 49999 57015 81030 333// 05751
30031=
53480 32980 01401 10146 20073 40153 52006 333// 00105 31019
70004=
53673 32980 20202 10163 20082 40136 52009 80002 333// 00103=
53787 32980 82201 10142 20047 40141 52010 80007 333// 00301=
53898 32962 72201 10229 20157 40128 52009 8703/ 333// 00204
79999=
54725 32965 22903 10196 20127 40111 52012 80001 333// 00302
70004=
54751 31940 02505 10166 20149 40106 52019 71000 333// 00503
79999=
54916 32960 81801 10191 20139 40139 52012 80007 333// 00651=
58208 32965 80402 10202 20159 40130 52012 8807/ 333// 00451=
58944 31457 80404 10240 20219 40111 52023 71000 885// 333
00452 70001=
58820 11656 80000 10228 20225 40105 52013 60031 76060 885//
333 00300 70065=
56294 32970 80000 10198 20111 39555 40132 52013 8807/ 333
00352=
56492 11861 80000 10188 20162 39735 40128 52013 69901 70060
885// 333 00354 79999=
56571 11565 80000 10157 20141 38368 52013 69911 70060 885//
333 05151 70079=
56651 32680 63601 10150 20126 37608 52009 86400 333// 00100
70108=
56778 32560 60000 10180 20165 38089 52012 86202 333// 00002
70011=
56951 32680 40000 10184 20169 38470 52007 84400 333// 00151
79999=
57328 11430 80403 10154 20149 39724 40127 52013 60091 76066
885// 333 00357 70165=
57411 11459 83402 10163 20148 39769 40129 52012 69901 76066
8677/ 333 00456 79999=
57516 11458 80000 10179 20157 39820 40122 52018 69911 76060
885// 333 00455 70001=
57816 11650 80404 10161 20148 38770 40114 52014 69911 72160
885// 333// 00252 70002=
57516 11458 80000 10179 20157 39820 40122 52018 69911 76060
885// 333 00455 70001=
50136 32970 22906 10103 21031 39502 40003 52002 80002 333
05653 30007 70007=
50353 32970 33603 10156 20053 39769 49977 57002 83030 333
05701=
50557 32970 22204 10213 20005 39714 49993 57017 80002 333
05702 30042=
50756 32970 02204 10185 20070 39739 40017 57011 333 05600
30033=
50788 32970 73404 10148 20103 39919 40000 57015 80008 333
05952 70004=
50963 32970 02904 10137 20099 39894 40025 57004 333 05453
30031 70010=
50978 11570 73205 10120 20087 39719 40000 54000 60031 72166
878// 333 05951 70060=
54236 32980 12704 10201 20065 39963 40061 52013 80002 333
05103=
58921 31656 81801 10246 20234 39866 40101 52012 71000 885//
333 00301 70152=
58027 32961 70000 10204 20142 30085 40134 52016 8704/ 333
00601=
58150 32962 33203 10204 20152 30119 40127 52019 83040
333 00703 79999=
58659 11640 80000 10207 20201 30094 40128 52019 69991 78080
885// 333 00857 70322=
58241 32572 70401 10200 20147 40140 52020 86540 333
00701=
58730 11462 80000 10230 20218 40108 52012 69901 70060 8267/
333 00451 70019=
58731 11658 81401 10228 20225 40107 52011 69951 76260 885//
333 00451 70017=
58754 11560 80201 10218 20203 40125 52019 69911 72580 885//
333 00754 70316=
58911 11430 80000 10229 20223 40106 52011 69981 76066
885// 333 00301 70452=
58931 31/00 92502 10176 20176 38369 52012 74540 333
00200 70019=
58362 31958 32501 10223 20197 30108 40118 52015 71000 83030
333 00602=
50527 32670 72703 10154 20048 39323 40018 57001 86532 333//
05701=
53564 32970 20000 10154 20093 39177 40146 52006 80002 333//
05105=
53959 11970 82204 10158 20139 39736 40170 52023 69931 76000
8802/ 333// 00454 70003=
54102 32980 02503 10127 20081 39002 40124 54000 333// 00002
30043 70031=
54843 32970 61802 10203 20111 30086 40113 52010 80002 333//
00502=
54909 32966 72001 10189 20143 30072 40133 52014 8703/ 333//
00500=
58647 11662 80402 10228 20201 40114 52019 69901 76000 885//
333 00552 70040=
58737 11312 80000 10240 20234 40105 52013 69921 71060 885//
333 00451 70479=
58846 11457 81603 10220 20214 40123 52024 60091 78080 885//
333 00655 70159=
58918 11359 70000 10238 20231 40106 52010 69901 72160 8754/
333 00352 70062=
59126 32661 80000 10251 20226 40110 52017 884// 333 00353
70212=
59133 32961 71802 10259 20234 40105 52024 8703/ 333
00301=
56193 11975 80000 10148 20127 40137 52007 69901 70060 8807/
333 00052 79999=
56196 32880 80000 10190 20109 40127 52012 885// 333 00355=
56287 32980 82003 10170 20136 40138 52006 8807/ 333 00153
70001=
56385 11/00 90000 10033 20033 37025 52010 69971 76064 333
05100 70036=
56666 32780 60901 10216 20186 40039 52016 84502 333 00101
70012=
56671 32580 70000 10186 20178 38182 52016 874// 333 00002
70048=
56684 11560 80702 10131 20123 37887 52014 69941 70060 885//
333 00000 70006=
56751 32575 20000 10181 20145 37997 52017 82442 333// 00101
79999=
56786 11550 81603 10161 20155 38095 52010 60051 72160 885//
333 00001 70064=
56886 11458 81803 10168 20162 38248 52015 60011 78080 884//
333 00100 70023=
56977 32370 70000 10214 20207 40067 52015 87400 333 00100
70025=
57206 11780 72901 10168 20114 40134 52008 60031 70080 8744/
333 00253 70049=
57348 11773 80203 10178 20126 40122 52008 69951 76060 885//
333 00253 70093=
57426 11440 80402 10162 20159 40123 52019 60061 76066 887//
333 00356 70123=
57602 31758 83201 10196 20158 40124 52013 71000 885// 333
00352=
57259 11570 80000 10160 20141 40155 52007 69901 76060 8177/
333 00455 79999=
57265 11760 83402 10202 20148 30034 40140 52009 69901 72160
8252/ 333 00554 79999=
57574 32960 80402 10236 20198 40105 52013 8807/ 333 00352
79999=
57583 32962 70403 10233 20201 40112 52013 8703/ 333 00351=
57649 11465 80402 10220 20197 40109 52017 69991 72160 8177/
333 00351 70009=
57671 11760 80403 10234 20200 40104 52021 69921 76060 885//
333 00352 70002=
57687 31857 80000 10247 20216 30022 40099 52015 71000 885//
333 00201 79999=
57793 32960 71102 10249 20208 40106 52009 8704/ 333// 00302
79999=
57845 11730 80000 10215 20209 40089 52016 69961 72160 885//
333 00201 70007=
57872 11856 80902 10245 20235 40081 52005 69961 76060 885//
333 00102 70006=
57972 11458 80000 10236 20230 39871 40085 52003 60141 76066
887// 333 00102 70242=
58402 32962 70000 10217 20203 40129 52013 8703/ 333 00401=
58506 32962 50705 10167 20132 40125 52007 85040 333// 00351=
58519 32965 00403 10241 20179 40105 52010 333// 00300=
58606 32960 00702 10257 20185 30047 40100 52010 333// 00301=
58626 32965 70902 10249 20210 40106 52014 8704/ 333// 00401=
58715 11750 80000 10229 20220 40104 52012 69901 72100 8657/
333// 00300 70017=
58813 11425 80000 10228 20222 40095 52011 60061 78080 887//
333// 00351 70131=
50834 32980 02704 10177 21047 40043 57010 333// 05404 30029=
50727 32980 12703 10168 21042 38905 40050 57009 80001 333//
05505 31010=
54218 32980 02905 10200 20029 39445 40091 52005 333// 00008=
54527 32970 12703 10212 20150 40113 52014 80002 333 00207
70049=
57083 32960 82902 10216 20127 30011 40141 52010 8807/ 333//
00400=
54602 32960 20401 10220 20172 40118 52019 80001 333// 00007
70006=
54423 32980 00000 10173 20090 39670 40114 52011 333// 00004
70006=
54618 32961 43401 10191 20141 30097 40114 52017 80002 333//
00204 70036=
54401 32980 12901 10171 20076 39325 40148 52016 80002 333//
00104=
54308 32980 00000 10176 20077 40125 52005 333// 00104 79999=
53798 32960 70000 10251 20110 30028 40117 52014 80002 333//
00109 70006=
53588 42980 03407 10114 21069 37815 52005 80002 333 00406=
50246 32680 12905 10140 21016 49991 54000 81100 333 05751
30028=
50658 32975 01801 10210 20023 49998 57007 333 05704=
50844 32965 02903 10220 20030 40025 54000 333 05505=
50854 32970 02505 10204 20076 40026 57006 333 05502 30045=
50888 11580 83205 10128 20107 49994 57012 60021 76066 8172/
333 06052 70052=
50968 32980 52202 10132 20095 40035 52007 80002 333 05351
30049 70001=
50983 11458 80203 10126 20117 49973 57009 60011 76066 8672/
333 06101 70021=
54096 11462 83405 10095 20081 49983 52005 60081 76066 8772/
333 05956 70143=
54259 32980 71802 10168 20086 40055 52012 80002 333 00001
79999=
54324 32970 02202 10228 20053 40077 52010 333 05106 79999=
54346 32962 00000 10180 20091 40062 52012 333 00102 79999=
54493 32974 33204 10204 20032 40030 52009 80002 333 00001
79999=
57713 32662 81802 10184 20150 40105 52011 885// 333 00151
70032=
53352 32980 00000 10130 20040 40123 52002 333// 05103=
53593 32980 10000 10162 20090 40145 52018 80002 333// 00204
79999=
53764 32970 60203 10152 20076 40154 52016 80002 333// 00204=
53863 32961 70000 10174 20102 40145 52008 80002 333// 00201=
53975 31950 70000 10180 20136 40146 52010 71000 8703/ 333//
00401=
54436 32980 00000 10191 20118 40097 52007 333// 00005 70006=
54808 32968 72203 10213 20164 40123 52009 80002 333// 00303
70009=
54826 32980 83212 10128 20031 38457 52010 80007 333// 00503
70010=
54836 31930 70000 10156 20128 40133 52010 71000 80002 333//
00653=
54863 32970 72910 10181 20138 40101 52011 80002 333// 00600=
57071 11962 81803 10202 20135 40143 52010 69901 76060 8802/
333// 00551 79999=
47401 11/50 80705 10084 20081 39949 49962 58024 60052 78082
882// 333 20084=
47412 11450 81305 10144 20133 39902 49932 56037 60072 79186
883// 333 20143=
47420 11/05 91610 10115 20113 39976 40022 56033 69952 78054
333 20084=
47426 11/07 81008 10135 20130 39926 49969 56027 60022 78085
887// 333 20132=
47582 11/30 82003 10199 20186 39935 49959 53002 60022 76162
8772/ 333 20197=
47590 11/60 81505 10170 20146 39924 49974 58019 69902 72162
886// 333 20159=
47600 11465 82308 10190 20170 39968 49984 51012 60042 72582
882// 333 20187=
47648 11/50 72013 10219 20207 39949 49981 56028 60172 71082
872// 333 20184=
47662 11/65 72403 10230 20198 39944 49985 58012 60152 70282
8723/ 333 20191=
47678 11365 82310 10221 20214 39960 40052 50000 60312 72582
882// 333 20189=
47740 11465 82406 10188 20160 39971 40007 51015 60042 70282
882// 333 20176=
47778 11/40 82706 10222 20208 39935 40020 50005 60222 71082
882// 333 20186=
47807 32/60 62805 10231 20152 30041 40058 51014 81202 333
20198=
47827 11558 72905 10229 20171 30044 40080 51016 60062 71082
85232 333 20201=
47843 11/58 72804 10224 20148 30042 40072 51011 69902 70522
82202 333 20184=
47898 12/80 72606 10243 20180 39997 40034 51013 60062 81131
333 20222=
47909 11365 82801 10232 20209 30098 40107 51015 60332 78098
8227/ 333 20228=
47918 12/70 72004 10286 20260 30096 40104 51012 69902 8123/
333 20271=
47936 32265 82106 10256 20242 30050 40110 51011 8667/ 333
20250=
47945 31/09 61805 10258 20244 30100 40123 51008 74422 86630
333 20240=
47971 11370 71903 10253 20230 30137 40146 51006 69952 70282
8223/ 333 20237=
47991 11/75 70905 10277 20231 30160 40170 58001 60022 70298
82232 333 20260=
50603 32980 20203 10193 20000 39406 40033 52006 80002 333//
05602=
54026 32980 02902 10227 20017 39751 40054 52003 333// 05205=
54027 32980 03601 10184 20046 39528 40084 52006 333// 05104=
58326 32960 70202 10224 20179 40125 52009 8707/ 333 00402=
56586 11460 80000 10109 20100 38043 52008 69991 70060 885//
333// 00052 70055=
56748 32680 70000 10167 20154 38319 52012 875// 333// 00253=
56763 32680 42002 10236 20170 40033 52020 82442 333// 00101
79999=
56768 32680 50000 10175 20155 38197 52014 81442 333 00151
70034=
56838 11670 71101 10218 20205 40067 52014 60031 70080 8643/
333 00100 70029=
56946 31/04 90000 10188 20186 40069 52012 74640 333// 00151
70004=
56954 31/06 90000 10185 20182 40082 52015 74700 333// 00151
79999=
56959 32765 80000 10220 20214 40061 52019 884// 333// 00251=
56966 32680 60000 10245 20231 40048 52023 81402 333// 00200
70004=
56969 31458 80000 10224 20218 40070 52014 71000 886// 333
00151 79999=
56986 11/70 70000 10197 20191 40067 52012 69901 78000 879//
333// 00251 70236=
57237 11558 80000 10130 20123 40142 52010 60201 76066 8177/
333 00257 70342=
57306 11775 80000 10153 20144 40132 52011 60051 78088 8346/
333 00356 70093=
57504 11964 80202 10192 20128 40122 52015 69901 72100 8807/
333 00453 79999=
59007 11459 80000 10182 20179 40087 52011 60301 76060 885//
333 00100 70298=
57993 11461 80402 10239 20230 39952 40095 52011 60121 76066
885// 333// 00300 70227=
58122 32975 71102 10196 20148 40138 52020 8704/ 333// 00600=
58407 31950 71402 10241 20209 40112 52012 71000 8703/ 333
00301=
52889 32980 71102 10160 20031 38472 40095 52006 83042 333
05200=
52418 32962 72002 10216 20034 38156 40036 52013 80002 333
00009=
56046 11780 80903 11001 21015 36290 52001 69981 70070 885//
333 00151 30002 70019 92502=
56033 11880 81101 11006 21026 36063 52009 60021 70070 8802/
333 00201 31005 70027 92501=
56080 32980 70000 10035 20020 37179 52008 8703/ 333 00052
30014 70007=
53915 32780 71103 10126 20085 38675 40157 52007 875// 333
00051=
52652 32980 21102 10150 20055 38463 40042 52006 80002 333
05200=
56096 11580 70000 10133 20104 38945 40157 52003 60021 70060
8254/ 333 00155 70063=
52787 32780 71808 10050 21047 37046 52002 82502 333 05101
31010=
52996 32480 71411 10044 20020 37580 52006 82542 333 05253
30038=
57006 11770 80000 10114 20091 40176 52011 60041 70060 885//
333 00255 70060=
52323 32980 42902 10140 21048 38193 52009 80002 333 05303=
53646 32970 10000 10132 20063 38968 40148 52009 80002 333
05203=
53845 32970 72201 10154 20033 39079 40149 52009 80002 333
00001=
57036 11563 80000 10143 20134 39707 40169 52005 60111 76166
8372/ 333 00355 70113=
57245 11560 80000 10150 20145 39819 40160 52014 60171 76066
8272/ 333 00556 70196=
56029 11680 71401 10062 20043 36508 52012 69901 70080 85502
333 00301 70090=
52866 32965 70000 10085 20060 37712 52008 81042 333 05152
30047=
52754 32970 63404 10028 21007 36818 52001 80002 333 00001
31013=
52533 32980 72501 10144 20048 38470 40048 52006 82042 333
05300=
52436 32980 30000 10168 20041 38421 40039 52008 81042 333
05104=
57016 11565 80000 10131 20122 40180 52009 60121 76166 8372/
333 00254 70160=
56065 32680 71102 10014 21015 36660 52008 81548 333 00101
31015 70031=
52943 32680 70000 10028 20013 36829 52008 82502 333 00100
31007 70015=
53923 32680 72003 10106 20067 40167 52012 85542 333 00152=
52986 32980 21401 10113 20026 38115 52008 82042 333 05151=
52797 32980 61805 10139 20009 38354 52008 82042 333 05302=
53705 32980 71809 10161 20029 40119 52011 80002 333 05303=
52681 32980 70903 10142 21011 38593 40072 52002 81042 333
05400=
53614 32980 72201 10169 20051 38900 40126 52008 80002 333
05301=
53723 32968 50000 10147 20018 38661 40133 52008 80002 333
05204 30041=
52955 11780 70000 10051 20027 36996 52002 69901 70060 85502
333 00152 30033 79999=
47575 11/56 83401 10161 20148 39929 49933 58021 69952 72582
882// 333 20142=
47585 12/70 71706 10208 20164 39912 49965 56015 69902 86272
333 20186=
47598 11/04 92103 10169 20161 39972 49978 58037 60072 75165
333 20150=
47602 11350 82410 10187 20167 39959 49978 51017 60012 72582
882// 333 20186=
47618 11/75 72007 10263 20151 39288 49947 56009 69952 70282
872/1 333 20174=
47624 11/65 72202 10212 20180 39852 49981 58025 69952 70282
81172 333 20186=
47636 11/58 71901 10217 20196 39956 40020 53004 60252 71082
82231 333 20177=
47655 11/03 82505 10204 20196 39954 40008 58007 61752 78088
882// 333 20175=
47750 12/65 50104 10225 20187 39980 40005 51011 60052 82232
333 20196=
47755 11462 62309 10204 20162 30010 40033 51015 69902 70282
82230 333 20185=
47772 11/58 72306 10227 20176 39926 40020 51011 60112 71062
872// 333 20192=
47800 12460 32904 10195 20143 30032 40054 52015 69952 83200
333 20179=
47815 32/75 72506 10256 20138 30027 40041 51017 81132 333
20191=
47817 11/58 72204 10208 20168 30034 40075 51009 69902 71022
85202 333 20188=
47830 12/80 72409 10238 20163 30033 40050 51015 60062 81232
333 20210=
47837 11/65 72809 10221 20183 30059 40080 53014 60022 70282
86201 333 20210=
47891 12/65 72406 10238 20166 30016 40027 51015 69952 83202
333 20196=
47899 11/58 72411 10209 20204 39811 40024 51011 60122 71084
83202 333 20200=
47927 32/70 71905 10275 20253 30060 40106 51010 8217/ 333
20260=
JIVB    28004 99357 11355
11/97 82919 10189 20169 40012 51013 69952 70211 875//
22200 00174 10502 20402 70009=
JIVB    28004 99357 11355
11/97 82919 10189 20169 40012 51013 69952 70211 875//
22200 00174 10502 20402 70009=
JNSR    28004 99424 11573
41497 81605 10080 2//// 40193 57006 70222 8482/
22273 06100 11704 326// 41003=
44216 32699 63207 10148 20025 38853 40011 54000 82848 333
20127 555 30096=
44219 32698 70903 10133 20041 38521 40040 56004 87500 333
20124 555 30085=
44221 32599 80000 10081 20029 38494 40065 54000 8654/ 333
20090 555 30073=
44224 11698 70000 10075 20006 37997 40070 51007 60032 72162
87500 333 20062 555 30040=
44229 32999 62701 10063 20021 37874 40076 57006 80008 333
20011 555 31017=
44254 32999 72301 10105 20023 38940 40053 54000 87070 333
20040 555 30032=
44257 32598 70000 10074 21002 38878 40074 56009 87700 333
333 20021 555 30005=
44266 32598 72308 10070 20043 37743 40086 57001 87800 333
20055 91214 555 30024=
44291 32998 60000 10129 21005 38643 40090 56005 80008 333
20057=
44317 32998 12712 10208 20021 38866 40030 58005 80001 333
91214 20090 555 30035=
44325 32699 70000 10204 20065 38747 40020 53010 83560 333
20180 91212 55/// 555 30095=
44348 32997 00000 10188 20081 38660 40070 57012 333 20129
555 30069=
44374 32999 21809 10157 21082 38233 40048 56002 82002 333
20126 555 30074=
44385 32999 32308 10209 21067 38865 40068 53018 80002 333
20175 555 30147=
44386 32999 02307 10202 20044 38988 40076 54000 333 20130
555 30094=
53478 32975 00000 10110 20069 40158 52011 333// 00103 30042=
54518 32965 23401 10225 20121 40116 52017 80002 333// 00107
70003=
54852 32962 72705 10201 20137 40103 52015 80002 333// 00602=
57089 32662 82701 10218 20119 40139 52015 885// 333// 00551=
50564 32970 12203 10201 20065 49981 57014 80002 333 05802
30038=
50564 32970 12203 10201 20065 49981 57014 80002 333 05802
30038=
53068 32980 02203 10156 20031 39035 40110 52001 333// 05101
79999=
53231 32980 51805 10179 21070 38479 52009 80002 333// 05204=
53276 32980 02206 10141 20051 38851 40134 52005 333// 00003=
54135 32980 03403 10210 20050 39853 40060 52007 333// 05105=
54539 32970 03203 10204 20148 30080 40094 52011 333// 00106
70013=
54753 32965 32504 10200 20147 30104 40110 52014 80002 333//
00505=
54857 31956 63203 10178 20122 30029 40118 52013 71000 80002
333// 00701=
57067 11462 82501 10148 20139 39516 40170 52017 60061 76166
8272/ 333// 00554 70063=
57178 11461 83603 10212 20100 39990 40141 52015 69901 76000
8177/ 333// 00552 79999=
57297 32960 83603 10198 20147 39997 40131 52010 8807/ 333//
00452=
52908 32680 72703 11069 21087 35810 52004 82502 333 00353
70025 92501=
52737 11780 80000 10068 20043 37105 52006 69911 70086 84507
333 00251 70115=
56021 11480 72702 10001 21022 36122 52009 69911 78580 879/2
333 00400 30000 70045 92501=
56004 32880 80000 11027 21051 35866 52002 8802/ 333 00351
70065 92502=
52818 32980 20000 10094 21036 37257 52011 82040 333 00101
30021=
52836 11980 80000 10034 20020 36928 52004 60101 72166 8802/
333 00253 30038 70199=
52602 32980 70401 10062 21097 37293 52011 81042 333 00200
30014=
51886 11780 70202 10075 21010 37143 52007 69901 72500 87902
333 00102 30035 79999=
52713 32980 21401 10073 21014 36938 52007 80002 333 00252
30008 70001=
56146 11680 80000 10068 20045 36756 52011 60041 70080 884//
333 00452 70153=
56172 11480 80000 10050 20038 37384 52011 60031 76086 885//
333 00454 30046 70203=
56247 32880 70000 10181 20084 37399 52017 8644/ 333 00302=
56444 11/06 90000 10085 20080 36808 52005 60041 7064/ 333
00251 70059=
56462 11380 70000 10113 20105 37134 52009 69901 78000 874//
333 00051 70055=
56691 11358 83602 10099 20094 37769 52010 60021 76066 887//
333 00052 70043=
56739 32475 73401 10161 20151 38322 52008 879// 333 00100
70003=
56964 32568 70000 10199 20181 38671 40066 52015 879// 333
00200 70001=
56985 11565 73402 10210 20198 38667 40065 52016 60011 70080
874// 333 00200 70022=
57633 11462 80000 10194 20168 39359 40106 52009 69981 70060
8277/ 333 00352 70008=
57902 11445 80901 10169 20166 48602 40099 52012 69911 76060
887// 333 00100 70004=
53362 32980 01802 10136 20051 40137 52005 333// 05106 30043
70001=
53664 32970 21403 10159 20119 40146 52006 80002 333// 00006=
53782 32980 71402 10192 20065 40126 52012 80002 333// 00203=
54429 31958 00000 10209 20143 40097 52010 70400 333// 00105
70017=
54623 32962 13205 10219 20129 40103 52014 80002 333 00106
70025=
54705 32962 72702 10218 20155 40120 52019 80002 333// 00106
70015=
54736 32965 42703 10201 20112 40109 52011 80001 333// 00402=
54824 32962 72501 10219 20116 40116 52003 80002 333// 00402
70013=
54936 31959 70000 10171 20134 40132 52011 71000 80002 333//
00752=
57077 11565 82902 10144 20132 40164 52014 60061 76166 8372/
333// 00555 70077=
57091 31957 82901 10210 20140 40141 52014 71000 8807/ 333//
00401=
57156 11462 83204 10174 20152 40154 52014 60031 76066 8272/
333// 00756 70036=
57181 31957 82702 10218 20115 40148 52013 70400 8807/ 333//
00553=
JNSR 28004 99424 11573 41497 81605 10080 2//// 40193 57006 70222
8482/ 22273 06100 11704 326// 41003=
JIVB 28004 99357 11355 11/97 82919 10189 20169 40012 51013 69952
70211 875// 22200 00174 10502 20402 70009=
JPPT 28004 99343 11729 41398 73109 10185 20162 40200 53018 70222
875// 22264 00170 20403 327// 40504 5//// 80170=
JMQY 28004 99444 11665 41297 82922 10100 20081 40156 52005 70222
885// 22225 00060 20302 311// 40504 80900=
3FWM4 28004 99401 11499 41397 81820 10180 20180 40160 51020 70122
88/// 90000 22214 00190 1//// 3//// 40201 80180=
3FFJ4 28004 99368 11442 41/95 /1637 10190 20183 40135 58045 76362
8//// 92350 22254 00170 1//// 20706 319// 40906 5//// 6//// 80185
/////=
ELJJ5 28004 99493 11595 41/92 92924 10040 20040 40130 52070 74344
8//// 22254 00070 20406 329// 40406 5//// 6//// 80040=
C6FH5 28004 99193 11489 41498 41311 10290 2025/ 40120 54000 8418/
22213 00290 20203 312// 40405 80260=
JKCF 28004 99506 11778 41396 81332 10035 20024 40095 57065 75852
887// 22264 00040 20806 314// 41008 80030=
C6MJ6 28004 99169 11291 41398 40914 10290 20264 40104 52013 70101
843/5 9//// 22284 00305 1//// 20502 313// 40603 5////=
JADY 28004 99381 11660 41497 83305 10185 20127 40236 51008 70242
886// 22224 00184 20301
333 40402 80150=
C6NT7 28004 99146 11285 41498 40814 10285 20265 40103 52010 70310
833/2 92350 22244 00287 1//// 20302 314// 40503 5//// 6//// 80270=
VNVS 28003 99247 11355 41798 19902 10280 20249 40154 51005 70200
81261 22283 00242 20101 303// 40402 80255=
YJRK3 28004 99366 31602 4//97 83212 10160 20118 40064 54000 78062
886// 22223 00240 2//04 332// 80137 .....=
VRRB 28004 99397 31598 41498 73420 10155 20087 40017 54002 70222
86770 22263 00165 20604 30132 40604 50707 80120=
ELXD7 28003 99216 31693 41698 30809 10255 20167 40148 55005 70322
835// 22223 00265 20503 309// 40503 5//// 80200=
UDWE 28000 99395 31777 42598 70908 10170 40219 54002 87341 22233
00200 20202=
YJQL3 28003 99315 31588 41498 32310 10220 20153 40099 51005 70211
83240 22223 00220 20201 32730 41003 50803 80180=
ELUB5 28003 99015 11082 41398 40002 10300 20272 40196 53010 70310
84260 22213 02300 2// 3// 4// 5// 6//// 80280=
9KWK 28003 99225 31035 42598 42215 10220 20171 40149 51007 70322
84361 22233 00190 20504 32021 40504 50403 80190=
ELUB5 28003 99015 11082 41398 40002 10300 20272 40196 53010 70310
84260 22213 02300 80280=
SHIP 28001 99260 70878 46/// /1107 10276 20243 40148 56005 92350
22200 00281 10502 70009
333 91208=
SHIP 28001 99380 71300 46/// /2605 10144 40210 53006 92350 22200
00144 10803 70016
333 91206=
SHIP 28001 99526 71550 46/// /2907 10063 40226 54000 92350 22200
00063 11003 70014
333 91209=
ELED7 28004 99203 71456 41698 10611 10255 2015/ 40170 54000 70211
8118/ 22253 04250 20203=
ELXD6 28003 99387 51611 /1496 60935 00/// 10150 20143 40140 56010
6//// 70366 86442 22213 0//// 20604 309// 40906 5//// 6//// 80145=
ELXD6 28003 99387 51611 /1496 60935 00/// 10150 20143 40140 56010
6//// 70366 86442 22213 0//// 20604 309// 40906=
VLST 28004 99381 31449 46/// /2739 10075 20044 39977 40007 57009
22244 85060=
SHIP 28001 99272 70904 46/// /1305 10273 40141 55000 92350 22200
00269
333 91206=
9KWK 28003 99225 31035 42598 32215 10220 20171 40149 51007 70322
84361 22233 00190 20504 32021 40504 50403 80190=
SHIP 28003 99105 31291 41/96 71320 1026/ 40111 70202 222// 20202
325// 40202 5////=
SHIP 28001 99569 71778 46/// /1710 10035 40238 57011 92350 22200
00036 10704 70018
333 91211=
SHIP 28001 99563 71482 46/// /2905 10082 40118 51005 92350 22200
00074 11402 70012
333 91207=
C6CN4 28004 99092 31597 46/// /1005 10279 20212 30069 40092 54000
22264 85231=
VRSB 28003 99297 31613 41898 81105 10220 20180 40110 51009 70301
88060 22234 00220 20401 332// 40401 5//// 80195=
SHIP 28001 99285 70845 46/// /2203 10274 20233 40156 56008 92350
22200 00277
333 91203=
SHIP 28001 99301 70888 46/// /1807 10273 20250 40144 58010 92350
22200 00281 10701 70007
333 91209=
SHIP 28001 99460 71310 46/// /2905 10097 30096 40096 51024 92350
22200 00097 10805 70025
333 91207=
V7AT5 28003 99300 30540 41/97 01418 10200 20177 40187 57015 72052
8//// 22263 02220 2//// 3//// 4//// 80170=
SHIP 28001 99259 70936 46/// /1208 10270 20260 40118 58008 92350
22200 00269 10804 70021
333 91209=
ZMKA 28004 99274 31549 41698 72418 10200 20086 40138 51013 70320
875// 22233 00/// 20302 324// 41105 5//// 80140=
VNVZ 28003 99160 11286 41398 61113 10290 20269 40117 51008 70211
8528/ 22244 00298 20302 3//// 40402 5//// 6//// 80275=
WZ34 28004 99526 11750 41295 91425 10029 40084 57/// 75365 89621
22262 02044 2//02 31414 4//05 5//05=
3FFT6 28004 99487 11794 43/91 91729 10070 2007/ 40140 54/// 7////
8//// 22268 00070 2//// 31616 41609 5//// 6//// 80070 ICE=
ELKU8 28004 99084 10765 41698 43218 10260 2025/ 40090 70222 8361/
22234 00310=
ELJL3 28004 99372 71368 41598 82706 10210 2015/ 40225 54000 70222
8655/ 92330 22224 00160 1//// 20301 326// 40503 5//// 6//// 80170=
KGTH 28004 99492 71293 41498 73218 10100 2008/ 40055 52015 70262
8532/ 22234 00100 20403 32214 40806 50605 80090=
KGTX 28004 99539 71538 43398 23117 10117 2005/ 40200 57006 7////
811/5 22224 00065 20302 333// 40403 5//// 6//// 80083 ICE=
VCPX 27234 99452 70863 41/98 70717 10140 7022/ 22243 02105 20402=
DDGY 28000 99343 31677 41596 52510 10195 20172 40125 52010 78166
8557/ 22224 00195 20605 32536 40709 50707 80180=
ELED8 28004 99100 51577 42699 30919 00/// 10300 2027/ 40050 54///
7//// 83340 22213 00300 20803=
SHIP 28001 99285 70802 46/// /1504 10267 40152 57003 92350 22200
00263 10801 70003
333 91205=
SHIP 27231 99292 70944 46/// /1606 10274 20247 40123 58010 92250
22200 00277 10802 70012
333 91207=
SHIP 27231 99285 70845 46/// /2103 10274 20234 40156 56011 92250
22200 00281
333 91203=
SHIP 27231 99563 71482 46/// /2906 10082 40118 52007 92250 22200
00074 10902 70012
333 91207=
SHIP 27231 99411 70666 46/// /2406 10102 40103 58007 92250 22200
00090 10802 70009
333 91206=
SHIP 27231 99292 70882 46/// /1904 10278 20245 40141 56014 92250
22200 00283 10702 70010
333 91205=
SHIP 27231 99429 70689 46/// /2602 10117 40079 54000 92250 22200
00090 10801 70007
333 91202=
SHIP 27231 99288 70860 46/// /1804 10275 20239 40163 56016 92250
22200 00277 10601 70007
333 91205=
SHIP 27231 99289 70785 46/// /2203 10267 40177 56009 92250 22200
00269 10801 70007
333 91204=
SHIP 27231 99606 71468 46/// /3104 10117 40097 52003 92250 22200
00099 10801 70004
333 91205=
SHIP 27231 99425 71303 46/// /2510 10125 40157 51011 92250 22200
00118 10806 70029
333 91212=
SHIP 27231 99259 70897 46/// /1107 10279 20247 40142 56006 92250
22200 00279 10602 70010
333 91208=
SHIP 27221 99289 70785 46/// /2203 10268 40178 92220 22200 00269
10801 70007
333 91204=
SHIP 27221 99606 71468 46/// /3103 10110 40096 92220 22200 00099
11701 70004
333 91204=
VSBU2 28003 99078 11271 41398 63007 10272 20260 40098 51018 70165
84699 22283 00282 20101 30000 40000 50000 80264=
VNGK 28001 99069 11416 41498 60909 10285 20234 40107 52001 70221
864// 22234 00300 20402 312// 40502 5//// 80250=
ZMFB 28003 99407 31728 41498 80000 40225 22200 20000 30000 40000=
ZMIO 28004 99345 31724 41499 70220 10174 20154 40206 54000 78122
83399 22253 20203 30323 40603 50803 80162=
9VVP 28004 99483 71713 41698 31615 00/// 10075 2002/ 40275 54000
70200 83/2/ 22225 04060 20301 309// 40602 5//// 6//// 80050 /////=
DDFO 28000 99271 71314 41598 70206 10220 40200 54000 70122 87800
22274 20203 336// 40303=
KGJB 28004 99459 71475 41498 63410 10111 2009/ 40230 52010 70222
864// 22224 00080 2//// 3//// 4//// 5//// 6//// 80100 ICE=
3FYW4 28004 99354 71473 41498 33010 10200 20153 40242 51011 70122
82241 90000 22263 00190 1//// 20201 327// 40403 5//// 6//// 80170=
S6BR 28003 99059 31059 41797 81006 10282 2028/ 40100 55010 70222
8821/ 22222 00275 20100 3//// 4//// 5//// 6//// 80282 ICE=
GZKA 28003 99291 51470 41398 62719 10210 2020/ 40125 58025 70222
84377 22254 00232 20302 322// 40503 5//// 6//// 80200 ICE=
DYZM 28004 99096 31516 41798 60608 10240 2021/ 40090 52020 70222
86284 22243 00280 20202 306// 40404 5//// 6//// 80220 ICE=
UAHV 28004 99064 51438 43297 31113 10282 2024/ 40088 55015 81105
22254 0024/ 20201 310// 40703 80251=
3EGR6 28003 99170 11132 41498 32014 10305 20271 40090 52030 70200
82766 22283 00290 20101 320// 40302=
ELXD4 28003 99045 31465 41098 62909 10285 20258 40110 51008 70322
84461 22273 00309 20401 302// 40502 5//// 80265=
VJDK 28003 99263 11266 41398 82115 10260 20246 40100 51020 70282
85798 22243 00263 20202 321// 40502 5//// 80250=
SHIP 28001 99289 70785 46/// /2003 10266 40177 54000 92350 22200
00270 10401 70006
333 91203=
SHIP 28001 99292 70944 46/// /1605 10274 20249 40120 56011 92350
22200 00276 10802 70012
333 91206=
SHIP 27221 99285 70802 46/// /1305 10270 40151 92220 22200 00269
10801 70003
333 91206=
SHIP 27231 99260 70878 46/// /1008 10278 20240 40146 56011 92250
22200 00282 10702 70009
333 91209=
SHIP 27231 99380 71300 46/// /2604 10144 40206 51007 92250 22200
00144 10903 70017
333 91205=
SHIP 27231 99526 71550 46/// /2807 10063 40226 52003 92250 22200
00062 11403 70013
333 91208=
9VBL 27231 99382 70330 41/9/ /2308 10187 20135 40256 52003 7////
22264 04190=
9VBK 27231 99496 70061 41/9/ /3212 10088 20059 40007 55006 7////
22224 04114=
SHIP 27231 99285 70802 46/// /1405 10269 40151 56011 92250 22200
00267 10801 70003
333 91206=
SHIP 27231 99259 70936 46/// /1308 10271 20258 40123 57005 92250
22200 00269 10805 70023
333 91209=
SHIP 27231 99301 70888 46/// /1808 10274 20248 40148 56014 92250
22200 00281 10301 70007
333 91209=
SHIP 27231 99460 71310 46/// /2806 10097 30088 40088 53022 92250
22200 00097 10805 70026
333 91207=
MRGU3 28003 99461 11671 41498 82819 10048 20025 40130 54000 71522
8867/ 22215 04042 20203 329// 40706 80039=
C6NI7 28004 99536 71793 41/97 81823 10050 40207 76052=
V2KS 28004 99097 51655 41698 41015 10285 2024/ 40125 55005 70211
83488 22214 00267 20302 309// 40603 5//// 6//// 80255 ICE=
GOVL 28003 99276 51396 41498 61810 10235 2021/ 40139 57020 70222
85271 22224 00235 20202 332// 40202 5//// 6//// 80220 ICE=
ZCBH6 28003 99268 30801 41498 82710 10205 20165 40161 54000 75022
887// 22223 02215 2//// 3//// 4//// 80185=
ELUA3 28003 99293 51374 41398 71306 10200 20161 40135 54000 70122
86530 22214 00216 20402 321// 40904 80175=
SHIP 28001 99285 70802 46/// /1504 10267 40153 90020 22200 00262
10801 70003
333 91205=
3FJR6 28004 99203 71570 42/97 70514 10300 40160=
3FJR6 28004 99203 71570 42/97 70514 10300 40160 7////=
S6CW 28004 99477 71409 41897 83611 10090 2009/ 40190 51002 70222
8813/ 22224 00010 20203 30102 40404 5//// 6//// 80090 ICE=
SHIP 27231 99285 70802 46/// /1405 10268 40149 92320 22200 00265
10801 70004
333 91206=
WAURI 27234 99122 31230 41496 71108 10275 20251 40105 52011 70222
81139 22200 02271 20201 3//// 4//// 5//// 80257=
KIRH 28003 99414 11704 41497 82815 10144 2011/ 40193 57007 7022/
886// 22215 00100 20303 31203 41006 50804 6//// 80128 ICE=
VRVA5 28004 99366 11574 41398 62114 10185 2017/ 40215 50015 70211
8224/ 22215 00160 20201 306// 41006 80175=
PDHW 28001 99438 71518 41598 40107 10108 20052 40258 51005 7////
82108=
LAXP4 28004 99417 71629 41398 40405 10120 40316 70100 22224 20101=
WSLH 28003 99234 71531 41598 40917 10250 2018/ 40198 57010 70211
82451 22254 00200 20203 308// 40804 5//// 6//// 80206 ICE=
WNRD 28003 99355 71342 41398 80507 10188 2014/ 40202 52015 70222
885// 22265 00153 20301 331// 40603 5//// 6//// 80160 ICE=
WRYD 28004 99501 71459 41598 23116 10090 2004/ 40195 51015 70200
82100 22275 00062 20503 312// 40905 5//// 6//// 80067 ICE=
0GRC 28004 99343 71302 43498 13312 10200 2014/ 40208 54000 81500
22255 00128 20201 329// 40503 80167=
C6MD8 28003 99106 71489 41498 50612 10263 20208 40116 56005 70211
83461 22254 02282 20302 309// 40503 80227=
S6TS 28004 99479 71418 41698 43118 10080 2006/ 40200 52030 70222
8324/ 22275 00070 20303 335// 40504 5//// 6//// 80070 ICE=
VRWG6 28004 99403 71265 41598 83118 10150 20120 40185 51005 70222
882// 22274 20303 331// 40406 80130=
OXPW2 28004 99462 71420 43598 60113 10096 2003/ 40200 52030 7////
862// 22275 00084 20603 3//// 4//// 5//// 6//// 80068 ICE=
WTDM 28004 99550 71587 41397 13020 10069 2000/ 40213 52012 70200
811// 22222 00076 20303 3//// 4//// 5//// 6//// 80040 ICE=
C6CW9 28004 99377 11440 41/93 91724 10200 2019/ 40030 57030 74355
8//// 22253 00230 20304 3//// 4//// 5//// 6//// 80190 ICE=
LAON4 28004 99525 11625 41497 83425 10045 2002/ 40085 52038 75085
8892/ 22263 00080 20506 333// 40506 5//// 6//// 80035 ICE=
3EAD9 28004 99359 11440 41/90 91727 10195 40025 75345=
WFLH 28004 99180 11624 41498 40915 10300 2024/ 40151 57007 70200
82244 22200 00283 20303 307// 40705 5//// 6//// 80256 ICE=
ELPT3 28004 99437 11520 41/91 91518 10080 2007/ 40145 54000 74944
22214 00060 20303 80075=
WRYC 28004 99439 11656 41498 83119 10071 2004/ 40157 58002 70222
886// 22225 00048 20406 311// 41010 5//// 6//// 80055 ICE=
WGKF 28004 99541 11687 41998 80919 10094 2004/ 40032 57020 75152
886// 22265 00039 20304 320// 40910 80067=
VRVB5 28004 99496 71460 41598 23212 10075 20027 40209 52015 70111
82100 22275 00070 20302 328// 40604 5//// 80055=
DNKF 28000 99380 71324 41498 43006 10161 20100 40210 51005 70300
8413/ 22265 00153 20302 332// 40803 80126=
3FUX6 28004 99543 71648 41797 53023 10070 20049 40265 51015 70311
8546/ 22265 00020=
WTEU 28004 99320 71216 41998 03416 10163 2014/ 40130 55002 70200
8//// 22262 00167 20404 331// 41005 5//// 6//// 80147 ICE=
3ETH9 28004 99446 71343 41497 73128 10115 2009/ 40134 52038=
VRUN4 28004 99093 70941 41297 43613 10280 2025/ 40085 57005 70321
84241 22264 00290 20203 327// 40203 5//// 6//// 80260 ICE=
WSX6846 28003 99611 71501 41/98 20000 10161 40112 716// 222// 00083
2//// 3//// 4//// 5//// 6////=
WAQ2746 28004 99582 71355 41/98 62912 10200 40058 702// 22200 0////
20101=
WYH6499 28004 99585 71577 41/98 02525 10089 40173 702// 22200 0////
20201 325// 4//03=
WSRL 28004 99273 71469 41698 61209 10250 2020/ 40215 57013 70282
84579 22254 00195 20401 31433 40702 51201 6//// 80215 ICE=
WTEF 28004 99583 71542 41797 20404 10167 2006/ 40150 54000 70200
821/5 22200 00067 20101 3//// 4//// 5//// 6//// 80111 ICE=
3FYE8 28004 99363 71678 41498 71008 10160 2008/ 40270 70222 87///
22223 00160 20301 335// 40401 5//// 6//// 80120=
3EYX9 28004 99140 70954 41698 61406 10260 20246 40083 56012 70262
8624/ 22234 00290 20501 325// 40603 80250=
C6MC5 28004 99332 71736 43798 61313 10200 2014/ 40230 54000 85579
22223 00200 20402 304// 40303 80160=
CBGR 27234 99193 31474 46/// /2025 10200 40177=
MYRF 27234 99183 31474 46/// /1827 10221 40150=
DVRF 27234 99188 31477 46/// /1826 10210 40154=
SHIP 27221 99272 70904 46/// /1506 10274 40141 57008 92150 22200
00270
333 91207=
SHIP 27221 99289 70785 46/// /2303 10268 40177 56013 92150 22200
00269 10801 70007
333 91203=
SHIP 27221 99292 70944 46/// /1606 10276 20245 40127 58007 92150
22200 00277 10803 70013
333 91207=
SHIP 27221 99285 70845 46/// /2202 10274 20234 40157 57017 92150
22200 00281
333 91203=
SHIP 27221 99569 71778 46/// /1809 10034 40247 92150 22200 00036
10704 70019
333 91212=
SHIP 27221 99563 71482 46/// /2906 10082 40117 53006 92150 22200
00074 11403 70013
333 91208=
SHIP 27221 99606 71468 46/// /3003 10107 40096 52003 92150 22200
00098 11401 70003
333 91204=
SHIP 27221 99425 71303 46/// /2509 10120 40155 52015 92150 22200
00118 10805 70027
333 91212=
SHIP 27221 99288 70860 46/// /1804 10275 20241 40167 58014 92150
22200 00279 10602 70008
333 91205=
SHIP 27221 99259 70897 46/// /1208 10278 20244 40141 56013 92150
22200 00279 10602 70010
333 91209=
SHIP 27221 99411 70666 46/// /2406 10105 40106 58003 92150 22200
00095 10802 70009
333 91207=
SHIP 27221 99292 70882 46/// /2005 10278 20243 40144 58013 92150
22200 00283 10702 70010
333 91206=
SHIP 27221 99429 70689 46/// /2503 10113 40078 56008 92150 22200
00091 10407 70035
333 91204=
SHIP 27231 99289 70785 46/// /2003 10267 40176 92320 22200 00269
10801 70007
333 91204=
SHIP 27231 99606 71468 46/// /3204 10117 40097 92320 22200 00099
11701 70004
333 91205=
SHIP 27221 99260 70878 46/// /1106 10278 20240 40147 58015 92150
22200 00283 10502 70008
333 91207=
SHIP 27221 99380 71300 46/// /2704 10141 40205 51010 92150 22200
00141 10803 70017
333 91205=
SHIP 27221 99526 71550 46/// /2706 10063 40226 52003 92150 22200
00062 11003 70014
333 91207=
DGCP 28004 99417 11431 /1/90 /1323 10120 20120 49965 58060 74544
8//// 22264 0//// 20504 318// 40706 80120=
3FSH4 28004 99309 11591 41298 70214 00/// 10210 2018/ 40220 51005
70222 87496 22264 00220 20302 33636 40403 50302 80190=
OZKN2 28004 99392 11451 41/95 /1724 10173 2017/ 40051 57031 74542
8//// 22254 00156 20504 3//// 4//// 5//// 6//// 80170 ICE=
OYGA2 28004 99458 11752 41/92 92718 10095 2009/ 40091 5//// 74544
8//// 22225 00053 20402 314// 40804 5//// 6//// 80090 ICE=
D5BU 28004 99365 11502 41598 81932 10200 2017/ 40150 54000 70222
8627/ 22200 00200 20707 318// 40806 5//// 6//// 80180 ICE=
4XGU 28003 99309 71671 43498 60618 10210 2016/ 40220 54000 84332
22264 00218 20202 305// 40905 80180=
V2AC6 28003 99357 71321 41498 83408 10163 20138 40220 54000 70222
88700 22224 00180 20301 327// 41004 80148=
WZJD 28004 99286 71455 41498 20306 10230 2017/ 40215 54000 70200
82200 22214 00180 20201 328// 41004 5//// 6//// 80190 ICE=
3FPS6 28004 99502 71309 41596 82710 10120 2010/ 40070 52040 70222
8867/ 22273 00110 20302 327// 40302 5//// 6//// 80110 ICE=
3FWB9 28004 99315 71706 41198 70711 10200 20153 40235 54000 70122
87456 22264 00210 20301=
3FDO7 28004 99538 71581 41698 63016 10080 2004/ 40220 54000 70222
86463 22223 00070 20102 331// 40203 80060=
WHRN 28004 99371 11412 41396 81628 10172 2016/ 40040 58013 75865
887// 22215 00156 20507 3//// 4//// 5//// 6//// 80167 ICE=
SHIP 28001 99259 70897 46/// /1107 10278 20248 40146 53003 92350
22200 00278 10602 70009
333 91209=
SHIP 28001 99411 70666 46/// /2304 10102 40103 56007 92350 22200
00086 10802 70009
333 91204=
SHIP 28001 99292 70882 46/// /1905 10277 20243 40142 56007 92350
22200 00281 10702 70009
333 91206=
SHIP 28001 99429 70689 46/// /3002 10113 40082 53005 92350 22200
00091 10801 70006
333 91202=
SHIP 28001 99288 70860 46/// /1904 10275 20240 40164 56008 92350
22200 00277 10701 70007
333 91205=
SHIP 28001 99606 71468 46/// /3205 10115 40096 54000 92350 22200
00100 10901 70004
333 91206=
SHIP 28001 99425 71303 46/// /2610 10123 40159 51010 92350 22200
00118 10806 70029
333 91212=
JEAY 28004 99124 31630 41598 11312 10290 20257 40100 51005 70110
81100 22233 00280 20501 316// 40703 80265=
ELXS8 28001 99254 31128 41698 20411 10210 20178 40204 53008 70195
81155 22243 02245 20603 306// 40703 80189=
SHIP 27221 99285 70802 46/// /1205 10270 40153 56017 92150 22200
00271 10801 70004
333 91206=
SHIP 27221 99259 70936 46/// /1308 10271 20257 40124 57006 92150
22200 00269 10804 70022
333 91209=
SHIP 27221 99301 70888 46/// /1807 10274 20248 40152 56015 92150
22200 00282 10701 70007
333 91209=
SHIP 27221 99460 71310 46/// /2506 10094 30081 40081 52024 92150
22200 00095 10805 70023
333 91207=
9VBL 27221 99383 70326 41/9/ /2308 10187 20137 40257 53002 7////
22264 04190=
9VBK 27221 99496 70066 41/9/ /3212 10095 20066 40007 57009 7////
22224 04117=
SHIP 27231 99272 70904 46/// /1505 10274 40135 56013 92250 22200
00271
333 91206=
JFOY 28004 99212 11345 41397 31212 10285 20258 40130 55010 70101
82170 22283 00290 20301 305// 40301 80265=
4XGT 28004 99273 11231 43498 80416 10235 2022/ 40122 54000 886//
22214 00257 20505 30100 40503 80222=
ELJS7 28004 99487 71307 41498 83116 10120 20093 40082 51024 70322
8845/ 22274 00110 20402 322// 40906 80105=
3ECM7 28004 99546 71684 41598 60204 10085 20032 40283 57009 70122
85445 92355 22223 00095 20202 330// 40203 80060=
S6JR 28004 99176 10405 41498 62815 10300 20258 40150 57015 70222
8//// 22235 00300 2//// 3//// 4//// 5//// 6//// 80270=
MZEP7 28003 99092 31325 41498 61120 10290 20248 40107 52014 70222
85802 22224 02285 20301 309// 40302 5//// 6//// 80260=
OXKT2 28004 99409 11557 41392 91715 10166 2014/ 40170 52001 74544
22225 00141 20401 80152=
DQVM 28000 99349 11417 41/95 81814 10215 20208 40030 54000 76166
8//// 22225 00230 20806 3//// 80210=
3EVO3 28004 99501 11715 41297 82317 00/// 10050 2003/ 40025 54000
74044 88617 22253 00170 20705 32218 40807 50807 6//// 80040=
3FTR6 28004 99526 11673 41493 80104 ///// 10090 2005/ 40010 57015
70252 886// 22263 00050 20503 30128 40503 50402 6//// 80070 /////
/////=
ELVS2 28004 99450 11615 43697 83016 ///// 10080 2007/ 40190 54010
70222 876// 22224=
WGZK 28004 99226 11250 41398 61812 10270 2026/ 40100 52006 70241
81138 22253 0//// 20202 325// 40504 5//// 6//// 80265 ICE=
P3YR5 28004 99058 10959 41798 82810 10170 2014/ 40015 54000 70261
88421 22200 00300 21202 30000 4//// 5//// 6//// 80150 ICE=
SHIP 28003 99179 11322 41498 30816 10290 20264 40119 52015 70200
81801 22283 00290 20404 309// 40504 5//// 80271=
3FIQ7 28004 99394 11757 41592 92716 10220 20158 40178 56002 70542
896/7 92335 22224 00130 20404 40303 80180=
JFYD 28004 99106 11296 41498 31314 10285 20237 40087 52020 70311
82232 22283 00298 2//// 305// 40301 5//// 80250=
JJHU 28004 99051 11515 41396 70909 10240 20240 40111 52019 70226
8235/ 92355 22243 00290 20201 309// 40602 80240=
JCIR 28004 99250 11335 41298 22111 10250 20243 40127 53001 71515
81611 22244 00260 20303 311// 40403 5//// 80245=
JRZH 28004 99201 11363 41598 21008 10269 20257 40133 53006 70100
82801 22232 06277 20200 31116 40401 50501 80260=
JGQU 28004 99205 11413 41697 61416 10280 20253 40147 57009 70220
85223 22233 00290 20202 314// 40302 5//// 80260=
PCAW 28000 99225 11194 41397 51703 10275 20259 40110 52001 71511
83406 22214 00270 20301 30000 80263=
JPBY 28004 99195 11337 41698 21012 10270 20236 40124 52006 70200
81111 22261 00290 20302 313// 40603 80245=
OBS 28001 99304 11315 41497 82307 10215 40079 54000 75865 88671 22211
00255 20502 32100 40803=
ELJW2 28004 99423 11684 41697 82917 10115 20056 40117 54000 70222
88020 90000 22224 00100 20502 327// 40605 80085=
JDSS 28004 99300 11610 41697 81204 10206 20150 40223 51002 70222
8445/ 22222 00224 20000 33301 40704 50604=
3FQL9 28004 99409 11551 41/91 91612 10180 20156 40180 54000 74147
8//// 22214 00152 80165=
56079 11780 71802 10000 21010 36719 52003 69901 70070 82542
333 00151 31009 70048=
56144 11580 80000 10092 20076 36876 52012 69971 70060 885//
333 00301 70050=
56152 11580 80000 10020 20018 36342 52011 69961 78088 889//
333 00352 31019 70094=
56167 11580 71102 10077 20062 37103 52016 60031 72580 85440
333 00353 70025=
56173 11780 70000 10003 21013 36687 52008 69931 72680 87900
333 00251 31019 70119=
56182 11480 80000 10043 20024 37226 52012 69921 70060 885//
333 00100 30031 70063=
56257 11680 70402 10094 20031 36295 52011 69901 70080 86440
333 00101 30041 79999=
56357 32680 70202 10116 20044 36466 52010 87400 333 00102
79999=
56374 32480 70000 10073 20064 37432 52011 874// 333 05151
70018=
57707 11458 80000 10138 20121 38482 52009 69901 76000 887//
333 00152 70005=
57731 11459 80000 10219 20210 40097 52012 69971 76060 885//
333 00251 70009=
57832 11462 80202 10198 20192 40101 52016 69981 76060 887//
333 00251 70060=
57916 31658 80000 10223 20211 40087 52017 71000 885// 333
00200 70016=
57922 31440 83401 10189 20183 40102 52020 71000 886// 333
00200 70062=
57932 11219 80000 10225 20221 40089 52011 60041 71060 886//
333 00200 70045=
44210 32699 50504 10104 21021 38438 53014 83840 333 20073
555 30012=
44242 32998 73605 10185 20051 39172 40004 57001 84047 333
20130 55/// 555 30115=
44243 32599 70000 10137 20046 39266 40041 54000 87500 333
20105 555 30110=
44329 32998 41808 10126 20019 37724 40028 57002 82540 333
20115 555 30022=
53083 32980 02201 10120 20029 40111 52005 333// 00002 30008=
54226 32980 03204 10208 20021 40076 52012 333// 00007=
54311 32980 00401 10163 20056 40117 52007 333// 00204=
54534 32980 02903 10208 20147 40100 52014 333// 00105 70020=
54715 32965 62704 10202 20130 40117 52009 80002 333// 00203
70001=
54929 32965 72702 10188 20140 40132 52012 82032 333// 00651=
54945 32965 62504 10202 20122 40129 52012 80002 333// 00702=
57193 32970 81801 10203 20141 40139 52015 8807/ 333// 00551
79999=
57290 11960 80000 10203 20145 40131 52011 69901 72100 8807/
333// 00452 79999=
53195 32980 02204 10151 20027 40118 52008 333// 05103 30041
70010=
54624 32961 22902 10200 20142 40113 52018 80002 333// 00204
70014=
54774 32965 22712 10192 20125 40086 52020 80002 333// 00700
91122 91532=
58005 32966 80000 10203 20139 40134 52012 85037 333// 00500=
57127 11560 82901 10141 20136 39566 40160 52005 60141 76166
8672/ 333 00254 70255=
57046 11964 80911 10064 20048 37965 52003 60041 76066 8807/
333 00201 70043 91120 91509=
52645 32680 23401 10013 21009 36821 52002 81102 333 00001
31032=
56018 32980 70000 10036 20012 36215 52009 80008 333 00400
30016 70062=
53853 32967 80000 10164 20054 40141 52011 8801/ 333// 00106=
56066 36/// ///// 10013 21018 36644 4//// 52007
555 10030 2//// 3//// 40111 51001 60/// 7//// 80000
9//// ///// 1/020 2//00 30000=
53698 32970 63402 10241 20125 40119 52020 80002 333// 00006=
54405 32980 12204 10191 20084 40136 52017 81040 333// 00106
70003=
50774 31960 21401 10129 20084 39731 40020 57015 70040 80002
333 05600 30009=
50949 32968 02202 10187 20082 39879 40039 54000 333// 05402=
50442 32970 12201 10154 20035 49995 57001 81030 333 05600=
54587 22980 03203 10155 20119 40027 52012 333// 00402 70036=
50434 32980 03203 10140 20018 39177 40007 57002 333// 05701
30018=
50915 32980 02202 10170 20013 39136 40077 57003 333// 05105
30018 79999=
53149 32980 02002 10161 20012 38765 40104 52003 333// 05102=
53192 32980 02502 10104 20060 38872 40141 52003 333// 00101
30006 79999=
53336 32980 01101 10161 21013 38703 40106 52006 333// 05203
30044=
53391 32980 02502 10140 20037 38515 40141 52010 333// 00204
30028 70002=
53529 32980 71402 10148 21011 38624 40125 52005 80001 333//
05203 30025=
53543 32980 22004 10150 20003 38555 40141 52010 80002 333
00005 30048=
54012 32980 02204 10147 20043 38981 40097 52003 333// 05104
30039 70034=
54208 32980 00000 10125 20069 38745 40138 52004 333// 00203
31011 70008=
54776 32965 33210 10164 20130 30026 40083 52015 80002 333//
00601 79999 91118 91529=
52634 36/// /0000 10010 21008 36775 4//// 52002
555 10040 2//// 30123 41111 51011 60/// 7//// 80000
9//// ///// 1/114 2//00 30000=
54157 32970 20000 10191 20067 40048 52008 80002 333// 05204
79999=
54186 11670 70203 10130 20102 40017 52011 69941 70060 81502
333// 05552 70136=
54377 11670 72503 10170 20095 40033 52015 69971 70060 83502
333// 00052 70045=
54386 11570 82902 10126 20100 49986 52012 60031 76066 887//
333// 05501 70207=
54094 11660 70203 10146 20095 39722 40007 52004 60021 72166
875// 333 05702 70073=
54049 32970 02203 10201 20077 40052 52005 333// 05303=
54115 32980 02204 10170 20028 40106 54000 333// 00005 70004=
54161 32965 20402 10187 20107 39764 40040 52005 80002 333//
05202=
54292 11580 82903 10135 20111 39782 49992 52017 60091 76066
8672/ 333// 05655 70143=
54273 11580 73205 10156 20110 40034 52023 69921 70060 81102
333// 05251 70081=
57528 16/// /2000 10153 29756 37563 61430
555 1/135 2//00 30175 12100
11101 10100 10111 01110 1111/
/////
2//// 3//// 6//// ///// ///// 8//// 9//// ///// ///// //004
11101 11111 1011/
11111 110//=
45007 11368 72102 10291 20251 30084 40093 53018 60052 70182
84232 333 20272 58020 70045 81709 83820 86080=
45011 42465 71305 10282 20264 40098 52016 84231 333 20267
58021=
22001   28004 99281 11263
46/// /0109 10221 20191 40114 52014 8////
22200 06247 11102 70009 80201=
21004   28004 99289 11349
46/// ///18 10237 20227 40096 52003 8////
22200 06224 10703 70014 80230=
58015 32965 72902 10194 20139 40132 52018 8704/ 333 00651=
58102 32965 70000 10197 20140 30085 40134 52017 8707/ 333
00651=
58203 31958 83402 10189 20161 30092 40136 52011 71000 885//
333 00552=
58215 31958 80403 10198 20151 40133 52014 71000 8807/ 333
00500=
58221 31958 80402 10191 20159 30106 40140 52015 71000 8807/
333 00651=
58314 32962 80402 10213 20174 30049 40134 52018 8807/ 333
00501=
58321 32960 73602 10209 20170 40127 52012 8704/ 333 00401=
58338 31956 70000 10220 20197 40124 52015 71000 80002 333
00401=
58424 32961 73605 10232 20185 30095 40118 52013 8707/ 333
00401=
58437 32970 30703 10142 20096 38171 52007 83040 333 00403=
58531 32970 01102 10222 20188 40116 52013 333 00500=
54374 11668 72002 10153 20107 39634 40021 52016 69971 70060
8653/ 333// 05251 70081=
53487 32965 23201 10141 20095 40152 52013 81032 333// 00104
30048 70009=
47105 12565 62306 10226 20137 39949 49978 53006 69902 85501
333 20141 31024 70005=
47108 32963 62305 10178 20118 39929 40031 52015 86030 333
20142 31020 70078=
47115 42662 42303 10180 20174 39729 49980 52011 69912 83502
333 20147 30138 70147 92042=
47135 12662 82705 10159 20122 39755 40039 52017 60012 8452/
333 20157 31016 70014=
47138 12662 22506 10222 20132 30007 40010 52011 69992 82500
333 31025 70009 92033=
47159 32965 02308 10204 20159 39950 40029 52010 333 20175
30024 70009 92023=
47165 32564 63406 10164 20128 30034 40078 52018 86500 333
31019 70005 92023=
47184 32670 52705 10177 20125 30070 40097 52018 85500 333
20160 31024 92033=
23914 42499 82703 10145 20093 39828 40074 53006 8297/=
23921 42683 70000 10062 20053 39945 40061 57014 86501=
23955 11597 81202 10118 20118 39961 40020 57001 60072 71022
82539 333 20100 55070=
24641 32999 20102 10136 20045 39900 40031 58001 82030 333
20058 55008=
28440 42998 62801 10120 20086 39752 40084 58005 82036=
28748 42960 13202 10116 20088 39855 40083 53004 81040=
29231 32998 79901 10136 20099 39941 40030 57004 83031 333
20087 55150=
29838 32997 20000 10119 20110 39870 40090 53004 81001 333
20097 55072=
30372 31699 82201 10027 21018 39175 40012 56004 70242 8491/
333 21023 55002=
30673 31699 22907 10083 21005 39288 40014 57003 81101 333
20009 55092=
30823 32699 80000 10122 20034 39474 40070 52010 82932 333
20108 55145=
30935 32699 81201 10080 20030 39193 40084 52003 83440 333
2//// 55147=
30965 32699 63003 10142 20009 39263 40030 58004 82342 333
20069 55136=
31004 32598 80703 10073 20004 39158 49941 57009 8291/ 333
21003 55050=
31088 31398 81906 10022 20014 30085 40092 54000 70242 886//
333 20010 55054 88709=
31137 32599 40000 10018 20013 38989 49978 57032 84900 333
21021=
31300 11999 22202 10147 20059 39693 49954 57006 69902 70281
82030 333 20089=
31329 31999 01902 10096 20065 39368 49995 57022 70241 333
20042 55083=
31369 32998 80807 10161 20080 40039 57001 80002 333 20084=
31371 32999 12907 10132 20029 39737 49983 54000 80001 333
20085 55125=
31416 32699 13301 10162 20090 39930 40014 57015 81201 333
20051 55123=
31510 326// 53001 10204 20030 39810 49960 57021 82101 333
20084=
31594 32998 01702 10165 20088 39841 49998 57016 333 20101=
31707 32999 80000 10151 20093 39920 40006 57012 80001 333
20069=
31735 11497 70105 10143 20130 39903 49985 57017 60022 70282
84230 333 84813 20111=
31866 11597 80504 10092 20084 39968 49973 57033 60030 76186
8872/ 333 20075=
31873 11249 80302 10121 20118 39838 49956 57013 69950 76162
8872/ 333 20116 86706=
31909 11464 80000 10112 20103 39870 49943 57030 60060 76162
8672/ 333 20100 55067=
31960 11197 83611 10109 20124 39716 49937 53013 69192 76263
886// 333 20093 55011 91018 91118=
32053 31598 71203 10140 20050 30019 40059 57004 72522 8497/
333 20040=
32061 11598 81509 10132 20061 30007 40044 57010 69900 70282
86932 333 20089 86922 91017 91116=
32098 11296 80302 10071 20064 30073 40083 58014 60050 78082
889// 333 20065 88706=
32150 11496 80308 10062 20043 39966 49995 57030 69930 78082
8692/ 333 20058 91012 91113=
32165 11/01 91607 10092 20090 39978 40036 57033 69970 76065
333 20058 91110 96045=
BBXX/   28004 99463 11557
41/94 91205 10090 20080 40185 52005 74724 89/// 90000
22223 00035 1//// 2//// 3//// 4//// 5//// 6//// 80085=
VRVS5   28004 99360 11670
41598 73407 10180 2013/ 40215 52015 70322 877//
22223 00200 20302 332// 40302 80150=
3FRR5   28003 99097 11529
41498 40709 10300 20258 40108 50001 70210 84161
22234 04260 20402 307// 40402 80270=
JNZJ    28004 99270 11416
41198 91815 10230 20226 40149 57012 7//44 88617 92345
22243 00240 80240=
3FPW6   28004 99105 11180
41598 62807 10290 20233 40102 52010 70301 86236
22284 00303 20000 330// 40401 5//// 6////=
ELMA4   28004 99153 11428
41697 50915 10290 20246 40135 52020 70200 85233 92320
22234 00290 1//// 20301 314// 40301 5//// 6//// 80260 /////
BRGDS/MASTER=
98223 31562 31802 10295 20263 40086 52013 70544 81101 333
20245 56999 59014 81820=
98325 11462 31801 10276 20250 40078 53015 69964 70544 81231
222// 20000 333 20246 56999 59012 70006 81817 98308=
98429 11558 62902 10284 20242 40092 52008 6///4 70544 82830
333 20261 56999 59007 7//// 82823 85360=
98440 11468 80904 10294 20274 40082 53016 60034 71582 84237
333 20271 56229 59001 70031 84816 84358 88278=
98444 11465 70903 10287 20268 40089 52013 60094 70298 84338
333 20268 56999 58004 70092 82918 86270=
98630 11475 80000 10266 20258 40088 53017 60014 70288 842//
222// 20000 333 20264 56999 59001 70010 84820 88459=
02548 36/// ///// 1//// 2//// 38693 40181 52004
555 1//// 2//// 3//// 40001 50000 60/// 7//// 80000
9//// ///// 1/020 2//00 30000=
44207 32999 70000 10084 20019 38250 40068 54000 83026 333
20040=
44212 32999 60000 10141 20043 38989 40043 51006 83480 333
20095 55089=
44214 32698 73204 10078 20001 38212 40072 54000 83883 333
20070=
44231 32999 70000 10129 20015 38622 40034 54000 86042 333
20090 55100=
44232 32999 70905 10137 20050 38992 40048 52010 87070 333
20094=
44239 32999 72902 10125 20056 38688 40048 53001 84084 333
20060=
44241 32999 60000 10145 20059 39120 40031 57002 86040 333
20130=
44272 32698 70000 10101 20028 38143 40021 57003 83570 333
20077 55066=
44277 11597 82009 10075 20068 37770 40074 54000 69932 76162
885// 333 20040 91212 55///=
44282 32699 72702 10128 20004 38233 40045 54000 85802 333
20115=
44284 32599 60000 10103 21005 37836 40079 57008 83541 333
20036=
44287 32599 70000 10151 20032 38088 40046 54000 82542 333
20094=
44292 32999 70000 10148 21017 38609 40034 56007 80001 333
20094 55149=
44298 32999 41804 10165 21005 38643 40036 57011 80007 333
20094=
44304 32999 32307 10165 20027 38900 40037 57013 82082 333
20052=
44305 32999 22707 10192 20064 38987 40066 56002 80004 333
20106=
44341 32999 30000 10163 21012 38552 40063 54000 80004 333
20107=
44347 32999 62703 10179 20027 38659 40065 52003 80008 333
20120=
44352 32999 02707 10186 20019 38861 40056 58002 333 20123=
44354 32999 01404 10164 20035 39038 40063 58003 333 20100=
44358 32998 02506 10162 20088 39028 40106 54000 333 20090=
44373 32999 72305 10200 21017 38495 40061 53002 81084 333
20158 55136=
28661 42999 63102 10098 20095 39954 40043 57002 80001=
28679 41597 83203 10136 20127 39831 49998 57005 71011 8695/=
28879 41597 82402 10131 20106 39731 40000 57011 78082 889//
333 88929=
28952 42598 20000 10121 20093 39887 40072 53002 82501=
29023 12598 80301 10122 20106 39941 40031 54000 69902 85942
333 20104 55060=
29122 11698 79901 10144 20114 39953 40023 57009 69902 72522
83330 333 20135=
29807 41596 81903 10154 20143 39931 40041 57031 78088 87930=
30230 32699 82101 10040 20009 39815 40131 52002 83531 333
21002 55041=
30385 11571 82902 10007 20004 39475 49989 53002 60042 78182
8872/ 333 20004 43001 55081=
30650 32999 00000 10035 21039 39013 40087 52004 333 21056=
30710 42960 80601 10096 20051 39487 40083 53007 8807/ 333
20070=
31532 32999 00000 10156 20036 39687 40001 58024 333 20009
55129=
31829 11698 80416 10082 20070 39943 49974 58040 69930 70286
8692/ 333 20076 91018 91119=
31989 11484 82802 10125 20118 39829 49879 57003 60290 76166
8772/ 333 20084 88710=
35078 42799 62207 10102 20084 39687 40046 56001 84541=
35108 42997 72601 10141 20111 40157 57001 86031=
35188 41998 82405 10121 20105 39646 40055 54000 70282 80002=
35229 42997 00000 10104 20084 39875 40137 53002=
35394 41597 81703 10136 23111 39438 40074 58015 78082 84932=
35416 42997 03202 10148 20098=
35671 42598 80000 10170 20100 39696 40097 57002 889//=
35746 41598 60706 10194 20114 30022 40097 58007 70983 82351=
35796 42998 20302 10127 20081 39700 40112 57006 80001=
36003 42998 71902 10149 20129 39920 40063 57004 85930=
36859 42999 00703 10137 20021 39378 40118 53008=
36870 42998 01401 10115 20050 39142 40108 57010=
38198 42999 20202 10196 20036 82031=
38341 42999 51901 10127 20036 39337 40085 53002 80002=
44259 32998 41403 10197 20019 39205 40030 54000 80008 333
20100 55152=
44288 32899 72704 10174 20019 38131 40030 54000 87040 333
20141=
58968 31950 80000 10280 20243 30094 40101 51015 71022 8802/=
58974 11565 82704 10253 20243 39992 40109 51021 60322 79596
8492/=
59358 31756 61501 10286 20265 30094 40105 51015 71022 85541=
59559 32570 53001 10284 20247 30079 40107 52015 83401=
59997 32565 52303 10294 20275 30059 40073 57001 82208=
59158 11560 62201 10267 20255 30010 40108 51017 60022 72582
86400=
59562 32580 61602 10284 20250 30087 40098 51018 81106=
59567 32265 22506 10256 20243 39742 40111 52019 82101=
42361 31996 02702 10340 20191 49986 70600 333 58020=
42559 32997 02301 10294 20183 4//// 333 58///=
42647 32596 12701 10292 20231 40039 81500 333 58010 81625=
42667 32996 12905 10278 20167 39447 40018 81030 333 58008
81360=
42737 32996 02503 10276 20247 40027 333 58007=
42779 32997 22002 10320 20183 39329 49995 80001 333 58013
82075=
42809 21495 71605 10296 20271 40007 70562 84530 333 56490
58027 6994/ 84618 84360=
42867 32596 52302 10306 20189 40013 82831 333 58009 81625
84360=
42909 32596 12704 10292 20255 40032 81500 333 56500 58002
81620=
43003 21595 70000 10266 20246 40044 76505 85803 333 58006
6012/ 82620 83825 85170=
43014 22596 62703 10240 20220 39406 40045 83530 333 58010
6027/ 83620 85360=
43063 22596 70000 10233 20217 39430 40048 83530 333 58000
6008/ 83628 85356=
43117 22596 72701 10250 20244 40048 86430 333 58008 6001/=
43128 31596 42903 10264 20227 39448 40043 70522 82501 333
58016 82620 83070=
43185 32596 40000 10292 20267 30033 40036 82530 333 58009
82618 83360=
43189 32596 70000 10282 20239 30034 40043 82862 333 58001=
43233 32996 32705 10218 20203 39247 40052 80001 333 58002=
43245 32596 22302 10292 20255 30015 40037 82500 333 58008=
43279 32596 32302 10284 20253 30026 40043 81531 333 58006
81620 83075=
43284 21496 70902 10234 20228 39962 40079 70252 83610 333
58014 6028/ 82710 86458=
43295 22496 72306 10212 20188 39063 48474 86601 333 56609
58011 6990/ 85710 83615=
43321 31496 62303 10230 20209 39629 40076 70522 82531 333
58015 82615 83358 86070=
43344 21596 52706 10268 20211 39961 40060 70500 81532 333
58011 6998/ 81620 83360 85075=
44218 32998 40000 10121 20010 38480 40012 54000 80004 333
20080=
44285 32799 60000 10146 20041 38269 40038 54000 83083 333
20060=
44294 32998 73203 10143 20081 38488 40048 57008 80004 333
20036=
44314 32998 22710 10192 21078 39041 40042 57007 80001 333
20118=
47008 11556 80000 10148 20141 39912 49909 53022 60032 76066
8752/ 333 20116=
47014 12540 80000 10145 20121 39635 40012 52019 60112 885//
333 20137=
47016 11560 82704 10131 20100 39173 40001 52014 60132 76166
8802/ 333 20118=
47020 11560 80000 10149 20107 39679 40038 52020 69902 76066
8802/ 333 20140=
47035 32970 23404 10223 20073 30031 40039 52009 80001 333
20173=
47041 12570 82302 10185 20144 39956 49982 52024 69922 88530
333 20107=
47055 12556 62705 10198 20097 39952 49995 52017 60012 86500
333 20142=
47058 11966 13206 10192 20114 39986 40030 52011 69902 70161
81031 333 20169=
47069 32965 03205 10183 20115 39935 40029 52028 333 20147=
98550 11460 61802 10266 20258 40093 52020 60694 72584 83950
222// 20101 333 20249 56299 58009 70694 82915 84358=
98618 31575 82902 10262 20239 40089 53011 70544 82277 333
20248 56999 59002 82820 84358 88273=
98637 11470 80000 10265 20245 40097 53020 60464 70522 83278
333 20230 56999 58003 70460 83812 86358=
98836 11565 70901 10290 20253 40098 52028 69904 70544 82976
333 20254 56999 58009 79999 82920 83362 85081=
22550 41497 82704 10088 20080 30029 40039 53009 78082 889//
333 88917=
22768 41697 82304 10102 20056 30028 40082 58005 70282 889//=
22845 42698 22402 10094 20027 39964 40116 52009 81430=
26063 42997 30000 10093 20065 30144 40151 58002 81031=
26298 42997 00000 10089 20048 39952 40178 53008=
26477 42970 70000 10103 20071 30044 40169 57003 80001=
26702 41496 82502 10112 20106 30121 40146 52019 72582 885//
333 88616=
26850 42960 61502 10178 20107 39904 40165 58006 86030=
26997 42961 00000 10123 20093 39997 40212 52007=
27595 42997 53105 10150 20089 39998 40134 51002 82031=
27612 429// 00000 10094 20056 30009 40199 53017=
27947 42997 00000 10136 20125 30035 40189 52010=
27962 42997 62404 10152 20119 40172 51004 86030=
33008 42970 01603 10202 20128 39968 40137 58001=
34009 42997 20501 10153 20058 39899 40193 52006 82030=
34172 42960 32704 10195 20093 39995 40177 51001 80001=
34247 42967 00000 10117 20093 30081 40193 52001=
34391 32997 03201 10135 20092 30138 40168 54000=
37054 41697 60000 10145 20138 39804 40176 54000 70282 84460=
44217 32698 70000 10025 20025 37833 40192 54000 83573 333
21017 555 31021=
44263 32598 80000 10071 20011 38005 40103 54000 8792/ 333
20058 555 30035=
44286 32998 52905 10208 20038 38559 40007 54000 85070 333
20144 555 30080=
47003 11360 83205 10159 20121 39948 49952 53009 60142 76166
8802/ 333 20114=
47005 11440 83601 10083 20078 38478 52015 60052 76166 885//
333 20067=
47022 11465 83203 10114 20085 38693 52015 60012 76062 8757/
333 20080=
47028 32968 30000 10196 20104 39951 40040 52019 80002 333
20149=
47031 32570 83204 10107 20090 885// 333 20098=
47037 32970 73605 10216 20041 39907 40021 52015 80001 333
20167=
47039 12560 70000 10159 20143 39848 40029 52005 69902 86501
333 20143=
47046 11550 72701 10152 20143 39940 49963 52006 60032 71022
86530 333 20129=
47050 32965 22703 10183 20130 39983 40014 52011 80002 333
20149=
47052 12565 73203 10165 20098 39704 40023 52008 60022 85502
333 20148=
47060 11970 03207 10169 20122 39982 40037 52027 69902 70162
333 20152=
47061 32680 63203 10217 20134 39930 49972 52002 86500 333
20141=
47065 11965 03208 10171 20117 39981 40043 52009 69902 70162
333 20143=
47067 12565 23204 10185 20105 39918 40031 52026 69902 82500
333 20158=
47068 32970 03202 10187 20119 30010 40043 52001 333 20136=
47070 12570 22907 10177 20113 39947 40030 52011 60062 82500
333 20160=
47075 12575 62506 10153 20115 39611 40018 52013 60012 86500
333 20142=
42348 31996 03203 10306 20178 40002 70500 333 58027=
42369 31995 24951 10308 20257 49971 70621 80001 333 58022
82070=
42452 32996 02502 10322 20176 58017=
44203 32999 70000 10136 20013 38319 40017 54000 84016 333
20070=
44213 11598 80000 10121 20095 38660 40019 57003 69902 76122
885// 333 20109=
44215 32698 62705 10106 20019 38317 40038 53003 82864 333
20082=
44225 32998 70000 10085 20029 38199 40076 58001 84041 333
20040=
44230 32998 70702 10137 20036 38692 40047 53001 82088 333
20047=
44237 32999 71803 10119 20050 38403 40042 54000 83047 333
20065=
44256 32599 70000 10152 20061 39231 40030 56001 84510 333
20054=
44265 11999 82704 10112 20090 38790 40114 53004 69902 70262
8807/ 333 20105=
44275 32598 70000 10098 21005 37690 40036 57006 85502 333
20041=
44302 32999 22704 10167 21019 39007 40037 54002 81082 333
20052=
44313 32699 33203 10179 21007 39260 40033 54000 82180 333
20064=
44336 32999 42309 10192 21050 38618 40119 54000 84063 333
20160=
23074 32998 01004 10031 21020 30107 40131 57002 333 21007
42025=
23711 41468 61701 10091 20085 39906 40073 52007 70282 82431=
23804 42699 71701 10097 20067 39934 40077 57006 82930=
24125 32599 83405 10012 21002 39845 40117 52003 85531 333
21000 42002 55028 86623=
24143 32999 63607 10026 21007 30002 40049 52008 86070 333
20017=
24343 32799 63603 10066 21014 39922 40034 57005 81130 333
20059 55014=
24738 32699 73303 10090 20043 39875 40046 52005 82531 333
20063 55135=
24951 11699 80000 10085 20064 39843 49986 56003 69902 70262
8257/ 333 20051=
24959 32599 80503 10126 20058 39872 49992 57005 83531 333
20072 55149 11016 31000 7000/=
24966 31498 81003 10086 20076 39787 49991 53008 78082 8692/
333 20065 55057=
29313 32998 80000 10093 20078 39910 40026 57009 80002 333
20078 55146=
29612 32998 61201 10146 20111 39892 40033 57015 80004 333
20141 55134=
29698 32698 80901 10084 20050 39609 40096 52001 82942 333
20039 55130=
30758 32999 20000 10086 21012 39279 40058 80001 333 20021
55143=
32027 31598 81804 10104 20088 30046 40054 58004 78082 889//
333 20065 88926=
35406 42997 00201 10151 20088 40186 52003=
38062 42999 50000 10180 20055 80004=
38232 42998 00000 10215 20051 30002 40094 53010=
38388 42998 00000 10145 21030 39995 40069 53005=
38413 429// 00000 10183 20036 39949 40063 53004=
38457 42999 60701 10169 20081 39489 40046 57018 84042=
38507 42996 00000 10179 20106 39972 40070 52001=
38545 42998 52502 10185 20103 39886 40053 52001 85080=
38656 42998 20601 10232 20027 39954 40056 52022 82030=
38687 42996 23403 10166 20074 39805 40029 95700=
38880 429// 03103 10236 20094 39713 40068 52010=
38895 42997 00102 10198 20056 3//// 4//// 5////=
38927 32997 00205 10202 20062 39663 40017 57007 84070 333
10019=
38974 429// 02903 10232 21002 39709 40021 52009=
VRVY5   28003 99135 11278 41498 40809 10290 20263 40070 54000 70222
832// 22274 0//// 20302 320// 4//02 80270=
98135 31470 41402 10272 20270 40099 53010 70544 84204 222//
20401 333 20266 56299 58005 84818=
98329 11475 20902 10297 20244 40086 5/009 60124 70544 81901
333 20247 56999 58003 70121 81915=
20046 42579 62404 11055 21085 30184 40212 54000 84530 333
84620=
20069 11974 73603 11062 21085 30189 40202 58002 69922 70272
8703/ 333 21063 44037 55000=
20087 11864 83504 11047 21057 30184 40195 54000 69902 77172
8807/ 333 21048 44038 55023=
20292 32480 70000 11006 21018 30175 40194 52001 875// 333
21015 42/// 55000 87511=
20667 41496 80905 11021 21030 30138 40146 57006 78582 889//
333   91106=
20674 42378 81105 11026 21045 40146 57010 886// 333 88709=
20744 42998 10509 11020 21070 30132 40150 58001 81030 333   91111=
20891 32397 89902 11005 21017 30140 40182 54000 886// 333
21007 41/// 55010 88708=
23022 41396 80303 11014 21022 30022 40082 58014 71087 886//
333   84610 91106=
23032 41350 82302 11018 21024 30037 40069 57007 71042 886//
999   88708 91106=
29328 32998 61201 10111 20085 39916 40048 57003 82031   333 20064
55142=
29348 12997 11801 10148 20103 39918 40053 56003 69902 80001   333
20133=
29405 11597 80802 10135 20124 39884 40021 57018 69972 70282 8537/
333 20120 55115=
29937 32997 22103 10134 20113 39875 40082 54000 82030   333 20132=
43192 21496 80902 10246 20245 40056 76396 8572/ 333 58008
6009/=
22113 41262 80205 10019 20016 30015 40077 52024 75185 886//
333 91007=
22271 41907 50803 10006 20003 30019 40029 53019 74444 85030=
22522 42599 72905 10085 20070 30051 40060 52021 86530=
22820 42999 02404 10091 20023 39987 40122 52014=
22887 42570 69901 10097 20032 30028 40096 53007 82531=
26781 42997 00000 10088 20071 39917 40206 53004=
27037 42998 22503 10108 20036 39995 40152 53009 80001=
33345 42970 00000 10189 20146 30003 40200 52004=
33393 42960 00000 10144 20114 39785 40164 54000=
33658 42997 00902 10170 20111 39884 40172 54000=
33791 42997 00305 10177 20109 30044 40191 54000=
33837 42999 03201 10184 20099 30136 40185 58002=
33946 42959 01004 10144 20092 39968 40183 56002=
34300 42997 00000 10165 20127 30015 40198 54000=
34560 42962 00000 10160 20081 30029 40189 54000=
34691 42998 00000 10136 20065 30179 40167 5/014=
34866 42992 00602 10153 20090 40178 19004 86030=
34880 42997 40102 10155 20110 40163 52002 80001=
37472 42970 52804 10189 20156 30169 40147 58005 85080=
48325 11220 80000 10240 20228 39839 40083 69924 71022 886//
333 20233 58001 70002=
48352 32562 70000 10273 20256 39868 40065 83506
333 20263 58009=
48357 31559 50000 10280 20257 39906 40073 71010 83505
333 20260 59010=
48403 32560 12401 10260 20237 39868 40077 81501
333 20256 59007=
48405 32561 40000 10285 20252 39909 40070 82505
333 20278 58006=
48425 12562 50000 10268 20239 30061 40071 60034 81506
333 20260 59003 70026=
48426 32560 30000 10261 20248 30059 40073 80005
333 20256 58006=
48430 32560 50000 10270 20249 30065 40073 82246
333 20255 58003=
48450 12560 20000 10256 20233 30042 40075 60104 81145
333 20252 59002 70100=
48459 32962 10000 10289 20251 30076 40079 81040
333 20277 58005=
48550 32560 20000 10275 20239 30082 40087 81943
333 20262 58000=
48551 11562 20000 10240 20233 30082 40090 69904 70210 82946
333 20236 58001 79999=
48565 01460 60000 10263 20254 30075 40086 60094 70196 82357
333 20241 58001 60077 70091=
48568 32461 30000 10263 20241 30083 40091 81141
333 20256 58010=
48569 32460 60000 10246 20236 30053 40093 81246
333 20243 58008=
96011 32458 70000 10244 20235 30066 40089 5//// 84323
333 20244 50830 55/// 56000 57801 59001 82818 82619=
96109 11420 70000 10237 20231 30052 40091 53008 40424 71022 84572
333 20226 50504 55059 56000 58004 84612=
96145 32467 41703 10258 20234 30081 40087 5//// 82201
333 10250 50440 55048 56400 57843 58007 82817 83070 80859=
96509 32458 60000 10264 20247 30083 40090 52010 82271
333 20250 50530 55078 56000 57802 58003 82817 80857=
96607 32562 12701 10252 20234 30102 40116 57005 81130
333 20228 50260 55021 56000 59002 81820=
96739 11520 30000 10244 20239 30052 40101 52010 69904 71021 81532
333 20238 50250 55046 56000 58011 81630=
96881 31560 52304 10258 20229 30108 70511 82171
333 20202 56400 58000 82820=
96925 32465 0903= 10282 20246 30105 40112 52023 84232
333 20244 50530 55093 56200 57820 58011 84817 80860=
96947 11456 60000 10204 20198 39516 40132 70522 84231
333 20202 56000 58003 80712=
43371 22596 60000 10240 20222 30014 40087 83870 333 58012
6995/ 82620 84460=
48327 12662 30102 10244 20223 39712 40067 60014 81541 333
20233 58004 70013=
48331 11458 80000 10245 20238 39841 40071 60524 71022 8457/
333 20233 58002 70524=
48353 32562 20000 10249 20233 39777 40066 81105 333 20240
58003=
48356 32562 60000 10270 20252 39873 40067 84536 333 20265
58009=
48375 11558 60000 10240 20230 39842 40068 69944 71022 82536
333 20234 59003 70004=
48378 32560 20000 10265 20245 30012 40064 81505 333 20255
58002=
48381 32960 20000 10269 20249 39846 40067 80001 333 20258
58007=
48407 31559 50000 10270 20251 39927 40068 71021 82241 333
20269 59009=
48431 32960 10000 10269 20238 39863 40075 80001 333 20254
58005=
48432 31956 10000 10270 20244 39906 40072 71000 80001 333
20261 58005=
48455 12962 10000 10276 20242 30075 40080 69944 80001 333
20267 58005 70004=
48456 12560 42004 10284 20254 30064 40081 69904 81835 333
20262 59004 79999=
48480 11558 40000 10272 20259 30080 40084 69914 71011 82235
333 20260 58005 70001=
48500 12562 30000 10265 20243 30070 40076 60034 81105 333
20256 59004 70029=
24266 32699 63506 10045 21026 39913 40081 52003 84530 333
20024 55141=
24329 32699 83502 10068 20024 39800 40085 54000 84501 333
20008 55056=
24382 32698 83303 10020 21034 39884 40127 52004 885// 333
20003 55143 86637=
24507 32998 50000 10024 21022 39912 40142 51001 82031 333
21022 55012=
24688 11698 61202 10119 20030 39187 40031 58007 60020 70242
84231 333 20036 30003 55039=
24908 32682 62101 10001 21025 39820 40144 52003 83530 333
21025 55088=
24944 32699 83604 10099 20055 39724 49995 52007 84537 333
20064 55100=
29594 32999 20901 10087 20030 39733 40099 53005 80001 333
20016 55077=
29634 32957 01603 10154 20121 39858 40064 56001 333 20124=
29676 32698 20000 10076 20058 39682 40086 53004 82500 333
20042=
30054 12998 32704 10069 20028 39859 40088 52006 60022 80001
333 20032 55021=
30393 11599 62105 10052 20020 38948 49931 52001 60032 70282
86900 333 20036 85922=
30433 32699 13502 10086 21050 39736 40103 52005 81500 333
20017 55113=
30469 32699 22703 10084 21067 39305 40018 58012 82201 333
21058 55045=
30521 32998 00000 10040 21015 39611 40142 52004 333 21024
55122=
30554 32998 03305 10067 21050 39019 40058 58001 333 21062=
30603 32598 80101 10110 20013 39550 40087 52005 82901 333
20076=
30612 32599 72903 10056 21002 39590 40103 52005 83931 333
20035 55137=
30635 32999 00505 10080 21005 39550 40096 52008 333 20030=
30664 32999 12704 10072 21054 39108 40045 54000 80002 333
10192 21065 55090 91124=
30692 11599 23204 10084 21012 39514 49981 54000 60012 70241
81130 333 20026 55100=
30802 11799 80000 10103 20043 38620 48420 58003 69902 70182
83531 333 20099 55127=
30879 32999 02802 10130 21002 39305 40013 58005 333 20051
55135=
30925 32699 83505 10161 20029 39142 40034 53002 85932 333
20153 55140 85934=
35700 42998 00403 10133 20095 30174 40147 52008=
35925 425// 60203 10216 20125 30011 40114 52010 86500=
36034 32998 81504 10132 20103 39835 40093 57002 80001 333
20127=
36061 11699 80000 10131 20122 39717 40100 52004 60202 72598
885// 333 20125 55064=
36982 42999 01802 11033 21065 36520 47078 54000=
38001 42997 50216 10204 20181 30129 40107 54000 85030=
38353 42998 00801 10114 20073 39209 40077 57004=
38392 42997 60103 10186 20077 39972 40069 57001 86050=
38613 429// 00202 10179 20111 39214 40065 56001=
38696 32999 71601 10170 20084 39232 40042 58003 84073 333
00011=
38750 42597 52506 10215 20182 30103 40076 54000=
NRPN 28004 99565 71640 41497 83209 00/// 10044 2000/ 40259 55003
70222 88/// 22213 00072 20301 333// 40201 5//// 6//// 80033 /////
/////=
ELJE3 28004 99450 51507 41497 82335 10110 2011/ 40190 57050 70222
885// 22223 0008/ 20403 323// 41004=
SHIP 28004 99109 31390 41/97 41418 10280 40113 70202 222// 20203
311// 40404=
VRVS5 28004 99360 11670 41598 73407 10180 2013/ 40215 52015 70322
877// 22223 00200 20302 332// 40302 80150=
3FRR5 28003 99097 11529 41498 40709 10300 20258 40108 50001 70210
84161 22234 04260 20402 307// 40402 80270=
JNZJ 28004 99270 11416 41198 91815 10230 20226 40149 57012 7//44
88617 92345 22243 00240 80240=
3FPW6 28004 99105 11180 41598 62807 10290 20233 40102 52010 70301
86236 22284 00303 20000 330// 40401 5//// 6////=
KMJL 28003 99336 71190 41997 03310 10194 2019/ 40095 57015 70008
8////=
KAOU 28004 99185 71527 41298 30812 10240 2023/ 40170 54000 70200
83200 22233 00250 20101 308// 40202 80220=
WXBR 28004 99230 71579 41598 70916 10272 2018/ 40190 54000 70222
868/8 22284 00233 20201 33210 41303 50802 6//// 80211 ICE=
3FOA6 28004 99365 71230 41997 13120 10170 2010/ 40175 54000 70111
80001 22273 00140 2//// 3//// 4//// 5//// 6//// 80130 ICE=
CG2958 28004 99488 71256 41397 82015 10107 2009/ 40106 52033 70262
8587/ 22232 20502 32117 40605 50702=
3FFS6 28004 99530 71457 41/98 /2820 10120 2004/ 40160 54000 70200
8//// 22265 00012 20303 31619 40608 50608 6//// 80080 ICE=
WTEC 28004 99542 71584 41598 63116 10061 2002/ 40226 52020 70222
861// 22233 00075 20203 330// 40804 5//// 6//// 80040 ICE=
WRJP 28004 99250 71492 41497 50320 10250 2022/ 40180 57010 70222
855// 22200 0//// 20303 330// 40804 5//// 6//// 80228 ICE=
LADB2 28004 99500 71592 41797 43315 10090 2007/ 40270 54000 70322
83151 22223 00080 20201 3//// 4//// 5//// 6//// 80080 ICE=
DAFE 28000 99070 71206 41499 60902 10258 20240 40072 57005 72582
85/98 22224 00278 20100 399// 4//05 80245=
WTEJ 28004 99435 71246 41497 72416 10146 2013/ 40173 50002 71522
8632/ 22200 00138 20202 326// 40304 5//// 6//// 80135 ICE=
DGRF 28004 99454 71402 41498 13619 00099 80057 10078 40192 54000
70100 8116/ 22265 20602 336// 40606 5////=
PDHU 28000 99516 11676 41398 72705 10040 20027 40002 55010 70142
875// 22254 00030 20302 31219 40606 50504 80034=
ELWG9 28001 99460 11782 41/90 /1915 10094 20058 40080 56010 71244
8//// 22225 00073 20804 314// 41505 80076=
VTXL 28003 99079 10719 41396 72925 10260 20170 40116 57014 70118
8422/ 22273=
UIH 28000 99494 11406 41997 90502 10084 40034 57013 76122 89/// 22253
00060 20000=
C6CE7 28004 99445 71565 41598 40313 10110 2007/ 40290 52015 70111
84163 22223 00130 20402 304// 40402 5//// 6//// 80090 ICE=
SHIP 28001 99289 70785 46/// /1903 10265 40178 90020 22200 00270
10801 70006
333 91204=
SHIP 28001 99606 71468 46/// /3005 10114 40097 90020 22200 00099
10801 70004
333 91206=
SHIP 28004 99281 11263 46/// /0109 10221 20191 40114 52014 8////
22200 06247 11102 70009 80201=
SHIP 28004 99289 11349 46/// ///18 10237 20227 40096 52003 8////
22200 06224 10703 70014 80230=
A3CA 28003 99047 11291 41297 62508 10280 20237 40081 55005 70522
84498 22263 00320 20302 308// 40302 5//// 80250=
VNW4455 28003 99096 31228 41398 72009 10277 20251 40120 5//// 70222
82248 22231 02276 20201 31521 40401 50702 80259=
SHIP 28004 99091 31356 41/97 31422 10285 40112 20222 222// 20402
314// 40404 5////=
GQHC 28003 99457 51489 41497 82525 10087 20063 40156 57050 70222
885// 22224 04107 20604 3//// 4//// 5//// 80075=
JMMU 28004 99351 71382 41597 80302 10154 20127 40233 50001 78082
8282/ 22223 02170 20000 330// 40601 80138=
ELMA4 28004 99153 11428 41697 50915 10290 20246 40135 52020 70200
85233 92320 22234 00290 1//// 20301 314// 40301 5//// 6//// 80260
/////=
SHIP 28004 99463 11557 41/94 91205 10090 20080 40185 52005 74724
89/// 90000 22223 00035 1//// 2//// 3//// 4//// 5//// 6//// 80085=
DNMR 28000 99321 71260 41195 83210 10171 20150 40192 52008 75250
886// 22274 00178=
OYDM2 28004 99507 71321 43397 83321 10116 2007/ 40058 52040 7////
8872/ 22275 00096 20505 3//// 4//// 5//// 6//// 80090 ICE=
NOYK 28004 99314 71256 41897 70117 10178 2015/ 40165 51009 71122
86240 22263 00156 20202 302// 40403 80161=
PCKU 28003 99262 11320 41094 12003 10241 20240 40129 56006 71240
81/// 22273 04235 20201 318// 40402 80240=
VRVA 28004 99366 11574 41398 62114 10185 20170 40215 50015 70211
8224/ 22215 00160 20201 306// 41006 80175=
PGDM 28000 99078 10706 41398 72308 10283 20239 40082 57002 71322
832// 22225 00293 20403 80251=
4XGS 28004 99259 11714 43798 30811 10270 20240 40220 54000 7////
83100 22264 00263 20302 305// 40403 5//// 80250=
WBWK 28003 99235 71515 43498 60615 10272 2024/ 40198 56012 8644/
22253 20202 306// 40805 80250=
MZNX7   28003 99103 10736 41497 80817 10263 20242 40069 53007 70282
7580/ 22234 030120403 321// 30614 70250=
VRVN6   28004 99252 11327 41497 82312 10248 20244 40121 58010 70342
8899/ 22265 00250 20503 304// 40603 80245=
03026 11484 83103 10072 20057 49982 57004 60011 70262 8387/ 333
81818 83645 88462=
03171 11682 82702 10073 20050 49977 51005 69901 70262 8157/ 333
81637 85357 87462=
06660 36/// /3203 10084 20065 39477 40148 57027=
08284 32965 23302 10190 20163 30110 40183 58001 80001=
08314 32962 02502 10162 20126 30078 40180 58007=
08515 32470 62802 10180 20167 30158 40279 51007 81802
333 81816 86070=
08538 32870 13303 10150 20140 30189 40219 52005 8////=
11782 11565 80205 10133 20114 39871 40179 50005 69921 70281 885//
333 55128 88630=
12882 32970 01201 10179 20132 30025 40154 53002=
15480 32960 00000 10166 20166 30183 40199 58002 333 92417=
17038 11558 71002 10174 20159 40154 56004 60051 78088 86750
333 83720 85830 87359 92436=
02186 42989 30501 10066 20035 30056 40082 50001 80005 333
83270=
02226 41460 81204 10064 20059 39540 49987 57040 76022 8572/
333 85710 88560=
02464 46/// /2302 10096 20079 30056 40072 51019=
02590 46/// /2304 10098 20082 30047 40109 51019=
02836 11370 83401 10028 20016 40085 51013 69901 70262 886//=
02935 47984 80000 10049 20031 40109 57007 70000 88/// 92350=
03005 11470 80110 10082 20066 49907 57007 60051 72162 885//
333 82712 87630 90710 91128=
03772 11250 81203 10092 20084 49995 58050 60031 76386 885//
333 81703 83715 88635=
03917 11582 21402 10051 20028 49990 57002 69901 70381 82500
333 81620 94457 96480=
03953 11575 72703 10086 20050 39989 40025 50003 60021 78082
873// 333 87925 92438=
04018 42589 43607 10058 20029 40093 57003 82106 333 82825
84070=
04077 41250 83605 10020 21002 40104 57015 76166 886//=
04320 32989 12805 11014 21049 30130 40145 56002 81070=
04360 32989 50000 10018 21011 30071 40136 56016 82048=
06610 35966 01902 10080 20064 39565 40147 57016=
07149 01468 82007 10127 20076 39956 40063 58040 69921 72162
8657/ 333 69927 81618 86640 88359 91127=
07510 01660 82603 10132 20106 30054 40127 55011 69901 76062
8457/ 333 69907 84643 87359=
07650 36975 21603 10156 20108 30116 40154 53003 82075 333
82075=
07761 32460 72002 10184 20155 30155 40166 58002 875// 333
84613 84636 95090=
08509 32861 43103 10184 20145 30196 40261 51005 82031 333
82358=
10385 32983 01402 10086 20060 30096 40158 58001 333 55300=
10637 32975 60201 10110 20048 39999 40135 58021 86030 333
55300 86363=
10870 11680 70901 10105 20092 39642 40170 58026 69901 76062
8157/ 333 55300 81633 83358 86462=
16560 31462 53303 10170 20150 30164 40171 53005 71011 83630
92345 333 82715 83359=
17609 32982 03403 10205 20994 30106 40108 57011=
12330 11960 72002 10116 20103 30069 40176 51010 69971 72186
8707/=
12375 32970 53203 10170 20148 30018 40144 51021 85030 333
91114=
12843 35/82 /3403 10199 20136 39983 40146 52007=
13272 32980 01403 10216 20118 30018 40132 54000=
58974 11565 82708 10253 20243 39992 40109 51021 60322 79596 8492/=
58968 31950 80000 10280 20243 30094 40101 51015 71022 8802/=
59158 11560 62201 10267 20255 30010 40108 51017 60022 72582 86400=
59358 31756 61502 10286 20265 30094 40105 51015 71022 85541=
59559 32570 53001 10284 20247 30079 40107 52015 83401=
59562 32580 61603 10284 20250 30087 40098 51018 81106=
59567 32265 22511 10256 20243 39742 40111 52019 82101=
59997 32565 52306 10294 20275 30059 40073 57001 82208=
42492 21496 31402 10240 20210 49991 70560 83500 333 58033
6990/ 83620=
42634 32596 22305 10280 20246 40023 82500 333 58010 81620=
42675 31996 12301 10302 20154 40002 70544 81030 333 58008
81360=
42754 32996 02907 10256 20187 39412 40034 333 58009=
42895 32496 51803 10286 20264 40003 83630 333 56490 58014
81712 82620 85360=
42971 31496 72308 10288 20271 40014 70522 86630 333 58013
86712=
43198 22496 72002 10210 20198 39240 40064 82538 333 56699
58007 6009/ 82612 84358 87270=
43201 22496 72502 10222 20208 39343 40059 84632 333 56699
58007 6002/ 82712 83618 85075=
43329 32996 22301 10272 20212 30037 40050 80001 333 58009=
43353 22496 74952 10240 20237 40096 8487/ 333 56799 58023
6005/ 83614 87458=
43369 21596 82702 10250 20247 40081 76066 8442/ 333 58019
6031/ 82620 88458=
23256 42699 81202 10034 21007 30046 40079 57009 8457/=
23274 32998 21205 10052 21023 30080 40118 58004 80001 333
20029 42002 55174=
23330 32998 80701 10082 20059 40072 57004 82503 333 10123=
23383 32999 20202 10023 21064 39805 40148 54000 80001 333
20001 42013 55104=
23472 32999 70904 10074 21030 30058 40104 57004 80001 333
20045 55182=
23552 42997 20501 10075 20011 30029 40062 57001 81031=
23631 42999 80000 10069 20062 30017 40057 57006 80001=
23678 32598 70603 10091 21038 30017 40073 57002 85540 333
20075=
23734 42998 20000 10102 20030 39977 40064 57004 80001=
23849 41996 20303 10128 20124 40023 57003 71000 80001=
23884 11568 80801 10052 20040 39997 40068 57006 60012 76186
8352/ 333 20048 55137=
23891 32698 60000 10030 21008 39803 40125 58002 86500 333
21014 55083=
23966 12597 80000 10112 20109 39924 40042 54000 60012 85932
333 20105 55045=
25400 32599 83404 10022 21018 30104 40158 54000 885// 333
21005 55143 88621=
28275 42999 83403 10136 20127 39962 40020 57008 81302=
28382 41498 83301 10137 20133 39937 40003 57010 72586 8597/
333 85915=
28493 41598 81103 10140 20132 39927 40013 57018 78082 8697/
333 86930=
28573 41457 83304 10127 20115 39904 40001 57010 76186 8672/
333 86709=
28698 41398 81503 10148 20135 39842 49985 57021 70262 85731=
28722 42697 51402 10142 20086 39996 40120 58002 82101=
28786 41598 82002 10136 20127 39842 49988 57019 71586 86302=
29253 32599 70000 10115 21086 39890 40053 57011 82331 333
20097=
29263 32698 71402 10092 20017 39970 40066 57014 82231 333
20042 55093=
29282 32598 72502 10061 20022 39944 40106 54000 86930 333
20007 55163=
29430 32998 21901 10134 20086 39896 40061 54000 80001 333
20132 55137=
35067 41997 8//// 10110 20106 39800 40062 53002 76161 8802/=
35121 42998 22402 10123 20089 30002 40143 54000 80002=
38763 42997 01804 10251 20139 39964 40062 52006=
38911 42998 60603 10218 20068 39728 40003 56001 86030=
38987 429// 02301 10198 20036 39335 40036 52030=
24817 42599 73402 10073 21041 40036 56004 85930=
40356 32960 00305 10190 21010 39134 48473 333 58011 555 04410 50058=
40375 32960 03504 10220 20040 39236 40065 333 58014=
40405 32960 03002 10280 21010 39295 49975 333 59012=
40416 32960 03406 10285 20080 39975 49994 333 58000=
40439 32960 02804 10253 20200 30026 40038 333 58010=
40703 32960 00000 10122 20079 38877 40082 54000 92345 333=
40785 32960 00000 10242 20024 38967 40002 54000 92350 333=
41036 32960 02702 10240 20020 38525 48472 333 58001 555 04410
50005=
41136 32960 00805 10280 21070 39243 40006 333 58025=
41196 31956 02003 10251 20220 39954 49992 70600 333 59007=
41216 32960 02503 10276 20226 39992 49996 333 58000=
41256 31957 00000 10289 20276 39969 49978 70500
333 59002 =
41268 32960 02311 10338 20217 39968 49983 333 58000=
22845 42698 22402 10094 20027 39964 40116 52009 81430=
23205 41470 80902 10029 20024 30003 40018 57001 72162 885//   333
88610=
23219 42998 80705 10048 20029 39910 40012 56002 85037=
23418 41970 62403 10107 20090 39965 40036 54000 70282 85061=
23711 41468 61701 10091 20085 39906 40073 52007 70282 82431=
23804 42699 71701 10097 20067 39934 40077 57006 82930=
27707 42971 00000 10118 20073 39925 40211 52006=
27962 42997 62404 10152 20119 40172 51004 86030=
28711 42998 82404 10156 20085 39773 40128 57006 84031 11012=
34391 32997 03201 10135 20092 30138 40168 54000=
35121 42998 22402 10123 20089 30002 40143 54000 80002=
06011 32582 73207 10063 20016 39935 40003 57008 87500 333
87623=
06180 11570 22007 10104 20079 30111 40117 52006 69941 70281
81801 333 81820 91131=
07110 01460 73106 10093 20077 39899 40013 53065 60191 70362
875// 333 60017 84612 86620 91147=
08001 11358 81905 10148 20126 30054 40134 55005 60061 75886
8572/ 333 924/6=
08221 32960 32504 10171 20035 39505 40172 52004 80001=
08306 32565 30401 10128 20113 30183 40189 52001 81531=
08495 32970 22505 10194 20137 40193 52006 80002 333 82075=
08589 32470 30507 10218 20179 40148 83500 333 58000 83610=
08594 31459 60208 10215 20165 40152 70622 8651/ 333 59013
86613=
10338 32980 51402 10103 20051 30046 40118 58013 82081 333
55300 82365 84075=
16242 31859 30000 10183 20176 30159 40162 54001 71000 83030
333 83357=
16320 31560 60000 10224 20130 30132 40144 51002 70211 83510
92345 333 83630 86457=
16420 11597 60202 10210 20164 30078 40142 58002 69921 70162
82570 92345 333 82625 85359 90940 96460=
16597 32458 60309 10200 20181 30031 40116 50002 85501 333
82615 85620=
16716 32965 23203 10222 20120 30128 40146 56006 80001 333
90730 91110=
16734 32565 20000 10190 20126 30078 40140 51001 81204 333
90730 91110=
16754 32965 00000 10180 20135 30091 40138 56003 333 90730
91105=
17060 32960 00104 10172 20147 40163 58008=
17128 32970 00000 10094 20060 39088 40152 57006=
17170 32970 00000 10076 20038 38316 48484 54000 333 10097=
17200 32970 03006 10170 20098 39167 40101 54000=
11518 11984 72103 10104 20067 39745 40180 58007 69901 70286
87070 333 55077 83359 87360=
15420 32960 00000 10116 20113 30071 40180 52002 333 91001
91201=
15614 31998 01603 10162 20080 39490 40171 54000 70200=
21908 32999 30204 10065 21022 30055 40132 58011 80002 333
20020 55012=
24982 32598 81801 10073 20027 39601 40075 52004 889// 333
20038=
28255 42999 02803 10100 20092 39937 40060 54000=
28642 42997 32804 10110 20077 40085 52001 82031=
29557 32998 62002 10142 20098 39822 40070 55001 86050 333
20086 55103=
29822 32997 10000 10147 20111 39915 40068 57004 80004 333
20111 55095=
29846 32997 81702 10114 20112 39723 40087 53013 85031 333
20110=
30777 32999 02104 10094 21050 39427 40041 58002 333 20006
55117=
31174 17038=
31263 32599 80000 10065 20039 39444 49991 58030 889// 333
20009=
31624 32999 60000 10166 20090 49996 58024 80001 333 20023=
31832 11450 83601 10135 20117 39889 49969 57016 69940 71022
8552/ 333 20115=
31913 11898 83602 10112 20081 39883 49988 55009 60032 76062
8862/ 333 20109=
36087 32699 50902 10122 20055 40182 52003 82102 333 20073
55057 95000=
36096 32999 72702 10140 20065 40031 52012 84032 333 20131
55090 95000=
36103 11699 80000 10154 20062 40055 52012 69952 70282 84407
333 20110 95000=
36231 11599 80000 10098 20084 39153 40105 53003 60022 70282
884// 333 20096 88627=
36259 11599 82601 10061 20056 38172 48435 52010 69962 72582
86902 333 20057 55060 86929=
36974 42998 00901 10076 20025 37955 48490 57005=
42131 32996 02301 10344 20185 49975 333 59029=
42182 31994 02705 10348 20190 49970 70700 333 58017=
42189 31595 60902 10300 20240 49963 70522 82531 333 58016
82630 84360 86070=
42328 31994 02307 10266 20240 49999 58029=
42339 31995 02702 10294 20220 40008 58026=
42379 21595 50901 10240 20216 49970 70296 83520 333 58010
6010/ 83620 85458=
42571 32997 10000 10312 20154 49985 80001 333 58011=
42798 31595 40000 10300 20249 49988 70510 82530 333 58015
82620 84360=
43041 22596 60000 10248 20222 39430 40037 83530 333 58008
6994/ 82625 85360=
43110 22596 61401 10240 20228 40060 83570 333 58013 6023/
83620 83356 86456=
43314 21596 70701 10240 20234 40090 70365 82470 333 58020
6015/=
44416 42670 10000 10204 20193 39243 49962 81100 333 58021=
44438 41550 60000 10222 20210 39870 49992 705// 82470 333
58017=
44454 41356 80000 10181 20177 38580 48420 79598 8492/ 333
58010=
44477 41056 80000 10198 20186 38743 48456 721/2 888// 333
59027=
91165 12866 60606 10272 20194 30128 40180 58011 69901 92353
333 10278 20233=
91245 32566 60607 10290 20240 30154 92350=
91285 32666 80604 10256 20200 30162 40175 58011 92353 333
10261 20211=
91334 11474 80404 10308 20252 30103 40106 51005 60094 70282
83271 333 20253 56199 58000 70086=
91348 11474 81403 10260 20251 30063 40115 52003 60114 72582
85331 333 20211 56399 58004 70107=
91353 32574 70504 10306 20258 30094 40099 51007 83205 333
20222 561/9 59003 83819 84080=
91356 12474 60507 10299 20256 30094 40101 50000 69984 84305
333 20261 562/9 58000 70008 84918=
91366 32474 60707 10289 20246 30098 40107 56008 82271 333
20263 56229 58010=
91369 32474 80505 10306 20253 30102 40105 86478 333 20232
58017 56229 86815 84360=
91371 32474 40808 10300 20260 30132 40135 83235 333 20256
56229 58000 83815=
91376 11469 80904 10270 20241 30110 40113 58007 60034 78082
85873 333 20258 56299 58010 70028=
91408 12474 31405 10295 20241 30073 40111 51015 60124 82101
333 20228 562/4 58015 70117=
91413 11469 40904 10295 20251 30095 40114 51010 61164 70281
82201 333 20211 562/9 58000 71156=
91425 11474 70403 10294 20257 30087 40088 51007 60254 70282
83220 333 20239 561/9 59004 70251 83818 84462=
96163 12965 20000 10230 20224 30099 40106 52015 60274 81031
333 20228 56000 58019 81364=
98232 31470 51804 10280 20254 40118 52019 70544 82201 222//
299// 333 20250 56999 58000 82818 83075=
98526 11568 80000 10272 20263 40082 52018 60084 70544 8322/
333 20257 56999 59003 70080 83820 88459 98315=
42886 32596 51801 10314 20206 40009 83530 333 58020 83620
83360=
42724 22496 71802 10250 20217 40028 85630 333 58015 6024/
83710 83620 86360=
48820 32798 82302 10267 20245 30050 40058 53013 885// 333
00027 20259 3/026 58040 88697=
48826 32597 71403 10278 20271 39928 40055 53012 872// 333
00028 20265 3/027 58034 87895=
48838 32598 70000 10278 20261 30059 40065 52008 878// 333
00000 20255 3/026 58029 83895 87697=
48839 32498 71606 10276 20265 39997 40061 53010 878// 222//
2//02 333 00/// 20267 58028 85894 87696=
48845 32798 70000 10292 20248 30051 40058 52019 83538 333
00034 20271 3/026 58027 83697 83399 86299=
48848 32970 70000 10294 20259 30057 40065 52023 80008 333
00031 20267 3/027 58018 87299=
48855 32770 70000 10271 20244 30066 40074 52019 82508 333
01029 20255 3/025 58016 82697 87299=
48870 32998 10000 10290 20269 30066 40073 53010 80001 333
00030 20281 3/027 58007 81099=
48877 32598 70000 10291 20263 30080 40085 52013 878// 333
00032 20271 3/027 58010 82895 87697=
48887 11570 72502 10275 20246 30078 40084 53009 69922 70398
8482/ 333 01028 20270 3/027 58005 82895 83697 87499=
48900 32497 52502 10274 20266 30075 40085 52014 81108 333
20263 59002 81894 85299=
48914 32598 62701 10285 20262 30085 40087 52009 82208 333
01028 20267 3/025 58003 82895 86299=
48917 32598 70000 10280 20259 30077 40082 52009 82208 222//
00298 2//00 333 00/// 20276 3//// 59001 82895 87299=
48918 32470 72703 10295 20254 30079 40090 52010 83208 222//
00284 2//01 333 00028 20281 3/027 59001 81894 87299=
98748 11470 70000 10249 20/// 40093 52025 69924 70544 82430
333 20232 56999 58006 70002 82618 87358=
52267 32980 71103 10172 21053 39024 40054 52008 80002 333//
05502=
55228 32980 00000 10012 21096 36056 52010 333 00252=
55279 32980 11602 10010 21041 35737 52001 80002 333 00252
31022 70004=
55299 32880 20000 10005 21005 35884 52004 82400 333 00300
31010 70020=
55472 32780 20000 11005 21020 35773 52008 81102 333 00251
31021 70028=
55578 11780 70000 10055 20044 36389 52007 60071 70098 875//
333// 00452 70104=
55591 32780 70000 10093 20052 36529 52005 86902 333 00452
70006=
55664 32880 70000 10038 21012 36024 52011 81402 333// 00100
30027=
55696 11480 70404 10092 20035 36359 52010 69901 72100 86802
333// 00201 79999=
55773 32470 70000 10045 20026 36027 52009 874// 333// 00201
30035=
56004 32880 80000 11027 21051 35866 52002 8802/ 333 00351
70065 92502=
56106 32680 80000 10049 20011 36237 52004 884// 333 00304
30026 70066=
56137 11580 80000 10078 20069 36835 52014 60021 76060 8272/
333// 00653 70082=
52267 32980 71103 10172 21053 39024 40054 52008 80002 333//
05502=
55228 32980 00000 10012 21096 36056 52010 333 00252=
55279 32980 11602 10010 21041 35737 52001 80002 333 00252
31022 70004=
55299 32880 20000 10005 21005 35884 52004 82400 333 00300
31010 70020=
55472 32780 20000 11005 21020 35773 52008 81102 333 00251
31021 70028=
55578 11780 70000 10055 20044 36389 52007 60071 70098 875//
333// 00452 70104=
55591 32780 70000 10093 20052 36529 52005 86902 333 00452
70006=
55664 32880 70000 10038 21012 36024 52011 81402 333// 00100
30027=
55696 11480 70404 10092 20035 36359 52010 69901 72100 86802
333// 00201 79999=
55773 32470 70000 10045 20026 36027 52009 874// 333// 00201
30035=
56004 32880 80000 11027 21051 35866 52002 8802/ 333 00351
70065 92502=
56106 32680 80000 10049 20011 36237 52004 884// 333 00304
30026 70066=
56137 11580 80000 10078 20069 36835 52014 60021 76060 8272/
333// 00653 70082=
51076 11680 62902 10099 20087 39271 40119 52013 69901 70080
86962 333 00055 70012=
51133 32680 11601 10095 20066 39512 40138 52007 81402 333//
00353 70005=
51243 32880 22704 10156 20071 39597 40120 52003 81402 333
00452 70011=
51288 11163 82208 10058 20058 38319 52004 60101 72880 886//
333 00157 30050 70177=
51431 32980 00401 10099 20059 39364 40119 52008 333// 00053
30036=
51463 32780 71101 10118 20090 39081 40129 52009 874// 333
00355 70048=
51495 32780 13618 10170 20065 40130 54000 81102 333 00056
91131 91536=
51542 32680 10000 10001 21023 37571 52006 81400 333 05102
31040=
51644 32980 23602 10118 20055 38878 40068 52007 81032 333
05152=
51656 32980 33402 10123 20049 39036 40064 52011 80002 333
00052 30030=
51709 32980 23201 10140 20056 38667 40055 57001 81062 333//
00053 79999=
51076 11680 62902 10099 20087 39271 40119 52013 69901 70080
86962 333 00055 70012=
51133 32680 11601 10095 20066 39512 40138 52007 81402 333//
00353 70005=
51243 32880 22704 10156 20071 39597 40120 52003 81402 333
00452 70011=
51288 11163 82208 10058 20058 38319 52004 60101 72880 886//
333 00157 30050 70177=
51431 32980 00401 10099 20059 39364 40119 52008 333// 00053
30036=
51463 32780 71101 10118 20090 39081 40129 52009 874// 333
00355 70048=
51495 32780 13618 10170 20065 40130 54000 81102 333 00056
91131 91536=
51542 32680 10000 10001 21023 37571 52006 81400 333 05102
31040=
51644 32980 23602 10118 20055 38878 40068 52007 81032 333
05152=
51656 32980 33402 10123 20049 39036 40064 52011 80002 333
00052 30030=
51709 32980 23201 10140 20056 38667 40055 57001 81062 333//
00053 79999=
51053 11680 72501 10105 20103 40123 52003 60021 78080 86962
333 00152 70064=
51087 32680 70000 10121 20099 39200 40124 52006 85962 333
00051 70029=
51156 32780 53202 10074 20035 38671 40124 52004 81402 333
00152 30028 70052=
51709 32980 23201 10140 20056 38667 40055 57001 81062 333//
00053 79999=
51716 32970 00000 10137 20091 38834 40048 57001 333// 05152=
51777 32972 62204 10197 20031 39095 40065 52022 83032 333
00201=
51828 32962 22203 10184 20039 38585 40047 52001 82032 333//
00002=
51839 32962 20000 10144 20073 40049 57001 80002 333// 05100=
51855 11875 60000 10170 20078 40058 52012 69901 78080 85402
333 00103 79999=
51931 31958 70000 10145 20099 40062 52006 70600 82032 333//
00002=
52203 32780 70000 10179 20082 39221 40036 52028 85902 333
05153=
52267 32980 71103 10172 21053 39024 40054 52008 80002 333//
05502=
40180 32460 41304 10186 20167 30068 40115 57006 84800=
40362 32962 03605 10270 20040 39550 40033 333 58018=
40373 32960 01504 10300 21040 39616 40001 333 59013=
40430 32960 00000 10290 20030 39347 40021 333 58013=
40438 32960 01503 10310 20010 39364 40019 333 58003=
41024 42960 03602 10256 20220 30017 40036 333 58008=
41114 32960 00000 10200 20111 37956 48465 333 59001=
41128 32960 00000 10250 21060 38750 48469 333 58000=
41140 32960 02003 10313 20270 30007 40015 333 58002=
41150 32964 03106 10306 20187 49999 333 59004=
41194 31950 01905 10257 20226 39979 49991 70500 333 59007=
41288 31457 22108 10278 20261 39989 40011 70500 82600 333
59005 82710=
41316 32560 72003 10292 20252 39998 40023 87500 333 58006
87625=
40743 32962 00502 10234 20029 38958 40003 53009 92350=
40745 32960 02802 10180 20022 38955 40005 52003 92350=
40754 32960 03005 10264 20050 38748 49988 56003 92350=
40766 32960 00000 10120 20010 38642 40045 55004 92350=
40769 32960 00000 10154 20008 38265 ///// 56005 92350=
40800 32960 02702 10182 21052 38412 40003 56008 92350=
40809 32965 00000 10210 21015 38441 49953 58001 92350=
40841 32960 01602 10184 21026 38195 49950 54000 92350=
40848 32960 00000 10222 20000 38461 49979 54000 92350=
40856 32960 00000 10228 20011 38557 49948 54000 92350=
40100 32960 20802 10213 20170 40116 58005 80004 900// 333
82070 92437=
41136 32960 00805 10280 21070 39243 40006 333 58025=
41196 31956 02003 10251 20220 39954 49992 70600 333 59007=
41256 31957 00000 10289 20276 39969 49978 70500 333 59002=
40007 32970 02704 10193 20077 40069 56002=
40045 32970 02906 10168 20104 40074 58002=
40706 32960 03303 10138 20069 38607 40054 55001 92345=
40712 32960 00000 10132 20054 38635 40074 52003 92350=
40718 32960 01301 10216 20178 30137 40106 56005 92350=
40732 32960 02403 10200 20120 30117 40097 54000 92350=
40736 32560 32404 10212 20186 30117 40090 53006 83600 92350
333 83720=
41530 31996 00000 10280 20149 49974 70500 333 58032=
41640 31994 00000 10294 20122 39736 49973 70600 333 58037=
41675 319// 02308 10320 20218 39821 49956 70700 333 58044=
41598 31995 00000 10265 20185 39725 49985 70500 333 58045=
70200 11120 82404 10006 20006 30154 40164 53009 69901 710// 92353
333 20000 555 92800=
70273 32766 44952 10161 21050 30057 40106 57011 92353 333 20056
555 92800=
70326 32766 42906 10150 20017 30148 40167 56003 92352 333 20056
555 92800=
72223 32466 42105 10283 20239 30068 40146 56005 92356 333 10328
20239 555 92800=
72235 32966 04952 10322 20217 30001 40117 56007 92354 333 10333
20244 555 92800=
72240 32566 21904 10289 20244 30113 40131 56011 92353 333 10311
20256 555 92800=
72251 32966 01508 10289 20256 30062 40081 58017 92351 333 10322
20261 555 92800=
72253 32666 61206 10306 20228 39799 40072 58015 92353 333 10328
20256 555 92800=
72261 35966 01903 10339 20217 39705 40057 56016 92353 333 10350
20267 555 92800=
72280 32966 22305 10383 20144 30016 40086 56018 8/000 92346 555
92800=
72389 32966 03006 10339 20106 30009 40125 58013 92356 333 10339
20172 555 92800=
72414 11459 61602 10206 20200 39768 40115 53013 60201 710// 92354
333 10222 20150 555 92800=
72428 12466 81203 10178 20144 39823 40114 55000 69901 92351 333
10189 20144 555 92800=
72438 12566 62104 10233 20194 39797 40083 55006 69901 92355 555
92800=
41571 31995 00000 10267 20146 49988 70600 333 58038=
41594 31996 03602 10290 20162 49973 70600 333 58040=
WEZD 28004 99228 71554 41598 80915 10261 2019/ 40170 54000 70222
8811/ 22215 00233 20301 308// 40602 802//=
C6CN4 28004 99092 31597 46/// /1/05 10279 20212 40092 54000 22264
85231=
NZAU 28004 99038 11053 43498 32306 00/// 10289 2023/ 40090 54001
7//// 83270 22200 00283 20201 ///// ///// ///// ///// 80256 /////
/////=
3ESU8 28004 99024 71619 41498 40813 00/// 10300 2026/ 40080 57015
70122 84141 22233 00275 20303 308// 40304 5//// 6//// 80270=
UAGJ 28004 99372 31503 41798 43214 10160 2008/ 40018 57030 70222
80181 22254 00150 20505 33200 40605 80105=
NR905 28001 99527 11435 42897 81706 10031 4007/ 56003 8801/ 22200
20201 31600 40602=
MZNX7 28003 99103 10736 41497 80817 10263 20242 40069 53007 70282
7580/ 22234=
VRVN6 28004 99252 11327 41497 82312 10248 20244 40121 58010 70342
8899/ 22265 00250 20503 304// 40603 80245=
VRVY5 28003 99135 11278 41498 40809 10290 20263 40070 54000 70222
832// 22274 0//// 20302 320// 4//02 80270=
42410 21495 80000 10240 20237 40026 70562 8452/ 333 58029
6009/ 84615 88456=
71043 31783 61406 10169 21010 30043 40135 56010 71511 82363
333 10175 20011 70000=
71078 11448 80904 10100 20100 39634 40066 58024 60031 76122
885// 333 10139 20047 70032 90962=
71600 46961 02206 10082 20069 30048 40054 51004 333 10128
20076=
71624 32974 73606 10163 20071 39927 40135 57008 80001 333
10194 20072 70000=
71749 36964 30903 10153 21049 39929 40171 56019 333 10166
20003 70000=
71863 36964 02303 10213 20079 39396 40073 58011 333 10218
20101 70225=
71877 31786 52805 10189 21007 38795 40032 56010 71622 83171
333 10202 20003 70016=
71913 36964 01109 10011 21043 30170 40207 58022 333 10034
21036 70005=
71917 31574 21608 11059 21112 30189 40203 51009 73611 81570
333 11053 21072 79999=
71940 11474 71202 10082 20054 39298 40094 57005 69981 71582
87700 333 10086 20038 70014 90923=
71957 36764 80504 10014 21044 30118 40207 58004 333 10016
21061 70000=
72206 32966 00000 10311 20194 30129 40137 55004 92356 333
10350 20222=
72208 32666 22005 10283 20233 30106 40122 56002 92356 333
10356 20222=
72211 32666 43304 10300 20200 30141 40156 56003 92353 333
10350 20244=
72231 32566 61906 10300 20239 30128 40141 56005 92353 333
10339 20261=
72248 32766 42103 10317 20239 30004 40097 55007 92356 333
10328 20250=
72250 32566 61508 10290 20240 30080 90014=
72259 12766 81606 10222 20194 39898 40096 53014 60061 92353
333 10350 20222=
72265 32966 00208 10339 20094 39121 40072 56010 92353 333
10356 20217 91023=
72270 32966 24953 10339 20039 38799 40077 56011 92351 333
10350 20189=
72274 32966 03404 10383 20044 39202 40077 56017 92355 333
20206=
72290 32464 22004 10211 20156 30117 40128 58003 92351 333
10222 20172=
72304 17958 02106 10244 20217 30125 40127 55007 69901 704//
92351 333 10272 20156=
72326 32/66 /2504 92353=
72353 32666 63606 10283 20172 39656 40111 55002 92353 333
10294 20200=
72363 32966 03606 10272 20067 38922 40131 56004 92353 333
10278 20150 91014=
72365 32966 02805 10300 21011 38387 40105 57010 92356 333
10300 20167=
72386 32966 02206 10394 20083 39331 40070 56019 92356 333
10400 20250 91016=
72405 11459 80503 10156 20133 30104 40126 55007 60011 761//
92351 333 10183 20156 96010=
72440 32666 42805 10244 20183 39656 40102 53003 92354 333
10256 20172 91015=
72451 32966 03306 10267 20067 39243 40134 56004 92356 333
10272 20133=
72532 11256 83003 10211 20206 39828 40067 53004 60071 710//
92354=
72537 12766 81003 10167 20089 39891 40130 55010 69901 92354
333 10178 20150=
72597 12566 40103 10200 20144 39671 40141 50000 69901 92356=
72654 32566 43606 10172 20117 39665 40128 51009 92355=
71082 36459 80000 11083 21100 30156 40197 53011 333 11075
21107 70000=
71120 31774 61104 10180 20053 39411 40050 57008 71422 82271
333 10190 20056 79999=
71627 36764 83105 10152 20068 30073 40116 53006 333 10172
20081 70005=
71803 11469 81102 10123 20091 39864 40046 51015 60031 79198
8757/ 333 10175 20046 70034 90917=
71811 11483 80103 10072 20032 30017 40085 52012 69901 76182
8557/ 333 10089 20066 79999 90937=
71816 11474 80407 10032 20024 30080 40141 52017 60041 72162
886// 333 10035 20022 70154 90983=
71821 36264 83206 10033 20014 39858 40205 58001 333 10057
20011 70005=
71836 17964 00104 10070 20029 30214 40226 55004 69951 7//4/
333 10097 20024 70005=
71867 11374 81806 10149 20128 39715 40039 52012 60041 78086
885// 333 10156 20108 70050 90917=
71896 11589 80903 10106 20049 39239 40054 55000 69901 76122
8477/ 333 10122 20037 79999 90911=
71909 36864 33207 10017 20005 30213 40257 58003 333 10033
21040 70000=
71915 32774 20904 11025 21053 30242 40327 55002 81501 333
11010 21137 70000=
71918 460// /2309 11050 39865 40288 56004 333 11047 21105=
71924 11448 82408 11107 21131 30102 40192 51010 69901 77177
885// 333 11101 21134 42036 70012 90973=
71925 32574 62902 11055 21098 30226 40263 54000 86500 333
11049 21154 70000=
71926 32580 81305 11001 21018 30235 40259 56011 8657/ 333
10006 21080 70004=
71934 11474 73303 10095 20072 39856 40109 53002 60021 78082
87500 333 10114 20038 70046 90931=
71938 11474 80704 11060 21088 30231 40261 55000 69901 72272
885// 333 11049 21082 41006 79999 90973=
71945 31783 41503 10130 20004 39654 40118 55002 71400 84200
333 10156 21003 70000=
72226 32966 02503 10322 20172 30051 40123 55008 92353 333
10356 20222=
72308 12861 62302 10211 20206 30094 40100 55013 60131 92351
333 10300 20167=
72334 11561 84952 10211 20194 30038 40138 50010 60041 761//
92353 333 10322 20211=
72374 35966 00605 10322 20033 38520 40120 56016 92356 333
10322 20128=
72476 32966 02803 10278 20011 38552 40132 56014 92356 333
10289 20078=
72486 35966 02205 10278 20022 38094 40109 56016 92353 333
10278 20044=
72488 32966 02608 10289 20006 38651 40118 56004 92356 333
10306 20117=
72520 32466 80502 10160 20120 39692 90013=
72547 11220 81004 10150 20150 39687 40073 55006 69931 761//
92355 333 10156 20122 96010=
72562 32966 23104 10244 20067 39171 40137 56003 92356 333
10250 20094=
72645 12766 80705 10144 20094 39864 40120 56013 69901 92356
333 10172 20100=
72662 32966 00803 10211 20067 39033 40137 53001 92355 333
10233 20050=
72681 11766 43605 10194 20133 39119 40104 55003 69931 761//
92356 333 10272 20156=
72764 32966 01003 10228 20122 39513 40102 56004 92352 333
10233=
72773 32866 62308 10220 20040 38974 90003 333 91024=
72793 32666 62505 10161 20083 39958 40121 51010 92356 333
10172 20117 91015=
70026 32266 81209 11050 21072 30184 40190 51003 92353 333
21072 4/010=
70231 12766 42805 10122 21006 30029 40158 58007 69931 92353
333 20006=
70261 12866 64952 10117 21006 39987 40157 58004 69901 92353
333 20033=
70308 12566 82405 10056 21006 30263 40273 55001 69901 92353
333 20028=
70316 11566 62906 10056 20011 30233 40272 50001 69901 761//
92353 333 20028=
70350 32666 63108 10144 21028 30104 40146 51007 92353 333
20056=
70361 32866 43105 10150 20039 30046 40065 50001 92353 333
21005=
71051 46/// /0404 11096 21097 30171 40284 58001 333 11095
21155=
71081 37964 01905 11021 21038 30289 40300 55002 745// 333
11008 21153 70000=
71090 36564 63404 11036 21043 30242 40277 53008 333 11009
21062 70000=
71145 32874 81404 10194 20017 39858 40145 57013 81071 333
10201 20085 70000=
71603 11574 83205 10102 20081 30017 40069 51007 69901 72111
885// 333 10139 20088 79999 90910=
71709 31/24 93403 10061 20053 30029 40042 51012 71022 333
10120 20061 70002=
71825 11474 80307 10025 20002 39492 40161 53025 69901 70285
885// 333 10056 20005 70012 90923=
72394 32966 03204 10200 20117 30044 40134 51001 92351 333
10256=
78897 11570 31003 10258 20217 40154 52014 60021 70386 82202
333 02206 10316 2//// 59009 70018 82823=
21802 32999 50604 10003 21030 30150 40174 52003 85032 333
21006 42019 55138=
78016 11464 82407 10232 20218 30126 40167 58005 60061 70282
888// 333 10277 20222 70058 90921=
78384 32560 80903 10280 20263 40139 83835 333 10315 20266
58000 82820 83635 85360 88070=
78397 40914 10247 20223 30116 40132 83902 333 06209 10330
20260 59006 83920 84070=
78526 32866 20904 10256 20222 30132 40155 51011 92354 333
10300 20239=
81405 32560 50501 10245 20236 40121 81832 333 10282 59012
81820 84082=
80022 31962 30206 10278 20247 30073 40075 70522 80001 333
10318 56//9 59007 83070=
70133 12466 61704 10028 21006 30146 40153 51003 69901 92353
333 20000=
70219 11459 82706 10044 20033 30154 40211 55003 69931 761//
92353 333 20011 96010=
70381 32866 44953 10189 20022 30032 40041 56006 92353 333
20028=
70398 32766 84952 10133 20061 30010 40051 53012 92353 333
20078=
71918 460// /2309 11050 39865 40288 56004 333 11047 21105=
72203 32966 61504 10283 20233 30155 40163 56005 92353 333
10333 20244=
70174 32766 82402 10083 21017 39912 40156 56004 92353 333 10089
20022 555 92800=
72278 32966 03204 10389 20089 39697 40073 56018 92356 333 10394
20256 555 92800=
72327 12666 82004 10206 20189 39904 40113 50003 60031 92353 333
10306 20189 555 92800=
72344 15866 21102 10211 20194 39950 40112 58008 69901 92353 555
92800=
72445 32566 83009 10211 20156 39777 40095 53013 92354 333 10267
20178 91022 555 92800=
72465 32966 03403 10256 20033 38889 40139 56006 92356 333 10261
20111 555 92800=
72503 32966 62706 10194 20117 30087 40097 56014 92351 333 10206
20150 555 92800=
72518 32966 03006 10178 20083 39998 40106 53000 92351 333 10211
20078 555 92800=
72528 32966 00304 10172 20033 39869 40131 58006 8/031 92354 333
10189 20078 555 92800=
72572 32966 21705 10289 20067 38695 40104 56015 92356 333 10300
20122 555 92800=
72576 35966 03204 10239 21006 38286 40108 55012 92356 333 10256
20039 555 92800=
72578 32766 64952 10256 20039 38611 40110 56016 92356 333 10289
20044 555 92800=
72583 35966 02510 10300 20022 38658 40099 56017 92356 333 10311
20083 91027 555 92800=
72606 35766 80106 10156 20056 30075 40094 53014 92351 333 10206
20094 555 92800=
72693 32566 62506 10160 20110 30026 90014 555 92800=
48601 11562 70000 10255 20242 30100 40104 69904 70522 82242 333
20248 50300 58008 82820 87078=
48615 31568 72502 10256 20240 30089 40095 70522 82142 333 20248
50510 59002=
48620 11368 70000 10247 20240 30103 40112 69904 71022 81642 333
20236 50510 58019 81707 86078=
48647 11058 70000 10254 20245 30083 40108 60034 71062 82542 333
20250 50260 58016 81700 84362 86078=
48657 31558 70000 10244 20237 30085 40103 71022 81541 333 20235
50440 58010 81627 86078=
48665 31060 70401 10248 20241 30092 40102 71021 84842 333 20244
50350 58012 82700 83364 86078=
96001 12558 70000 10242 20221 39956 40099 5//// 60044 84532
333 20210 50009 55020 56000 58006 84620=
96171 11430 60000 10226 20223 30074 40099 52014 60014 70521 83521
333 20220 50300 55055 56000 58025 83616=
96195 11420 70000 10224 20222 30074 40109 60144 74122 82531
333 20218 55020 56000 58052 82601 85360=
96221 11308 50000 10230 20230 30098 40113 53004 61364 74442 83702
333 10226 5//// 55065 56309 58009 83705=
96413 12175 60000 10255 20240 30078 40104 60054 82941 333 20237
50170 58002 81702 81915 86080=
96421 11480 61303 10259 20236 30070 40106 60234 70162 81941 333
20240 50570 55091 59001 81915 85080=
96441 31489 71103 10270 20235 30100 40105 70522 82241 333 20245
50410 55071 58000 82816 87080=
96449 12480 70000 10280 20250 30077 40098 69904 82231 333 20246
50330 58000 82812 87080=
96491 31470 72002 10259 20240 30081 40094 70522 83948 333 20248
50320 55059 59017 81816 81917 87276=
96633 12560 13101 10266 20236 30091 40099 52019 60024 81101
333 20238 50130 55016 55508 50000 56000 59003 81830=
96655 12456 72901 10252 20242 30089 40117 52017 69924 86571
333 20242 50270 55033 56700 58004 86610=
96737 31557 40000 10236 20231 30067 40116 52004 70511 82521
333 20234 50710 55040 56000 58009 82620=
96755 11440 60000 10240 20230 30103 60204 70522 81571
333 20212 56000 58002 81618 83462=
96797 32460 42201 10245 20227 30094 40098 53009 82901
333 20238 50560 55/// 56400 57942 58007 81918 80981 83080=
96801 31458 40000 10222 20207 30125 70511 83501
333 20220 56000 59011 79999 83618=
96805 12560 33001 10254 20242 30087 40098 51010 69904 82231
333 5//// 55088 56000 57802 58004 82820 80860=
96839 31558 30000 10258 20237 30101 40106 52016 70511 81101
333 20248 5//// 55100 56000 58011 81825=
96853 31957 20000 10240 20232 39974 40100 52019 70500 80001
333 56000 58006 82080=
96935 32557 42602 10251 20235 30096 40102 52020 81531
333 20248 50440 55103 56000 58011 81620=
91203 12469 60805 10297 20253 30109 40114 51010 69904 84201=
91434 11474 80901 10311 20259 30111 40114 51007 69984 70282 85202=
41712 329// 00000 10260 21101 39067 48412 333 58003=
41756 329// 01301 10275 20268 39925 49989 333 58006=
91503 12481 10903 10302 20243 40097 51001 60024 81200
333 20241 56200 59015 81818=
91507 11480 30000 10296 20228 40093 54000 60014 70500 82101
333 20231 56200 59013 82818=
91520 12481 10000 10300 20243 40088 54001 60074 81101
333 20224 56200 59016 81818=
91527 11470 10504 10318 20262 4//// 5//// 60014 70500 81100
333 20221 56100 5//// 81817=
91541 31580 30903 10300 20246 40094 57004 70500 83200
333 20240 56200 59013 83820=
91554 02581 61204 10290 20218 40104 58008 69934 86200
333 20230 563// 58005 69934 86825=
91555 31565 11107 10287 20258 40113 58003 70511 81101
333 20/// 562/9 58002 81828=
91565 32580 40904 10264 20202 40149 58012 84800
333 20216 563// 58003 82820 84640=
91568 32582 10000 10263 20194 40145 58005 81101
333 20177 563/9 58002 81825=
91570 36/// /0912 10279 20241 30125 40128 58002
333 20245 59007=
91574 36/// /0914 10249 20235 30124 40130 50002
333 20240 59011=
91577 32581 12201 10276 20189 40136 58006 81100
333 20194 59003 81826=
91582 12470 50805 10257 20196 40142 58006 69984 85800
333 20172 56200 59008 83810 83650=
91592 32581 11001 10263 20189 40138 58007 81800
333 20194 56100 59006 81830=
91601 11498 81003 10272 2025/ 40110 60071 71508 8521/ 333 20245
5629/=
91610 11499 20804 10305 20258 40102 58008 69911 70200 82200 333 20250
5
6
2
//=
91629 31599 30905 10310 2022/ 40092 70300 83100 333 20261 562//=
91631 11599 31003 10302 20241 40101 60041 78081 83200 92349 333 20275
5
6
2
/
/
=
91636 11499 30704 10295 20256 4//// 69901 70118 82201 333 20255
562/9=
91643 31499 40906 10303 20263 40094 58017 70210 84200 333 20258
562//=
91648 31599 10802 10316 20242 40103 58009 70200 81100 333 20250
562//=
91650 11599 50000 10281 2025/ 40105 58008 69951 72582 85800
333 20242 569// 84820=
91652 36/// /1611 10278 20221 40111=
91659 31599 41406 10267 2022/ 40122 58011 70310 84800
333 20242 563// 84825=
91680 31599 22504 10284 20201 40114 58013 70200 82100
333 20199 569// 82828=
91683 11599 71203 10269 20230 40130 58012 60021 75082 878//
333 20215 569// 84822 84650=
91691 36/// /1306 10261 20215 40121=
91697 36/// /1608 10257 20192 40127=
91699 36/// /1710 10251 20172 40135=
91753 32481 63303 10304 20252 40102 58013 85902
333 20233 58004 81915 83816=
91754 11481 71302 10289 20231 40105 58014 60694 70186 878//
333 20240 58005 81819 87640=
91811 31599 40505 10315 2025/ 40102 70111 84100 333 20278 561//=
91843 11598 60101 10261 20235 40118 58041 69921 72512 84802 333
20253 568/9 83821 84645 86079=
41515 32995 00000 10223 21078 48443 333 58019=
41718 329// 02304 10285 20234 39882 49980 333 58034=
41744 329// 03102 10265 20179 48398 333 58007=
40394 32960 00105 10277 20010 38973 48483 333 58012 555 04410
50017=
40729 32960 00902 10108 20008 38304 40044 57005 92345 333=
40762 32960 00000 10184 21019 38480 49967 51002 92350 333=
40831 32960 00202 10298 20058 30005 40013 56010 92350 333=
42398 21396 80205 10230 20227 40018 79596 89720 333 56199 58028
6012/ 85708 81930 87459=
94103 35/// /0914 10292 3//// 5////=
94120 46/// /1117 10270 20185 30098 40133=
94147 35/// /1423 10280 30105 40124 52014=
94151 35/// /2218 10266 30134 40154 52021=
94203 46/// /1113 10196 20062 30155 40166=
94207 35/// /0922 1//// 30143 40154 52015=
94212 46/// /0912 10169 20045 39707 40188=
94238 46/// /1223 10134 20018 39794 40228=
94268 46/// /1516 10245 20099 30135 40150=
94287 46/// /1609 10262 20180 30139 40148=
94290 35/// /1826 10239 30139 40146 52012=
94294 46/// /1920 10206 20041 30178 40188=
94298 35/// /1612 10255 30133 40139 52012=
94299 46/// /1419 10250 20234 30119 40130=
94300 46/// /0611 10160 20018 30175 40185=
94302 46/// /0515 10198 20041 30188 40194=
94312 46/// /1115 10175 20042 30184 40194=
94326 46/// /1211 10112 20043 39628 40264=
94332 46/// /1514 10142 21012 39832 40226=
94346 46/// /1515 10135 21023 30009 40235=
94363 46/// /1709 10154 20045 39978 40200=
94367 46/// /1816 10192 20044 30141 40179=
94394 35/// /2019 10242 30124 40132 52006=
94403 46/// /0420 10145 20022 30178 40219=
94430 46/// /0712 10095 20033 39645 40245=
94461 46/// /0909 10088 20021 39574 40265=
94510 46/// /2011 10111 21050 39869 40227=
94515 46/// /2213 10113 21001 39852 40209=
94578 46/// /2614 10146 21005 30148 40159=
94601 46/// /0717 10120 20062 30264 40281=
94610 46/// /0610 10120 20028 30245 40270=
94638 46/// /0201 10082 20072 30283 40316=
94653 46/// /2113 10149 20084 30256 40275=
94659 46/// /2613 10087 20061 30060 40260=
94693 46/// /2818 10088 20064 30081 40144=
94776 46/// /3025 10105 21008 30109 40119=
94791 46/// /3106 10143 21007 30128 40135=
94802 46/// /0104 10075 20062 30212 40296=
94842 46/// /2135 10088 20019 39920 40018=
94865 46/// /2720 10069 20034 30010 40035=
94907 46/// /3116 10083 20012 39990 40000=
94910 46/// /3512 10041 20024 39842 40094=
94926 46/// /3225 10036 20003 39397 40069=
94975 46/// /3218 10099 21001 39849 49882=
94983 46/// /3008 10087 20070 39885 49910=
94995 46/// /2409 10198 20128 30082 40090=
94996 41480 70306 10198 20157 30034 40164 58006 71411 8167/
333 20174=
44338 32999 21804 10189 20011 38430 40055 52001 80004 333
20142 555 30091=
28240 42999 10000 10074 20032 39766 40079 58012 80001=
28419 42998 32401 10102 20077 39980 40104 58005 82031=
31285 /2395 80502 10052 20047 40043 57013 60020 886//   333 20020=
31561 12598 80603 10169 20131 40005 57020 69910 82101   333 20092=
60020 32665 10601 10192 20112 30161 40206 51003 81500
333 924/7=
60101 32560 30901 10138 20126 40206 51006 81502 92350
333 81620 83070=
60115 32970 02401 10162 20139 40204 52006=
60127 32960 02701 19199 20145 39619 40199 51019=
60135 32458 50201 10180 20157 40209 51006 85600
333 83710 83616=
60155 32458 80803 10194 20168 40201 50003 888//
333 85816 84620=
60620 32960 00605 10250 21042 40116 50000
333 0//00=
60715 32560 33203 10186 20170 30162 40167 52003 83800
333 55100 82820=
60765 11002 83206 10131 20131 38952 48524 52003 60033 75065 887//
333 55013 88700=
61641 32357 63604 10206 20187 30089 40122 86600
333 0//00 59014 86708=
62306 32960 40000 10186 20174 40136 55004
80006=
62318 31956 01202 10174 20165 40122 56012
71000=
62366 32960 00903 10204 20161 40127 56010=
62405 32960 01701 10247 20108 40069 55003=
62414 32960 03605 10268 20025 40070 56002=
62420 32960 00504 10229 20102 40112 58014=
62641 32970 02602 10272 20158 39998 40045
333 58014=
62660 32970 00402 10300 20030 39/// 4////
333 5////=
62680 31968 02901 10310 20080 39656 40039 70600
333 58011=
62721 32970 72202 10310 20170 39631 40060 80007
333 56009 58018 87275=
62730 32970 11702 10296 20144 39/// 4//// 81040
333 56010 5//// 81365=
62760 32970 01303 10295 20165 39258 40046 8
333 58005=
62781 32970 72202 10270 20180 39466 40092 87070
333 56090 58004 87365=
64601 33960 82801 10180 20172 39007 48512 8802/
333 0//00 58006 88465=
64650 11560 80000 10212 20203 39707 40113 60091 79596 8192/
333 0//14 58017 81616 88464 81940 94942 95832=
64656 33958 7//// 10228 20225 39548 40095 8707/
333 0//00 58001 87365=
64659 32960 20000 10220 20197 39395 40097 80002
333 0//00 58006 83080=
65306 32960 50000 10269 20227 39779 40104 80002
333 58001 85076=
65548 32960 30000 10220 20223 39744 40127 83030
333 58001 83360=
65578 32560 52003 10265 20243 30102 40111 85500
333 59016 85620=
60030 32560 40110 10202 20162 30138 40193 52005 84500
333 924/6=
60107 32960 00000 10188 20149 40185 58003
333 95300=
60230 32960 00202 10205 20152 40183 51017=
60265 32970 23404 10237 20061 38910 48551 51012 80002
333 82073=
60725 11556 72602 10182 20182 30011 40178 51004 69963 78088 8588/
333 55022 21405 30272 83823 83630 =
60735 32960 23402 10186 20141 30090 40171 51011 80002
333 55060 5//// 82070=
60760 32560 41403 10227 20124 30044 40151 51005 84200
333 55081 84830=
60769 12557 30103 10213 20158 30145 40150 57001 60013 83800
333 55051 21709 81823 83633=
61052 32960 61805 10310 20196 39847 40093 83082
333 0//00 58002 82365 85080=
61075 31770 71801 10298 20191 39795 40094 7136/ 81978
333 59014 81950 87364 87280=
61090 32960 50000 10315 20188 39572 40059 80002
333 59004 85080=
62600 32970 03604 10285 20050 39848 40054
333 59004=
62640 31965 03202 10300 20045 39708 40056 70600
333 58006=
62650 32970 03603 10280 21020 39795 40060
333 58006=
62751 32970 72202 10267 20196 39615 40068 82047
333 56029 58010 82365 87275=
62752 32970 71801 10280 20180 39412 40074 80007
333 56009 58009 87275=
62762 32970 72003 10258 20205 39585 40052 80007
333 56009 58019 87275=
62771 32970 02103 10270 20170 39444 40097
333 59002=
62795 32970 72304 10270 20210 39565 40059 84047
333 56099 58033 84365 87275=
64700 32665 31804 10300 20181 39738 40064 83902 92355
333 0//00 58002 81950 83075 94943=
64750 32962 60000 10250 20221 39675 40055 85032 92359
333 0//00 59004 85365 84075=
65319 33960 5//// 10255 20224 39602 40113 80002
333 58006 85076=
65330 32460 72003 10253 20210 39683 40119 84532
333 58000 84610 85361=
65335 31960 5//// 10250 20225 39895 40120 7009/ 80002
333 58010 85076=
65344 32460 72405 10275 20239 30108 40118 84502
333 58005 84612 85076=
65352 32960 70000 10256 20247 39952 40128 83032
333 58014 83363 87076=
65376 31460 72802 10240 20223 39669 40125 70192 83502
333 58010 83610 87076=
65387 32460 72401 10260 20240 30094 40122 83842
333 59001 82610 87073=
65528 32960 0//// 10236 20221 39649 40112
333 58005=
65536 32960 0//// 10250 20228 39693 40117
333 59024=
65562 32460 5//// 10235 20227 71311 85900
333 85913 95332=
65599 32460 5//// 10235 20227 39800 40112 84200
333 58005 84813 83360=
ELWR3 28001 99122 71360 41597 70407 10300 20246 40100 54000 70322
87255 22214 04280 20504 304// 40504 80260=
9KWH 28003 99131 30955 41398 71520 10260 20230 40093 52007 70321
83336 22274 00260 80240=
PJKP 28004 99238 71180 41697 80213 10201 20153 40110 57026 70222
885// 22223 02206 20301 329// 41204=
PFRX 28000 99247 11347 41998 10301 10254 20246 40134 52003 70200
80008 22214 20101 305// 41502 80248=
ZCAA 28004 99053 11258 41296 80613 10260 20250 40095 50005 75055
887// 22213 00300 20401 306// 41001 80250=
V7AG 28003 99050 10852 41598 52320 10283 20250 40095 53008 70300
85892 22223 02290 20406 327// 40607 80260=
ZCB2 28003 99263 30600 41498 60512 10220 20188 40185 57008 7////
86110 22263 00245 20602 321// 40603 80200=
3FHN 28001 99031 11084 41498 40604 10295 20269 40106 53020 70200
83140 22213 02305 20402 322// 40301 80275=
UIJG 28001 99221 11255 42998 21902 10281 40126 80004 22253 00260
2/3/1 3/704=
96009 32460 80000 10242 20227 30072 40105 5//// 8592/
333 20238 50470 55045 56009 57904 58007 81915 84615 80950=
42314 21395 70703 10228 20222 40035 76066 84320 333 57940
58015 6004/ 82707 84618 81925 87459=
42934 32596 32701 10300 20202 40022 81530 333 58005 81630
83360=
41739 329// 00000 10260 20129 38942 48423 333 58003=
HVW 28001 99036 31444 //499 /2095 10337 40235 222//=
3FPW6 28004 99105 11180 41598 62807 10290 20233 40102 81178 22284
00303 20000 40401=
JNZJ 28004 99270 11416 41198 91815 10230 20226 40149 51//2 7//44
88617 92345 22243 00240 80240=
UITP 28001 99332 11253 42998 32907 10215 40129 22263 00160 20401
31700 40402=
42309 21395 80202 10230 20227 40032 70166 8632/ 333 58028
6019/=
42840 32596 32301 10288 20257 40040 83400 333 58000 83830=
25325 32599 30405 10073 21044 39969 40125 52006 83400 333
20035 55025=
9VVD 28004 99196 11190 41698 50604 10290 20262 40105 52015 70322
82169 22215 00277 2////=
43237 32596 62703 10254 20202 39645 4//// 82538 333 56699
58011 82620 83360 85275=
60185 32460 80206 10198 20160 40204 51013 885//
333 88616=
91490 31599 31103 10317 2025/ 40107 70300 83100 333 20261 562//=
42623 21396 80000 10200 20194 39192 40053 75156 8572/ 333
59006 6019/ 83708 85618 88459=
KHLN 28004 99170 11296 41798 41314 10290 2025/ 40080 50200 70200
8222/ 22242 00290 20201 3//// 4//// 5//// 6//// 80260 ICE=
9VVD 28004 99196 11190 41698 50604 10290 20262 40105 52015 70322
82169 22215 00277 2////=
85470 32960 02806 10110 20090 40149 52016
333 10179=