ZCZC 000
SMCI10 BENJ 140600
AAXX 14061
70200 82020 22223 04305 20101 327// 40101 5//// 6//// 80290=
54094 32970 02903 10289 20144 39861 40142 57015 333 20126=
50442 32670 22701 10195 20019 40214 57008 81102 333 20063=
59317 11562 72003 10298 20246 40077 57018 69901 78000 879//
333 20248=
59087 32562 23602 10327 20202 40085 57020 82200 333 20214=
57996 32668 11103 10321 20162 40088 57024 81100 333 20212=
53975 32961 71102 10247 20163 40135 57017 86032 333// 20161=
53959 32880 71402 10280 20171 39682 40105 57015 8353/ 333//
20229=
53673 32960 72502 10251 20135 40134 57018 80002 333// 20135=
54337 32660 21801 10284 20167 30078 40160 57012 82100 333
20176=
56492 31858 80401 10236 20201 39704 40094 57013 71000 885//
333 00151 20212=
54471 32960 00202 10280 20146 30136 40153 57016 333 20183=
57866 32970 00704 10315 20200 39901 40098 57021 333// 20213=
57584 32962 22502 10300 20211 40101 57018 82040 333// 20244=
54335 31560 11801 10285 20177 40156 57011 70040 81100 333
20156=
57671 32966 43603 10311 20214 40098 57017 84040 333// 20233=
54662 32678 10902 10264 20153 30041 40157 57011 81100 333
20187=
58549 32762 70401 10274 20195 40093 57019 83540 333 20202=
59673 32563 10000 10324 20254 40080 57019 81200 333 20255=
59303 32565 12901 10327 20176 40078 57025 81100 333 20240=
59462 32568 11602 10332 20220 40081 57022 81100 333 20234=
54135 32980 20404 10259 20085 39961 40171 57001 80002 333//
20172=
54454 32670 11102 10267 20195 40171 57001 81100 333 20165=
57780 32670 13203 10323 20194 40097 57021 81100 333// 20230=
57447 32960 72001 10277 20169 39593 40110 57022 8703/ 333
20198=
59981 32580 23203 10311 20255 30075 40081 57016 82102 333//
20278=
55598 32780 40000 10201 20068 36636 57018 83242 333 00151
20107=
59948 32580 62503 10302 20245 30074 40082 57020 82202 333//
20260=
58457 32580 43607 10287 20163 30054 40103 57015 83202 333
20210=
58543 32680 43601 10290 20163 40100 57020 84140 333 20202=
58633 32560 21103 10293 20174 39993 40088 57017 82400 333
20197=
58667 32975 22508 10302 20167 40061 57012 80001 333 20228=
57766 32662 62201 10322 20184 40098 57023 81140 333// 20209=
57562 32575 60702 10332 20159 40099 57021 81140 333// 20220=
57687 32670 63201 10322 20205 30018 40094 57023 86200 333//
20231=
57669 32962 11602 10330 20186 40096 57025 81040 333// 20198=
58921 32667 13203 10316 20195 39844 40077 57027 81100 333
20206=
58730 32680 13203 10314 20146 40080 57018 81100 333 20195=
58933 32575 13404 10265 20136 40084 57012 81100 333 20155=
58926 32770 22501 10321 20183 40066 57032 82100 333 20207=
58918 32680 13402 10326 20191 40076 57027 81200 333 20210=
58944 32965 01402 10304 20195 40069 57021 333 20245=
53845 32970 81802 10222 20137 39056 40116 57010 8807/ 333
00252 20179=
54476 32965 03404 10271 20145 40164 57012 333 20126=
54171 32980 00000 10296 20116 40149 57010 333// 20137=
54292 32575 12201 10266 20136 39946 40155 57026 81102 333//
20100=
54195 32975 00000 10266 20140 40152 57021 333// 20083=
54285 32570 12901 10267 20114 40163 57017 81100 333// 20077=
54263 32980 02201 10273 20125 40155 57013 333// 20128=
54374 32670 21601 10291 20114 39751 40135 57025 82100 333//
20121=
54276 32565 22202 10272 20047 40154 57013 82100 333// 20102=
54063 32970 02903 10252 20132 40137 57001 333// 20135=
54284 32570 53404 10259 20118 40141 57019 85200 333// 20085=
54049 32970 00204 10247 20127 40170 57002 333// 20156=
54386 32970 20000 10263 20117 40134 57027 80002 333// 20077=
54287 32175 50000 10106 20053 37456 57003 85100 333// 20046=
50658 32980 13604 10198 20029 40199 57001 80001 333 20103=
50877 32670 52205 10276 20156 40141 57005 85200 333 20151=
54096 32570 12702 10276 20117 40151 57015 81100 333 20094=
50775 32570 20205 10216 20062 40164 52007 81102 333 20162=
50888 32680 13405 10269 20139 40136 52007 81100 333 20186=
50564 32970 10405 10179 20013 40204 52001 80002 333 20084=
50758 32970 13603 10209 20059 40208 54000 80002 333 20128=
50788 32970 03207 10227 20063 30067 40148 52006 333 20118=
50950 32970 03605 10239 20075 40173 57004 333 20126=
50853 32977 03406 10231 20084 40169 57002 333 20131=
50963 32965 02706 10258 20149 30023 40152 57002 333 20126=
50844 32962 03607 10211 20044 40194 57007 333 20134=
50854 32970 00205 10230 20055 40183 57004 333 20146=
50557 32970 13605 10187 20023 39927 40216 57004 80002 333
20084=
50873 32670 10405 10243 20115 40149 52011 81100 333 20163=
50742 32965 10205 10202 20022 40210 57004 80002 333 20101=
50968 32580 12705 10279 20151 40154 57006 81100 333 20124=
53463 32670 72202 10241 20123 38938 40109 57020 82102 333//
00001 20149=
54602 32965 00401 10301 20167 40140 57020 333// 20196=
57602 11730 82901 10225 20204 40093 57011 60011 71060 885//
333 20207=
51628 32960 73201 10187 20049 40091 57006 81032 333// 00454
20079=
51431 32680 20202 10172 20038 39400 40170 57015 81102 333//
05105 20042=
54157 32970 02703 10279 20157 40157 57014 333// 20175=
50656 32975 20704 10192 20047 40204 57001 80001 333 20102=
50246 32980 23204 10134 21031 40242 52003 80002 333 20033=
50349 32970 10406 10149 21020 40236 57002 81030 333 20027=
50468 32975 23404 10174 21005 30017 40217 54000 80002 333
20082=
50353 32570 73404 10134 21003 30017 40234 52007 81132 333
20076=
50756 32970 10204 10214 20041 39906 40188 52002 80002 333
20130=
50136 32970 70202 10111 20000 39727 40255 57006 86032 333
21006=
50745 32968 03603 10201 20033 30032 40207 57007 333 20119=
50862 32980 00202 10231 20094 40168 52005 333 20124=
58259 32580 40208 10270 20179 40112 57014 82140 333 20213=
56444 32680 40902 10188 20087 36842 57010 84200 333// 00201
20090=
56533 32680 71603 10257 20183 38386 57015 878// 333// 00100
20174=
56548 11580 70000 10220 20145 37701 57013 69901 72500 8523/
333// 00100 20139=
56586 32670 72003 10245 20167 38032 57014 87200 333// 00102
20149=
56651 32680 62205 10237 20139 37625 57017 83240 333// 00101
20122=
56664 31580 51603 10307 20202 40030 57025 71790 85900 333//
00101 20197=
56684 32575 62504 10232 20156 37890 57012 86200 333// 00103
20145=
56741 32580 71803 10229 20155 38191 57014 87242 333// 00100
20180=
56778 11575 41603 10247 20164 38103 57021 69901 70080 84200
333// 00101 20183=
56786 11575 72004 10245 20153 38109 57016 69901 70080 87200
333// 00100 20170=
56838 32680 32501 10302 20219 40079 57018 83202 333// 00101
20216=
56856 11680 32202 10273 20203 40080 57017 69901 70080 83200
333// 00200 20206=
56875 32680 71803 10261 20161 38354 57017 87800 333// 00151
20188=
56886 32680 62204 10240 20173 38286 57019 86200 333// 00152
20155=
56951 32780 42002 10268 20177 38486 57021 84400 333// 00100
20187=
56954 32580 32902 10293 20203 40071 57028 83202 333// 00151
20201=
56964 32580 52001 10265 20171 38692 40080 57017 85200 333//
00251 20203=
56977 32580 71102 10268 20194 40088 57019 87800 333// 00100
20194=
56985 32580 31605 10282 20162 38685 40075 57019 83100 333//
00102 20188=
56986 32580 71403 10228 20189 40100 57015 874// 333// 00102
20168=
56994 32570 51404 10269 20172 40079 57020 85400 333// 00101
20188=
59007 32580 61403 10274 20171 40082 57021 85432 333// 20168=
56946 11680 61801 10283 20200 40065 57026 69901 70080 82462
333// 00251 20199=
96315 35470 73009 10325 20240 40085 82963
333 82818 81919 86080=
41170 42966 00301 10351 20151 30039 40052 333 20274 59005
555 00249=
60549 042075 042088 040071 040074 042084 041090=
307101 310101 316099 319102 312102 310103=
91631 31599 40912 10300 20249 4//// 70112 82242 333
56299=
91636 31498 41015 10291 20252 4//// 70300 82201 333
562/9=
91643 31499 61320 10290 20248 40083 53004 70222 84208 333
563/9 84819 86280=
89054 32360 82110 11034 21048 49870 56004 885//
333 75599 88610=
89056 32460 81915 11033 21052 49873 54002 885//
333 75599 88612=
89057 32560 42005 11032 21056 49877 51003 84500
333 75500 84620=
89059 32560 80000 11050 21061 49873 54005 886//
333 70099 88727=
78958 01575 21216 10279 20249 30122 40132 69901 70280 82201 333 00209
10310
20240 58020 70244 82822=
78897 32570 21304 10257 20239 40143 58014 82201
333 022/5 10331 20238 58022 70004 82820=
78583 31470 70000 10248 20236 40114 70192 81103 333 00304 59019 70004
81815
87078=
91772 31498 51307 10253 20211 40137 70222 858//   333 563//=
91776 31498 51409 10258 20216 40139 70301 85100   333 563//=
91784 31598 11006 10225 20154 40154 70200 81100   333 562// 81820=
91792 31599 31304 10200 20157 40177 53008 70300 83100   333 563//
83822=
89664 89664 41/02 91131 11129 21148 39859 49902 50014 73933
333 01141 89/02=
76382 32960 00202 10254 20173 38897 40076 52020 90530 333
10335 20210 30/// 55098 21772 58001=
76577 32960 03603 10182 20146 38063 40101 53009 90545 333
10280 20138 30/// 55057 59004=
76654 31756 10000 10277 20259 30114 40118 52007 70544 81010
90550 333   0//9/ 10318 20244 30/// 55099 21664 59009 81456
=
76687 32558 30000 10176 20162 38663 40162 51003 83200 90538
333   10247 20157 31/// 55046 565// 59018 81823 82622=
76640 32020 73401 10256 20253 30127 40139 51008 8267/ 90540
333   0/22/ 10350 20234 30/// 55079 59009 82700 83356=
76741 31440 53602 10282 20258 30101 40132 52011 70544 83270
90535 333   00890 10330 20229 30/// 55094 59017 83815=
60096 32356 20216 10206 20184 40147 5//// 82600
333 20200 82710=
60101 32456 30000 10157 20135 40149 55006 83500
333 20155 83616=
60115 11520 33204 10175 20170 40137 57009 60024 71000 82232
333 20173 82830=
60135 32458 42204 10164 20147 40147 56010 82602
333 20157 82710 83070=
60155 32556 72002 10194 20154 40145 58002 875//
333 20185 87620=
60156 32358 61804 10183 20144 40154 57011 86500
333 20155 82710 85616=
60230 32960 22404 10174 20133 40150 55004 80001
333 20174 82070=
60060 32456 52207 10184 20167 40133 5//// 85500
333 20182 85616 95300=
60105 32956 00000 10160 20146 40157 55001
333 20155 30012=
60107 32558 30000 10183 20172 40131 57009 83600
333 20180 83713 95380=
60190 32665 42004 10177 20134 39559 40153 55000 84200
333 20180 82073=
60191 32965 52403 10174 20133 40145 54000 85200
333 20174 85833=
60210 12660 21006 10235 20149 38960 48508 58016 60024 82500
333 20235 82633=
60265 32670 22602 10215 20102 38869 48509 55000 82200
333 20214 82840=
81405 32460 20000 10225 20220 40130 82100
333 58013 81811=
61901 16/// /1318 10136 20134 40178 5//// 69982 333 20135 3/013=
89532 42/80 10607 11222 21302 39845 49873 58009
81500 333 55000 20410=
88963 32965 00000 11087 21141 39850 49880 56004
333 92417 92870 95000
555 19879=
78970 11468 20905 10247 20241 30111 40136 60061 70581 81102
333 00209 10324 20247 58024 81818 90960=
63705 12980 03601 10220 20192 38863 48517 69924 80000
333 20180 59011
555 10200=
78388 32570 40000 10270 20239 40117 81802
333 00000 10323 20249 59004 81822 83070=
68240 32460 80911 10137 20094 48543 52019 885// 333 20067 555 10234
30085=
84628 34358 81607 10155 20140 30135 40151 71042 886//
333   564// 59003 88709=
84401 31960 01805 10190 20159 30152 40222 70200
333   58003=
84691 31460 21102 10142 20121 30133 40140 70200 82600
333   56000 59004 82712=
84452 31960 61910 10160 20135 30124 40156 70302 8601/
333   5600/ 58003 86462=
84515 31960 00000 60240 20233 39926 40104 70200
333   58000=
84686 31760 30000 10100 20046 36891 70200 83500
333   56900 58006 83650=
84377 21460 80000 10225 20218 39999 40105 70322 8352/
333   5600/ 59015 60021 85613 88460=
84752 31962 40702 10095 20012 37539 70300 80005
333   56009 58007 84073=
81408 36/// /3402 10214 20209 40127
333 58012=
60710 32558 30706 10172 20150 30049 40127 57011 82202
333 20167 82820=
60714 32960 13202 10165 20142 30131 40138 55004 80002
333 20150 81070=
60720 32560 51806 10235 20197 30103 40138 56011 85202
333 20175 85820=
60723 33960 00000 10148 20099 39967 40154 56012
333 20146=
60728 33560 61817 10245 20232 30140 40144 56009 86800
333 20225 85820 92436=
60734 33965 01404 10189 20161 39633 40138 56004
333 20182=
60738 32960 12608 10166 20109 38943 48521 54000 80002
333 20160 81070=
60740 32556 21802 10207 20177 30146 40149 57002 81232
333 20207 81820=
60745 32958 22804 10208 20186 39790 40153 57012 80002
333 20198 82070=
60748 33962 20000 10197 20181 39750 40159 54000 80002
333 20194 82070=
60750 32560 13204 10215 20195 30119 40151 54000 81200
333 20211 81820=
60764 33557 30204 10214 20180 30098 40148 56002 82202
333 20207 82830=
60770 33958 21902 10213 20170 39985 40122 57010 80002
333 20205 82073=
60780 33962 00812 10228 20131 39852 40149 52002
333 20224=
76243 32970 01802 10254 20215 39883 40162 52015 90550 333
10350 20219 30/// 55110 59005=
76256 32560 20000 10255 20241 30115 40129 52010 82200 90535
333   10337 20239 30/// 55004 563// 58030 82820=
76342 31840 60000 10246 20139 39470 40147 52022 70222 86050
90540 333   10320 20215 30/// 55096 21148 56030 59008 86356
=
76390 31450 60701 10160 20154 38252 40117 52012 74044 867//
90544 333   10226 20155 30/// 55020 20914 568// 58001 86714
=
76402 32550 20000 10252 20216 30076 40131 52012 82300 90546
333   0/200 10320 20240 30/// 55031 21554 58042 82728=
76405 32940 01801 10252 20238 30110 40131 52013 90550 333
10316 20256 30/// 55023 21093 58020=
76491 32456 40000 10242 20225 39766 40166 52012 84600 90550
333   0/200 10310 20222 31/// 55032 58004 84725=
76647 32860 32001 10244 20236 30056 40087 52003 8303/ 90550
333   0/0// 10366 20243 30/// 55094 58/// 83358=
76656 32965 00000 10175 20167 38510 40106 52008 90545 333
10290 20160 30/// 55042 59014=
76683 32960 00000 10132 20124 37851 40135 51006 90540 333
10270 20108 30/// 59002=
76695 02256 31401 10253 20243 30083 40089 52005 69951 81160
90545 333   0160/ 10325 20240 30/// 55087 59029 69951 81803
=
76743 31220 53004 10260 20244 30171 40178 55004 71300 857//
90545 333   087// 10330 20231 30/// 55059 21392 59021 85606
=
76843 32565 32901 10240 20207 39538 40178 52010 83500 90545
333   0/9// 10313 20221 30/// 55079 2//// 59013 83633=
76845 32930 00000 10122 20110 37944 40125 57003 90540 333
10227 20119 30/// 55071 59018=
76848 32150 50000 10162 20152 38388 40136 51004 83720 90545
333   10266 20153 30/// 55062 56190 59010 83703 82460=
76903 11670 70201 10248 20229 30048 40183 52011 60061 71326
87900 90545 333   0/800 10348 20238 31/// 55056 58001 81933
86650=
76113 32670 82402 10234 20230 39688 40143 52036 60011 88200
90545 333   10274 20198 31/// 55000 56300 59052 60011 88834
=
76393 31462 20000 10234 20202 39578 40146 52007 70544 81550
90550 333   0/350 10306 20220 31/// 55035 58006 81614=
76412 32560 20000 10265 20216 30107 40151 52007 82200 90540
333   01300 10346 20230 30/// 55076 58012 82820=
76471 32980 00000 10150 20131 37718 40078 52004 90530 333
10244 20110 31/// 55100 59004=
76556 01460 82502 10220 20208 39109 40102 52011 69916 75192
8672/ 90530 333   0/68/ 10283 20200 31/// 55055 58004 69916
86720=
76593 32/50 33202 10267 20248 30078 40094 53003 80030 90540
333   00/7/ 10303 20240 30/// 55110 22351 59029 83424 92022
91005 91532=
76675 01560 31401 10107 20089 37395 40095 51004 69931 70296
83400 90545 333   10223 20065 31/// 55073 22068 561// 59001
69931 83626=
89642 41930 41235 11114 21159 39702 49756 51016 70131 82032
333 01272 55010 20626 82359 84073 91056 91172=
60106 32965 00000 10135 20130 40163 56005
333 20134=
60195 12665 3//// 10149 20105 38501 48516 56008 69964 83200
333 20149 83840 95500=
13585 42998 00000 10103 20076 39399 40186 54000 333 20068 30003=
13598 42998 00000 10048 20042 48487 56001 333 20020 31000=
48698 01460 71104 10264 20235 30080 40098 69931 79192 83978 333
69937 70003 81916 85466=
67341 32470 82015 10160 20109 40267 52015 8527/ 333 20139=
17601 32570 53202 10239 20170 30067 40096 53004 85800 90550 333
20194 30015 81825 85634=
40582 32960 03407 10353 20067 40061 51016 333 20279=
11816 12465 71002 10125 20111 39907 40066 56004 69902 81148
333 20109 31009 81813 83362 87270=
11826 12470 51206 10142 20112 39882 40075 57003 60012 81131
333 20135 31012 81819 83363 85070=
11903 12560 71204 10127 20102 39732 40102 56003 60072 87500
333 20111 31008 50152 87630=
11934 12460 71603 10105 20086 39305 42745 58002 69932 8257/
333 20085 31007 50052 81710 87361=
11968 11475 60000 10119 20111 39854 40129 54000 60042 70266 84530
333 20109 31009 50082 82716 83656 85360=
11841 11530 50000 10093 20087 39718 40088 50000 69902 72842 81131
333 20076 31006 50102 81825 84363=
11858 32684 71404 10156 20091 39933 40078 56003 86542
333 20148 31013 50162 86646=
11916 11/00 91813 10027 20024 37923 48421 57008 69942 74544
333 20018 3//// 41998 89/00=
11927 12770 80804 10116 20111 39858 40114 56001 60052 8552/
333 20102 31008 50182 85656 88458=
11930 11/01 70205 11009 21012 37335 47017 56006 60012 74674 85542
333 21021 3//// 44009 856// 86330
444 56//5=
11993 11575 71603 10132 20074 39918 40129 58003 60022 70262 87800
333 20119 31010 50182 81830 87650=
11855 12977 70909 10138 20113 39919 40080 56001 69932 8705/
333 20128 31010 87363=
11867 12675 71304 10141 20101 39781 40087 55000 69922 83571
333 20118 31009 50152 83636 87463=
11880 11558 80401 10131 20123 39931 40098 56002 60032 71062 8557/
333 20105 31007 50082 85630 88359=
11918 32683 71002 10098 20077 39285 42725 56006 81572
333 20071 31006 50132 81636 85360=
11933 12468 82701 10069 20057 38597 48450 55000 69972 86548
333 20056 31005 81610 86620 87267 9514/
444 17104=
11938 11356 82505 10094 20080 39071 42742 57003 60032 71022 885//
333 20081 31008 50042 83706 88630=
11976 11467 41803 10117 20094 39872 40130 53002 60022 70161 83631
333 20111 31010 50192 83711=
11978 11656 81301 10111 20105 30007 40134 55000 60032 71062 885//
333 20106 31010 50152 88646=
54808 31968 01403
10292 20163 40149 57008
70040 333// 20166=
16597 32570 12602 10205 20184 30072 40158 58004 81281 333 20187 30014
70000 81821 =
11036 32970 79901 10123 20110 39828 40052 55006 86072 333 20107
81362 85364=
11010 31964 42902 10089 20088 39692 40063 53001 71111 83032 333
20082 83363=
11120 32475 79901 10095 20090 39369 40060 53005 83871 333 20091
81615 83856 85362=
11150 32270 63502 10093 20083 39549 40078 53016 85571 333 20071
81705 83711 85650=
11240 32780 89901 10135 20112 39660 40064 55003 8187/ 333 20120
81850 86365=
12772 12665 81502 10116 20102 39848 40128 53001 69922 8357/
333 20111 55052 70002 83633=
12822 12972 61603 10168 20082 39931 40069 56005 69902 83045
333 20162 55051 70001=
12843 32768 71302 10136 20102 39939 40105 57002 8357/
333 20127 55079 83650=
12882 32980 41602 10131 20084 39996 40127 55003 84072
333 20115 55058=
12925 11982 72002 10148 20073 39919 40086 57005 69902 72111 85072
333 20129 55080 79999=
12942 32675 70902 10121 20103 39867 40109 55003 86501
333 20106 55098 86640=
12982 32968 11405 10114 20095 30019 40119 57003 80002
333 20093 55104=
54826 32260 50901 10173
20121 38495 57003 85100 333// 20125=
10004 46/60 /2710 10144 20117 310000 410000 58003
222// 00163
333 10146 20116 55058 55300 91114 91212=
10015 01582 52710 10134 20091 39988 49997 53006 69942 72581 85800
222// 02161
333 10144 20124 31011 55062 55300 69947 70004 82820 85656=
10020 11582 62407 10128 20094 39953 49988 53002 69912 70162 85831
333 10137 20117 31011 55060 55302 70025 82820 85635=
10035 01204 62103 10090 20087 39942 40000 52006 69922 74664 866//
333 10122 20087 31007 55051 55302 69917 70037 86604=
10055 32575 51502 10094 20093 39996 40006 53010 83831
333 10149 20087 31007 55053 55303 70027 81820 83650=
10162 31910 62302 10089 20081 39925 40007 53004 7102/ 84072
333 10124 20087 31006 55027 55300 70037 84458 84066=
10184 32960 71801 10092 20091 30005 40012 53007 8707/
333 10122 20082 31005 55016 55300 70056 83360 87465=
10224 01760 72201 10099 20091 30005 40011 53012 69922 76061 8357/
333 10126 20083 31006 55053 55300 69917 70007 83656 87363=
10270 01140 81103 10099 20099 39954 40008 51007 69912 72161 886//
222// 06150
333 10143 20096 31009 55019 55300 69917 70019 88702=
10338 01860 82202 10096 20088 39941 40012 53016 69902 76062 8152/
333 10121 20093 31007 55018 55300 69907 70057 81657 88463=
10361 01550 50000 10094 20091 39908 40010 51008 69902 72122 85500
333 10118 20091 31007 55010 55304 69907 70062 81630 85658=
10384 01357 72301 10109 20107 39955 40014 53010 60012 71062 84832
333 10125 20097 31007 55001 55300 69967 70076 81807 83621 85363
96463=
10393 01330 80101 10106 20106 39892 40016 53005 60082 76161 875//
333 10122 20099 32008 55001 55300 20033 30031 60087 70239 84707
87648=
10400 01240 72603 10109 20098 39983 40032 53021 60052 72086 875//
333 10146 20102 32009 55018 55300 60017 70057 83706 85709 86625=
10469 01581 71703 10105 20099 39859 40020 53013 60012 76062 878//
333 10134 20100 31007 55007 55300 69917 70047 81820 87634=
10488 01883 72704 10120 20103 39752 40025 53018 69962 70362 83556
333 10140 20107 32008 55000 55301 69907 70022 83657 85363 85273=
10548 01575 72202 10089 20084 39501 40033 53016 60152 72561 873//
333 10112 20086 32007 55004 55300 20030 69927 70168 85920 87650=
10637 11480 71803 10103 20095 39912 40047 53024 60142 70362 8483/
333 10133 20096 31008 55000 55300 70245 81712 84650 85360=
10685 11470 82305 10096 20078 39372 40030 53008 60102 70262 878//
333 10109 20088 32008 55000 553// 70174 84810 87620=
10738 01470 72301 10101 20094 39604 40064 53013 60072 72162 8487/
333 10134 20101 31009 55004 55300 60037 70083 81812 84640 86358=
10763 01480 72203 10111 20091 39678 40052 53012 60052 878//
333 10136 20110 31010 55000 55300 20045 69927 70054 82815 84640
87650=
10788 01459 82002 10113 20104 39643 40065 53017 60042 76162 878//
333 10136 20113 32011 55005 55300 60037 70043 82810 83635 87656
96263=
10852 01470 71703 10099 20087 39497 40054 50001 60112 76166 8282/
333 10147 20097 32009 55002 55300 60027 70112 81816 87459 91117
91212=
10946 01360 81502 10091 20087 39258 40073 51015 60082 76362 8552/
333 10138 20091 32009 55026 55300 60087 70079 82709 85618=
48008 31550 61801 10310 20254 40103 83132 333 56569 69004=
48010 32557 60000 10320 20281 40056 83132 333 56569 59004=
48018 32560 30000 10327 20271 40072 83900 333 56500 58010=
48025 32558 61801 10320 20248 40075 83822 333 56449 58003=
48037 32560 62301 10335 20240 40071 83622 333 56449 58010=
48042 32558 71801 10335 20257 40072 84952 333 56449 58001=
48045 32157 70000 10243 20209 85303 333 56209=
48048 32565 31802 10327 20236 40088 82901 333 56409 58004=
48053 32558 71802 10330 20244 40083 84956 333 56499 58014=
48057 /119 72201 10240 20209 75055 86970 333 56590=
48060 32556 31401 10279 20233 40048 82230 333 56560 58004=
48062 /2562 61302 10288 20260 40092 70392 333 56490 58001=
48071 32556 53201 10286 20259 40097 83306 333 56709 59002=
48077 32561 62301 10310 20254 40089 83830 333 56990 59001=
48078 21330 21801 10244 20244 40093 70265 8577/ 333 56499 58002=
48094 21462 80000 10240 20240 40110 72196 8592/ 333 56599 58020=
48097 21456 82302 10245 20245 40116 79555 8597/ 333 5649/ 58017=
48108 32596 60501 10290 20248 40105 84267 333 56119 58002=
48109 32497 71401 10297 20248 40111 84970 333 56590 58010=
48110 32596 83202 10300 20246 40108 84377 333 56599 58006=
48112 32598 82901 10300 20253 40092 83846 333 56599 59013=
10091 12472 52703 10105 20102 39962 40012 52007 69902 81234
333 10130 20090 31008 55032 55302 20168 30122 4//// 70018 81816
84069=
10113 06/// /2909 10130 20090 39987 40006 53007 60022
333 10141 20112 3/009 55046 55300 69907 70021 91113 91211=
10129 32570 32204 10108 20093 30000 40013 53010 81232
222// 02159 20000
333 10143 20103 31008 55039 55300 70004 81822 83072=
10131 32564 21904 10097 20088 39992 40006 53011 81832
222// 02155
333 10136 20095 31008 55043 55302 70018 81820=
10170 31557 51802 10091 20082 39992 40006 53005 71111 83852
333 10131 20091 31007 55021 55300 70076 81826 83650=
10253 31702 62701 10074 20072 39993 40015 53008 7420/ 86500
333 10129 20074 31007 55012 55300 70008 86656=
10280 01130 81301 10103 20101 39917 40013 53004 69902 7284/ 886//
333 10116 20090 31007 55031 55300 69907 70065 88702=
10291 01215 81701 10098 20094 39950 40016 53007 69952 72162 876//
333 10126 20096 31008 55003 55300 69957 70019 87703=
10305 11545 72801 10107 20102 39992 40023 53019 69942 71066 875//
333 10122 20103 31009 55052 55300 70008 87630=
10315 01356 82702 10108 20097 39957 40020 53019 69922 72162 885//
333 10120 20107 31008 55021 55300 69907 70011 81707 87622=
10348 11758 73601 10094 20094 39907 40012 53013 69902 70262 8153/
333 10123 20085 31007 55019 55303 70086 81650 87361=
10385 01457 71801 10107 20104 39952 40012 53007 60042 72162 875//
333 10124 20095 31007 55000 55300 60027 70063 85711 86625=
10453 11/50 81804 10047 20046 38708 48349 53008 69992 76564 876//
333 10053 20045 32004 55001 55300 70181 877// 96041 96263 96461
96445
444 27071=
10474 01556 82601 10105 20105 39887 40013 52014 60012 76062 885//
333 10142 20099 31007 55011 55300 20039 69917 70055 83629 88650=
10490 06/59 /0000 10115 20114 39899 40018 53008 60052 8////
333 10137 20102 3/008 55001 55300 20088 60027 70097 81/04 88/50=
10499 11967 72008 10130 20104 39735 40014 53002 69902 70362 8255/
333 10134 20113 31009 55000 55301 70012 82658 87362 91114=
10501 12235 82702 10099 20087 39792 40035 53023 60042 71022 882//
333 10114 20096 31009 55019 55300 70066 87806=
10513 01470 72702 10108 20094 39918 40037 53020 60052 72066 878//
333 10134 20097 31010 55025 55300 69907 70082 82812 84621 86631=
10532 11380 71902 10101 20097 39804 40035 53020 69972 70362 86831
333 10136 20098 31009 55012 55300 70046 82808 86811=
10544 11/01 92609 10055 20055 38976 48369 53016 60222 75165
333 10079 20053 32004 55000 55300 70256 89/01 91115 91211 96045=
10554 01481 72106 10105 20084 39636 40014 53007 60052 71562 8536/
333 10125 20094 31008 55003 55300 20035 69957 70052 82916 83640
85358 96463=
10577 11680 72304 10106 20088 39534 40024 53014 69992 70362 875//
333 10120 20097 31009 55000 55300 20060 30056 70024 85644 8550=
10578 01/00 92211 10052 20050 38662 48369 51012 60062 76064
333 10070 20051 31005 55/// 55300 20042 30034 69917 70134 91124
91216 96045=
10609 01165 82303 10096 20093 39731 40055 53016 60052 76186 875//
333 10120 20094 31009 55001 55300 60017 70125 81703 87613=
10655 01483 72405 10103 20094 39719 40040 53020 60092 78062 878//
333 10135 20103 31010 55003 55300 69917 70104 82818 84827 86650=
10688 01364 81902 10103 20098 39527 40039 53010 60042 76362 8687/
333 10123 20102 32010 55000 55300 69977 70052 82807 84650 88464=
10708 01059 72304 10091 20090 39676 40055 53015 60182 72022 8783/
333 10123 20082 32007 55000 55300 69917 70226 81701 84805 87620=
10729 11470 62003 10104 20093 39932 40051 53022 60102 70162 81232
333 10140 20097 31008 55000 55302 70102 81815 84359=
10776 01475 71602 10111 20107 39626 40061 50006 60112 72166 8657/
333 10137 20111 32011 55000 55300 60037 70121 82813 83626 85643=
10803 01465 82204 10114 20094 39718 40072 53005 60202 76162 8787/
333 10155 20112 32011 55008 55300 60037 70211 83811 87632 96463
96465=
10836 01165 72606 10075 20071 39203 40058 52013 60102 76162 8687/
333 10108 20073 31007 55002 55300 60067 70108 81701 86626 87456
96465 96463 96461=
96465 98782=
10929 01475 82302 10106 20102 39548 40071 53009 60122 76162 878//
333 10156 20106 31010 55019 55300 60037 70117 82813 87656 91113=
10961 11/01 91911 11021 21021 37009 47972 56001 60012 74574
333 11001 21025 3//// 49120 55009 55300 70010 91128 90253 91218
91218=
10962 11/02 82412 10075 20066 38946 48405 53008 60132 76164 885//
333 10124 20075 32008 55004 55300 60137 70130 837// 88620 91119
91214 96041=
10438 01284 72704 10097 20086 39749 40025 53021 60022 7216/ 8583/
333 10104 20087 31007 55004 55300 60017 70081 83804 84637 87362=
10427 01/03 92703 10055 20055 39035 48355 53018 60052 76186
333 10076 20052 31001 55012 55300 60017 70191 96041=
15004 32998 71402 10097 20071 39833 40165 54000 87070
333 10107 20078 31007 555 60028=
15020 32597 40000 10088 20084 39972 40169 57008 84500
333 10154 20074 31005 555 60000=
15090 32997 21002 10116 20087 30045 40169 52002 81041
333 10155 20082 31006=
15108 31699 22708 10020 21008 38090 48508 54000 70144 81041
333 10021 20000 31/// 95153 444 37091=
15120 31996 40602 10079 20065 39674 40168 57001 71011 82031
333 10111 20049 31002 555 60002=
15150 32997 30000 10095 20085 39945 40174 57009 80002
333 10145 20085 31004=
15200 32998 21105 10120 20082 39990 40130 57001 82040
333 10125 20101 31008=
15260 32999 11601 10067 20049 39639 40174 52001 80001
333 10114 20015 31002 95000=
15280 32999 22706 11007 21042 37515 47066 52003 80001
333 11004 21027 3//// 41998=
15292 32998 21604 10122 20090 39873 40163 57009 80002
333 10129 20091 31008 95000=
15310 32997 10501 10130 20109 30087 40171 51001 81040
333 10167 20104 31007=
15346 32997 13203 10091 20078 39899 40186 52004 80001
333 10156 20076 31006 95090=
15350 32997 03203 10125 20057 30059 40175 52004
333 10172 20089 31008=
15360 32997 03602 10177 20127 30163 40174 53003
222 00194 20000  333 10191 20162 92407=
15410 32997 00102 10131 20074 30078 40170 52002
333 10159 20092 31007=
15420 32997 00101 10113 20107 30050 40159 54000
333 10113 20042 30005 91002 91202=
15450 32998 10505 10102 20092 39942 40177 57003 80001
333 10176 20086 31008=
15460 31996 01300 10141 20087 30148 40170 52004 71000
333 10166 20063 30003=
15470 32997 03602 10094 20086 30048 40174 56004
333 10186 20076 30006=
15480 32997 00000 10145 20145 30160 40176 53003
222 00176 2//// 333 10184 20120 30010 92427=
11423 01108 82404 10081 20081 39188 42692 50015 60052 76164
887//
333 20079 32007 50022 69985 70082 88702=
11464 11/03 92414 10082 20081 39077 42680 53012 60012 76164
333 20080 31008 70057 89/00 91121=
11487 11361 82604 10099 20082 39451 40059 53014 60012 76162
8652/
333 20099 31009 50092 70015 81707 86632 88457=
11518 11682 82408 10125 20097 39614 40039 53008 69922 76062 8257/
333 20112 31010 70017 82640 87357=
11603 12465 71808 10126 20100 39562 40028 50002 60012 85770
333 20109 32010 50052 70121 82711 85633 87360=
11659 11/08 91204 10103 20100 39436 40060 55000 69902 74164
333 20091 31005 50042 70010 89/02=
11782 32770 63601 10127 20118 39760 40066 55005 81542
333 20093 31006 79999 81656 85361=
11101 11459 81102 10113 20105 39561 40072 51015 60062 76362 887//
333 20113 88712=
11022 32457 80202 10114 20105 39671 40050 55005 886// 333 20110 3/010
88712=
11028 32763 60401 10106 20104 39717 40052 56006 81542 333 20103 3/008
81650 84361 85077=
11126 31/05 61618 10025 20023 55000 74111 84831 333 20020 828//
83605 85350 91022 91128 91224 94854 444 28//0 555 10053 6000/=
11130 32157 80304 10102 20092 39491 40065 53005 885// 333 20088
81703 83637 88650=
11146 11/00 92424 11023 21030 36875 47968 57003 60052 77074
333 21033 49240 89/00 91139 92612 93105=
11157 31/02 99901 10075 20070 39307 40061 55007 74544 333 20070 31006
89/01=
11172 32775 60000 10071 20056 56002 83116 333 20071 83856 84465
86270=
11204 46/// /2701 10116 20105 39307 40071 333 20114 3/010=
11231 32675 79902 10119 20104 39524 40077 56006 8187/ 333 20115
81645 83657 87463=
54587 32680 13402 10250
20147 40101 57016 81200 333//
20188=
10147 11965 52701 10088 20082 39988 40006 53009 69912 71122 83031
333 10125 20082 31006 55035 55302 70051 83364 83078 96480 96440 96280=
20087 91102 91102=
60715 32960 10000 10196 20162 30130 40135 56003 81040
333 20173 81360=
60725 32558 20000 10163 20095 39974 40142 56009 82200
333 20161 82820=
60735 32958 1//// 10206 20184 30067 40147 55006 80002
333 20201 81070=
60760 32660 21006 10227 20172 30045 40146 53002 82500
333 20227 82640=
60765 12558 21602 10221 20185 30143 40149 55006 69914 81502
333 20217 70001 81630=
60769 32960 11704 10216 20202 30138 40141 56001 80002
333 20213 81070=
60775 33975 00000 10191 20159 39809 40159 57010
333 20186 55106 55106 22087=
20069 3/005 55012 55300 20000 8//99 555 7/090=
83358 90710 91125=
33317 32980 31602 10103 20074 40155 58006 83030 333
20060 555 32005 52004=
33393 11997 81305 10101 20080 40130 53002 69942 70261 8807/
333 20077=
33506 32998 00101 10130 20113 40179 52009 333 20088=
33587 31996 00000 10106 20094 40173 54000 71000
333 20046 555 31005 52003=
33631 11797 81204 10134 20082 40136 57007
69972 70282 883// 333 20121 86950=
33663 31/93 90000 10094 20092 40169 53003 74541 333 20074=
33711 32960 00000 10120 20103 40184 52001 333 20076 555 31005 52004=
33837 32999 00201 10169 20112 40179 54000 333 20109=
33910 32998 00000 10173 20117 40169 52003 333 20111=
33946 32997 00902 10179 20087 40173 52004 333 20104=
34300 32997 33103 10134 20103 40172 53008 80001 333 20108=
34519 31218 83303 10132 20128 40156 53005 72842 886// 333
20113 88704=
34601 31216 63506 10130 20126 40171 53004 72842 86600 333 20112 86705=
43555 21457 82511 10254 20237 40123 76186 8392/ 333 58007
6004/ 82816 81917 88459=
43577 21470 82914 10286 20243 40122 72586 8322/ 333 59005
6990/ 82818 88462=
43599 21475 73205 10266 20243 40121 72582 8497/ 333 59001
6990/ 83816 81918 87361=
51581 16/// /2700 10046 29050 30046 69951
555 1/133 2//02 /////=
17022 32670 10906 10185 20134 40172 55003 81200 333
20142 31012 50154 55004 20798 70075 81834 92428=
17038 32570 72711 10216 20198 40160 53008 84250
333 20215 30020 50301 55043 21114 84830 87360 92438=
17050 32970 03403 10132 20088 40175 51001 333 20105
30009 50431 55105 21698=
17060 32960 00509 10200 20132 40162 56001 333 20176 30016=
17096 32570 10000 10138 20069 38236 48494 52006 81100
333 20038 30002 50401 55092 22063 81830=
17124 32965 00000 10130 20088 39265 40156 58001 333 20104 30010=
17128 32670 50612 10176 20150 39073 40123 55001 82130 333 20148 30014
50641 55096 82840 84359=
17170 32970 00000 10212 20076 38333 48491 52007
333 20090 30007=
17195 32970 00303 10180 20098 38960 48510 51004 333 20112 30009=
17200 32970 01605 10232 20129 39155 40084 52011 333 20150 30013=
17219 32965 03414 10209 20106 40122 57002
333 20168 30///=
17240 32975 02601 10176 20098 39004 40097 56002 333
20116 30009 50461 55097 22133=
17244 32970 00113 10180 20097 38976 48508 53005
333 20147 30013 50901 55109 22173=
17280 32970 00603 10238 20083 39320 40058 52014
333 20148 30012 50801 55107 22265=
17350 32560 39903 10254 20211 40088 57005 83100 333
20202 30/// 83830=
17026 11570 72904 10188 20148 40167 51002 69922 70282
85270 333 20179 31016 50184 55000 20484 70002 85830
87358 92428=
17034 11670 71608 10184 20152 40164 53006 60202 72582
84270 333 20180 32017 50234 70212 84835 87359 92438=
17070 31550 80501 10104 20089 39318 40170 51001 71011 886// 333
20088 30006 50194 55019 88720=
17084 32670 70905 10166 20128 39272 40145 53004 85270 333
20150 30014 50501 55098 21847 85835 87360=
17090 32965 00000 10172 20083 38722 48506 51004 333
20120 30010 50471 55103 21774=
17098 32670 40404 10160 20108 38210 48498 51010 84200 333
20108 30009 84840=
17150 32960 00000 10160 20090 40147 57003 333 20090 30007 50704 55104
22072=
17160 32670 20212 10170 20107 39010 48510 51001 82100 333
20148 30014 50781 55109 22070 82840=
17184 32970 00000 10175 20123 40128 54000 333 20144
31011 50701 55105 22257=
17190 32970 03306 10126 20071 39019 48506 54000 333
20085 30007 50601 55086 21942=
17210 32975 00903 10250 20139 39099 40065 52006
333 20190 30016 50884 55112 21845=
17234 32970 01003 10201 20126 40108 55001 333
20160 30012 50731 55098 22332=
17260 32970 00000 10242 20102 39292 40060 51004 333 20180 30015=
17290 32970 00000 10208 20136 40092 57009 333
20202 30018 50644 55092 21808 92408=
17370 32665 40602 10266 20224 40096 53002 84200 333
20252 30025 50384 55068 21263 70002 84835 92417 555
00292=
57012 70000 87/// 90550
333 10146 20107=
57002 70085 85/// 90550
333 10127 20116=
17024 12670 32106 10169 20136 40176 54000 69912 83100
333 20154 32014 50191 55000 70019 83835 92438 555
00226=
17056 32970 03203 10198 20150 40172 53001 333 20134
30011 50381 55104 21935 92428=
17067 32970 01102 10162 20137 40171 53001
333 20132 30010 92408=
17092 32970 01504 10176 20128 38857 48514 52007
333 20114 30009 50484 55089 21992=
17112 32970 00204 10182 20154 40159 56005 333
20150 30011 50601 55107 21926 92418=
17115 32960 00000 10164 20102 40154 53001 333 20103 30010=
17116 32965 01201 10176 20108 40169 56002
333 20144 31012 50244 55048 21211=
17188 32970 00205 10174 20080 39090 40104 57010 333
20120 30009 50501=
17202 32970 00903 10202 20017 39112 40091 52012=
17248 32975 02508 10162 20143 38958 48497 52008 333
20137 30013 50601 55116 22420=
17292 32970 02806 10178 20096 39365 40088 56005 333
20158 30015 50701 55098 22045=
17300 32570 10201 10230 20185 40088 53005 81100
333 20200 30019 50704 55109 22083 81830=
17330 32970 03401 10240 20163 40097 51001 333
20195 30016 50701 55106 22057=
17042 11560 72703 10202 20183 40164 52008 60132 78082 84270 333
20182 32017 50114 55008 70126 84830 87458 92427=
17074 32670 72202 10135 20091 39258 40169 54000 84270
333 20125 31010 50281 55024 20935 70002 84835 87360=
17085 32670 73603 10190 20124 40155 51004 83270 333
20170 30015 50544 55086 21867 83840 87360=
17100 32970 02903 10234 21013 39148 40083 51008 333
20150 30012 51204 55098 21925=
17140 12665 60609 10134 20124 38712 48507 53005 86200 333
20128 30005 50381 55081 21583 70002 86840=
17203 32970 00000 10210 20124 38875 48552 53005 333
20146 30011 51124 55113 22375=
17205 32980 00000 10150 20063 38320 48483 54000 333 20086 30007
50641 55067 21130 92418=
17237 32970 00402 10190 20117 40115 57007 333
20160 30013 50601 55095 21611=
17250 32975 00701 10172 20106 38795 48501 52006 333
20124 30010 50551 55115 22432=
17255 32970 00000 10242 20186 39440 40073 51002 333
20194 30018 50644 55097 21997=
17270 32970 00000 10249 20161 39457 40059 52007 333
20195 30015 50501 55099 22066=
17275 32980 00304 10264 20150 38938 48493 52004 333
20212 30019=
17375 32975 01803 10236 20151 40082 53002
333 20190 30017 50691 55101 21861 92408=
11406 01460 82103 10115 20102 39471 40039 53016 60052 72186
8657/
333 20113 32009 50072 69905 70074 86610 88358=
11457 01260 82606 10072 20065 38797 48408 53010 69932 76162
885//
333 20072 31006 69915 70003 88606 91011=
11520 11681 82503 10129 20099 39687 40041 53007 69942 70262 8657/
333 20114 31010 50062 70022 86640 86359=
11636 11268 40000 10093 20090 39395 42703 55001 69902 70161
82670
333 20082 31006 50052 70002 82705 84359 9513/=
11679 11456 61403 10119 20096 39579 40052 56004 69952 71062
82670
333 20092 32008 50042 70013 82713 86356=
11723 32965 71004 10129 20110 39768 40057 57006 87070
333 20114 31010 70003 87461=
11774 32970 71403 10146 20106 39799 40061 55007 83032
333 20127 32011 70001 83360 87070=
11787 31/00 91613 10068 20067 38584 48409 55001 74544
333 20064 31006 70001 89/00 91018 91120=
54776 32980 03406 10253 20186 30089 40143 57011 333//
20211=
26313 11497 81805 10115 20108 40031 52001 60022 76361 8872/ 333
20114 87712 91111=
26348 32498 71304 10098 20089 40092 57006 82630 333 20066=
26406 11457 81602 10126 20124 40028 52010 60282 71082 889// 333
20120=
26416 11469 81703 10116 20104 40038 52005 60022 72162 889// 333
20108 85614=
26422 11296 81404 10109 20105 40052 54000 69972 76386 8872/ 333
20101 87706=
26544 11456 81404 10102 20092 40094 56003 69962 78182 889//   333
20086 85918=
12205 11225 81201 10106 20104 30012 40020 53005 69912 72011 886//
333 10128 20105 31006 55007 70016=
12465 12960 51603 10121 20105 39829 40055 55003 69912 85030
333 10132 20120 32011 55011 20769 70011=
12560 32598 71702 10142 20105 39739 40072 55002 8457/
333 10142 20114 31010 55032 79999=
12250 11596 51201 10116 20107 39954 40040 54000 60022 71022 85500
333 10133 20110 31010 55021 70034=
12295 11560 81502 10122 20111 39903 40084 53004 60022 70262 885//
333 10128 20114 31010 55017 70023=
12330 12660 61604 10119 20112 39922 40027 55004 69902 85532
333 10133 20097 32006 55002 70080=
12375 11965 61404 10123 20109 39939 40066 57002 60012 70262 86030
333 10126 20117 31011 55059 70014=
12424 12799 61705 10139 20113 39886 40033 57008 69912 82570
333 10148 20117 32010 55000 70018=
12100 31450 81901 10113 20089 30015 40021 52006 710// 885//
333 10138 20098 31003 55000 20433 70014=
12105 11230 81901 10115 20104 39983 40023 52006 69952 71011 886//
333 10137 20101 31007 55007 70012=
12135 12498 52103 10125 20105 30028 40031 52005 69922 85200
333 10138 20122 31010 55035 70008=
12185 12465 31704 10133 20126 39926 40057 52008 60032 82530
333 10133 20115 31011 55066 70026=
12195 11340 82104 10117 20112 39849 40071 51012 60052 71086 886//
333 10121 20111 31011 55053 70046=
12235 11496 61803 10116 20107 39826 40031 52001 69982 71011 83536
333 10125 20108 32010 55012 70046=
12300 11915 81701 10100 20098 39933 40021 53001 69902 72822 8807/
333 10135 20089 31004 55000 70062=
12360 11996 71403 10124 20112 39922 40052 58002 60012 71011 8705/
333 10129 20116 32011 50143 55035 70020=
12385 11597 71603 10128 20105 39899 40084 53002 69942 70182 8333/
333 10137 20106 31010 55026 70004=
12435 12560 71503 10127 20113 39872 40039 57008 69942 8353/
333 10134 20116 31010 55017 70010=
12495 12697 71503 10125 20100 39810 40095 51001 69902 875//
333 10125 20117 31009 55032 70005=
12520 12575 61905 10126 20101 39627 40047 54000 69902 85939
333 10133 20117 32010 50163 70001 91010 91110=
12570 12798 71304 10126 20099 39772 40081 52001 69902 875//
333 10126 20114 31010 55013 70002=
12575 12960 61802 10142 20099 39838 40085 56002 69902 82048
333 10146 20118 31011 55043 79999=
12595 36/// /1905 10141 20094 39843 40106 54000 60012
333 10162 20118 70012=
20107=
17600 32570 20603 10236 20157 30082 40098 51004 82100
333 20174 50511 55112 82820 92428=
17609 32580 41907 10248 20171 30092 40094 51003 84840
333 20197 51051 55108 81830 83650=
16622 32960 00000 10174 20112 30166 40171 53001 333 20142 30///
50770 55103 90730 91107 555 10000 30216 20000 89029 99075
30000 10210 20206 30226 40238 50280 40000 47657 44235 50000
50140=
16641 32970 00000 10152 20134 30146 40151 56001 333 20134 30/// 55104
90730 91104 555 10000 30220 20000 89030 99091 40000 47642 44230 50000
50142=
16682 32960 0//// 10172 20113 30136 40154 53003 333
20134 30/// 50630 55108 90730 911// 555 10000 30174
20000 89029 99088 30000 10190 20200 30230 40248
50270 60276 40000 47635 44230 50000 50140=
16716 32565 13510 10222 20116 30131 40149 51003 81100 333 20190 30///
55096 555 10000 30230 20000 89033 99068 40000 47634 44245 50000
50162=
16754 32570 33012 10234 20135 30082 40127 52003 83200 333 20204 30///
50680 55108 90730 91118 555 10000 30234 20000 89044 99073 40000 47599
44250 50000 50176=
16650 32970 00311 10222 20133 30149 40153 51002 333
20172 30/// 55107 90730 91114 555 10000 30222 20000
89038 99087 30000 20206 30228 40264 50286 40000
47645 44245 50000 50170=
16732 32968 13523 10230 20138 30106 40118 53001 80001 222// 00240 333
20224 30/// 55104 90730 91129 555 10000 30230 20000 89057 99071 40000
47616 44260 50000 50176=
16614 32975 00000 10082 20043 39411 40199 54000 333 20050 30///
55110=
16627 32960 00000 10160 20087 30160 40164 56003 333 20110 30/// 55104
90730 91105 555 10000 30190 20000 89034 99077 30000 10196 20206 30212
40230 50246 60236 40000 47654 44240 50000 50130=
16675 31970 02703 10144 20106 30140 40160 53008 702// 333
20122 30/// 55106 90730 91107 555 10000 30216 20000 89027
99081 30000 10194 20212 30236 40250 50262 60255 40000
47637 44220 50000 50124=
16710 32964 00000 10092 20029 39409 40182 54000 333 20064 30/// 50900
55100 90730 91106 555 10000 30170 20000 89026 99066 30000 10170 20164
30180 40200 50228 60236 40000 47087 44220 50000 50064=
16723 32565 13410 10226 20125 30111 40119 51013 81200 333 20204 30///
55115 90730 91120=
16746 32560 30000 10204 20165 39959 40137 54000 83200 333 20174 30///
55107 90730 91104 555 10000 30204 20000 89037 99081
40000 47507 44250 50000 50180=
51828 31959 70903 10235 20034 38587 40053 57003 70600 81032
333// 00103 20154=
57655 11960 70901 10298 20195 40097 57019 69901 70060 80008
333// 20236=
57972 32663 13601 10325 20164 39879 40091 57027 81100 333//
20216=
53915 11757 80902 10165 20142 38649 40123 57002 69901 76060
885// 333// 00354 20152=
56571 32780 71605 10278 20181 38370 57016 878// 333 05108
20191=
54623 32970 01405 10268 20191 40154 57006 333 20204=
58606 32968 03603 10306 20181 30049 40101 57019 333// 20236=
58506 32970 03603 10216 20114 40121 57010 333// 20157=
58519 32980 03403 10297 20152 40104 57017 333// 20219=
58027 32670 20701 10283 20172 30086 40135 57018 82100 333
20191=
58834 32670 20401 10318 20191 40071 57028 82100 333 20209=
53446 32668 70904 10210 20130 40118 57013 875// 333// 20164=
53782 32562 42701 10260 20123 40129 57022 81102 333// 20150=
59265 31630 21801 10331 20233 39953 40085 57023 70500 82100
333// 20236=
59037 32560 21804 10332 20231 39879 40074 57029 82100 333//
20256=
59254 31556 11102 10332 20237 40078 57029 70500 81100 333//
20240=
57947 32561 10000 10345 20219 40079 57029 81100 333// 20222=
59647 11561 70402 10295 20263 40090 57017 69901 72580 879//
333// 20262=
59023 32563 31402 10335 20215 39834 40070 57028 83100 333//
20259=
50527 32970 20902 10199 20030 39495 40210 57020 80002 333//
20047=
56080 32980 73403 10177 20104 37165 57009 8703/ 333// 00352
20104=
56386 11420 82701 10217 20208 40096 57012 60011 76060 8677/
333 00153 20197=
56543 32680 73402 10182 20091 36879 57011 872// 333// 00100
20068=
56748 32580 71405 10252 20169 38338 57020 87900 333// 00151
20169=
56751 32680 50904 10263 20173 38012 57015 83902 333// 00100
20152=
56969 11580 22501 10304 20216 40074 57030 69911 70080 82100
333// 00200 20215=
57872 32670 10404 10329 20169 40098 57018 81100 333// 20236=
59298 32561 23602 10325 20220 40074 57024 82400 333 20253=
59501 32561 32203 10307 20237 30072 40088 57018 83200 333
20250=
59096 32678 10203 10332 20166 40083 57024 81100 333 20201=
59287 32567 53605 10334 20193 30037 40086 57019 82202 333
20261=
59658 32565 21403 10322 20244 40084 57020 82100 333 20270=
59316 32460 21602 10308 20238 30064 40073 57023 82200 333
20242=
59293 32565 21103 10331 20217 30030 40077 57024 82100 333
20239=
54351 32970 00000 10281 20129 40160 57016 333// 20136=
59855 32580 53402 10329 20241 40081 57018 85100 333// 20246=
59954 32580 51404 10316 20245 40080 57018 85200 333// 20250=
54365 32575 22703 10297 20176 40148 57018 82100 333 20144=
58754 32570 10204 10323 20165 40064 57018 81100 333 20205=
58725 31678 13203 10317 20165 39827 40076 57025 70040 81100
333 20185=
58737 32680 23206 10330 20196 40076 57025 82100 333 20200=
58846 32668 11402 10318 20191 40059 57022 81100 333 20227=
58931 32265 42903 10202 20152 38355 57008 84100 333 20145=
50983 32970 02002 10263 20163 40142 57008 333 20138=
50774 32970 13404 10214 20050 39894 40184 52003 80002 333
20110=
50953 32970 23403 10240 20126 39994 40165 57001 80002 333
20154=
50978 32580 12903 10293 20094 39864 40139 57009 81100 333
20146=
54534 32575 70000 10283 20171 40150 57006 82130 333// 20201=
59134 32561 21603 10303 20227 39914 40071 57028 82100 333
20232=
57608 11740 83601 10231 20207 40093 57011 60021 71060 885//
333 20214=
57237 11956 80000 10195 20184 40120 57009 60061 76066 8807/
333 20179=
57206 11730 80000 10205 20188 40104 57011 60011 76060 885//
333 20186=
56287 11840 80000 10214 20196 40107 57010 69941 71060 885//
333 00153 20190=
57051 32962 81104 10266 20181 40131 57016 8807/ 333// 20215=
57071 32865 70905 10278 20179 40126 57016 875// 333// 20191=
57034 32960 82702 10247 20182 40099 57010 8803/ 333 20204=
57143 11960 80000 10205 20165 40138 57008 69901 70060 8807/
333 20175=
53646 32974 71606 10233 20135 38947 40110 57010 8703/ 333
00251 20168=
57232 11958 80000 10196 20190 40138 57009 60021 76064 8807/
333 20184=
53738 11677 81403 10172 20141 40125 57005 69901 76060 8452/
333 20163=
58562 11562 83204 10257 20196 40094 57012 69901 78000 884//
333 20221=
58665 32575 33206 10302 20180 40065 57011 82140 333 20220=
58666 32565 13413 10267 20200 39965 40062 57011 81100 333
20231 91120 91534=
58660 32680 53203 10295 20171 40074 57013 85100 333 20224=
57649 32975 61403 10311 20181 40097 57023 83042 333// 20229=
54646 32980 01103 10262 20180 40158 57003 333 20233=
57774 32565 10402 10331 20180 40098 57015 81100 333// 20204=
57776 32268 53201 10236 20170 40112 57012 85200 333// 20173=
57874 32565 10204 10322 20200 40093 57022 81100 333// 20219=
53588 32480 50904 10158 20102 37842 57004 85100 333 20089=
57662 32965 03601 10327 20183 30063 40103 57023 333// 20232=
57461 32962 81801 10286 20186 39962 40116 57015 8807/ 333
20227=
59126 32665 21601 10349 20167 40071 57028 82240 333 20244=
59082 32575 10201 10329 20199 30012 40086 57024 81100 333
20221=
59478 32565 23605 10332 20224 40079 57023 82100 333 20250=
59663 32566 40703 10339 20224 30053 40080 57020 84100 333
20255=
59417 32680 33201 10332 20232 39940 40086 57021 83200 333//
20242=
58527 32570 10402 10306 20145 30020 40092 57021 81100 333//
20214=
57793 32568 10202 10314 20175 40102 57026 81100 333// 20200=
57598 32580 21401 10332 20183 40098 57026 82130 333// 20181=
58715 32568 33604 10302 20200 40092 57021 83100 333// 20207=
59849 32580 50904 10320 20229 40086 57020 85100 333// 20233=
59758 32580 50401 10316 20252 30063 40083 57019 84202 333//
20255=
53480 32680 71803 10225 20087 40132 57019 84102 333// 20067=
57504 11940 70000 10226 20202 40090 57013 69901 71060 8704/
333 00102 20202=
51133 32980 12002 10133 21037 39570 40210 57010 80002 333//
00400 20020=
54259 32980 02202 10282 20078 40158 57014 333 20144=
54342 32970 03401 10277 20116 30096 40154 57016 333 20152=
54497 32575 10202 10288 20173 30123 40137 57024 81100 333
20165=
54324 32765 20902 10285 20157 40153 57014 81102 333 20138=
54563 32980 01603 10280 20095 40146 57016 333 20164=
54346 31968 00000 10278 20112 40154 57015 70040 333 20151=
54493 32574 10000 10299 20158 40140 57016 81100 333 20147=
54579 32980 01402 10259 20198 40148 57018 333 20211=
54584 32970 00402 10280 20128 40141 57021 333 20144=
54725 32965 00703 10292 20146 40142 57010 333// 20164=
54843 32972 00403 10286 20145 30115 40141 57011 333// 20122=
54863 32580 12203 10268 20142 40140 57016 81400 333// 20172=
54823 31558 10404 10294 20172 39945 40139 57013 70400 81100
333 20191=
54916 32565 10703 10297 20162 40146 57014 81100 333// 20169=
54824 32965 00404 10296 20107 40142 57014 333// 20165=
59228 32565 12201 10337 20232 40084 57022 81100 333// 20255=
59431 32565 12002 10327 20230 39943 40086 57023 81100 333//
20245=
59632 32568 12501 10323 20249 40085 57022 81100 333// 20261=
59021 32562 20202 10310 20211 40076 57027 82100 333// 20213=
59218 11575 30000 10287 20197 40087 57021 69901 70080 83200
333// 20212=
59446 32560 30402 10331 20252 40077 57025 83100 333// 20248=
59058 31658 20902 10329 20226 40079 57027 70500 82100 333//
20217=
59644 32560 61802 10298 20252 30070 40085 57017 86900 333//
20265=
59453 31558 53601 10328 20227 40079 57024 71000 84202 333//
20251=
59242 32560 20000 10342 20239 40082 57023 82100 333// 20250=
59209 11575 61403 10284 20187 40086 57021 69901 70060 86800
333// 20207=
57476 32963 70201 10306 20175 40110 57015 8704/ 333 20245=
54102 32680 71604 10271 20047 39022 40111 57027 81102 333//
20097=
58141 32570 50203 10278 20148 30113 40130 57013 85100 333
20168=
58150 32570 50206 10257 20161 30120 40128 57011 85100 333
20193=
58138 32575 30204 10270 20175 40125 57014 83100 333 20189=
58343 32568 50207 10271 20184 40113 57018 85200 333 20205=
58345 32570 10204 10277 20174 40115 57016 81100 333 20211=
58241 32580 20405 10285 20154 40124 57016 82100 333 20200=
58040 32670 10905 10264 20164 30135 40139 57011 81500 333
20187=
58358 32670 23405 10288 20156 40105 57017 82200 333 20210=
57259 11965 70703 10284 20176 40103 57020 69921 70060 8704/
333 20194=
54455 32970 01803 10265 20197 40159 57009 333 20158=
59838 32580 22703 10295 20236 30073 40087 57019 82962 333//
20257=
56666 32680 71103 10302 20203 40028 57020 87800 333 00101
20225=
56459 32880 61403 10266 20146 37632 57020 82240 333 00105
20155=
56565 32580 72502 10237 20115 37494 57012 8326/ 333 00102
20142=
56671 32680 51804 10253 20171 38200 57012 85240 333 00102
20185=
56479 32570 70401 10221 20172 37926 57007 87800 333 00005
20143=
56485 32580 82501 10205 20174 40093 57010 888// 333 00000
20173=
56475 32580 70401 10213 20161 38308 57017 878// 333 00102
20159=
57313 11920 80000 10201 20196 40105 57010 60021 76060 8807/
333// 00100 20191=
56188 11556 80000 10203 20189 40105 57009 69951 76060 885//
333 00151 20183=
56193 32665 61402 10249 20168 40086 57022 82240 333 00101
20183=
56196 32666 70201 10234 20193 40102 57012 8244/ 333 00101
20192=
56294 11962 80000 10228 20198 39529 40108 57012 69901 70060
8807/ 333 00101 20202=
57328 11850 70203 10241 20202 39694 40087 57018 69901 71060
875// 333 20200=
57411 11415 83602 10204 20201 39742 40099 57013 60031 76064
8277/ 333 20197=
54401 32970 51804 10280 20104 39326 40137 57018 80002 333//
20146=
57522 31740 83602 10282 20210 40074 57022 71000 885// 333
20209=
57458 32970 71101 10281 20145 40111 57018 8704/ 333 00106
20186=
54527 32660 10901 10294 20157 40146 57009 81100 333 20191=
51716 32961 70402 10187 20081 38861 40085 52001 86062 333//
00353 20135=
51811 11862 72002 10200 20101 38743 40086 52002 69901 70080
82962 333// 00252 20138=
51709 32980 12003 10229 21006 38671 40055 57010 81060 333//
00101 20140=
54871 32980 00706 10251 20167 40145 57011 333// 20198=
54339 32965 50401 10277 20132 40128 57016 80002 333 20183=
53513 32570 73601 10246 20142 38939 40074 57009 83902 333//
05100 20178=
53502 32965 72701 10245 20128 40059 57005 85032 333// 00352
20175=
52576 32980 73403 10229 20046 38470 57009 83032 333// 00953
20137=
52495 32870 72707 10224 20113 38645 40068 57003 85502 333//
00352 20167=
53602 32670 72004 10199 20136 38406 54000 86902 333// 20164=
52267 32980 03406 10238 20065 39040 40080 57004 333// 00657
20153=
56046 32580 62703 10157 20057 36312 57011 86900 333 00351
20052=
54736 32668 10903 10282 20137 40150 57007 81100 333// 20194=
53882 32576 60202 10247 20130 40139 57012 86200 333// 20108=
53487 32565 31603 10267 20091 40113 57020 81102 333// 20124=
53564 32672 70000 10256 20135 39146 40104 57020 86102 333//
00000 20123=
53868 32570 72202 10280 20162 40111 57018 8223/ 333// 20203=
53772 31958 61602 10260 20165 39258 40130 57022 70400 82042
333// 20145=
53663 32978 61605 10251 20061 40095 57011 82032 333// 20071=
53853 32570 71803 10226 20136 40120 57013 8323/ 333// 20168=
53787 32565 61604 10245 20096 40143 57016 86130 333// 20113=
53478 32968 41605 10232 20075 40125 57017 80002 333// 20093=
53664 32970 61404 10263 20101 40106 57015 86030 333// 20150=
50603 32980 61603 10211 20007 39548 40195 57022 80002 333//
20072=
50548 32580 13201 10200 20033 40218 57010 81102 333// 20072=
50425 32580 52202 10193 20057 40221 52033 82102 333// 20019=
50434 32580 32903 10172 20026 39369 40237 57015 82202 333//
21018=
50632 32980 10701 10190 21009 39352 40210 57015 80002 333//
20062=
56959 32780 20902 10315 20209 40063 57028 82100 333// 00101
20222=
56966 32775 71401 10334 20213 40043 57027 8743/ 333// 00100
20252=
57554 32963 80701 10295 20178 40110 57016 8807/ 333// 20221=
57745 32560 11103 10328 20203 39783 40090 57021 81100 333//
20223=
58402 32980 00403 10328 20119 40105 57023 333 20201=
58847 32568 12903 10333 20212 39961 40058 57029 81200 333
20223=
58911 32666 52903 10298 20176 40084 57021 85200 333 20177=
59133 32962 01804 10294 20194 40067 57021 333 20245=
58731 32980 02906 10294 20132 40082 57019 333 20178=
59754 32472 72203 10304 20257 40082 57021 879// 333 20252=
53923 32980 81603 10178 20135 40115 57005 8807/ 333// 20152=
59985 32580 62903 10308 20263 30078 40083 57015 86900 333//
20251=
59845 32580 60403 10317 20242 40083 57024 86202 333// 20245=
54254 32970 02202 10286 20191 40156 57014 333 20123=
54333 32562 23301 10271 20176 40155 57013 82100 333 20158=
54236 31965 10000 10270 20160 30056 40155 57010 70040 80002
333 20148=
54237 31565 11601 10287 20149 40163 57009 70040 81100 333
20146=
57606 32563 61405 10276 20188 40070 57019 86800 333// 20213=
56691 32580 61804 10214 20146 37785 57009 86242 333// 00101
20160=
57707 32678 71102 10278 20182 38462 57016 8784/ 333// 00103
20189=
57713 32574 61803 10291 20185 40061 57025 86200 333// 00002
20205=
56793 32580 71805 10267 20157 38465 57015 878// 333// 00101
20193=
57806 32580 52205 10254 20169 40076 57013 85100 333// 20195=
57816 32575 52204 10298 20168 38759 40063 57018 85100 333//
00004 20196=
57825 32575 52002 10316 20177 40078 57027 85100 333// 20202=
57832 32580 70702 10296 20205 40080 57027 878// 333// 20200=
57902 32580 31405 10265 20172 38608 40074 57014 83100 333//
00102 20192=
57916 32577 60901 10343 20213 40068 57025 86200 333// 20220=
57922 32566 62205 10285 20182 40084 57021 86200 333// 20194=
56763 32680 41805 10321 20166 40017 57020 83202 333// 00101
20237=
56768 32680 72002 10241 20160 38222 57016 87900 333// 00100
20182=
57494 32970 00402 10319 20166 30079 40107 57020 333 20247=
54208 32580 71605 10233 20090 38773 40152 57012 81102 333//
20054=
53195 32680 71608 10257 20038 40106 57028 81102 333// 20126=
53192 32580 71402 10253 20021 38897 40140 57022 81132 333//
20115=
54012 32980 70000 10233 20065 39038 40152 57019 80002 333//
20069=
50915 32580 71104 10219 21004 39212 40167 57024 81102 333//
20062=
53798 31658 71601 10295 20177 30048 40137 57018 70400 82102
333// 20211=
57016 31940 80000 10220 20169 40114 57002 71000 8807/ 333
20190=
51573 31958 80000 10229 20069 30080 40121 57001 70600 8807/
333// 01160 20163=
54511 32662 11801 10289 20167 30103 40141 57014 81100 333
20179=
57306 11958 80000 10210 20198 40101 57014 69941 72166 8802/
333 20194=
58634 32565 20702 10301 20171 40088 57020 82100 333// 20206=
57799 32580 23403 10322 20207 30012 40092 57022 82140 333//
20214=
57993 32665 51601 10306 20184 39934 40091 57022 85100 333//
20216=
57896 32978 00903 10315 20197 40096 57023 333// 20206=
58626 32575 42703 10314 20164 40090 57024 84200 333// 20223=
57134 11356 80000 10177 20172 40130 57007 60031 76066 8752/
333 00101 20166=
57144 11570 80000 10185 20177 40142 57005 69921 76060 8272/
333 20174=
53754 32667 71406 10241 20131 40114 57012 8253/ 333 20179=
57106 11763 81402 10192 20171 40120 57009 69921 70060 885//
333 00101 20166=
53942 32960 81604 10216 20136 40119 57006 8807/ 333 20164=
57127 11560 80000 10196 20183 39539 40123 57010 69911 76060
8172/ 333 20181=
53740 32668 81804 10218 20127 40109 57006 8351/ 333 20171=
57036 11966 80903 10264 20157 39645 40094 57009 69901 70060
8807/ 333 20210=
53929 32765 81404 10197 20142 40113 57003 885// 333 20162=
57245 11957 82703 10228 20191 39787 40122 57010 69931 71060
8802/ 333 00102 20198=
57265 32962 80701 10297 20191 30008 40113 57015 8807/ 333
20213=
59626 32563 11801 10313 20240 40086 57019 81200 333// 20249=
54753 32965 00405 10266 20165 30137 40143 57013 333// 20163=
54836 32980 03604 10274 20082 40146 57012 333 20152=
54751 32570 10405 10250 20159 40147 57008 81100 333// 20198=
53543 32980 71605 10198 20075 38531 40104 57010 8703/ 333//
20145=
54218 32980 60404 10256 20067 39512 40160 57018 80002 333//
20130=
58477 11480 73606 10253 20203 30042 40084 57007 69921 70080
878// 333 20228=
58646 32665 73203 10284 20178 40086 57020 87500 333 20199=
58647 32572 10703 10305 20181 40079 57024 81100 333 20187=
58472 32480 83411 10243 20218 39989 40083 57010 888// 333
20227 91118 91536=
58760 32980 13202 10306 20185 40059 57012 80002 333 20237=
58556 32670 20205 10279 20190 40099 57014 82100 333 20193=
58752 32967 13205 10304 20169 30027 40070 57014 81040 333
20225=
58569 32580 63609 10249 20199 40071 57007 86130 333 20219
91119 91534=
54774 32580 10404 10263 20150 40147 57012 81100 333// 20191=
56096 32680 71604 10237 20144 38899 40072 57009 87802 333//
00352 20206=
58265 32575 83605 10253 20193 30101 40112 57012 8347/ 333
20234=
58251 32573 20205 10260 20161 30116 40121 57013 82100 333
20193=
58238 32578 50203 10281 20155 30106 40115 57015 85200 333
20209=
50838 32980 20405 10228 20014 40192 57011 80001 333// 20136=
57853 32960 00702 10312 20183 40097 57028 333// 20212=
59046 31550 12502 10343 20213 40078 57031 70400 81100 333//
20259=
57957 31558 11401 10336 20205 39893 40080 57029 70500 81200
333// 20242=
59065 31959 02201 10333 20210 40082 57026 70500 333// 20231=
58362 32580 80204 10258 20184 30091 40101 57012 8217/ 333//
20230=
57355 32665 70000 10271 20181 40106 57020 8114/ 333 20210=
53821 32670 81601 10180 20148 40115 57002 8257/ 333 00352
20169=
52895 32980 80000 10212 20145 40080 57002 8807/ 333 00653
20180=
52652 32980 10901 10237 20079 38489 40069 57017 81042 333
00802 20124=
52418 32980 10702 10261 20075 38804 40047 57023 80002 333
00107 20079=
52984 32765 70000 10201 20127 38068 57002 875// 333 00653
20134=
52546 32975 10903 10244 20078 40047 57019 80002 333 00801
20117=
56074 32580 61103 10190 20096 36694 57012 86900 333 00205
20080=
57378 32565 52501 10319 20183 40114 57021 81130 333 20236=
57405 11865 83401 10226 20203 40097 57009 69921 70060 885//
333 20201=
55591 32680 62702 10190 20067 36566 57010 84240 333 00102
20106=
55585 32780 20000 10200 20083 36427 57014 82200 333 00200
20090=
55493 11780 50000 10135 20069 36081 57012 69911 70080 85900
333 00251 20053=
54606 32561 21403 10298 20178 40142 57011 82102 333// 20166=
53593 32762 11403 10276 20072 40123 57025 81100 333// 20122=
54308 32680 70903 10259 20130 40152 57010 83102 333// 20103=
53149 32580 72010 10227 20083 38754 40086 57017 83902 333//
05152 20153=
53276 32980 71808 10266 20061 38842 40093 57030 82032 333//
20154=
53231 11565 72713 10225 20107 38446 57009 69901 70080 879//
333// 00052 20161 91120 91520=
53529 32770 71807 10198 20125 38602 40093 57004 85532 333//
00100 20157=
53336 32970 81805 10198 20117 38688 40088 57013 8801/ 333//
05152 20160=
53068 32980 71604 10261 20047 39024 40087 57031 80002 333//
05100 20131=
53362 32980 71607 10226 20070 40103 57020 83032 333// 20136=
53083 32680 51404 10241 20026 40134 57026 81132 333// 00200
20090=
53352 32980 71806 10210 20084 40106 57014 80002 333// 20142=
53391 32580 61606 10231 20077 38519 40122 57022 82102 333//
00102 20092=
53698 32664 41603 10297 20174 40134 57022 84500 333// 20199=
54705 32662 60902 10298 20165 40136 57016 86100 333// 20176=
54405 32660 11603 10288 20141 40130 57019 81102 333// 20155=
59211 11557 41803 10335 20238 39877 40075 57032 69901 70560
81240 333// 20245=
59631 32563 22003 10320 20231 40083 57023 82200 333// 20248=
56312 11580 72203 10167 20121 37109 57016 69911 78000 87900
333// 00101 20111=
56227 11578 73203 10188 20130 37347 57012 69911 78080 879//
333// 00101 20118=
56434 32580 62204 10248 20120 37683 57024 86800 333// 00101
20151=
56317 11680 30402 10212 20116 37157 57019 69901 70080 83900
333// 00102 20116=
58311 32980 01103 10302 20124 40116 57019 333// 20203=
57583 32970 03603 10318 20188 40108 57018 333 20239=
57399 32965 03603 10333 20133 40117 57014 333 20219=
52378 32970 02909 10255 20116 40073 57006 333// 00656 20166=
50514 32580 71805 10201 20034 40203 57018 82102 333// 20044=
54857 32680 21604 10269 20133 30052 40139 57011 81102 333//
20199=
54186 32570 22002 10268 20130 40149 57014 82100 333// 20111=
50948 32970 00407 10233 20089 40177 57003 333// 20162=
54363 32570 23602 10284 20109 40144 57022 82100 333// 20137=
54041 32970 10205 10238 20099 40179 57004 80002 333// 20170=
50936 32970 20205 10226 20042 40182 57011 80002 333// 20153=
54142 32970 00902 10260 20171 40146 57006 333// 20148=
50949 32965 03605 10241 20088 30001 40162 57002 333// 20161=
54266 32570 13601 10274 20137 40155 57011 81100 333// 20146=
54181 32580 11603 10282 20137 40155 57016 81100 333// 20108=
54377 32570 13603 10304 20130 40136 57025 81100 333// 20150=
54273 32570 12703 10272 20138 40155 57016 81100 333// 20119=
54161 32970 22903 10272 20156 39878 40153 57009 80002 333//
20168=
59321 32580 11803 10290 20239 40076 57024 81140 333 20230=
58820 31664 62502 10305 20192 40078 57023 70040 86100 333
20183=
57574 32572 23602 10328 20192 40106 57015 82100 333// 20230=
57965 32565 10202 10320 20192 40089 57026 81100 333// 20216=
58407 32968 02902 10310 20150 40106 57021 333 20231=
59271 32574 23402 10334 20216 40079 57022 82200 333 20222=
59117 32572 22501 10327 20215 39968 40069 57028 82100 333
20236=
59493 31556 71802 10313 20251 40075 57021 70500 871// 333
20268=
59278 32561 20901 10329 20212 40082 57022 82100 333 20239=
59664 32478 22003 10323 20253 40088 57018 82200 333 20253=
59072 32575 10000 10334 20208 40089 57023 81100 333 20215=
54518 32562 41402 10294 20179 40151 57009 84100 333// 20190=
54945 32980 01104 10255 20178 40141 57010 333// 20184=
52533 32980 01104 10234 20082 38490 40072 57012 333// 00604
20082=
51288 32780 12902 10065 21009 38358 54000 81502 333 00657
20008=
51356 32970 10704 10160 20037 40201 57010 80002 333 00404
20047=
57385 32580 11402 10333 20123 40104 57020 81100 333 20212=
58608 32561 20402 10311 20207 40100 57019 82100 333// 20219=
57894 32580 13203 10279 20155 40116 57015 81100 333// 20165=
57037 11962 70704 10247 20143 40102 57008 69901 70060 8703/
333 00201 20205=
51542 32675 72205 10014 21015 37586 57009 84502 333// 00300
21037=
51711 32980 12704 10162 21089 37981 57013 80002 333 00251
20037=
51804 32580 31803 10126 21067 36984 57004 82402 333// 00253
20057=
51701 32580 53204 10030 21094 36650 52001 85400 333// 00002
21050=
56033 11580 52202 10111 20046 36087 57003 69971 70060 85100
333 00454 20041=
56034 32580 71605 10125 20022 35973 57010 87900 333 00351
20008=
52765 32580 70401 10179 20110 37193 57003 82132 333 00303
20095=
56257 32680 32003 10166 20062 36326 57014 83202 333 00102
20058=
51656 11780 70705 10208 21037 39064 40105 52004 69901 70080
83402 333// 00553 20126=
51642 32770 70401 10223 20012 40086 57008 84402 333// 00452
20119=
51765 32980 20901 10240 20087 39141 40079 57003 82030 333//
00555 20129=
51777 32970 00902 10244 20093 39083 40067 57015 333// 00454
20131=
54486 32967 00000 10288 20156 40150 57019 333 20138=
58321 32670 20903 10289 20151 40119 57020 82100 333// 20172=
58424 32775 20205 10289 20141 30084 40107 57017 81102 333//
20223=
58221 32668 30702 10287 20152 30096 40130 57015 83100 333//
20182=
58326 32570 50402 10293 20152 40113 57020 85200 333// 20196=
58236 32680 40903 10287 20147 40118 57016 84100 333// 20194=
58203 32970 00406 10296 20139 30079 40123 57019 333// 20172=
58531 32680 20903 10288 20157 40101 57019 82100 333// 20188=
58122 32580 10703 10299 20136 40125 57019 81100 333// 20193=
58102 32970 00203 10288 20154 30076 40125 57020 333// 20199=
58015 32580 10403 10278 20168 40136 57017 81100 333// 20197=
58437 32470 53202 10162 20115 38170 57007 85100 333// 20102=
58314 32970 00202 10305 20140 30032 40116 57020 333// 20168=
58436 11664 73203 10272 20184 40109 57023 69901 70060 85140
333// 20167=
58215 32575 10904 10287 20164 40134 57014 81100 333// 20166=
58338 32668 10203 10281 20171 40112 57019 81100 333// 20204=
57516 31950 72902 10258 20207 39782 40079 57020 71000 8704/
333 05105 20200=
57426 11860 70405 10270 20198 40084 57019 69921 70060 8654/
333 05107 20193=
57348 32762 73602 10267 20171 40103 57013 8554/ 333 20207=
57633 32565 72702 10288 20193 39357 40096 57019 8113/ 333
00008 20199=
57432 31958 83202 10295 20194 40078 57023 71000 8807/ 333
20206=
57279 32666 71602 10323 20153 40114 57019 8113/ 333 20209=
57251 32972 83202 10265 20181 40122 57012 8807/ 333 20202=
59294 32565 13402 10331 20209 30047 40090 57023 81100 333
20239=
59456 32575 10702 10346 20215 40076 57023 81100 333 20253=
59102 32567 20702 10322 20192 40080 57029 82100 333// 20193=
58813 32580 20703 10313 20194 40085 57027 82100 333// 20199=
53898 32664 40702 10288 20185 40139 57020 84100 333// 20193=
57067 32960 80000 10240 20166 39488 40136 57010 8807/ 333//
20150=
57077 32663 80000 10217 20159 40141 57013 8481/ 333// 20138=
57083 32663 41003 10298 20186 30004 40133 57017 84100 333//
20180=
57091 32572 51103 10291 20190 40132 57012 85100 333// 20215=
57156 32975 73202 10265 20183 40130 57014 8703/ 333// 20181=
57181 32565 60904 10292 20173 40131 57015 86100 333// 20175=
57193 32773 10703 10292 20180 40130 57014 81100 333// 20193=
57290 32962 00904 10308 20170 40126 57014 333// 20193=
57297 32980 00203 10311 20144 39987 40119 57019 333// 20187=
58208 32580 10905 10299 20162 40124 57014 81100 333// 20202=
58005 32565 10702 10284 20183 40132 57015 81100 333// 20172=
57089 32570 20904 10300 20166 40128 57016 82100 333// 20173=
55696 32680 71602 10170 20022 36392 57018 83302 333 00251
20036=
55690 32580 62207 10115 20031 36057 57005 86202 333 00103
20004=
56307 32780 72902 10194 20105 36881 57025 82242 333 00151
20103=
55681 11680 70404 10108 20020 35965 57011 69901 78000 872//
333 00200 20014=
54909 32670 10703 10287 20191 30078 40138 57016 81100 333//
20174=
54929 32580 20904 10282 20127 40140 57013 82100 333// 20175=
54715 32662 61103 10297 20171 40136 57016 82102 333// 20153=
54852 32570 10204 10284 20133 40139 57012 81100 333// 20163=
58464 32580 73604 10263 20197 40101 57012 8114/ 333 20193=
58467 32568 83605 10264 20188 40091 57016 888// 333 20211=
56739 32577 42202 10249 20169 38340 57017 84441 333// 00100
20178=
57483 32970 70202 10326 20180 30072 40113 57018 8703/ 333
20239=
57545 32960 70201 10293 20184 40096 57024 8704/ 333 20206=
56385 31/80 72203 10141 20128 37044 57007 70040 878// 333
00102 20084=
56038 11580 71402 10139 20023 36153 57006 69901 72500 87900
333 00251 20046=
56251 32680 30201 10239 20125 36960 57033 83100 333 00102
20096=
56374 11680 21105 10185 20132 37424 57019 69901 70060 82100
333 00002 20114=
56043 32580 70000 10176 20068 36496 57015 87100 333 00300
20043=
56067 11579 72202 10183 20094 36568 57012 69901 79500 879//
333 00201 20050=
52707 32980 11603 10203 21025 37254 57031 80002 333 00103
20050=
52657 32580 73601 10160 20087 37276 57012 83942 333 00500
20069=
52633 32680 12902 10142 20011 36783 57017 81102 333 00402
20026=
56151 32580 60000 10196 20070 36654 57016 86900 333 00200
20069=
54936 32680 10403 10273 20149 40143 57013 81100 333// 20154=
54423 32975 22502 10277 20149 39711 40155 57015 80002 333//
20124=
54624 32963 00904 10290 20148 40151 57009 333// 20186=
54449 32960 41404 10253 20193 40164 57002 80002 333// 20167=
54539 32980 01603 10271 20171 30141 40155 57007 333// 20185=
53863 32961 73402 10259 20141 40133 57021 80002 333// 20129=
56152 32780 72504 10173 20043 36359 57011 86902 333 00102
20047=
56357 32680 51102 10188 20069 36487 57018 84902 333 00101
20080=
54115 32980 71404 10237 20076 40163 57015 80002 333// 20091=
54226 32980 63603 10270 20097 40167 57005 80002 333// 20103=
54027 32980 41604 10245 20064 39615 40170 57014 80002 333//
20136=
54026 32980 60703 10242 20053 39870 40178 57012 80002 333//
20155=
50834 32980 10903 10225 20016 40194 57012 80002 333// 20075=
54134 32970 20204 10248 20074 40179 57008 80002 333// 20142=
50727 32980 32003 10213 21029 39028 40201 57013 80002 333//
21023=
56146 32780 61801 10215 20104 36762 57020 82902 333 00203
20086=
56247 32880 22501 10252 20129 37426 57032 82900 333 00202
20111=
56462 32680 31607 10238 20119 37127 57026 83200 333 05106
20131=
56167 32780 32002 10254 20111 37088 57028 83400 333 00004
20097=
56144 32680 71403 10197 20078 36891 57018 879// 333 00200
20080=
58319 32565 10705 10282 20156 40112 57016 81100 333// 20184=
56137 32680 70000 10207 20081 36831 57021 83140 333// 00200
20071=
56116 32680 71103 10158 20062 36390 57011 879// 333// 00351
20083=
56223 32680 40000 10192 20063 36562 57020 84200 333// 00100
20078=
56331 32680 61402 10187 20051 36449 57015 86200 333// 00200
20046=
54436 32680 40000 10273 20180 40159 57006 82102 333// 20155=
57046 31/57 71403 10139 20112 37964 57001 74000 875// 333
00253 20110 91117 91502=
82100 22221 04230 20201 30000 80196=
81100 22225 00263 20101 309// 40302 80171=
81200 22213 04156 2//// 3//// 80122=
22212 00134=
80009
22245 00170 20000 80187=
54311 32975 81402 10259 20098 40154 57012 80007 333// 20108=
54429 32560 41803 10283 20191 40148 57008 84102 333// 20175=
56182 32680 12003 10200 20105 37209 57019 81100 333 00251
20115=
56079 32780 40402 10169 20087 36720 57011 84100 333 00201
20042=
56172 32680 10000 10249 20120 37331 57038 81100 333 00102
20090=
56173 32680 53604 10200 20083 36673 57016 85900 333 00103
20049=
56178 32980 00000 10254 20130 37645 57037 333 00003 20143=
51463 32680 63205 10116 20027 39120 40206 57010 81102 333
00500 20056=
51053 32680 32503 10119 20007 40223 57002 83162 333 00751
20049=
51379 32670 73202 10116 20063 40210 57005 82108 333 00756
20074=
51068 32680 73203 10128 20001 40216 54000 85462 333 00700
20086=
51365 31680 40401 10155 20041 40201 57013 70040 81102 333
00653 20049=
51346 32780 30403 10161 20068 40196 57010 82402 333 00304
20064=
50618 32980 70702 10214 20004 40197 57019 80002 333// 20076=
50639 32980 00904 10220 21002 40212 57011 333// 20109=
57006 32770 80903 10200 20155 40099 57005 885// 333 00352
20172=
52986 32780 70000 10201 20128 38101 57003 875// 333 00653
20145=
52436 32980 00904 10237 20070 38426 40065 57020 333 00402
20061=
52889 32970 70000 10221 20138 38456 40068 57005 8703/ 333
00652 20168=
52424 32980 10403 10273 20074 40043 57028 81040 333 00206
20096=
52674 32980 70902 10211 20076 38010 57004 86042 333 00851
20122=
52797 32780 51602 10234 20103 38349 57004 82102 333 00600
20150=
52313 32980 03203 10205 20027 38384 57014 333// 00353 20080=
51467 32980 83603 10114 21061 38258 57017 80007 333// 00556
20055=
51526 32780 70000 10177 20058 40117 57006 82902 333// 00758
20112=
51567 32780 70000 10193 20029 40102 57005 83902 333// 00552
20116=
52101 11780 73202 10074 20038 38371 57011 60011 70080 83902
333// 00762 20038=
54213 32980 50403 10243 20076 40172 57013 80002 333// 20125=
57845 31663 63202 10323 20197 40081 57026 70040 86240 333
20195=
57731 32568 21802 10331 20204 40076 57029 82100 333// 20212=
57932 32672 20000 10347 20212 40068 57033 82100 333// 20226=
57906 32675 41402 10313 20202 40072 57024 84100 333// 20223=
52713 32980 01805 10197 20003 36929 57019 333 00403 20026=
52974 32680 82904 10209 20103 37525 57006 889// 333 00655
20124=
52856 11580 71402 10190 20112 37222 57010 69901 78000 878//
333 00551 20122=
51705 32780 12509 10176 21092 37812 57006 81100 333// 00251
20087=
51818 32864 71404 10202 20050 40069 57006 875// 333// 00152
20142=
51931 32965 03202 10240 20055 40049 57012 333// 00103 20128=
54618 32561 70402 10288 20177 30121 40138 57010 85102 333//
20175=
52868 11680 70902 10226 20132 37753 57012 69901 70060 82130
333 00551 20130=
52754 32575 72202 10167 20060 36828 57006 82802 333 00401
20071=
52908 11580 62010 10112 20009 35825 57008 69901 72700 86900
333 00302 21004 93905=
56021 32580 41603 10149 20037 36130 57006 84902 333 00200
20031=
56125 32680 21801 10187 20083 36556 57018 82200 333 00200
20080=
52866 32575 72003 10208 20122 37698 57008 82802 333 00401
20133=
52836 32680 10203 10170 20033 36925 57018 81102 333 00657
20075=
56004 11680 73206 10096 20010 35883 57005 69961 78940 879//
333 00352 20007 93905=
52818 32675 10904 10207 20009 37234 57026 81102 333 00300
20092=
52955 32580 22702 10186 20077 36996 57012 81102 333 00553
20095=
54764 32680 10405 10262 20160 40149 57009 81100 333// 20173=
51156 32780 21803 10088 21019 38740 40221 52001 82100 333
00551 21003=
51243 32880 61604 10156 20023 39662 40197 57003 86900 333
00600 20090=
51644 32970 70000 10213 20024 38894 40084 57001 80002 333
00452 20103=
52203 32980 41603 10242 20068 39257 40086 57018 80002 333
00652 20124=
51186 32680 13204 10112 21037 40188 52001 81100 333 00501
20038=
51241 32680 33604 10107 21044 40205 57013 81432 333 00202
20026=
51367 32680 50903 10152 20032 40186 57008 81102 333 00501
20040=
51633 32980 80000 10158 20064 40115 57007 80007 333 00455
20067=
55299 32780 32504 10136 20000 35913 57009 83900 333 00251
20031=
55279 32680 72204 10123 21002 35772 57001 87900 333 00201
20023=
56106 32680 60000 10143 20058 36256 57020 86400 333 00201
20032=
55472 11780 71406 10106 20008 35803 57003 69931 78000 879//
333// 00200 20047=
55294 32680 70000 10102 20023 35785 57006 879// 333 00300
21004=
56202 32680 70000 10129 20045 35922 57015 86202 333 00102
20022=
57803 32580 61804 10276 20170 40065 57017 86230 333// 20190=
53399 32965 41607 10225 20043 40143 57016 80002 333// 20074=
53986 32563 20402 10291 20192 40135 57013 82100 333// 20195=
57178 32565 70904 10310 20157 39976 40126 57015 8113/ 333//
20195=
52323 32980 03402 10163 20033 38222 57009 333 00453 20066=
52787 32765 73605 10103 20065 37068 52001 875// 333 00655
20073=
52679 32680 70903 10244 20107 38449 57007 81142 333 01051
20163=
52661 32780 52503 10224 20079 38218 57015 81142 333 00953
20131=
52983 32972 83201 10185 20130 38108 57001 8807/ 333 00655
20135=
53963 32660 71605 10285 20158 40117 57018 8113/ 333// 20186=
51839 32965 00404 10239 20039 40026 57017 333// 00001 20134=
53615 32970 72502 10220 20146 40075 57010 86032 333 20185=
53519 32762 71804 10216 20147 40079 57006 8253/ 333 20170=
53806 32780 72703 10171 20118 38137 52001 875// 333 20152=
53614 32965 82001 10216 20159 38869 40083 57005 8807/ 333
00151 20172=
53817 11558 80903 10153 20128 38235 57001 69901 72160 8771/
333 20135=
53705 32965 71805 10232 20153 40070 57006 8703/ 333 00452
20189=
53810 32970 71605 10203 20164 40091 57003 8703/ 333 20173=
53903 11680 81802 10142 20134 38076 52004 69921 76060 885//
333 20131=
53723 32968 72006 10194 20132 38637 40100 57005 8703/ 333
00252 20154=
55578 32780 60000 10154 20050 36422 57010 86900 333// 00200
20060=
55680 32880 72502 10155 20037 36285 57008 87200 333// 00201
20048=
55664 32880 40000 10147 20019 36065 57012 84200 333// 00200
20037=
55773 32670 71104 10101 20045 36076 57004 872// 333// 00105
20022=
55572 32780 32203 10162 20067 36297 57011 83100 333// 00251
20066=
55569 32780 60000 10152 20049 36278 57003 86200 333// 00201
20057=
55655 32680 71807 10104 20064 36537 52001 879// 333// 00200
20051=
56093 11580 70000 10190 20138 37696 57009 60051 70098 878//
333 00301 20125=
52446 32980 00703 10245 20102 40076 57016 333 00800 20100=
52447 32980 01104 10258 20071 40074 57017 333 00603 20094=
52996 11465 73203 10114 20114 37585 54000 69901 70064 875//
333 00452 20097=
52118 32680 23603 10115 20017 38263 57007 82100 333// 00557
20067=
51437 31780 62502 10076 20012 38145 57009 70040 86502 333//
00003 20003=
51855 32980 03201 10260 20061 40052 57013 333// 00302 20126=
53764 32970 71805 10241 20144 40127 57017 80002 333// 20151=
51495 11680 73423 10168 20005 40206 57016 69901 70060 81132
333// 00758 20115 91128 91536=
52876 32570 70902 10208 20118 38171 57007 878// 333 00652
20114=
52943 32680 71802 10158 20087 36836 57007 875// 333 00551
20099=
52737 32680 13401 10185 20012 37103 57017 81100 333 00753
20081=
56065 31680 62001 10167 20085 36660 57011 70040 84240 333
00351 20045=
52602 32980 10000 10198 21111 37264 57019 80002 333 00208
20029=
51886 32780 42902 10169 21016 37110 57020 82142 333 00005
20050=
56029 32680 52202 10196 20085 36529 57012 85900 333 00302
20081=
51730 32970 80000 10193 20057 40088 52001 8801/ 333 00352
20090=
51720 32960 60401 10185 20054 40091 57004 80002 333 00454
20108=
51059 32680 22502 10089 21035 40223 57002 82102 333 00501
20022=
65201 12456 70000 10237 20232 40127 60011 8257/
333 20231 58009 82610 86460 =
91648 31599 20206 10282 20228 40096 53007 70200 82100 333
562//=
91925 36/// /3202 10244 20209 30069 40129 51015
333 55067
555 1//27 59015=
91938 32570 10508 10261 20197 30151 40154 52016 81201
333 55102 56209 81826
555 10418 59007=
91944 16/// /0917 10251 20222 30171 40177 53017 69961
333 55078
555 1//29 59016=
91948 36/// /1606 10202 20150 30119 40224 51014
333 55054
555 1//19 59001=
91954 36/// /3510 10233 20226 30152 40155 51014
333 55001
555 1//16 59039=
91958 06/// /0619 10191 20161 30200 40202 58001 60011
333 55001 69987
555 1//27 59059=
78988 32483 21005 10266 20231 30105 40114 57013 82201
333 58001 81817=
78982 32484 40910 10278 20234 30113 40118 57014 82201
333 58006 82818 83081=
78894 36/// /1204 10275 20237 30088 40147 57010
333 10335 20265 58022=
60020 31560 73504 10229 20183 30142 40186 55004 72022 878//
333 20229 55106 924/6=
60030 11560 60120 10231 20178 30117 40172 55006 69904 70252 86800
333 20227 55103 924/6=
60040 31570 50316 10240 20165 30147 40172 55000 702// 85500
333 20232 55102 924/8=
60338 32462 42606 10208 20183 30062 40125 56012 84500
333 20204 55090 83610 81926 92427=
61902 11250 71108 10221 20207 40142 69904 78081 878// 333 20218
59012 83705 84812 85630=
88889 16/70 /2915 10064 20020 39912 49996 58028 69902 90550 333
20042 3/003 83/41 83/50 90710 91125 555 7/096=
86134 31570 81816 10210 20136 40117 54000 71322 889// 333 88620
81940=
86218 32570 61706 10178 20128 40133 53003 82470=
86233 32470 51803 10162 20156 40130 52009 85500=
86260 32970 00802 10130 20115 40117 52011=
89009 41420 60212 11509 36980 56006 77672 81608 333
81710 86241=
45007 31545 22802 10318 20239 30065 40074 58024 70511
82100  333  58009 82830 =
71851 36/// /1202 10058 20056 39967 40303 56001 333 10152 20013
70002=
71873 36/64 /1505 10106 20027 39297 40234 51008 333 10222 20080
70000=
71875 36964 02804 10064 20049 38865  51008=
71952 36/// /1601 10049 20049 39370 40218 51009 333 10214 21010
70000=
71967 36/// /1109 10089 333 10160 20044 70000 555 31139 40130=
40100=
31624 40200=
71075 36/// /2111 10096 20064 39595 40191 58011 333 10150 20045
70000 555 32123 40200=
71096 460// /0000 11018 39403 40126 53002 333 11003 21022=
71893 32980 63206 10162 20122 30130 40161 53010 80001 333
10240 20112 70000 555 33218 40070=
71896 32974 00000 10074 20057 39397 40226 52001 333 10191 20040 70000
=
71898 36964 00204 10117 20088 30149 40192 53006 333 10171 20090
70005=
71899 32466 82204 10118 20107 30154 40204 55004 8361/ 333 10148 20099
70000=
71905 11474 73514 10069 20051 30183 40196 53012 69941 72581 87500
333 10095 20057 70036 90977=
71906 11269 83405 10052 20013 30094 40143 53007 69941 75162 887//
333 10124 20050 70010 90917 555 32417 40150=
71907 36464 80103 10029 20014 30163 40195 53010 333 10104 20027
70045 555 30222 40201=
71909 36764 63004 10002 21005 30101 40144 53002 333 10042 21002
70000=
71910 36564 33006 11014 21033 30101 40165 55000 333 10034 21015
70000=
71911 46764 61511 10050 39964 40018 58023 333 10100 21011 555 31520
40201=
71912 32974 02207 10055 20022 30070 40252 57004 333 10173
20011 70000=
71913 36764 62309 10100 20043 30160 40196 58011 333 10184 20047
70005=
71915 32674 81605 10016 20008 30075 40157 57013 885// 333
10036 21005 70000 555 33223 40091=
71917 13474 73605 11040 21067 30054 40068 52018 69961 84570
333 11023 21072 48004 70014 90999 93101 555 10020 20014=
71922 32874 62105 10107 20065 39775 40235 58005 86070 333 10170 20030
70000=
71924 11274 81114 11004 21017 39936 40022 56007 69901 72087
885// 333 10006 21040 47002 70010 90917 555 10016 20010 31219 40041=
71925 32574 42505 10060 20050 39922 49956 57008 84500 333
10110 20041 70000 555 31921 40190=
71928 36/64 /0000 10061 20037 39077 40233 51006 333 10192 20009
70000=
71201 36/// ///// 10154 333 10203 20127 70002=
31924 4020/=
71826 36/// /2607 10038 20020 30077 40106 53003 333 10044 20030
70000=
71846 36/60 /2405 10062 20046 39973 40284 51004 333 10161 20054
70002 555 32919 40200=
71434 36/// /3305 10032 30186 40252 53001 333 10123 20027 70000 555
30023 40190=
71450 36/// /1709 10093 20068 39540 40252 50000 333 10195 20082
70000 555 31522 40180=
71475 36/// /3002 10133 20121 30076 40168 5/013 333 70000=
10007 32318 40220=
71931 36/64 /1801 10075 20068 39537 40216 50003 333 10182 20075
70008=
71932 36964 00000 10090 20064 39742 40190 53006 333 10205 20051
70005=
71933 36964 02603 10124 20086 39865 40148 53002 333 10206 20073
70005 555 31817 40150=
71934 32974 22105 10133 20074 39869 40119 50004 80001 333
10192 20057 70000=
71935 32974 52308 10147 20055 39897 40099 52010 80001 333
10210 20090 70000 555 31919 40200=
71936 32974 12305 10115 20072 39814 40065 51006 80001 333 10172 20102
55071 70000 555 32019 40181=
71938 32674 62309 10081 20046 39956 49984 53003 81531 333
10161 20062 70000 555 32020 40061=
71940 32982 02302 10098 20038 39407 40203 52009 333 10226 20005 70000
=
71943 32974 22406 10141 20055 39363 40184 51008 82050 333 10210 20055
70000=
71944 36964 00000 10080 20069 39400 40225 51010 333 10202 20015
70000=
71945 32874 10000 10096 20069 39692 40154 53010 81070 333 10234 20026
70000=
71946 32974 22405 10160 20059 39879 40085 53015 80001 333
10216 20040 70000 555 32325 40220=
71948 469// 02710 10059 39861 49969 53015 333 10105 20059=
71950 31982 00000 10085 20079 39587 40213 52008 71100 333 10201 20034
70000=
71951 32980 03606 10136 20092 39930 40194 52006 333 10211 20079 79999
=
71957 36964 00000 10060 20030 39909 49994 53021 333 10175 20051
70000 555 31818 40080=
71958 36964 00000 10061 20056 39265 40192 51012 333 10168 20021
70005 555 32225 40190=
71964 32986 61617 10110 20015 39290 40126 53011 85071 333 10183 20073
70000 555 31632 40082=
71966 36/// ///// 10030 21030 333 10174 20000 70094=
71968 469// 00502 10007 39928 49990 53009 333 10057 20007=
71629 36964 03603 10084 20063 30021 40254 50002 333 10178 20082
70005=
71194 17/32 /1011 10158 20139 30098 40113 58021 60751 7//4/ 333
10175 20108 70791 555 31130 4001/=
71197 17364 83505 10162 20147 30064 40112 58018 60041 7//4/ 333
10167 20058 70090=
71816 11674 61906 10092 20066 30055 40115 56011 60021 70266
86570 333 10106 20022 70046 90943=
71817 36964 01303 10098 20078 30127 40141 56020 333 10147 20029
70000=
71818 32974 81809 10112 20075 30108 40126 57020 8807/ 333
10152 20041 70000 555 31424 40221=
71821 36664 32406 10061 20048 39891 40235 58011 333 10125 20057
70025 555 33024 40190=
71822 37464 62704 10055 20039 39744 40217 56005 743// 333 10118
20034 70040 555 33221 40190=
71825 11474 63206 10032 20020 39496 40165 51005 69901 70285 86600
333 10042 20008 70100 90922 555 10014 20014=
71827 11269 22906 10030 20024 39962 40206 53009 69901 70188 82600
333 10102 20008 70024 90953 555 32719 40210=
71828 17264 62903 10023 20017 39518 40154 53005 69951 7//4/ 333
10051 21012 70060=
71831 32774 82907 10071 20041 39996 40277 56005 885// 333
10132 20035 70002 555 33420 40181=
71832 46/64 /3106 10083 20051 39965 40289 56002 333 10138 20012=
71834 32974 02603 10055 20032 39883 40313 53003 333 10129
20015 70000=
71836 37561 83306 10083 20076 30229 40240 53005 743// 333 10145
20016 70000 555 33221 40170=
71842 32974 01803 10043 20034 39844 40326 57001 333 10142 20029 70000
=
71850 32974 01302 10080 20032 39822 40318 50005 333 10142 20053 70000
=
71852 36964 01505 10069 20027 30008 40303 58001 333 10162 21007
70000=
71855 36964 02802 10039 20029 39918 40294 50001 333 10159 21001
70000 555 30818 40220=
71856 36964 00000 10044 20037 30019 40304 50000 333 10146 20028
70000=
71858 36/64 /1906 10043 20034 30010 40291 58004 333 10156 21033
70002=
71861 36964 01505 10051 21003 39561 40287 50002 333 10167 20014
70005 555 31424 40161=
71862 32874 61305 10095 20043 39581 40279 50005 82071 333
10169 20041 70000 555 31423 40181=
71863 17656 81806 10092 20075 39576 40270 51004 60031 7434/ 333
10187 20057=
71725 36664 32704 10058 20044 39843 40259 58001 333 10122 20056
70010 555 33320 40090=
71726 17/64 /0000 10025 20014 39703 40240 58001 69921 7//4/ 333
10112 20025 70008=
71727 32874 22404 10052 20037 30007 40203 57004 82070 333
10134 20050 70042 555 32630 40161=
71728 32974 02707 10060 20032 39990 40210 58003 333 10147 20047 70026
555 32928 40161=
71730 32974 00000 10047 20033 39859 40285 51004 333 10125
20044 79999 555 33420 40091=
71731 11974 00106 10041 20037 39821 40274 51004 69921 70280
333 10119 20038 70002 90960 555 30117 40130=
71733 36964 00306 10107 20048 30049 40286 51007 333 10145 20084
70000 555 30120 40070=
71739 32974 02802 10045 20026 39914 40277 57002 333 10126 20043 70002
555 33228 40211=
71749 36964 02705 10009 21007 30078 40326 51003 333 10154 21001
70000=
71799 32980 10000 10122 20091 30138 40161 52013 80001 333
10226 20101 70000=
71800 17/00 /1315 10151 20148 30121 40153 69971 7//4/ 333 10153
20130 70007=
71801 11004 91513 10149 20144 30006 40176 58024 69961 75154
333 10163 20097 70006 90973 555 31417 40001=
71802 36/// ///// 10182 20176 30065 40123 58023 333 70027 555 31432
4000/=
71803 11024 81310 10146 20140 39970 40152 56022 60021 76165
886// 333 10197 20090 70022 90917 555 31220 40190=
71807 36/// /1517 10178 20160 30137 40153 56029 333 10202 20149
70000=
71808 36664 30508 10105 20079 30084 40129 56020 333 10180 20039
70005 555 31126 40201=
71809 11156 80103 10144 20137 30095 40122 57022 60261 76382 887//
333 10218 20007 70264 90962=
71810 36/64 /2305 10075 20071 30067 40130 58008 333 10117 20051
70054=
71811 32580 13104 10033 20008 30090 40158 52011 81500 333 10117 20033
70174 555 30920 40100=
71813 36964 02808 10097 20074 30117 40130 58007 333 10157 20009
70000 555 31525 40201=
71814 36/// /0000 10055 20053 30123 40133 58012 333 10143 20015
70000=
71815 11356 83304 10159 20155 30089 40120 57016 60111 76188
885// 333 10229 20066 70122 90973=
71866 36964 01808 10090 20054 39646 40257 51006 333 10200 20072
70005 555 31419 40080=
71867 32974 01807 10078 20055 39933 40266 56004 333 10160
21005 70000=
71868 36964 02002 10053 20044 39833 40273 58003 333 10165 21030
70005=
71869 32974 00803 10074 20031 39734 40255 58001 333 10151 21003 70004
=
71870 36564 31513 10081 20055 39277 40236 50002 333 10190 20052
70000 555 31430 40181=
71872 32983 02205 10124 20068 39369 40208 52013 333 10241 20080 70000
=
71874 36964 02306 10072 20013 39136 40217 51006 333 10221 20025
70000=
71876 32974 01406 10084 20031 39582 40244 53003 333 10178
20067 70014 555 31324 40221=
71877 32974 03406 10077 20042 38975 40236 51009 333 10218
20018 70000=
71878 32974 00000 10070 20039 39169 40234 51007 333 10201 20016 70000
=
71879 36964 02003 10104 20061 39414 40208 50002 333 10202 20085
70010=
71880 32982 02708 10168 20038 39103 40177 51020 333 10275 20080 70000
=
71881 36964 02903 10060 20041 39132 40222 51007 333 10213 20008
70000=
71882 17964 00104 10124 20094 39659 40184 51015 69951 7//4/ 333
10261 20082 70005 555 33218 40220=
71883 36/// /0000 10059 20057 39409 40221 51013 333 10243 20016
70000=
71887 32983 00000 10149 20059 39765 40177 52019 333 10283 20088 70000
=
71889 32974 53307 10180 20084 39760 40166 52017 80001 333 10263 20128
70000=
71891 36964 01603 10181 20065 39899 40169 51024 333 10327 20099
70010=
71892 32983 01602 10147 20122 30155 40160 53016 333 10195 20138 70000
=
71043 32783 21004 10090 20046 39950 40041 52021 81501 333 10164 20049
79999=
71045 36/// /2002 10111 20050 39317 40159 51015 333 10162 20091
70000=
71051 46/// /1604 10014 20014 39846 49956 53010 333 10066 20011=
71066 32974 00000 10078 20056 39739 40152 51005 333 10204 20027 70000
=
71068 32974 02603 10120 20052 39502 40184 51007 333 10214 20008 70000
=
71069 36928 00000 10069 20042 39503 40200 51004 333 10180 20061
70005=
71076 46/// /2101 10121 20099 39768 40153 55005 333 10170 20073=
71077 36/64 /1805 10099 20089 39691 40214 58001 333 10153 20059
70000=
71078 32874 82109 10101 20045 39792 40228 58010 8807/ 333
10153 20023 70000 555 32317 40200=
71079 32974 02205 10068 20027 39986 40262 56003 333 10172 21014 70000
=
71081 36464 62205 11005 21041 30105 40116 55008 333 10011 21011
70000 555 33327 40081=
71082 36964 00000 11067 21082 30030 40070 51012 333 11040 21118
70000=
71083 32974 82213 10099 20052 30085 40121 58023 885// 333 10157 20020
70000=
71090 36764 60303 10011 21009 30061 40095 53001 333 10044 20003
70000=
71091 460// /2509 11006 39916 40121 53004 333 10023 21008 555 33021
40200=
71092 46906 02806 11024 39475 40129 51003 333 10013 21025=
71093 460// /3103 11003 39629 40117 53003 333 10000 21013=
71094 46864 30000 11017 39216 40102 55001 333 11010 21026=
71095 36564 81507 11026 21067 30026 40097 53005 333 10009 21026
70000 555 32520 40141=
71101 36964 02510 10130 20110 30190 40198 53003 333 10166 20111
70000 555 32617 40110=
71104 32974 03504 10101 20044 39117 40212 52003 333 10226 20047 70000
=
71108 32974 00000 10135 20099 30096 40166 52015 333 10251 20099 70000
=
71109 11156 83406 10111 20105 30165 40191 53006 69901 75122 885//
333 10147 20111 70004 90921=
71702 36/// /3208 10127 20104 30116 40142 50002 333 10218 20107
70000=
71732 36/// /0201 10058 20057 333 10120 20058 70000 555 33119 40080=
71397 32974 02204 10099 20060 30112 40145 55006 333 10248
20027 70000=
71398 36/64 /1201 10080 20079 30086 40134 58014 333 10213 20022
70000=
71400 17/61 /1301 10150 20126 30006 40132 58028 60121 7//4/ 333
10222 21019 70119=
71410 36/64 /0105 10116 20095 30125 40153 55000 333 10227 20049
70000=
71411 36/64 /3213 10117 20061 30128 40138 58017 333 10181 20085
70000=
71412 36/// ///05 10130 20104 30111 40124 58012 333 10163 20130
70000=
71430 36/64 /3608 10091 20078 30142 40238 51008 333 10221 20091
70000 555 32826 40070=
71431 36/// /3504 10094 20056 30156 40250 51009 333 10192 20094
70008=
71432 36/64 /0420 10138 20085 30154 40250 51008 333 10202 20136
70012 555 30229 40041=
71435 36/// /0000 11005 21143 39732 40333 55000 333 10118 21005
70000=
71436 36/// /3603 10067 20054 39905 40264 51004 333 10136 20067
70000=
71441 36/// /1403 10073 20030 39993 40302 51001 333 10162 21005
70000=
71443 36/64 /2901 10043 20018 39883 40296 54000 333 10161 20013
70000=
71474 36964 02903 10097 20002 38993 40207 51008 333 10246 20038
70005=
71538 32674 60509 10115 20055 30037 40266 53005 86500 333
10191 20102 70042 555 33621 40200=
71600 17127 83617 10176 20168 30061 40067 58014 69951 7434/ 333
10189 20163 70010 555 30428 40071=
71601 32974 03308 10130 20074 30063 40124 57015 333 10202
20083 70000=
71261 36/// /0708 10079 20058 30008 40268 53004 333 10167 20077
70000 555 30118 40210=
71265 36964 00109 10106 20056 30162 40255 51008 333 10198 20102
70000 555 33521 40010=
71603 32974 13106 10119 20118 30094 40146 56009 80001 333
10204 20071 70000=
71607 36/// /0303 10109 20035 30143 40175 50006 333 10240 20029
70000=
71609 32874 33413 10127 20080 30027 40158 50002 83030 333 10206 20037
70000 555 33618 40040=
71610 36964 00000 10063 20055 39920 40212 51006 333 10193 20040
70005 555 32920 40180=
71621 32974 03506 10082 20056 30138 40243 51004 333 10205
20080 70034=
71623 32974 03604 10061 20030 39926 40262 51003 333 10191 20060 70000
555 33617 40001=
71624 32674 13610 10087 20040 30047 40258 51007 81500 333
10190 20086 70002 555 33624 40201=
71625 36964 02503 10047 20039 30096 40257 53003 333 10147 20047
70000=
71627 36964 03606 10105 20058 30175 40219 50003 333 10195 20104
70015 555 32321 40090=
71628 32774 13205 10075 20062 30098 40238 50000 81501 333
10175 20072 70020 555 33318 40150=
71631 36/64 /0801 10029 20029 39764 40266 51006 333 10127 20029
70000=
71633 32974 00307 10114 20048 30002 40273 52006 333 10142
20104 70000=
71700 32774 33305 10100 20043 30148 40173 50007 82570 333 10242 20013
70000 555 31919 40150=
71705 32974 43407 10115 20070 30068 40153 51011 82072 333
10244 20059 70000=
71706 32974 33311 10142 20116 30075 40134 56009 80002 333 10214 20025
70000=
71707 11374 83409 10159 20144 30032 40107 58018 69961 71785 84601
333 10180 20106 70016 90937=
71714 36/// /0105 10065 20049 30119 40210 56001 333 10166 20064
70064 555 32923 40140=
71715 36/64 /0000 10062 20047 30016 40197 55001 333 10183 20051
70024=
71718 32974 02305 10069 20049 30118 40183 57005 333 10169 20052 70046
555 32430 40181=
71719 36/// /3214 10105 20055 30137 40143 51002 333 10187 20063
70000 555 31724 40160=
71103 36964 00000 10078 20066 39557 40216 51008 333 10223 20040
70000=
71107 36/// /3223 10114 20114 30086 40198 53003=
71115 36/// /1109 10150 20053 39603 40170 53013 333 10271 20087
70000=
71121 36864 32205 10069 20057 39396 40214 50002 333 10200 20060
70015=
71143 36/// /2108 10105 20074 39978 40294 58001 333 10140 20092
70000=
71114 36964 01002 10148 20130 30116 40163 51021 333 10288 20144
70005=
71120 31974 10902 10089 20070 39569 40222 50001 71100 80001
333 10179 20067 70016=
71122 36/64 /0304 10101 20041 38649 40225 51018 333 10225 20001
4/002 70000=
71123 32974 01905 10052 20042 39360 40220 50002 333 10206
20029 79999=
71125 33974 00000 10135 20047 39642 40221 50000 333 10190
20019 79999=
71129 32974 01510 10107 20024 39413 40232 51004 333 10218
20099 79999 555 31421 40190=
71131 36/64 /1106 10083 20078 38987 40227 51004 333 10179 20049
70000=
71135 46/64 /1104 10071 20066 39189 40269 51009 333 10136 20059=
71138 32974 01607 10069 20026 39682 40288 50002 333 10162
20002 70000=
71140 32974 50704 10057 20033 39801 40303 50001 80001 333 10165 21010
70000=
71141 32974 00000 10045 20040 30005 40283 58006 333 10151
20007 70000=
71145 32974 02606 10104 20068 30003 40296 50002 333 10157
20070 70000=
71148 36/// /1206 10059 20035 39734 40315 53001 333 10152 21016
70000=
71185 37450 61303 10144 20137 30097 40120 58018 743// 333 10190
20057 70000=
71187 36964 02302 10023 20019 30151 40178 56002 333 10167 20011
70120=
71188 32974 02807 10077 20039 30107 40147 56006 333 10192
20024 70000 555 31625 40150=
71196 36011 81518 10145 20144 30133 40169 58023 333 10168 20109
70000 555 31431 40021=
71200 36/// /2604 10129 20126 333 10238 20120 70000=
85201 31140 50704 10037 20022 36300 57007 74011 84632
333 56200 58004 81702 83613 85070=
85223 32984 30000 10144 20062 37493 47113 56001 80001
333 56000 58006 83070=
94120 46/// /2814 10292 20232 30063 40103=
94122 46/// /2409 10306 20223 30099 40108=
94150 46/// /0608 10287 20214 30041 40102=
94203 46/// /1509 10362 20051 30102 40113=
94212 46/// /1808 10349 20031 39643 40116=
94216 46/// /0607 10376 20145 30044 40094=
94238 46/// /1207 10302 20059 39710 40136=
94268 46/// /2412 10325 20187 30085 40097=
94283 46/// /0811 10268 20201 30106 40117=
94287 46/// /0107 10269 20199 30111 40120=
94294 46/// /3514 10273 20188 30112 40122=
94296 35/// /0707 10251 30115 40125 57012=
94298 35/// /0704 10245 30125 40131 57008=
94299 46/// /1306 10265 20202 30115 40126=
94300 46/// /2017 10232 20130 30154 40164=
94302 46/// /0306 10250 20107 30156 40162=
94312 46/// /0111 10311 20029 30130 40140=
94317 46/// /3310 10297 20012 39563 40158=
94319 46/// /1212 10303 21060 39813 40148=
94326 46/// /1207 10271 21056 39552 40178=
94332 46/// /1513 10293 20026 39754 40143=
94346 46/// /2213 10290 21017 39912 40134=
94363 46/// /2215 10309 20013 39888 40107=
94367 46/// /0217 10250 20209 30075 40113=
94374 46/// /0511 10267 20184 30092 40109=
94393 35/// /0102 10227 30127 40137 57005=
94394 35/// /3605 10246 30134 40142 57006=
94403 46/// /2111 10204 20120 30161 40203=
94429 46/// /2606 10275 21014 39706 40180=
94430 46/// /3306 10298 21097 39571 40166=
94462 46/// /0708 10268 21039 39612 40176=
94510 46/// /2109 10266 21013 39771 40123=
94515 46/// /2610 10253 20060 39768 40122=
94552 46/// /2313 10237 20017 39659 40132=
94578 46/// /0409 10225 20163 30116 40127=
94584 46/// /0114 10209 20192 30007 40117=
94601 46/// /3025 10172 20120 30151 40168=
94610 46/// /2909 10187 20104 30179 40204=
94637 46/// /3213 10261 21028 39741 40174=
94638 46/// /3012 10206 20103 30130 40162=
94647 46/// /1108 10223 20075 30052 40173=
94651 46/// /1706 10227 20057 30110 40188=
94653 46/// /2010 10192 20058 30172 40191=
94659 46/// /2907 10224 21004 39994 40192=
94672 46/// /3109 10164 20101 30181 40186=
94693 46/// /2509 10189 20057 30110 40173=
94703 46/// /2114 10217 20068 30031 4////=
94710 46/// /2010 10198 20055 39905 40163=
94729 46/// /2211 10124 20067 39291 40154=
94750 46/// /2711 10191 20048 30001 4////=
94767 46/// /3210 10219 20079 30118 40124=
94776 46/// /3401 10180 20131 30136 40146=
94791 46/// /0806 10198 20126 30129 40136=
94802 46/// /2711 10201 20092 30057 40140=
94804 46/// /2922 10163 20123 30129 40167=
94821 46/// /3009 10144 20093 30073 40157=
94842 46/// /2915 10130 20073 30048 40148=
94850 46/// /3018 10129 20072 30084 40130=
94865 46/// /2312 10174 20078 30126 40151=
94907 46/// /2415 10169 20073 30128 40138=
94910 46/// /2508 10154 20074 39911 40166=
94926 46/// /3113 10148 20045 39471 40151=
94954 46/// /2822 10126 20069 30008 40119=
94956 46/// /3317 10122 20058 30071 40097=
94968 46/// /3416 10126 20056 39880 40094=
94975 46/// /3118 10149 20008 30039 40072=
94995 46/// /2413 10189 20144 30136 40144=
94996 46/// /3303 10184 20147 30050 40180=
94998 46/// /3419 10059 20058 39997 40008=
95719 46/// /2309 10173 20082 39817 40154=
96996 41580 71117 10275 20228 30120 40125 58018 70222 85831=
61641 32460 63009 10284 20256 30073 40105 86500
333 02400 20283 50414 55043 59024 86613=
89002 43/// /0957 11162 21183 39631 49683 57038=
68026 32960 62005 10125 20013 48522 52018 86080 333 20091 555 10270
30104 60062=
68029 32960 61809 10167 20020 48510 52023 86070 333
20146 555 10303 30098 60069=
68040 32560 80905 10151 20113 48523 53025 885//
333 20115 555 10256 30081 60068=
68054 32460 81019 10135 20090 48552 53022 885// 333 20128 555 10307
30087 60056=
68234 32460 50909 10120 20061 48533 52016 82580 333 20020 555 10184
30114 60069=
68328 32960 00000 10065 20043 48531 52015 333 20021 555 10190 30102
60069=
89564 419// /1319 11154 21224 39836 49857 52008=
89571 41780 81407 11106 21183 39801 49830 52011 71522 82577=
89611 41900 /0938 11084 21103 39677 49731 52001 73973=
94129 35/// /3306 10/// 30082 40105 57020=
94974 35/// /3320 10126 30071 40094 57015=
95288 35/// /1206 10248 30106 40121 57019=
95872 46/// /2309=
61832 12465 60406 10232 20205 40118 60314 83570
333 20212 50104 55/// 58004 83615 83615 86361=
85406 32560 89902 10153 20121 40187 58009 885//
333 56099 88622=
85418 32565 82603 10151 20104 40189 58008 885//
333 56099 88627=
85488 32962 01103 10084 20075 40182 51004=
85574 31950 03002 10065 20050 40215 54000 70500=
85682 32960 01803 10086 20046 40223 58004=
78962 31470 51014 10280 20234 30132 40140 70522 81802
333 00209 10312 20251 58025 81814 84080=
85743 32960 00000 10011 20002 40259 57003=
85799 31940 01504 10031 20028 40287 71000 =
85874 32980 33023 10049 20005 39561 40185 56016 83040
333 56060 83360=
60141 32560 42802 10144 20116 39479 40144 58012 84500
333 20142 84630 95400 95800=
60318 32960 22612 10192 20155 40137 57018 80002
333 20187 82070=
65010 12962 70000 10215 20200 40127 60191 80072
333 20214 58005 87460 =
65257 11358 72808 10236 20221 40110 60021 76166 8657/
333 20/// 59023 86608 =
65338 12460 70000 10230 20221 39935 40125 69964 875//
333 20229 59006 87611=
33815 32997 02100 10123 20086 40175 53005 333 20095=
60150 32456 40000 10148 20141 39503 40147 56005 82602
333 20146 82710 83070=
85934 11560 82815 10042 20010 400/2 53021 69901 76022 83531
333 56779 83620 85358=
86330 32997 00303 10085 20072 40127 58003=
86360 32997 10000 10098 20086 40134 51001 80005=
86460 32997 00000 10076 20067 40118 58003=
86560 11296 81815 10118 20100 40143 50004 69901 75022 887//=
86580 32497 81912 10116 20092 40122 54000 884//=
91577 32581 11810 10244 20179 40147 53003 81800
333 56200 81830
555 10262 20170=
91582 33570 21108 10228 20170 40152 53003 82800
333 56300 81825
555 10260 20143=
91583 36/// /07// 10235 20182 40149 55001
555 10261 20187=
91587 36/// /1008 10222 20167 30110 40160 53003
333 10248 20087 55/// 70000=
91592 32681 11710 10234 20181 40150 53001 81100
333 56200 81833
555 10254 20176=
60220 32558 10204 10154 20118 40138 56005 81502
333 20154 81626=
71894 36/// /3105 10118 20115 30157 40166 51005 333 10184 20113
70000 555 33317 4008/=
71926 11474 81914 10092 20059 30034 40057 57035 69901 78062
885// 333 10164 20007 79999 90915 555 32422 40201=
71473 36/// /2113 10188 20139 30126 40155 51011 333 10222 20158
70000 555 33327 4009/=
71182 17464 83011 10038 20025 39597 40132 53018 60021 7//4/ 333
10074 20033 70138 555 31119 40190=
68024 32960 00905 10080 21022 48522 52007 333 20025 555 10200 30108
60062=
68038 32460 81110 20120 48546 52022 8358/
333 20135 555 10282 30098 60062=
68148 31560 80518 10125 20114 48537 52026 75022 885// 333 20109 555
10224 30033 60062=
61980 32570 40714 10265 20173 40184 84800
333 01700 20195 50604 55098 59019 81820 84650 92438=
67005 32580 32904 10282 20202 40166 83200
333 01700 20206 55027 59003 83823=
47101 32781 70704 10245 20138 30051 40138 58012 87500=
47105 32568 82904 10208 20139 30126 40156 57015 8652/=
47108 32775 70703 10244 20150 30031 40128 56009 87500=
47115 41460 80208 10185 20178 39883 40138 57016 76066 8672/ 333
92043=
47133 32675 81405 10226 20164 30048 40126 58009 8552/=
47138 41465 80510 10215 20196 30123 40127 57024 76166 8672/ 333
92043=
47159 41570 80709 10209 20203 30032 40112 58016 76066 8672/=
47165 42567 70504 10228 20213 30067 40109 58008 87500 333 92022=
47168 41575 80711 10227 20177 30036 40111 57004 76066 8252/ 333
92022=
47184 41658 81408 10228 20197 30079 40105 57010 72162 8252/ 333
92044=
47090 32668 80502 10224 20140 30138 40158 57013 8552/ 333 92031=
47095 32678 50209 10244 20135 39959 40134 57013 85500=
47100 41000 80702 10144 20135 39201 40152 57012 76164 8672/=
47106 42568 82501 10187 20160 30113 40157 57014 70262 8672/=
47112 32673 60903 10266 20151 30050 40127 57010 86500 333 92011=
47114 32975 70201 10227 20140 39962 40133 58012 87010=
47119 32675 60906 10240 20136 30091 40130 57014 82502=
47121 42570 80206 10201 20135 39866 40138 57017 8352/=
47129 32673 40910 10256 20145 30051 40080 57015 82502=
47130 41568 83210 10175 20165 30095 40153 58008 76166 8472/ 333
92023=
47131 32670 70508 10229 20158 30059 40125 57015 85520=
47135 32662 80708 10182 20163 39847 40131 57015 8552/=
47136 41572 80201 10185 20162 39972 40136 57006 76062 8572/=
47140 32665 30910 10243 20168 30081 40116 57015 83500 333 92011=
47143 41668 82704 10216 20186 30068 40134 58004 76066 8672/=
47146 3//// /0203 10243 20186 30056 40119 57009=
47152 41570 80505 10208 20183 30075 40113 57026 76066 8552/=
47155 41672 83405 10227 20175 30114 40119 58011 76022 8652/ 333
92022=
47156 41558 80505 10201 20184 30030 40114 57010 76066 8372/=
47162 32665 83603 10228 20191 30078 40115 58004 8552/ 333 92021=
47170 41565 80704 10209 20188 30068 40108 57013 72166 8552/ 333
92023=
47185 41670 72711 10266 20206 30001 40082 57012 72582 85520 333
92033=
47189 41465 80516 10241 20206 30037 40095 57007 76066 8672/ 333
92033=
47192 42675 80206 10223 20189 30089 40115 57018 72166 8552/=
51468 16/// /1907 11023 29012 36562 60001
555 1/142 2//04 /////=
12160 11497 71602 10123 20116 39990 40041 52006 60052 70282 872//
333 10129 20119 31011 55022 70055=
12210 11497 81701 10112 20106 39952 40019 57001 60012 7//// 885//
333 10132 20098 31010 55001 70033=
12230 11/06 90000 10110 20110 39939 40027 55004 60072 74522
333 10133 20098 31006 70110=
12310 11435 83501 10103 20101 39990 40019 53005 60032 78122 889//
333 10117 20094 32007=
12399 11596 81703 10124 20100 39934 40098 52002 69952 71082 889//
333 10127 20110 31010 55027 70005=
12418 11696 82002 10122 20106 39917 40028 55004 69902 71011 875//
333 10133 20095 32006 70039 96122=
12469 12697 71503 10129 20098 39837 40062 57004 69942 82538
333 10131 20115 31010 50083 55014 70007=
12488 11596 81805 10133 20103 39927 40077 50000 69922 71022 875//
333 10134 20116 31011 55035 70002=
12540 32997 62101 10124 20108 39821 40066 56004 8607/
333 10146 20112 31008 55000 70002=
12566 12970 70502 10112 20092 39793 40077 58001 69902 8707/
333 10137 20102 31008 55042 79999 96122=
12625 32682 71804 10132 20057 39101 42721 57010 81248
333 10138 20081 31003 50102 55037 20951 79999=
12690 11598 71402 10121 20086 39623 40121 57004 69912 70182 83532
333 10126 20108 32010 55062 70001=
12115 32597 72101 10107 20102 30011 40024 53008 875//
333 10136 20100 32009 70008=
12125 32497 70000 10106 20102 39977 40026 52004 875//
333 10130 20085 31005 55028 70004=
12200 31440 62001 10106 20102 30010 40017 53005 71011 86500
333 10113 20086 31007 70053=
12272 12560 51702 10124 20117 39890 40053 52007 60052 85500
333 10126 20110 31009 70049=
12280 11335 61803 10125 20118 39905 40062 52010 60032 72162 86800
333 10135 20117 31011 55050 70033=
12345 11665 51303 10122 20111 39904 40044 56005 60012 70361 82532
333 10128 20110 31009 55019 70027=
12415 12698 71902 10143 20108 39881 40028 55001 69902 84556
333 10144 20117 32009 55/// 20427 70005=
12455 12960 61804 10125 20107 39814 40052 55003 69902 83038
333 10139 20121 31011 55013 70002=
12497 12565 71804 10119 20103 39891 40106 53003 69902 85538
333 10126 20110 32010 50183 55007 79999=
12530 11697 81502 10140 20116 39860 40053 54000 69902 72162 8357/
333 10143 20130 31012 55013 70001=
12550 32660 61902 10132 20102 39714 40061 55001 865//
333 10132 20111 31009 55028=
12580 32970 61905 10135 20097 39862 40101 55000  82051
333 10140 20121 31010 55037 79999 91010 91113=
12585 12998 51404 10128 20105 39834 40094 53002 69912 82042
333 10128 20114 31011 50213 55028 70015=
12600 32580 70902 10142 20087 39602 40068 55001 8117/
333 10164 20127 31010 79999=
12650 11/00 71710 10027 20027 37937 48433 58008 69992 74144 875//
333 10030 20012 3//// 41998 55012 70019 91021 91123=
12660 12970 62202 10143 20098 39741 40088 56004 69902 84032
333 10150 20123 31010 55059 79999=
26038 32498 71305 10099 20091 40053 57002 84639   333 20089   555
31007=
26045 32698 61704 10118 20100 40078 57001 81102   333 20097   555
31009=
26058 31596 71502 10115 20099 40095 52007 71022 86802   333 20109
555 31008=
26115 12597 71505 10136 20119 40015 57003 60082 87900   333 20128
91012 91113   555 31012=
26141 31396 81605 10101 20093 40079 50001 71022 886//   333 20092
88709   555 31008=
26242 32998 31604 10110 20090 40082 54000 81039   333 20094   555
31008=
26247 12397 71502 10104 20094 40082 56002 69912 87600   333 20098
555 31009=
11766 11970 61805 10098 20092 39199 42707 57005 69902 70142
85041
333 20089 32008 50012 70010 85359=
57022 78986 88/// 90551
333 10141 20126
555 797// 80183 0/005=
26231 32498 81303 10108 20098 40055 58006 885//   333 20104 85711
555 31008=
48300 11565 40000 10308 20254 39764 40061 69921 72100 84500
333 59012 70444=
48327 32565 61907 10290 20237 39720 40069 84845
333 59005 79999=
48353 32565 41804 10304 20241 39797 40081 83230
333 58013 70035=
48356 32566 60000 10308 20245 39893 40085 84556
333 58011 70117=
48378 11562 61802 10303 20243 30023 40075 69911 70162 83846
333 59001 70178=
48407 32560 50000 10322 20221 39950 40088 85241
333 58013=
48431 32560 60000 10316 20227 39874 40082 85806
333 58020 70110=
48456 32560 62512 10336 20264 30083 40097 82836
333 58022=
48551 32562 50000 10324 20240 30086 40094 83905
333 58012 70141=
48565 01460 72703 10307 20249 30083 40086 69901 72122 82346
333 58009 69905 70002=
48569 31559 50000 10337 20232 30046 40086 70511 83136
333 58008 70059=
48583 32565 50406 10311 20246 30089 40093 82206
333 59005 70325=
16059 32665 50000 10138 20106 39721 40060 56009 85550
333 20127 85650 83358=
16080 32665 60000 10160 20131 39938 40059 57011 86500
333 20157 30/// 86635=
16153 32998 62806 10180 20135 39801 40057 56010 80008 90545 333
20174 30/// 55057 21725 555 0314/=
16045 31850 60000 10160 20154 30025 40088 56006 710// 86070 90545
333 20104 55063 21696 55300 83358 83459=
16105 32562 81203 10189 20128 30074 40080 56009 85431
333 20153 85630 85359=
16191 32580 51807 10185 20122 30088 40105 57011 82502
333 20165 82625=
16158 11558 83502 10172 20164 30089 40096 57007 69902 71052 8587/
90545 333 20165 31/// 55079 21565 55300 83630 83840 85465=
16242 32565 61207 10185 20137 30128 40131 56010 86800
333 20151 82823 85640 555 0////=
16310 32998 00604 10194 20140 39912 40127 53000 90545 333 20188
30/// 55110 22197 55310 555 0100/=
16261 32865 21603 10148 20106 30052 40124 56008 81041 90545 333
20126 30/// 55104 21886 55300 81357 95000=
16320 32660 20000 10184 20160 30118 40130 57015 82500 90545 333
20168 30014 55105 21814 55307 82635 555 0100/=
16420 32598 33204 10204 20170 30082 40146 55001 82270 90545 333
20196 30/// 55044 21111 55302 82820 555 0100/=
16429 32570 10000 10166 20134 30144 40155 56004 81530 90545 333
20156 30/// 55094 2//// 55300 81622=
16470 32564 32009 10208 20182 39920 40149 56009 81501 90545 333
20188 30/// 55070 2//// 55300 22/// 81625 95000=
16410 33970 00000 10184 20136 30002 40140 56009 90545 333 20174
30///=
16560 32666 43404 10128 20094 30124 40130 56012 81101 90545 333
20128 30012 55104 22173 55300 81840=
16749 32960 02411 10246 20162 30070 40083 57016 333 20214 30/// 55117
90730 91116 555 10000 30248 20000 89049 99069 40000 47588 44245 50000
50194=
41859 32356 61302 10302 20260 40079 85670 333 56490 58011 70000
82710 84614 85458=
41883 32457 61804 10315 20260 30061 40081 84830 333 56440 58017
70020 83615 83825=
41891 11350 80905 10276 20260 30049 40089 60063 70296 8632/ 333
56299 58016 70668 82708 84615 81930 88460=
41907 32459 41803 10325 20250 30062 40080 84800 333 56400 58020
70000 83615 83825=
41923 32450 41803 10323 20230 30075 40085 83830 333 56490 58018
70230 82616=
41936 31457 41805 10330 20270 40082 70511 82830 333 56990 58021
70000 82615=
41943 32458 41802 10326 20250 30083 40082 844303 33 56490 58010
70000 82618 83362=
41950 32450 60000 10320 20250 30082 40086 854303 33 56990 58021
70010 83618 85362=
41978 32550 52106 10305 20240 40084 82232 333 56999 58004 7////
82825 83360=
48303 32565 50000 10298 20231 39643 40078 84145
333 58017=
48328 01562 61904 10295 20246 39806 40078 60011 70162 84846
333 58006 60016 70029=
48330 01430 81703 10268 20242 39900 40085 60021 76062 8677/
333 58011 60025 70023=
48354 32562 60000 10317 20235 39881 40080 83973
333 58018 70049=
48379 32564 50000 10310 20236 39940 40070 82235
333 58011 70043=
48400 01558 80000 10300 20255 30049 40089 69921 76062 86236
333 58018 69905 70328=
48432 32564 52503 10311 20231 39929 40095 84205
333 58021 79999=
48475 32562 32705 10315 20234 30079 40090 81135
333 58013 70197=
48517 01558 70000 10300 20264 30090 40095 69921 76022 83206
333 58015 69925 70008=
48567 31559 62703 10327 20237 30069 40086 70522 82206
333 58005=
15502 31997 00000 10104 20097 40168 53005 70200 333 20054 50262 55098
555 30004=
15525 31998 01804 10125 20058 40173 57006 70200 333 20085 50532 555
30006=
15535 31998 02701 10132 20095 40168 53001 70200 333 20089 55113 555
30///=
15549 31998 00905 10158 20086 40179 53002 70200 333 20107 555 30005=
15552 31998 03601 10163 20095 40169 57002 70200 222// 00186 2//00 333
20126 50402 55107 555 30009 92010 92418=
15614 31998 00000 10108 20051 39486 40182 57001 70200 333 20083 50152
55119 555 30000 95000=
15615 31999 00000 10002 21057 37149 47095 56001 70200 333 21026 55076
555 31/// 95100=
15627 31999 02704 10021 21024 37646 47095 56001 70200 333 20012 55118
555 31/// 95110=
15655 31998 02502 10143 20102 40179 53003 70200 222// 00222 20000 333
20129 555 30/// 92012 92418=
15712 31998 00000 10140 20073 40173 53004 70200 333 20117 50402 55117
555 30007 95000=
48357 32564 30302 10320 20241 39921 40086 82201
333 58012=
48426 32565 60000 10315 20232 30077 40090 82246
333 58020 79999=
48430 32562 62703 10320 20241 30084 40092 82236
333 58016 70030=
48450 32562 62802 10336 20219 30054 40087 82246
333 58018 70065=
48459 32566 33305 10330 20242 30093 40096 82135
333 58019=
48465 32562 61303 10314 20239 30088 40092 82846
333 58012 70128=
48568 32460 70205 10315 20241 30084 40092 81201
333 58008 79999=
48418 32562 80000 10305 20248 30030 40086 85596
333 58020 70003=
48460 32562 70000 10305 20239 30069 40100 81136
333 58016=
48461 32565 62107 10305 20240 30026 40094 82246
333 58008 70002=
48501 32564 12402 10308 20259 30092 40100 81201
333 58013 70001=
48564 32560 61403 10313 20241 30087 40091 85846
333 58007=
48570 01560 70000 10326 20234 30079 40086 69921 70162 84246
333 59001 69917 70002=
26554 31958 71303 10097 20086 40112 54000 71011 87030   333 20076
555 31007 52006 90011=
26666 31350 61704 10085 20078 40149 52006 71011 84701   333 20076
555 31006 52005 90012=
26850 31958 71703 10094 20081 40135 53010 71011 87030   333 20075
555 31006 90014=
26863 31328 31403 10087 20082 40156 53006 72840 82702 333
/      20053 555 31006 52005=
26941 31958 71904 10099 20089 40121 53001 71011 87070   333 20084
555 31008 52008 90011=
26951 32960 71303 10100 20085 40135 53002 87050   333 20077   555
31007 52006 90013=
33008 11560 72602 10127 20106 40102 53006 69942 70282 87500
333 20116 555 31010 52009 90010=
33019 31959 71601 10105 20089 40131 53006 71011 8705/   333 20093
555 32009 52007 90012=
40102 36/// /2106 10184 20132 39096 48501 53003 906//
333 20075 55114 22116=
40103 32565 22010 10272 20198 40097 55000 82100
333 20222 30/// 50234 22260 82824  555  10285=
16084 32560 50000 10136 20125 39899 40062 57015 82130 90545 333
20136 30/// 55045 21135 82830 83360=
16120 32465 71915 10213 20208 30059 40062 57021 87500
333 20206 84815 87630 97070 555 0534/=
16090 32660 50704 10156 20153 39990 40071 56010 83230 90545 333
20147 30/// 55085 21741 55300 83840 83358=
16170 31558 70903 10196 20172 30048 40092 57015 71011 84460
333 20184 30/// 84630 87357=
16206 32568 71310 10188 20168 30102 40111 57015 84808 90545 333
20154 30/// 82820 83635=
16289 31558 20201 10150 20133 30059 40144 56003 71000 82100 333
20132
82830=
16405 32560 22106 10187 20161 30108 40148 55005 81100
333 20178 81628=
16460 32560 12505 10162 20140 30130 40150 53001 81100
333 20153 81830 95000=
16362 32560 20805 10150 20119 30129 40147 55001 82100
333 20134 82820=
16008 31208 81807 10078 20064 38445 48408 56010 74442 886// 90545
333 20078 31/// 88705=
16020 32765 71001 10156 20109 39781 40063 56010 86520
333 20150 86650 83459=
16040 33665 83503 10138 20095 39182 42716 56009 882// 90545 333
20124 30/// 88835=
16110 32597 80904 10190 20134 30083 40087 56006 888// 90545 333
20190 30/// 55087 2//// 55300 83830 85640 555 0216/=
16149 32580 61708 10188 20155 30079 40094 56009 82231 90545 333
20151 30/// 82820 83359=
16181 33562 70000 10140 20109 39876 40119 57015 85570 90545 333
20134 30///
55089 21919 55300 85626 83358 9506/=
16219 31/00 92419 10068 20068 38119 48498 58004 74544 90545 333
20050 31/// 55104 21843 55300 89/00 95090 95190=
16300 33965 02404 10130 20061 39199 42799 56006 90545 333 20120
30///=
16400 33597 42307 10188 20151 39868 40151 56007 84400 90545 333
20184 30/// 55097 2//// 55300 22/// 84620 555 0100/=
16453 31995 00802 10176 20135 30080 40157 56004 7100/ 90545 333
20174 31/// 55110 2//// 55300 98055 555 0000/=
16480 32998 02805 10180 20151 30090 40151 56004 90545 333 20180
30/// 55102 21700 55300 555 0200/=
16520 32470 41915 10200 20191 30100 40127 56008 84200
333 20193 84818=
16522 32498 61715 10188 20141 39890 40127 57005 86200 90542 333
20186 30/// 55100 22232 55300 86813 555 0200/=
16539 32998 21506 10174 20153 30023 40135 56009 80001 90545 333
20172 30/// 555 0100/=
16550 32998 00000 10202 20125 39950 40124 57025 90545 333 20188
30/// 55108 22071 55301 555 0200/=
16564 33598 32609 10198 20163 39993 40131 56006 81201 90545 333
20198 30/// 81828 555 0200/=
16061 32562 30000 10138 20139 39249 42709 56011 81230 90545 333
20137 30/// 55043 2//// 81830=
16076 32660 80503 10164 20125 39792 40066 57009 85550
333 20156 85645 87357=
16114 31956 02804 10156 20156 39424 42717 55005 71011 90545 333
20152 30///=
16119 31258 71915 10158 20139 39505 40063 57018 760// 87200 90545
333 20151 32/// 87806=
16124 11/03 91830 10110 20106 38885 48408 57022 69922 7604/ 90545
333 20098 32/// 89/03=
16138 31562 70603 10156 20132 30065 40076 56012 702// 83530 90545
333 20145 30/// 83625 84358=
16021 31/03 91815 10034 20035 37918 48428 57014 7474/ 90545 333
20034 30/// 89/01=
16022 31/00 91914 10027 20027 37797 48427 56010 74544 90545 333
20027 30/// 55040 2//// 55300 89/00=
16033 31558 80000 10094 20080 38714 48431 57019 71022 885// 90545
333 20092 30/// 55/// 2//// 88625=
16088 32560 60605 10135 20122 39960 40075 56010 82130 90545 333
20132 30/// 82832 85358=
16094 31556 70000 10144 20136 30021 40084 56001 710// 87800 90545
333 20142 30/// 84820 85630=
16098 31550 80202 10151 20142 30032 40082 57010 71022 8457/ 90545
333 20148 84630 86358=
16108 11670 71201 10170 20165 30060 40080 56005 69902 70262 84870
333 20160 84650 87459=
16140 32860 82107 10210 20141 30018 40066 55007 8807/
333 20170 83357 86465=
16146 32598 71807 10190 20181 30075 40082 58016 84270 90545 333
20166 30/// 84825 83359 98075 555 0213/=
16179 33570 62109 10164 20109 39430 42737 56016 84230 90545 333
20148 30/// 84824 83358=
26135 11497 71404 10105 20097 40067 58004 69912 70252 87600   333
20090 87710   555 31007=
33041 31956 11402 10107 20099 40172 52002 71000 80001   333 20064
555 31004 52002 90013=
26645 11256 81403 10098 20094 40096 56001 69962 76161 8872/   333
20081 88703   555 32006 52006 90009=
26659 32997 71702 10091 20081 40134 53001 80001   333 20071   555
31006 52006 90011=
26763 31950 01601 10096 20077 40151 53007 71000   333 20054   555
31004 52003 90012=
26832 11457 81503 10107 20099 40096 57003 69972 78082 8737/   333
87913   555 32009 52008 90013=
26887 31959 01702 10102 20088 40174 53007 71000   333 20036   555
31004 52003 90011=
26961 12960 21701 10108 20092 40149 52002 60022 80002   333 20069
555 31006 52005 90012=
33027 32960 51802 10104 20081 40153 53003 85080   333 20065   555
31005 52004 90009=
10405 70023 333 91114=
36982 42999 22206 10007 21146 36520 47067 58010 80001 333
21082=
38345 52701 10131 20030 38801 48507 58010 83232 333 20037=
38353 42597 73502 10153 20029 40189 52012 879// 333 20063=
38613 42699 12401 10195 20021 40149 58003 81200 333 20152=
16734 32570 13208 10222 20100 30087 40149 53005 81100 333 20174 30///
55107 90730 91115 555 10000 30220 20000 89054 99068 40000 47602 44245
50000 50154=
40356 42960 00610 10250 20080 39142 48486 333 20170 59017 555
04410 50062=
40357 42962 00508 10288 20090 39465 40064 333 20218 59010=
40360 42960 03116 10214 20160 39527 40089 333 20160 59025=
40361 42960 02810 10256 20070 39343 40081 333 20210 59010=
40362 42962 00404 10300 20040 39572 40060 333 20225 59009=
40375 42960 00000 10236 20110 39249 40085 333 20200 59029=
40377 42960 00104 10304 20060 39610 40062 333 20240 58001=
40394 42965 00404 10298 20040 38998 48498 333 20232 59007 555
04410 50055=
40400 42960 00000 10296 20280 30022 40049 333 20232 59031=
40405 42960 00306 10312 20010 39347 40040 333 20248 59021=
40416 42960 03107 10320 20070 30003 40022 333 20240 59013=
40420 42960 03009 10364 20090 39850 40045 333 20251 59006=
40430 42960 10612 10350 20030 39364 40035 81030 333 20280 59011
81360=
40437 42960 00000 10242 20020 39402 40060 333 20237 59010=
40438 42960 00000 10330 20030 39400 40064 333 20270 59011=
40439 42660 30904 10324 20270 30036 40048 83430 333 20260 59017
81640 82360=
41024 42960 23504 10310 20260 30024 40043 82030 333 20280 59030
82360=
41036 42960 40204 10306 20070 38543 48493 83440 333 20192 59020 83630
81359 555 04410 50032=
41128 42560 20000 10310 20020 38780 48477 82200 333 20243 59009 82830
555 04410 50022=
41136 41659 30816 10360 21030 39272 40035 70700 82530 333 20280
59013 82640 82359=
41140 42560 40000 10340 20290 30046 40054 83130 333 20302 59015
83825=
33246 32961 01801 10116 20094 40176 53008 333 20057 555
31005=
33261 32965 00000 10138 20099 40178 52008 333 20066 555 52004=
33275 31997 20000 10110 20106 40180 52005 70240 80001
333 20050 555 52004=
33325 32997 41602 10110 20090 40165 53002 81039 333
20040 555 31004 52002=
33377 32997 00101 10143 20103 40182 52004 333 20081=
33415 32997 61402 10078 20065 40155 53004
86030 333 20048 555 31004 52004=
33429 32997 31503 10104 20080 40159 57002 83030 333 20059 555 31003 52001=
33466 32998 02302 10130 20093 40176 53005 333 20070 555 31004 52002=
33526 32660 70000 10092 20076 40151 53002 87500 333 20060 87633
555 52005=
33562 32997 21405 10124 20081 40160 50000 80001 333 20079=
33614 31996 00901 10134 20111 40171 52003 71000 333 20082=
33889 32998 00000 10140 20104 40174 54000 333 20076=
33902 32998 04502 10143 20113 40177 52002 333 20098=
33983 32597 23405 10203 20102 40166 52006 82100 333 20157=
34415 32980 50101 10139 20121 40160 53007 80001 333 20116=
12270 11438 61602 10123 20112 39881 40058 52006 60042 71011 865//
333 10126 20114 31010 55024 70047=
41240 32559 21018 10320 20265 30053 40056 70600 81530 333 20305 58002
81620 81360=
41244 36/// /0706 10343 20186 39725 40078
333 0E030 20276 58013=
41246 31558 41011 10314 20253 30066 40071 70600 84530
333 20278 58009 84625 81360=
41254 32965 21604 10250 20108 38039 48294 80001 333 20190 58006 82075=
41256 32562 32603 10340 20252 30058 40067 82530
333 20276 58012 82620=
41258 36/// /0810 10288 20277 30061 40067
333 0E/// 20271 58000=
41268 32960 22318 10306 20228 30063 40078 82030 333 20253 58008
82360=
41288 31359 61608 10280 20226 30063 40085 70511 86600 333 20226 58013 86708=
41304 36/// /9902 10337 20133 39744 40062
333 0E026 20254 58000=
41312 36/// /2106 10276 20215 30035 40076
333 0E/// 20244 59005=
41314 32962 22111 10361 20050 39567 40080 80001 333
20248 59005 82075=
41316 32460 51804 10275 20220 30050 40076 85600
333 20255 59003 81715 85625=
33036 31956 32101 10103 20078 40158 53007 71000 80001   333 20064
555 31005 52003 90011=
11414 11465 70000 10097 20088 39339 42687 53016 60042 70162
85270
333 20095 32008 70068 85813 87359
555 394// 50119 60123 70126 80133=
11438 11668 71802 10115 20091 39655 40040 52002 60022 72162 8557/
333 20111 31008 50062 70024 85634 87358
555 385//=
11502 01978 82104 10113 20107 39592 40035 53015 60022 761//
8807/
333 20109 32010 50082 69935 70086 83360 88462
555 396// 50125 60126 70132 80140 90149=
11538 12683 82302 10114 20081 39463 40051 55000 69902 85570
333 20093 30007 79999 85640 87356
555 11904 380// 50121 60127 70135 80144=
11628 12965 82003 10119 20071 39431 40046 54000 69922 8807/
333 20097 31009 50052 70008 88359
555 373//=
11643 01220 82103 10092 20076 39103 42686 55002 60062 760//
887//
333 20085 32008 50062 69915 70288 88704
555 12212 390// 50097 60098 70097=
11683 11/04 91705 10094 20094 39206 42700 55001 69932 74364
333 20089 31007 50122 70007 89/01
555 11706 300//=
11693 31656 80803 10109 20104 39589 40059 55002 71011 885//
333 20091 31005 50032 70003 88643
555 11205 397// 50121 60120 70130 80140 90152=
11698 31340 89902 10109 20095 39660 40058 55005 710// 876//
333 20090 31008 50132 79999 87708
555 391// 50125 60127 70128 80144 90156=
11710 11562 61506 10105 20099 39457 40060 55006 69902 701//
82531
333 20101 32009 50072 70006 82620 84360
555 396// 50123 60130 70128 80131=
37395 12698 80000 10203 20187 40156 52008 60180 70272 8592/   333
20190=
37549 42796 62502 10237 20111 40151 58008 85370=
13160 32997 41902 10125 20111 30013 40119 53002 82032 333 20088 31006
55113=
13262 32998 20000 10112 20094 30000 40148 51001 82030 333 20081 31005
55118=
13272 32980 00000 10161 20099 30010 40131 56001=
13285 32998 01402 10122 20077 30058 40159 55000 333 20085 31006 55112
=
13289 32999 01203 10108 20049 48/// 52/// 333 20079 31006 55117=
13376 31992 00000 10080 20076 39903 40165 53003 74444 333 20068 31004
55112=
13388 32998 03301 10096 20077 39929 40173 53001 333 20067 31003 55106
=
13462 32770 33302 10164 20093 30127 40170 54000 82013 333 20129 30///
55/// 82840=
13489 32998 00000 10081 20056 39664 40181 53004 333 20056 30002 55106
=
40706 32960 00907 10232 20079 38619 40051 51004 90545 333 30017
51101 70000=
40718 32560 40000 10254 20221 30151 40120 53002 84200 90550 333
30020 50351 70000 82825 82630=
40732 32960 03506 10254 20198 30129 40109 56004 90550 333
30019 50531 70000=
40745 31956 01802 10202 20010 39059 40167 52010 70500
30005 50421 70000=
40754 32960 00000 10256 20112 38822 40086 52013 90555 333 30200
51261 70000=
40766 32960 00000 10256 20038 38661 40051 52006 90550 333 30004
50751 70000=
40800 32960 00000 10252 20007 38445 40054 52005 90550 333
30010 50841 70000=
40811 31950 01404 10324 20117 30012 40038 52017 70500 90550 333
30020 51071 70000=
40841 32960 03504 10270 21018 38250 40038 51012 90550 333 30010
51231 70000=
40848 39260 00000 10274 20032 38502 40037 51010 90550 333 30011
51061 70000=
40856 31958 01503 10238 21006 38623 40071 50009 70600 90550 333
30009 51231 70000=
16648 32960 00000 10150 20064 30078 40166 53004 333 20056 30///
50720 55103 90730 91103 555 10000 30216 20000 89021 99076
30000 10190 20204 30228 40250 50262 60260 40000 47593 44240
50000 50108=
16643 32970 00506 10196 20145 30161 40166 53004
333 20150 30/// 90730 91108 555 10000 30220 20000
89042 99093 40000 47655 44240 50000 50166=
16684 32960 00210 10232 20167 30104 40128 55001
333 20170 30/// 55104 90730 91117 555 10000
30232 20000 89072 99087 40000 47614 44255 50000
50192=
33791 32997 09902 10141 20117 40180 53001 333 20083=
33658 32997 60000 10096 20073 40159 52002 86030 333 20070=
33135 31996 00000 10111 20093 40177 53008 71000 333
20061 555 52003=
33345 32998 02301 10119 20102 40181 53005 333 20079 555 31004 52002=
33924 11598 12001 10187 20132 40182 52003 60012 70280 81100 333
20128=
33301 32597 61704 10122 20073 40149 53006
81531 333 20080 555 52004=
33761 32998 01502 10138 20090 40170 54000 20078=
34712 32975 23303 10174 20115 40146 52008 82030 333 20133=
33990 32676 62502 10196 20142 40173 52008 86500 333 20173=
28679 32599 50503 10120 20027 40246 52002 85500   333 20048=
28766 12698 80502 10100 20064 40245 52003 60010 85231   333 20041=
28867 12998 30502 10092 20051 40237 52005 60020 83030   333 20068=
28952 32998 01103 10156 20090 40229 52001   333 20038=
28966 12698 50506 10096 20019 40229 54000 60040 85200   333 20061
85896=
35108 32997 00000 10208 20117 40234 57001   333 20106=
35217 32998 01402 10204 20086   333 20100=
35302 32998 03401 10204 20089 40233 57006   333 20106=
35406 32997 00000 10239 20089   333 20136=
36535 32999 31804 10119 20021 40203 57009 80002   333 21022=
36639 32999 00000 10130 21033 40198 58007   333 21028=
36859 32699 71402 10180 20038 40168 57010 82215   333 20069=
47401 41/80 12010 10198 20165 30134 40147 56022 70281 81200=
47412 42/75 61107 10226 20155 30132 40162 56011 85202=
47420 42/65 81906 10165 20140 30140 40186 56013 882//=
47426 42/80 71311 10181 20146 30136 40179 56008 8187/=
47582 42/80 72906 10247 20195 30123 40147 56006 878//=
47590 41458 83501 10218 20192 30111 40161 56010 72065 886//=
47600 41370 80405 10222 20199 30133 40149 55008 72588 888//=
47648 41015 80304 10231 20219 30121 40153 56009 71044 886//=
47662 41/38 81305 10272 20219 30103 40144 56014 71062 875//=
47678 42482 32103 10280 20231 30052 40143 57008 82202=
47740 41160 80813 10228 20216 30083 40119 56017 78082 8727/=
47778 41/60 70506 10253 20234 30042 40127 56009 72582 872//=
47807 41/65 83004 10267 20219 30067 40083 56017 70262 8527/=
47827 41581 70707 10284 20222 30052 40087 56012 72186 82272=
47843 41365 83609 10254 20219 30055 40085 58010 78082 882//=
47898 41/60 82302 10252 20236 30070 40107 56016 78082 889//=
47909 41/65 71406 10282 20236 30045 40053 57006 72982 87903=
47918 42/70 73014 10299 20207 30041 40049 56010 82202=
47936 42/65 72114 10296 20245 39974 40033 58010 82242=
47945 41/70 51409 10308 20261 30031 40054 56017 70381 83363=
47971 41/65 81207 10264 20235 30098 40107 58009 72582 8227/=
47991 41/82 21009 10289 20246 30118 40128 53002 70281 81231=
47407 42/80 22705 10221 20155 30027 40161 56014 82239=
47409 42/75 11511 10212 20146 30107 40157 55016 81130=
47418 42/65 31708 10173 20142 30138 40185 56015 82530=
47421 41/80 71705 10191 20171 30121 40166 56008 75151 85802=
47430 41470 80909 10193 20167 30116 40167 56008 70252 886//=
47570 41/65 70806 10259 20205 39891 40131 56013 78082 86272=
47575 42/60 80306 10222 20182 30149 40153 56005 8727/=
47585 41260 70304 10204 20196 30109 40163 56011 70285 8723/=
47598 42/65 70406 10241 20200 30147 40153 56007 8687/=
47602 41/75 81902 10227 20210 30128 40147 56007 76162 8672/=
47605 41/57 80710 10225 20210 30098 40136 55010 78082 882//=
47618 41/60 81007 10230 20203 39446 40125 58007 78082 8627/=
47624 41/50 81306 10249 20214 30016 40145 56013 71086 882//=
47636 41/60 81510 10259 20216 30071 40135 58008 70282 82872=
47655 41/58 71307 10276 20240 30088 40141 57010 72582 86230=
47663 41/58 70706 10242 20226 30104 40135 56010 72582 8727/=
47675 41/60 72505 10275 20231 30055 40145 58008 70282 82232=
47741 41/65 80808 10239 20214 30080 40105 56019 78082 8627/=
47746 41/60 81103 10226 20216 30103 40121 56016 78088 8627/=
47750 41/50 80506 10233 20219 30103 40128 56007 79598 883//=
47755 41/65 72306 10249 20218 30072 40095 56011 72582 872//=
47772 41/60 72506 10288 20213 30023 40116 56009 72582 8627/=
47800 41358 83409 10215 20189 30086 40108 56009 79188 882//=
47815 41/65 71207 10281 20228 30079 40093 56020 70282 8227/=
47817 41/80 71403 10304 20223 30043 40082 56013 70282 8327/=
47830 41/70 70403 10258 20227 30079 40096 58015 72186 8587/=
47837 41/58 80904 10243 20227 30072 40093 57004 78182 882//=
47887 41/60 81302 10283 20223 30059 40097 56021 72582 8727/=
47891 41/58 81204 10246 20221 30102 40113 58011 78082 882//=
47899 41/60 83008 10234 20232 39904 40116 58008 72598 882//=
47927 42/65 72711 10282 20224 39992 40038 56010 84232=
33088 32997 61901 10102 20077 40148 53004 86030 333 20067=
48310 32565 30000 10300 20227 39631 40070 82135
333 58008 70018=
48325 01565 80000 10285 20234 39847 40087 60101 70296 888//
333 58005 60017 70669=
48329 32560 60000 10290 20227 39741 40070 83836
333 59003 70019=
48352 32567 30903 10310 20246 39892 40086 82205
333 58018 70014=
48380 32560 70000 10290 20232 30007 40100 83545
333 58020=
48383 32565 61101 10320 20246 39921 40075 85805
333 58009 70091=
48403 32465 60000 10300 20228 39885 40092 83235
333 58016 70104=
48405 32563 41403 10308 20242 39938 40087 82205
333 58014=
48421 32562 30306 10310 20236 39985 40094 82205
333 58018 70042=
48425 32562 50000 10331 20220 30077 40087 83236
333 58020 70009=
48550 32560 61206 10307 20255 30094 40099 81346
333 58010 70179=
48315 31558 60000 10320 20235 39818 40080 71522 84976
333 59004=
48413 32562 60000 10315 20236 30010 40089 83206
333 58016=
48416 32565 30000 10317 20235 39943 40087 82205
333 58014=
48478 32560 6//// 10353 20260 30095 40101 83206
333 58020=
48561 32463 40000 10321 20256 30091 40095 82943
333 58008=
48580 31558 60803 10335 20251 30075 40082 70522 82206
333 58002 70018=
41030 42960 23503 10332 20250 39768 40030 82030 333 20302 59024
83360=
38149 42998 00305 10199 20089 40231 52007   333 20087=
38178 42998 00306 10154 20013 40205 52007   333 20080=
38262 32998 01105 10146 20103 40224 52002   333 20063=
38264 35998 00607 10189 20000 40228 52009   333 20067=
38396 42997 00605 10196 21030 40232 52008   333 20060=
38403 43998 00507 10187 20032 40220 52012   333 20105=
38413 42998 00803 10188 20023 40206 52004   333 20080=
38457 32999 03401 10191 20038 40172 52010   333 20093=
38462 42999 20000 10159 21007 38761 48514 58006 82050   333 20061=
38565 32998 00303 10193 20011 40163 51006   333 20096=
38579 32998 00401 10200 20073 40174 52006   333 20062=
38583 42997 03401 10201 20094 40181 52008   333 20054=
38611 42997 20802 10190 20064 40171 51007 82080   333 20099=
38618 12999 13302 10211 20032 40142 52002 69900 81040   333 20103=
38683 42997 03605 10210 20017 40177 52005   333 20081=
38696 32999 00905 10195 20000 40144 52002   333 20089=
38812 42997 02005 10218 20032 40150 52009   333 20105=
20046=
16667 32970 00504 10222 20144 30130 40136 55000 333 20204 30/// 55109
90730 91116 555 10000 30248 20000 89049 99084 30000 1//// 20186 30190
4//// 5//// 6//// 40000 47634 44260 50000 50176=
44259 32998 81405 10197 20055 39329 40172 57028 84077=
44292 41597 80904 10095 20078 38653 40106 57010 76362 8872/=
44373 41497 42906 10139 20124 38478 40073 51003 71586 83830=
30372 42699 50203 10065 21057 40256 58009 82530=
30433 42599 30405 10136 20043 40174 57018 82201=
30554 42698 61802 10138 20015 40168 58019 82101=
30635 42899 50503 10161 20104 40143 58024 82041=
30673 41699 80000 10068 20007 40253 58003 70282 8487/=
30758 41999 81503 10179 20053 40145 57024 84039=
30802 42697 70704 10095 20078 38651 48450 57017 8435/   333 95982=
30823 42699 80905 10148 20056 40131 57015 85932=
30879 42699 52102 10191 20061 40191 58007 85200=
30935 41697 81101 10102 20077 40139 57018 76162 8357/=
30949 42999 70000 10162 20056 40145 57020 87070=
30965 42699 72305 10205 20045 40169 57019 82102=
31168 41599 82603 10054 21050 40139 52020 70286 8291/=
31300 42599 23303 10123 21014 40222 53006 81101=
31369 41498 83607 10092 20068 40073 53065 72598 8596/ 333 85918=
31416 42599 83607 10099 20058 40131 52056 84930   333 91116=
31484 42699 83203 10189 20002 40105 52039 83571=
31510 429// 03503 10175 20000 40203 52002  =
31735 42997 42807 10266 20115 40098 56000 84030 333 91012 91114=
80001
22284 00200 20000=
41598 53202 10308 20256 40087 57013 70211 85234
22283 04261 20000 30000 80269=
81202 22200 00300 20000 308// 40802 80255=
62120 14064 99564 10021 46998 /3518 10121 20092 40049 52011 22200
80105=
80091=
84600 22254 02242 20402 326// 40704 5//// 80230=
81005 22254 00130 20402 33699 40403 80175 403 80175=
82460 22254 00140 20602 32605 40802 50501 80122=
62103 14064 99499 70029 46/97 /0117 10140 20091 40127 52028 22200
00168 10602 70013 555 05111 07011 10084 11118 12440 13468 14582
15559 17103 18002 19029 35059 36051 70001 72851 73148 74019 75457
76401 80116 05112 07005 10089 11114 12441 13469 14676 15559 17103
18002 19029 35059 36051 70001 72852 73148 74019 75455 76406 80140=
62301 14063 99523 70045 46/// /3314 10140 20127 40130 22200 00167
10503=
51368 52005 53089 70005 71966 72065 73127 74499 75240 76963 77001=
52645 32680 62201 10151 20060 36825 57010 82130 333 00403
20026=
54326 32980 52204 10264 20147 40149 57011 80002 333 20128=
55228 32780 12202 10112 21131 36063 57011 81100 333 00000
20026=
55248 32780 22208 10148 21081 35953 57008 82100 333 00101
20016=
55437 32780 21605 10148 21051 36398 57007 82200 333 00100
20030=
51087 32680 32705 10129 21010 39261 40204 57004 83100 333
00601 20047=
51334 32680 23603 10152 20058 40197 57008 81132 333 00202
20052=
51477 32675 73207 10105 20027 40195 57004 82402 333 00554
20051=
52681 32680 73203 10249 20093 38605 40067 57009 81142 333
00852 20145=
45011 41450 23102 10324 20266 40088 57017 70500 82130
333 58008=
52833 32980 12503 10196 20027 37109 57013 80002 333 00652
20113=
56018 11680 40000 10142 20061 36237 57002 69911 72500 84900
333 00351 20056=
52825 32580 10704 10224 20046 37258 57024 81100 333 00553
20106=
51076 32680 62703 10120 21020 39346 40209 52001 82462 333
00601 20060=
51330 32580 70902 10088 20017 40195 57006 83102 333 00203
20036=
51232 32680 60902 10169 20013 40212 57007 83102 333 00207
20104=
91487 31499 39901 10286 2024/ 40122 70121 82208 333 569/9=
91490 31599 29901 10280 2023/ 40110 70200 81101 333 562/9=
91610 31499 71505 10270 20234 40095 56005 71322 8337/ 333 563//=
91701 31599 20910 10278 2025/ 40093 70200 82100 333 562//=
91943 36/// /1117 10266 20224 30146 40149 53021
333 55090
555 1//25 59009=
91945 36/// /0610 10248 20223 30170 40175 51013
333 55087
555 1//16 59006=
91555 31580 80916 10262 20218 40114 53008 70522 888// 333
562// 83820 88640=
91557 31480 71104 10240 20210 40135 53006 70522 878// 333
562// 82818 87645=
37985 42998 03601 10239 20194 40123 53006=
37575 42999 20502 10215  20125 40126 52008 82002 333   20165=
64500 32460 81808 10245 20220 30113 40130 885//
333 02100 20240 54610 55096 59010 83608 88630=
64501 32358 72204 10244 20214 30118 40128 878//
333 02200 20225 50314 55098 59009 83808 87626=
64503 31350 8//// 10217 20114 30086 40127 71022 885//
333 02200 20215 50124 59002 84606 88616=
64550 32460 8//// 10214 20205 39029 40131 885//
333 0//00 20202 50034 55/// 59008 83610 88623=
64551 32460 7//// 10226 20214 30100 40129 875// 910//
333 0//00 20210 50024 55/// 59008 84610 87620=
64552 32470 7//// 10200 20195 39471 40122 875// 913//
333 0//00 20197 50014 55/// 59001 84613 85620=
64556 32460 8//// 10207 20196 39546 40116 885// 912//
333 0//00 20195 50144 55/// 59001 88612=
64560 32460 8//// 10202 20199 39585 40123 885// 910//
333 0//00 20200 50134 55/// 59003 84610 88615=
64565 31204 8//// 10204 20201 39472 40107 74642 885// 903//
333 0//00 20196 50254 55/// 59014 83703 88610=
65306 31540 70000 10236 20227 39787 40116 71022 85932
333 20228 58006 85620 81933 83076 94942 95832=
65319 32460 70000 10229 20224 39603 40116 8253/
333 20223 58004 82613 87361=
65330 11330 80000 10230 20221 39680 40119 60014 79555 8597/
333 02151 20226 50174 58004 85608 81930 88461 94946 95836=
65335 32460 80000 10233 20220 39894 40119 885//
333 20227 59005 88613=
65344 12458 70000 10254 20231 30108 40118 60034 8557/
333 20249 59009 85610 87360=
71949 36/// /2203 10135 20004 39261 40103 53019 333 10168 20074=
65352 32960 70000 10245 20242 39941 40118 8707/
333 20245 58000 87363=
65361 11456 70000 10232 20229 39683 40122 69954 79596 8597/
333 20230 58007 85610 87361 81916 94942 95832=
65376 31408 70000 10220 20214 39657 40120 71794 879//
333 20216 59004 87610 81916 94945 95835=
65387 12456 70000 10234 20228 30092 40120 69914 85832
333 20234 59009 83810 84616=
89022 42/99 11005 11245 21272 39744 49784 58019=
64504 32465 8//// 10222 20216 30122 40137 885// 910//
333 0//00 20220 50164 55/// 59009 86810 88623=
83208 32970 03305 10220 20199 39440 40110 333 58003=
83362 31562 52902 10306 20201 40102 70522 81104 333
58021=
83768 21458 72503 10200 20200 39456 40098 58024 72196
83420 333 60011=
83840 21058 10155 20150 39105 40129 56025 71064 8662/
333 60051=
83971 21330 82404 10155 2//// 30103 40108 57015 7//96
887// 333 60011=
83612 32970 50208 10250 20191 39459 40067 58015 80001=
83721 21568 80511 10181 20171 39390 40116 50008 79196
8412/ 333 60031=
83722 21156 70711 10200 20194 39418 40105 55015 71022
84630 333 60061=
83827 31130 21702 10175 20162 39829 40105 58010 84730=
83248 21470 51510 10228 20215 40162 70262 85200 333 59011 60011=
82579 32970 03604 10240 20205 40112 333 58002=
82599 32570 22003 10220 20201 40143 82100 333 58005=
82193 31958 30704 10237 20237 40114 71000 80001 333
58008=
82281 32570 10264 20242 40117 82100 333 58005=
82824 32370 50000 10248 20248 40106 82530 333 58008=
82917 31940 00000 10238 20238 40110 71011 333 58009=
60351 32570 40000 10185 20133 40103 56014 82202
333 01300 20150 82826 83070 95900=
60430 31958 62612 10237 20118 40117 58008 700// 81032
333 02000 20237 81360 86073 95900=
60444 32560 52208 10213 20092 39110 48529 56008 83202
333 01200 20194 83830 83073 95900=
60467 31665 50810 10230 20124 40107 55004 700// 82202
333 02100 20230 82833 84073  95900=
60468 32670 20000 10146 20106 39215 48515 58006 81101
333 01200 20137 81833 95900=
60515 31560 40000 10204 20110 40114 56005 700// 81202
333 10800 20196 81833 83070 95900=
60581 32960 00612 10240 20118 40107 55003
333 0//00 20240=
68032 31960 11707 10138 21046 48515 53017 70411 81080 333 20111 555
10252
30108 60064=
68226 32960 02204 10070 20000 48527 52013 333 20024 555 10180 30107
60062=
60285 32550 80216 10192 20181 40148 5//// 885//
333 20190 88616=
61990 31465 50711 10257 20194 40190 71510 85800
333 20206 50500 59022 94307=
61995 11358 60707 10207 20190 39701 60024 72581 86830
333 20176 50340 59019 94309=
61988 12480 40913 10244 20174 40188 60024 84200
333 20186 50610 59019=
61986 12580 41310 10280 20218 40166 69904 84200
333 20228 59014 94310=
61974 12575 51210 10277 20223 40139 69924 85800
333 20244 59010 94311=
91753 32575 21310 10267 20223 40115 53006 82201
333 82820
555 10300 20260=
91579 36/// /1208 10238 20180 40149 53002
555 10270 20171 60004=
89050 41262 72310 11035 21051 49861 57008 70272 87500=
89512 32999 51232 11161 21242 39684 49837 57027 80004 333
21190=
89592 41999 01629 11144 21216 49795 52011 73730=
89606 42998 31607 11591 21619 36291 47670 52013 80001=
80028 31460 20000 10245 20245 30101 40118 70511 82600
333 569// 58003 82715=
80222 41/03 /0000  10108 20102 37528 74555
333 59002=
80259 11460 10202 20194 39056 69921 70552 82578
333 56009 59003 82615 86459=
80398 32864 50000 10233 20226 30008 40103 85030
333 56/0/ 59004 85358=
83899 21465 83306 10181 20175 30101 40107 58023 71092
885// 333 69921=
76122 01462 80000 10185 20185 38586 40151 52014 60031 70262
8272/ 90550 333   10261 20170 31/// 5699/ 58013 60031 82710
86557=
76225 32420 60502 10246 20161 38560 40086 53007 86200 90550
333   10318 20188 30/// 56600 58006 86820=
76323 32950 01401 10204 20120 38309 40148 52012 90550 333
10300 20170 30/// 59002=
76423 32560 00000 10160 20154 38186 40127 52013 90550 333
10292 20140 31/// 55064 21603 58003=
76458 32958 02201 10268 20241 30116 40121 52012 90555 333
10335 20250 30/// 55025 58008=
76644 32750 12303 10262 20250 30085 40097 52007 80001 90558
333   00//9 10342 20233 30/// 55093 2//// 59022 81050 91004
91523=
76685 11950 00000 10130 20111 37884 40115 52006 60181 70468
90553 333   10243 20116 32/// 55067 21330 59011 60187=
76750 01558 82205 10250 20232 30107 40117 54000 69931 70262
8322/ 90555 333   0866/ 10367 20220 31/// 55091 59027 69931
83820=
76775 31565 20401 10204 20146 38511 40094 52001 70200 82400
90555 333   10312 20134 30/// 55083 56900 59001 82627=
12215 36/// /9902 10111 20101 39859 40033 52002 69992
333 10129 20109 70009=
40155 32760 43306 10276 20200 30081 40091 52006 84200 333 20240=
40180 32560 42404 10272 20205 30056 40102 51007 84800 333 20229=
40199 32970 00310 10278 20175 30095 40098 52010 222// 00261 333 20254 51141
55107=
48331 32565 50000 10322 20234 39854 40078 82246
333 59003 70003=
48375 01558 80000 10240 20225 39862 40089 60341 76166 8457/
333 58016 60117 70541=
48381 32564 60000 10310 20238 39866 40084 83246
333 58018 70052=
48480 32562 52204 10320 20241 30087 40091 85801
333 58013 70087=
48500 32562 61202 10345 20266 30087 40093 82236
333 58018 70003=
48351 11563 81704 10290 20249 30015 40088 69921 70252 86836
333 58009 70038=
48376 01562 80000 10275 20242 39956 40098 69951 70262 84536
333 58024 69956 70069=
48377 01540 80000 10265 20236 39926 40090 60051 76066 8682/
333 58016 69906 70137=
48455 32562 72406 10317 20246 30088 40093 85846
333 58019 79999=
48477 32564 62508 10334 20239 30078 40092 82846
333 58011 70007=
48532 32562 42707 10329 20237 39985 40094 83145
333 58007=
13363 31/01 90000 10036 20033 48477 53004 74540 333 20028 31000 55087
=
28978 32699 63605 10081 20041 40225 52005 86900   333 20031=
28984 32499 80204 10069 20036 40223 52006 889//   333 20034=
35173 12596 80000 10089 20065 40217 52004 60020 8872/   333 20060=
40703 31958 00000 10216 21110 38880 40068 52009 70500 90550 333 30010
50721 70000=
40712 32960 00000 10224 20086 38652 40056 51002 90550 333 30010
50601 70000=
40729 32960 01008 10226 20053 38338 40071 50002 90545 333 30011
50671 70000=
40736 31558 43003 10278 20223 30139 40112 54000 70500 84300 90550
333 30021 50451 70000 81930 83830=
40739 32965 00000 10208 20084 38671 40111 56006 90550 333
30012 50871 70000
41992 32456 41608 10318 20250 30078 40082 83430 333 56999 58007
70000 83616 82825 83362=
44218 41698 22305 10165 20002 38525 40037 58006 70260 82100=
44225 41696 80000 10076 20030 38230 40113 51003 76162 885//=
44232 32999 30903 10183 20071 39031 40077 57034 80004=
44237 31599 70000 10141 20070 38418 40044 57023 70242 84500=
44239 31597 81103 10115 20095 38731 40074 57018 71552 886//
333 91110 555 99701=
44256 32699 72305 10197 20074 39355 40155 58005 80007=
44265 32699 22705 10134 20004 38859 40190 58005 82400=
44272 41597 82702 10060 20052 38184 40100 52012 76166 887//=
44275 32698 62707 10117 20040 37700 40030 57003 86500=
44282 32699 71402 10153 20058 38232 40032 57024 84543=
44284 32599 71807 10152 20027 37830 40023 58012 87500=
44285 41699 30000 10151 20086 38269 40038 57014 70160 83100=
44287 32599 51803 10184 20046 38090 40022 58005 82240=
44298 41696 81809 10108 20094 38660 40086 57027 79598 88300=
44305 32899 81605 10212 20082 39036 40125 57033 8803/=
44313 32999 51605 10220 20009 39395 40174 57025 80002=
44314 32998 61605 10199 20004 39153 40160 57029 80008=
44317 32998 71407 10206 20074 38947 40130 57023 80008=
44347 41697 72705 10165 20131 38645 40052 55000 71062 87200=
44352 31599 71809 10237 20084 38903 40081 58027 70812 82308
333 91112=
44358 32998 61405 10250 20119 39028 40072 57026 86070=
40250 32970 00308 10216 20166 39320 40071 52005 333 20186 300//=
40265 32560 40000 10200 20194 39352 40118 54002 85800 333 20150
30013 83825 83625=
40296 32965 20000 10302 20230 40140 54002 82100 333 20258 30023
82830=
40255 32660 33304 10216 20190 39340 40106 52005 83200 333 20190
30015 83830=
40260 32960 00000 10220 20191 39348 40093 52008 333 20155 30013=
40270 32660 33206 10204 20185 39236 40099 52006 83200 333 20175
30011 83830=
40272 31658 50000 10190 20175 39295 40102 52004 71000 85100 333
20125 30010 85830=
40340 32960 03614 10260 20255 40085 52006 333 20231 30022=
26825 11960 71804 10114 20109 40084 53003 60022 72162 8707/   333
20097   555 32010 52009=
48566 32560 60000 10315 20273 30090 40098 82845
333 58005 70117=
23921 31456 80602 10100 20092 40275 52008 75154 886//   333 20043
88712=
23955 42698 60302 10086 20030 40253 52003 83570=
23966 42497 70604 10090 20060 40244 52006 86901=
28255 32599 50901 10118 20040 40266 52006 82101   333 20075=
28661 32699 60604 10114 20023 40263 52002 84130   333 20037=
28722 32697 70000 10188 20152 40223 53004 85530   333 20122=
28748 12960 50000 10165 20121 40224 54000 69960 82042   333 20097=
29231 41498 80702 10078 20061 40211 52009 70282 883//   333 86911=
29313 42598 63504 10100 21012 40232 57004 81531=
29612 42598 63503 10103 21005 40225 58003 82230=
29634 42557 82503 10085 20021 40211 52003 8423/ 333 84830=
29838 41597 70201 10095 21014 40227 52003 70241 82332=
36061 41598 83202 10098 20045 40211 51001 70282 86531=
28419 11596 72302 10161 20149 40206 57001 69900 71098 84330   333
20082=
28621 11579 60000 10171 20141 40219 53002 69940 72998 82930   333
20138=
29023 41498 80703 10068 20050 40236 52007 70251 889//=
29122 42599 70105 10086 20034 40229 54000 86530   333 8621/=
29328 41498 83403 10061 20052 40205 52005 70282 889//   333 86914=
29348 42597 51601 10104 20030 40209 54000 81230=
29405 42697 70302 10087 20001 40244 52003 84530=
29418 42998 53402 10113 21004 40225 52000 85030=
29430 42598 20000 10107 20004 40204 54000 82100=
29605 42598 71203 10111 21033 40228 58001 81231=
29631 42597 82203 10071 20031 40211 53002 889//=
29706 42699 70804 10118 21028 40216 52001 86830=
29736 41598 80000 10083 21007 40218 58003 72584 884//=
29937 42697 51701 10128 21002 40221 52009 85500=
36034 42997 82302 10109 20004 40211 52001 8805/=
36096 41699 83303 10085 20040 40133 52007 72582 889//   333 95000=
28428 32470 83601 10152 20145 40210 53002 79598 889//   333 20113=
28537 11462 82701 10161 20145 40204 57004 60090 70298 886//   333
20114=
28541 31980 73201 10127 20092 40225 58003 72841 87030   333 20090=
28615 31450 71801 10170 20146 40217 57007 71042 82950   333 20113=
28642 31397 71205 10109 20103 40235 53008 70142 82730   333 20083=
28925 11999 61802 10182 20138 40233 58008 69950 70184 81082   333
20100=
29557 42698 70401 10100 20025 40208 58005 82250=
29625 42598 73102 10093 20019 40220 52001 86130=
29642 42560 81002 10082 20013 40217 52002 83309=
29813 42599 73105 10103 20005 40212 52002 86901=
29846 42697 81603 10115 20004 40204 54000 8355/=
38880 32997 00906 10245 21027 40175 52006 333   2011=
38507 32998 01106 10269 20104 40139 58003 333   20165=
38750 32597 22602 10282 20203 40121 53007 82100 333   20220=
38974 32998 00201 10229 21022 40170 58002 333   20128=
38911 32998 02504 10213 21002 40163 52010 333   20084=
38647 32997 00910 10224 21090 40144 55000 333   20172=
38774 32998 00902 10227 20006 40176 53013 333   20133=
38806 32997 03202 10225 20021 40169 52011 333   20077=
38886 32994 01503 10221 20094 40199 52022 333   20120=
38392 32998 00808 10196 20032 40226 52006 333   20104=
38915 32998 02501 10213 20027 40166 51010 333   20098=
38895 32997 00502 10220 20009 40190 52002 333   20124=
38763 32998 00912 10217 20002 40146 52002 333   20165=
38987 32996 00402 10200 21054 40169 52005 333   20080=
38799 32997 0503 10221 20046 40178 52004 333   20099=
38388 32998 00905 10223 21009 40199 52003 333   20101=
38656 32998 00503 10228 20013 40193 52008 333   20138=
38687 32997 0505 10212 20006 40186 52012 333   20075=
38545 32998 00204 10188 20098 40196 52007 333   20082=
62002 32960 21306 10203 20142 39454 48547 51004 80004 333 20200
51004 55104 82070=
62007 32960 21106 10225 20186 40141 53003 80002 333 20210 55087
82270=
62010 32970 20903 10215 20183 40150 54000 80001 333 20195 50804
55110 82070=
62012 31958 01805 10205 20189 4//// 5//// 71000 333 20195 50534=
62016 32562 10000 10218 20183 40152 53002 81500 333 20205 50534
55107 81625=
62053 32560 30000 10225 20177 40166 57002 83500 333 20190 55110
83620=
62055 32960 00000 10200 20164 40162 54000 333 20195 50644 55110=
62131 32966 31210 10209 20108 39843 40145 52010 83050 333 20210
51094 55106 83358=
62200 32960 00603 10267 20104 39589 40099 57002 333 20260 51504
55095=
62259 32970 00000 10258 20113 40153 53007 333 20220 51604 55100=
62271 32970 00412 10270 20119 40140 54000 333 20265 52094 55102=
43413 32498 42305 10304 20244 3//// 4//// 81106 333 5//// 81818
83280=
43418 32998 3//02 10340 20210 39993 40081 80006 333 58007 70096
83280=
43421 32998 32302 10348 20187 39979 40081 80001 333 58001 83080=
43424 32478 42306 10330 20257 30076 40080 83801 333 59003 83818
83080=
43436 32998 40903 10322 20237 30076 40080 80001 333 58011 84080=
43450 32476 52512 10306 20224 30079 40087 81102 333 58003 81818
85080=
43467 32480 3//// 10312 20231 30081 40086 81101 333 59004 81818
83080=
43473 22498 70502 10204 20168 38127 48486 87200 333 58000 70138
87807=
43497 32976 80213 10298 20245 30073 40090 84106 333 58010 84818
86280=
30385 42999 50000 10092 21098 40152 58008 85032=
30469 42699 70203 10099 20027 40220 58002 83851=
30650 42699 81402 10155 20027 40159 57012 81141=
30664 41599 51102 10169 20058 40160 58016 70341 82202=
30781 42999 80902 10095 20043 40243 58004 8807/=
30925 41597 83601 10103 20082 40127 57009 78082 889//=
31371 42999 83206 10127 21002 40239 52004 80002 =
31388 42699 83405 10117 21014 40204 52017 82502=
31478 42584 43307 10079 20013 40144 52033 84900=
31594 42999 13606 10168 20040 40190 51003 80001   333 91012 91112=
31754 42599 52707 10232 20135 40092 57010 85204=
41084 42960 00000 10280 21040 38835 48498 333 20215 59013 555 04410
50050=
41112 42960 00404 10241 21044 37944 48499 333 20154 59012 555
04410 50051=
41114 42960 01208 10252 20044 37977 48490 333 20142 59011 555
04410 50024=
37432 32697 70000 10147 20136 38953 48508 53002 70362 87300   333
20125=
44210 32699 63204 10094 21041 38467 54000 83260=
44217 32698 62305 10022 21061 37839 40179 51007 82244=
44219 41698 62703 10128 20017 38568 40128 58004 70262 86500=
44221 41596 80000 10065 20025 38534 40125 53007 76162 885//=
44224 41597 82303 10048 20040 38008 40110 51005 76166 8852/=
44229 31998 70000 10091 20065 37877 40062 57008 71562 87060
333 96021=
44263 32698 53202 10058 21074 38056 40188 52004 85500=
44291 41597 80504 10099 20082 38689 40142 58010 76366 8862/=
44329 32998 02509 10150 20078 37758 40052 54000=
44338 41699 42507 10185 20115 38439 40061 57008 70161 84200=
44374 32599 23209 10180 20068 38229 40034 54000 82400=
44385 31997 62707 10241 20135 38329 40021 56011 71022 86070=
44386 31697 71807 10231 20088 38979 40053 56016 71062 87800=
26898 31959 01601 10113 20086 40176 52006 71000   333 20068=
26997 31957 01501 10105 20086 40186 52008 71000   333 20053=
27595 32997 22303 10198 20104 40208 58014 80001   333 20102=
27612 31596 80000 10107 20097 40188 52008 71022 885//   333 20099=
27703 31992 81301 10068 20068 40191 51003 74444 80001   333 20052=
27707 31949 40000 10099 20093 40184 52004 71000 80001   333 20062=
27719 31295 73501 10107 20102 40185 52010 71042 87700   333 20086
87704=
27786 32997 01502 10197 20081 40224 58004   333 20084=
27906 31911 70000 10097 20094 40181 54000 74241 80001   333 20056=
27928 11296 83303 10114 20110 40160 58002 60010 76162 8872/   333
20121 87705=
27947 32697 61503 10167 20092 40164 53001 84530 333 20140=
27962 32997 01406 10190 20061 40198 56002   333 20123=
27983 32998 03102 10184 20109 40231 52002   333 20079=
28506 31996 32201 10197 20144 40221 57002 71011 80001   333 20137=
28711 32998 82502 10184 20104 40228 53003 8805/ 333 20130=
28807 32997 20000 10190 20118 40236 58004 80001   333 20076=
34009 32663 70202 10102 20098 40177 52001 82501   333 20084=
34123 11358 83302 10150 20150 40153 53001 60100 78082 887//   333
20141 88907=
34152 32999 11304 10179 20081 40177 53002 80001   333 20130=
34172 42970 01503 10166 20059 40216 52007   333 20116=
34186 32998 20502 10210 20086 40232 52003 82030   333 20109=
34247 32466 81602 10172 20109 40146 53007 883//   333 20173 85913=
34336 11437 82002 10147 20138 40151 53005 60090 78182 8532/   333
20161=
34391 32997 21602 10222 20061 40224 54000 82040   333 20127=
35121 32598 53001 10191 20095 40235 58001 82930   333 20127=
22113 12983 70000 10122 20090 40137 57009 69902 81041   333 20096
91001=
22217 12497 80602 10128 20109 40116 57010 69932 886//   333 20115
88712 91004=
22235 32477 21103 10119 20093 40157 57010 81640   333 20055 91005=
22349 31/03 90608 10106 20106 40158 57014 74541   333 20086 91011
91112=
22408 11228 81503 10142 20136 40070 57020 60042 71062 886//   333
20138 88704=
22602 11458 81701 10102 20098 40071 57004 60132 78082 889//   333
20101=
22721 11683 82802 10118 20112 40100 53013 60022 70282 889//   333
20118 86633=
22802 11562 71903 10129 20123 40107 53005 60042 70282 8757/   333
20121=
22820 11482 72201 10116 20114 40123 53029 60072 70282 86930   333
20109=
26059 32497 71502 10114 20097 40096 53004 87600   333 20107=
26063 32597 31302 10127 20104 40116 52014 82111 333 20117=
26094 12982 21503 10119 20107 40143 52006 60072 80001   333 20100=
26258 31460 81803 10096 20092 40108 52007 71010 885//   333 20082
88616=
26298 11496 71601 10095 20089 40155 52006 69982 71011 87600   333
20085=
26477 32970 01803 10108 20088 40134 52005   333 20064=
26585 32997 01802 10105 20090 40165 52006   333 20042=
26702 11596 20000 10126 20119 40038 53013 60082 71082 82500 333 20120=
26781 31596 21901 10089 20085 40164 52009 71040 82500   333 20039=
27402 11/93 91701 10092 20092 40179 52015 69982 74542   333 20086=
60360 32965 10000 10152 20132 40119 56006 80001
333 01100 20141 81073 95900=
60390 32558 72208 10188 20126 40106 55000 81182
333 01500 20169 81830 83358 85070 95900=
60402 32960 42408 10220 20102 40105 56010 82032
333 01700 20187 82359 83073 95900=
60419 32970 10000 10152 20112 40139 55004 80001
333 01100 20150 81073 95900=
60475 32965 20000 10174 20115 39233 48530 56012 80002
333 01400 20166 82073 95900=
60525 32960 31408 10243 20175 40141 54000 82032
333 02000 20238 82360 95900=
60531 11440 80000 10198 20190 40130 56004 69974 71012 886//
333 01657 20193 88710 95990=
60566 32960 40000 10230 20111 40126 56012 80002
333 02100 20225 84070=
60580 32960 00312 10245 20135 40108 55013
333 0//00 20244=
60590 32660 40812 10260 20085 40096 53002 83830
333 02400 20259 83840=
60630 32759 40716 10306 20083 40055 50000 82230
333 02900 20305 82856 83362=
60656 32960 02718 10182 20126 40046 58010
333 02100 20182 =
60670 32962 4//14 10272 20012 39061 48537 53003 84030
333 02500 20265 84360 95900=
60355 32960 01810 10204 20156 40105 56012
333 0//00 20190 95900=
60445 32660 40000 10187 20115 38992 48523 55006 82232
333 01300 20173 82833 95900=
60511 32560 60908 10206 20103 39057 48527 53003 83280
333 01600 20184 83826 84359 95900=
60535 31970 42408 10180 20086 38839 48521 58011 700// 82032
333 01600 20178 82360 83070 95900=
60550 31660 40000 10190 20104 38688 48537 50002 700// 84200
333 01800 20188 84833 95900=
60555 32970 20812 10230 20126 40133 52002 80002
333 20230 82073=
60559 32960 21110 10220 20180 40133 55001 80002
333 0//00  20220 82073=
60560 31960 50808 10209 20131 38948 48512 55000 700// 81034
333 01900 20207 81360 85073 95900=
60602 31960 00908 10269 20096 40051 56002 700//
333 0//00 20269 95900=
60607 32960 01002 10250 20102 40058 54000
333 20248 =
22028 32981 31609 10132 20102 40149 57012 80004 333 20102 91010
91111=
22106 32998 60401 10118 20094 40121 56006 80002 333 20104 91002=
22127 32999 51103 10120 20086 40152 57010 80001   333 20079 91004=
22324 31556 81307 10123 20121 40133 56005 71022 889//   333 20119
91012 91113=
22831 11456 83001 10129 20122 40137 53027 60012 78022 889//   333
20127 88912=
22892 32598 71706 10133 20117 40091 53009 87500   333 20127=
26275 32998 01402 10109 20089 40131 52001   333 20088=
26389 31959 21803 10105 20090 40152 52007 71011 80001   333 20074=
26695 31996 00000 10087 20082 40177 52005 71040   333 20034=
26882 31968 00000 10102 20084 40177 52006 72840   333 20048=
21432 41496 82907 11009 21019 49943 57015 71073 885// 333
88612=
21824 41930 82216 11025 21035 40102 57046 77173 8807/
333 91020 91120=
21908 41598 72702 10025 20014 40185 57041 76162 8672/=
21946 42584 83007 11025 21065 40132 57014 885//
333 88621=
21982 32582 61903 11024 21051 40031 53003 86500   333 11002 87624
91106=
25173 32498 83005 11037 21059 40061 53003 886//   333 11031 88713
91106=
25399 32599 33006 10002 21022 40063 52012 82501   333 10016 91108=
25551 11496 81401 10058 20051 49976 57021 60062 76362 8552/   333
10060=
25563 32599 71310 10043 20001 40029 56006 83530   333 10071=
31054 42699 32602 10035 21110 40203 52003 73200=
31123 42599 23301 10049 21125 40253 51003 82100=
41660 31996 02310 10256 20072 48465 70600 333 58007=
41715 31996 11302 10310 20239 40061 81030 333 56090
58006 81360=
41756 32597 71804 10280 20211 EEE 20221 40082 87400 333 56900
58011 87628=
41764 32696 22320 10315 20203 40070 82500 333 56900
58006 82635=
41768 32996 02312 10330 20213 40091 333 58017=
41780 31696 32306 10310 20206 40086 70400 83500 333 56900
58009 83630=
33177 32580 71802 10114 20084 40124 53004 87900 333 20097=
25703 42699 33602 10020 21153 40141 57011 83500=
25913 42599 80904 10061 21005 40078 57015 83537=
31088 42599 22201 10089 21044 40083 57008 82541=
31829 42998 62410 10182 20151 40093 57025 80005=
31873 42999 12205 10266 20157 40126 57008 80001=
31909 42999 60401 10221 20167 40129 57022 80001=
31960 42599 51706 10224 20169 40154 57017 81101=
32053 42698 32506 10252 20105 49999 57028 82930   333 91011 91113=
32061 42598 61910 10209 20120 40030 57022 82982   333 91016 91117=
32098 42998 81802 10234 20109 40073 57024 80004   333 91113=
32150 42598 71603 10201 20163 40134 57028 87500=
32165 42599 31804 10162 20133 40186 57017 83100=
32215 42983 61501 10118 20085 40165 57005 80002=
25954 41699 83005 10089 20019 40061 53003 70282 85571=
32618 42998 22003 10116 20097 40118 54000 80001=
16280 33497 51302 10204 20167 39931 40146 57018 85200 90545 333
20200 30/// 55096 22276 55300 85815 555 0100/=
28879 11597 60604 10089 20056 40232 52008 69900 70152 86940   333
20062=
29802 32497 70802 10121 20002 40208 53003 85931   333 20048=
29807 32597 60602 10124 20029 40189 57006 86530   333 20039=
35067 32598 33602 10131 20074 40224 52003 83300   333 20068=
35078 12698 73505 10097 20043 40223 52006 69910 87400   333 20057
85840=
35085 31498 83602 10073 20050 40214 52005 70241 886//   333 20035
88714=
35188 11598 73603 10108 20043 40200 58001 60020 70342 87900   333
20043=
35229 32998 13301 10192 20103 40232 58002 80001   333 20097=
35394 11497 81902 10068 20040 40197 54000 60020 76186 8872/   333
20030 84710=
35416 32997 00000 10179 20045   333 20096=
35426 32999 03103 10203 20038 40251 53012   333 20106=
35497 12598 82502 10091 21017 40205 57005 69900 88911   333 21003=
35532 32998 00904 10189 20055 40239 54000   333 20110=
35671 32698 63006 10152 21012 40224 58001 86200   333 20020=
35746 32999 22702 10195 20050 40233 54000 82040   333 20085=
35796 32698 73004 10147 20029 40208 58001 82202   333 20048=
35925 32998 00906 10228 21010 40245 54000   333 20061=
35953 32999 00902 10181 20013 40241 52008   333 20064=
35969 32999 00502 10185 21041 40231 52008   333 20024=
36003 32698 81003 10132 20006 40196 58004 82935   333 20060=
36152 32598 73002 10141 21009 40199 58001 82208   333 20035=
36177 32697 70000 10141 20004 40206 58003 85131   333 20015=
36208 32599 72502 10081 20002 40207 52001 87300   333 21003=
36397 32699 31101 10124 21007 40218 51003 82301=
36428 32799 22304 10117 21050 40203 51001 82200   333 20052 95000=
36864 32699 80000 10135 20062 40184 52005 8351/   333 20066=
38001 32998 01115 10220 20131 40182 57003   333 20199=
38062 32999 00405 10182 20025   333 20064=
38069 32998 00205 10198 21054   333 20037=
38222 32998 60000 10152 20078 40193 54000 80002=
38232 32998 00904 10213 21002 40204 56001   333 20087=
38341 32698 30303 10162 20053 40189 52009 83400   333 20059=
38343 32998 60501 10149 20046 80001   333 20050=
15640 31998 00000 10163 20081 40175 53003 70200 333 20118 55111 555
30006=
15730 31998 00000 10128 20103 40184 53004 70200 333 20091 50522 55095
555 30006=
36821 32898 70000 10161 20011 40194 52002 83038 333 20015=
36870 32697 81901 10131 20048 40182 52006 8523/ 333 20044 85835=
38196 32998 00503 10148 21002 40185 52015   333 20095=
38328 32999 00000 10193 20025 40166 52010   333 20079=
38334 32999 10402 10177 20036 40170 52008 81070   333 20100=
38439 32998 03202 10197 20038 40184 52010   333 20092=
48601 31560 72008 10316 20255 30089 40093 70522 82242 333 82820
87078=
48615 31470 70608 10323 20242 30086 40092 70522 84942 333 81916
84818 87074=
48647 31465 71606 10335 20219 30058 40082 70522 82142 333 82818
87078=
48657 11470 71106 10320 20241 30080 40098 69901 72582 84941 333
81917 83818 86079=
48665 32480 62407 10325 20246 30085 40095 83931 333 81917 83823=
96413 11415 70110 10280 20248 30062 40088 60031 78122 86943 333
81915 86820 85080=
96421 32580 72105 10328 20226 30056 40091 86231 333 86822 83080=
96441 32480 73008 10308 20249 30083 40088 83941 333 81915 83816
87080=
96449 32480 52708 10307 20246 30069 40089 83141 333 83614 85080=
96471 31472 73403 10300 20246 30081 40084 71522 83948 333 81814
81916 87276=
96481 32462 61307 10314 20242 30054 40076 82841 333 82817 85080=
96491 31470 50208 10320 20248 30068 40081 70522 84931 333 83816
81917 85080=
28334 11558 80000 10136 20130 40201 57007 60032 76364 8802/   333
20123 88520=
28552 32561 60702 10101 20058 40247 52008 83332   333 20082=
28825 11996 60000 10169 20150 40231 57002 60050 70282 86030   333
20121=
29111 42699 73504 10082 20030 40249 52001 87500=
29209 42598 63202 10105 21030 40239 58005 86500=
29551 42597 70000 10102 20033 40217 51002 82133=
29602 42599 20504 10105 21006 40226 58006 82201=
29636 41598 50000 10071 20002 40214 52002 70282 85300=
29654 42599 62701 10082 21012 40210 54000 86900   333 84924=
29712 42598 33304 10115 21038 40224 52003 82270=
29724 42599 69902 10107 21031 40218 54000 86300=
29726 42598 72302 10104 21004 40220 54000 87300
333 85633=
29814 42499 81102 10121 20005 40217 52003 85374
333 85915=
29827 42698 72202 10126 21022 40220 52001 84901=
29923 42599 80000 10098 21022 40215 52004 889//   333 88920=
29939 41498 83001 10090 20021 40231 52004 78082 8635/=
35026 32997 60000 10137 20111 40243 57004 86050   333 20077=
35037 32699 73501 10176 20120 40226 53001 81231   333 20097=
36021 41599 70902 10094 20036 40213 52005 70282 82960=
36022 41597 80702 10085 20025 40219 50004 78082 8396/=
36038 42598 80000 10093 20015 40217 53004 885//   333 88616=
36058 41596 82602 10092 20034 40211 52003 70282 889//   333 95072
95879=
29467 41597 82601 10044 20039 40216 58001 78088 889//=
30157 42798 53204 10094 20015 40251 58012 82230=
30439 42599 23301 10148 20068 40166 52018 81103=
38198 32999 00302 10198 20033   333 20087=
41697 32996 21802 10322 20234 40057 80001 333 56009 58002
82072=
41725 31996 01805 10320 20218 4000EE J40060 70500 333 58004=
41759 32995 02308 10300 -0228 40029 70500 333 58006=
41620 32696 50000 10265 20143 48469 85600 333 56900 58007
85635=
41746 32997 01802 1+ 10320 20234 40058 333 58000=
35700 32998 01205 10207 20023 40226 52003   333 20143=
34691 32998 01104 10221 20067 40210 5/004   333 20114=
43466 32498 62704 10316 20229 30082 40090 81206 333 58002 81818
86278=
41785 32697 22706 10305 2017 40086 82500 333 56600 58008
82635=
16738 32560 13516 10230 20113 39942 40131 56005 333 20190 30/// 90730
91120 555 10000 30230 20000 89030 99073 40000 47492 44235 50000
50164=
82410 22234 00210 20401 309// 40401 5//// 80210=
82899 22274 00280 20201 314=
48820 32598 63601 10318 20236 30076 40084 57020 862// 333 58012
86895=
48826 32597 62302 10313 20285 39953 40079 58019 863// 333 58000
86895 81995=
48839 32598 63402 10301 20263 30025 40089 58014 84908 222// 2//00
333 58012 83895 81995=
48845 32598 70502 10305 20254 30079 40086 57014 83208 333 58013
83894 87299=
48848 32570 20903 10309 20263 30075 40083 58016 82900 333 58013
82995=
48855 32570 72003 10313 20252 30074 40082 58014 83908 333 58015
82895 82995 87299=
48870 32498 20000 10338 20268 30068 40075 58021 82200 333 58008
81894=
48877 32598 29905 10326 20248 30069 40074 57023 81901 333 58009
81995 82099=
48887 32570 22301 10298 20256 30077 40083 57017 82201 333 58008
82895=
48900 32497 32804 10334 20255 30078 40088 57020 83200 333 58008
83894=
48914 32598 72703 10330 20231 30094 40096 58016 84208 333 58011
84895 87299=
48917 32598 52704 10299 20254 30092 40097 58015 82208 222// 00320
2//00 333 58009 82895 85299=
48918 32470 72703 10312 20250 30088 40099 57016 82208 222// 00310
2//01 333 58007 82894 87299=
48920 32598 22304 10307 20249 30075 40075 57020 82201 222// 00302
20201 333 58008 82895=
48803 11560 51803 10317 20236 39973 40082 57029 69911 70362 85800
333 83895=
48806 32470 63603 10296 20204 39338 40079 57025 868// 333 58004
84894 83697=
48808 31570 42502 10333 20245 39807 40076 57025 70240 84200 333
58008 84895=
48823 32598 60000 10321 20243 30080 40083 57014 862// 333 58014
86895=
48830 31570 52901 10315 20232 39788 40081 57021 70341 85200 333
58008 85895=
48840 32598 61402 10310 20255 30054 40090 58013 862// 333 58008
86895=
48852 31570 20503 10326 20245 30068 40078 58017 71791 82900 333
58010 82995=
48916 32598 61802 10311 20253 30056 40102 58013 82208 333 58003
82895 86299=
48838 32598 61402 10314 20249 30084 40090 57015 82208 333 58012
82895 86299=
48846 32598 70501 10312 20248 30080 40083 57011 82208 333 58017
82895 86299=
48863 32598 31402 10330 20232 30067 40078 58021 83200 333 58012
83895=
48866 11598 63204 10279 20206 39244 40100 57014 60011 70382 84201
333 58012 84895=
48875 32570 22302 10299 20221 39564 40084 57021 82200 333 58008
82895=
48907 32598 52304 10310 20257 30100 40102 58012 82208 333 58013
82895 85299=
84270 22282 04264 20101 327// 40602 80249=
82400 22245 00228 20206 3//// 4//// 5//// 80208=
57682 32675 70901 10334 20191 40091 57025 82140 333 20206=
58008=
61701 32460 62706 10260 20243 40106 83502
333 10310 50291 55045 59021 83612 84073=
91652 36/// /1411 10248 20222 40134=
91660 36/// /1020 10249 20212 40121=
91670 36/// /0908 10261 20237 40128=
91676 36/// /1315 10241 20191 40143=
91680 31699 52507 10264 20220 40129 53005 70301 83801
333 569/9 82830 83650=
91683 31599 71807 10238 20191 40151 53006 70322 878//
333 564// 85822 87645=
91691 36/// /1105 10237 20206 40150=
91697 36/// /1007 10231 20187 40156=
91699 36/// /0107 10220 20175 40167=
61996 12465 83406 10129 20099 40222 69924 876//
333 00809 20096 50194 55066 58023 87615 92437=
61998 32465 83414 10029 20000 39983 40019 56028 85572
333 10036 21006 31102 55001 58017 70000 85616 84458 87071=
48602 31562 73009 10310 20245 30093 40096 70522 84232 333 81820
83824 87078=
48603 31562 72202 10339 20254 30085 40089 70522 83242 333 83820
87078=
48618 31572 71108 10328 20240 30089 40096 70522 82242 333 82820
87077=
48632 31370 70203 10244 20154 38465 70522 84232 333 81706 84810
87078=
48674 31470 71109 10310 20264 30049 40098 70522 83942 333 81917
87077=
48679 11458 71111 10270 20241 30053 40099 60051 79582 84942 333
81710 81917 83820 86078=
58010 82995=
83895=
68180 12482 81312 10142 20097 39620 48571 52038 69984 885//
333 20130 555 10230 20008 91024=
68322 32987 00000 10028 21055 39189 48511 53020
333 20006 555 10185 91020=
68338 31446 70910 10087 20030 38817 48542 53016 70522 85680
333 20032 555 10153 91022=
68362 12480 21307 10060 20014 38587 48586 53016 60164 82500
333 20034 555 10058 20165 91028=
68400 12675 42308 10173 20102 30218 40294 53017 60084 84400
333 20128 555 10175 20077 91029=
68408 32980 00910 10150 20117 30202 40213 52001
333 20130 555 10160 91021=
68416 32584 11114 10080 21005 39089 48545 52010 81600
333 20065 555 10170 91023=
68478 11589 50000 10065 20008 39015 48627 52023 60184 70250 85500
333 20035 555 10066 20180 91033=
68488 11375 82008 10101 20062 39414 48619 52019 60284 71562 877//
333 20081 555 10107 20281 91031=
68530 12875 81316 10086 20028 39123 48576 53010 69954 886//
333 20070 555 10144 20005 91027=
68546 12689 61312 10061 21013 38726 48566 52008 60034 84480
333 20034 555 10078 20034 91026=
68570 12560 80000 10005 21003 38661 48640 51015 60224 887//
333 21002 555 10045 20220 91035=
68580 11482 72312 10067 20029 39096 48628 52014 60214 70262 8452/
333 20047 555 10069 20214 91033=
68614 32580 10000 10145 20049 30219 40263 54000 81500
333 20126 555 10215 91026=
68624 12582 61616 10045 21004 38840 48595 53012 69904 86600
333 20038 555 10110 20000 91029=
68674 12473 33612 10138 20104 30275 40332 54000 60184 83200
222// 2//// 313// 41303
333 20108 555 10165 20185 91033=
68712 32772 11614 10118 20051 30188 40271 55001 81040
222// 323// 41204
333 20092 555 10168 91027=
68718 32489 11404 10095 20065 30066 40316 54000 81500
333 20085 555 10168 91031=
68722 32580 41330 10024 21012 38628 48575 56007 84600
333 21029 555 10100 91027=
68832 12785 80912 10071 20049 39355 48625 52007 69904 885//
333 20064 555 10125 20000 91034=
68916 32470 11428 10120 20088 39994 40289 54000 81500
222// 20201 323// 41204
333 20109 555 10150 91028=
68920 11370 40928 10152 20117 30305 40315 55003 69914 70262 83504
222// 20302 323// 41204
333 20134 555 10179 20001 91031=
68928 12570 30520 10145 20103 30265 40339 51009 60054 83500
222// 318// 41003
333 20125 555 10164 20054 91033=
68938 12464 40924 10161 20089 30343 40352 53014 60044 84200
222// 2//// 318// 41205
333 20136 555 10174 20042 91035=
68174 32475 80913 10110 20066 38836 48561 52020 856//
333 20088 91018 555 10159 91024=
68242 32578 70713 10116 20059 38767 48543 52017 875//
333 20071 91019 555 10184 91022=
68262 32460 70404 10095 20043 38773 48580 52023 875//
333 20081 91014 555 10151 91027=
68263 12368 80825 10063 20033 38549 48572 52020 69954 877//
333 20050 91035 555 10129 20005 91026=
68350 36/// /0715 10099 20068 38727 48571 52019
333 20071 91025 555 10120 91026=
68368 12280 81121 10044 20041 38363 48569 51019 60124 87570
333 20037 555 10073 20158 91026=
68372 16/// /0708 10032 20019 38522 48583 52022 69984
333 20002 91021 555 10033 20008 91028=
68424 12582 41212 10119 20058 39258 48548 52011 69904 84500
333 20097 91016 555 10178 20000 91022=
68438 11574 71108 10083 20079 38893 48570 52020 60034 70522 85570
333 20066 91010 555 10150 20028 91026=
68442 11682 30805 10076 20031 38727 48571 52020 60244 70280 82530
333 20040 555 10105 20243 91026=
68461 12360 30819 10033 20020 38396 48586 52024 60054 81530
333 20010 91031 555 10065 20046 91028=
68512 32982 60815 10062 20003 39070 48546 57004 83080
333 20053 91032 555 10147 91023=
68588 11470 52412 10149 20103 30326 40343 52024 60394 70162 85500
333 20124 555 10154 20392 91034=
68618 32580 10510 10072 20006 39139 48580 57002 80540
333 20048 91017 555 10167 91026=
68668 11475 50204 10086 20069 39472 48630 52017 60214 70522 85500
333 20061 91005 555 10099 20209 91034=
68714 31566 11410 10124 20049 30232 40270 54000 70500 81500
333 20086 91011 555 10195 91026=
68816 32682 11515 10133 20059 30225 40276 56001 81500
333 20099 555 10174 91027=
68828 12570 11103 10120 20070 30097 40332 51005 69944 81500
333 20073 555 10160 20004 91033=
68842 11675 30813 10153 20053 30281 40356 51012 60034 70360 83500
333 20110 555 10169 20030 91035=
68858 12582 30103 10132 20079 30217 40369 52016 69924 83500
333 20095 555 10165 20002 91036=
30028 40121=
91843 31498 52208 10224 20181 40154 53025 70222 858// 333 565// 83819
85645=
93023 36/// /0413 10147 20128 40227 52002=
93196 36/// /0110 10133 20104 40269 52003=
93334 36/// /0303 10091 20025 39279 57001=
93404 36898 /1004 10151 20068 40234 57006=
93498 36/// /0309 10119 20087 40236 57010=
93527 16/// /0402 10123 20097 40233 57003 60021=
93597 36/// /3618 10123 20096 40215 57007=
93615 36/// /0303 10136 20057 40216 57009=
93678 36/94 99901 10061 20056 40202 57013=
93709 36/// /0609 10130 20029 40202 57008=
93831 36998 /2802 10134 20043 40167 57007=
93896 31498 60318 10095 20076 40190 57008 70122 866//
333 86715=
93947 36/// /3312 10087 20065 40122 57011=
93994 36/// /1112 10168 20118 40229 52009=
62309 32560 52302 10244 20161 40113 53006
85800 333 20210=
62325 32560 33207 10262 20177 40116 55001
83200 333 20240=
62332 32560 53007 10266 20173 40117 53001
85800 333 20247=
62387 32960 00114 10250 20175 40110 53011
333 20237=
62459 32960 03220 10276 20211 40080 51010
333 20240=
88968 32465 81408 11072 21098 39837 49852 57003 885//
333 56099 88618 92820 94060=
89034 32970 01626 11101 21255 39513 49835 57027=
89053 11660 82310 11028 21044 39858 49873 52001 69901
77072 8802/ 333 56059 88540 90911 92427 92800 95095=
89055 32965 32016 11130 21145 39632 49884 53004 83070
333 56050 83360 92843=
89066 11220 80000 11124 21139 39968 49977 52028 60021
71074 8471/ 333 56009 84704 88460 90015 90118 90315
90923 92800 93002 93104 95062=
71472 36/// /0203 10116 30196 40213 53004 333 10140 20116 70000=
63980 12470 41110 10286 20223 40129 69904 84832
333 20255 50750 55108 59008 84819  94312 91124=
61976 32575 21112 10259 20198 40173 8////
333 02200 20229 55000 59012 82820 92448=
61972 32575 61610 10256 20210 40188 83200
333 01900 20208 55106 58027 86820 92438=
63740 32980 10605 10205 20122 48513 81030
333 20088 59016 81359=
63799 32580 61511 10267 20220 40145 862//
333 20228 59011 86822=
63820 11480 61807 10245 20224 40153 69904 70381 862//
333 20210 59009 86819=
63624 32682 21712 10265 20169 40146 82100
333 20230 59008 82830=
63723 32580 71607 10248 20189 40146 872//
333 20226 59011 87824=
34824 32597 63402 10207 20168 40147 52004 86300 333 20194=
34858 31558 61201 10170 20157 40138 57001 71082 82332   333 20159=
34880 32997 21307 10214 20053 40185 54000 80001 333 20144=
37054 31498 63104 10185 20146 40145 52012 70298 86900   333 20165
86619=
37472 32599 71105 10241 20187 40117 53011 85231   333 20205=
34545 11498 81102 10154 20151 40143 54000 60022 78098 889//   333
20138 88912=
34579 32998 21206 10220 20065 40198 58004 333 20147=
34759 31497 80904 10167 20125 40142 57007 78022 889//   333 20151=
34838 32497 82202 10177 20162 40146 53012 60060 889// 333 20171
88913=
34929 11656 72804 10180 20164 40149 50006 60060 71098 86930 333 20166
86933=
34954 11497 80000 10188 20166 40139 52005 60040 70298 886//   333
20180 88712=
37031 12497 72201 10183 20168 40147 52003 60120 85960 333 20165
85918=
37085 31597 70907 10230 20159 40132 52002 72583 82081   333 20213=
37145 31597 82703 10171 20168 40131 52008 78098 889// 333 20170=
37171 11698 70202 10200 20187 40137 52012 60180 78098 87900
333 20188 87944=
37228 11497 81804 10158 20153 40129 52002 60050 72598 883// 333
20149=
23226 32981 21407 10132 20053 40296 52003 82030 333 20035=
23606 31962 20803 10125 20093 40239 53003 82030 333 20057=
23701 31967 01002 10129 20112 40229 54000 70240 333 20045=
26167 32962 81803 10115 20099 40117 52005 83031   333 20103=
27857 32998 21503 10179 20098 40175 52007 80001   333 20113=
28909 32997 60401 10171 20126 40234 54000 86030   333 20111=
37061 11598 80802 10195 20151 40129 53001 69960 70282 86331   333
20173=
44214 32698 62307 10078 21067 38241 40114 52002 82244=
44231 41595 80000 10105 20062 38657 40097 58006 76162 8852/=
44288 41699 52304 10148 20095 38126 40044 57013 70262 85200=
44304 32599 71110 10227 20084 38949 40066 57040 86970 333
91012 91114=
44354 41596 82004 10170 20160 39049 40071 55026 76192 8592/
333 91114=
24125 42999 82905 10050 21061 40245 57015 8805/=
24143 42999 82307 11001 21010 40232 57034 8807/=
24266 42599 62002 11010 21080 40211 57020 82530=
24329 42699 72903 10046 21063 40294 57015 84830=
24382 42799 83303 11002 21103 40183 57012 82136=
24639 42999 02603 10068 21095 40313 58015=
24641 42999 03103 10061 21111 40295 57014=
24652 42599 53207 10016 21094 40260 58006 82501   333 91012 91114=
24656 42999 82905 10030 21123 40244 58008 83037=
24671 42699 63602 11039 21120 40218 53005 86500=
24688 42699 70302 11028 21171 40163 57003 85931=
24724 42999 03601 10062 21092 40316 58008=
24768 42599 63506 10011 21118 40216 58007 86400   333 91111=
24923 42999 30704 10072 21103 40305 58007 80009=
24944 42999 21803 10067 21097 40312 57011 80001=
24951 42999 02902 10053 21088 40297 57010=
24959 42599 83404 10030 21089 40248 58003 83131=
24962 42599 83307 10025 21107 40233 58002 85331   333 91113=
24966 42699 53204 10030 21085 40206 53002 84940=
25400 41597 82905 11019 21040 40153 53003 78587 889//   333 84920
84620 91112=
30054 42598 70202 10073 21014 40279 57003 86500   333 86646=
30393 42999 20304 10033 21111 40277 52008 80001=
30493 42999 03602 10041 21081 40261 52003=
31004 42699 22903 10018 21111 40297 58002 81101=
31137 41599 73502 11025 21069 40262 52019 70272 87900=
35849 32998 00501 10186 21027 40243 52003   333 20070=
24988 42699 60402 10081 21094 40078 57013 81901=
25378 32698 71805 10038 21015 40054 54000 85532   333 10061=
31174 41498 80105 10029 20011 40164 52054 76162 8802/=
31263 42599 60502 10056 21043 39656 40219 52047 86900=
31866 42499 61809 10189 20155 40105 57020 82605   333 91011 91115=
31959 42999 51703 10211 20170 40138 57026 80002=
31989 42999 81804 10204 20168 40159 57014 80001=
32027 41597 83607 10158 20133 40041 53008 78082 889//   333 91010
91120=
32076 32998 82507 10269 20082 40035 58025 8803/   333 91010 91113=
32509 42999 21908 10135 20103 40095 57009 80001=
32594 42599 22502 10125 20076 40153 57010 81502=
32389 41699 73002 10138 20053 40085 57008 70332 82530=
32408 42999 72004 10125 20046 40102 54000 86031=
32583 42999 11404 10137 20062 40115 57013 80001=
42071 21596 80903 10220 20211 40096 70596 8432/ 333 57921 58033
6009/ 82630 81940 88460 90230=
42111  32696   41401  10284  20221  39337  40077  83130
333  58027  83840 =
42131 32996 00000 10354 20043 40070 333 58019=
42165 32696 22303 10336 20201 40074 82500 333 58017 82640=
42182 31696 10503 10342 20226 40070 70521 81500 333 58018 81640=
42328 32596 22309 10328 20213 40075 82500 333 58008 82625=
42348 32596 23405 10336 20186 40065 81530 333 58011 81830=
42361 31996 30000 10340 20227 40069 70500 83030 333 58015
83360=
42369 32596 60704 10312 20247 40073 83330 333 58022 83620 83825 81930
85360=
42379 21595 70902 10272 20255 40075 70296 85520
333 58026 6002/ 85622 87458=
42452 32596 63202 10334 20155 40080 84430 333 58010=
42475 31595 73203 10316 20257 40075 70522 85520 333 58025 85620
87460=
44212 32699 63602 10135 20002 39042 40099 58005 86200=
44213 41698 80000 10093 20081 38728 40115 52007 72162 88500=
44215 32698 53208 10098 21047 38359 40082 54000 85200=
44230 3259/ 70902 10147 20059 38727 40089 57025 86380=
44302 32999 71405 10215 20009 39082 40103 57035 87010=
44336 41599 70000 10143 20090 38633 40077 58008 70262 87200=
44341 41597 80705 10110 20098 38541 40079 58017 76396 8852/=
40875 31530 71506 10320 20256 30056 40068 51018 70521 85230
90550 333 30029 50821 70000 81830 84630 86360=
38927 32997 02803 10233 20023 40161 50010   333 20110=
44216 32599 62702 10160 20002 38913 40073 58003 85240=
44254 32998 81403 10175 20032 39028 40123 58022 88020=
44257 32598 71405 10166 20025 38966 40137 57023 87510=
12510 11/90 92410 10045 20045 38241 48361 52009 60102 76144
333 10050 20040 32/// 70367=
42309 31496 82302 10294 20254 40081 70522 8532/ 333 58012=
42314 21396 70000 10264 20255 40086 72166 85330 333 56190 57960
58016 6001/ 82708 84620 81925 86360=
42410 32596 50000 10312 20256 40079 82430 333 58016 82620 83360=
42415 31596 50000 10286 20258 40072 70562 83330 333 58015 83620
81930 83360=
42492 31496 70902 10300 20261 40071 70522 85330 333 58023 83618
83825 81930 85360=
42591 31496 50000 10314 20261 40067 70522 84430 333 58020 83618 83825
=
42701 31496 70000 10282 20222 39360 40066 70522 85330 333 58022 83615
83825 81930 85360=
42798 31596 31802 10314 20238 40066 70500 81101 333 58022 81825 83075
=
42809 31495 61804 10336 20261 40073 70522 84260 333 58018 83618 83825
85360=
42886 32496 41801 10320 20249 40077 83430 333 58023 83620 83360=
42895 32596 62002 10326 20259 40074 86500 333 58017 86620=
42971 22596 41806 10328 20261 40079 84400 333 58009 83620=
12500 12598 72704 10150 20088 39627 40027 55001 69902 873//
333 10150 20100 31009 70001 91013 91113=
37018 11597 73602 10176 20156 40133 58002 60770 72998 88900 333 20168
88926=
47058 42966 00501 10283 20135 30100 40154 57020=
47008 42970 31402 10231 20173 30124 40175 52004 80002=
47014 42950 30000 10302 20153 39747 40111 57020 83500=
47016 42570 20000 10270 20130 39423 40151 58035 81501=
47020 42965 10000 10292 20152 39986 40121 57026 81100=
47025 42975 72304 10223 20151 30136 40163 57002 84502=
47035 42970 00501 10303 20204 30131 40139 57007=
47041 42570 21602 10232 20174 30141 40176 53008 82200=
47055 42965 40502 10220 20123 30139 40182 53001 84030=
47069 42965 20502 10278 20128 30042 40134 58011 80002=
23074 42598 82703 10076 20030 40352 52009 86909 333 83623
83923=
23274 42698 63503 10093 21012 40348 51004 81201=
23383 42699 70000 10080 21033 40330 58002 84801=
23472 42599 50703 10105 21036 40339 52001 85800=
23678 42998 50602 10098 21012 40298 52010 85030=
23884 42584 40803 10119 20019 40272 52003 82201=
23891 42698 70803 10081 21002 40313 54000 84910=
24507 42698 21202 10082 21078 40340 58009 82101=
24817 42999 00505 10065 21080 40309 58006=
24908 42698 10704 10085 21074 40293 58007 81100=
29282 42598 80704 10072 20027 40254 52003 889//=
29570 41597 80202 10071 20064 40181 54000 78182 889//=
29698 41596 80601 10090 20080 40173 58007 78182 889//=
29862 41599 80304 10106 20000 40187 58001 70282 85972=
30230 42599 60505 10080 20009 40250 58002 84101=
23973 41599 50705 10124 20023 40269 52009 70182 82101=
29562 41996 83102 10053 20051 40196 54000 76162 8802/=
29581 42498 80705 10090 20059 40199 54000 886//=
29594 42599 80504 10095 20051 40190 58006 8691/=
29653 42598 83202 10073 20011 40210 52002 8632/=
29675 41558 80000 10065 20063 40177 53004 75552 8802/=
29676 41696 83302 10090 20084 40160 58005 76162 885//=
29759 42599 83501 10063 20007 40207 52001 84933=
29766 41599 80000 10082 20054 40180 52004 70282 889//=
29864 42599 63105 10097 20002 40183 58001 85901=
29869 41697 82704 10080 20061 40190 51004 78086 889//   333 95050=
29956 42698 72303 10099 20015 40195 58003 879//   333 87935 95050=
30612 41499 70303 10102 20080 40152 57018 76162 8277/=
30622 41698 80202 10155 20058 40136 57025 70342 84373=
42559 32997 43202 10332 20215 40059 82032 333 58010 82360
85070=
42571 32597 43202 10314 20230 40064 84100 333 58016=
42667 32596 43206 10318 20221 39510 40076 82130 333 58010
82825 83360=
42675 32996 02902 10306 20227 40076 333 58014=
42754 32996 53605 10310 20215 39462 40076 85030 333 58007
85360=
42779 32597 33601 10304 20228 39393 40067 82430 333 58016
82830=
42867 32597 12002 10330 20245 40073 81100 333 58011 81825=
42874 32596 32704 10318 20250 40066 83800 333 58015 81625
83830=
42934 32697 22301 10332 20207 40079 81130 333 58011 81835=
43041 32597 20202 10304 20221 39473 40071 82200 333 58008
82825=
42634 32596 42304 10316 20254 40073 84800 333 58003 83620=
42647 32596 52302 10322 20226 40097 85800 333 58005 83620 83825=
42737 32597 32006 10312 20211 40092 83500 333 56500 58010 83620=
42840 32596 42302 10300 20246 40100 84800 333 58018 82620 83825=
43003 31495 50000 10292 20240 40098 70521 83730 333 58002 81710
83620 83360=
43014 32596 59903 10298 20208 39454 40084 84830 333 58005 82620
83825=
43063 32597 30000 10296 20189 39476 40085 83500 333 58007 83626=
43192 31596 43204 10312 20250 40097 70500 82402 333 58002=
47003 42980 50502 10219 20169 30156 40160 58017 80002=
47005 42980 43602 10213 20105 38651 58009 80002=
47022 42475 31602 10223 20105 38656 58001 82002=
47028 42968 00902 10294 20213 30051 40137 57026=
47037 42570 11401 10308 20181 30020 40132 57025 81200=
47039 42560 12302 10293 20208 39957 40127 57027 81500=
47046 42969 01402 10228 20141 30147 40169 58007=
47050 42965 00000 10293 20171 30093 40124 52024=
47052 42965 10905 10248 20084 39834 40149 57009 80002=
47060 42968 00703 10264 20131 30088 40142 57017=
47061 42980 70502 10217 20148 30124 40165 57014 8253/=
47065 42975 02504 10286 20146 30100 40160 58005=
47067 42965 00902 10279 20092 30021 40132 57018=
47068 42970 00704 10273 20103 30107 40139 57017=
47070 42980 20705 10259 20126 30055 40136 57013 82032=
47075 42980 30503 10237 20125 39745 40146 57007 80002=
12400 32665 71402 10107 20102 39787 40016 56010 8495/
333 10130 20096 31008 70055=
30499 42998 00503 10076 21098 40252 58004=
30695 42999 72703 10116 21014 40240 58002 83034=
31253 42999 03607 10081 21057 40221 52020=
31295 42999 63505 10110 21022 40235 52016 80006 =
31348 41598 73603 10068 20027 40158 52043 70282 85930=
31418 41599 83603 10093 20030 40141 52053 70341 889//=
31439 41599 82305 10111 20085 40057 53036 86976   333 11110=
31442 42999 80106 10124 20006 40208 52007 80001 333 91011 91111 =
31445 42999 83206 10151 20023 40206 52011 80001 333 91113 =
31474 42599 32701 10107 20011 40172 57031 83900=
31587 42999 13404 10177 20000 40199 54000 80001=
31632 42998 83202 10236 20015 40083 53007 80007=
31713 42999 73202 10241 20076 40033 52007 80034=
31801 42598 42505 10266 20131 40104 57025 82902=
30455 42598 31603 10095 20051 38952 48524 58008 82930=
30549 42699 61802 10115 20019 38698 48495 57009 86200=
30726 42999 80406 10120 20088 40137 56017 85076=
30731 42999 82403 10180 20082 40122 58032 83051=
30739 42699 81601 10152 20061 40141 57020 8397/=
30741 42998 72001 10151 20084 38728 48513 52003 80003=
30745 42599 83603 10142 20062 40152 58016 82807=
30764 41699 70502 10175 20081 40145 58026 70242 81201=
30811 41698 70802 10119 20085 40109 57020 71522 8397/=
30822 42999 80601 10146 20093 40115 58021 83037=
30824 42599 80705 10133 20106 40115 57023 85303=
30838 41596 82302 10090 20073 40164 57005 76386 8372/=
30846 42699 80501 10165 20088 40142 58023 82146=
30859 42699 82703 10204 20065 40144 57022 81101=
30862 41699 83502 10184 20034 40161 58016 70341 81251=
30957 42999 82404 10190 20050 40143 58022 83042=
30967 42999 81603 10209 20041 40117 58013 80006=
30975 42799 72304 10201 20027 40187 58022 84731=
31825 42699 61902 10267 20164 40077 57027 82101=
31845 42599 21101 10278 20160 40120 57008 82500=
31878 42999 12303 10275 20137 40139 56008 80001=
31915 42998 01502 10280 20133 40133 57011=
31917 42599 21401 10291 20105 40142 57019 81240=
31921 42999 21902 10281 20151 40136 57015 80002=
31969 42998 61902 10240 20169 40158 57018 80003=
31981 42999 51802 10282 20111 40121 57016 80001=
31987 42999 81804 10226 20171 40151 57018 80001=
32069 42999 21810 10198 20125 40066 57024 82080   333 91014 91118=
43128 31596 49902 10310 20225 39485 40074 70522 84900 333
57932 58008 81620 83825 81930=
43150 31596 62305 10322 20267 30007 40080 70595 83101 333 58008
83820 85075=
43185 31596 60000 10334 20246 30071 40074 70521 84302 333 57911
57941 58007 82620 82925 83070=
43198 32497 32504 10274 20169 39276 40084 82501 333 56609 58004
82615=
43201 32997 13202 10286 20169 39375 40079 80001 333 58009 81075=
43213 32997 22702 10326 20214 39761 40069 80002 333 58004=
43237 32997 42706 10322 20168 39695 40076 80001 333 58004
82075=
43245 32597 53202 10346 20234 30045 40067 83401 333 58008=
43279 32597 42905 10330 20248 30056 40073 82801 333 58006
81620=
43284 32597 42910 10302 20229 39978 40091 83101 333 59001 83825=
43295 32597 52902 10280 20217 39080 48501 84401 333 58005 82618
83070=
43321 31496 40000 10308 20203 39632 40068 70522 81501 333
59002 81615 83070=
43329 32597 10902 10320 20233 30062 40075 81100 333 58006=
43344 32597 22705 10312 20220 39974 40072 81101 333 59004 81825=
43353 32496 42908 10296 20235 40091 82801 333 56609 59009 81616
83075=
24856 42699 83206 10042 21128 40273 53013 85131   333 91114=
30686 42598 82702 10113 20011 40257 52018 82202=
30777 41699 61102 10155 20077 40188 58016 70342 82252=
30961 42699 52303 10211 20175 40149 58019 84201=
30971 42599 81902 10174 20040 40171 57011 882//   333 88828=
30978 42699 82503 10203 20064 40192 58018 83281=
24982 42699 60303 10054 21127 40086 57012 81109=
31913 42999 11602 10242 20187 40128 58014 80005=
32121 42599 61910 10193 20139 40120 57020 86101   333 86830 91116=
32128 42699 22006 10202 20160 40136 57019 81131   333 91012 91114=
16066 32660 60000 10171 20138 39816 40065
57007 86400 333 86635 /////=
62306 32560 32607 10242 20155 40130 53002
83500 333 20214=
62337 32560 42603 10276 20202 40102 55000
84500 333 20216=
62366 32960 03606 10252 20171 40117 53002
333 20222=
62393 32960 03110 10250 20189 40104 53012
333 20226=
62405 32960 00000 10314 20153 40079 53003
333 20224=
62414 32960 00106 10297 20116 40076 51021
333 20268=
62417 32960 02901 10246 20170 40140 53009
333 20206=
62440 32560 13311 10254 20172 40108 55000
81100 333 20214=
62463 32960 03115 10301 20168 40079 53009
333 20272=
62318 32560 43210 10266 20155 40122 53004
84800 333 20246=
62420 32960 00107 10237 20158 40131 53008
333 20210=
62432 32960 03105 10288 20186 40092 53016
333 20247=
62435 32960 00111 10306 20187 40084 53016
333 20264=
62455 32560 43511 10258 20191 40108 53010
84500 333 20240=
42123 32996 23205 10316 20219 40087 82030 333 58034 82360=
42542 32596 41808 10324 20205 39519 40075 84400 333 58007 84830=
24738 42999 03001 10066 21083 40318 58011=
98232 31570 31805 10300 20261 40077 57002 70544 81901 222//
20101
333 56999 82920=
98325 31462 73601 10285 20245 40076 58024 70544 84370 222//
20000
333 56999 82916 82817 83359 98308=
98328 11420 80000 10188 20179 38497 40072 58012 60101 76064
885//
333 56999 88612=
98329 11470 83202 10254 20249 40088 57012 60121 76164 8557/
333 56999 85618 88357=
98336 31460 70000 10322 20284 40058 57026 71422 81278
333 56999 81615 84357=
98429 11559 72504 10287 20231 40091 57017 6///1 70566 83230
333 56999 83825 86360=
98431 31470 73001 10313 20254 40087 58012 70544 83230
333 56999 83818 87360=
98440 11465 82703 10278 20257 40075 57026 69981 71798 8597/
333 56699 82915 83816 88358=
98536 31470 82103 10304 20249 40078 58028 70544 82278
333 56599 82818 84357 84270=
98550 11458 82501 10293 20256 40075 57021 60041 79444 8497/
222// 20101
333 56999 83915 88357=
98618 11470 62702 10310 20258 40087 58012 69901 78094 83978
333 56999 81916 83819 85274=
98630 32575 40000 10316 20273 40097 58011 82201 222// 20000
333 56999 82820=
98646 32460 72305 10315 20244 40072 57023 81908
333 56999 81918 87275=
98741 31470 63202 10317 20267 40080 57022 71794 84970
333 56999 82917 81818 84358=
98747 31465 63601 10310 20244 40075 57024 70544 85902
333 56999 84917=
61024 12960 53204 10243 20193 39548 40102 69914 82032
333 02200 20235 51151 55079 58008 82364 84080=
61036 32960 7//// 10258 20226 39853 40086 84046
333 02500 20258 50731 50454 55095 59015 84364 86280=
61043 12960 72206 10242 20212 39647 40078 60064 80008
333 01757 20230 51011 50584 55093 59010 87280=
61045 12960 8//// 10234 20213 39604 40094 60114 8807/
333 02159 20230 50541 50384 55090 59013 88464=
61049 12460 70000 10228 20228 39777 40103 60424 84602
333 01259 20215 51081 50314 55052 59007 84313 85080=
61052 32960 62206 10255 20241 39843 40092 83082
333 02400 20250 50611 55065 59001 83364 85080=
61075 32665 70000 10228 20188 39796 40101 81578
333 02200 20218 50751 50334 55053 59010 81633 83364 86280=
61080 11560 80000 10220 20205 39675 40089 60054 76065 81574
333 01900 20215 50471 55096 59006 81630 88464=
61090 12960 82804 10230 20208 39595 40084 60084 8807/
333 02000 50871 50434 55101 59014 88464=
61096 12570 72202 10218 20213 39723 40108 60254 81542
333 01739 20215 50411 50254 55065 59006 81633 83365 85080=
61099 11660 8//// 10210 20207 39/// 4//// 60054 79596 8197/
333 02152 20208 50501 50164 55064 5//// 81940 88464 94940 95930=
98753 31468 62003 10316 20243 40072 57039 70544 83932
333 56999 82915 85079=
98755 31570 41404 10334 20273 40077 57031 70500 83201
333 56599 83820=
98836 31565 81803 10286 20263 40080 58038 72994 82906
333 56999 82920 85081=
42273 32596 70000 10294 20245 40087 85530 333 56290 58019 83625
87360=
43360 32597 40000 10316 20209 39927 40066 81501 333 59003=
58016 6001/ 82708 84620 81925 86360=
43053 32596 42304 10326 20277 40084 83430 222// 20801 333 58009=
40001 32970 00000 10248 20123 40060 58002 333 20170 30/// 50764=
40007 32970 02503 10236 20174 40058 52004 333 20194 30/// 50744
55///=
40045 32970 03001 10276 20164 40078 52006 333 20210 30/// 50744
55102=
40061 32970 02504 10226 20179 40077 51013 333 20192 30/// 50724
55112=
40080 32565 12402 10204 20152 39406 40085 52005 81100 333 20160
30/// 81830=
40095 32570 52901 10221 20180 39487 40095 53004 85500 333 20189
30/// 50584 55106 85626=
40009 32970 00000 10240 20177 40056 58004 333 20163 30/// =
40016 32970 02704 10252 20214 40076 51010 333 20205 30///=
40022 32565 40902 10272 20196 40102 56002 84100 222// 20000 333
20235 30/// 84830=
40030 32970 00000 10246 20163 40069 51003 333 20184 30/// 50724
55110=
40039 32970 02901 10247 20181 40066 51004 333 20188 30/// 50784
55112=
40066 32570 40000 10240 20184 40093 53001 84500 333 20212 30///
50384 84626=
40072 32970 02204 10264 20134 40037 51004 333 20210 30/// =
40083 32970 02201 10186 20042 48463 53003 333 20130 30/// 50464=
28321 11461 60000 10142 20142 40204 54000 69940 78084 84330   333
20129=
28216 11597 70901 10152 20137 40191 57011 70184 83270   333 20109=
28116 11698 73601 10136 20136 40203 57003 60140 70282   333 20124=
28240 31568 80803 10096 20088 40238 53006 70342 885//   333 20087=
23909 11297 80803 10136 20132 40209 52006 60270 70282 883//   333
20130=
22271 31/04 91405 10107 20103 40226 57003 74544   333 20087=
22550 11396 80804 10135 20133 40167 57010 69900 75052 886// 333
20127 88708=
22583 31256 70000 10086 20077 40236 57003 71044 87600 333 20044
87706=
22768 32497 61404 10175 20148 40172 53005 83639   333 20149=
22845 32498 81604 10149 20127 40145 53015 889//   333 20147 86911=
22887 31458 70902 10171 20158 40127 57002 71022 875//   333 20140
84712=
23205 32598 21103 10069 20031 40266 54000 82500   333 20016=
23418 32970 61102 10113 20074 40264 52003 82031 333 20026=
23711 32998 63502 10141 20085 40251 52010 86030 333 20047=
23804 11/91 90201 10090 20090 40218 54000 60040 74540 333 20058=
27037 31357 81902 10137 20124 40161 52011 72581 889// 333
20113 86709=
27199 32598 70000 10177 20123 40201 53003 85341   333 20135=
27271 32997 71402 10191 20099 40182 57001 87031   333 10139=
27459 31998 81701 10168 20086 40179 54000 70361 86031   333 20123=
27730 11461 83302 10121 20115 40175 52002 60010 72582 885//   333
20117=
22165 32979 01506 10105 20097 40215 57003   333 20093=
22422 31/02 90902 10098 20095 40121 57007=
22676 32982 11303 10147 20097 40202 57004 80001   333 20098=
22954 12966 72302 10162 20128 40152 53011 69900 87030 333
20130=
23405 32102 99901 10093 20089 40255 52005 74542 333 20051
89/02=
23412 32998 20802 10071 20053 40270 52002 82030 333 20007=
23803 11599 30000 10147 20125 40221 53001 60030 70298 83900 333 20091=
27066 31598 71501 10154 20123 40186 54000 70282 83330 333
20124=
27083 31556 61301 10172 20140 40196 52005 71011 86500   333 20106
86627=
27242 32884 82601 10163 20113 40164 52021 8805/   333 20138=
27329 11567 73301 10119 20107 40166 52003 69930 72582 84939   333
20125=
27373 32599 51804 10189 20085 40181 58004 82531   333 20138=
27665 32984 31602 10178 20065 40188 58001 80001   333 20144=
27823 11476 83301 10111 20103 40172 57001 60012 76166 8872/   333
20117 88713=
28009 11698 72702 10151 20138 40200 58012 60050 70298 87900   333
20099=
28411 32797 72403 10177 20134 40206 57002 81430   333 20131=
76061 8757/ 22263 00200 20807 336// 4//04 80195=
48802 32460 71802 10227 20176 38411 57019 872// 333 58007 82894
86895=
48810 32470 31402 10324 20214 39885 40082 57029 83200 333 58013
82894=
48831 32470 20000 10325 20231 30041 40077 57024 82200 333 58009
81894=
92022=
23914 11358 80901 10114 20103 40222 53009 60030 76386 8577/
333 20118=
28440 31598 81204 10104 20081 40233 53002 71022 885// 333
20117=
44277 32699 62712 10101 20065 37784 40119 57002 83554 333
91212=
70026 12466 81804 10022 20017 39978 49982 51009 69951 90553 333
10022 20006 555 91406=
70133 11566 82711 10039 21011 30024 40030 52014 69901 761// 90553
333 10083 20039 555 91406=
70231 32766 61203 10106 20050 39881 40006 53024 90553 333 10156
20022 555 91406=
70261 12866 82003 10089 20044 39853 40023 53022 69901 90553 333
10144 20039 555 91406=
70273 11766 81608 10100 20056 39996 40045 53019 69931 761// 90553
333 10122 20056 555 91406=
70308 12466 80604 10078 20072 30029 40041 53007 69931 90553 333
10089 20072 555 91406=
70316 32466 80000 10083 20056 30020 40057 53007 90553 333 10100
20083 555 91406=
70326 12666 63105 10100 20083 39989 40009 53027 69931 90552 333
10139 20072 555 91406=
70350 12264 63203 10094 20094 39979 40019 53024 60011 90553 333
10111 20061 555 91406=
70361 11356 81706 10106 20100 30117 40137 53008 60031 761// 90553
333 10122 20100 96010 555 91406=
70398 35966 03205 10111 20100 30158 40201 53001 90553 333 10156
20094 555 91406=
72304 35966 03503 10183 20178 30172 40174 58010 90551 333 10222
20183 555 91406=
72308 32966 02206 10167 20150 30162 40170 58015 90551 333 10217
20156 555 91406=
72310 32966 60000 10178 20156 30086 40167 58010 90556 333 10250
20156 555 91406=
72311 32962 00904 10172 20144 39880 40167 58010 90553 333 10233
20150 555 91406=
72312 31959 00000 10172 20156 39835 40168 58008 710// 90555 333
10217 20144 555 91406=
72314 32966 00000 10178 20156 39900 40172 58012 90551 333 10244
20133 555 91406=
72317 32964 02204 10172 20150 39851 40172 56014 90554 333 10222
20139 555 91406=
72324 31948 00000 10194 20178 39928 40172 57005 710// 90553 333
10256 20178 555 91406=
72326 31956 00000 10200 20183 39817 40164 58007 710// 90553 333
10256 20183 555 91406=
72327 32961 00000 10211 20167 39967 40176 58006 90553 333 10278
20189 555 91406=
72334 32966 00605 10239 20167 30078 40177 50000 90553 333 10294
20222 555 91406=
72340 32961 20305 10222 20183 30089 40183 51005 90553 333 10283
20194 555 91406=
72344 32966 00903 10217 20183 30017 40180 51004 90553 333 10289
20156 555 91406=
72351 32966 01304 10200 20161 39809 40168 50001 90552 333 10294
20189 555 91406=
72353 32966 61206 10189 20161 39721 40177 51002 90552 333 10272
20161 555 91406=
72356 32966 00000 10206 20172 39940 40178 50002 90553 333 10294
20139 555 91406=
72363 11966 61511 10228 20133 38953 40157 53005 69901 761// 90553
333 10272 20161 555 91406=
72365 32666 80000 10194 20144 38422 40164 50007 90556 333 10217
20167 555 91406=
72374 37958 00000 10189 20156 38541 40143 51009 704// 90556 333
10244 20183 555 91406=
72384 32966 00805 10239 20089 39949 40123 51016 90554 333 10306
20183 555 91406=
72386 32966 01907 10294 21006 39362 40106 51022 90556 333 10367
20250 555 91406=
72389 32966 02804 10233 20122 30009 40125 51017 90556 333 10317
20156 555 91406=
72394 35262 61104 10139 20128 30051 40141 51012 90551 333 10194
20117 555 91406=
72401 32966 00000 10167 20156 30109 40172 56010 90554 333 10222
20139 555 91406=
72403 32566 82005 10200 20167 30048 40162 58002 90551 333 10244
20117 555 91406=
72407 35966 02006 10183 20161 30138 40162 56006 90554 333 10217
20117 555 91406=
72408 32966 63205 10217 20172 30144 40165 53001 90554 333 10239
20167 555 91406=
72411 32961 03003 10172 20150 39751 40165 58009 90554 333 10244
20128 555 91406=
72412 37948 00000 10144 20133 39308 40170 56010 710// 90551 333
10189 20133 555 91406=
72414 32566 29904 10167 20111 39853 40202 53024 90554 333 10222
20128 555 91406=
72421 32566 80413 10144 20106 39907 40223 53007 90551 333 10228
20133 555 91406=
72422 32966 00409 10156 20117 39851 40204 50014 90554 333 10250
20133 91016 555 91406=
72428 12666 80305 10133 20122 39939 40233 51007 60081 90551 333
10189 20128 555 91406=
72432 32966 00610 10172 20139 30074 40214 53017 90554 333 10233
20128 555 91406=
72434 32766 60511 10172 20111 30030 40227 51018 90553 333 10267
20156 555 91406=
72438 11466 80411 10122 20111 39952 40243 51019 69931 761// 90555
333 10183 20122 555 91406=
72440 32964 00000 10150 20139 39750 40201 51007 90554 333 10250
20128 555 91406=
72445 32966 00710 10156 20111 39909 40231 51023 90554 333 91017
555 91406=
72446 32966 40710 10178 20167 39858 40222 51010 90553 333 10256
20150 555 91406=
72450 32966 41111 10222 20133 39713 40184 50005 90556 333 10289
20150 555 91406=
72451 32966 61615 10211 20100 39281 40168 53006 90556 333 10294
20194 555 91406=
72456 32961 00711 10189 20178 39897 40213 50008 90556 333 10256
20128 555 91406=
72458 35964 01010 10194 20178 39672 40192 50001 90555 333 10267
20150 555 91406=
72464 11866 82411 10206 20106 38580 40136 51021 69901 761// 90554
333 10311 20094 555 91406=
72465 32966 01718 10183 20144 38910 40155 51011 90556 333 10294
20133 91024 555 91406=
72476 11966 60809 10172 20122 38581 40157 53009 69901 795// 90556
333 10261 20172 555 91406=
72486 35966 02006 10111 21033 38116 40155 53016 90553 333 10239
20089 555 91406=
72488 32966 03307 10178 21028 38681 40160 51017 90556 333 10278
20072 555 91406=
72492 35966 03005 10200 20133 30115 40125 51012 90556 333 10300
20122 555 91406=
72494 32166 42712 10128 20122 30139 40146 51009 90556 333 10161
20128 555 91406=
72503 11458 83409 10172 20150 30161 40172 51017 60051 710// 90551
333 10261 20167 91020 96010 555 91406=
72508 11666 80112 10150 20133 30110 40181 53007 69931 761// 90551
333 10222 20100 91017 555 91406=
72509 12766 83609 10167 20122 30168 40175 50004 60011 90554 333
10244 20139 555 91406=
72515 11028 89904 10094 20089 39635 40215 50006 60101 761// 90556
333 10161 20094 96010 555 91406=
72518 11666 80109 10122 20100 30099 40206 53009 60031 761// 90551
333 10200 20122 555 91406=
72519 12666 83307 10122 20094 30071 40218 51004 69931 90554 333
10206 20122 555 91406=
72520 11459 83509 10122 20122 39776 40222 58002 60121 763// 8/07/
90551 333 10172 20117 96010 555 91406=
72524 12666 80215 10128 20078 39963 40247 52007 60031 90551 333
10189 20128 91022 555 91406=
72528 32666 60310 10128 20067 39972 40235 51009 8/530 90554 333
10206 20128 555 91406=
72530 32666 20510 10139 20072 30031 40276 53011 90556 333 10194
20139 555 91406=
72532 12966 20410 10139 20111 30021 40265 51012 69901 90554 333
10172 20139 555 91406=
72533 12966 00509 10100 20083 39961 40265 53009 60031 90554 333
10150 20100 555 91406=
72537 32666 20305 10089 20044 30024 40268 53004 90554 333 10189
20089 555 91406=
72546 32966 60910 10139 20117 39909 40259 50005 90554 333 10206
20139 555 91406=
72547 35966 00708 10100 20067 39900 40296 51016 90555 333 10189
20100 555 91406=
72552 12466 81013 10161 20144 39547 40202 56011 69901 90553 333
10256 20128 91019 555 91406=
72556 35466 81211 10139 20117 39669 40227 56014 90554 555 91406=
72557 17662 81211 10133 20122 39846 40246 58016 60021 761// 90554
333 10156 20133 555 91406=
72562 12462 21117 10156 20156 39212 40177 56013 60051 90556 333
10217 20133 555 91406=
72564 32966 00000 10144 20100 38159 40141 56007 90556 333 10200
20111 555 91406=
72565 12866 42308 10150 20128 38365 40131 56020 69931 90553 333
10239 20139 555 91406=
72569 12966 22004 10133 20089 38396 40152 51010 69901 90553 333
10250 20122 555 91406=
72572 32966 20105 10167 20111 38719 40133 51015 90556 333 10267
20150 555 91406=
72576 15966 00711 10156 20083 38332 40152 50003 69901 90556 333
10222 20128 555 91406=
72578 31958 03604 10078 20078 38671 40181 53010 710// 90556 333
10150 20078 555 91406=
72583 35966 43305 10200 20089 38708 40148 51011 90556 333 10322
20100 555 91406=
72591 35966 03003 10217 20139 30007 40129 51013 90554 333 10300
20172 555 91406=
72594 37008 90000 10106 20106 30137 40165 51005 730// 90553 333
10122 20106 555 91406=
72597 12966 00000 10178 20139 39681 40153 51018 69901 90556 555
91406=
72606 12966 83610 10144 20072 30170 40189 53015 69901 90551 333
10206 20111 555 91406=
72617 32966 80205 10111 20056 30081 40207 58002 90554 333 10194
20111 555 91406=
72635 32966 00205 10072 20050 39990 40288 51008 90556 333 10167
20067 555 91406=
72636 32966 00404 10072 20044 30058 40294 51007 90555 333 10167
20072 555 91406=
72637 32966 03204 10056 20056 39996 40280 51002 90553 333 10161
20056 555 91406=
72638 35966 00106 10056 20039 39871 40298 52003 90555 333 10100
20017 555 91406=
72640 32766 20610 10133 20061 30033 40288 51007 8/500 90552 555
91406=
72641 32966 03605 10078 20061 39984 40300 51009 90553 333 10161
20078 555 91406=
72644 35966 01109 10094 20078 39811 40292 51009 90554 333 10150
20083 555 91406=
72645 32966 00206 10067 20044 30046 40310 51010 90556 333 10122
20067 555 91406=
72651 12966 61110 10133 20117 39727 40247 58013 60031 90556 333
10139 20106 555 91406=
72654 11666 81411 10117 20100 39779 40249 58007 60031 761// 90555
333 10139 20117 555 91406=
72658 32966 40809 10122 20083 39988 40294 50008 90553 333 10183
20117 555 91406=
72659 11764 81110 10122 20094 39786 40256 56004 69951 761// 90556
333 10161 20111 555 91406=
72662 17056 81707 10106 20100 39092 40210 58014 60031 761// 90553
333 10156 20106 96010 555 91406=
72666 35966 43006 10128 20094 38828 40188 53010 90553 333 10217
20111 555 91406=
72677 32466 80106 10106 20094 38961 40201 50003 90556 333 10156
20100 555 91406=
72681 32966 00000 10150 20117 39175 40164 51005 90556 333 10228
20144 555 91406=
72683 15966 00904 10133 20111 38758 40179 51011 69901 90553 333
10233 20117 555 91406=
72688 32966 01406 10206 20094 39599 40126 51008 90556 333 10300
20172 555 91406=
72693 32966 02105 10183 20133 30019 40155 51016 90554 333 10294
20139 555 91406=
72694 32966 00000 10178 20139 30079 40149 51017 90556 333 10289
20128 555 91406=
72698 32966 03205 10200 20139 30143 40151 51018 90555 333 10289
20161 555 91406=
72712 35966 03304 10044 20033 39952 40184 53000 90554 333 10117
20044 555 91406=
72745 35966 00000 10044 20039 39795 40326 51010 90555 333 10100
20044 555 91406=
72747 35966 01303 10017 20011 39879 40323 50007 90555 333 10128
20017 555 91406=
72753 32966 00706 10106 20078 39948 40283 58004 90553 333 10139
20083 555 91406=
72764 11664 80704 10100 20078 39667 40271 53009 60011 761// 90552
333 10128 20083 555 91406=
72767 11661 80907 10094 20089 39574 40263 50002 60031 761// 90552
333 10133 20094 555 91406=
72768 12366 81014 10094 20083 39407 40231 50000 69951 90556 333
10122 20094 555 91406=
72772 32766 82704 10183 20100 38844 40189 51013 90553 333 10250
20139 555 91406=
72773 32966 01009 10206 20094 39064 40163 53021 90556 333 10267
20106 555 91406=
72776 32766 40305 10122 20100 38929 40196 51008 90556 333 10222
20089 555 91406=
72777 35966 00807 10111 20089 39285 40205 51010 90555 333 10217
20089 555 91406=
72779 35966 00000 10150 20072 39134 40167 51019 90555 333 10283
20139 555 91406=
72781 35966 02905 10150 20100 39751 40136 51018 90556 333 10317
20117 555 91406=
72793 32966 00204 10183 20122 30002 40164 51011 90556 333 10244
20122 555 91406=
72797 35966 00000 10083 20083 30094 40169 53010 90553 333 10183
20078 555 91406=
89062 42/98 31826 11072 21112 39918 49960 52026 333 55066=
70341 12866 80505 10083 20072 30007 40034 53018 69981 90553 333
10128 20078 555 91406=
70194 32966 00000 10030 20020 39841 52017 90555 555 91406=
10261 20150 555 91406=
72306 32962 00000 10156 20156 30016 40173 58013 90551 333 10217
20144 555 91406=
72315 37924 00000 10156 20150 39427 40181 56010 710// 90554 333
10211 20128 555 91406=
72402 35966 02206 10189 20161 30165 40165 58013 90554 333 10211
20133 555 91406=
72405 32866 82106 10217 20178 30138 40162 58001 90551 333 10250
20167 555 91406=
72406 32866 62304 10206 20172 30099 40153 58003 90554 333 10239
20117 555 91406=
72423 32966 00308 10172 20117 30034 40207 51015 90556 333 10267
20150 555 91406=
72425 32566 20310 10167 20106 39908 40207 53026 90551 333 10256
20139 555 91406=
72429 11466 80210 10117 20106 39889 40248 53010 60021 761// 90554
333 10178 20117 555 91406=
72504 17666 60112 10194 20122 30166 40171 51008 69901 761// 90554
333 10239 20167 91018 555 91406=
72507 32766 80309 10189 20117 30149 40170 50004 90551 333 10233
20111 555 91406=
72513 12566 80112 10133 20106 39862 40199 51011 60091 90554 333
10178 20100 555 91406=
72521 12466 80112 10117 20112 39782 40227 55000 60141 8/5// 90551
333 10178 20111 555 91406=
72529 32666 60316 10128 20056 30027 40230 50007 8/570 90554 333
10178 20128 555 91406=
72535 12966 00207 10089 20072 39997 40282 53015 69931 90554 333
10172 20078 555 91406=
72536 12966 00106 10094 20072 30010 40262 53007 69951 90552 333
10178 20094 555 91406=
72544 32966 00707 10128 20089 30062 40282 51016 90555 333 10194
20128 555 91406=
72592 32966 03504 10233 20133 39949 40128 51015 90556 333 10311
20189 555 91406=
72605 17966 83507 10133 20094 30063 40188 50003 69901 761// 90551
333 10183 20067 555 91406=
10156 20100 555 91406=
72201 12966 21832 10283 20239 30043 40048 58020 60051 90553 333
10283 20244 91038 555 91406=
72202 11566 81507 10261 20228 30073 40076 56019 60071 761// 90556
333 10278 20228 555 91406=
72203 12566 60203 10228 20222 30077 40085 56017 60291 90553 333
10250 20222 555 91406=
72205 11166 80308 10222 20222 30059 40095 58016 60031 761// 90553
333 10233 20217 555 91406=
72206 11556 81010 10217 20206 30115 40125 56009 60061 763// 90556
333 10228 20211 96010 555 91406=
72207 32966 00109 10222 20211 30134 40150 58007 90553 333 10244
20217 555 91406=
72208 32966 00307 10211 20206 30143 40157 58009 90556 333 10244
20200 555 91406=
72211 11361 80607 10228 20222 30066 40081 58019 60071 761// 90553
333 10239 20228 555 91406=
72212 35/// /0408 10222 20200 30099 40113 56011 90553 333 10228
20211 555 91406=
72214 32966 00407 10222 20206 30111 40130 58008 90553 333 10239
20222 555 91406=
72217 31956 00000 10178 20172 30034 40160 58004 710// 90553 333
10233 20178 555 91406=
72218 37956 02003 10172 20167 30108 40161 58008 710// 90553 333
10283 20172 555 91406=
72219 32964 20906 10200 20150 39798 40163 58012 90553 333 10256
20172 555 91406=
72223 32966 00506 10217 20167 30068 40146 58008 90556 333 10256
20211 555 91406=
72226 32966 00000 10194 20172 30084 40156 58007 90553 333 10256
20194 555 91406=
72231 32966 00610 10261 20178 30131 40144 58008 90553 333 10294
20244 555 91406=
72234 31948 00000 10211 20206 30053 40161 58007 710// 90553 333
10272 20206 555 91406=
72235 32961 00604 10217 20206 30044 40162 50000 90554 333 10272
20211 555 91406=
72240 35966 00404 10244 20211 30143 40161 50001 90553 333 10294
20233 555 91406=
72243 32966 00000 10233 20222 30119 40158 51004 90553 333 10306
20217 555 91406=
72248 32966 00000 10233 20222 30068 40162 50003 90556 333 10294
20217 555 91406=
72250 32966 00304 10261 20250 30141 40146 50004 90556 333 10294
20217 555 91406=
72251 32966 00000 10250 20233 30139 40156 51006 90551 333 10300
20222 555 91406=
72253 32966 00204 10244 20206 39881 40158 50007 90553 333 10294
20183 555 91406=
72254 35666 20000 10244 20217 39947 40158 50005 90553 333 10300
20194 555 91406=
72255 37959 00000 10250 20239 30124 40159 50004 710// 90551 333
10300 20211 555 91406=
72256 32966 00000 10228 20206 39990 40166 51004 90551 333 10306
20178 555 91406=
72259 32966 20504 10222 20172 39971 40170 53004 90556 333 10289
20189 555 91406=
72261 35966 01205 10256 20183 39797 40151 51009 90553 333 10317
20206 555 91406=
72263 32766 21205 10228 20167 39504 40168 51009 90553 333 10294
20167 555 91406=
72265 32966 01513 10244 20144 39186 40148 51004 90553 333 10294
20194 555 91406=
72266 32966 01509 10233 20156 39551 40165 51006 90552 333 10300
20172 555 91406=
72267 32966 01309 10217 20117 39068 40154 51003 90553 333 10289
20178 555 91406=
72270 12666 60103 10206 20189 38856 40159 50012 60021 90551 333
10267 20200 555 91406=
72274 32766 42804 10256 20189 39255 40141 51015 90555 333 10289
20244 555 91406=
72278 32966 62203 10300 20189 39743 40120 51013 90556 333 10344
20300 555 91406=
72280 32967 21411 10289 20228 30046 40115 51020 8/072 90556 333
10339 20278 555 91406=
72290 32966 03205 10189 20167 30128 40139 51011 90551 333 10211
20172 555 91406=
72295 32462 22904 10189 20172 30100 40138 51022 90550 333 10222
20156 555 91406=
72783 32966 01806 10206 20061 39629 40138 53017 90556 333 10300
20189 555 91406=
72785 32966 01405 10178 20044 39314 40136 51010 90556 333 10300
20111 555 91406=
72791 37016 82304 10122 20122 30167 40174 51010 710// 90555 333
10150 20122 555 91406=
60185 32460 70804 10165 20139 40150 5//// 875//
333 20150 87616=
87097 31960 61805 10187 20184 39802 40113 58011 71022
86070 333 56040 86360=
87162 32970 02004 10142 20113 30039 40109 57012=
87166 32968 02006 10127 20098 30065 40137 58013=
87178 32970 01804 10147 20123 39978 40124 58008=
87270 32965 02305 10132 20105 30086 40148
58005=
87289 32970 00000 10108 20084 30050 40132 57001=
87374 32565 71804 10138 20123 30074 40166 52008 87500 333
56500 87630=
87480 32465 21807 10128 20107 30153 40183 52011 82700 333
56400 82712=
87534 32960 02002 10077 20068 30055 40220 50001=
87576 11760 81807 10102 20086 30137 40161 51001 69931 70265 8652/
333 56369 86650 86560=
87582 11560 82012 10117 20100 30149 40156 54000 69901 70252 8357/
333 56559 83630 88360=
87593 11360 82314 10100 20079 30125 40152 54000 70252 886// 333
56499 88708=
87623 11982 02704 10026 20016 39989 40222 57011 69901
70260=
87645 32465 81814 10050 20026 39948 40159 57013 8662/ 333 56550
86715=
87692 11360 52306 10079 20073 30114 40140 57015 69901 72052 85600
333 56500 85707=
87715 32970 02905 10020 21033 39896 40225 57015=
87750 32565 22306 10047 20014 30093 40194 57012 82500 333 56500
82630=
87765 32980 01403 11012 21052 39266 48562 57011=
64851 12970 70000 10210 20207 39639 40114 60474 83034
333 02029 20202 5//// 55010 59011 83363 86080=
64860 12470 60000 10220 20217 39846 40115 60034 82502
333 0//19 20217 50591 55050 59024 82616 86080=
64870 31560 71202 10172 20169 38917 48500 74444 82532
333 01500 20160 50050 55010 59014 82616 85361 87080=
64890 11402 80000 10225 20219 40135 60214 76167 8345/
333 20215 59008 83813 88360=
64910 11458 70000 10237 20234 30108 40118 60174 70162 86570
333 02211 20235 50231 55024 59014 86613 87362=
82022 31970 70000 10256 20239 40123 71322 83031 333
58023=
87022 32660 52706 10208 20100 39620 40123 56004 82570 333 82640=
87046 32665 73205 10158 20070 39129 48520 58009 87070
333 56000 87360=
87047 32968 70000 10127 20070 38806 48524 57015 87070 333 56000
87360=
87121 31758 83604 10166 20112 39644 40154 56008 70422
885// 333 56899 88650=
87129 32970 02304 10118 20080 39932 40162 58003=
87217 32970 52308 10180 20035 39670 40158 54000 80006 333 56009
85270=
87222 32770 80904 10172 20067 39613 40126 58011 885//
333 88650=
87257 32465 51813 10124 20120 30070 40174 52009 85600 333 56400
85715=
87311 32965 71826 10102 20025 39546 40238 52025 87070 333 56000
87360=
87320 32670 70000 10166 20073 39644 40167 51007 87500 333 56900
87640=
87344 32565 61810 10114 20078 39650 40195 57008 83570 333 56440
83620 83360=
87349 32570 11809 10108 20075 39798 40192 58005 81500 333 56500
81625=
87371 32462 72318 10138 20130 30154 40174 52015 87500
333 56400 87615=
87416 11565 82302 10071 20056 39490 40247 51013 60031 72162
888//=
87418 11660 81807 10079 20064 39436 40252 51012 60041 76062
885// 333 56499 88640=
87448 11462 80000 10084 20079 39652 40220 58009 60031 76066 8352/
333 83615 85530=
87453 32970 42308 10084 20056 39718 40208 51001 84070
333 56050=
87467 32970 02304 10071 20064 30060 40196 51008=
87506 11970 02302 10012 21019 38637 48557 57013 69901 70050
333 95090=
87509 11970 02708 10055 20015 39374 40250 57012 69921 70151=
87791 32580 62902 10030 20022 30184 40193 57020 86500
333 56600 86620=
87803 32980 02520 10046 21022 39276 40208 57020=
87828 32980 00000 10028 20012 30102 40156 57041=
87860 32580 82911 10125 20007 30061 40116 57021 8557/ 333 56569
85630 83360=
87909 32980 02318 10094 20000 39998 40072 53003=
87925 32980 02712 10049 21004 30012 40035 56011=
87938 11560 82331 10047 20027 39873 49942 55007 69921 75055 8662/
333 56559 86727 84550=
94103 35/// /0302 10302 30110 40117 57019=
94147 35/// /1106 10292 30084 40103 57009=
94151 35/// /1604 10290 30094 40114 57012=
94290 35/// /0000 10250 30120 40127 57010=
96995 46/// /1213 10260 20217 39820 40116=
89573 32970 70929 11120 21184 39802 49825 52016 8701/=
94289 35/// /0802 10248 30114 40123 57015=
94307 35/// /0603 10260 30113 40153 57017=
94371 35/// /3607 10236 30125 40131 57010=
96011 32460 70905 10324 20231 30061 40084 57019 84932
333 56000 57903 81917 83817 80960=
96035 11456 73304 10302 20249 30058 40090 57026 60031 70596 86236
333 56000 57802 86818 80857=
96073 32560 70000 10314 20246 30075 40082 56024 83222
333 56000 57802 83820 80860=
96109 32460 61707 10334 20246 30051 40090 56014 83231
333 56000 57802 83817 80830=
96145 32468 62006 10306 20240 30092 40097 58012 85231
333 56100 57812 85817 80859=
96163 11560 72004 10276 20256 30083 40090 57010 60011 72162 84871
333 56000 57802 84820 80830=
96179 11460 70000 10280 20250 30048 40104 57027 83218
333 56000 57862 83817 80850=
96195 31464 70000 10311 20242 30068 40100 57031 84231
333 56000 57803 69907 84815 80850=
96221 01558 70000 10255 20240 30098 40113 57011 60111 72966 84332
333 56099 57932 57832 60117 81920 80980 83820 80858=
96237 11465 71012 10135 20237 30052 40094 56023 69921 70262 84272
333 56000 57801 84818 80858=
96249 32562 71110 10316 20232 30030 40090 57028 84232
333 56300 57831 84820 80863=
96295 32465 40608 10311 20236 30008 40112 56032 83201
333 56000 57801 83815 80858=
96581 32460 71204 10308 20242 30097 40104 57020 85931
333 56000 57962 57862 81912 84813 80980 80860=
96749 31558 60413 10326 20256 30085 40098 56026 70522 82521
333 56000 82625 84462=
97028 01462 73004 10299 20252 30079 40085 69901 79521 84921
333 56000 57901 69907 81919 83619 86460 80960=
97048 31458 70000 10286 20220 30050 40074 71792 84971
333 56000 57903 81917 80858 86460=
97072 32460 63206 10324 20221 30010 40112 57020 84271
333 56000 57801 83818 80860=
97086 32562 32008 10300 20227 30079 40102 56017 82271
333 56000 57000 82820=
97120 31460 20905 10320 20230 30056 40089 56025 81132
333 56200 57822 82818 80860=
97180 31558 23010 10324 20168 30066 40085 56017 70511 81232
333 56000 81820=
97192 01564 70402 10264 20243 30055 40120 60021 71562 83520
333 56000 60027 83620 87460=
97502 32463 71903 10295 20240 30084 40091 57025 84142
333 56000 57802 84815 80857=
97530 32468 71204 10290 20247 30072 40075 57035 83383
333 56000 57903 81915 83815 85362 80960 80833=
97560 11464 50908 10297 20236 30068 40082 53025 60171 70162 83832
333 56000 57804 82818 80860=
97580 32462 20908 10306 20248 30092 40100 57010 82201
333 56000 57803 82814 80840=
97686 31461 53305 10244 20194 38340 40071 56018 71522 84842
333 56000 84811 80859=
97690 31462 41208 10326 20233 39962 40064 56028 70181 83862
333 56000 57802 82816 84080 80856=
97724 31459 72002 10282 20235 30071 40086 57011 70522 84832
333 56300 57832 82818 85359 80842=
97748 31460 61504 10304 20237 30111 40117 56007 82232
333 56400 57842 82818 84075 80856=
97760 31461 71804 10282 20244 30082 40092 57023 71522 86802
333 56000 57801 83815 84617 80860=
97796 01440 72207 10270 20253 30063 40101 57022 60011 79596 86962
333 56000 57901 60017 83915 85616 80980=
97876 32462 51805 10308 20242 30050 40082 56026 84131
333 56000 84810=
97900 31560 41213 10296 20227 30094 40125 58012 70521 84100
333 56300 57831 84820 80825=
97980 32465 31612 10287 20225 30075 40078 57030 81101
333 56000 81818 83080=
96001 32562 70000 10290 20238 39970 40113 56004 84232
333 56000 57802 84820 80860=
96015 32465 72909 10294 20233 30078 40085 58019 84272
333 56600 57868 84818 80860=
96033 01462 50509 10306 20254 30077 40084 57031 60041 70196 82931
333 56000 57902 57802 69907 81920 82817 80980 80860=
96075 32465 53605 10309 20264 30091 40102 53010 82211
333 56000 57802 82817 80857=
96087 11460 61204 10272 20237 30069 40102 56019 60021 72996 84931
333 56300 57932 57832 81917 83817 80970 80840=
96171 31460 70606 10314 20239 30062 40087 57028 70242 85222
333 56000 57801 85816=
96535 31465 73203 10304 20249 30077 40097 56030 71792 86931
333 56700 57901 57872 82915 84814 80981 80866=
96559 32462 50000 10362 20249 30049 40086 57022 84131
333 56800 57806 84812 80858=
96615 32465 70000 10304 20228 30046 40100 57022 84231
333 56000 57800 84812 86362 80857=
96745 32560 60408 10340 20223 30088 40096 56027 83221
333 56200 57821 83820 80825=
96747 31558 60905 10320 20223 40091 70521 84231
333 56000 84820=
97016 32567 42304 10310 20227 30084 40085 57023 82132
333 56000 57801 82820 80860=
97630 31458 71804 10266 20239 39936 4//// 56023 71522 87842
333 56000 57801 86813 80865=
97790 32560 30908 10290 20241 30065 40086 57014 81132
333 56300 57832 81820 80858=
64400 11430 81802 10224 20215 30112 40132 69904 75155 888//
333 01951 20211 50134 55054 59007 82810 84616 88626=
64401 32460 42806 10211 20178 39/// 40/// 84500
333 0//00 20195 50444 55/// 5//// 84613=
64402 32458 82802 10204 20187 39542 40109 885//
333 0//00 20/// 50514 55/// 59012 88613=
64450 32459 52802 10219 20186 39760 40112 81102
333 01800 20215 50374 55073 59011 81810 85080=
64452 32460 80000 10236 20220 39/// 40/// 889//
333 0//00 20/// 50264 55/// 5/// 87610 81930 94941 95831=
64453 32965 62404 10204 20174 39342 40105 86060
333 0//00 20/// 50334 55/// 59004 86363=
64458 11460 70000 10209 20204 39719 40114 60174 70170 8257/
333 01900 20204 50154 55065 58004 82613 87363=
64459 12460 70000 10220 20210 39/// 40/// 60124 8357/
333 01869 20194 50154 55/// 5//// 83613 87363=
89816 46/// /1217 11240 38158 4//// 5////=
78866 32583 21106 10276 20227 310148 40152 57009 82100 333 58022
82820=
67009 32582 21616 10265 20168 30037 40157 52010 82800
333 01900 10302 20204 50724 55/// 81820 91123=
67012 11582 6//// 10282 20197 30152 40162 52013 60014 70162 86200
333 0//53 10317 20210 50274 55/// 86820=
67019 32582 11608 10270 20143 30097 40163 52011 81200
333 01800 10299 20204 50454 55/// 81820=
67025 31575 61602 10240 20187 30070 40171 52014 71500 86800
333 01800 10263 20190 50334 55/// 81820 86640=
67027 32582 12002 10277 20148 30145 40166 51014 81800
333 01900 10320 20206 50274 55110 81823=
67045 32982 00404 10278 20150 30072 40161 51008
333 01700 10347 20210 5///4 55///=
67072 32481 52606 10235 20196 30181 40184 52009 85800
333 01500 10262 20180 50314 55/// 84817 92428=
67073 32582 1//// 10273 20212 30142 40168 51012 81800
333 0//00 10312 20213 50//4 55/// 81823=
67083 31458 30000 10155 20119 38776 48545 52016 71011 83200
333 00600 20102 50364 55089 83817=
67095 32482 30000 10235 20180 30175 40182 51011 83800
333 01600 10262 20165 50224 55069 83817=
67117 32582 1//02 10282 20183 30158 40167 52012 81830
333 02000 10295 20208 50284 55/// 81823=
67137 31470 30000 10208 20141 38927 48528 51010 70510 81530
333 0//00 10254 20124 50304 55/// 81617 83360=
67143 32580 1//10 10254 20174 30165 40172 51008 81230
333 0//00 10266 20180 5///4 55/// 81820 92438=
67152 11960 12002 10226 20100 39246 48552 51014 69934 7051/ 81030
333 0//19 10298 20175 50534 55/// 81360=
67157 32580 4//// 10246 20222 30176 40183 53009 83830
333 0//00 10/// 20/// 50664 55/// 82820 83360=
67161 32582 22802 10256 20226 30164 40173 51013 82200
333 01900 10319 20200 50194 55/// 82820=
67197 32982 01202 10251 20158 30152 40162 52017
333 01300 10288 20144 50654 55107=
67017 32581 3//10 10261 20168 30156 40162 51008 83800
333 02100 10271 20206 5//// 55/// 83823=
67020 32582 10000 10268 20160 30131 40158 52007 81200
333 0//00 10350 20179 50944 55/// 81823=
67023 11465 81806 10234 20187 30170 40176 52015 69914 76011 8387/
333 0//11 10264 20185 50414 55/// 81817 83640 87460=
67037 32582 3//// 10267 20182 3//// 4//// 5//// 82830
333 0//00 10330 20202 50404 55/// 81820=
67107 12580 50000 10187 20133 38507 48545 52009 69974 82870
333 00819 10262 20094 50304 55/// 81820 84360=
67131 32582 22404 10260 20199 30156 40161 52013 82800
333 0//00 10290 20203 50294 55/// 82820=
91570 36/// /1110 10250 20200 30133 40136 55002
555 10290 20229=
91574 36/// /1210 10241 20181 30139 40145 55007
555 10264 20216=
91598 36/// /1108 30125
555 69924=
91754 22475 71108 10267 20234 40124 53006 87200
333 84813 84819
555 10295 20242 60024=
71900 36/// /2901 10073 30095 40108 56018 333 10103 20052 70000=
22282 31996 50402 10101 20095 40248 58001 74342 80004   333 20064=
22292 31/03 91504 10085 20085 40246 58002 74544   333 20058=
22365 31998 01503 10102 20098 40199 57012 72840   333 20092=
22438 31550 70906 10121 20110 40119 57013 71022 87500   333 20103=
22446 32270 71010 10142 20127 40147 58015 83661 333 20101=
22563 32984 11403 10148 20106 40190 58017 80001   333 20091=
22854 32884 81402 10150 20113 40147 53006 86041   333 20136=
22867 31989 41501 10160 20133 40162 53005 70281 80001   333 20119=
22939 11497 72002 10135 20106 40176 52049 69900 70281 87500
333 20149 87917=
22996 12598 30202 10170 20136 40199 58004 60020 81960 333 20123=
27008 12482 82303 10119 20092 40158 52017 60010 889// 333
20085 85918=
27225 33467 81701 10119 20085 40177 52022 885//   333 20121 88619=
27252 32984 61803 10172 20080 40170 54000 82031   333 20120=
27369 32999 51803 10187 20107 40186 53002 69900 82031   333 20138=
27393 42998 61802 10165 20123 40212 53001 86030   333 20130=
27479 32999 62103 10211 20090 40192 54000 85031   333 20172=
27532 11296 83003 10135 20122 40173 53013 69900 72582 8637/   333
20144 85706=
27648 32962 81301 10151 20104 40172 53002 85039   333 20117=
27679 32977 51602 10182 20076 40211 58005 80001   333 20116=
28214 31941 71501 10135 20129 40205 54000 71041 87030   333 20097=
34504 31497 20104 10140 20125 40163 54000 71044 82600
333 20101=
31285 41598 62703 10046 21006 40197 52027 70282 84057=
31561 41798 83606 10226 20120 40067 53023 72581 81963 333 91011 91116=
32010 41396 83205 10160 20139 40019 53010 79598 889//   333 85707
83919 91110=
10022 20006 555 91406=
91165 12566 40313 10250 20206 30105 40154 52011 69931 90553 333
10294 20244 555 91406=
91182 32566 20307 10261 20200 30139 40145 53018 90553 333 10317
20250 555 91406=
91190 12566 40606 10250 20200 30124 40154 53015 69901 90554 333
10283 20222 555 91406=
91212 32566 49903 10294 20244 30001 40084 56010 90554 333 10311
20244 555 91406=
91285 31466 80103 10250 20230 30139 761// 90601 555 91406=
91334 32474 83608 10294 20249 30073 40076 55010 83171 333 56899
70000 555 91406=
91348 32474 30505 10299 20246 30036 40088 55007 82201 333 561/9
70000 555 91406=
91356 31566 82503 10294 20243 30084 40091 53003 7152/ 81178 333
56599 70000 81821 86363 555 91406=
91366 11466 81207 10276 20253 30093 40097 53005 60031 78082 86471
333 56323 70051 555 91406=
91376 32474 89902 10283 20246 30091 40095 53007 8487/ 333 56999
70318 555 91406=
91408 11574 52408 10309 20244 30052 40090 57017 69901 70280 83231
333 56599 70099 555 91406=
91413 32469 52608 10314 20247 30064 40083 57015 83171 333 56699
70025 555 91406=
91765 11469 81414 10279 20243 30120 40124 51008 69901 70282 8746/
333 56399 70000 555 91406=
23975 42599 61002 10103 20038 4//// 86900=
23987 41599 60602 10124 20038 40152 52006 70282 83401=
29253 41599 80000 10077 20030 40224 52003 70252 8392/=
29553 41659 80000 10063 20019 40208 53024 78082 8892/=
29471 42599 80405 10054 20040 40212 52001 889//   333 88923=
29481 42599 61104 10076 20040 40270 53002 86300=
91353 32574 43103 10311 20267 30079 40084 56007 82201 333 567/9
70000 82819 555 91406 91434 11474 81402 10250 20234 30104 40107
56010 60771 70282 882// 333 56399 70767 88817 555 91406 91425
32474 32207 10289 20261 30073 40074 56005 86230 333 5655/ 70000
86818 83362 555 91406=
29263 42699 71104 10105 20004 40229 58004 82105=
38599 32998 02506 10204 20027 40167 52006 333   20098=
38954 32999 00000 10197 21033 48480 56002 333   20123=
38713 32699 13601 10166 21007 48530 52010 81100 333   20069=
38933 32997 02702 10248 20082 40195 53006 333   20112=
43333 21496 70000 10270 20253 40097 75065 85410 333 56599 58005 6008/
84618 83822 86070=
16252 32975 00000 10132 20074 39221 42781 50008 90545 333 20120
30/// 55106 22227 55300=
20292 41480 72908 10002 21001 40042 53009 70262 875// 333
87612 91114=
20674 42884 62410 10070 20040 40270 54000 86030 333 91113=
20744 32998 32503 10060 20039 40276 57003 80001 333 20025
91107=
20891 41497 72608 10053 20041 40199 57010 70282 8655/ 333
86610 91113=
23022 32497 71304 10092 20067 40304 58003 84530 333 20047
91107=
23032 32968 20805 10091 20056 40320 52002 80001 333 20027
91107=
23256 32599 61204 10087 21036 40352 52004 82131   333 21004=
23330 12598 80902 10104 20074 40315 52008 69950 8655/   333 20074=
23552 32997 13602 10092 20021 40331 52004 81030   333 20005=
23631 32999 71002 20073 40312 52012 87050   333 20077=
23734 32998 61101 10110 20056 40310 52007 86030   333 20039=
23849 42996 20705 10104 21033 40290 52002 80001=
23933 32997 50301 10100 20011 40305 52001 80002   333 20017=
28064 32599 50702 10111 20045 40287 52003 82201   333 20013=
28275 32599 80803 10116 21012 40275 52005 82102   333 20022=
28493 32999 73601 10084 20017 40252 52006 87070   333 20031=
28698 12998 60503 10079 20013 40237 52004 69900 86050   333 20042=
23929 32578 70903 10113 20045 40288 52009 86930   333 20040 86920=
28383 32998 79901 10083 20029 40268 52005 87050   333 20002=
28586 32999 60402 10094 20017 40244 52002 86050   333 20010=
28588 32582 60804 10097 21009 40250 52002 82550   333 20017=
28688 11998 20705 10112 20002 40240 52005 60020 70261 82031   333
20061=
28791 11599 30405 10115 20017 40227 52003 60030 70262 83550   333
20066=
29367 41349 83202 10070 20065 40206 58001 78086 889//   333 88910=
29789 41596 80000 10082 20051 40127 57008 78082 889//=
30117 42660 40604 10082 21033 40250 58001 82101=
30253 42698 60503 10110 20053 40240 57013 82331=
23426 32483 81504 10103 20099 40302 52009 886//   333 20071=
23625 11396 81101 10100 20094 40295 52008 69900 75352 886//   333
88708 20071=
28367 32596 50803 10106 20015 40272 52002 83201   333 20041=
28382 32999 70303 10092 20009 40269 52006 87050   333 20000=
28491 32998 70102 10075 20017 40253 52004 87070   333 20010=
28593 32584 70203 10100 20023 40241 54000 82530   333 20012=
28797 32597 80403 10112 20000 40217 52004 85331   333 20068 83826=
23662 32999 20703 10103 21033 40307 52002 81101   333 21005=
23788 42598 71004 10114 21030 40300 52010 87100=
23986 42699 40705 10077 21038 40266 51001 83201=
36103 42699 82302 10059 20036 40136 56001 889//   333 95000=
36259 41599 83302 10035 20006 38202 48469 52004 71522 86902=
36307 41596 82701 10092 20059 38868 48454 52004 76162 8802/   333
88530 95090=
42909 32597 31608 10302 20232 40095 83800 222// 20000 333 58006
82620=
28319 31499 52401 10160 20146 40204 53002 70182 82950   333 20132=
28434 11527 80000 10133 20104 40206 58012 69970 72582 889//   333
21011=
28451 32998 60905 10118 20045 40245 52004 83031 333 20067=
43086 32597 70000 10326 20247 39898 40071 84331 333 57962
58007=
60490 32458 50000 10212 20198 40121 56001 83532
333 01700 20204 83616 83073 95990=
60571 32962 20918 10275  20088 39206 48514 55004 80002
333 0//00 20268 82073 95900=
60611 32660 61208 10257 20107 40086 58007 85201
333 0//00 20252 85840=
60680 32970 31012 10291 20027 38657 48526 53004 82032
333 01800 20226 82362 95900=
60620 32760 31715 10280 21024 40048 50000 82202
333 20260 82856=
60640 32758 50000 10295 20081 40081 53005 84230
333 20260 84850=
57736 32562 13201 10318 20208 39671 40086 57029 81100=
57732 32663 60403 10324 20214 39567 40077 57030 85240=
57742 32573 70902 10274 20199 39134 40101 57022 878//=
57741 32580 20000 10322 20206 39769 40084 57030 82100=
57636 32765 72001 10334 20198 39713 40087 57029 8213/=
57647 32566 70901 10310 20188 39642 40099 57031 878//=
57637 32561 60000 10308 20198 39481 40083 57029 86800=
57734 32567 62205 10330 20197 39550 40069 57029 84130=
57739 32665 13601 10321 20212 39666 40086 57030 81100=
82825 83360=
83618 83825 85360=
58006 82620=
57911 57941 58007 82620 82925 83070=
98223 31565 62505 10311 20269 40080 57020 75044 82972 333
56999 82920 83360=
98444 32468 72502 10305 20262 40073 57031 83337 333 56999
82918 87270=
98543 32470 70000 10317 20244 40074 58021 83208 333 56999
83818 87272=
98637 31475 62005 10316 20263 40081 57017 70544 82308 333
56999 82912 85272=
44207 41597 80903 10074 20050 38277 40112 58014 76162 8852/=
44241 41596 80000 10109 20102 39189 40118 56018 76366 8872/=
44294 41697 81409 10101 20082 38511 40085 58015 76362 8802/=
44203 41596 80000 10081 20056 38352 40094 57011 76162 882//=
43371 32997 12902 10322 20226 30013 40084 80001 333 59004
81080=
58002=
95982=
58974 32960 83210 10279 20192 39950 40066 57012 80007=
58968 32564 13304 10307 20220 30056 40063 57016 81400=
59158 32960 03603 10313 20195 39966 40062 57018=
59358 31556 23405 10315 20241 30049 40060 58020 70500 82200=
59559 32565 32504 10309 20233 30037 40064 57016 83500=
59562 32670 61903 10305 20236 30047 40058 58017 86500=
59567 32568 30705 10260 20214 39703 40070 58014 82130=
59792 32563 20203 10324 20263 30075 40080 57016 82200=
59997 32565 22403 10344 20282 30073 40086 58019 82100=
60425 32658 33102 10229 20189 40116 57008 81830
333 01200 20227 81833 95990=
89568 46/// /13// 11428 37263 4//// 5////=
89774 46/// /06// 11451 37038 4//// 5////=
61085 12960 60000 10228 20215 39/// 4//// 60044 81048
333 01819 20214 50414 5//// 81364 86280=
61091 12965 82202 10220 20207 39668 40116 60364 8807/
333 01922 20202 50371 50314 59007 88464=
71060 36/// ///// 10064 20060 38686 40236 51010 333 10197 21005
70000=
71403 36/64 /3214 10152 20111 30091 40103 56015 333 10179 20130
70000=
48625 31463 69903 10332 20252 30032 40076 70522 82242 333 82818
86078=
63612 32980 1//03 10295 20152 40109 80001
333 20251 59019 81079=
63641 11310 71626 10165 20154 69904 75442 877//
333 20157 87709=
63714 12982 10000 10151 20118 48515 60114 81030
333 20082 59009 81359=
63661 32980 00000 10166 20136 48540
333 20099 59005=
63695 32482 11102 10166 20137 81500
333 20094 81617=
63708 12580 10908 10218 20148 48500 60204 81502
333 20151 58012 81624=
63766 32475 81105 10190 20166 48528 8557/
333 20182 59006 85619 87459=
63793 32580 82507 10222 20157 40157 882//
333 10200 59006 88821=
63602 32570 30000 10229 20190 81931
333 20168 81820 81925 83080
555 10203=
63658 32580 42704 10240 20165 38881 48510 81205
333 20184 59009 81820 84080
555 10192=
63726 11908 51402 10135 20129 38147 48403 60044 74244 85030
333 20108 55049 59007 85363
555 10132=
63654 32560 51203 10236 20210 83502
333 20180 55108 83618
555 10216=
96509 32460 50000 10310 20238 30072 40078 57026 85201
333 56000 57801 85818 80860=
96633 11560 42107 10294 20249 30082 40090 57024 60011 70196 81511
333 56000 81623=
96685 31559 70000 10338 20207 30057 40084 57032 70542 85231
333 56000 57802 83820 82620 80867=
97230 32562 31308 10302 20233 30101 40107 57018 82201
333 56300 57831 82820 80856=
96525 32560 30000 10330 20234 30070 40076 57023
333 56000 83820=
96529 32560 50000 10330 20238 30073 40097 57023 83101
333 56000 83820=
96595 31461 70000 10342 20217 30051 40098 57025 70520 87832
333 56000 57802 82815 85613 80860=
96607 32462 70000 10316 20232 30105 40119 56004 84201
333 56000 57841 57841 84818 80865=
96695 31558 61506 10308 20242 30092 40097 56020 71521 85230
333 56300 57832 85820 80867=
96853 32562 42408 10332 20219 39965 40090 57028 83101
333 56000 57802 82820 80862=
96925 32465 40912 10311 20239 30102 40109 57017 83201
333 56200 57820 83817 80860=
96935 32960 21108 10328 20205 30090 40097 57024 80001
333 56000 82080=
96973 32562 20915 10312 20249 30101 40105 57010 82101
333 56200 57824 82821 80840=
96987 32562 31806 10302 20241 30053 40112 57019 82508
333 56000 82620=
44242 41695 80205 10112 20112 39240 40102 57025 76166 8802/=
44243 41597 82301 10102 20085 39359 40139 58016 76366 8852/=
44266 32598 52309 10088 20032 37762 40094 54000 84840=
44286 41698 81601 10097 20090 38581 40090 58024 70262 885//=
44325 32699 22303 10200 21143 38785 40054 58004 82103=
44416 42272 82801 10254 20235 39337 333 58025=
44438 41560 82026 20255 39965 40089 75025 8582/ 333 58026=
43110 32598 43204 10300 20224 40103 84500 333 58004 84620=
43314 32597 22705 10286 20246 40010 53204
83501 333 59002 82620 83075=
43311 32597 30000 10310 20254 40098 82802 333 59002 82620=
41150 42966 02906 10327 20168 40038 333 20268 30021 59012=
58004 82615=
83818 83080=
41571 32597 42309 10250 20172 40091 81530 333 56990 58028=
30599 44160=
82993 32570 30000 10222 20217 40155 83200 333 58001=
68994 12497 53217 10047 20008 30184 40212 52002 60014 83532
222// 00056 20000 300// 40000
333 20003 91024 555 10050 20013 91021=
71841 36/// /2901 11007 21007 39914 40315 50000 333 10145 21017
70000=
85442 32465 52102 10127 20117 40187 51001 85500
333 56400 85615=
64700 11458 82608 10215 20215 39770 40109 60304 71022 8572/ 90600
333 01969 20212 50781 ///// 55041 59010 85710 88463=
64701 33962 72404 10240 20210 4//// 85075 90555
333 0//00 20230 50342 5//// 85365=
64702 33462 70000 10236 20227 4//// 86780 90600
333 02100 20224 50324 ///// 55/// 5//// 86720 83365=
64706 13562 70000 10220 20220 40117 60104 82672 90600
333 02000 20212 50144 ///// 55044 59013 82620 87365=
64709 33565 71808 10235 20220 4//// 82532 90605
333 01200 20210 50294 ///// 55/// 5//// 86620 83365=
64750 11558 81604 10203 20194 39733 40145 60044 79796 8297/ 90600
333 01554 20200 50850 ///// 55064 58029 82620 81950 88464 94943
95873=
64753 33962 10404 10290 20085 4//// 80002 90600
333 02200 20225 50840 ///// 55/// 5//// 81075=
64754 33965 62204 10245 20224 4//// 86030 90550
333 0//00 20215 50264 ///// 55/// 5//// 86365=
64756 13962 70000 10240 20223 40094 60064 87070 90600
333 0//29 20235 5//// ///// 55097 59026 87365=
68268 32474 71307 10129 20055 38951 48568 52020 877//
333 20116 555 10223 91025=
68296 11175 82310 10154 20075 39956 48596 52023 69904 70252 886//
333 20137 555 10168 20000 91028=
71433 36/// /3605 10113 30083 40314 53006 333 10143 20095 73842 555
30499 4816/=
68906 12498 42608 10083 20038 30108 40173 52008 60424 84100
222// 0//// 333  20079 91014 555 10126 20415 91017=
71923 36/// /2321 10118 20085 39687 40116 56015 333 10141 20060
70000 555 32129 4021/=
87648=
42189 3159/ 40903 10314 20249 4078/ 70522 84500 333 56600 58020
84630=
42260 31596 20906 10360 20276 40069 81531 333 58019=
41262 36/// /1021 10317 20179 39864 40067
333 0E025 20252 58015=
41594 22697 50510 10250 20204 40086 83430 333 56990 58023
6006/=
41718 32697 22705 10335 20213 40069 82200 333 58013=
41515 32997 00000 10227 20080 48488 333 58022=
28696 32999 70305 10104 20000 40239 52003 87080   333 20008=
41055 42960 01605 10300 21020 38354 48495 333 20200 59015 555
04410 50023=
43221 32597 42303 10346 20234 30055 40068 82431 333 58000=
34240 32970 81406 10169 20076 40156 57001 86031 333 20149=
80002 22254 00250 20503 30000 4//// 5//// 80200=
58020 84630=
57960 58016 6001/ 82708 84620 81925 86360=
58022 83615 83825 81930 85360=
58007=
28786 32598 80904 10113 20006 40229 52008 85352 333 20063=
34560 32997 61408 10201 20074 40174 50001 83031 333 20151=
83231 333 56599 70099=
78318 31565 52609 10272 20229 30067 40071 56006 71791 82942 333
06999 10283 20229 32/// 57971 59041 70356 81820 83073 819//=
78325 11440 72212 10263 20242 30010 40067 58009 69901 72996 85973
333 06999 10281 20230 31/// 57970 59041 70090 84820 829// 91119
91522 90401=
78333 11/10 61804 10290 20248 30085 40091 58010 69901 70296 81203
333 01900 10327 20222 30/// 59025 79999 818// 85070=
78338 31560 30000 10240 20216 30081 40094 58012 71311 83903 333
06909 10300 20229 30/// 57984 59031 82820 81922=
78349 31550 11901 10245 20229 39996 40105 58008 71300 81900 333
06900 10319 20210 30/// 57910 59018 81820=
78360 31568 71404 10291 20252 30106 40115 58006 71322 85905 333
06909 10323 20255 30/// 57959 59007 70018 83820 819// 92083=
78369 31464 20000 10252 20234 30110 40122 56009 71300 82900 333
06900 10321 20250 30/// 57930 59004 81818 819//=
71490 36/// ///// 10091 20071 39732 40032 56018 333 10123 20027
70000=
64456 11358 80000 10198 20195 39/// 40/// 60314 76166 8577/
333 01221 20187 50284 55/// 5//// 85806 88360
94313 31780 80505 10305 20038 39628 40151 56017 70222 8453/=
94451 31984 03102 10315 21020 39653 40166 70200=
94642 31984 02709 10258 20027 39988 40165 70200=
94643 31970 02705 10282 21029 39973 40165 70200=
61202 12965 02208 10305 20133 39543 40071 69934
333 ///// 20307 52094 55082 58012=
61223 32560 52604 10265 20221 39800 40095 81242
333 02400 20263 58019 81830 83365=
61226 32960 72608 10282 20212 39799 40085 86082
333 02800 20284 50754 55105 58008 86365=
61230 32960 72204 10265 20239 39819 40082 85072
333 01300 20255 50662 55/// 58012 81365 83075=
61233 32960 72208 10250 20236 3//// 4//// 80002
333 02300 20249 5//// 87075=
61240 32960 61806 10283 20211 39772 40089 86042
333 02400 20280 5//// 55079 58012 86365=
61257 32560 12602 10269 20255 30049 40101 81500
333 02700 20269 50364 55/// 58003 81630=
61265 32965 70000 10260 20231 3//// 4//// 8707/
333 01700 20255 50850 55/// 5//// 87365=
61270 12965 72202 10228 20208 39739 40112 60114 87070
333 01929 20225 5///0 55047 58035 87365=
61272 32960 70000 10240 20228 39780 40102 87070
333 01600 20240 50720 55067 59007 87465=
61277 32970 70000 10245 20223 39792 40107 87040
333 02400 20245 50294 55093 58001 87365=
61291 32960 72002 10225 20224 39694 40101 87072 962//
333 01900 20222 58004 87462=
61293 32970 51804 10226 20217 39696 40104 85040
333 01500 20224 50630 55055 59010 85365=
61296 32970 70000 10235 20223 39718 40107 8707/
333 02000 20232 50410 55030 58001 87364=
61297 32967 70000 10220 20205 3//// 4//// 8707/
333 01900 20220 50280 55013 5//// 87463=
89004 31975 61629 11228 21254 38711 49795 57030 73633 80002
333 21242 91030 555 11185 90965=
65578 46/// /2703 10228 2//// 30129 40139 53015
333 2//// 58001=
34363 32984 21105 10188 20050 40198 54000 80002 333 20140=
34357 32998 71005 10173 20090 40162 53003 86032 333 20148=
98526 11568 80000 10264 20254 40087 57022 60031 72184 8327/
333 56999 83820 88358 98315=
58009 83630=
38836 42699 20000 10246 20120 40105 58002 82100 333 20112=
71421 46/// /////=
68454 12358 11112 10084 21043 3//// 48/// 5//// 60094 81100 333 20042
555 10153 20090=
87395 32965 03204 10093 20076 30090 40136 50001=
42027 21595 83201 10116 20105 38444 48530 76166 8472/ 333 58030
6010/=
27113 12497 82302 10126 20111 40164 52023 60010 883//   333 20124
86912=
98132 31468 43203 10292 20250 40019 58012 70544 83201
333 56799 83817=
98222 31575 62203 10290 20256 40091 58010 70544 82330
333 56599 81920 81820 85360=
98233 31570 50000 10330 20247 40069 57026 70544 85300
333 56999 85920=
98324 11475 83602 10266 20241 40080 58025 60131 70286 81277
333 56999 81815 83358 88270=
98425 31458 72202 10290 20237 40084 56005 71444 85960
333 56999 82915 83617 86278=
98427 31475 70901 10312 20258 40072 57036 70544 82978
333 56999 82918 84357=
98428 11560 82702 10286 20257 40091 58013 60291 70564 8347/
333 56999 83620 88359=
98430 31562 72404 10294 20245 40088 58020 70594 83270
333 56999 83820 85358=
98434 11465 82101 10275 20255 40080 58020 60071 70362 8427/
333 56999 84818 88357=
98435 31470 82202 10290 20248 40075 57021 72994 8327/
333 56599 83818 88359=
98446 31475 72805 10312 20263 40066 57024 70544 82201
333 56599 84915 86373=
98447 32480 72206 10300 20251 39800 40081 50000 85201
333 56599 85818 83070=
98538 31468 73203 10316 20265 40084 58017 71544 83938
333 56699 83911 83815 86272=
98546 32575 82203 10318 20256 40077 57018 83267
333 56999 83820 84360 88275=
98548 32470 72702 10304 20246 40086 58017 83208
333 56699 83816 87272 98323=
98553 31462 81403 10324 20254 40076 57026 71544 84967
333 56999 82915 84358 88272=
98558 31468 82401 10310 20280 40089 58019 70544 82278 222//
20101
333 56999 82818 88272=
98642 32472 61102 10316 20260 40073 57031 82942
333 56999 82915 86072 98318=
98644 31468 61404 10325 20250 40083 56025 70544 82908
333 56999 81915 86272=
98751 31473 70000 10290 20240 39403 40070 57027 70544 84970
333 56999 84915 83356=
98752 11470 53101 10303 20274 40085 57018 60031 72998 83971
333 56999 82916 84358=
98851 31470 40203 10308 20259 40076 5/032 70544 82201
333 56999 82818 83075=
27051 32965 61502 10178 20126 40163 53014 80001   333 20140=
42479 32596 53206 10310 20263 40067 84501 333 58022 84625 84070=
43303 32597 42302 10320 20233 39834 40070 81530 333 58005=
48620 31458 72207 10326 20243 30077 40086 70522 83942 333 81917
83820 86078=
59015 83825=
67767 31950 01802 10260 20127 3//// 48/// 70500 333 20200 5////=
67843 31965 71506 10160 20079 38943 48491 70500 87030 333 20144
58022 87363=
67969 11570 82112 10112 20098 39242 48552 69914 75052 885// 333
20111 58092 88620=
68524 12486 81118 10063 20034 39148 48564 53013 69954 885//
333 20060 555 10155 20005 91025=
71805 43/// /1410 10165 20163 30092 40119 57024=
54940 00001 12222 21628=
84435 22213 00010 20404 300// 40404 51111 80090=
42339 31696 32301 10328 20206 40081 70500 83500 333 58006
83635=
58012 82620=
40373 42960 03604 10342 20050 39655 40043 333 20248 59011=
37735 42799 20301 10201 20149 40142 53011 82100=
67205 32575 60206 10253 20207 40176 81230 333 20215 50930 55108 58006
555 10000=
67217 32970 00310 10201 20137 38670 48534 333  20134 50540 55101
59001 555 10000=
67237 32970 00208 10218 20176 40172 333 20171 50//0 55/// 58002 555
10000=
67261 31957 01508 10260 20189 40119 70400 333 20244 50100 55103 59024
555 10000=
67283 32980 00707 10252 20220 40154 333 20214 50//0 55098 59024 555
10000=
67315 32575 72405 10230 20210 40193 52026 8427/ 333 20215 50//0 5075/
555 10000=
67323 11456 81814 10190 20161 40219 52037 60014 75152 882// 333 20178
50500 55091 555 00011 10000=
30829 41598 81804 10145 20071 40125 57011 78082 8397/=
10161 20128=
43117 32597 52701 10314 20242 40075 85400 333 58007=
91317 32469 23302 10311 20270 30080 40084 56010 82100=
67765 31950 00907 20085 38680 48523 70500
333 20160 58024=
67775 31920 11313 10162 20134 38527 48531 70511 81030
333 20142 58026 81360=
67779 31968 00504 10230 20136 39065 48522 70500
333 20186 58009=
67853 31970 01113 10176 20124 38950 48514 70500
333 20146 58026=
67867 11350 81210 10110 20103 38618 48543 69904 75052 886//
333 20105 58050 88708=
67881 11401 81606 10120 20120 38626 48550 69904 75054 885//
333 20110 58050 88610=
67965 11460 81323 10108 20089 38721 48538 69904 76052 885//
333 20108 58053 88610=
67975 11375 81515 10120 20106 38990 48562 69904 75152 886//
333 20103 58070 88708=
67977 11220 81905 10135 20132 39767 48592 60064 75355 876//
333 20135 58110 87706 88610=
67983 11000 81706 10113 20113 38957 48568 60034 75965 8877/
333 20101 58069 88700=
67991 11660 81105 10150 20103 39691 48560 69904 70592 885//
333 20142 58073 88630=
91203 32469 62705 10321 20249 30086 40091 56015 83302=
91324 32474 80906 10324 20273 30082 40084 83201=
91339 11474 80000 10282 20242 30071 40077 56015 60061 70282 8636/=
78016 32564 31801 10239 20191 30129 40170 57002 83800 333
10300 20239 70000=
58001 81817=
64108 11457 80000 10232 20214 39763 40123 60134 70562 885//
333 59010 88615=
83649 32570 73202 10230 20207 40160 57028 83530=
83942 22274 00300 20401 33400 40803=
89014 46/// ///// 11214 39184 4//// 57010
333 11161 21218=
83349 32570 22805 10211 20207 40166 82200 333 59011=
83378 32970 00000 10209 20162 38967 48531 333 58013=
60690 31916 02706 10305 20086 40128 53010 706//
333 02700 20290=
83780 21456 70000 10180 20158 39239  40135  53002  71096
83510 333 60041=
82398 32470 31307 10254 20221 40134 83500 333 58001=
44348 41496 82007 10138 20128 38633 40096 57024 70266 8807/=
12120 32497 72002 10105 20100 30020 40027 52009 875//
333 10133 20082 31004 55025 70008=